<?xml version="1.0" encoding="UTF-8"?>
<gpx xmlns="http://www.topografix.com/GPX/1/1" xmlns:gpxtpx="http://www.garmin.com/xmlschemas/TrackPointExtension/v1" xmlns:xsi="http://www.w3.org/2001/XMLSchema-instance" xsi:schemaLocation="http://www.topografix.com/GPX/1/1 http://www.topografix.com/GPX/1/1/gpx.xsd" version="1.1" creator="gpx.py -- https://github.com/tkrajina/gpxpy">
  <trk>
    <name>gpx from keep</name>
    <trkseg>
      <trkpt lat="39.897788" lon="116.636118">
        <time>2020-08-01T11:12:19Z</time>
      </trkpt>
      <trkpt lat="39.897752" lon="116.636093">
        <time>2020-08-01T11:12:24Z</time>
      </trkpt>
      <trkpt lat="39.897717" lon="116.635926">
        <time>2020-08-01T11:12:29Z</time>
      </trkpt>
      <trkpt lat="39.897717" lon="116.635926">
        <time>2020-08-01T11:12:34Z</time>
      </trkpt>
      <trkpt lat="39.897614" lon="116.635739">
        <time>2020-08-01T11:12:39Z</time>
      </trkpt>
      <trkpt lat="39.897523" lon="116.635578">
        <time>2020-08-01T11:12:44Z</time>
      </trkpt>
      <trkpt lat="39.897523" lon="116.635578">
        <time>2020-08-01T11:12:49Z</time>
      </trkpt>
      <trkpt lat="39.897371" lon="116.635623">
        <time>2020-08-01T11:12:54Z</time>
      </trkpt>
      <trkpt lat="39.897267" lon="116.635708">
        <time>2020-08-01T11:12:59Z</time>
      </trkpt>
      <trkpt lat="39.897128" lon="116.635823">
        <time>2020-08-01T11:13:04Z</time>
      </trkpt>
      <trkpt lat="39.897128" lon="116.635823">
        <time>2020-08-01T11:13:09Z</time>
      </trkpt>
      <trkpt lat="39.896994" lon="116.63588">
        <time>2020-08-01T11:13:14Z</time>
      </trkpt>
      <trkpt lat="39.896898" lon="116.635949">
        <time>2020-08-01T11:13:19Z</time>
      </trkpt>
      <trkpt lat="39.896898" lon="116.635949">
        <time>2020-08-01T11:13:24Z</time>
      </trkpt>
      <trkpt lat="39.896802" lon="116.636004">
        <time>2020-08-01T11:13:29Z</time>
      </trkpt>
      <trkpt lat="39.896712" lon="116.636047">
        <time>2020-08-01T11:13:34Z</time>
      </trkpt>
      <trkpt lat="39.896619" lon="116.636101">
        <time>2020-08-01T11:13:39Z</time>
      </trkpt>
      <trkpt lat="39.896619" lon="116.636101">
        <time>2020-08-01T11:13:44Z</time>
      </trkpt>
      <trkpt lat="39.896514" lon="116.636173">
        <time>2020-08-01T11:13:49Z</time>
      </trkpt>
      <trkpt lat="39.896514" lon="116.636173">
        <time>2020-08-01T11:13:54Z</time>
      </trkpt>
      <trkpt lat="39.89627" lon="116.636275">
        <time>2020-08-01T11:13:59Z</time>
      </trkpt>
      <trkpt lat="39.89627" lon="116.636275">
        <time>2020-08-01T11:14:04Z</time>
      </trkpt>
      <trkpt lat="39.89614" lon="116.636413">
        <time>2020-08-01T11:14:09Z</time>
      </trkpt>
      <trkpt lat="39.895997" lon="116.636509">
        <time>2020-08-01T11:14:14Z</time>
      </trkpt>
      <trkpt lat="39.895997" lon="116.636509">
        <time>2020-08-01T11:14:19Z</time>
      </trkpt>
      <trkpt lat="39.895974" lon="116.63665">
        <time>2020-08-01T11:14:24Z</time>
      </trkpt>
      <trkpt lat="39.896108" lon="116.636826">
        <time>2020-08-01T11:14:29Z</time>
      </trkpt>
      <trkpt lat="39.896195" lon="116.637031">
        <time>2020-08-01T11:14:34Z</time>
      </trkpt>
      <trkpt lat="39.896195" lon="116.637031">
        <time>2020-08-01T11:14:39Z</time>
      </trkpt>
      <trkpt lat="39.896193" lon="116.637254">
        <time>2020-08-01T11:14:44Z</time>
      </trkpt>
      <trkpt lat="39.896202" lon="116.637507">
        <time>2020-08-01T11:14:49Z</time>
      </trkpt>
      <trkpt lat="39.896202" lon="116.637507">
        <time>2020-08-01T11:14:54Z</time>
      </trkpt>
      <trkpt lat="39.896139" lon="116.637744">
        <time>2020-08-01T11:14:59Z</time>
      </trkpt>
      <trkpt lat="39.896116" lon="116.637974">
        <time>2020-08-01T11:15:04Z</time>
      </trkpt>
      <trkpt lat="39.896171" lon="116.638213">
        <time>2020-08-01T11:15:09Z</time>
      </trkpt>
      <trkpt lat="39.896171" lon="116.638213">
        <time>2020-08-01T11:15:14Z</time>
      </trkpt>
      <trkpt lat="39.896191" lon="116.638448">
        <time>2020-08-01T11:15:19Z</time>
      </trkpt>
      <trkpt lat="39.89622" lon="116.638677">
        <time>2020-08-01T11:15:24Z</time>
      </trkpt>
      <trkpt lat="39.89622" lon="116.638677">
        <time>2020-08-01T11:15:29Z</time>
      </trkpt>
      <trkpt lat="39.89626" lon="116.63892">
        <time>2020-08-01T11:15:34Z</time>
      </trkpt>
      <trkpt lat="39.896273" lon="116.639154">
        <time>2020-08-01T11:15:39Z</time>
      </trkpt>
      <trkpt lat="39.896279" lon="116.639396">
        <time>2020-08-01T11:15:44Z</time>
      </trkpt>
      <trkpt lat="39.896279" lon="116.639396">
        <time>2020-08-01T11:15:49Z</time>
      </trkpt>
      <trkpt lat="39.896277" lon="116.639637">
        <time>2020-08-01T11:15:54Z</time>
      </trkpt>
      <trkpt lat="39.896269" lon="116.639863">
        <time>2020-08-01T11:15:59Z</time>
      </trkpt>
      <trkpt lat="39.896269" lon="116.639863">
        <time>2020-08-01T11:16:04Z</time>
      </trkpt>
      <trkpt lat="39.896262" lon="116.640072">
        <time>2020-08-01T11:16:09Z</time>
      </trkpt>
      <trkpt lat="39.896245" lon="116.640278">
        <time>2020-08-01T11:16:14Z</time>
      </trkpt>
      <trkpt lat="39.896258" lon="116.640423">
        <time>2020-08-01T11:16:19Z</time>
      </trkpt>
      <trkpt lat="39.896258" lon="116.640423">
        <time>2020-08-01T11:16:24Z</time>
      </trkpt>
      <trkpt lat="39.896275" lon="116.640544">
        <time>2020-08-01T11:16:29Z</time>
      </trkpt>
      <trkpt lat="39.896295" lon="116.64076">
        <time>2020-08-01T11:16:34Z</time>
      </trkpt>
      <trkpt lat="39.896257" lon="116.640994">
        <time>2020-08-01T11:16:39Z</time>
      </trkpt>
      <trkpt lat="39.896257" lon="116.640994">
        <time>2020-08-01T11:16:44Z</time>
      </trkpt>
      <trkpt lat="39.896241" lon="116.641212">
        <time>2020-08-01T11:16:49Z</time>
      </trkpt>
      <trkpt lat="39.896232" lon="116.64144">
        <time>2020-08-01T11:16:54Z</time>
      </trkpt>
      <trkpt lat="39.896232" lon="116.64144">
        <time>2020-08-01T11:16:59Z</time>
      </trkpt>
      <trkpt lat="39.896219" lon="116.641695">
        <time>2020-08-01T11:17:04Z</time>
      </trkpt>
      <trkpt lat="39.896195" lon="116.641903">
        <time>2020-08-01T11:17:09Z</time>
      </trkpt>
      <trkpt lat="39.896257" lon="116.642142">
        <time>2020-08-01T11:17:14Z</time>
      </trkpt>
      <trkpt lat="39.896257" lon="116.642142">
        <time>2020-08-01T11:17:19Z</time>
      </trkpt>
      <trkpt lat="39.896233" lon="116.642442">
        <time>2020-08-01T11:17:24Z</time>
      </trkpt>
      <trkpt lat="39.896189" lon="116.642696">
        <time>2020-08-01T11:17:29Z</time>
      </trkpt>
      <trkpt lat="39.896189" lon="116.642696">
        <time>2020-08-01T11:17:34Z</time>
      </trkpt>
      <trkpt lat="39.896165" lon="116.642904">
        <time>2020-08-01T11:17:39Z</time>
      </trkpt>
      <trkpt lat="39.896198" lon="116.643175">
        <time>2020-08-01T11:17:44Z</time>
      </trkpt>
      <trkpt lat="39.896246" lon="116.64343">
        <time>2020-08-01T11:17:49Z</time>
      </trkpt>
      <trkpt lat="39.896246" lon="116.64343">
        <time>2020-08-01T11:17:54Z</time>
      </trkpt>
      <trkpt lat="39.896235" lon="116.643643">
        <time>2020-08-01T11:17:59Z</time>
      </trkpt>
      <trkpt lat="39.896241" lon="116.643888">
        <time>2020-08-01T11:18:04Z</time>
      </trkpt>
      <trkpt lat="39.896241" lon="116.643888">
        <time>2020-08-01T11:18:09Z</time>
      </trkpt>
      <trkpt lat="39.896231" lon="116.644129">
        <time>2020-08-01T11:18:14Z</time>
      </trkpt>
      <trkpt lat="39.896229" lon="116.644382">
        <time>2020-08-01T11:18:19Z</time>
      </trkpt>
      <trkpt lat="39.896209" lon="116.644618">
        <time>2020-08-01T11:18:24Z</time>
      </trkpt>
      <trkpt lat="39.896209" lon="116.644618">
        <time>2020-08-01T11:18:29Z</time>
      </trkpt>
      <trkpt lat="39.896212" lon="116.644878">
        <time>2020-08-01T11:18:34Z</time>
      </trkpt>
      <trkpt lat="39.896203" lon="116.645138">
        <time>2020-08-01T11:18:39Z</time>
      </trkpt>
      <trkpt lat="39.896203" lon="116.645138">
        <time>2020-08-01T11:18:44Z</time>
      </trkpt>
      <trkpt lat="39.896213" lon="116.64538">
        <time>2020-08-01T11:18:49Z</time>
      </trkpt>
      <trkpt lat="39.896164" lon="116.645625">
        <time>2020-08-01T11:18:54Z</time>
      </trkpt>
      <trkpt lat="39.896158" lon="116.645857">
        <time>2020-08-01T11:18:59Z</time>
      </trkpt>
      <trkpt lat="39.896158" lon="116.645857">
        <time>2020-08-01T11:19:04Z</time>
      </trkpt>
      <trkpt lat="39.89611" lon="116.646062">
        <time>2020-08-01T11:19:09Z</time>
      </trkpt>
      <trkpt lat="39.896123" lon="116.646246">
        <time>2020-08-01T11:19:14Z</time>
      </trkpt>
      <trkpt lat="39.896123" lon="116.646246">
        <time>2020-08-01T11:19:19Z</time>
      </trkpt>
      <trkpt lat="39.896139" lon="116.646509">
        <time>2020-08-01T11:19:24Z</time>
      </trkpt>
      <trkpt lat="39.896117" lon="116.646756">
        <time>2020-08-01T11:19:29Z</time>
      </trkpt>
      <trkpt lat="39.896014" lon="116.646883">
        <time>2020-08-01T11:19:34Z</time>
      </trkpt>
      <trkpt lat="39.896014" lon="116.646883">
        <time>2020-08-01T11:19:39Z</time>
      </trkpt>
      <trkpt lat="39.895895" lon="116.646878">
        <time>2020-08-01T11:19:44Z</time>
      </trkpt>
      <trkpt lat="39.895787" lon="116.646808">
        <time>2020-08-01T11:19:49Z</time>
      </trkpt>
      <trkpt lat="39.895787" lon="116.646808">
        <time>2020-08-01T11:19:54Z</time>
      </trkpt>
      <trkpt lat="39.895685" lon="116.646782">
        <time>2020-08-01T11:19:59Z</time>
      </trkpt>
      <trkpt lat="39.895592" lon="116.646742">
        <time>2020-08-01T11:20:04Z</time>
      </trkpt>
      <trkpt lat="39.895516" lon="116.646693">
        <time>2020-08-01T11:20:09Z</time>
      </trkpt>
      <trkpt lat="39.895516" lon="116.646693">
        <time>2020-08-01T11:20:14Z</time>
      </trkpt>
      <trkpt lat="39.895376" lon="116.646612">
        <time>2020-08-01T11:20:19Z</time>
      </trkpt>
      <trkpt lat="39.89521" lon="116.646502">
        <time>2020-08-01T11:20:24Z</time>
      </trkpt>
      <trkpt lat="39.89521" lon="116.646502">
        <time>2020-08-01T11:20:29Z</time>
      </trkpt>
      <trkpt lat="39.895065" lon="116.646385">
        <time>2020-08-01T11:20:34Z</time>
      </trkpt>
      <trkpt lat="39.894926" lon="116.646291">
        <time>2020-08-01T11:20:39Z</time>
      </trkpt>
      <trkpt lat="39.894765" lon="116.646183">
        <time>2020-08-01T11:20:44Z</time>
      </trkpt>
      <trkpt lat="39.894765" lon="116.646183">
        <time>2020-08-01T11:20:49Z</time>
      </trkpt>
      <trkpt lat="39.894578" lon="116.646132">
        <time>2020-08-01T11:20:54Z</time>
      </trkpt>
      <trkpt lat="39.894423" lon="116.64604">
        <time>2020-08-01T11:20:59Z</time>
      </trkpt>
      <trkpt lat="39.894256" lon="116.645964">
        <time>2020-08-01T11:21:04Z</time>
      </trkpt>
      <trkpt lat="39.894256" lon="116.645964">
        <time>2020-08-01T11:21:09Z</time>
      </trkpt>
      <trkpt lat="39.894065" lon="116.645886">
        <time>2020-08-01T11:21:14Z</time>
      </trkpt>
      <trkpt lat="39.893974" lon="116.645929">
        <time>2020-08-01T11:21:19Z</time>
      </trkpt>
      <trkpt lat="39.893974" lon="116.645929">
        <time>2020-08-01T11:21:24Z</time>
      </trkpt>
      <trkpt lat="39.893936" lon="116.646045">
        <time>2020-08-01T11:21:29Z</time>
      </trkpt>
      <trkpt lat="39.893878" lon="116.646194">
        <time>2020-08-01T11:21:34Z</time>
      </trkpt>
      <trkpt lat="39.893797" lon="116.646326">
        <time>2020-08-01T11:21:39Z</time>
      </trkpt>
      <trkpt lat="39.893797" lon="116.646326">
        <time>2020-08-01T11:21:44Z</time>
      </trkpt>
      <trkpt lat="39.893701" lon="116.646399">
        <time>2020-08-01T11:21:49Z</time>
      </trkpt>
      <trkpt lat="39.893597" lon="116.646388">
        <time>2020-08-01T11:21:54Z</time>
      </trkpt>
      <trkpt lat="39.893597" lon="116.646388">
        <time>2020-08-01T11:21:59Z</time>
      </trkpt>
      <trkpt lat="39.893465" lon="116.646316">
        <time>2020-08-01T11:22:04Z</time>
      </trkpt>
      <trkpt lat="39.89331" lon="116.646232">
        <time>2020-08-01T11:22:09Z</time>
      </trkpt>
      <trkpt lat="39.893145" lon="116.646156">
        <time>2020-08-01T11:22:14Z</time>
      </trkpt>
      <trkpt lat="39.893145" lon="116.646156">
        <time>2020-08-01T11:22:19Z</time>
      </trkpt>
      <trkpt lat="39.892973" lon="116.646028">
        <time>2020-08-01T11:22:24Z</time>
      </trkpt>
      <trkpt lat="39.892793" lon="116.645965">
        <time>2020-08-01T11:22:29Z</time>
      </trkpt>
      <trkpt lat="39.892793" lon="116.645965">
        <time>2020-08-01T11:22:34Z</time>
      </trkpt>
      <trkpt lat="39.892617" lon="116.645845">
        <time>2020-08-01T11:22:39Z</time>
      </trkpt>
      <trkpt lat="39.892421" lon="116.645754">
        <time>2020-08-01T11:22:44Z</time>
      </trkpt>
      <trkpt lat="39.89223" lon="116.645655">
        <time>2020-08-01T11:22:49Z</time>
      </trkpt>
      <trkpt lat="39.89223" lon="116.645655">
        <time>2020-08-01T11:22:54Z</time>
      </trkpt>
      <trkpt lat="39.892084" lon="116.645549">
        <time>2020-08-01T11:22:59Z</time>
      </trkpt>
      <trkpt lat="39.891919" lon="116.645499">
        <time>2020-08-01T11:23:04Z</time>
      </trkpt>
      <trkpt lat="39.891919" lon="116.645499">
        <time>2020-08-01T11:23:09Z</time>
      </trkpt>
      <trkpt lat="39.891749" lon="116.645453">
        <time>2020-08-01T11:23:14Z</time>
      </trkpt>
      <trkpt lat="39.89167" lon="116.645471">
        <time>2020-08-01T11:23:19Z</time>
      </trkpt>
      <trkpt lat="39.891753" lon="116.645517">
        <time>2020-08-01T11:23:24Z</time>
      </trkpt>
      <trkpt lat="39.891753" lon="116.645517">
        <time>2020-08-01T11:23:29Z</time>
      </trkpt>
      <trkpt lat="39.8919" lon="116.645548">
        <time>2020-08-01T11:23:34Z</time>
      </trkpt>
      <trkpt lat="39.892013" lon="116.645609">
        <time>2020-08-01T11:23:39Z</time>
      </trkpt>
      <trkpt lat="39.892013" lon="116.645609">
        <time>2020-08-01T11:23:44Z</time>
      </trkpt>
      <trkpt lat="39.892121" lon="116.645656">
        <time>2020-08-01T11:23:49Z</time>
      </trkpt>
      <trkpt lat="39.89221" lon="116.64572">
        <time>2020-08-01T11:23:54Z</time>
      </trkpt>
      <trkpt lat="39.892389" lon="116.645797">
        <time>2020-08-01T11:23:59Z</time>
      </trkpt>
      <trkpt lat="39.892389" lon="116.645797">
        <time>2020-08-01T11:24:04Z</time>
      </trkpt>
      <trkpt lat="39.892543" lon="116.645866">
        <time>2020-08-01T11:24:09Z</time>
      </trkpt>
      <trkpt lat="39.892738" lon="116.645959">
        <time>2020-08-01T11:24:14Z</time>
      </trkpt>
      <trkpt lat="39.892738" lon="116.645959">
        <time>2020-08-01T11:24:19Z</time>
      </trkpt>
      <trkpt lat="39.892906" lon="116.646">
        <time>2020-08-01T11:24:24Z</time>
      </trkpt>
      <trkpt lat="39.893096" lon="116.646063">
        <time>2020-08-01T11:24:29Z</time>
      </trkpt>
      <trkpt lat="39.893238" lon="116.646122">
        <time>2020-08-01T11:24:34Z</time>
      </trkpt>
      <trkpt lat="39.893238" lon="116.646122">
        <time>2020-08-01T11:24:39Z</time>
      </trkpt>
      <trkpt lat="39.8934" lon="116.646192">
        <time>2020-08-01T11:24:44Z</time>
      </trkpt>
      <trkpt lat="39.893589" lon="116.646272">
        <time>2020-08-01T11:24:49Z</time>
      </trkpt>
      <trkpt lat="39.893589" lon="116.646272">
        <time>2020-08-01T11:24:54Z</time>
      </trkpt>
      <trkpt lat="39.893805" lon="116.646392">
        <time>2020-08-01T11:24:59Z</time>
      </trkpt>
      <trkpt lat="39.893961" lon="116.64634">
        <time>2020-08-01T11:25:04Z</time>
      </trkpt>
      <trkpt lat="39.894058" lon="116.646162">
        <time>2020-08-01T11:25:09Z</time>
      </trkpt>
      <trkpt lat="39.894058" lon="116.646162">
        <time>2020-08-01T11:25:14Z</time>
      </trkpt>
      <trkpt lat="39.894173" lon="116.646005">
        <time>2020-08-01T11:25:19Z</time>
      </trkpt>
      <trkpt lat="39.894298" lon="116.645982">
        <time>2020-08-01T11:25:24Z</time>
      </trkpt>
      <trkpt lat="39.894445" lon="116.646065">
        <time>2020-08-01T11:25:29Z</time>
      </trkpt>
      <trkpt lat="39.894445" lon="116.646065">
        <time>2020-08-01T11:25:34Z</time>
      </trkpt>
      <trkpt lat="39.894604" lon="116.646151">
        <time>2020-08-01T11:25:39Z</time>
      </trkpt>
      <trkpt lat="39.894753" lon="116.646294">
        <time>2020-08-01T11:25:44Z</time>
      </trkpt>
      <trkpt lat="39.894753" lon="116.646294">
        <time>2020-08-01T11:25:49Z</time>
      </trkpt>
      <trkpt lat="39.89494" lon="116.646392">
        <time>2020-08-01T11:25:54Z</time>
      </trkpt>
      <trkpt lat="39.895097" lon="116.64649">
        <time>2020-08-01T11:25:59Z</time>
      </trkpt>
      <trkpt lat="39.895276" lon="116.646591">
        <time>2020-08-01T11:26:04Z</time>
      </trkpt>
      <trkpt lat="39.895276" lon="116.646591">
        <time>2020-08-01T11:26:09Z</time>
      </trkpt>
      <trkpt lat="39.895473" lon="116.646699">
        <time>2020-08-01T11:26:14Z</time>
      </trkpt>
      <trkpt lat="39.895666" lon="116.646757">
        <time>2020-08-01T11:26:19Z</time>
      </trkpt>
      <trkpt lat="39.895666" lon="116.646757">
        <time>2020-08-01T11:26:24Z</time>
      </trkpt>
      <trkpt lat="39.8958" lon="116.646843">
        <time>2020-08-01T11:26:29Z</time>
      </trkpt>
      <trkpt lat="39.89597" lon="116.646901">
        <time>2020-08-01T11:26:34Z</time>
      </trkpt>
      <trkpt lat="39.896169" lon="116.646963">
        <time>2020-08-01T11:26:39Z</time>
      </trkpt>
      <trkpt lat="39.896169" lon="116.646963">
        <time>2020-08-01T11:26:44Z</time>
      </trkpt>
      <trkpt lat="39.896242" lon="116.646908">
        <time>2020-08-01T11:26:49Z</time>
      </trkpt>
      <trkpt lat="39.89623" lon="116.646763">
        <time>2020-08-01T11:26:54Z</time>
      </trkpt>
      <trkpt lat="39.89623" lon="116.646763">
        <time>2020-08-01T11:26:59Z</time>
      </trkpt>
      <trkpt lat="39.896217" lon="116.646653">
        <time>2020-08-01T11:27:04Z</time>
      </trkpt>
      <trkpt lat="39.896187" lon="116.646511">
        <time>2020-08-01T11:27:09Z</time>
      </trkpt>
      <trkpt lat="39.896191" lon="116.646372">
        <time>2020-08-01T11:27:14Z</time>
      </trkpt>
      <trkpt lat="39.896191" lon="116.646372">
        <time>2020-08-01T11:27:19Z</time>
      </trkpt>
      <trkpt lat="39.896217" lon="116.646265">
        <time>2020-08-01T11:27:24Z</time>
      </trkpt>
      <trkpt lat="39.896213" lon="116.646138">
        <time>2020-08-01T11:27:29Z</time>
      </trkpt>
      <trkpt lat="39.896213" lon="116.646138">
        <time>2020-08-01T11:27:34Z</time>
      </trkpt>
      <trkpt lat="39.89623" lon="116.64604">
        <time>2020-08-01T11:27:39Z</time>
      </trkpt>
      <trkpt lat="39.896254" lon="116.645937">
        <time>2020-08-01T11:27:44Z</time>
      </trkpt>
      <trkpt lat="39.896231" lon="116.645849">
        <time>2020-08-01T11:27:49Z</time>
      </trkpt>
      <trkpt lat="39.896231" lon="116.645849">
        <time>2020-08-01T11:27:54Z</time>
      </trkpt>
      <trkpt lat="39.896242" lon="116.645723">
        <time>2020-08-01T11:27:59Z</time>
      </trkpt>
      <trkpt lat="39.896254" lon="116.645594">
        <time>2020-08-01T11:28:04Z</time>
      </trkpt>
      <trkpt lat="39.896254" lon="116.645594">
        <time>2020-08-01T11:28:09Z</time>
      </trkpt>
      <trkpt lat="39.896267" lon="116.64541">
        <time>2020-08-01T11:28:14Z</time>
      </trkpt>
      <trkpt lat="39.896295" lon="116.645264">
        <time>2020-08-01T11:28:19Z</time>
      </trkpt>
      <trkpt lat="39.89631" lon="116.645159">
        <time>2020-08-01T11:28:24Z</time>
      </trkpt>
      <trkpt lat="39.89631" lon="116.645159">
        <time>2020-08-01T11:28:29Z</time>
      </trkpt>
      <trkpt lat="39.896317" lon="116.645036">
        <time>2020-08-01T11:28:34Z</time>
      </trkpt>
      <trkpt lat="39.896324" lon="116.644887">
        <time>2020-08-01T11:28:39Z</time>
      </trkpt>
      <trkpt lat="39.896324" lon="116.644887">
        <time>2020-08-01T11:28:44Z</time>
      </trkpt>
      <trkpt lat="39.896324" lon="116.644734">
        <time>2020-08-01T11:28:49Z</time>
      </trkpt>
      <trkpt lat="39.896323" lon="116.64456">
        <time>2020-08-01T11:28:54Z</time>
      </trkpt>
      <trkpt lat="39.896353" lon="116.644331">
        <time>2020-08-01T11:28:59Z</time>
      </trkpt>
      <trkpt lat="39.896353" lon="116.644331">
        <time>2020-08-01T11:29:04Z</time>
      </trkpt>
      <trkpt lat="39.896361" lon="116.644114">
        <time>2020-08-01T11:29:09Z</time>
      </trkpt>
      <trkpt lat="39.896385" lon="116.643896">
        <time>2020-08-01T11:29:14Z</time>
      </trkpt>
      <trkpt lat="39.896363" lon="116.643675">
        <time>2020-08-01T11:29:19Z</time>
      </trkpt>
      <trkpt lat="39.896363" lon="116.643675">
        <time>2020-08-01T11:29:24Z</time>
      </trkpt>
      <trkpt lat="39.896377" lon="116.643585">
        <time>2020-08-01T11:29:29Z</time>
      </trkpt>
      <trkpt lat="39.896353" lon="116.643558">
        <time>2020-08-01T11:29:34Z</time>
      </trkpt>
      <trkpt lat="39.896353" lon="116.643558">
        <time>2020-08-01T11:29:39Z</time>
      </trkpt>
      <trkpt lat="39.896349" lon="116.643452">
        <time>2020-08-01T11:29:44Z</time>
      </trkpt>
      <trkpt lat="39.896351" lon="116.643322">
        <time>2020-08-01T11:29:49Z</time>
      </trkpt>
      <trkpt lat="39.896363" lon="116.643194">
        <time>2020-08-01T11:29:54Z</time>
      </trkpt>
      <trkpt lat="39.896363" lon="116.643194">
        <time>2020-08-01T11:29:59Z</time>
      </trkpt>
      <trkpt lat="39.89639" lon="116.643014">
        <time>2020-08-01T11:30:04Z</time>
      </trkpt>
      <trkpt lat="39.896382" lon="116.642897">
        <time>2020-08-01T11:30:09Z</time>
      </trkpt>
      <trkpt lat="39.896382" lon="116.642897">
        <time>2020-08-01T11:30:14Z</time>
      </trkpt>
      <trkpt lat="39.896369" lon="116.642771">
        <time>2020-08-01T11:30:19Z</time>
      </trkpt>
      <trkpt lat="39.896352" lon="116.642576">
        <time>2020-08-01T11:30:24Z</time>
      </trkpt>
      <trkpt lat="39.896354" lon="116.642354">
        <time>2020-08-01T11:30:29Z</time>
      </trkpt>
      <trkpt lat="39.896354" lon="116.642354">
        <time>2020-08-01T11:30:34Z</time>
      </trkpt>
      <trkpt lat="39.896376" lon="116.642125">
        <time>2020-08-01T11:30:39Z</time>
      </trkpt>
      <trkpt lat="39.896381" lon="116.641914">
        <time>2020-08-01T11:30:44Z</time>
      </trkpt>
      <trkpt lat="39.896381" lon="116.641914">
        <time>2020-08-01T11:30:49Z</time>
      </trkpt>
      <trkpt lat="39.896373" lon="116.641749">
        <time>2020-08-01T11:30:54Z</time>
      </trkpt>
      <trkpt lat="39.896366" lon="116.64147">
        <time>2020-08-01T11:30:59Z</time>
      </trkpt>
      <trkpt lat="39.896373" lon="116.641199">
        <time>2020-08-01T11:31:04Z</time>
      </trkpt>
      <trkpt lat="39.896373" lon="116.641199">
        <time>2020-08-01T11:31:09Z</time>
      </trkpt>
      <trkpt lat="39.896385" lon="116.640967">
        <time>2020-08-01T11:31:14Z</time>
      </trkpt>
      <trkpt lat="39.896401" lon="116.640694">
        <time>2020-08-01T11:31:19Z</time>
      </trkpt>
      <trkpt lat="39.896401" lon="116.640694">
        <time>2020-08-01T11:31:24Z</time>
      </trkpt>
      <trkpt lat="39.89645" lon="116.640498">
        <time>2020-08-01T11:31:29Z</time>
      </trkpt>
      <trkpt lat="39.89645" lon="116.640498">
        <time>2020-08-01T11:31:34Z</time>
      </trkpt>
      <trkpt lat="39.89645" lon="116.640498">
        <time>2020-08-01T11:31:39Z</time>
      </trkpt>
      <trkpt lat="39.89645" lon="116.640498">
        <time>2020-08-01T11:31:44Z</time>
      </trkpt>
      <trkpt lat="39.896742" lon="116.640488">
        <time>2020-08-01T11:31:49Z</time>
      </trkpt>
      <trkpt lat="39.896843" lon="116.640541">
        <time>2020-08-01T11:31:54Z</time>
      </trkpt>
      <trkpt lat="39.896928" lon="116.640604">
        <time>2020-08-01T11:31:59Z</time>
      </trkpt>
      <trkpt lat="39.896928" lon="116.640604">
        <time>2020-08-01T11:32:04Z</time>
      </trkpt>
      <trkpt lat="39.896995" lon="116.640624">
        <time>2020-08-01T11:32:09Z</time>
      </trkpt>
      <trkpt lat="39.897055" lon="116.640656">
        <time>2020-08-01T11:32:14Z</time>
      </trkpt>
      <trkpt lat="39.897055" lon="116.640656">
        <time>2020-08-01T11:32:19Z</time>
      </trkpt>
      <trkpt lat="39.897135" lon="116.640692">
        <time>2020-08-01T11:32:24Z</time>
      </trkpt>
      <trkpt lat="39.897209" lon="116.640692">
        <time>2020-08-01T11:32:29Z</time>
      </trkpt>
      <trkpt lat="39.897318" lon="116.640717">
        <time>2020-08-01T11:32:34Z</time>
      </trkpt>
      <trkpt lat="39.897318" lon="116.640717">
        <time>2020-08-01T11:32:39Z</time>
      </trkpt>
      <trkpt lat="39.897427" lon="116.640861">
        <time>2020-08-01T11:32:44Z</time>
      </trkpt>
      <trkpt lat="39.897563" lon="116.640896">
        <time>2020-08-01T11:32:49Z</time>
      </trkpt>
      <trkpt lat="39.897563" lon="116.640896">
        <time>2020-08-01T11:32:54Z</time>
      </trkpt>
      <trkpt lat="39.897708" lon="116.641031">
        <time>2020-08-01T11:32:59Z</time>
      </trkpt>
      <trkpt lat="39.897899" lon="116.641133">
        <time>2020-08-01T11:33:04Z</time>
      </trkpt>
      <trkpt lat="39.898013" lon="116.641226">
        <time>2020-08-01T11:33:09Z</time>
      </trkpt>
      <trkpt lat="39.898013" lon="116.641226">
        <time>2020-08-01T11:33:14Z</time>
      </trkpt>
      <trkpt lat="39.89821" lon="116.641339">
        <time>2020-08-01T11:33:19Z</time>
      </trkpt>
      <trkpt lat="39.898404" lon="116.641485">
        <time>2020-08-01T11:33:24Z</time>
      </trkpt>
      <trkpt lat="39.898404" lon="116.641485">
        <time>2020-08-01T11:33:29Z</time>
      </trkpt>
      <trkpt lat="39.898569" lon="116.64153">
        <time>2020-08-01T11:33:34Z</time>
      </trkpt>
      <trkpt lat="39.898597" lon="116.641666">
        <time>2020-08-01T11:33:39Z</time>
      </trkpt>
      <trkpt lat="39.898487" lon="116.64191">
        <time>2020-08-01T11:33:44Z</time>
      </trkpt>
      <trkpt lat="39.898487" lon="116.64191">
        <time>2020-08-01T11:33:49Z</time>
      </trkpt>
      <trkpt lat="39.898429" lon="116.642122">
        <time>2020-08-01T11:33:54Z</time>
      </trkpt>
      <trkpt lat="39.89842" lon="116.642344">
        <time>2020-08-01T11:33:59Z</time>
      </trkpt>
      <trkpt lat="39.89842" lon="116.64247">
        <time>2020-08-01T11:34:04Z</time>
      </trkpt>
      <trkpt lat="39.89842" lon="116.64247">
        <time>2020-08-01T11:34:09Z</time>
      </trkpt>
      <trkpt lat="39.898445" lon="116.642581">
        <time>2020-08-01T11:34:14Z</time>
      </trkpt>
      <trkpt lat="39.898449" lon="116.642704">
        <time>2020-08-01T11:34:19Z</time>
      </trkpt>
      <trkpt lat="39.898449" lon="116.642704">
        <time>2020-08-01T11:34:24Z</time>
      </trkpt>
      <trkpt lat="39.898458" lon="116.642842">
        <time>2020-08-01T11:34:29Z</time>
      </trkpt>
      <trkpt lat="39.898448" lon="116.642979">
        <time>2020-08-01T11:34:34Z</time>
      </trkpt>
      <trkpt lat="39.898455" lon="116.643136">
        <time>2020-08-01T11:34:39Z</time>
      </trkpt>
      <trkpt lat="39.898455" lon="116.643136">
        <time>2020-08-01T11:34:44Z</time>
      </trkpt>
      <trkpt lat="39.898467" lon="116.643274">
        <time>2020-08-01T11:34:49Z</time>
      </trkpt>
      <trkpt lat="39.89846" lon="116.643408">
        <time>2020-08-01T11:34:54Z</time>
      </trkpt>
      <trkpt lat="39.89846" lon="116.643408">
        <time>2020-08-01T11:34:59Z</time>
      </trkpt>
      <trkpt lat="39.898475" lon="116.643534">
        <time>2020-08-01T11:35:04Z</time>
      </trkpt>
      <trkpt lat="39.89849" lon="116.64368">
        <time>2020-08-01T11:35:09Z</time>
      </trkpt>
      <trkpt lat="39.898494" lon="116.643832">
        <time>2020-08-01T11:35:14Z</time>
      </trkpt>
      <trkpt lat="39.898494" lon="116.643832">
        <time>2020-08-01T11:35:19Z</time>
      </trkpt>
      <trkpt lat="39.898513" lon="116.643968">
        <time>2020-08-01T11:35:24Z</time>
      </trkpt>
      <trkpt lat="39.898623" lon="116.644174">
        <time>2020-08-01T11:35:29Z</time>
      </trkpt>
      <trkpt lat="39.898623" lon="116.644174">
        <time>2020-08-01T11:35:34Z</time>
      </trkpt>
      <trkpt lat="39.89866" lon="116.644389">
        <time>2020-08-01T11:35:39Z</time>
      </trkpt>
      <trkpt lat="39.898633" lon="116.644602">
        <time>2020-08-01T11:35:44Z</time>
      </trkpt>
      <trkpt lat="39.898636" lon="116.644819">
        <time>2020-08-01T11:35:49Z</time>
      </trkpt>
      <trkpt lat="39.898636" lon="116.644819">
        <time>2020-08-01T11:35:54Z</time>
      </trkpt>
      <trkpt lat="39.89866" lon="116.645021">
        <time>2020-08-01T11:35:59Z</time>
      </trkpt>
      <trkpt lat="39.898649" lon="116.64523">
        <time>2020-08-01T11:36:04Z</time>
      </trkpt>
      <trkpt lat="39.898649" lon="116.64523">
        <time>2020-08-01T11:36:09Z</time>
      </trkpt>
      <trkpt lat="39.898654" lon="116.645476">
        <time>2020-08-01T11:36:14Z</time>
      </trkpt>
      <trkpt lat="39.898654" lon="116.645727">
        <time>2020-08-01T11:36:19Z</time>
      </trkpt>
      <trkpt lat="39.898656" lon="116.645925">
        <time>2020-08-01T11:36:24Z</time>
      </trkpt>
      <trkpt lat="39.898656" lon="116.645925">
        <time>2020-08-01T11:36:29Z</time>
      </trkpt>
      <trkpt lat="39.898755" lon="116.646115">
        <time>2020-08-01T11:36:34Z</time>
      </trkpt>
      <trkpt lat="39.898888" lon="116.646265">
        <time>2020-08-01T11:36:39Z</time>
      </trkpt>
      <trkpt lat="39.898888" lon="116.646265">
        <time>2020-08-01T11:36:44Z</time>
      </trkpt>
      <trkpt lat="39.898921" lon="116.646469">
        <time>2020-08-01T11:36:49Z</time>
      </trkpt>
      <trkpt lat="39.898979" lon="116.64671">
        <time>2020-08-01T11:36:54Z</time>
      </trkpt>
      <trkpt lat="39.899055" lon="116.64694">
        <time>2020-08-01T11:36:59Z</time>
      </trkpt>
      <trkpt lat="39.899055" lon="116.64694">
        <time>2020-08-01T11:37:04Z</time>
      </trkpt>
      <trkpt lat="39.899063" lon="116.647193">
        <time>2020-08-01T11:37:09Z</time>
      </trkpt>
      <trkpt lat="39.899091" lon="116.647524">
        <time>2020-08-01T11:37:14Z</time>
      </trkpt>
      <trkpt lat="39.899091" lon="116.647524">
        <time>2020-08-01T11:37:19Z</time>
      </trkpt>
      <trkpt lat="39.899066" lon="116.647659">
        <time>2020-08-01T11:37:24Z</time>
      </trkpt>
      <trkpt lat="39.899011" lon="116.647699">
        <time>2020-08-01T11:37:29Z</time>
      </trkpt>
      <trkpt lat="39.899038" lon="116.647842">
        <time>2020-08-01T11:37:34Z</time>
      </trkpt>
      <trkpt lat="39.899038" lon="116.647842">
        <time>2020-08-01T11:37:39Z</time>
      </trkpt>
      <trkpt lat="39.89907" lon="116.648004">
        <time>2020-08-01T11:37:44Z</time>
      </trkpt>
      <trkpt lat="39.899092" lon="116.64821">
        <time>2020-08-01T11:37:49Z</time>
      </trkpt>
      <trkpt lat="39.899097" lon="116.648424">
        <time>2020-08-01T11:37:54Z</time>
      </trkpt>
      <trkpt lat="39.899097" lon="116.648424">
        <time>2020-08-01T11:37:59Z</time>
      </trkpt>
      <trkpt lat="39.899135" lon="116.648582">
        <time>2020-08-01T11:38:04Z</time>
      </trkpt>
      <trkpt lat="39.899146" lon="116.648693">
        <time>2020-08-01T11:38:09Z</time>
      </trkpt>
      <trkpt lat="39.899146" lon="116.648693">
        <time>2020-08-01T11:38:14Z</time>
      </trkpt>
      <trkpt lat="39.899161" lon="116.648774">
        <time>2020-08-01T11:38:19Z</time>
      </trkpt>
      <trkpt lat="39.899147" lon="116.648925">
        <time>2020-08-01T11:38:24Z</time>
      </trkpt>
      <trkpt lat="39.899145" lon="116.649024">
        <time>2020-08-01T11:38:29Z</time>
      </trkpt>
      <trkpt lat="39.899145" lon="116.649024">
        <time>2020-08-01T11:38:34Z</time>
      </trkpt>
      <trkpt lat="39.899175" lon="116.64915">
        <time>2020-08-01T11:38:39Z</time>
      </trkpt>
      <trkpt lat="39.899204" lon="116.649277">
        <time>2020-08-01T11:38:44Z</time>
      </trkpt>
      <trkpt lat="39.899204" lon="116.649277">
        <time>2020-08-01T11:38:49Z</time>
      </trkpt>
      <trkpt lat="39.899188" lon="116.649397">
        <time>2020-08-01T11:38:54Z</time>
      </trkpt>
      <trkpt lat="39.899154" lon="116.649561">
        <time>2020-08-01T11:38:59Z</time>
      </trkpt>
      <trkpt lat="39.899148" lon="116.649752">
        <time>2020-08-01T11:39:04Z</time>
      </trkpt>
      <trkpt lat="39.899148" lon="116.649752">
        <time>2020-08-01T11:39:09Z</time>
      </trkpt>
      <trkpt lat="39.89913" lon="116.649962">
        <time>2020-08-01T11:39:14Z</time>
      </trkpt>
      <trkpt lat="39.899097" lon="116.650192">
        <time>2020-08-01T11:39:19Z</time>
      </trkpt>
      <trkpt lat="39.899097" lon="116.650192">
        <time>2020-08-01T11:39:24Z</time>
      </trkpt>
      <trkpt lat="39.899176" lon="116.65041">
        <time>2020-08-01T11:39:29Z</time>
      </trkpt>
      <trkpt lat="39.899125" lon="116.650642">
        <time>2020-08-01T11:39:34Z</time>
      </trkpt>
      <trkpt lat="39.899063" lon="116.650882">
        <time>2020-08-01T11:39:39Z</time>
      </trkpt>
      <trkpt lat="39.899063" lon="116.650882">
        <time>2020-08-01T11:39:44Z</time>
      </trkpt>
      <trkpt lat="39.899062" lon="116.651114">
        <time>2020-08-01T11:39:49Z</time>
      </trkpt>
      <trkpt lat="39.899058" lon="116.651341">
        <time>2020-08-01T11:39:54Z</time>
      </trkpt>
      <trkpt lat="39.899058" lon="116.651341">
        <time>2020-08-01T11:39:59Z</time>
      </trkpt>
      <trkpt lat="39.899098" lon="116.651339">
        <time>2020-08-01T11:40:04Z</time>
      </trkpt>
      <trkpt lat="39.899039" lon="116.651236">
        <time>2020-08-01T11:40:09Z</time>
      </trkpt>
      <trkpt lat="39.89903" lon="116.651098">
        <time>2020-08-01T11:40:14Z</time>
      </trkpt>
      <trkpt lat="39.89903" lon="116.651098">
        <time>2020-08-01T11:40:19Z</time>
      </trkpt>
      <trkpt lat="39.899083" lon="116.651008">
        <time>2020-08-01T11:40:24Z</time>
      </trkpt>
      <trkpt lat="39.899169" lon="116.650906">
        <time>2020-08-01T11:40:29Z</time>
      </trkpt>
      <trkpt lat="39.899169" lon="116.650906">
        <time>2020-08-01T11:40:34Z</time>
      </trkpt>
      <trkpt lat="39.899202" lon="116.650729">
        <time>2020-08-01T11:40:39Z</time>
      </trkpt>
      <trkpt lat="39.899196" lon="116.650548">
        <time>2020-08-01T11:40:44Z</time>
      </trkpt>
      <trkpt lat="39.899196" lon="116.650364">
        <time>2020-08-01T11:40:49Z</time>
      </trkpt>
      <trkpt lat="39.899196" lon="116.650364">
        <time>2020-08-01T11:40:54Z</time>
      </trkpt>
      <trkpt lat="39.899204" lon="116.650215">
        <time>2020-08-01T11:40:59Z</time>
      </trkpt>
      <trkpt lat="39.899221" lon="116.650107">
        <time>2020-08-01T11:41:04Z</time>
      </trkpt>
      <trkpt lat="39.899221" lon="116.650107">
        <time>2020-08-01T11:41:09Z</time>
      </trkpt>
      <trkpt lat="39.899228" lon="116.649975">
        <time>2020-08-01T11:41:14Z</time>
      </trkpt>
      <trkpt lat="39.899195" lon="116.649719">
        <time>2020-08-01T11:41:19Z</time>
      </trkpt>
      <trkpt lat="39.899142" lon="116.6495">
        <time>2020-08-01T11:41:24Z</time>
      </trkpt>
      <trkpt lat="39.899142" lon="116.6495">
        <time>2020-08-01T11:41:29Z</time>
      </trkpt>
      <trkpt lat="39.899132" lon="116.649282">
        <time>2020-08-01T11:41:34Z</time>
      </trkpt>
      <trkpt lat="39.899158" lon="116.649">
        <time>2020-08-01T11:41:39Z</time>
      </trkpt>
      <trkpt lat="39.899158" lon="116.649">
        <time>2020-08-01T11:41:44Z</time>
      </trkpt>
      <trkpt lat="39.899224" lon="116.648647">
        <time>2020-08-01T11:41:49Z</time>
      </trkpt>
      <trkpt lat="39.899243" lon="116.648424">
        <time>2020-08-01T11:41:54Z</time>
      </trkpt>
      <trkpt lat="39.899237" lon="116.648277">
        <time>2020-08-01T11:41:59Z</time>
      </trkpt>
      <trkpt lat="39.899237" lon="116.648277">
        <time>2020-08-01T11:42:04Z</time>
      </trkpt>
      <trkpt lat="39.899239" lon="116.648118">
        <time>2020-08-01T11:42:09Z</time>
      </trkpt>
      <trkpt lat="39.899196" lon="116.647895">
        <time>2020-08-01T11:42:14Z</time>
      </trkpt>
      <trkpt lat="39.899126" lon="116.647676">
        <time>2020-08-01T11:42:19Z</time>
      </trkpt>
      <trkpt lat="39.899126" lon="116.647676">
        <time>2020-08-01T11:42:24Z</time>
      </trkpt>
      <trkpt lat="39.899095" lon="116.647457">
        <time>2020-08-01T11:42:29Z</time>
      </trkpt>
      <trkpt lat="39.899093" lon="116.647273">
        <time>2020-08-01T11:42:34Z</time>
      </trkpt>
      <trkpt lat="39.899093" lon="116.647273">
        <time>2020-08-01T11:42:39Z</time>
      </trkpt>
      <trkpt lat="39.899052" lon="116.647101">
        <time>2020-08-01T11:42:44Z</time>
      </trkpt>
      <trkpt lat="39.899034" lon="116.64699">
        <time>2020-08-01T11:42:49Z</time>
      </trkpt>
      <trkpt lat="39.898966" lon="116.646928">
        <time>2020-08-01T11:42:54Z</time>
      </trkpt>
      <trkpt lat="39.898966" lon="116.646928">
        <time>2020-08-01T11:42:59Z</time>
      </trkpt>
      <trkpt lat="39.898917" lon="116.646832">
        <time>2020-08-01T11:43:04Z</time>
      </trkpt>
      <trkpt lat="39.898878" lon="116.646741">
        <time>2020-08-01T11:43:09Z</time>
      </trkpt>
      <trkpt lat="39.898878" lon="116.646741">
        <time>2020-08-01T11:43:14Z</time>
      </trkpt>
      <trkpt lat="39.89888" lon="116.646627">
        <time>2020-08-01T11:43:19Z</time>
      </trkpt>
      <trkpt lat="39.898869" lon="116.646472">
        <time>2020-08-01T11:43:24Z</time>
      </trkpt>
      <trkpt lat="39.898817" lon="116.646348">
        <time>2020-08-01T11:43:29Z</time>
      </trkpt>
      <trkpt lat="39.898817" lon="116.646348">
        <time>2020-08-01T11:43:34Z</time>
      </trkpt>
      <trkpt lat="39.898715" lon="116.646184">
        <time>2020-08-01T11:43:39Z</time>
      </trkpt>
      <trkpt lat="39.898671" lon="116.646002">
        <time>2020-08-01T11:43:44Z</time>
      </trkpt>
      <trkpt lat="39.898671" lon="116.646002">
        <time>2020-08-01T11:43:49Z</time>
      </trkpt>
      <trkpt lat="39.898635" lon="116.645752">
        <time>2020-08-01T11:43:54Z</time>
      </trkpt>
      <trkpt lat="39.898614" lon="116.645512">
        <time>2020-08-01T11:43:59Z</time>
      </trkpt>
      <trkpt lat="39.898602" lon="116.645263">
        <time>2020-08-01T11:44:04Z</time>
      </trkpt>
      <trkpt lat="39.898602" lon="116.645263">
        <time>2020-08-01T11:44:09Z</time>
      </trkpt>
      <trkpt lat="39.898595" lon="116.644998">
        <time>2020-08-01T11:44:14Z</time>
      </trkpt>
      <trkpt lat="39.898565" lon="116.644745">
        <time>2020-08-01T11:44:19Z</time>
      </trkpt>
      <trkpt lat="39.898565" lon="116.644745">
        <time>2020-08-01T11:44:24Z</time>
      </trkpt>
      <trkpt lat="39.898566" lon="116.644529">
        <time>2020-08-01T11:44:29Z</time>
      </trkpt>
      <trkpt lat="39.898583" lon="116.644375">
        <time>2020-08-01T11:44:34Z</time>
      </trkpt>
      <trkpt lat="39.898544" lon="116.644254">
        <time>2020-08-01T11:44:39Z</time>
      </trkpt>
      <trkpt lat="39.898544" lon="116.644254">
        <time>2020-08-01T11:44:44Z</time>
      </trkpt>
      <trkpt lat="39.898492" lon="116.64411">
        <time>2020-08-01T11:44:49Z</time>
      </trkpt>
      <trkpt lat="39.898476" lon="116.643961">
        <time>2020-08-01T11:44:54Z</time>
      </trkpt>
      <trkpt lat="39.898476" lon="116.643961">
        <time>2020-08-01T11:44:59Z</time>
      </trkpt>
      <trkpt lat="39.898462" lon="116.643853">
        <time>2020-08-01T11:45:04Z</time>
      </trkpt>
      <trkpt lat="39.898464" lon="116.643738">
        <time>2020-08-01T11:45:09Z</time>
      </trkpt>
      <trkpt lat="39.898462" lon="116.643604">
        <time>2020-08-01T11:45:14Z</time>
      </trkpt>
      <trkpt lat="39.898462" lon="116.643604">
        <time>2020-08-01T11:45:19Z</time>
      </trkpt>
      <trkpt lat="39.898484" lon="116.643474">
        <time>2020-08-01T11:45:24Z</time>
      </trkpt>
      <trkpt lat="39.898495" lon="116.64336">
        <time>2020-08-01T11:45:29Z</time>
      </trkpt>
      <trkpt lat="39.898495" lon="116.64336">
        <time>2020-08-01T11:45:34Z</time>
      </trkpt>
      <trkpt lat="39.898461" lon="116.643211">
        <time>2020-08-01T11:45:39Z</time>
      </trkpt>
      <trkpt lat="39.898442" lon="116.643099">
        <time>2020-08-01T11:45:44Z</time>
      </trkpt>
      <trkpt lat="39.898443" lon="116.64297">
        <time>2020-08-01T11:45:49Z</time>
      </trkpt>
      <trkpt lat="39.898443" lon="116.64297">
        <time>2020-08-01T11:45:54Z</time>
      </trkpt>
      <trkpt lat="39.898449" lon="116.642778">
        <time>2020-08-01T11:45:59Z</time>
      </trkpt>
      <trkpt lat="39.898454" lon="116.642512">
        <time>2020-08-01T11:46:04Z</time>
      </trkpt>
      <trkpt lat="39.898454" lon="116.642512">
        <time>2020-08-01T11:46:09Z</time>
      </trkpt>
      <trkpt lat="39.898454" lon="116.64233">
        <time>2020-08-01T11:46:14Z</time>
      </trkpt>
      <trkpt lat="39.898468" lon="116.642115">
        <time>2020-08-01T11:46:19Z</time>
      </trkpt>
      <trkpt lat="39.898541" lon="116.641927">
        <time>2020-08-01T11:46:24Z</time>
      </trkpt>
      <trkpt lat="39.898541" lon="116.641927">
        <time>2020-08-01T11:46:29Z</time>
      </trkpt>
      <trkpt lat="39.898607" lon="116.641648">
        <time>2020-08-01T11:46:34Z</time>
      </trkpt>
      <trkpt lat="39.898622" lon="116.641449">
        <time>2020-08-01T11:46:39Z</time>
      </trkpt>
      <trkpt lat="39.898545" lon="116.641353">
        <time>2020-08-01T11:46:44Z</time>
      </trkpt>
      <trkpt lat="39.898545" lon="116.641353">
        <time>2020-08-01T11:46:49Z</time>
      </trkpt>
      <trkpt lat="39.898434" lon="116.641393">
        <time>2020-08-01T11:46:54Z</time>
      </trkpt>
      <trkpt lat="39.898284" lon="116.641405">
        <time>2020-08-01T11:46:59Z</time>
      </trkpt>
      <trkpt lat="39.898284" lon="116.641405">
        <time>2020-08-01T11:47:04Z</time>
      </trkpt>
      <trkpt lat="39.898224" lon="116.641336">
        <time>2020-08-01T11:47:09Z</time>
      </trkpt>
      <trkpt lat="39.898151" lon="116.641262">
        <time>2020-08-01T11:47:14Z</time>
      </trkpt>
      <trkpt lat="39.898058" lon="116.641218">
        <time>2020-08-01T11:47:19Z</time>
      </trkpt>
      <trkpt lat="39.898058" lon="116.641218">
        <time>2020-08-01T11:47:24Z</time>
      </trkpt>
      <trkpt lat="39.897977" lon="116.64115">
        <time>2020-08-01T11:47:29Z</time>
      </trkpt>
      <trkpt lat="39.897869" lon="116.641032">
        <time>2020-08-01T11:47:34Z</time>
      </trkpt>
      <trkpt lat="39.897869" lon="116.641032">
        <time>2020-08-01T11:47:39Z</time>
      </trkpt>
      <trkpt lat="39.897723" lon="116.640933">
        <time>2020-08-01T11:47:44Z</time>
      </trkpt>
      <trkpt lat="39.897594" lon="116.640844">
        <time>2020-08-01T11:47:49Z</time>
      </trkpt>
      <trkpt lat="39.897426" lon="116.640701">
        <time>2020-08-01T11:47:54Z</time>
      </trkpt>
      <trkpt lat="39.897426" lon="116.640701">
        <time>2020-08-01T11:47:59Z</time>
      </trkpt>
      <trkpt lat="39.897262" lon="116.640628">
        <time>2020-08-01T11:48:04Z</time>
      </trkpt>
      <trkpt lat="39.897085" lon="116.640576">
        <time>2020-08-01T11:48:09Z</time>
      </trkpt>
      <trkpt lat="39.897085" lon="116.640576">
        <time>2020-08-01T11:48:14Z</time>
      </trkpt>
      <trkpt lat="39.896937" lon="116.64052">
        <time>2020-08-01T11:48:19Z</time>
      </trkpt>
      <trkpt lat="39.896791" lon="116.640421">
        <time>2020-08-01T11:48:24Z</time>
      </trkpt>
      <trkpt lat="39.896791" lon="116.640421">
        <time>2020-08-01T11:48:29Z</time>
      </trkpt>
      <trkpt lat="39.896791" lon="116.640421">
        <time>2020-08-01T11:48:34Z</time>
      </trkpt>
      <trkpt lat="39.896318" lon="116.640427">
        <time>2020-08-01T11:48:39Z</time>
      </trkpt>
      <trkpt lat="39.896427" lon="116.640093">
        <time>2020-08-01T11:48:44Z</time>
      </trkpt>
      <trkpt lat="39.896427" lon="116.640093">
        <time>2020-08-01T11:48:49Z</time>
      </trkpt>
      <trkpt lat="39.896449" lon="116.639884">
        <time>2020-08-01T11:48:54Z</time>
      </trkpt>
      <trkpt lat="39.896431" lon="116.639654">
        <time>2020-08-01T11:48:59Z</time>
      </trkpt>
      <trkpt lat="39.896421" lon="116.639456">
        <time>2020-08-01T11:49:04Z</time>
      </trkpt>
      <trkpt lat="39.896421" lon="116.639456">
        <time>2020-08-01T11:49:09Z</time>
      </trkpt>
      <trkpt lat="39.896396" lon="116.639237">
        <time>2020-08-01T11:49:14Z</time>
      </trkpt>
      <trkpt lat="39.896368" lon="116.639021">
        <time>2020-08-01T11:49:19Z</time>
      </trkpt>
      <trkpt lat="39.896368" lon="116.639021">
        <time>2020-08-01T11:49:24Z</time>
      </trkpt>
      <trkpt lat="39.89635" lon="116.638793">
        <time>2020-08-01T11:49:29Z</time>
      </trkpt>
      <trkpt lat="39.896327" lon="116.638556">
        <time>2020-08-01T11:49:34Z</time>
      </trkpt>
      <trkpt lat="39.89632" lon="116.638307">
        <time>2020-08-01T11:49:39Z</time>
      </trkpt>
      <trkpt lat="39.89632" lon="116.638307">
        <time>2020-08-01T11:49:44Z</time>
      </trkpt>
      <trkpt lat="39.896331" lon="116.638044">
        <time>2020-08-01T11:49:49Z</time>
      </trkpt>
      <trkpt lat="39.896349" lon="116.637781">
        <time>2020-08-01T11:49:54Z</time>
      </trkpt>
      <trkpt lat="39.896349" lon="116.637781">
        <time>2020-08-01T11:49:59Z</time>
      </trkpt>
      <trkpt lat="39.896359" lon="116.637534">
        <time>2020-08-01T11:50:04Z</time>
      </trkpt>
      <trkpt lat="39.896355" lon="116.637329">
        <time>2020-08-01T11:50:09Z</time>
      </trkpt>
      <trkpt lat="39.896319" lon="116.637163">
        <time>2020-08-01T11:50:14Z</time>
      </trkpt>
      <trkpt lat="39.896319" lon="116.637163">
        <time>2020-08-01T11:50:19Z</time>
      </trkpt>
      <trkpt lat="39.896354" lon="116.637063">
        <time>2020-08-01T11:50:24Z</time>
      </trkpt>
      <trkpt lat="39.896381" lon="116.636975">
        <time>2020-08-01T11:50:29Z</time>
      </trkpt>
      <trkpt lat="39.896342" lon="116.636944">
        <time>2020-08-01T11:50:34Z</time>
      </trkpt>
      <trkpt lat="39.896342" lon="116.636944">
        <time>2020-08-01T11:50:39Z</time>
      </trkpt>
      <trkpt lat="39.896338" lon="116.636992">
        <time>2020-08-01T11:50:44Z</time>
      </trkpt>
      <trkpt lat="39.896361" lon="116.63698">
        <time>2020-08-01T11:50:49Z</time>
      </trkpt>
      <trkpt lat="39.896361" lon="116.63698">
        <time>2020-08-01T11:50:54Z</time>
      </trkpt>
      <trkpt lat="39.896373" lon="116.636889">
        <time>2020-08-01T11:50:59Z</time>
      </trkpt>
      <trkpt lat="39.896372" lon="116.636802">
        <time>2020-08-01T11:51:04Z</time>
      </trkpt>
      <trkpt lat="39.896372" lon="116.636802">
        <time>2020-08-01T11:51:09Z</time>
      </trkpt>
      <trkpt lat="39.896352" lon="116.636771">
        <time>2020-08-01T11:51:14Z</time>
      </trkpt>
      <trkpt lat="39.896352" lon="116.636771">
        <time>2020-08-01T11:51:19Z</time>
      </trkpt>
      <trkpt lat="39.89636" lon="116.636799">
        <time>2020-08-01T11:51:24Z</time>
      </trkpt>
      <trkpt lat="39.896373" lon="116.636759">
        <time>2020-08-01T11:51:29Z</time>
      </trkpt>
      <trkpt lat="39.896342" lon="116.636781">
        <time>2020-08-01T11:51:34Z</time>
      </trkpt>
      <trkpt lat="39.896342" lon="116.636781">
        <time>2020-08-01T11:51:39Z</time>
      </trkpt>
      <trkpt lat="39.89629" lon="116.63684">
        <time>2020-08-01T11:51:44Z</time>
      </trkpt>
      <trkpt lat="39.896239" lon="116.636821">
        <time>2020-08-01T11:51:49Z</time>
      </trkpt>
      <trkpt lat="39.896239" lon="116.636821">
        <time>2020-08-01T11:51:54Z</time>
      </trkpt>
      <trkpt lat="39.896198" lon="116.636768">
        <time>2020-08-01T11:51:59Z</time>
      </trkpt>
      <trkpt lat="39.896109" lon="116.63669">
        <time>2020-08-01T11:52:04Z</time>
      </trkpt>
      <trkpt lat="39.89604" lon="116.636616">
        <time>2020-08-01T11:52:09Z</time>
      </trkpt>
      <trkpt lat="39.89604" lon="116.636616">
        <time>2020-08-01T11:52:14Z</time>
      </trkpt>
      <trkpt lat="39.89606" lon="116.636527">
        <time>2020-08-01T11:52:19Z</time>
      </trkpt>
      <trkpt lat="39.896135" lon="116.636411">
        <time>2020-08-01T11:52:24Z</time>
      </trkpt>
      <trkpt lat="39.896135" lon="116.636411">
        <time>2020-08-01T11:52:29Z</time>
      </trkpt>
      <trkpt lat="39.896213" lon="116.636338">
        <time>2020-08-01T11:52:34Z</time>
      </trkpt>
      <trkpt lat="39.896302" lon="116.636273">
        <time>2020-08-01T11:52:39Z</time>
      </trkpt>
      <trkpt lat="39.896377" lon="116.636157">
        <time>2020-08-01T11:52:44Z</time>
      </trkpt>
      <trkpt lat="39.896377" lon="116.636157">
        <time>2020-08-01T11:52:49Z</time>
      </trkpt>
      <trkpt lat="39.896453" lon="116.636107">
        <time>2020-08-01T11:52:54Z</time>
      </trkpt>
      <trkpt lat="39.896453" lon="116.636107">
        <time>2020-08-01T11:52:59Z</time>
      </trkpt>
      <trkpt lat="39.896453" lon="116.636107">
        <time>2020-08-01T11:53:04Z</time>
      </trkpt>
      <trkpt lat="39.896602" lon="116.636059">
        <time>2020-08-01T11:53:09Z</time>
      </trkpt>
      <trkpt lat="39.89671" lon="116.636035">
        <time>2020-08-01T11:53:14Z</time>
      </trkpt>
      <trkpt lat="39.89671" lon="116.636035">
        <time>2020-08-01T11:53:19Z</time>
      </trkpt>
      <trkpt lat="39.896781" lon="116.63599">
        <time>2020-08-01T11:53:24Z</time>
      </trkpt>
      <trkpt lat="39.896833" lon="116.635948">
        <time>2020-08-01T11:53:56Z</time>
      </trkpt>
    </trkseg>
  </trk>
</gpx>