<?xml version="1.0" encoding="UTF-8"?>
<gpx xmlns="http://www.topografix.com/GPX/1/1" xmlns:gpxtpx="http://www.garmin.com/xmlschemas/TrackPointExtension/v1" xmlns:xsi="http://www.w3.org/2001/XMLSchema-instance" xsi:schemaLocation="http://www.topografix.com/GPX/1/1 http://www.topografix.com/GPX/1/1/gpx.xsd" version="1.1" creator="gpx.py -- https://github.com/tkrajina/gpxpy">
  <trk>
    <name>gpx from keep</name>
    <trkseg>
      <trkpt lat="39.89774" lon="116.635533">
        <time>2020-07-21T12:12:44Z</time>
      </trkpt>
      <trkpt lat="39.897623" lon="116.635453">
        <time>2020-07-21T12:12:49Z</time>
      </trkpt>
      <trkpt lat="39.897537" lon="116.6353">
        <time>2020-07-21T12:12:54Z</time>
      </trkpt>
      <trkpt lat="39.897428" lon="116.635181">
        <time>2020-07-21T12:12:59Z</time>
      </trkpt>
      <trkpt lat="39.897428" lon="116.635181">
        <time>2020-07-21T12:13:04Z</time>
      </trkpt>
      <trkpt lat="39.897331" lon="116.635152">
        <time>2020-07-21T12:13:09Z</time>
      </trkpt>
      <trkpt lat="39.8972" lon="116.635228">
        <time>2020-07-21T12:13:14Z</time>
      </trkpt>
      <trkpt lat="39.8972" lon="116.635228">
        <time>2020-07-21T12:13:19Z</time>
      </trkpt>
      <trkpt lat="39.897056" lon="116.635391">
        <time>2020-07-21T12:13:24Z</time>
      </trkpt>
      <trkpt lat="39.896936" lon="116.635434">
        <time>2020-07-21T12:13:29Z</time>
      </trkpt>
      <trkpt lat="39.896843" lon="116.63545">
        <time>2020-07-21T12:13:34Z</time>
      </trkpt>
      <trkpt lat="39.896843" lon="116.63545">
        <time>2020-07-21T12:13:39Z</time>
      </trkpt>
      <trkpt lat="39.896749" lon="116.635553">
        <time>2020-07-21T12:13:44Z</time>
      </trkpt>
      <trkpt lat="39.896649" lon="116.635644">
        <time>2020-07-21T12:13:49Z</time>
      </trkpt>
      <trkpt lat="39.896649" lon="116.635644">
        <time>2020-07-21T12:13:54Z</time>
      </trkpt>
      <trkpt lat="39.896557" lon="116.635702">
        <time>2020-07-21T12:13:59Z</time>
      </trkpt>
      <trkpt lat="39.896519" lon="116.635712">
        <time>2020-07-21T12:14:04Z</time>
      </trkpt>
      <trkpt lat="39.896519" lon="116.635712">
        <time>2020-07-21T12:14:09Z</time>
      </trkpt>
      <trkpt lat="39.896482" lon="116.635764">
        <time>2020-07-21T12:14:14Z</time>
      </trkpt>
      <trkpt lat="39.896482" lon="116.635764">
        <time>2020-07-21T12:14:19Z</time>
      </trkpt>
      <trkpt lat="39.896448" lon="116.635797">
        <time>2020-07-21T12:14:24Z</time>
      </trkpt>
      <trkpt lat="39.896376" lon="116.635865">
        <time>2020-07-21T12:14:29Z</time>
      </trkpt>
      <trkpt lat="39.896376" lon="116.635865">
        <time>2020-07-21T12:14:34Z</time>
      </trkpt>
      <trkpt lat="39.896291" lon="116.6359">
        <time>2020-07-21T12:14:39Z</time>
      </trkpt>
      <trkpt lat="39.896291" lon="116.6359">
        <time>2020-07-21T12:14:44Z</time>
      </trkpt>
      <trkpt lat="39.896291" lon="116.6359">
        <time>2020-07-21T12:14:49Z</time>
      </trkpt>
      <trkpt lat="39.896035" lon="116.636162">
        <time>2020-07-21T12:14:54Z</time>
      </trkpt>
      <trkpt lat="39.895923" lon="116.636228">
        <time>2020-07-21T12:14:59Z</time>
      </trkpt>
      <trkpt lat="39.895923" lon="116.636228">
        <time>2020-07-21T12:15:04Z</time>
      </trkpt>
      <trkpt lat="39.895877" lon="116.636376">
        <time>2020-07-21T12:15:09Z</time>
      </trkpt>
      <trkpt lat="39.895919" lon="116.636536">
        <time>2020-07-21T12:15:14Z</time>
      </trkpt>
      <trkpt lat="39.895996" lon="116.636786">
        <time>2020-07-21T12:15:19Z</time>
      </trkpt>
      <trkpt lat="39.895996" lon="116.636786">
        <time>2020-07-21T12:15:24Z</time>
      </trkpt>
      <trkpt lat="39.895979" lon="116.637017">
        <time>2020-07-21T12:15:29Z</time>
      </trkpt>
      <trkpt lat="39.895982" lon="116.63727">
        <time>2020-07-21T12:15:34Z</time>
      </trkpt>
      <trkpt lat="39.895982" lon="116.63727">
        <time>2020-07-21T12:15:39Z</time>
      </trkpt>
      <trkpt lat="39.895987" lon="116.637527">
        <time>2020-07-21T12:15:44Z</time>
      </trkpt>
      <trkpt lat="39.896017" lon="116.637751">
        <time>2020-07-21T12:15:49Z</time>
      </trkpt>
      <trkpt lat="39.896054" lon="116.637999">
        <time>2020-07-21T12:15:54Z</time>
      </trkpt>
      <trkpt lat="39.896054" lon="116.637999">
        <time>2020-07-21T12:15:59Z</time>
      </trkpt>
      <trkpt lat="39.896073" lon="116.638191">
        <time>2020-07-21T12:16:04Z</time>
      </trkpt>
      <trkpt lat="39.896097" lon="116.638333">
        <time>2020-07-21T12:16:09Z</time>
      </trkpt>
      <trkpt lat="39.896097" lon="116.638333">
        <time>2020-07-21T12:16:14Z</time>
      </trkpt>
      <trkpt lat="39.896111" lon="116.63846">
        <time>2020-07-21T12:16:19Z</time>
      </trkpt>
      <trkpt lat="39.896142" lon="116.638611">
        <time>2020-07-21T12:16:24Z</time>
      </trkpt>
      <trkpt lat="39.896114" lon="116.63881">
        <time>2020-07-21T12:16:29Z</time>
      </trkpt>
      <trkpt lat="39.896114" lon="116.63881">
        <time>2020-07-21T12:16:34Z</time>
      </trkpt>
      <trkpt lat="39.896108" lon="116.639009">
        <time>2020-07-21T12:16:39Z</time>
      </trkpt>
      <trkpt lat="39.896167" lon="116.639172">
        <time>2020-07-21T12:16:44Z</time>
      </trkpt>
      <trkpt lat="39.896167" lon="116.639172">
        <time>2020-07-21T12:16:49Z</time>
      </trkpt>
      <trkpt lat="39.896211" lon="116.639311">
        <time>2020-07-21T12:16:54Z</time>
      </trkpt>
      <trkpt lat="39.896201" lon="116.639437">
        <time>2020-07-21T12:16:59Z</time>
      </trkpt>
      <trkpt lat="39.896213" lon="116.639561">
        <time>2020-07-21T12:17:04Z</time>
      </trkpt>
      <trkpt lat="39.896213" lon="116.639561">
        <time>2020-07-21T12:17:09Z</time>
      </trkpt>
      <trkpt lat="39.896227" lon="116.639664">
        <time>2020-07-21T12:17:14Z</time>
      </trkpt>
      <trkpt lat="39.896252" lon="116.639802">
        <time>2020-07-21T12:17:19Z</time>
      </trkpt>
      <trkpt lat="39.896214" lon="116.640003">
        <time>2020-07-21T12:17:24Z</time>
      </trkpt>
      <trkpt lat="39.896214" lon="116.640003">
        <time>2020-07-21T12:17:29Z</time>
      </trkpt>
      <trkpt lat="39.896263" lon="116.640234">
        <time>2020-07-21T12:17:34Z</time>
      </trkpt>
      <trkpt lat="39.896326" lon="116.64044">
        <time>2020-07-21T12:17:39Z</time>
      </trkpt>
      <trkpt lat="39.896326" lon="116.64044">
        <time>2020-07-21T12:17:44Z</time>
      </trkpt>
      <trkpt lat="39.896325" lon="116.6406">
        <time>2020-07-21T12:17:49Z</time>
      </trkpt>
      <trkpt lat="39.896317" lon="116.640716">
        <time>2020-07-21T12:17:54Z</time>
      </trkpt>
      <trkpt lat="39.896307" lon="116.640858">
        <time>2020-07-21T12:17:59Z</time>
      </trkpt>
      <trkpt lat="39.896307" lon="116.640858">
        <time>2020-07-21T12:18:04Z</time>
      </trkpt>
      <trkpt lat="39.896294" lon="116.640978">
        <time>2020-07-21T12:18:09Z</time>
      </trkpt>
      <trkpt lat="39.896303" lon="116.641137">
        <time>2020-07-21T12:18:14Z</time>
      </trkpt>
      <trkpt lat="39.896303" lon="116.641137">
        <time>2020-07-21T12:18:19Z</time>
      </trkpt>
      <trkpt lat="39.896277" lon="116.64138">
        <time>2020-07-21T12:18:24Z</time>
      </trkpt>
      <trkpt lat="39.896251" lon="116.6416">
        <time>2020-07-21T12:18:29Z</time>
      </trkpt>
      <trkpt lat="39.896226" lon="116.641831">
        <time>2020-07-21T12:18:34Z</time>
      </trkpt>
      <trkpt lat="39.896226" lon="116.641831">
        <time>2020-07-21T12:18:39Z</time>
      </trkpt>
      <trkpt lat="39.89622" lon="116.642013">
        <time>2020-07-21T12:18:44Z</time>
      </trkpt>
      <trkpt lat="39.896196" lon="116.642126">
        <time>2020-07-21T12:18:49Z</time>
      </trkpt>
      <trkpt lat="39.896196" lon="116.642126">
        <time>2020-07-21T12:18:54Z</time>
      </trkpt>
      <trkpt lat="39.896224" lon="116.642262">
        <time>2020-07-21T12:18:59Z</time>
      </trkpt>
      <trkpt lat="39.896201" lon="116.642418">
        <time>2020-07-21T12:19:04Z</time>
      </trkpt>
      <trkpt lat="39.89616" lon="116.642631">
        <time>2020-07-21T12:19:09Z</time>
      </trkpt>
      <trkpt lat="39.89616" lon="116.642631">
        <time>2020-07-21T12:19:14Z</time>
      </trkpt>
      <trkpt lat="39.896151" lon="116.64289">
        <time>2020-07-21T12:19:19Z</time>
      </trkpt>
      <trkpt lat="39.896124" lon="116.64313">
        <time>2020-07-21T12:19:24Z</time>
      </trkpt>
      <trkpt lat="39.896124" lon="116.64313">
        <time>2020-07-21T12:19:29Z</time>
      </trkpt>
      <trkpt lat="39.896127" lon="116.64336">
        <time>2020-07-21T12:19:34Z</time>
      </trkpt>
      <trkpt lat="39.89612" lon="116.643576">
        <time>2020-07-21T12:19:39Z</time>
      </trkpt>
      <trkpt lat="39.896091" lon="116.643793">
        <time>2020-07-21T12:19:44Z</time>
      </trkpt>
      <trkpt lat="39.896091" lon="116.643793">
        <time>2020-07-21T12:19:49Z</time>
      </trkpt>
      <trkpt lat="39.896098" lon="116.644">
        <time>2020-07-21T12:19:54Z</time>
      </trkpt>
      <trkpt lat="39.896128" lon="116.644197">
        <time>2020-07-21T12:19:59Z</time>
      </trkpt>
      <trkpt lat="39.896128" lon="116.644197">
        <time>2020-07-21T12:20:04Z</time>
      </trkpt>
      <trkpt lat="39.896151" lon="116.644315">
        <time>2020-07-21T12:20:09Z</time>
      </trkpt>
      <trkpt lat="39.896173" lon="116.644412">
        <time>2020-07-21T12:20:14Z</time>
      </trkpt>
      <trkpt lat="39.896179" lon="116.644502">
        <time>2020-07-21T12:20:19Z</time>
      </trkpt>
      <trkpt lat="39.896179" lon="116.644502">
        <time>2020-07-21T12:20:24Z</time>
      </trkpt>
      <trkpt lat="39.896207" lon="116.644608">
        <time>2020-07-21T12:20:29Z</time>
      </trkpt>
      <trkpt lat="39.896196" lon="116.644712">
        <time>2020-07-21T12:20:34Z</time>
      </trkpt>
      <trkpt lat="39.896196" lon="116.644712">
        <time>2020-07-21T12:20:39Z</time>
      </trkpt>
      <trkpt lat="39.89622" lon="116.64485">
        <time>2020-07-21T12:20:44Z</time>
      </trkpt>
      <trkpt lat="39.896195" lon="116.64497">
        <time>2020-07-21T12:20:49Z</time>
      </trkpt>
      <trkpt lat="39.896146" lon="116.645074">
        <time>2020-07-21T12:20:54Z</time>
      </trkpt>
      <trkpt lat="39.896146" lon="116.645074">
        <time>2020-07-21T12:20:59Z</time>
      </trkpt>
      <trkpt lat="39.896145" lon="116.645184">
        <time>2020-07-21T12:21:04Z</time>
      </trkpt>
      <trkpt lat="39.896082" lon="116.645321">
        <time>2020-07-21T12:21:09Z</time>
      </trkpt>
      <trkpt lat="39.896093" lon="116.645474">
        <time>2020-07-21T12:21:14Z</time>
      </trkpt>
      <trkpt lat="39.896093" lon="116.645474">
        <time>2020-07-21T12:21:19Z</time>
      </trkpt>
      <trkpt lat="39.896063" lon="116.645652">
        <time>2020-07-21T12:21:24Z</time>
      </trkpt>
      <trkpt lat="39.896" lon="116.645868">
        <time>2020-07-21T12:21:29Z</time>
      </trkpt>
      <trkpt lat="39.896" lon="116.645868">
        <time>2020-07-21T12:21:34Z</time>
      </trkpt>
      <trkpt lat="39.896017" lon="116.646091">
        <time>2020-07-21T12:21:39Z</time>
      </trkpt>
      <trkpt lat="39.895998" lon="116.646299">
        <time>2020-07-21T12:21:44Z</time>
      </trkpt>
      <trkpt lat="39.895966" lon="116.646518">
        <time>2020-07-21T12:21:49Z</time>
      </trkpt>
      <trkpt lat="39.895966" lon="116.646518">
        <time>2020-07-21T12:21:54Z</time>
      </trkpt>
      <trkpt lat="39.89593" lon="116.646673">
        <time>2020-07-21T12:21:59Z</time>
      </trkpt>
      <trkpt lat="39.895853" lon="116.646655">
        <time>2020-07-21T12:22:04Z</time>
      </trkpt>
      <trkpt lat="39.895853" lon="116.646655">
        <time>2020-07-21T12:22:09Z</time>
      </trkpt>
      <trkpt lat="39.895741" lon="116.646637">
        <time>2020-07-21T12:22:14Z</time>
      </trkpt>
      <trkpt lat="39.895654" lon="116.646579">
        <time>2020-07-21T12:22:19Z</time>
      </trkpt>
      <trkpt lat="39.895565" lon="116.64655">
        <time>2020-07-21T12:22:24Z</time>
      </trkpt>
      <trkpt lat="39.895565" lon="116.64655">
        <time>2020-07-21T12:22:29Z</time>
      </trkpt>
      <trkpt lat="39.895465" lon="116.646519">
        <time>2020-07-21T12:22:34Z</time>
      </trkpt>
      <trkpt lat="39.895326" lon="116.64646">
        <time>2020-07-21T12:22:39Z</time>
      </trkpt>
      <trkpt lat="39.895326" lon="116.64646">
        <time>2020-07-21T12:22:44Z</time>
      </trkpt>
      <trkpt lat="39.895187" lon="116.646377">
        <time>2020-07-21T12:22:49Z</time>
      </trkpt>
      <trkpt lat="39.895032" lon="116.646284">
        <time>2020-07-21T12:22:54Z</time>
      </trkpt>
      <trkpt lat="39.894851" lon="116.646175">
        <time>2020-07-21T12:22:59Z</time>
      </trkpt>
      <trkpt lat="39.894851" lon="116.646175">
        <time>2020-07-21T12:23:04Z</time>
      </trkpt>
      <trkpt lat="39.894691" lon="116.646089">
        <time>2020-07-21T12:23:09Z</time>
      </trkpt>
      <trkpt lat="39.89459" lon="116.646035">
        <time>2020-07-21T12:23:14Z</time>
      </trkpt>
      <trkpt lat="39.89459" lon="116.646035">
        <time>2020-07-21T12:23:19Z</time>
      </trkpt>
      <trkpt lat="39.894476" lon="116.646011">
        <time>2020-07-21T12:23:24Z</time>
      </trkpt>
      <trkpt lat="39.894345" lon="116.645994">
        <time>2020-07-21T12:23:29Z</time>
      </trkpt>
      <trkpt lat="39.894233" lon="116.645979">
        <time>2020-07-21T12:23:34Z</time>
      </trkpt>
      <trkpt lat="39.894233" lon="116.645979">
        <time>2020-07-21T12:23:39Z</time>
      </trkpt>
      <trkpt lat="39.894135" lon="116.645907">
        <time>2020-07-21T12:23:44Z</time>
      </trkpt>
      <trkpt lat="39.894049" lon="116.645827">
        <time>2020-07-21T12:23:49Z</time>
      </trkpt>
      <trkpt lat="39.894049" lon="116.645827">
        <time>2020-07-21T12:23:54Z</time>
      </trkpt>
      <trkpt lat="39.893979" lon="116.645762">
        <time>2020-07-21T12:23:59Z</time>
      </trkpt>
      <trkpt lat="39.893891" lon="116.645766">
        <time>2020-07-21T12:24:04Z</time>
      </trkpt>
      <trkpt lat="39.8938" lon="116.64591">
        <time>2020-07-21T12:24:09Z</time>
      </trkpt>
      <trkpt lat="39.8938" lon="116.64591">
        <time>2020-07-21T12:24:14Z</time>
      </trkpt>
      <trkpt lat="39.893693" lon="116.646043">
        <time>2020-07-21T12:24:19Z</time>
      </trkpt>
      <trkpt lat="39.893563" lon="116.646116">
        <time>2020-07-21T12:24:24Z</time>
      </trkpt>
      <trkpt lat="39.893563" lon="116.646116">
        <time>2020-07-21T12:24:29Z</time>
      </trkpt>
      <trkpt lat="39.893394" lon="116.646074">
        <time>2020-07-21T12:24:34Z</time>
      </trkpt>
      <trkpt lat="39.893245" lon="116.645946">
        <time>2020-07-21T12:24:39Z</time>
      </trkpt>
      <trkpt lat="39.893067" lon="116.645882">
        <time>2020-07-21T12:24:44Z</time>
      </trkpt>
      <trkpt lat="39.893067" lon="116.645882">
        <time>2020-07-21T12:24:49Z</time>
      </trkpt>
      <trkpt lat="39.892902" lon="116.645867">
        <time>2020-07-21T12:24:54Z</time>
      </trkpt>
      <trkpt lat="39.892819" lon="116.645801">
        <time>2020-07-21T12:24:59Z</time>
      </trkpt>
      <trkpt lat="39.892819" lon="116.645801">
        <time>2020-07-21T12:25:04Z</time>
      </trkpt>
      <trkpt lat="39.892748" lon="116.645697">
        <time>2020-07-21T12:25:09Z</time>
      </trkpt>
      <trkpt lat="39.892672" lon="116.64566">
        <time>2020-07-21T12:25:14Z</time>
      </trkpt>
      <trkpt lat="39.892564" lon="116.645662">
        <time>2020-07-21T12:25:19Z</time>
      </trkpt>
      <trkpt lat="39.892564" lon="116.645662">
        <time>2020-07-21T12:25:24Z</time>
      </trkpt>
      <trkpt lat="39.89242" lon="116.645631">
        <time>2020-07-21T12:25:29Z</time>
      </trkpt>
      <trkpt lat="39.89224" lon="116.645593">
        <time>2020-07-21T12:25:34Z</time>
      </trkpt>
      <trkpt lat="39.892091" lon="116.645497">
        <time>2020-07-21T12:25:39Z</time>
      </trkpt>
      <trkpt lat="39.892091" lon="116.645497">
        <time>2020-07-21T12:25:44Z</time>
      </trkpt>
      <trkpt lat="39.891923" lon="116.645415">
        <time>2020-07-21T12:25:49Z</time>
      </trkpt>
      <trkpt lat="39.891754" lon="116.645338">
        <time>2020-07-21T12:25:54Z</time>
      </trkpt>
      <trkpt lat="39.891754" lon="116.645338">
        <time>2020-07-21T12:25:59Z</time>
      </trkpt>
      <trkpt lat="39.891555" lon="116.645359">
        <time>2020-07-21T12:26:04Z</time>
      </trkpt>
      <trkpt lat="39.891431" lon="116.645311">
        <time>2020-07-21T12:26:09Z</time>
      </trkpt>
      <trkpt lat="39.891447" lon="116.645355">
        <time>2020-07-21T12:26:14Z</time>
      </trkpt>
      <trkpt lat="39.891447" lon="116.645355">
        <time>2020-07-21T12:26:19Z</time>
      </trkpt>
      <trkpt lat="39.891506" lon="116.645374">
        <time>2020-07-21T12:26:24Z</time>
      </trkpt>
      <trkpt lat="39.891645" lon="116.645469">
        <time>2020-07-21T12:26:29Z</time>
      </trkpt>
      <trkpt lat="39.891645" lon="116.645469">
        <time>2020-07-21T12:26:34Z</time>
      </trkpt>
      <trkpt lat="39.89182" lon="116.64556">
        <time>2020-07-21T12:26:39Z</time>
      </trkpt>
      <trkpt lat="39.891936" lon="116.645636">
        <time>2020-07-21T12:26:44Z</time>
      </trkpt>
      <trkpt lat="39.892059" lon="116.645701">
        <time>2020-07-21T12:26:49Z</time>
      </trkpt>
      <trkpt lat="39.892059" lon="116.645701">
        <time>2020-07-21T12:26:54Z</time>
      </trkpt>
      <trkpt lat="39.892223" lon="116.645779">
        <time>2020-07-21T12:26:59Z</time>
      </trkpt>
      <trkpt lat="39.892416" lon="116.645839">
        <time>2020-07-21T12:27:04Z</time>
      </trkpt>
      <trkpt lat="39.892416" lon="116.645839">
        <time>2020-07-21T12:27:09Z</time>
      </trkpt>
      <trkpt lat="39.892584" lon="116.645865">
        <time>2020-07-21T12:27:14Z</time>
      </trkpt>
      <trkpt lat="39.892769" lon="116.645927">
        <time>2020-07-21T12:27:19Z</time>
      </trkpt>
      <trkpt lat="39.892967" lon="116.646025">
        <time>2020-07-21T12:27:24Z</time>
      </trkpt>
      <trkpt lat="39.892967" lon="116.646025">
        <time>2020-07-21T12:27:29Z</time>
      </trkpt>
      <trkpt lat="39.893063" lon="116.646054">
        <time>2020-07-21T12:27:34Z</time>
      </trkpt>
      <trkpt lat="39.893157" lon="116.646103">
        <time>2020-07-21T12:27:39Z</time>
      </trkpt>
      <trkpt lat="39.893157" lon="116.646103">
        <time>2020-07-21T12:27:44Z</time>
      </trkpt>
      <trkpt lat="39.893246" lon="116.646136">
        <time>2020-07-21T12:27:49Z</time>
      </trkpt>
      <trkpt lat="39.893365" lon="116.646207">
        <time>2020-07-21T12:27:54Z</time>
      </trkpt>
      <trkpt lat="39.893495" lon="116.646158">
        <time>2020-07-21T12:27:59Z</time>
      </trkpt>
      <trkpt lat="39.893495" lon="116.646158">
        <time>2020-07-21T12:28:04Z</time>
      </trkpt>
      <trkpt lat="39.893599" lon="116.645982">
        <time>2020-07-21T12:28:09Z</time>
      </trkpt>
      <trkpt lat="39.893683" lon="116.6458">
        <time>2020-07-21T12:28:14Z</time>
      </trkpt>
      <trkpt lat="39.893683" lon="116.6458">
        <time>2020-07-21T12:28:19Z</time>
      </trkpt>
      <trkpt lat="39.893815" lon="116.645759">
        <time>2020-07-21T12:28:24Z</time>
      </trkpt>
      <trkpt lat="39.89393" lon="116.645819">
        <time>2020-07-21T12:28:29Z</time>
      </trkpt>
      <trkpt lat="39.894035" lon="116.645894">
        <time>2020-07-21T12:28:34Z</time>
      </trkpt>
      <trkpt lat="39.894035" lon="116.645894">
        <time>2020-07-21T12:28:39Z</time>
      </trkpt>
      <trkpt lat="39.894227" lon="116.645968">
        <time>2020-07-21T12:28:44Z</time>
      </trkpt>
      <trkpt lat="39.894395" lon="116.646063">
        <time>2020-07-21T12:28:49Z</time>
      </trkpt>
      <trkpt lat="39.894395" lon="116.646063">
        <time>2020-07-21T12:28:54Z</time>
      </trkpt>
      <trkpt lat="39.894494" lon="116.646079">
        <time>2020-07-21T12:28:59Z</time>
      </trkpt>
      <trkpt lat="39.894552" lon="116.646112">
        <time>2020-07-21T12:29:04Z</time>
      </trkpt>
      <trkpt lat="39.89461" lon="116.646177">
        <time>2020-07-21T12:29:09Z</time>
      </trkpt>
      <trkpt lat="39.89461" lon="116.646177">
        <time>2020-07-21T12:29:14Z</time>
      </trkpt>
      <trkpt lat="39.894665" lon="116.646262">
        <time>2020-07-21T12:29:19Z</time>
      </trkpt>
      <trkpt lat="39.894763" lon="116.646273">
        <time>2020-07-21T12:29:24Z</time>
      </trkpt>
      <trkpt lat="39.894763" lon="116.646273">
        <time>2020-07-21T12:29:29Z</time>
      </trkpt>
      <trkpt lat="39.894868" lon="116.64633">
        <time>2020-07-21T12:29:34Z</time>
      </trkpt>
      <trkpt lat="39.894955" lon="116.646353">
        <time>2020-07-21T12:29:39Z</time>
      </trkpt>
      <trkpt lat="39.895049" lon="116.646353">
        <time>2020-07-21T12:29:44Z</time>
      </trkpt>
      <trkpt lat="39.895049" lon="116.646353">
        <time>2020-07-21T12:29:49Z</time>
      </trkpt>
      <trkpt lat="39.895162" lon="116.646462">
        <time>2020-07-21T12:29:54Z</time>
      </trkpt>
      <trkpt lat="39.895267" lon="116.646506">
        <time>2020-07-21T12:29:59Z</time>
      </trkpt>
      <trkpt lat="39.895413" lon="116.646571">
        <time>2020-07-21T12:30:04Z</time>
      </trkpt>
      <trkpt lat="39.895413" lon="116.646571">
        <time>2020-07-21T12:30:09Z</time>
      </trkpt>
      <trkpt lat="39.895555" lon="116.64666">
        <time>2020-07-21T12:30:14Z</time>
      </trkpt>
      <trkpt lat="39.895693" lon="116.646722">
        <time>2020-07-21T12:30:19Z</time>
      </trkpt>
      <trkpt lat="39.895693" lon="116.646722">
        <time>2020-07-21T12:30:24Z</time>
      </trkpt>
      <trkpt lat="39.895786" lon="116.646636">
        <time>2020-07-21T12:30:29Z</time>
      </trkpt>
      <trkpt lat="39.895804" lon="116.646476">
        <time>2020-07-21T12:30:34Z</time>
      </trkpt>
      <trkpt lat="39.895793" lon="116.646272">
        <time>2020-07-21T12:30:39Z</time>
      </trkpt>
      <trkpt lat="39.895793" lon="116.646272">
        <time>2020-07-21T12:30:44Z</time>
      </trkpt>
      <trkpt lat="39.895792" lon="116.646057">
        <time>2020-07-21T12:30:49Z</time>
      </trkpt>
      <trkpt lat="39.895778" lon="116.645846">
        <time>2020-07-21T12:30:54Z</time>
      </trkpt>
      <trkpt lat="39.895778" lon="116.645846">
        <time>2020-07-21T12:30:59Z</time>
      </trkpt>
      <trkpt lat="39.8958" lon="116.645677">
        <time>2020-07-21T12:31:04Z</time>
      </trkpt>
      <trkpt lat="39.895839" lon="116.645543">
        <time>2020-07-21T12:31:09Z</time>
      </trkpt>
      <trkpt lat="39.895897" lon="116.645384">
        <time>2020-07-21T12:31:14Z</time>
      </trkpt>
      <trkpt lat="39.895897" lon="116.645384">
        <time>2020-07-21T12:31:19Z</time>
      </trkpt>
      <trkpt lat="39.89591" lon="116.645226">
        <time>2020-07-21T12:31:24Z</time>
      </trkpt>
      <trkpt lat="39.895913" lon="116.645082">
        <time>2020-07-21T12:31:29Z</time>
      </trkpt>
      <trkpt lat="39.895913" lon="116.645082">
        <time>2020-07-21T12:31:34Z</time>
      </trkpt>
      <trkpt lat="39.895903" lon="116.644894">
        <time>2020-07-21T12:31:39Z</time>
      </trkpt>
      <trkpt lat="39.895907" lon="116.644738">
        <time>2020-07-21T12:31:44Z</time>
      </trkpt>
      <trkpt lat="39.895907" lon="116.644581">
        <time>2020-07-21T12:31:49Z</time>
      </trkpt>
      <trkpt lat="39.895907" lon="116.644581">
        <time>2020-07-21T12:31:54Z</time>
      </trkpt>
      <trkpt lat="39.895896" lon="116.64443">
        <time>2020-07-21T12:31:59Z</time>
      </trkpt>
      <trkpt lat="39.895892" lon="116.644257">
        <time>2020-07-21T12:32:04Z</time>
      </trkpt>
      <trkpt lat="39.895892" lon="116.644257">
        <time>2020-07-21T12:32:09Z</time>
      </trkpt>
      <trkpt lat="39.895898" lon="116.644081">
        <time>2020-07-21T12:32:14Z</time>
      </trkpt>
      <trkpt lat="39.89592" lon="116.643894">
        <time>2020-07-21T12:32:19Z</time>
      </trkpt>
      <trkpt lat="39.895916" lon="116.643691">
        <time>2020-07-21T12:32:24Z</time>
      </trkpt>
      <trkpt lat="39.895916" lon="116.643691">
        <time>2020-07-21T12:32:29Z</time>
      </trkpt>
      <trkpt lat="39.895919" lon="116.643493">
        <time>2020-07-21T12:32:34Z</time>
      </trkpt>
      <trkpt lat="39.895901" lon="116.643317">
        <time>2020-07-21T12:32:39Z</time>
      </trkpt>
      <trkpt lat="39.895901" lon="116.643317">
        <time>2020-07-21T12:32:44Z</time>
      </trkpt>
      <trkpt lat="39.895919" lon="116.643161">
        <time>2020-07-21T12:32:49Z</time>
      </trkpt>
      <trkpt lat="39.895955" lon="116.643003">
        <time>2020-07-21T12:32:54Z</time>
      </trkpt>
      <trkpt lat="39.895966" lon="116.642821">
        <time>2020-07-21T12:32:59Z</time>
      </trkpt>
      <trkpt lat="39.895966" lon="116.642821">
        <time>2020-07-21T12:33:04Z</time>
      </trkpt>
      <trkpt lat="39.895952" lon="116.642627">
        <time>2020-07-21T12:33:09Z</time>
      </trkpt>
      <trkpt lat="39.895945" lon="116.64244">
        <time>2020-07-21T12:33:14Z</time>
      </trkpt>
      <trkpt lat="39.895945" lon="116.64244">
        <time>2020-07-21T12:33:19Z</time>
      </trkpt>
      <trkpt lat="39.89595" lon="116.642283">
        <time>2020-07-21T12:33:24Z</time>
      </trkpt>
      <trkpt lat="39.895949" lon="116.642134">
        <time>2020-07-21T12:33:29Z</time>
      </trkpt>
      <trkpt lat="39.895951" lon="116.641961">
        <time>2020-07-21T12:33:34Z</time>
      </trkpt>
      <trkpt lat="39.895951" lon="116.641961">
        <time>2020-07-21T12:33:39Z</time>
      </trkpt>
      <trkpt lat="39.895973" lon="116.641759">
        <time>2020-07-21T12:33:44Z</time>
      </trkpt>
      <trkpt lat="39.896004" lon="116.641582">
        <time>2020-07-21T12:33:49Z</time>
      </trkpt>
      <trkpt lat="39.896008" lon="116.641385">
        <time>2020-07-21T12:33:54Z</time>
      </trkpt>
      <trkpt lat="39.896008" lon="116.641385">
        <time>2020-07-21T12:33:59Z</time>
      </trkpt>
      <trkpt lat="39.895995" lon="116.641221">
        <time>2020-07-21T12:34:04Z</time>
      </trkpt>
      <trkpt lat="39.895995" lon="116.641038">
        <time>2020-07-21T12:34:09Z</time>
      </trkpt>
      <trkpt lat="39.895995" lon="116.641038">
        <time>2020-07-21T12:34:14Z</time>
      </trkpt>
      <trkpt lat="39.896008" lon="116.640871">
        <time>2020-07-21T12:34:19Z</time>
      </trkpt>
      <trkpt lat="39.895966" lon="116.640707">
        <time>2020-07-21T12:34:24Z</time>
      </trkpt>
      <trkpt lat="39.895958" lon="116.640508">
        <time>2020-07-21T12:34:29Z</time>
      </trkpt>
      <trkpt lat="39.895958" lon="116.640508">
        <time>2020-07-21T12:34:34Z</time>
      </trkpt>
      <trkpt lat="39.896392" lon="116.640355">
        <time>2020-07-21T12:34:39Z</time>
      </trkpt>
      <trkpt lat="39.896392" lon="116.640355">
        <time>2020-07-21T12:34:44Z</time>
      </trkpt>
      <trkpt lat="39.896392" lon="116.640355">
        <time>2020-07-21T12:34:49Z</time>
      </trkpt>
      <trkpt lat="39.896474" lon="116.640463">
        <time>2020-07-21T12:34:54Z</time>
      </trkpt>
      <trkpt lat="39.896578" lon="116.640521">
        <time>2020-07-21T12:34:59Z</time>
      </trkpt>
      <trkpt lat="39.896578" lon="116.640521">
        <time>2020-07-21T12:35:04Z</time>
      </trkpt>
      <trkpt lat="39.896689" lon="116.640578">
        <time>2020-07-21T12:35:09Z</time>
      </trkpt>
      <trkpt lat="39.896874" lon="116.640719">
        <time>2020-07-21T12:35:14Z</time>
      </trkpt>
      <trkpt lat="39.897069" lon="116.640754">
        <time>2020-07-21T12:35:19Z</time>
      </trkpt>
      <trkpt lat="39.897069" lon="116.640754">
        <time>2020-07-21T12:35:24Z</time>
      </trkpt>
      <trkpt lat="39.897184" lon="116.640793">
        <time>2020-07-21T12:35:29Z</time>
      </trkpt>
      <trkpt lat="39.897317" lon="116.640845">
        <time>2020-07-21T12:35:34Z</time>
      </trkpt>
      <trkpt lat="39.897317" lon="116.640845">
        <time>2020-07-21T12:35:39Z</time>
      </trkpt>
      <trkpt lat="39.897421" lon="116.640948">
        <time>2020-07-21T12:35:44Z</time>
      </trkpt>
      <trkpt lat="39.897522" lon="116.64097">
        <time>2020-07-21T12:35:49Z</time>
      </trkpt>
      <trkpt lat="39.897642" lon="116.641042">
        <time>2020-07-21T12:35:54Z</time>
      </trkpt>
      <trkpt lat="39.897642" lon="116.641042">
        <time>2020-07-21T12:35:59Z</time>
      </trkpt>
      <trkpt lat="39.897786" lon="116.64112">
        <time>2020-07-21T12:36:04Z</time>
      </trkpt>
      <trkpt lat="39.89787" lon="116.641136">
        <time>2020-07-21T12:36:09Z</time>
      </trkpt>
      <trkpt lat="39.89787" lon="116.641136">
        <time>2020-07-21T12:36:14Z</time>
      </trkpt>
      <trkpt lat="39.897942" lon="116.641171">
        <time>2020-07-21T12:36:19Z</time>
      </trkpt>
      <trkpt lat="39.898008" lon="116.641175">
        <time>2020-07-21T12:36:24Z</time>
      </trkpt>
      <trkpt lat="39.898092" lon="116.641199">
        <time>2020-07-21T12:36:29Z</time>
      </trkpt>
      <trkpt lat="39.898092" lon="116.641199">
        <time>2020-07-21T12:36:34Z</time>
      </trkpt>
      <trkpt lat="39.898159" lon="116.641307">
        <time>2020-07-21T12:36:39Z</time>
      </trkpt>
      <trkpt lat="39.898145" lon="116.641476">
        <time>2020-07-21T12:36:44Z</time>
      </trkpt>
      <trkpt lat="39.898145" lon="116.641476">
        <time>2020-07-21T12:36:49Z</time>
      </trkpt>
      <trkpt lat="39.898101" lon="116.641639">
        <time>2020-07-21T12:36:54Z</time>
      </trkpt>
      <trkpt lat="39.898108" lon="116.641815">
        <time>2020-07-21T12:36:59Z</time>
      </trkpt>
      <trkpt lat="39.89811" lon="116.642019">
        <time>2020-07-21T12:37:04Z</time>
      </trkpt>
      <trkpt lat="39.89811" lon="116.642019">
        <time>2020-07-21T12:37:09Z</time>
      </trkpt>
      <trkpt lat="39.898138" lon="116.642246">
        <time>2020-07-21T12:37:14Z</time>
      </trkpt>
      <trkpt lat="39.898138" lon="116.642435">
        <time>2020-07-21T12:37:19Z</time>
      </trkpt>
      <trkpt lat="39.898138" lon="116.642435">
        <time>2020-07-21T12:37:24Z</time>
      </trkpt>
      <trkpt lat="39.898129" lon="116.642559">
        <time>2020-07-21T12:37:29Z</time>
      </trkpt>
      <trkpt lat="39.898115" lon="116.642678">
        <time>2020-07-21T12:37:34Z</time>
      </trkpt>
      <trkpt lat="39.898157" lon="116.642807">
        <time>2020-07-21T12:37:39Z</time>
      </trkpt>
      <trkpt lat="39.898157" lon="116.642807">
        <time>2020-07-21T12:37:44Z</time>
      </trkpt>
      <trkpt lat="39.898171" lon="116.642944">
        <time>2020-07-21T12:37:49Z</time>
      </trkpt>
      <trkpt lat="39.898168" lon="116.643068">
        <time>2020-07-21T12:37:54Z</time>
      </trkpt>
      <trkpt lat="39.898168" lon="116.643068">
        <time>2020-07-21T12:37:59Z</time>
      </trkpt>
      <trkpt lat="39.898194" lon="116.643197">
        <time>2020-07-21T12:38:04Z</time>
      </trkpt>
      <trkpt lat="39.89827" lon="116.643261">
        <time>2020-07-21T12:38:09Z</time>
      </trkpt>
      <trkpt lat="39.898319" lon="116.643249">
        <time>2020-07-21T12:38:14Z</time>
      </trkpt>
      <trkpt lat="39.898319" lon="116.643249">
        <time>2020-07-21T12:38:19Z</time>
      </trkpt>
      <trkpt lat="39.898284" lon="116.643187">
        <time>2020-07-21T12:38:24Z</time>
      </trkpt>
      <trkpt lat="39.89825" lon="116.643072">
        <time>2020-07-21T12:38:29Z</time>
      </trkpt>
      <trkpt lat="39.898307" lon="116.642916">
        <time>2020-07-21T12:38:34Z</time>
      </trkpt>
      <trkpt lat="39.898307" lon="116.642916">
        <time>2020-07-21T12:38:39Z</time>
      </trkpt>
      <trkpt lat="39.898276" lon="116.642702">
        <time>2020-07-21T12:38:44Z</time>
      </trkpt>
      <trkpt lat="39.898241" lon="116.64246">
        <time>2020-07-21T12:38:49Z</time>
      </trkpt>
      <trkpt lat="39.898241" lon="116.64246">
        <time>2020-07-21T12:38:54Z</time>
      </trkpt>
      <trkpt lat="39.898151" lon="116.642165">
        <time>2020-07-21T12:38:59Z</time>
      </trkpt>
      <trkpt lat="39.898148" lon="116.641971">
        <time>2020-07-21T12:39:04Z</time>
      </trkpt>
      <trkpt lat="39.898183" lon="116.641767">
        <time>2020-07-21T12:39:09Z</time>
      </trkpt>
      <trkpt lat="39.898183" lon="116.641767">
        <time>2020-07-21T12:39:14Z</time>
      </trkpt>
      <trkpt lat="39.898256" lon="116.641578">
        <time>2020-07-21T12:39:19Z</time>
      </trkpt>
      <trkpt lat="39.89821" lon="116.641378">
        <time>2020-07-21T12:39:24Z</time>
      </trkpt>
      <trkpt lat="39.89821" lon="116.641378">
        <time>2020-07-21T12:39:29Z</time>
      </trkpt>
      <trkpt lat="39.898033" lon="116.641288">
        <time>2020-07-21T12:39:34Z</time>
      </trkpt>
      <trkpt lat="39.897868" lon="116.641209">
        <time>2020-07-21T12:39:39Z</time>
      </trkpt>
      <trkpt lat="39.897745" lon="116.64109">
        <time>2020-07-21T12:39:44Z</time>
      </trkpt>
      <trkpt lat="39.897745" lon="116.64109">
        <time>2020-07-21T12:39:49Z</time>
      </trkpt>
      <trkpt lat="39.897583" lon="116.641">
        <time>2020-07-21T12:39:54Z</time>
      </trkpt>
      <trkpt lat="39.897388" lon="116.640935">
        <time>2020-07-21T12:39:59Z</time>
      </trkpt>
      <trkpt lat="39.897388" lon="116.640935">
        <time>2020-07-21T12:40:04Z</time>
      </trkpt>
      <trkpt lat="39.897202" lon="116.640869">
        <time>2020-07-21T12:40:09Z</time>
      </trkpt>
      <trkpt lat="39.897112" lon="116.640877">
        <time>2020-07-21T12:40:14Z</time>
      </trkpt>
      <trkpt lat="39.896986" lon="116.640862">
        <time>2020-07-21T12:40:19Z</time>
      </trkpt>
      <trkpt lat="39.896986" lon="116.640862">
        <time>2020-07-21T12:40:24Z</time>
      </trkpt>
      <trkpt lat="39.896942" lon="116.64072">
        <time>2020-07-21T12:40:29Z</time>
      </trkpt>
      <trkpt lat="39.896851" lon="116.640658">
        <time>2020-07-21T12:40:34Z</time>
      </trkpt>
      <trkpt lat="39.896851" lon="116.640658">
        <time>2020-07-21T12:40:39Z</time>
      </trkpt>
      <trkpt lat="39.896765" lon="116.640634">
        <time>2020-07-21T12:40:44Z</time>
      </trkpt>
      <trkpt lat="39.896683" lon="116.640588">
        <time>2020-07-21T12:40:49Z</time>
      </trkpt>
      <trkpt lat="39.896683" lon="116.640588">
        <time>2020-07-21T12:40:54Z</time>
      </trkpt>
      <trkpt lat="39.896606" lon="116.640546">
        <time>2020-07-21T12:40:59Z</time>
      </trkpt>
      <trkpt lat="39.896524" lon="116.6405">
        <time>2020-07-21T12:41:04Z</time>
      </trkpt>
      <trkpt lat="39.896524" lon="116.6405">
        <time>2020-07-21T12:41:09Z</time>
      </trkpt>
      <trkpt lat="39.896387" lon="116.640456">
        <time>2020-07-21T12:41:14Z</time>
      </trkpt>
      <trkpt lat="39.896323" lon="116.640358">
        <time>2020-07-21T12:41:19Z</time>
      </trkpt>
      <trkpt lat="39.896245" lon="116.640299">
        <time>2020-07-21T12:41:24Z</time>
      </trkpt>
      <trkpt lat="39.896245" lon="116.640299">
        <time>2020-07-21T12:41:29Z</time>
      </trkpt>
      <trkpt lat="39.896245" lon="116.640299">
        <time>2020-07-21T12:41:34Z</time>
      </trkpt>
      <trkpt lat="39.896245" lon="116.640299">
        <time>2020-07-21T12:41:39Z</time>
      </trkpt>
      <trkpt lat="39.896245" lon="116.640299">
        <time>2020-07-21T12:41:44Z</time>
      </trkpt>
      <trkpt lat="39.896037" lon="116.640244">
        <time>2020-07-21T12:41:49Z</time>
      </trkpt>
      <trkpt lat="39.89601" lon="116.640147">
        <time>2020-07-21T12:41:54Z</time>
      </trkpt>
      <trkpt lat="39.895989" lon="116.639988">
        <time>2020-07-21T12:41:59Z</time>
      </trkpt>
      <trkpt lat="39.895989" lon="116.639988">
        <time>2020-07-21T12:42:04Z</time>
      </trkpt>
      <trkpt lat="39.895998" lon="116.639766">
        <time>2020-07-21T12:42:09Z</time>
      </trkpt>
      <trkpt lat="39.895984" lon="116.639537">
        <time>2020-07-21T12:42:14Z</time>
      </trkpt>
      <trkpt lat="39.895984" lon="116.639537">
        <time>2020-07-21T12:42:19Z</time>
      </trkpt>
      <trkpt lat="39.895983" lon="116.639338">
        <time>2020-07-21T12:42:24Z</time>
      </trkpt>
      <trkpt lat="39.896" lon="116.639142">
        <time>2020-07-21T12:42:29Z</time>
      </trkpt>
      <trkpt lat="39.896009" lon="116.638946">
        <time>2020-07-21T12:42:34Z</time>
      </trkpt>
      <trkpt lat="39.896009" lon="116.638946">
        <time>2020-07-21T12:42:39Z</time>
      </trkpt>
      <trkpt lat="39.895999" lon="116.638805">
        <time>2020-07-21T12:42:44Z</time>
      </trkpt>
      <trkpt lat="39.896005" lon="116.638712">
        <time>2020-07-21T12:42:49Z</time>
      </trkpt>
      <trkpt lat="39.895983" lon="116.638628">
        <time>2020-07-21T12:42:54Z</time>
      </trkpt>
      <trkpt lat="39.895983" lon="116.638628">
        <time>2020-07-21T12:42:59Z</time>
      </trkpt>
      <trkpt lat="39.895982" lon="116.638526">
        <time>2020-07-21T12:43:04Z</time>
      </trkpt>
      <trkpt lat="39.895981" lon="116.63841">
        <time>2020-07-21T12:43:09Z</time>
      </trkpt>
      <trkpt lat="39.895981" lon="116.63841">
        <time>2020-07-21T12:43:14Z</time>
      </trkpt>
      <trkpt lat="39.895973" lon="116.638279">
        <time>2020-07-21T12:43:19Z</time>
      </trkpt>
      <trkpt lat="39.895963" lon="116.638154">
        <time>2020-07-21T12:43:24Z</time>
      </trkpt>
      <trkpt lat="39.89596" lon="116.638032">
        <time>2020-07-21T12:43:29Z</time>
      </trkpt>
      <trkpt lat="39.89596" lon="116.638032">
        <time>2020-07-21T12:43:34Z</time>
      </trkpt>
      <trkpt lat="39.895957" lon="116.637883">
        <time>2020-07-21T12:43:39Z</time>
      </trkpt>
      <trkpt lat="39.895955" lon="116.637764">
        <time>2020-07-21T12:43:44Z</time>
      </trkpt>
      <trkpt lat="39.895955" lon="116.637764">
        <time>2020-07-21T12:43:49Z</time>
      </trkpt>
      <trkpt lat="39.895958" lon="116.637625">
        <time>2020-07-21T12:43:54Z</time>
      </trkpt>
      <trkpt lat="39.895945" lon="116.637501">
        <time>2020-07-21T12:43:59Z</time>
      </trkpt>
      <trkpt lat="39.895909" lon="116.637422">
        <time>2020-07-21T12:44:04Z</time>
      </trkpt>
      <trkpt lat="39.895909" lon="116.637422">
        <time>2020-07-21T12:44:09Z</time>
      </trkpt>
      <trkpt lat="39.895894" lon="116.63729">
        <time>2020-07-21T12:44:14Z</time>
      </trkpt>
      <trkpt lat="39.895915" lon="116.637147">
        <time>2020-07-21T12:44:19Z</time>
      </trkpt>
      <trkpt lat="39.895915" lon="116.637147">
        <time>2020-07-21T12:44:24Z</time>
      </trkpt>
      <trkpt lat="39.895932" lon="116.637">
        <time>2020-07-21T12:44:29Z</time>
      </trkpt>
      <trkpt lat="39.895927" lon="116.636892">
        <time>2020-07-21T12:44:34Z</time>
      </trkpt>
      <trkpt lat="39.895942" lon="116.636809">
        <time>2020-07-21T12:44:39Z</time>
      </trkpt>
      <trkpt lat="39.895942" lon="116.636809">
        <time>2020-07-21T12:44:44Z</time>
      </trkpt>
      <trkpt lat="39.895964" lon="116.63679">
        <time>2020-07-21T12:44:49Z</time>
      </trkpt>
      <trkpt lat="39.895966" lon="116.636792">
        <time>2020-07-21T12:44:54Z</time>
      </trkpt>
      <trkpt lat="39.895966" lon="116.636792">
        <time>2020-07-21T12:44:59Z</time>
      </trkpt>
      <trkpt lat="39.895997" lon="116.636802">
        <time>2020-07-21T12:45:04Z</time>
      </trkpt>
      <trkpt lat="39.895985" lon="116.636768">
        <time>2020-07-21T12:45:09Z</time>
      </trkpt>
      <trkpt lat="39.895985" lon="116.636768">
        <time>2020-07-21T12:45:14Z</time>
      </trkpt>
      <trkpt lat="39.895971" lon="116.636776">
        <time>2020-07-21T12:45:19Z</time>
      </trkpt>
      <trkpt lat="39.895971" lon="116.636776">
        <time>2020-07-21T12:45:24Z</time>
      </trkpt>
      <trkpt lat="39.895972" lon="116.636779">
        <time>2020-07-21T12:45:29Z</time>
      </trkpt>
      <trkpt lat="39.895984" lon="116.636757">
        <time>2020-07-21T12:45:34Z</time>
      </trkpt>
      <trkpt lat="39.895984" lon="116.636757">
        <time>2020-07-21T12:45:39Z</time>
      </trkpt>
      <trkpt lat="39.896005" lon="116.636805">
        <time>2020-07-21T12:45:44Z</time>
      </trkpt>
      <trkpt lat="39.896008" lon="116.636783">
        <time>2020-07-21T12:45:49Z</time>
      </trkpt>
      <trkpt lat="39.896008" lon="116.636783">
        <time>2020-07-21T12:45:54Z</time>
      </trkpt>
      <trkpt lat="39.89599" lon="116.636765">
        <time>2020-07-21T12:45:59Z</time>
      </trkpt>
      <trkpt lat="39.89603" lon="116.636786">
        <time>2020-07-21T12:46:04Z</time>
      </trkpt>
      <trkpt lat="39.896055" lon="116.636763">
        <time>2020-07-21T12:46:09Z</time>
      </trkpt>
      <trkpt lat="39.896055" lon="116.636763">
        <time>2020-07-21T12:46:14Z</time>
      </trkpt>
      <trkpt lat="39.896054" lon="116.636729">
        <time>2020-07-21T12:46:19Z</time>
      </trkpt>
      <trkpt lat="39.896042" lon="116.636716">
        <time>2020-07-21T12:46:24Z</time>
      </trkpt>
      <trkpt lat="39.896042" lon="116.636716">
        <time>2020-07-21T12:46:29Z</time>
      </trkpt>
      <trkpt lat="39.895997" lon="116.636684">
        <time>2020-07-21T12:46:34Z</time>
      </trkpt>
      <trkpt lat="39.895956" lon="116.636692">
        <time>2020-07-21T12:46:39Z</time>
      </trkpt>
      <trkpt lat="39.895956" lon="116.636692">
        <time>2020-07-21T12:46:44Z</time>
      </trkpt>
      <trkpt lat="39.895901" lon="116.636712">
        <time>2020-07-21T12:46:49Z</time>
      </trkpt>
      <trkpt lat="39.895885" lon="116.636715">
        <time>2020-07-21T12:46:54Z</time>
      </trkpt>
      <trkpt lat="39.895885" lon="116.636715">
        <time>2020-07-21T12:46:59Z</time>
      </trkpt>
      <trkpt lat="39.895902" lon="116.636716">
        <time>2020-07-21T12:47:04Z</time>
      </trkpt>
      <trkpt lat="39.895901" lon="116.636718">
        <time>2020-07-21T12:47:09Z</time>
      </trkpt>
      <trkpt lat="39.895853" lon="116.636663">
        <time>2020-07-21T12:47:14Z</time>
      </trkpt>
      <trkpt lat="39.895853" lon="116.636663">
        <time>2020-07-21T12:47:19Z</time>
      </trkpt>
      <trkpt lat="39.895806" lon="116.636608">
        <time>2020-07-21T12:47:24Z</time>
      </trkpt>
      <trkpt lat="39.895747" lon="116.636545">
        <time>2020-07-21T12:47:29Z</time>
      </trkpt>
      <trkpt lat="39.895747" lon="116.636545">
        <time>2020-07-21T12:47:34Z</time>
      </trkpt>
      <trkpt lat="39.895647" lon="116.636499">
        <time>2020-07-21T12:47:39Z</time>
      </trkpt>
      <trkpt lat="39.895696" lon="116.636439">
        <time>2020-07-21T12:47:44Z</time>
      </trkpt>
      <trkpt lat="39.89577" lon="116.636356">
        <time>2020-07-21T12:47:49Z</time>
      </trkpt>
      <trkpt lat="39.89577" lon="116.636356">
        <time>2020-07-21T12:47:54Z</time>
      </trkpt>
      <trkpt lat="39.895852" lon="116.636322">
        <time>2020-07-21T12:47:59Z</time>
      </trkpt>
      <trkpt lat="39.895934" lon="116.636296">
        <time>2020-07-21T12:48:04Z</time>
      </trkpt>
      <trkpt lat="39.895934" lon="116.636296">
        <time>2020-07-21T12:48:09Z</time>
      </trkpt>
      <trkpt lat="39.895988" lon="116.636244">
        <time>2020-07-21T12:48:14Z</time>
      </trkpt>
      <trkpt lat="39.896185" lon="116.635903">
        <time>2020-07-21T12:48:19Z</time>
      </trkpt>
      <trkpt lat="39.896185" lon="116.635903">
        <time>2020-07-21T12:48:24Z</time>
      </trkpt>
      <trkpt lat="39.896185" lon="116.635903">
        <time>2020-07-21T12:48:29Z</time>
      </trkpt>
      <trkpt lat="39.896185" lon="116.635903">
        <time>2020-07-21T12:48:34Z</time>
      </trkpt>
      <trkpt lat="39.896279" lon="116.635938">
        <time>2020-07-21T12:48:39Z</time>
      </trkpt>
      <trkpt lat="39.896358" lon="116.635941">
        <time>2020-07-21T12:48:44Z</time>
      </trkpt>
      <trkpt lat="39.89645" lon="116.635897">
        <time>2020-07-21T12:48:49Z</time>
      </trkpt>
      <trkpt lat="39.89645" lon="116.635897">
        <time>2020-07-21T12:48:54Z</time>
      </trkpt>
      <trkpt lat="39.89652" lon="116.635841">
        <time>2020-07-21T12:48:59Z</time>
      </trkpt>
      <trkpt lat="39.896587" lon="116.635783">
        <time>2020-07-21T12:49:04Z</time>
      </trkpt>
      <trkpt lat="39.896587" lon="116.635783">
        <time>2020-07-21T12:49:09Z</time>
      </trkpt>
      <trkpt lat="39.896674" lon="116.635746">
        <time>2020-07-21T12:49:14Z</time>
      </trkpt>
      <trkpt lat="39.896785" lon="116.635738">
        <time>2020-07-21T12:49:19Z</time>
      </trkpt>
      <trkpt lat="39.896818" lon="116.635723">
        <time>2020-07-21T12:49:24Z</time>
      </trkpt>
      <trkpt lat="39.896818" lon="116.635723">
        <time>2020-07-21T12:49:29Z</time>
      </trkpt>
      <trkpt lat="39.896887" lon="116.635715">
        <time>2020-07-21T12:49:34Z</time>
      </trkpt>
      <trkpt lat="39.896973" lon="116.635713">
        <time>2020-07-21T12:49:39Z</time>
      </trkpt>
      <trkpt lat="39.896973" lon="116.635713">
        <time>2020-07-21T12:49:44Z</time>
      </trkpt>
      <trkpt lat="39.897024" lon="116.635671">
        <time>2020-07-21T12:49:49Z</time>
      </trkpt>
      <trkpt lat="39.897091" lon="116.635593">
        <time>2020-07-21T12:49:54Z</time>
      </trkpt>
      <trkpt lat="39.897091" lon="116.635593">
        <time>2020-07-21T12:49:59Z</time>
      </trkpt>
      <trkpt lat="39.897158" lon="116.635565">
        <time>2020-07-21T12:50:04Z</time>
      </trkpt>
      <trkpt lat="39.897235" lon="116.635577">
        <time>2020-07-21T12:50:09Z</time>
      </trkpt>
      <trkpt lat="39.897266" lon="116.635601">
        <time>2020-07-21T12:50:14Z</time>
      </trkpt>
      <trkpt lat="39.897266" lon="116.635601">
        <time>2020-07-21T12:50:19Z</time>
      </trkpt>
      <trkpt lat="39.897275" lon="116.635631">
        <time>2020-07-21T12:50:24Z</time>
      </trkpt>
      <trkpt lat="39.897285" lon="116.635667">
        <time>2020-07-21T12:50:29Z</time>
      </trkpt>
      <trkpt lat="39.897285" lon="116.635667">
        <time>2020-07-21T12:50:34Z</time>
      </trkpt>
      <trkpt lat="39.897303" lon="116.635713">
        <time>2020-07-21T12:50:39Z</time>
      </trkpt>
      <trkpt lat="39.897357" lon="116.635756">
        <time>2020-07-21T12:50:44Z</time>
      </trkpt>
      <trkpt lat="39.897329" lon="116.635812">
        <time>2020-07-21T12:50:49Z</time>
      </trkpt>
      <trkpt lat="39.897329" lon="116.635812">
        <time>2020-07-21T12:50:54Z</time>
      </trkpt>
      <trkpt lat="39.897408" lon="116.635898">
        <time>2020-07-21T12:50:59Z</time>
      </trkpt>
      <trkpt lat="39.897478" lon="116.636">
        <time>2020-07-21T12:51:04Z</time>
      </trkpt>
      <trkpt lat="39.897624" lon="116.636112">
        <time>2020-07-21T12:51:09Z</time>
      </trkpt>
      <trkpt lat="39.897624" lon="116.636112">
        <time>2020-07-21T12:51:14Z</time>
      </trkpt>
      <trkpt lat="39.897737" lon="116.636249">
        <time>2020-07-21T12:51:19Z</time>
      </trkpt>
      <trkpt lat="39.897793" lon="116.636379">
        <time>2020-07-21T12:51:24Z</time>
      </trkpt>
      <trkpt lat="39.897793" lon="116.636379">
        <time>2020-07-21T12:51:29Z</time>
      </trkpt>
      <trkpt lat="39.897815" lon="116.636542">
        <time>2020-07-21T12:51:34Z</time>
      </trkpt>
      <trkpt lat="39.897908" lon="116.636614">
        <time>2020-07-21T12:51:39Z</time>
      </trkpt>
      <trkpt lat="39.897908" lon="116.636614">
        <time>2020-07-21T12:51:44Z</time>
      </trkpt>
      <trkpt lat="39.897908" lon="116.636614">
        <time>2020-07-21T12:55:49Z</time>
      </trkpt>
    </trkseg>
  </trk>
</gpx>