<?xml version="1.0" encoding="UTF-8"?>
<gpx xmlns="http://www.topografix.com/GPX/1/1" xmlns:gpxtpx="http://www.garmin.com/xmlschemas/TrackPointExtension/v1" xmlns:xsi="http://www.w3.org/2001/XMLSchema-instance" xsi:schemaLocation="http://www.topografix.com/GPX/1/1 http://www.topografix.com/GPX/1/1/gpx.xsd" version="1.1" creator="gpx.py -- https://github.com/tkrajina/gpxpy">
  <trk>
    <name>gpx from keep</name>
    <trkseg>
      <trkpt lat="39.896111" lon="116.637021">
        <time>2020-08-27T13:21:20Z</time>
      </trkpt>
      <trkpt lat="39.896106" lon="116.637173">
        <time>2020-08-27T13:21:25Z</time>
      </trkpt>
      <trkpt lat="39.896117" lon="116.637372">
        <time>2020-08-27T13:21:30Z</time>
      </trkpt>
      <trkpt lat="39.896117" lon="116.637372">
        <time>2020-08-27T13:21:35Z</time>
      </trkpt>
      <trkpt lat="39.8961" lon="116.637636">
        <time>2020-08-27T13:21:40Z</time>
      </trkpt>
      <trkpt lat="39.89609" lon="116.637908">
        <time>2020-08-27T13:21:45Z</time>
      </trkpt>
      <trkpt lat="39.89609" lon="116.637908">
        <time>2020-08-27T13:21:50Z</time>
      </trkpt>
      <trkpt lat="39.896018" lon="116.638177">
        <time>2020-08-27T13:21:55Z</time>
      </trkpt>
      <trkpt lat="39.895995" lon="116.638423">
        <time>2020-08-27T13:22:00Z</time>
      </trkpt>
      <trkpt lat="39.895989" lon="116.638666">
        <time>2020-08-27T13:22:05Z</time>
      </trkpt>
      <trkpt lat="39.895989" lon="116.638666">
        <time>2020-08-27T13:22:10Z</time>
      </trkpt>
      <trkpt lat="39.895983" lon="116.638915">
        <time>2020-08-27T13:22:15Z</time>
      </trkpt>
      <trkpt lat="39.895951" lon="116.639141">
        <time>2020-08-27T13:22:20Z</time>
      </trkpt>
      <trkpt lat="39.895951" lon="116.639141">
        <time>2020-08-27T13:22:25Z</time>
      </trkpt>
      <trkpt lat="39.895886" lon="116.639404">
        <time>2020-08-27T13:22:30Z</time>
      </trkpt>
      <trkpt lat="39.895977" lon="116.639633">
        <time>2020-08-27T13:22:35Z</time>
      </trkpt>
      <trkpt lat="39.895998" lon="116.639658">
        <time>2020-08-27T13:22:40Z</time>
      </trkpt>
      <trkpt lat="39.896084" lon="116.639828">
        <time>2020-08-27T13:22:45Z</time>
      </trkpt>
      <trkpt lat="39.896133" lon="116.640056">
        <time>2020-08-27T13:22:50Z</time>
      </trkpt>
      <trkpt lat="39.896138" lon="116.640287">
        <time>2020-08-27T13:22:55Z</time>
      </trkpt>
      <trkpt lat="39.896138" lon="116.640287">
        <time>2020-08-27T13:23:00Z</time>
      </trkpt>
      <trkpt lat="39.896134" lon="116.640511">
        <time>2020-08-27T13:23:05Z</time>
      </trkpt>
      <trkpt lat="39.896103" lon="116.640732">
        <time>2020-08-27T13:23:10Z</time>
      </trkpt>
      <trkpt lat="39.896087" lon="116.640897">
        <time>2020-08-27T13:23:15Z</time>
      </trkpt>
      <trkpt lat="39.896087" lon="116.640897">
        <time>2020-08-27T13:23:20Z</time>
      </trkpt>
      <trkpt lat="39.896074" lon="116.641062">
        <time>2020-08-27T13:23:25Z</time>
      </trkpt>
      <trkpt lat="39.896112" lon="116.641278">
        <time>2020-08-27T13:23:30Z</time>
      </trkpt>
      <trkpt lat="39.896112" lon="116.641278">
        <time>2020-08-27T13:23:35Z</time>
      </trkpt>
      <trkpt lat="39.896129" lon="116.641523">
        <time>2020-08-27T13:23:40Z</time>
      </trkpt>
      <trkpt lat="39.896119" lon="116.641767">
        <time>2020-08-27T13:23:45Z</time>
      </trkpt>
      <trkpt lat="39.896128" lon="116.641999">
        <time>2020-08-27T13:23:50Z</time>
      </trkpt>
      <trkpt lat="39.896128" lon="116.641999">
        <time>2020-08-27T13:23:55Z</time>
      </trkpt>
      <trkpt lat="39.896127" lon="116.642254">
        <time>2020-08-27T13:24:00Z</time>
      </trkpt>
      <trkpt lat="39.896103" lon="116.642473">
        <time>2020-08-27T13:24:05Z</time>
      </trkpt>
      <trkpt lat="39.896103" lon="116.642473">
        <time>2020-08-27T13:24:10Z</time>
      </trkpt>
      <trkpt lat="39.896082" lon="116.64271">
        <time>2020-08-27T13:24:15Z</time>
      </trkpt>
      <trkpt lat="39.896077" lon="116.642948">
        <time>2020-08-27T13:24:20Z</time>
      </trkpt>
      <trkpt lat="39.896097" lon="116.643166">
        <time>2020-08-27T13:24:25Z</time>
      </trkpt>
      <trkpt lat="39.896097" lon="116.643166">
        <time>2020-08-27T13:24:30Z</time>
      </trkpt>
      <trkpt lat="39.896085" lon="116.643405">
        <time>2020-08-27T13:24:35Z</time>
      </trkpt>
      <trkpt lat="39.896098" lon="116.643559">
        <time>2020-08-27T13:24:40Z</time>
      </trkpt>
      <trkpt lat="39.896098" lon="116.643559">
        <time>2020-08-27T13:24:45Z</time>
      </trkpt>
      <trkpt lat="39.896142" lon="116.643691">
        <time>2020-08-27T13:24:50Z</time>
      </trkpt>
      <trkpt lat="39.89613" lon="116.643922">
        <time>2020-08-27T13:24:55Z</time>
      </trkpt>
      <trkpt lat="39.896126" lon="116.644164">
        <time>2020-08-27T13:25:00Z</time>
      </trkpt>
      <trkpt lat="39.896126" lon="116.644164">
        <time>2020-08-27T13:25:05Z</time>
      </trkpt>
      <trkpt lat="39.896121" lon="116.644394">
        <time>2020-08-27T13:25:10Z</time>
      </trkpt>
      <trkpt lat="39.896142" lon="116.644584">
        <time>2020-08-27T13:25:15Z</time>
      </trkpt>
      <trkpt lat="39.896142" lon="116.644584">
        <time>2020-08-27T13:25:20Z</time>
      </trkpt>
      <trkpt lat="39.896157" lon="116.644784">
        <time>2020-08-27T13:25:25Z</time>
      </trkpt>
      <trkpt lat="39.896163" lon="116.644964">
        <time>2020-08-27T13:25:30Z</time>
      </trkpt>
      <trkpt lat="39.896159" lon="116.645166">
        <time>2020-08-27T13:25:35Z</time>
      </trkpt>
      <trkpt lat="39.896159" lon="116.645166">
        <time>2020-08-27T13:25:40Z</time>
      </trkpt>
      <trkpt lat="39.896143" lon="116.645441">
        <time>2020-08-27T13:25:45Z</time>
      </trkpt>
      <trkpt lat="39.896082" lon="116.645705">
        <time>2020-08-27T13:25:50Z</time>
      </trkpt>
      <trkpt lat="39.896076" lon="116.645736">
        <time>2020-08-27T13:25:55Z</time>
      </trkpt>
      <trkpt lat="39.896042" lon="116.645941">
        <time>2020-08-27T13:26:00Z</time>
      </trkpt>
      <trkpt lat="39.896041" lon="116.646167">
        <time>2020-08-27T13:26:05Z</time>
      </trkpt>
      <trkpt lat="39.896027" lon="116.646357">
        <time>2020-08-27T13:26:10Z</time>
      </trkpt>
      <trkpt lat="39.896027" lon="116.646357">
        <time>2020-08-27T13:26:15Z</time>
      </trkpt>
      <trkpt lat="39.896017" lon="116.646568">
        <time>2020-08-27T13:26:20Z</time>
      </trkpt>
      <trkpt lat="39.89592" lon="116.646735">
        <time>2020-08-27T13:26:25Z</time>
      </trkpt>
      <trkpt lat="39.895762" lon="116.646714">
        <time>2020-08-27T13:26:30Z</time>
      </trkpt>
      <trkpt lat="39.895762" lon="116.646714">
        <time>2020-08-27T13:26:35Z</time>
      </trkpt>
      <trkpt lat="39.895623" lon="116.646584">
        <time>2020-08-27T13:26:40Z</time>
      </trkpt>
      <trkpt lat="39.895481" lon="116.646483">
        <time>2020-08-27T13:26:45Z</time>
      </trkpt>
      <trkpt lat="39.895481" lon="116.646483">
        <time>2020-08-27T13:26:50Z</time>
      </trkpt>
      <trkpt lat="39.895341" lon="116.64636">
        <time>2020-08-27T13:26:55Z</time>
      </trkpt>
      <trkpt lat="39.895166" lon="116.646299">
        <time>2020-08-27T13:27:00Z</time>
      </trkpt>
      <trkpt lat="39.895015" lon="116.646279">
        <time>2020-08-27T13:27:05Z</time>
      </trkpt>
      <trkpt lat="39.895015" lon="116.646279">
        <time>2020-08-27T13:27:10Z</time>
      </trkpt>
      <trkpt lat="39.894863" lon="116.646215">
        <time>2020-08-27T13:27:15Z</time>
      </trkpt>
      <trkpt lat="39.894702" lon="116.646159">
        <time>2020-08-27T13:27:20Z</time>
      </trkpt>
      <trkpt lat="39.894702" lon="116.646159">
        <time>2020-08-27T13:27:25Z</time>
      </trkpt>
      <trkpt lat="39.894537" lon="116.646146">
        <time>2020-08-27T13:27:30Z</time>
      </trkpt>
      <trkpt lat="39.894378" lon="116.646108">
        <time>2020-08-27T13:27:35Z</time>
      </trkpt>
      <trkpt lat="39.89425" lon="116.646023">
        <time>2020-08-27T13:27:40Z</time>
      </trkpt>
      <trkpt lat="39.89425" lon="116.646023">
        <time>2020-08-27T13:27:45Z</time>
      </trkpt>
      <trkpt lat="39.894096" lon="116.645968">
        <time>2020-08-27T13:27:50Z</time>
      </trkpt>
      <trkpt lat="39.893957" lon="116.645885">
        <time>2020-08-27T13:27:55Z</time>
      </trkpt>
      <trkpt lat="39.893957" lon="116.645885">
        <time>2020-08-27T13:28:00Z</time>
      </trkpt>
      <trkpt lat="39.893854" lon="116.645955">
        <time>2020-08-27T13:28:05Z</time>
      </trkpt>
      <trkpt lat="39.893774" lon="116.646119">
        <time>2020-08-27T13:28:10Z</time>
      </trkpt>
      <trkpt lat="39.893704" lon="116.646307">
        <time>2020-08-27T13:28:15Z</time>
      </trkpt>
      <trkpt lat="39.893704" lon="116.646307">
        <time>2020-08-27T13:28:20Z</time>
      </trkpt>
      <trkpt lat="39.893554" lon="116.646346">
        <time>2020-08-27T13:28:25Z</time>
      </trkpt>
      <trkpt lat="39.893409" lon="116.646198">
        <time>2020-08-27T13:28:30Z</time>
      </trkpt>
      <trkpt lat="39.893409" lon="116.646198">
        <time>2020-08-27T13:28:35Z</time>
      </trkpt>
      <trkpt lat="39.893248" lon="116.646058">
        <time>2020-08-27T13:28:40Z</time>
      </trkpt>
      <trkpt lat="39.89309" lon="116.645975">
        <time>2020-08-27T13:28:45Z</time>
      </trkpt>
      <trkpt lat="39.893065" lon="116.645968">
        <time>2020-08-27T13:28:50Z</time>
      </trkpt>
      <trkpt lat="39.892931" lon="116.645904">
        <time>2020-08-27T13:28:55Z</time>
      </trkpt>
      <trkpt lat="39.892778" lon="116.645837">
        <time>2020-08-27T13:29:00Z</time>
      </trkpt>
      <trkpt lat="39.892634" lon="116.645764">
        <time>2020-08-27T13:29:05Z</time>
      </trkpt>
      <trkpt lat="39.892634" lon="116.645764">
        <time>2020-08-27T13:29:10Z</time>
      </trkpt>
      <trkpt lat="39.892497" lon="116.645642">
        <time>2020-08-27T13:29:15Z</time>
      </trkpt>
      <trkpt lat="39.892336" lon="116.645611">
        <time>2020-08-27T13:29:20Z</time>
      </trkpt>
      <trkpt lat="39.892198" lon="116.645547">
        <time>2020-08-27T13:29:25Z</time>
      </trkpt>
      <trkpt lat="39.892198" lon="116.645547">
        <time>2020-08-27T13:29:30Z</time>
      </trkpt>
      <trkpt lat="39.892057" lon="116.645481">
        <time>2020-08-27T13:29:35Z</time>
      </trkpt>
      <trkpt lat="39.891906" lon="116.645406">
        <time>2020-08-27T13:29:40Z</time>
      </trkpt>
      <trkpt lat="39.891906" lon="116.645406">
        <time>2020-08-27T13:29:45Z</time>
      </trkpt>
      <trkpt lat="39.891751" lon="116.645352">
        <time>2020-08-27T13:29:50Z</time>
      </trkpt>
      <trkpt lat="39.891639" lon="116.645271">
        <time>2020-08-27T13:29:55Z</time>
      </trkpt>
      <trkpt lat="39.891543" lon="116.645203">
        <time>2020-08-27T13:30:00Z</time>
      </trkpt>
      <trkpt lat="39.891543" lon="116.645203">
        <time>2020-08-27T13:30:05Z</time>
      </trkpt>
      <trkpt lat="39.891566" lon="116.645269">
        <time>2020-08-27T13:30:10Z</time>
      </trkpt>
      <trkpt lat="39.891603" lon="116.645314">
        <time>2020-08-27T13:30:15Z</time>
      </trkpt>
      <trkpt lat="39.891603" lon="116.645314">
        <time>2020-08-27T13:30:20Z</time>
      </trkpt>
      <trkpt lat="39.891655" lon="116.645326">
        <time>2020-08-27T13:30:25Z</time>
      </trkpt>
      <trkpt lat="39.89173" lon="116.645376">
        <time>2020-08-27T13:30:30Z</time>
      </trkpt>
      <trkpt lat="39.89179" lon="116.645465">
        <time>2020-08-27T13:30:35Z</time>
      </trkpt>
      <trkpt lat="39.89179" lon="116.645465">
        <time>2020-08-27T13:30:40Z</time>
      </trkpt>
      <trkpt lat="39.891913" lon="116.645546">
        <time>2020-08-27T13:30:45Z</time>
      </trkpt>
      <trkpt lat="39.892077" lon="116.6456">
        <time>2020-08-27T13:30:50Z</time>
      </trkpt>
      <trkpt lat="39.892077" lon="116.6456">
        <time>2020-08-27T13:30:55Z</time>
      </trkpt>
      <trkpt lat="39.892187" lon="116.645693">
        <time>2020-08-27T13:31:00Z</time>
      </trkpt>
      <trkpt lat="39.892344" lon="116.645755">
        <time>2020-08-27T13:31:05Z</time>
      </trkpt>
      <trkpt lat="39.892508" lon="116.645821">
        <time>2020-08-27T13:31:10Z</time>
      </trkpt>
      <trkpt lat="39.892508" lon="116.645821">
        <time>2020-08-27T13:31:15Z</time>
      </trkpt>
      <trkpt lat="39.892688" lon="116.645914">
        <time>2020-08-27T13:31:20Z</time>
      </trkpt>
      <trkpt lat="39.892875" lon="116.645935">
        <time>2020-08-27T13:31:25Z</time>
      </trkpt>
      <trkpt lat="39.892875" lon="116.645935">
        <time>2020-08-27T13:31:30Z</time>
      </trkpt>
      <trkpt lat="39.893059" lon="116.645988">
        <time>2020-08-27T13:31:35Z</time>
      </trkpt>
      <trkpt lat="39.893234" lon="116.646054">
        <time>2020-08-27T13:31:40Z</time>
      </trkpt>
      <trkpt lat="39.893404" lon="116.646133">
        <time>2020-08-27T13:31:45Z</time>
      </trkpt>
      <trkpt lat="39.893404" lon="116.646133">
        <time>2020-08-27T13:31:50Z</time>
      </trkpt>
      <trkpt lat="39.893536" lon="116.646232">
        <time>2020-08-27T13:31:55Z</time>
      </trkpt>
      <trkpt lat="39.893693" lon="116.646201">
        <time>2020-08-27T13:32:00Z</time>
      </trkpt>
      <trkpt lat="39.893693" lon="116.646201">
        <time>2020-08-27T13:32:05Z</time>
      </trkpt>
      <trkpt lat="39.893818" lon="116.646038">
        <time>2020-08-27T13:32:10Z</time>
      </trkpt>
      <trkpt lat="39.893909" lon="116.645823">
        <time>2020-08-27T13:32:15Z</time>
      </trkpt>
      <trkpt lat="39.894047" lon="116.645698">
        <time>2020-08-27T13:32:20Z</time>
      </trkpt>
      <trkpt lat="39.894047" lon="116.645698">
        <time>2020-08-27T13:32:25Z</time>
      </trkpt>
      <trkpt lat="39.894166" lon="116.645815">
        <time>2020-08-27T13:32:30Z</time>
      </trkpt>
      <trkpt lat="39.894278" lon="116.645916">
        <time>2020-08-27T13:32:35Z</time>
      </trkpt>
      <trkpt lat="39.894278" lon="116.645916">
        <time>2020-08-27T13:32:40Z</time>
      </trkpt>
      <trkpt lat="39.894395" lon="116.646018">
        <time>2020-08-27T13:32:45Z</time>
      </trkpt>
      <trkpt lat="39.894515" lon="116.646137">
        <time>2020-08-27T13:32:50Z</time>
      </trkpt>
      <trkpt lat="39.894673" lon="116.646188">
        <time>2020-08-27T13:32:55Z</time>
      </trkpt>
      <trkpt lat="39.894673" lon="116.646188">
        <time>2020-08-27T13:33:00Z</time>
      </trkpt>
      <trkpt lat="39.894837" lon="116.646246">
        <time>2020-08-27T13:33:05Z</time>
      </trkpt>
      <trkpt lat="39.895006" lon="116.646303">
        <time>2020-08-27T13:33:10Z</time>
      </trkpt>
      <trkpt lat="39.895006" lon="116.646303">
        <time>2020-08-27T13:33:15Z</time>
      </trkpt>
      <trkpt lat="39.895164" lon="116.646365">
        <time>2020-08-27T13:33:20Z</time>
      </trkpt>
      <trkpt lat="39.895304" lon="116.646419">
        <time>2020-08-27T13:33:25Z</time>
      </trkpt>
      <trkpt lat="39.89547" lon="116.646513">
        <time>2020-08-27T13:33:30Z</time>
      </trkpt>
      <trkpt lat="39.89547" lon="116.646513">
        <time>2020-08-27T13:33:35Z</time>
      </trkpt>
      <trkpt lat="39.895576" lon="116.646616">
        <time>2020-08-27T13:33:40Z</time>
      </trkpt>
      <trkpt lat="39.895714" lon="116.646681">
        <time>2020-08-27T13:33:45Z</time>
      </trkpt>
      <trkpt lat="39.895714" lon="116.646681">
        <time>2020-08-27T13:33:50Z</time>
      </trkpt>
      <trkpt lat="39.895881" lon="116.646726">
        <time>2020-08-27T13:33:55Z</time>
      </trkpt>
      <trkpt lat="39.895901" lon="116.646693">
        <time>2020-08-27T13:34:00Z</time>
      </trkpt>
      <trkpt lat="39.895745" lon="116.646638">
        <time>2020-08-27T13:34:05Z</time>
      </trkpt>
      <trkpt lat="39.895745" lon="116.646638">
        <time>2020-08-27T13:34:10Z</time>
      </trkpt>
      <trkpt lat="39.895589" lon="116.646557">
        <time>2020-08-27T13:34:15Z</time>
      </trkpt>
      <trkpt lat="39.895437" lon="116.64649">
        <time>2020-08-27T13:34:20Z</time>
      </trkpt>
      <trkpt lat="39.89538" lon="116.646454">
        <time>2020-08-27T13:34:25Z</time>
      </trkpt>
      <trkpt lat="39.895308" lon="116.646387">
        <time>2020-08-27T13:34:30Z</time>
      </trkpt>
      <trkpt lat="39.895169" lon="116.646307">
        <time>2020-08-27T13:34:35Z</time>
      </trkpt>
      <trkpt lat="39.895031" lon="116.64629">
        <time>2020-08-27T13:34:40Z</time>
      </trkpt>
      <trkpt lat="39.895031" lon="116.64629">
        <time>2020-08-27T13:34:45Z</time>
      </trkpt>
      <trkpt lat="39.894877" lon="116.646287">
        <time>2020-08-27T13:34:50Z</time>
      </trkpt>
      <trkpt lat="39.894721" lon="116.646263">
        <time>2020-08-27T13:34:55Z</time>
      </trkpt>
      <trkpt lat="39.89458" lon="116.646184">
        <time>2020-08-27T13:35:00Z</time>
      </trkpt>
      <trkpt lat="39.89458" lon="116.646184">
        <time>2020-08-27T13:35:05Z</time>
      </trkpt>
      <trkpt lat="39.894432" lon="116.646067">
        <time>2020-08-27T13:35:10Z</time>
      </trkpt>
      <trkpt lat="39.89428" lon="116.645983">
        <time>2020-08-27T13:35:15Z</time>
      </trkpt>
      <trkpt lat="39.89428" lon="116.645983">
        <time>2020-08-27T13:35:20Z</time>
      </trkpt>
      <trkpt lat="39.89412" lon="116.645929">
        <time>2020-08-27T13:35:25Z</time>
      </trkpt>
      <trkpt lat="39.893952" lon="116.6459">
        <time>2020-08-27T13:35:30Z</time>
      </trkpt>
      <trkpt lat="39.893861" lon="116.645914">
        <time>2020-08-27T13:35:35Z</time>
      </trkpt>
      <trkpt lat="39.893861" lon="116.645914">
        <time>2020-08-27T13:35:40Z</time>
      </trkpt>
      <trkpt lat="39.893788" lon="116.64604">
        <time>2020-08-27T13:35:45Z</time>
      </trkpt>
      <trkpt lat="39.89372" lon="116.646194">
        <time>2020-08-27T13:35:50Z</time>
      </trkpt>
      <trkpt lat="39.89372" lon="116.646194">
        <time>2020-08-27T13:35:55Z</time>
      </trkpt>
      <trkpt lat="39.893579" lon="116.646213">
        <time>2020-08-27T13:36:00Z</time>
      </trkpt>
      <trkpt lat="39.893419" lon="116.646134">
        <time>2020-08-27T13:36:05Z</time>
      </trkpt>
      <trkpt lat="39.893273" lon="116.646043">
        <time>2020-08-27T13:36:10Z</time>
      </trkpt>
      <trkpt lat="39.893273" lon="116.646043">
        <time>2020-08-27T13:36:15Z</time>
      </trkpt>
      <trkpt lat="39.893103" lon="116.645984">
        <time>2020-08-27T13:36:20Z</time>
      </trkpt>
      <trkpt lat="39.892942" lon="116.645908">
        <time>2020-08-27T13:36:25Z</time>
      </trkpt>
      <trkpt lat="39.892942" lon="116.645908">
        <time>2020-08-27T13:36:30Z</time>
      </trkpt>
      <trkpt lat="39.892791" lon="116.645865">
        <time>2020-08-27T13:36:35Z</time>
      </trkpt>
      <trkpt lat="39.892634" lon="116.645821">
        <time>2020-08-27T13:36:40Z</time>
      </trkpt>
      <trkpt lat="39.892479" lon="116.645762">
        <time>2020-08-27T13:36:45Z</time>
      </trkpt>
      <trkpt lat="39.892479" lon="116.645762">
        <time>2020-08-27T13:36:50Z</time>
      </trkpt>
      <trkpt lat="39.892327" lon="116.645694">
        <time>2020-08-27T13:36:55Z</time>
      </trkpt>
      <trkpt lat="39.892204" lon="116.645585">
        <time>2020-08-27T13:37:00Z</time>
      </trkpt>
      <trkpt lat="39.892204" lon="116.645585">
        <time>2020-08-27T13:37:05Z</time>
      </trkpt>
      <trkpt lat="39.892094" lon="116.645549">
        <time>2020-08-27T13:37:10Z</time>
      </trkpt>
      <trkpt lat="39.891934" lon="116.645516">
        <time>2020-08-27T13:37:15Z</time>
      </trkpt>
      <trkpt lat="39.891752" lon="116.645541">
        <time>2020-08-27T13:37:20Z</time>
      </trkpt>
      <trkpt lat="39.891752" lon="116.645541">
        <time>2020-08-27T13:37:25Z</time>
      </trkpt>
      <trkpt lat="39.891621" lon="116.645404">
        <time>2020-08-27T13:37:30Z</time>
      </trkpt>
      <trkpt lat="39.891516" lon="116.645292">
        <time>2020-08-27T13:37:35Z</time>
      </trkpt>
      <trkpt lat="39.891516" lon="116.645292">
        <time>2020-08-27T13:37:40Z</time>
      </trkpt>
      <trkpt lat="39.891537" lon="116.645285">
        <time>2020-08-27T13:37:45Z</time>
      </trkpt>
      <trkpt lat="39.891624" lon="116.645314">
        <time>2020-08-27T13:37:50Z</time>
      </trkpt>
      <trkpt lat="39.891717" lon="116.645363">
        <time>2020-08-27T13:37:55Z</time>
      </trkpt>
      <trkpt lat="39.891717" lon="116.645363">
        <time>2020-08-27T13:38:00Z</time>
      </trkpt>
      <trkpt lat="39.891842" lon="116.645375">
        <time>2020-08-27T13:38:05Z</time>
      </trkpt>
      <trkpt lat="39.891942" lon="116.645437">
        <time>2020-08-27T13:38:10Z</time>
      </trkpt>
      <trkpt lat="39.891942" lon="116.645437">
        <time>2020-08-27T13:38:15Z</time>
      </trkpt>
      <trkpt lat="39.892076" lon="116.645483">
        <time>2020-08-27T13:38:20Z</time>
      </trkpt>
      <trkpt lat="39.892202" lon="116.645584">
        <time>2020-08-27T13:38:25Z</time>
      </trkpt>
      <trkpt lat="39.892379" lon="116.645682">
        <time>2020-08-27T13:38:30Z</time>
      </trkpt>
      <trkpt lat="39.892379" lon="116.645682">
        <time>2020-08-27T13:38:35Z</time>
      </trkpt>
      <trkpt lat="39.892546" lon="116.645766">
        <time>2020-08-27T13:38:40Z</time>
      </trkpt>
      <trkpt lat="39.892696" lon="116.645835">
        <time>2020-08-27T13:38:45Z</time>
      </trkpt>
      <trkpt lat="39.892696" lon="116.645835">
        <time>2020-08-27T13:38:50Z</time>
      </trkpt>
      <trkpt lat="39.892836" lon="116.645905">
        <time>2020-08-27T13:38:55Z</time>
      </trkpt>
      <trkpt lat="39.89303" lon="116.645935">
        <time>2020-08-27T13:39:00Z</time>
      </trkpt>
      <trkpt lat="39.89319" lon="116.645982">
        <time>2020-08-27T13:39:05Z</time>
      </trkpt>
      <trkpt lat="39.89319" lon="116.645982">
        <time>2020-08-27T13:39:10Z</time>
      </trkpt>
      <trkpt lat="39.893368" lon="116.64606">
        <time>2020-08-27T13:39:15Z</time>
      </trkpt>
      <trkpt lat="39.893537" lon="116.646153">
        <time>2020-08-27T13:39:20Z</time>
      </trkpt>
      <trkpt lat="39.893681" lon="116.646218">
        <time>2020-08-27T13:39:25Z</time>
      </trkpt>
      <trkpt lat="39.893681" lon="116.646218">
        <time>2020-08-27T13:39:30Z</time>
      </trkpt>
      <trkpt lat="39.893819" lon="116.646153">
        <time>2020-08-27T13:39:35Z</time>
      </trkpt>
      <trkpt lat="39.893914" lon="116.645984">
        <time>2020-08-27T13:39:40Z</time>
      </trkpt>
      <trkpt lat="39.893914" lon="116.645984">
        <time>2020-08-27T13:39:45Z</time>
      </trkpt>
      <trkpt lat="39.894011" lon="116.645831">
        <time>2020-08-27T13:39:50Z</time>
      </trkpt>
      <trkpt lat="39.894128" lon="116.645842">
        <time>2020-08-27T13:39:55Z</time>
      </trkpt>
      <trkpt lat="39.894247" lon="116.645905">
        <time>2020-08-27T13:40:00Z</time>
      </trkpt>
      <trkpt lat="39.894247" lon="116.645905">
        <time>2020-08-27T13:40:05Z</time>
      </trkpt>
      <trkpt lat="39.894394" lon="116.645982">
        <time>2020-08-27T13:40:10Z</time>
      </trkpt>
      <trkpt lat="39.894572" lon="116.646057">
        <time>2020-08-27T13:40:15Z</time>
      </trkpt>
      <trkpt lat="39.894572" lon="116.646057">
        <time>2020-08-27T13:40:20Z</time>
      </trkpt>
      <trkpt lat="39.894713" lon="116.646142">
        <time>2020-08-27T13:40:25Z</time>
      </trkpt>
      <trkpt lat="39.89485" lon="116.646182">
        <time>2020-08-27T13:40:30Z</time>
      </trkpt>
      <trkpt lat="39.895017" lon="116.646234">
        <time>2020-08-27T13:40:35Z</time>
      </trkpt>
      <trkpt lat="39.895017" lon="116.646234">
        <time>2020-08-27T13:40:40Z</time>
      </trkpt>
      <trkpt lat="39.895183" lon="116.646321">
        <time>2020-08-27T13:40:45Z</time>
      </trkpt>
      <trkpt lat="39.895351" lon="116.646396">
        <time>2020-08-27T13:40:50Z</time>
      </trkpt>
      <trkpt lat="39.895351" lon="116.646396">
        <time>2020-08-27T13:40:55Z</time>
      </trkpt>
      <trkpt lat="39.895502" lon="116.646455">
        <time>2020-08-27T13:41:00Z</time>
      </trkpt>
      <trkpt lat="39.895634" lon="116.64656">
        <time>2020-08-27T13:41:05Z</time>
      </trkpt>
      <trkpt lat="39.895759" lon="116.64664">
        <time>2020-08-27T13:41:10Z</time>
      </trkpt>
      <trkpt lat="39.895759" lon="116.64664">
        <time>2020-08-27T13:41:15Z</time>
      </trkpt>
      <trkpt lat="39.895903" lon="116.646705">
        <time>2020-08-27T13:41:20Z</time>
      </trkpt>
      <trkpt lat="39.896031" lon="116.646693">
        <time>2020-08-27T13:41:25Z</time>
      </trkpt>
      <trkpt lat="39.896031" lon="116.646693">
        <time>2020-08-27T13:41:30Z</time>
      </trkpt>
      <trkpt lat="39.896036" lon="116.646641">
        <time>2020-08-27T13:41:35Z</time>
      </trkpt>
      <trkpt lat="39.896061" lon="116.646526">
        <time>2020-08-27T13:41:40Z</time>
      </trkpt>
      <trkpt lat="39.896065" lon="116.646407">
        <time>2020-08-27T13:41:45Z</time>
      </trkpt>
      <trkpt lat="39.896065" lon="116.646407">
        <time>2020-08-27T13:41:50Z</time>
      </trkpt>
      <trkpt lat="39.89606" lon="116.646271">
        <time>2020-08-27T13:41:55Z</time>
      </trkpt>
      <trkpt lat="39.896093" lon="116.64613">
        <time>2020-08-27T13:42:00Z</time>
      </trkpt>
      <trkpt lat="39.896093" lon="116.64613">
        <time>2020-08-27T13:42:05Z</time>
      </trkpt>
      <trkpt lat="39.896107" lon="116.645883">
        <time>2020-08-27T13:42:10Z</time>
      </trkpt>
      <trkpt lat="39.896122" lon="116.645659">
        <time>2020-08-27T13:42:15Z</time>
      </trkpt>
      <trkpt lat="39.896154" lon="116.645455">
        <time>2020-08-27T13:42:20Z</time>
      </trkpt>
      <trkpt lat="39.896154" lon="116.645455">
        <time>2020-08-27T13:42:25Z</time>
      </trkpt>
      <trkpt lat="39.89618" lon="116.64526">
        <time>2020-08-27T13:42:30Z</time>
      </trkpt>
      <trkpt lat="39.896189" lon="116.645052">
        <time>2020-08-27T13:42:35Z</time>
      </trkpt>
      <trkpt lat="39.896205" lon="116.644868">
        <time>2020-08-27T13:42:40Z</time>
      </trkpt>
      <trkpt lat="39.896205" lon="116.644868">
        <time>2020-08-27T13:42:45Z</time>
      </trkpt>
      <trkpt lat="39.896226" lon="116.644668">
        <time>2020-08-27T13:42:50Z</time>
      </trkpt>
      <trkpt lat="39.896223" lon="116.644478">
        <time>2020-08-27T13:42:55Z</time>
      </trkpt>
      <trkpt lat="39.896223" lon="116.644478">
        <time>2020-08-27T13:43:00Z</time>
      </trkpt>
      <trkpt lat="39.896229" lon="116.644289">
        <time>2020-08-27T13:43:05Z</time>
      </trkpt>
      <trkpt lat="39.896223" lon="116.644067">
        <time>2020-08-27T13:43:10Z</time>
      </trkpt>
      <trkpt lat="39.89622" lon="116.643867">
        <time>2020-08-27T13:43:15Z</time>
      </trkpt>
      <trkpt lat="39.89622" lon="116.643867">
        <time>2020-08-27T13:43:20Z</time>
      </trkpt>
      <trkpt lat="39.896219" lon="116.643671">
        <time>2020-08-27T13:43:25Z</time>
      </trkpt>
      <trkpt lat="39.896224" lon="116.643463">
        <time>2020-08-27T13:43:30Z</time>
      </trkpt>
      <trkpt lat="39.896224" lon="116.643463">
        <time>2020-08-27T13:43:35Z</time>
      </trkpt>
      <trkpt lat="39.896209" lon="116.643247">
        <time>2020-08-27T13:43:40Z</time>
      </trkpt>
      <trkpt lat="39.896212" lon="116.643065">
        <time>2020-08-27T13:43:45Z</time>
      </trkpt>
      <trkpt lat="39.896209" lon="116.642885">
        <time>2020-08-27T13:43:50Z</time>
      </trkpt>
      <trkpt lat="39.896209" lon="116.642885">
        <time>2020-08-27T13:43:55Z</time>
      </trkpt>
      <trkpt lat="39.896225" lon="116.64271">
        <time>2020-08-27T13:44:00Z</time>
      </trkpt>
      <trkpt lat="39.896214" lon="116.642482">
        <time>2020-08-27T13:44:05Z</time>
      </trkpt>
      <trkpt lat="39.896214" lon="116.642482">
        <time>2020-08-27T13:44:10Z</time>
      </trkpt>
      <trkpt lat="39.896222" lon="116.642282">
        <time>2020-08-27T13:44:15Z</time>
      </trkpt>
      <trkpt lat="39.896247" lon="116.642097">
        <time>2020-08-27T13:44:20Z</time>
      </trkpt>
      <trkpt lat="39.896271" lon="116.641929">
        <time>2020-08-27T13:44:25Z</time>
      </trkpt>
      <trkpt lat="39.896271" lon="116.641929">
        <time>2020-08-27T13:44:30Z</time>
      </trkpt>
      <trkpt lat="39.896247" lon="116.641696">
        <time>2020-08-27T13:44:35Z</time>
      </trkpt>
      <trkpt lat="39.896246" lon="116.64146">
        <time>2020-08-27T13:44:40Z</time>
      </trkpt>
      <trkpt lat="39.896246" lon="116.64146">
        <time>2020-08-27T13:44:45Z</time>
      </trkpt>
      <trkpt lat="39.896273" lon="116.64128">
        <time>2020-08-27T13:44:50Z</time>
      </trkpt>
      <trkpt lat="39.896251" lon="116.641061">
        <time>2020-08-27T13:44:55Z</time>
      </trkpt>
      <trkpt lat="39.89625" lon="116.640857">
        <time>2020-08-27T13:45:00Z</time>
      </trkpt>
      <trkpt lat="39.89625" lon="116.640857">
        <time>2020-08-27T13:45:05Z</time>
      </trkpt>
      <trkpt lat="39.896259" lon="116.640681">
        <time>2020-08-27T13:45:10Z</time>
      </trkpt>
      <trkpt lat="39.896247" lon="116.640464">
        <time>2020-08-27T13:45:15Z</time>
      </trkpt>
      <trkpt lat="39.896247" lon="116.640464">
        <time>2020-08-27T13:45:20Z</time>
      </trkpt>
      <trkpt lat="39.896255" lon="116.640222">
        <time>2020-08-27T13:45:25Z</time>
      </trkpt>
      <trkpt lat="39.89625" lon="116.640018">
        <time>2020-08-27T13:45:30Z</time>
      </trkpt>
      <trkpt lat="39.896263" lon="116.639805">
        <time>2020-08-27T13:45:35Z</time>
      </trkpt>
      <trkpt lat="39.896263" lon="116.639805">
        <time>2020-08-27T13:45:40Z</time>
      </trkpt>
      <trkpt lat="39.896252" lon="116.639519">
        <time>2020-08-27T13:45:45Z</time>
      </trkpt>
      <trkpt lat="39.89619" lon="116.639259">
        <time>2020-08-27T13:45:50Z</time>
      </trkpt>
      <trkpt lat="39.89619" lon="116.639259">
        <time>2020-08-27T13:45:55Z</time>
      </trkpt>
      <trkpt lat="39.896121" lon="116.639019">
        <time>2020-08-27T13:46:00Z</time>
      </trkpt>
      <trkpt lat="39.8961" lon="116.638823">
        <time>2020-08-27T13:46:05Z</time>
      </trkpt>
      <trkpt lat="39.896047" lon="116.638594">
        <time>2020-08-27T13:46:10Z</time>
      </trkpt>
      <trkpt lat="39.896047" lon="116.638594">
        <time>2020-08-27T13:46:15Z</time>
      </trkpt>
      <trkpt lat="39.896052" lon="116.638336">
        <time>2020-08-27T13:46:20Z</time>
      </trkpt>
      <trkpt lat="39.896014" lon="116.638062">
        <time>2020-08-27T13:46:25Z</time>
      </trkpt>
      <trkpt lat="39.896014" lon="116.638062">
        <time>2020-08-27T13:46:30Z</time>
      </trkpt>
      <trkpt lat="39.896007" lon="116.637804">
        <time>2020-08-27T13:46:35Z</time>
      </trkpt>
      <trkpt lat="39.896004" lon="116.637625">
        <time>2020-08-27T13:46:40Z</time>
      </trkpt>
      <trkpt lat="39.896021" lon="116.637371">
        <time>2020-08-27T13:46:45Z</time>
      </trkpt>
      <trkpt lat="39.896021" lon="116.637371">
        <time>2020-08-27T13:46:50Z</time>
      </trkpt>
      <trkpt lat="39.896072" lon="116.637084">
        <time>2020-08-27T13:46:55Z</time>
      </trkpt>
      <trkpt lat="39.896055" lon="116.636757">
        <time>2020-08-27T13:47:00Z</time>
      </trkpt>
      <trkpt lat="39.895945" lon="116.636522">
        <time>2020-08-27T13:47:05Z</time>
      </trkpt>
      <trkpt lat="39.895945" lon="116.636522">
        <time>2020-08-27T13:47:10Z</time>
      </trkpt>
      <trkpt lat="39.895859" lon="116.636333">
        <time>2020-08-27T13:47:15Z</time>
      </trkpt>
      <trkpt lat="39.895932" lon="116.636221">
        <time>2020-08-27T13:47:20Z</time>
      </trkpt>
      <trkpt lat="39.895932" lon="116.636221">
        <time>2020-08-27T13:47:25Z</time>
      </trkpt>
      <trkpt lat="39.89603" lon="116.636185">
        <time>2020-08-27T13:47:30Z</time>
      </trkpt>
      <trkpt lat="39.896105" lon="116.636134">
        <time>2020-08-27T13:47:35Z</time>
      </trkpt>
      <trkpt lat="39.896115" lon="116.636127">
        <time>2020-08-27T13:47:40Z</time>
      </trkpt>
      <trkpt lat="39.896178" lon="116.636078">
        <time>2020-08-27T13:47:45Z</time>
      </trkpt>
      <trkpt lat="39.896178" lon="116.636078">
        <time>2020-08-27T13:47:50Z</time>
      </trkpt>
      <trkpt lat="39.896178" lon="116.636078">
        <time>2020-08-27T13:47:55Z</time>
      </trkpt>
      <trkpt lat="39.896418" lon="116.635893">
        <time>2020-08-27T13:48:00Z</time>
      </trkpt>
      <trkpt lat="39.896447" lon="116.635786">
        <time>2020-08-27T13:48:05Z</time>
      </trkpt>
      <trkpt lat="39.896447" lon="116.635786">
        <time>2020-08-27T13:48:10Z</time>
      </trkpt>
      <trkpt lat="39.896514" lon="116.635732">
        <time>2020-08-27T13:48:15Z</time>
      </trkpt>
      <trkpt lat="39.896605" lon="116.635686">
        <time>2020-08-27T13:48:20Z</time>
      </trkpt>
      <trkpt lat="39.896702" lon="116.635624">
        <time>2020-08-27T13:48:25Z</time>
      </trkpt>
      <trkpt lat="39.896702" lon="116.635624">
        <time>2020-08-27T13:48:30Z</time>
      </trkpt>
      <trkpt lat="39.896846" lon="116.635553">
        <time>2020-08-27T13:48:35Z</time>
      </trkpt>
      <trkpt lat="39.897036" lon="116.635499">
        <time>2020-08-27T13:48:40Z</time>
      </trkpt>
      <trkpt lat="39.897036" lon="116.635499">
        <time>2020-08-27T13:48:45Z</time>
      </trkpt>
      <trkpt lat="39.897212" lon="116.635403">
        <time>2020-08-27T13:48:50Z</time>
      </trkpt>
      <trkpt lat="39.897374" lon="116.635284">
        <time>2020-08-27T13:48:55Z</time>
      </trkpt>
      <trkpt lat="39.897542" lon="116.635202">
        <time>2020-08-27T13:49:00Z</time>
      </trkpt>
      <trkpt lat="39.897542" lon="116.635202">
        <time>2020-08-27T13:49:05Z</time>
      </trkpt>
      <trkpt lat="39.897676" lon="116.635085">
        <time>2020-08-27T13:49:10Z</time>
      </trkpt>
      <trkpt lat="39.897834" lon="116.634974">
        <time>2020-08-27T13:49:15Z</time>
      </trkpt>
      <trkpt lat="39.897834" lon="116.634974">
        <time>2020-08-27T13:49:20Z</time>
      </trkpt>
      <trkpt lat="39.897998" lon="116.634873">
        <time>2020-08-27T13:49:25Z</time>
      </trkpt>
      <trkpt lat="39.89809" lon="116.63473">
        <time>2020-08-27T13:49:30Z</time>
      </trkpt>
      <trkpt lat="39.898034" lon="116.634536">
        <time>2020-08-27T13:49:35Z</time>
      </trkpt>
      <trkpt lat="39.898034" lon="116.634536">
        <time>2020-08-27T13:49:40Z</time>
      </trkpt>
      <trkpt lat="39.897994" lon="116.634398">
        <time>2020-08-27T13:49:45Z</time>
      </trkpt>
      <trkpt lat="39.897957" lon="116.634284">
        <time>2020-08-27T13:49:50Z</time>
      </trkpt>
      <trkpt lat="39.897957" lon="116.634284">
        <time>2020-08-27T13:49:55Z</time>
      </trkpt>
      <trkpt lat="39.89794" lon="116.634255">
        <time>2020-08-27T13:50:00Z</time>
      </trkpt>
      <trkpt lat="39.897947" lon="116.634178">
        <time>2020-08-27T13:50:05Z</time>
      </trkpt>
      <trkpt lat="39.897947" lon="116.634178">
        <time>2020-08-27T13:50:10Z</time>
      </trkpt>
      <trkpt lat="39.897981" lon="116.634123">
        <time>2020-08-27T13:50:15Z</time>
      </trkpt>
      <trkpt lat="39.897953" lon="116.634035">
        <time>2020-08-27T13:50:20Z</time>
      </trkpt>
      <trkpt lat="39.8979" lon="116.633918">
        <time>2020-08-27T13:50:25Z</time>
      </trkpt>
      <trkpt lat="39.8979" lon="116.633918">
        <time>2020-08-27T13:50:30Z</time>
      </trkpt>
      <trkpt lat="39.897881" lon="116.63381">
        <time>2020-08-27T13:50:35Z</time>
      </trkpt>
      <trkpt lat="39.897831" lon="116.633708">
        <time>2020-08-27T13:50:40Z</time>
      </trkpt>
      <trkpt lat="39.897759" lon="116.633602">
        <time>2020-08-27T13:50:45Z</time>
      </trkpt>
      <trkpt lat="39.897759" lon="116.633602">
        <time>2020-08-27T13:50:50Z</time>
      </trkpt>
      <trkpt lat="39.897653" lon="116.633582">
        <time>2020-08-27T13:50:55Z</time>
      </trkpt>
      <trkpt lat="39.897569" lon="116.633608">
        <time>2020-08-27T13:51:00Z</time>
      </trkpt>
      <trkpt lat="39.897497" lon="116.633597">
        <time>2020-08-27T13:51:05Z</time>
      </trkpt>
      <trkpt lat="39.897497" lon="116.633597">
        <time>2020-08-27T13:51:10Z</time>
      </trkpt>
      <trkpt lat="39.897442" lon="116.633588">
        <time>2020-08-27T13:51:15Z</time>
      </trkpt>
      <trkpt lat="39.897425" lon="116.633712">
        <time>2020-08-27T13:51:20Z</time>
      </trkpt>
      <trkpt lat="39.897425" lon="116.633712">
        <time>2020-08-27T13:51:44Z</time>
      </trkpt>
    </trkseg>
  </trk>
</gpx>