<?xml version="1.0" encoding="UTF-8"?>
<gpx xmlns="http://www.topografix.com/GPX/1/1" xmlns:gpxtpx="http://www.garmin.com/xmlschemas/TrackPointExtension/v1" xmlns:xsi="http://www.w3.org/2001/XMLSchema-instance" xsi:schemaLocation="http://www.topografix.com/GPX/1/1 http://www.topografix.com/GPX/1/1/gpx.xsd" version="1.1" creator="gpx.py -- https://github.com/tkrajina/gpxpy">
  <trk>
    <name>gpx from keep</name>
    <trkseg>
      <trkpt lat="39.896146" lon="116.63666">
        <time>2020-09-13T11:15:17Z</time>
      </trkpt>
      <trkpt lat="39.896152" lon="116.636695">
        <time>2020-09-13T11:15:22Z</time>
      </trkpt>
      <trkpt lat="39.896183" lon="116.636811">
        <time>2020-09-13T11:15:27Z</time>
      </trkpt>
      <trkpt lat="39.896205" lon="116.636975">
        <time>2020-09-13T11:15:32Z</time>
      </trkpt>
      <trkpt lat="39.896202" lon="116.637121">
        <time>2020-09-13T11:15:37Z</time>
      </trkpt>
      <trkpt lat="39.896182" lon="116.637296">
        <time>2020-09-13T11:15:42Z</time>
      </trkpt>
      <trkpt lat="39.896202" lon="116.637473">
        <time>2020-09-13T11:15:47Z</time>
      </trkpt>
      <trkpt lat="39.896223" lon="116.637642">
        <time>2020-09-13T11:15:52Z</time>
      </trkpt>
      <trkpt lat="39.896223" lon="116.637793">
        <time>2020-09-13T11:15:57Z</time>
      </trkpt>
      <trkpt lat="39.896197" lon="116.637947">
        <time>2020-09-13T11:16:02Z</time>
      </trkpt>
      <trkpt lat="39.896211" lon="116.638116">
        <time>2020-09-13T11:16:07Z</time>
      </trkpt>
      <trkpt lat="39.896213" lon="116.638278">
        <time>2020-09-13T11:16:12Z</time>
      </trkpt>
      <trkpt lat="39.896231" lon="116.638435">
        <time>2020-09-13T11:16:17Z</time>
      </trkpt>
      <trkpt lat="39.896256" lon="116.63859">
        <time>2020-09-13T11:16:22Z</time>
      </trkpt>
      <trkpt lat="39.896288" lon="116.638748">
        <time>2020-09-13T11:16:27Z</time>
      </trkpt>
      <trkpt lat="39.896327" lon="116.638892">
        <time>2020-09-13T11:16:32Z</time>
      </trkpt>
      <trkpt lat="39.896334" lon="116.639057">
        <time>2020-09-13T11:16:37Z</time>
      </trkpt>
      <trkpt lat="39.896347" lon="116.639218">
        <time>2020-09-13T11:16:42Z</time>
      </trkpt>
      <trkpt lat="39.896347" lon="116.639351">
        <time>2020-09-13T11:16:47Z</time>
      </trkpt>
      <trkpt lat="39.896339" lon="116.639476">
        <time>2020-09-13T11:16:52Z</time>
      </trkpt>
      <trkpt lat="39.896343" lon="116.639616">
        <time>2020-09-13T11:16:57Z</time>
      </trkpt>
      <trkpt lat="39.896335" lon="116.63977">
        <time>2020-09-13T11:17:02Z</time>
      </trkpt>
      <trkpt lat="39.896346" lon="116.63993">
        <time>2020-09-13T11:17:07Z</time>
      </trkpt>
      <trkpt lat="39.89636" lon="116.640105">
        <time>2020-09-13T11:17:12Z</time>
      </trkpt>
      <trkpt lat="39.896383" lon="116.640286">
        <time>2020-09-13T11:17:17Z</time>
      </trkpt>
      <trkpt lat="39.896359" lon="116.640437">
        <time>2020-09-13T11:17:22Z</time>
      </trkpt>
      <trkpt lat="39.89634" lon="116.64058">
        <time>2020-09-13T11:17:27Z</time>
      </trkpt>
      <trkpt lat="39.896378" lon="116.640744">
        <time>2020-09-13T11:17:32Z</time>
      </trkpt>
      <trkpt lat="39.896377" lon="116.640895">
        <time>2020-09-13T11:17:37Z</time>
      </trkpt>
      <trkpt lat="39.896381" lon="116.641049">
        <time>2020-09-13T11:17:42Z</time>
      </trkpt>
      <trkpt lat="39.896374" lon="116.641212">
        <time>2020-09-13T11:17:47Z</time>
      </trkpt>
      <trkpt lat="39.896345" lon="116.64136">
        <time>2020-09-13T11:17:52Z</time>
      </trkpt>
      <trkpt lat="39.896317" lon="116.641506">
        <time>2020-09-13T11:17:57Z</time>
      </trkpt>
      <trkpt lat="39.896286" lon="116.64165">
        <time>2020-09-13T11:18:02Z</time>
      </trkpt>
      <trkpt lat="39.896288" lon="116.641792">
        <time>2020-09-13T11:18:07Z</time>
      </trkpt>
      <trkpt lat="39.896285" lon="116.641938">
        <time>2020-09-13T11:18:12Z</time>
      </trkpt>
      <trkpt lat="39.896277" lon="116.642081">
        <time>2020-09-13T11:18:17Z</time>
      </trkpt>
      <trkpt lat="39.89627" lon="116.642224">
        <time>2020-09-13T11:18:22Z</time>
      </trkpt>
      <trkpt lat="39.896254" lon="116.642365">
        <time>2020-09-13T11:18:27Z</time>
      </trkpt>
      <trkpt lat="39.896238" lon="116.642502">
        <time>2020-09-13T11:18:32Z</time>
      </trkpt>
      <trkpt lat="39.896232" lon="116.642641">
        <time>2020-09-13T11:18:37Z</time>
      </trkpt>
      <trkpt lat="39.896223" lon="116.64278">
        <time>2020-09-13T11:18:42Z</time>
      </trkpt>
      <trkpt lat="39.896225" lon="116.642939">
        <time>2020-09-13T11:18:47Z</time>
      </trkpt>
      <trkpt lat="39.896235" lon="116.643092">
        <time>2020-09-13T11:18:52Z</time>
      </trkpt>
      <trkpt lat="39.896244" lon="116.643248">
        <time>2020-09-13T11:18:57Z</time>
      </trkpt>
      <trkpt lat="39.896245" lon="116.643395">
        <time>2020-09-13T11:19:02Z</time>
      </trkpt>
      <trkpt lat="39.896266" lon="116.643546">
        <time>2020-09-13T11:19:07Z</time>
      </trkpt>
      <trkpt lat="39.896291" lon="116.64371">
        <time>2020-09-13T11:19:12Z</time>
      </trkpt>
      <trkpt lat="39.896314" lon="116.643852">
        <time>2020-09-13T11:19:17Z</time>
      </trkpt>
      <trkpt lat="39.896311" lon="116.643988">
        <time>2020-09-13T11:19:22Z</time>
      </trkpt>
      <trkpt lat="39.896312" lon="116.644141">
        <time>2020-09-13T11:19:27Z</time>
      </trkpt>
      <trkpt lat="39.896299" lon="116.644278">
        <time>2020-09-13T11:19:32Z</time>
      </trkpt>
      <trkpt lat="39.896325" lon="116.644476">
        <time>2020-09-13T11:19:37Z</time>
      </trkpt>
      <trkpt lat="39.896338" lon="116.644643">
        <time>2020-09-13T11:19:42Z</time>
      </trkpt>
      <trkpt lat="39.89635" lon="116.644817">
        <time>2020-09-13T11:19:47Z</time>
      </trkpt>
      <trkpt lat="39.896346" lon="116.644957">
        <time>2020-09-13T11:19:52Z</time>
      </trkpt>
      <trkpt lat="39.896335" lon="116.645101">
        <time>2020-09-13T11:19:57Z</time>
      </trkpt>
      <trkpt lat="39.896337" lon="116.645263">
        <time>2020-09-13T11:20:02Z</time>
      </trkpt>
      <trkpt lat="39.896324" lon="116.645434">
        <time>2020-09-13T11:20:07Z</time>
      </trkpt>
      <trkpt lat="39.896289" lon="116.64558">
        <time>2020-09-13T11:20:12Z</time>
      </trkpt>
      <trkpt lat="39.89625" lon="116.645725">
        <time>2020-09-13T11:20:17Z</time>
      </trkpt>
      <trkpt lat="39.896234" lon="116.645878">
        <time>2020-09-13T11:20:22Z</time>
      </trkpt>
      <trkpt lat="39.896222" lon="116.646028">
        <time>2020-09-13T11:20:27Z</time>
      </trkpt>
      <trkpt lat="39.896213" lon="116.646165">
        <time>2020-09-13T11:20:32Z</time>
      </trkpt>
      <trkpt lat="39.896187" lon="116.646278">
        <time>2020-09-13T11:20:37Z</time>
      </trkpt>
      <trkpt lat="39.896189" lon="116.646435">
        <time>2020-09-13T11:20:42Z</time>
      </trkpt>
      <trkpt lat="39.896142" lon="116.646585">
        <time>2020-09-13T11:20:47Z</time>
      </trkpt>
      <trkpt lat="39.896073" lon="116.646674">
        <time>2020-09-13T11:20:52Z</time>
      </trkpt>
      <trkpt lat="39.895941" lon="116.646694">
        <time>2020-09-13T11:20:57Z</time>
      </trkpt>
      <trkpt lat="39.895808" lon="116.646659">
        <time>2020-09-13T11:21:02Z</time>
      </trkpt>
      <trkpt lat="39.895683" lon="116.646623">
        <time>2020-09-13T11:21:07Z</time>
      </trkpt>
      <trkpt lat="39.895572" lon="116.646576">
        <time>2020-09-13T11:21:12Z</time>
      </trkpt>
      <trkpt lat="39.895481" lon="116.646523">
        <time>2020-09-13T11:21:17Z</time>
      </trkpt>
      <trkpt lat="39.895395" lon="116.646479">
        <time>2020-09-13T11:21:22Z</time>
      </trkpt>
      <trkpt lat="39.895304" lon="116.646436">
        <time>2020-09-13T11:21:27Z</time>
      </trkpt>
      <trkpt lat="39.895217" lon="116.646384">
        <time>2020-09-13T11:21:32Z</time>
      </trkpt>
      <trkpt lat="39.895113" lon="116.646355">
        <time>2020-09-13T11:21:37Z</time>
      </trkpt>
      <trkpt lat="39.895005" lon="116.646317">
        <time>2020-09-13T11:21:42Z</time>
      </trkpt>
      <trkpt lat="39.894908" lon="116.646312">
        <time>2020-09-13T11:21:47Z</time>
      </trkpt>
      <trkpt lat="39.894792" lon="116.646293">
        <time>2020-09-13T11:21:52Z</time>
      </trkpt>
      <trkpt lat="39.894667" lon="116.646264">
        <time>2020-09-13T11:21:57Z</time>
      </trkpt>
      <trkpt lat="39.894567" lon="116.646209">
        <time>2020-09-13T11:22:02Z</time>
      </trkpt>
      <trkpt lat="39.894479" lon="116.646147">
        <time>2020-09-13T11:22:07Z</time>
      </trkpt>
      <trkpt lat="39.894362" lon="116.646092">
        <time>2020-09-13T11:22:12Z</time>
      </trkpt>
      <trkpt lat="39.894257" lon="116.646044">
        <time>2020-09-13T11:22:17Z</time>
      </trkpt>
      <trkpt lat="39.894158" lon="116.645996">
        <time>2020-09-13T11:22:22Z</time>
      </trkpt>
      <trkpt lat="39.894072" lon="116.646026">
        <time>2020-09-13T11:22:27Z</time>
      </trkpt>
      <trkpt lat="39.894004" lon="116.646136">
        <time>2020-09-13T11:22:32Z</time>
      </trkpt>
      <trkpt lat="39.893938" lon="116.646214">
        <time>2020-09-13T11:22:37Z</time>
      </trkpt>
      <trkpt lat="39.893873" lon="116.646292">
        <time>2020-09-13T11:22:42Z</time>
      </trkpt>
      <trkpt lat="39.893795" lon="116.646327">
        <time>2020-09-13T11:22:47Z</time>
      </trkpt>
      <trkpt lat="39.893659" lon="116.646312">
        <time>2020-09-13T11:22:52Z</time>
      </trkpt>
      <trkpt lat="39.893525" lon="116.646285">
        <time>2020-09-13T11:22:57Z</time>
      </trkpt>
      <trkpt lat="39.893407" lon="116.646247">
        <time>2020-09-13T11:23:02Z</time>
      </trkpt>
      <trkpt lat="39.893304" lon="116.646208">
        <time>2020-09-13T11:23:07Z</time>
      </trkpt>
      <trkpt lat="39.893189" lon="116.646164">
        <time>2020-09-13T11:23:12Z</time>
      </trkpt>
      <trkpt lat="39.893073" lon="116.646092">
        <time>2020-09-13T11:23:17Z</time>
      </trkpt>
      <trkpt lat="39.892968" lon="116.64603">
        <time>2020-09-13T11:23:22Z</time>
      </trkpt>
      <trkpt lat="39.892854" lon="116.645992">
        <time>2020-09-13T11:23:27Z</time>
      </trkpt>
      <trkpt lat="39.892744" lon="116.645967">
        <time>2020-09-13T11:23:32Z</time>
      </trkpt>
      <trkpt lat="39.892638" lon="116.645911">
        <time>2020-09-13T11:23:37Z</time>
      </trkpt>
      <trkpt lat="39.892521" lon="116.645873">
        <time>2020-09-13T11:23:42Z</time>
      </trkpt>
      <trkpt lat="39.892418" lon="116.645834">
        <time>2020-09-13T11:23:47Z</time>
      </trkpt>
      <trkpt lat="39.892287" lon="116.645732">
        <time>2020-09-13T11:23:52Z</time>
      </trkpt>
      <trkpt lat="39.892181" lon="116.645688">
        <time>2020-09-13T11:23:57Z</time>
      </trkpt>
      <trkpt lat="39.892073" lon="116.64567">
        <time>2020-09-13T11:24:02Z</time>
      </trkpt>
      <trkpt lat="39.891982" lon="116.64563">
        <time>2020-09-13T11:24:07Z</time>
      </trkpt>
      <trkpt lat="39.891881" lon="116.645587">
        <time>2020-09-13T11:24:12Z</time>
      </trkpt>
      <trkpt lat="39.89179" lon="116.645516">
        <time>2020-09-13T11:24:17Z</time>
      </trkpt>
      <trkpt lat="39.891723" lon="116.645447">
        <time>2020-09-13T11:24:22Z</time>
      </trkpt>
      <trkpt lat="39.891735" lon="116.645444">
        <time>2020-09-13T11:24:27Z</time>
      </trkpt>
      <trkpt lat="39.891773" lon="116.645469">
        <time>2020-09-13T11:24:32Z</time>
      </trkpt>
      <trkpt lat="39.89185" lon="116.645489">
        <time>2020-09-13T11:24:37Z</time>
      </trkpt>
      <trkpt lat="39.891988" lon="116.645504">
        <time>2020-09-13T11:24:42Z</time>
      </trkpt>
      <trkpt lat="39.892116" lon="116.645526">
        <time>2020-09-13T11:24:47Z</time>
      </trkpt>
      <trkpt lat="39.892209" lon="116.645538">
        <time>2020-09-13T11:24:52Z</time>
      </trkpt>
      <trkpt lat="39.892317" lon="116.645567">
        <time>2020-09-13T11:24:57Z</time>
      </trkpt>
      <trkpt lat="39.892437" lon="116.645629">
        <time>2020-09-13T11:25:02Z</time>
      </trkpt>
      <trkpt lat="39.892564" lon="116.645691">
        <time>2020-09-13T11:25:07Z</time>
      </trkpt>
      <trkpt lat="39.892678" lon="116.64575">
        <time>2020-09-13T11:25:12Z</time>
      </trkpt>
      <trkpt lat="39.892786" lon="116.645793">
        <time>2020-09-13T11:25:17Z</time>
      </trkpt>
      <trkpt lat="39.892887" lon="116.645805">
        <time>2020-09-13T11:25:22Z</time>
      </trkpt>
      <trkpt lat="39.892985" lon="116.645848">
        <time>2020-09-13T11:25:27Z</time>
      </trkpt>
      <trkpt lat="39.893099" lon="116.645877">
        <time>2020-09-13T11:25:32Z</time>
      </trkpt>
      <trkpt lat="39.893235" lon="116.645928">
        <time>2020-09-13T11:25:37Z</time>
      </trkpt>
      <trkpt lat="39.893343" lon="116.645978">
        <time>2020-09-13T11:25:42Z</time>
      </trkpt>
      <trkpt lat="39.893466" lon="116.64603">
        <time>2020-09-13T11:25:47Z</time>
      </trkpt>
      <trkpt lat="39.893606" lon="116.646097">
        <time>2020-09-13T11:25:52Z</time>
      </trkpt>
      <trkpt lat="39.893729" lon="116.646164">
        <time>2020-09-13T11:25:57Z</time>
      </trkpt>
      <trkpt lat="39.893845" lon="116.646221">
        <time>2020-09-13T11:26:02Z</time>
      </trkpt>
      <trkpt lat="39.893904" lon="116.646185">
        <time>2020-09-13T11:26:07Z</time>
      </trkpt>
      <trkpt lat="39.89394" lon="116.646094">
        <time>2020-09-13T11:26:12Z</time>
      </trkpt>
      <trkpt lat="39.893989" lon="116.646013">
        <time>2020-09-13T11:26:17Z</time>
      </trkpt>
      <trkpt lat="39.894059" lon="116.645946">
        <time>2020-09-13T11:26:22Z</time>
      </trkpt>
      <trkpt lat="39.894155" lon="116.645909">
        <time>2020-09-13T11:26:27Z</time>
      </trkpt>
      <trkpt lat="39.894291" lon="116.645916">
        <time>2020-09-13T11:26:32Z</time>
      </trkpt>
      <trkpt lat="39.894408" lon="116.645966">
        <time>2020-09-13T11:26:37Z</time>
      </trkpt>
      <trkpt lat="39.894495" lon="116.646004">
        <time>2020-09-13T11:26:42Z</time>
      </trkpt>
      <trkpt lat="39.894597" lon="116.646053">
        <time>2020-09-13T11:26:47Z</time>
      </trkpt>
      <trkpt lat="39.89471" lon="116.64608">
        <time>2020-09-13T11:26:52Z</time>
      </trkpt>
      <trkpt lat="39.894841" lon="116.646092">
        <time>2020-09-13T11:26:57Z</time>
      </trkpt>
      <trkpt lat="39.894939" lon="116.64613">
        <time>2020-09-13T11:27:02Z</time>
      </trkpt>
      <trkpt lat="39.895026" lon="116.646185">
        <time>2020-09-13T11:27:07Z</time>
      </trkpt>
      <trkpt lat="39.895135" lon="116.646233">
        <time>2020-09-13T11:27:12Z</time>
      </trkpt>
      <trkpt lat="39.895254" lon="116.646282">
        <time>2020-09-13T11:27:17Z</time>
      </trkpt>
      <trkpt lat="39.895387" lon="116.64633">
        <time>2020-09-13T11:27:22Z</time>
      </trkpt>
      <trkpt lat="39.895508" lon="116.6464">
        <time>2020-09-13T11:27:27Z</time>
      </trkpt>
      <trkpt lat="39.895617" lon="116.64644">
        <time>2020-09-13T11:27:32Z</time>
      </trkpt>
      <trkpt lat="39.895726" lon="116.646502">
        <time>2020-09-13T11:27:37Z</time>
      </trkpt>
      <trkpt lat="39.895822" lon="116.64657">
        <time>2020-09-13T11:27:42Z</time>
      </trkpt>
      <trkpt lat="39.895935" lon="116.646609">
        <time>2020-09-13T11:27:47Z</time>
      </trkpt>
      <trkpt lat="39.896032" lon="116.646651">
        <time>2020-09-13T11:27:52Z</time>
      </trkpt>
      <trkpt lat="39.896137" lon="116.646689">
        <time>2020-09-13T11:27:57Z</time>
      </trkpt>
      <trkpt lat="39.896192" lon="116.646671">
        <time>2020-09-13T11:28:02Z</time>
      </trkpt>
      <trkpt lat="39.896179" lon="116.64659">
        <time>2020-09-13T11:28:07Z</time>
      </trkpt>
      <trkpt lat="39.896164" lon="116.646467">
        <time>2020-09-13T11:28:12Z</time>
      </trkpt>
      <trkpt lat="39.896154" lon="116.646314">
        <time>2020-09-13T11:28:17Z</time>
      </trkpt>
      <trkpt lat="39.896146" lon="116.646174">
        <time>2020-09-13T11:28:22Z</time>
      </trkpt>
      <trkpt lat="39.896151" lon="116.646028">
        <time>2020-09-13T11:28:27Z</time>
      </trkpt>
      <trkpt lat="39.896146" lon="116.645905">
        <time>2020-09-13T11:28:32Z</time>
      </trkpt>
      <trkpt lat="39.896163" lon="116.64577">
        <time>2020-09-13T11:28:37Z</time>
      </trkpt>
      <trkpt lat="39.896209" lon="116.645649">
        <time>2020-09-13T11:28:42Z</time>
      </trkpt>
      <trkpt lat="39.896244" lon="116.645505">
        <time>2020-09-13T11:28:47Z</time>
      </trkpt>
      <trkpt lat="39.896265" lon="116.645347">
        <time>2020-09-13T11:28:52Z</time>
      </trkpt>
      <trkpt lat="39.896284" lon="116.645199">
        <time>2020-09-13T11:28:57Z</time>
      </trkpt>
      <trkpt lat="39.896298" lon="116.645057">
        <time>2020-09-13T11:29:02Z</time>
      </trkpt>
      <trkpt lat="39.896301" lon="116.644914">
        <time>2020-09-13T11:29:07Z</time>
      </trkpt>
      <trkpt lat="39.896306" lon="116.64477">
        <time>2020-09-13T11:29:12Z</time>
      </trkpt>
      <trkpt lat="39.896308" lon="116.644632">
        <time>2020-09-13T11:29:17Z</time>
      </trkpt>
      <trkpt lat="39.896304" lon="116.644477">
        <time>2020-09-13T11:29:22Z</time>
      </trkpt>
      <trkpt lat="39.896304" lon="116.644346">
        <time>2020-09-13T11:29:27Z</time>
      </trkpt>
      <trkpt lat="39.896301" lon="116.644214">
        <time>2020-09-13T11:29:32Z</time>
      </trkpt>
      <trkpt lat="39.896299" lon="116.644075">
        <time>2020-09-13T11:29:37Z</time>
      </trkpt>
      <trkpt lat="39.896295" lon="116.643939">
        <time>2020-09-13T11:29:42Z</time>
      </trkpt>
      <trkpt lat="39.89629" lon="116.643802">
        <time>2020-09-13T11:29:47Z</time>
      </trkpt>
      <trkpt lat="39.896296" lon="116.643671">
        <time>2020-09-13T11:29:52Z</time>
      </trkpt>
      <trkpt lat="39.896319" lon="116.643548">
        <time>2020-09-13T11:29:57Z</time>
      </trkpt>
      <trkpt lat="39.896318" lon="116.6434">
        <time>2020-09-13T11:30:02Z</time>
      </trkpt>
      <trkpt lat="39.896312" lon="116.643265">
        <time>2020-09-13T11:30:07Z</time>
      </trkpt>
      <trkpt lat="39.896321" lon="116.643137">
        <time>2020-09-13T11:30:12Z</time>
      </trkpt>
      <trkpt lat="39.896311" lon="116.642997">
        <time>2020-09-13T11:30:17Z</time>
      </trkpt>
      <trkpt lat="39.896305" lon="116.642854">
        <time>2020-09-13T11:30:22Z</time>
      </trkpt>
      <trkpt lat="39.89632" lon="116.642701">
        <time>2020-09-13T11:30:27Z</time>
      </trkpt>
      <trkpt lat="39.896336" lon="116.642551">
        <time>2020-09-13T11:30:32Z</time>
      </trkpt>
      <trkpt lat="39.896325" lon="116.642417">
        <time>2020-09-13T11:30:37Z</time>
      </trkpt>
      <trkpt lat="39.896319" lon="116.642283">
        <time>2020-09-13T11:30:42Z</time>
      </trkpt>
      <trkpt lat="39.896317" lon="116.642144">
        <time>2020-09-13T11:30:47Z</time>
      </trkpt>
      <trkpt lat="39.896324" lon="116.642015">
        <time>2020-09-13T11:30:52Z</time>
      </trkpt>
      <trkpt lat="39.89634" lon="116.641872">
        <time>2020-09-13T11:30:57Z</time>
      </trkpt>
      <trkpt lat="39.896329" lon="116.64173">
        <time>2020-09-13T11:31:02Z</time>
      </trkpt>
      <trkpt lat="39.896331" lon="116.641583">
        <time>2020-09-13T11:31:07Z</time>
      </trkpt>
      <trkpt lat="39.896338" lon="116.641442">
        <time>2020-09-13T11:31:12Z</time>
      </trkpt>
      <trkpt lat="39.896338" lon="116.641305">
        <time>2020-09-13T11:31:17Z</time>
      </trkpt>
      <trkpt lat="39.896337" lon="116.641161">
        <time>2020-09-13T11:31:22Z</time>
      </trkpt>
      <trkpt lat="39.896349" lon="116.641035">
        <time>2020-09-13T11:31:27Z</time>
      </trkpt>
      <trkpt lat="39.896354" lon="116.640914">
        <time>2020-09-13T11:31:32Z</time>
      </trkpt>
      <trkpt lat="39.896361" lon="116.640796">
        <time>2020-09-13T11:31:37Z</time>
      </trkpt>
      <trkpt lat="39.896345" lon="116.640656">
        <time>2020-09-13T11:31:42Z</time>
      </trkpt>
      <trkpt lat="39.896344" lon="116.640533">
        <time>2020-09-13T11:31:47Z</time>
      </trkpt>
      <trkpt lat="39.89634" lon="116.640404">
        <time>2020-09-13T11:31:52Z</time>
      </trkpt>
      <trkpt lat="39.896333" lon="116.640261">
        <time>2020-09-13T11:31:57Z</time>
      </trkpt>
      <trkpt lat="39.896342" lon="116.640132">
        <time>2020-09-13T11:32:02Z</time>
      </trkpt>
      <trkpt lat="39.896346" lon="116.639995">
        <time>2020-09-13T11:32:07Z</time>
      </trkpt>
      <trkpt lat="39.896351" lon="116.639871">
        <time>2020-09-13T11:32:12Z</time>
      </trkpt>
      <trkpt lat="39.896356" lon="116.639747">
        <time>2020-09-13T11:32:17Z</time>
      </trkpt>
      <trkpt lat="39.896363" lon="116.639572">
        <time>2020-09-13T11:32:22Z</time>
      </trkpt>
      <trkpt lat="39.89636" lon="116.639427">
        <time>2020-09-13T11:32:27Z</time>
      </trkpt>
      <trkpt lat="39.89636" lon="116.639281">
        <time>2020-09-13T11:32:32Z</time>
      </trkpt>
      <trkpt lat="39.89638" lon="116.639119">
        <time>2020-09-13T11:32:37Z</time>
      </trkpt>
      <trkpt lat="39.896388" lon="116.638969">
        <time>2020-09-13T11:32:42Z</time>
      </trkpt>
      <trkpt lat="39.896385" lon="116.638824">
        <time>2020-09-13T11:32:47Z</time>
      </trkpt>
      <trkpt lat="39.896391" lon="116.638694">
        <time>2020-09-13T11:32:52Z</time>
      </trkpt>
      <trkpt lat="39.896396" lon="116.638561">
        <time>2020-09-13T11:32:57Z</time>
      </trkpt>
      <trkpt lat="39.896384" lon="116.638421">
        <time>2020-09-13T11:33:02Z</time>
      </trkpt>
      <trkpt lat="39.896366" lon="116.638284">
        <time>2020-09-13T11:33:07Z</time>
      </trkpt>
      <trkpt lat="39.896353" lon="116.638143">
        <time>2020-09-13T11:33:12Z</time>
      </trkpt>
      <trkpt lat="39.896335" lon="116.637994">
        <time>2020-09-13T11:33:17Z</time>
      </trkpt>
      <trkpt lat="39.896315" lon="116.637845">
        <time>2020-09-13T11:33:22Z</time>
      </trkpt>
      <trkpt lat="39.896305" lon="116.637694">
        <time>2020-09-13T11:33:27Z</time>
      </trkpt>
      <trkpt lat="39.896298" lon="116.637553">
        <time>2020-09-13T11:33:32Z</time>
      </trkpt>
      <trkpt lat="39.896287" lon="116.637399">
        <time>2020-09-13T11:33:37Z</time>
      </trkpt>
      <trkpt lat="39.896281" lon="116.637251">
        <time>2020-09-13T11:33:42Z</time>
      </trkpt>
      <trkpt lat="39.896267" lon="116.637114">
        <time>2020-09-13T11:33:47Z</time>
      </trkpt>
      <trkpt lat="39.896252" lon="116.636979">
        <time>2020-09-13T11:33:52Z</time>
      </trkpt>
      <trkpt lat="39.896247" lon="116.636854">
        <time>2020-09-13T11:33:57Z</time>
      </trkpt>
      <trkpt lat="39.896221" lon="116.636775">
        <time>2020-09-13T11:34:02Z</time>
      </trkpt>
      <trkpt lat="39.896204" lon="116.636832">
        <time>2020-09-13T11:34:07Z</time>
      </trkpt>
      <trkpt lat="39.896221" lon="116.636991">
        <time>2020-09-13T11:34:12Z</time>
      </trkpt>
      <trkpt lat="39.896254" lon="116.637147">
        <time>2020-09-13T11:34:17Z</time>
      </trkpt>
      <trkpt lat="39.896272" lon="116.637284">
        <time>2020-09-13T11:34:22Z</time>
      </trkpt>
      <trkpt lat="39.896303" lon="116.63743">
        <time>2020-09-13T11:34:27Z</time>
      </trkpt>
      <trkpt lat="39.896303" lon="116.637579">
        <time>2020-09-13T11:34:32Z</time>
      </trkpt>
      <trkpt lat="39.896293" lon="116.637732">
        <time>2020-09-13T11:34:37Z</time>
      </trkpt>
      <trkpt lat="39.896287" lon="116.637875">
        <time>2020-09-13T11:34:42Z</time>
      </trkpt>
      <trkpt lat="39.896277" lon="116.638">
        <time>2020-09-13T11:34:47Z</time>
      </trkpt>
      <trkpt lat="39.896291" lon="116.638154">
        <time>2020-09-13T11:34:52Z</time>
      </trkpt>
      <trkpt lat="39.896318" lon="116.638281">
        <time>2020-09-13T11:34:57Z</time>
      </trkpt>
      <trkpt lat="39.896315" lon="116.63842">
        <time>2020-09-13T11:35:02Z</time>
      </trkpt>
      <trkpt lat="39.896311" lon="116.638568">
        <time>2020-09-13T11:35:07Z</time>
      </trkpt>
      <trkpt lat="39.896322" lon="116.638726">
        <time>2020-09-13T11:35:12Z</time>
      </trkpt>
      <trkpt lat="39.896344" lon="116.638864">
        <time>2020-09-13T11:35:17Z</time>
      </trkpt>
      <trkpt lat="39.896367" lon="116.638994">
        <time>2020-09-13T11:35:22Z</time>
      </trkpt>
      <trkpt lat="39.896382" lon="116.639145">
        <time>2020-09-13T11:35:27Z</time>
      </trkpt>
      <trkpt lat="39.896384" lon="116.639285">
        <time>2020-09-13T11:35:32Z</time>
      </trkpt>
      <trkpt lat="39.8964" lon="116.639417">
        <time>2020-09-13T11:35:37Z</time>
      </trkpt>
      <trkpt lat="39.896421" lon="116.639556">
        <time>2020-09-13T11:35:42Z</time>
      </trkpt>
      <trkpt lat="39.896433" lon="116.639709">
        <time>2020-09-13T11:35:47Z</time>
      </trkpt>
      <trkpt lat="39.896417" lon="116.639866">
        <time>2020-09-13T11:35:52Z</time>
      </trkpt>
      <trkpt lat="39.896376" lon="116.640002">
        <time>2020-09-13T11:35:57Z</time>
      </trkpt>
      <trkpt lat="39.896366" lon="116.640118">
        <time>2020-09-13T11:36:02Z</time>
      </trkpt>
      <trkpt lat="39.896372" lon="116.640246">
        <time>2020-09-13T11:36:07Z</time>
      </trkpt>
      <trkpt lat="39.896387" lon="116.640399">
        <time>2020-09-13T11:36:12Z</time>
      </trkpt>
      <trkpt lat="39.896396" lon="116.640541">
        <time>2020-09-13T11:36:17Z</time>
      </trkpt>
      <trkpt lat="39.896368" lon="116.640684">
        <time>2020-09-13T11:36:22Z</time>
      </trkpt>
      <trkpt lat="39.896347" lon="116.640815">
        <time>2020-09-13T11:36:27Z</time>
      </trkpt>
      <trkpt lat="39.896316" lon="116.640948">
        <time>2020-09-13T11:36:32Z</time>
      </trkpt>
      <trkpt lat="39.896309" lon="116.641122">
        <time>2020-09-13T11:36:37Z</time>
      </trkpt>
      <trkpt lat="39.896339" lon="116.641272">
        <time>2020-09-13T11:36:42Z</time>
      </trkpt>
      <trkpt lat="39.896375" lon="116.641415">
        <time>2020-09-13T11:36:47Z</time>
      </trkpt>
      <trkpt lat="39.896374" lon="116.641576">
        <time>2020-09-13T11:36:52Z</time>
      </trkpt>
      <trkpt lat="39.896342" lon="116.641707">
        <time>2020-09-13T11:36:57Z</time>
      </trkpt>
      <trkpt lat="39.896361" lon="116.64185">
        <time>2020-09-13T11:37:02Z</time>
      </trkpt>
      <trkpt lat="39.89638" lon="116.641981">
        <time>2020-09-13T11:37:07Z</time>
      </trkpt>
      <trkpt lat="39.896385" lon="116.642106">
        <time>2020-09-13T11:37:12Z</time>
      </trkpt>
      <trkpt lat="39.896386" lon="116.642247">
        <time>2020-09-13T11:37:17Z</time>
      </trkpt>
      <trkpt lat="39.896384" lon="116.642389">
        <time>2020-09-13T11:37:22Z</time>
      </trkpt>
      <trkpt lat="39.896371" lon="116.642522">
        <time>2020-09-13T11:37:27Z</time>
      </trkpt>
      <trkpt lat="39.896348" lon="116.642666">
        <time>2020-09-13T11:37:32Z</time>
      </trkpt>
      <trkpt lat="39.896333" lon="116.642806">
        <time>2020-09-13T11:37:37Z</time>
      </trkpt>
      <trkpt lat="39.896335" lon="116.642956">
        <time>2020-09-13T11:37:42Z</time>
      </trkpt>
      <trkpt lat="39.896341" lon="116.643094">
        <time>2020-09-13T11:37:47Z</time>
      </trkpt>
      <trkpt lat="39.89633" lon="116.643246">
        <time>2020-09-13T11:37:52Z</time>
      </trkpt>
      <trkpt lat="39.896348" lon="116.643409">
        <time>2020-09-13T11:37:57Z</time>
      </trkpt>
      <trkpt lat="39.896345" lon="116.643544">
        <time>2020-09-13T11:38:02Z</time>
      </trkpt>
      <trkpt lat="39.896336" lon="116.643675">
        <time>2020-09-13T11:38:07Z</time>
      </trkpt>
      <trkpt lat="39.896323" lon="116.643805">
        <time>2020-09-13T11:38:12Z</time>
      </trkpt>
      <trkpt lat="39.896313" lon="116.643939">
        <time>2020-09-13T11:38:17Z</time>
      </trkpt>
      <trkpt lat="39.896322" lon="116.644078">
        <time>2020-09-13T11:38:22Z</time>
      </trkpt>
      <trkpt lat="39.896326" lon="116.644234">
        <time>2020-09-13T11:38:27Z</time>
      </trkpt>
      <trkpt lat="39.896335" lon="116.644379">
        <time>2020-09-13T11:38:32Z</time>
      </trkpt>
      <trkpt lat="39.896362" lon="116.64452">
        <time>2020-09-13T11:38:37Z</time>
      </trkpt>
      <trkpt lat="39.896377" lon="116.644666">
        <time>2020-09-13T11:38:42Z</time>
      </trkpt>
      <trkpt lat="39.89636" lon="116.644802">
        <time>2020-09-13T11:38:47Z</time>
      </trkpt>
      <trkpt lat="39.896341" lon="116.644936">
        <time>2020-09-13T11:38:52Z</time>
      </trkpt>
      <trkpt lat="39.896325" lon="116.64508">
        <time>2020-09-13T11:38:57Z</time>
      </trkpt>
      <trkpt lat="39.896324" lon="116.645231">
        <time>2020-09-13T11:39:02Z</time>
      </trkpt>
      <trkpt lat="39.896302" lon="116.645366">
        <time>2020-09-13T11:39:07Z</time>
      </trkpt>
      <trkpt lat="39.896293" lon="116.645506">
        <time>2020-09-13T11:39:12Z</time>
      </trkpt>
      <trkpt lat="39.896256" lon="116.645674">
        <time>2020-09-13T11:39:17Z</time>
      </trkpt>
      <trkpt lat="39.896218" lon="116.645811">
        <time>2020-09-13T11:39:22Z</time>
      </trkpt>
      <trkpt lat="39.896188" lon="116.645944">
        <time>2020-09-13T11:39:27Z</time>
      </trkpt>
      <trkpt lat="39.896171" lon="116.646088">
        <time>2020-09-13T11:39:32Z</time>
      </trkpt>
      <trkpt lat="39.896127" lon="116.646224">
        <time>2020-09-13T11:39:37Z</time>
      </trkpt>
      <trkpt lat="39.896118" lon="116.646353">
        <time>2020-09-13T11:39:42Z</time>
      </trkpt>
      <trkpt lat="39.89613" lon="116.646497">
        <time>2020-09-13T11:39:47Z</time>
      </trkpt>
      <trkpt lat="39.896141" lon="116.646654">
        <time>2020-09-13T11:39:52Z</time>
      </trkpt>
      <trkpt lat="39.896079" lon="116.64676">
        <time>2020-09-13T11:39:57Z</time>
      </trkpt>
      <trkpt lat="39.895966" lon="116.646781">
        <time>2020-09-13T11:40:02Z</time>
      </trkpt>
      <trkpt lat="39.895855" lon="116.646736">
        <time>2020-09-13T11:40:07Z</time>
      </trkpt>
      <trkpt lat="39.895754" lon="116.646673">
        <time>2020-09-13T11:40:12Z</time>
      </trkpt>
      <trkpt lat="39.895669" lon="116.646606">
        <time>2020-09-13T11:40:17Z</time>
      </trkpt>
      <trkpt lat="39.89557" lon="116.646549">
        <time>2020-09-13T11:40:22Z</time>
      </trkpt>
      <trkpt lat="39.895463" lon="116.646485">
        <time>2020-09-13T11:40:27Z</time>
      </trkpt>
      <trkpt lat="39.895338" lon="116.646435">
        <time>2020-09-13T11:40:32Z</time>
      </trkpt>
      <trkpt lat="39.895254" lon="116.646373">
        <time>2020-09-13T11:40:37Z</time>
      </trkpt>
      <trkpt lat="39.895153" lon="116.646329">
        <time>2020-09-13T11:40:42Z</time>
      </trkpt>
      <trkpt lat="39.895045" lon="116.646275">
        <time>2020-09-13T11:40:47Z</time>
      </trkpt>
      <trkpt lat="39.894924" lon="116.646225">
        <time>2020-09-13T11:40:52Z</time>
      </trkpt>
      <trkpt lat="39.894822" lon="116.646207">
        <time>2020-09-13T11:40:57Z</time>
      </trkpt>
      <trkpt lat="39.894715" lon="116.646163">
        <time>2020-09-13T11:41:02Z</time>
      </trkpt>
      <trkpt lat="39.894603" lon="116.646113">
        <time>2020-09-13T11:41:07Z</time>
      </trkpt>
      <trkpt lat="39.894493" lon="116.646082">
        <time>2020-09-13T11:41:12Z</time>
      </trkpt>
      <trkpt lat="39.894395" lon="116.646028">
        <time>2020-09-13T11:41:17Z</time>
      </trkpt>
      <trkpt lat="39.894296" lon="116.645971">
        <time>2020-09-13T11:41:22Z</time>
      </trkpt>
      <trkpt lat="39.894181" lon="116.645935">
        <time>2020-09-13T11:41:27Z</time>
      </trkpt>
      <trkpt lat="39.89407" lon="116.645977">
        <time>2020-09-13T11:41:32Z</time>
      </trkpt>
      <trkpt lat="39.893992" lon="116.646081">
        <time>2020-09-13T11:41:37Z</time>
      </trkpt>
      <trkpt lat="39.893924" lon="116.646172">
        <time>2020-09-13T11:41:42Z</time>
      </trkpt>
      <trkpt lat="39.893864" lon="116.646254">
        <time>2020-09-13T11:41:47Z</time>
      </trkpt>
      <trkpt lat="39.89378" lon="116.646325">
        <time>2020-09-13T11:41:52Z</time>
      </trkpt>
      <trkpt lat="39.893686" lon="116.646291">
        <time>2020-09-13T11:41:57Z</time>
      </trkpt>
      <trkpt lat="39.893584" lon="116.646224">
        <time>2020-09-13T11:42:02Z</time>
      </trkpt>
      <trkpt lat="39.893462" lon="116.646164">
        <time>2020-09-13T11:42:07Z</time>
      </trkpt>
      <trkpt lat="39.893336" lon="116.646119">
        <time>2020-09-13T11:42:12Z</time>
      </trkpt>
      <trkpt lat="39.893207" lon="116.646091">
        <time>2020-09-13T11:42:17Z</time>
      </trkpt>
      <trkpt lat="39.893095" lon="116.646045">
        <time>2020-09-13T11:42:22Z</time>
      </trkpt>
      <trkpt lat="39.892979" lon="116.646002">
        <time>2020-09-13T11:42:27Z</time>
      </trkpt>
      <trkpt lat="39.892871" lon="116.645927">
        <time>2020-09-13T11:42:32Z</time>
      </trkpt>
      <trkpt lat="39.892768" lon="116.645854">
        <time>2020-09-13T11:42:37Z</time>
      </trkpt>
      <trkpt lat="39.892662" lon="116.645796">
        <time>2020-09-13T11:42:42Z</time>
      </trkpt>
      <trkpt lat="39.892545" lon="116.645718">
        <time>2020-09-13T11:42:47Z</time>
      </trkpt>
      <trkpt lat="39.892451" lon="116.645635">
        <time>2020-09-13T11:42:52Z</time>
      </trkpt>
      <trkpt lat="39.892332" lon="116.645608">
        <time>2020-09-13T11:42:57Z</time>
      </trkpt>
      <trkpt lat="39.892209" lon="116.645589">
        <time>2020-09-13T11:43:02Z</time>
      </trkpt>
      <trkpt lat="39.892113" lon="116.645552">
        <time>2020-09-13T11:43:07Z</time>
      </trkpt>
      <trkpt lat="39.892001" lon="116.64553">
        <time>2020-09-13T11:43:12Z</time>
      </trkpt>
      <trkpt lat="39.891886" lon="116.645459">
        <time>2020-09-13T11:43:17Z</time>
      </trkpt>
      <trkpt lat="39.891779" lon="116.645367">
        <time>2020-09-13T11:43:22Z</time>
      </trkpt>
      <trkpt lat="39.891704" lon="116.645338">
        <time>2020-09-13T11:43:27Z</time>
      </trkpt>
      <trkpt lat="39.891746" lon="116.645356">
        <time>2020-09-13T11:43:32Z</time>
      </trkpt>
      <trkpt lat="39.891832" lon="116.645376">
        <time>2020-09-13T11:43:37Z</time>
      </trkpt>
      <trkpt lat="39.891938" lon="116.645428">
        <time>2020-09-13T11:43:42Z</time>
      </trkpt>
      <trkpt lat="39.892052" lon="116.645499">
        <time>2020-09-13T11:43:47Z</time>
      </trkpt>
      <trkpt lat="39.89218" lon="116.645567">
        <time>2020-09-13T11:43:52Z</time>
      </trkpt>
      <trkpt lat="39.892297" lon="116.645631">
        <time>2020-09-13T11:43:57Z</time>
      </trkpt>
      <trkpt lat="39.892431" lon="116.645684">
        <time>2020-09-13T11:44:02Z</time>
      </trkpt>
      <trkpt lat="39.892567" lon="116.645714">
        <time>2020-09-13T11:44:07Z</time>
      </trkpt>
      <trkpt lat="39.892709" lon="116.645746">
        <time>2020-09-13T11:44:12Z</time>
      </trkpt>
      <trkpt lat="39.892815" lon="116.645815">
        <time>2020-09-13T11:44:17Z</time>
      </trkpt>
      <trkpt lat="39.892938" lon="116.645866">
        <time>2020-09-13T11:44:22Z</time>
      </trkpt>
      <trkpt lat="39.893057" lon="116.645897">
        <time>2020-09-13T11:44:27Z</time>
      </trkpt>
      <trkpt lat="39.893191" lon="116.645903">
        <time>2020-09-13T11:44:32Z</time>
      </trkpt>
      <trkpt lat="39.893301" lon="116.645981">
        <time>2020-09-13T11:44:37Z</time>
      </trkpt>
      <trkpt lat="39.893412" lon="116.646053">
        <time>2020-09-13T11:44:42Z</time>
      </trkpt>
      <trkpt lat="39.893534" lon="116.646097">
        <time>2020-09-13T11:44:47Z</time>
      </trkpt>
      <trkpt lat="39.893677" lon="116.646148">
        <time>2020-09-13T11:44:52Z</time>
      </trkpt>
      <trkpt lat="39.893804" lon="116.646212">
        <time>2020-09-13T11:44:57Z</time>
      </trkpt>
      <trkpt lat="39.893911" lon="116.646213">
        <time>2020-09-13T11:45:02Z</time>
      </trkpt>
      <trkpt lat="39.894007" lon="116.646104">
        <time>2020-09-13T11:45:07Z</time>
      </trkpt>
      <trkpt lat="39.89406" lon="116.64599">
        <time>2020-09-13T11:45:12Z</time>
      </trkpt>
      <trkpt lat="39.894121" lon="116.645879">
        <time>2020-09-13T11:45:17Z</time>
      </trkpt>
      <trkpt lat="39.894239" lon="116.645801">
        <time>2020-09-13T11:45:22Z</time>
      </trkpt>
      <trkpt lat="39.894384" lon="116.64584">
        <time>2020-09-13T11:45:27Z</time>
      </trkpt>
      <trkpt lat="39.894501" lon="116.645902">
        <time>2020-09-13T11:45:32Z</time>
      </trkpt>
      <trkpt lat="39.894616" lon="116.645974">
        <time>2020-09-13T11:45:37Z</time>
      </trkpt>
      <trkpt lat="39.894727" lon="116.646">
        <time>2020-09-13T11:45:42Z</time>
      </trkpt>
      <trkpt lat="39.894847" lon="116.646078">
        <time>2020-09-13T11:45:47Z</time>
      </trkpt>
      <trkpt lat="39.894964" lon="116.64613">
        <time>2020-09-13T11:45:52Z</time>
      </trkpt>
      <trkpt lat="39.895082" lon="116.646185">
        <time>2020-09-13T11:45:57Z</time>
      </trkpt>
      <trkpt lat="39.895183" lon="116.646243">
        <time>2020-09-13T11:46:02Z</time>
      </trkpt>
      <trkpt lat="39.895303" lon="116.646327">
        <time>2020-09-13T11:46:07Z</time>
      </trkpt>
      <trkpt lat="39.895413" lon="116.646399">
        <time>2020-09-13T11:46:12Z</time>
      </trkpt>
      <trkpt lat="39.895546" lon="116.646448">
        <time>2020-09-13T11:46:17Z</time>
      </trkpt>
      <trkpt lat="39.89565" lon="116.64653">
        <time>2020-09-13T11:46:22Z</time>
      </trkpt>
      <trkpt lat="39.895757" lon="116.646586">
        <time>2020-09-13T11:46:27Z</time>
      </trkpt>
      <trkpt lat="39.895878" lon="116.646617">
        <time>2020-09-13T11:46:32Z</time>
      </trkpt>
      <trkpt lat="39.896002" lon="116.646665">
        <time>2020-09-13T11:46:37Z</time>
      </trkpt>
      <trkpt lat="39.896139" lon="116.646706">
        <time>2020-09-13T11:46:42Z</time>
      </trkpt>
      <trkpt lat="39.896239" lon="116.646697">
        <time>2020-09-13T11:46:47Z</time>
      </trkpt>
      <trkpt lat="39.896254" lon="116.646597">
        <time>2020-09-13T11:46:52Z</time>
      </trkpt>
      <trkpt lat="39.896251" lon="116.646458">
        <time>2020-09-13T11:46:57Z</time>
      </trkpt>
      <trkpt lat="39.896239" lon="116.646309">
        <time>2020-09-13T11:47:02Z</time>
      </trkpt>
      <trkpt lat="39.896236" lon="116.646186">
        <time>2020-09-13T11:47:07Z</time>
      </trkpt>
      <trkpt lat="39.896233" lon="116.646044">
        <time>2020-09-13T11:47:12Z</time>
      </trkpt>
      <trkpt lat="39.89625" lon="116.645902">
        <time>2020-09-13T11:47:17Z</time>
      </trkpt>
      <trkpt lat="39.896274" lon="116.645761">
        <time>2020-09-13T11:47:22Z</time>
      </trkpt>
      <trkpt lat="39.896295" lon="116.645616">
        <time>2020-09-13T11:47:27Z</time>
      </trkpt>
      <trkpt lat="39.896315" lon="116.645466">
        <time>2020-09-13T11:47:32Z</time>
      </trkpt>
      <trkpt lat="39.896328" lon="116.645319">
        <time>2020-09-13T11:47:37Z</time>
      </trkpt>
      <trkpt lat="39.896346" lon="116.645173">
        <time>2020-09-13T11:47:42Z</time>
      </trkpt>
      <trkpt lat="39.896355" lon="116.644962">
        <time>2020-09-13T11:47:47Z</time>
      </trkpt>
      <trkpt lat="39.896372" lon="116.644769">
        <time>2020-09-13T11:47:52Z</time>
      </trkpt>
      <trkpt lat="39.896372" lon="116.6446">
        <time>2020-09-13T11:47:57Z</time>
      </trkpt>
      <trkpt lat="39.896366" lon="116.644427">
        <time>2020-09-13T11:48:02Z</time>
      </trkpt>
      <trkpt lat="39.896357" lon="116.644247">
        <time>2020-09-13T11:48:07Z</time>
      </trkpt>
      <trkpt lat="39.896353" lon="116.64407">
        <time>2020-09-13T11:48:12Z</time>
      </trkpt>
      <trkpt lat="39.896354" lon="116.643897">
        <time>2020-09-13T11:48:17Z</time>
      </trkpt>
      <trkpt lat="39.896353" lon="116.643731">
        <time>2020-09-13T11:48:22Z</time>
      </trkpt>
      <trkpt lat="39.896351" lon="116.643565">
        <time>2020-09-13T11:48:27Z</time>
      </trkpt>
      <trkpt lat="39.896348" lon="116.643417">
        <time>2020-09-13T11:48:32Z</time>
      </trkpt>
      <trkpt lat="39.896334" lon="116.643318">
        <time>2020-09-13T11:48:37Z</time>
      </trkpt>
      <trkpt lat="39.896316" lon="116.643197">
        <time>2020-09-13T11:48:42Z</time>
      </trkpt>
      <trkpt lat="39.89631" lon="116.643109">
        <time>2020-09-13T11:48:47Z</time>
      </trkpt>
      <trkpt lat="39.896314" lon="116.64303">
        <time>2020-09-13T11:48:52Z</time>
      </trkpt>
      <trkpt lat="39.896302" lon="116.64294">
        <time>2020-09-13T11:48:57Z</time>
      </trkpt>
      <trkpt lat="39.896312" lon="116.642839">
        <time>2020-09-13T11:49:02Z</time>
      </trkpt>
      <trkpt lat="39.89633" lon="116.64274">
        <time>2020-09-13T11:49:07Z</time>
      </trkpt>
      <trkpt lat="39.896344" lon="116.642626">
        <time>2020-09-13T11:49:12Z</time>
      </trkpt>
      <trkpt lat="39.896356" lon="116.64252">
        <time>2020-09-13T11:49:17Z</time>
      </trkpt>
      <trkpt lat="39.896363" lon="116.642412">
        <time>2020-09-13T11:49:22Z</time>
      </trkpt>
      <trkpt lat="39.896355" lon="116.642309">
        <time>2020-09-13T11:49:27Z</time>
      </trkpt>
      <trkpt lat="39.896364" lon="116.642198">
        <time>2020-09-13T11:49:32Z</time>
      </trkpt>
      <trkpt lat="39.89638" lon="116.642073">
        <time>2020-09-13T11:49:37Z</time>
      </trkpt>
      <trkpt lat="39.896399" lon="116.641906">
        <time>2020-09-13T11:49:42Z</time>
      </trkpt>
      <trkpt lat="39.896428" lon="116.641736">
        <time>2020-09-13T11:49:47Z</time>
      </trkpt>
      <trkpt lat="39.896436" lon="116.641585">
        <time>2020-09-13T11:49:52Z</time>
      </trkpt>
      <trkpt lat="39.896422" lon="116.641416">
        <time>2020-09-13T11:49:57Z</time>
      </trkpt>
      <trkpt lat="39.896386" lon="116.641267">
        <time>2020-09-13T11:50:02Z</time>
      </trkpt>
      <trkpt lat="39.896386" lon="116.641135">
        <time>2020-09-13T11:50:07Z</time>
      </trkpt>
      <trkpt lat="39.89638" lon="116.640993">
        <time>2020-09-13T11:50:12Z</time>
      </trkpt>
      <trkpt lat="39.896383" lon="116.640862">
        <time>2020-09-13T11:50:17Z</time>
      </trkpt>
      <trkpt lat="39.896382" lon="116.640709">
        <time>2020-09-13T11:50:22Z</time>
      </trkpt>
      <trkpt lat="39.896385" lon="116.640559">
        <time>2020-09-13T11:50:27Z</time>
      </trkpt>
      <trkpt lat="39.896433" lon="116.640422">
        <time>2020-09-13T11:50:32Z</time>
      </trkpt>
      <trkpt lat="39.896673" lon="116.640281">
        <time>2020-09-13T11:50:37Z</time>
      </trkpt>
      <trkpt lat="39.896673" lon="116.640281">
        <time>2020-09-13T11:50:42Z</time>
      </trkpt>
      <trkpt lat="39.896794" lon="116.64035">
        <time>2020-09-13T11:50:47Z</time>
      </trkpt>
      <trkpt lat="39.896921" lon="116.640429">
        <time>2020-09-13T11:50:52Z</time>
      </trkpt>
      <trkpt lat="39.897041" lon="116.640501">
        <time>2020-09-13T11:50:57Z</time>
      </trkpt>
      <trkpt lat="39.897171" lon="116.640551">
        <time>2020-09-13T11:51:02Z</time>
      </trkpt>
      <trkpt lat="39.897274" lon="116.640617">
        <time>2020-09-13T11:51:07Z</time>
      </trkpt>
      <trkpt lat="39.89732" lon="116.640712">
        <time>2020-09-13T11:51:12Z</time>
      </trkpt>
      <trkpt lat="39.897425" lon="116.640797">
        <time>2020-09-13T11:51:17Z</time>
      </trkpt>
      <trkpt lat="39.89754" lon="116.640842">
        <time>2020-09-13T11:51:22Z</time>
      </trkpt>
      <trkpt lat="39.897608" lon="116.640885">
        <time>2020-09-13T11:51:27Z</time>
      </trkpt>
      <trkpt lat="39.897691" lon="116.640948">
        <time>2020-09-13T11:51:32Z</time>
      </trkpt>
      <trkpt lat="39.89777" lon="116.640969">
        <time>2020-09-13T11:51:37Z</time>
      </trkpt>
      <trkpt lat="39.897873" lon="116.640985">
        <time>2020-09-13T11:51:42Z</time>
      </trkpt>
      <trkpt lat="39.898033" lon="116.641047">
        <time>2020-09-13T11:51:47Z</time>
      </trkpt>
      <trkpt lat="39.898169" lon="116.641123">
        <time>2020-09-13T11:51:52Z</time>
      </trkpt>
      <trkpt lat="39.898281" lon="116.641184">
        <time>2020-09-13T11:51:57Z</time>
      </trkpt>
      <trkpt lat="39.898372" lon="116.64123">
        <time>2020-09-13T11:52:02Z</time>
      </trkpt>
      <trkpt lat="39.898438" lon="116.641328">
        <time>2020-09-13T11:52:07Z</time>
      </trkpt>
      <trkpt lat="39.898459" lon="116.641504">
        <time>2020-09-13T11:52:12Z</time>
      </trkpt>
      <trkpt lat="39.898448" lon="116.641662">
        <time>2020-09-13T11:52:17Z</time>
      </trkpt>
      <trkpt lat="39.898437" lon="116.641844">
        <time>2020-09-13T11:52:22Z</time>
      </trkpt>
      <trkpt lat="39.898425" lon="116.642013">
        <time>2020-09-13T11:52:27Z</time>
      </trkpt>
      <trkpt lat="39.898425" lon="116.642187">
        <time>2020-09-13T11:52:32Z</time>
      </trkpt>
      <trkpt lat="39.898414" lon="116.642335">
        <time>2020-09-13T11:52:37Z</time>
      </trkpt>
      <trkpt lat="39.898395" lon="116.642491">
        <time>2020-09-13T11:52:42Z</time>
      </trkpt>
      <trkpt lat="39.898383" lon="116.642628">
        <time>2020-09-13T11:52:47Z</time>
      </trkpt>
      <trkpt lat="39.898359" lon="116.642798">
        <time>2020-09-13T11:52:52Z</time>
      </trkpt>
      <trkpt lat="39.898412" lon="116.642962">
        <time>2020-09-13T11:52:57Z</time>
      </trkpt>
      <trkpt lat="39.898458" lon="116.643108">
        <time>2020-09-13T11:53:02Z</time>
      </trkpt>
      <trkpt lat="39.898458" lon="116.643264">
        <time>2020-09-13T11:53:07Z</time>
      </trkpt>
      <trkpt lat="39.898447" lon="116.643424">
        <time>2020-09-13T11:53:12Z</time>
      </trkpt>
      <trkpt lat="39.898441" lon="116.643564">
        <time>2020-09-13T11:53:17Z</time>
      </trkpt>
      <trkpt lat="39.898421" lon="116.643688">
        <time>2020-09-13T11:53:22Z</time>
      </trkpt>
      <trkpt lat="39.898394" lon="116.643834">
        <time>2020-09-13T11:53:27Z</time>
      </trkpt>
      <trkpt lat="39.898391" lon="116.643986">
        <time>2020-09-13T11:53:32Z</time>
      </trkpt>
      <trkpt lat="39.898367" lon="116.644205">
        <time>2020-09-13T11:53:37Z</time>
      </trkpt>
      <trkpt lat="39.898408" lon="116.644359">
        <time>2020-09-13T11:53:42Z</time>
      </trkpt>
      <trkpt lat="39.898436" lon="116.644466">
        <time>2020-09-13T11:53:47Z</time>
      </trkpt>
      <trkpt lat="39.898441" lon="116.644542">
        <time>2020-09-13T11:53:52Z</time>
      </trkpt>
      <trkpt lat="39.898488" lon="116.644663">
        <time>2020-09-13T11:53:57Z</time>
      </trkpt>
      <trkpt lat="39.898525" lon="116.644766">
        <time>2020-09-13T11:54:02Z</time>
      </trkpt>
      <trkpt lat="39.898569" lon="116.644858">
        <time>2020-09-13T11:54:07Z</time>
      </trkpt>
      <trkpt lat="39.89859" lon="116.644942">
        <time>2020-09-13T11:54:12Z</time>
      </trkpt>
      <trkpt lat="39.898619" lon="116.645003">
        <time>2020-09-13T11:54:17Z</time>
      </trkpt>
      <trkpt lat="39.898675" lon="116.645125">
        <time>2020-09-13T11:54:22Z</time>
      </trkpt>
      <trkpt lat="39.898687" lon="116.645272">
        <time>2020-09-13T11:54:27Z</time>
      </trkpt>
      <trkpt lat="39.898648" lon="116.645451">
        <time>2020-09-13T11:54:32Z</time>
      </trkpt>
      <trkpt lat="39.898662" lon="116.645575">
        <time>2020-09-13T11:54:37Z</time>
      </trkpt>
      <trkpt lat="39.898697" lon="116.645685">
        <time>2020-09-13T11:54:42Z</time>
      </trkpt>
      <trkpt lat="39.89874" lon="116.645831">
        <time>2020-09-13T11:54:47Z</time>
      </trkpt>
      <trkpt lat="39.898779" lon="116.645981">
        <time>2020-09-13T11:54:52Z</time>
      </trkpt>
      <trkpt lat="39.89882" lon="116.64613">
        <time>2020-09-13T11:54:57Z</time>
      </trkpt>
      <trkpt lat="39.898844" lon="116.64627">
        <time>2020-09-13T11:55:02Z</time>
      </trkpt>
      <trkpt lat="39.898878" lon="116.646405">
        <time>2020-09-13T11:55:07Z</time>
      </trkpt>
      <trkpt lat="39.898909" lon="116.646557">
        <time>2020-09-13T11:55:12Z</time>
      </trkpt>
      <trkpt lat="39.898936" lon="116.646688">
        <time>2020-09-13T11:55:17Z</time>
      </trkpt>
      <trkpt lat="39.898961" lon="116.646814">
        <time>2020-09-13T11:55:22Z</time>
      </trkpt>
      <trkpt lat="39.898984" lon="116.646949">
        <time>2020-09-13T11:55:27Z</time>
      </trkpt>
      <trkpt lat="39.899007" lon="116.647079">
        <time>2020-09-13T11:55:32Z</time>
      </trkpt>
      <trkpt lat="39.899012" lon="116.647201">
        <time>2020-09-13T11:55:37Z</time>
      </trkpt>
      <trkpt lat="39.899032" lon="116.64733">
        <time>2020-09-13T11:55:42Z</time>
      </trkpt>
      <trkpt lat="39.899054" lon="116.647474">
        <time>2020-09-13T11:55:47Z</time>
      </trkpt>
      <trkpt lat="39.899057" lon="116.647606">
        <time>2020-09-13T11:55:52Z</time>
      </trkpt>
      <trkpt lat="39.899073" lon="116.64776">
        <time>2020-09-13T11:55:57Z</time>
      </trkpt>
      <trkpt lat="39.899096" lon="116.647893">
        <time>2020-09-13T11:56:02Z</time>
      </trkpt>
      <trkpt lat="39.899111" lon="116.648027">
        <time>2020-09-13T11:56:07Z</time>
      </trkpt>
      <trkpt lat="39.899125" lon="116.648238">
        <time>2020-09-13T11:56:12Z</time>
      </trkpt>
      <trkpt lat="39.899116" lon="116.648423">
        <time>2020-09-13T11:56:17Z</time>
      </trkpt>
      <trkpt lat="39.899109" lon="116.648578">
        <time>2020-09-13T11:56:22Z</time>
      </trkpt>
      <trkpt lat="39.899113" lon="116.648714">
        <time>2020-09-13T11:56:27Z</time>
      </trkpt>
      <trkpt lat="39.899121" lon="116.648858">
        <time>2020-09-13T11:56:32Z</time>
      </trkpt>
      <trkpt lat="39.899117" lon="116.649022">
        <time>2020-09-13T11:56:37Z</time>
      </trkpt>
      <trkpt lat="39.899128" lon="116.649204">
        <time>2020-09-13T11:56:42Z</time>
      </trkpt>
      <trkpt lat="39.899131" lon="116.649368">
        <time>2020-09-13T11:56:47Z</time>
      </trkpt>
      <trkpt lat="39.899158" lon="116.649553">
        <time>2020-09-13T11:56:52Z</time>
      </trkpt>
      <trkpt lat="39.899183" lon="116.649711">
        <time>2020-09-13T11:56:57Z</time>
      </trkpt>
      <trkpt lat="39.899186" lon="116.649858">
        <time>2020-09-13T11:57:02Z</time>
      </trkpt>
      <trkpt lat="39.899194" lon="116.650008">
        <time>2020-09-13T11:57:07Z</time>
      </trkpt>
      <trkpt lat="39.899193" lon="116.650149">
        <time>2020-09-13T11:57:12Z</time>
      </trkpt>
      <trkpt lat="39.899189" lon="116.6503">
        <time>2020-09-13T11:57:17Z</time>
      </trkpt>
      <trkpt lat="39.899199" lon="116.650438">
        <time>2020-09-13T11:57:22Z</time>
      </trkpt>
      <trkpt lat="39.89919" lon="116.650573">
        <time>2020-09-13T11:57:27Z</time>
      </trkpt>
      <trkpt lat="39.899181" lon="116.650749">
        <time>2020-09-13T11:57:32Z</time>
      </trkpt>
      <trkpt lat="39.899178" lon="116.650897">
        <time>2020-09-13T11:57:37Z</time>
      </trkpt>
      <trkpt lat="39.899156" lon="116.651019">
        <time>2020-09-13T11:57:42Z</time>
      </trkpt>
      <trkpt lat="39.89914" lon="116.651134">
        <time>2020-09-13T11:57:47Z</time>
      </trkpt>
      <trkpt lat="39.89914" lon="116.651331">
        <time>2020-09-13T11:57:52Z</time>
      </trkpt>
      <trkpt lat="39.899165" lon="116.651375">
        <time>2020-09-13T11:57:57Z</time>
      </trkpt>
      <trkpt lat="39.899155" lon="116.651295">
        <time>2020-09-13T11:58:02Z</time>
      </trkpt>
      <trkpt lat="39.899148" lon="116.6512">
        <time>2020-09-13T11:58:07Z</time>
      </trkpt>
      <trkpt lat="39.899151" lon="116.651104">
        <time>2020-09-13T11:58:12Z</time>
      </trkpt>
      <trkpt lat="39.89915" lon="116.650986">
        <time>2020-09-13T11:58:17Z</time>
      </trkpt>
      <trkpt lat="39.899167" lon="116.650867">
        <time>2020-09-13T11:58:22Z</time>
      </trkpt>
      <trkpt lat="39.899164" lon="116.650766">
        <time>2020-09-13T11:58:27Z</time>
      </trkpt>
      <trkpt lat="39.899169" lon="116.650666">
        <time>2020-09-13T11:58:32Z</time>
      </trkpt>
      <trkpt lat="39.899162" lon="116.650553">
        <time>2020-09-13T11:58:37Z</time>
      </trkpt>
      <trkpt lat="39.899145" lon="116.650459">
        <time>2020-09-13T11:58:42Z</time>
      </trkpt>
      <trkpt lat="39.899147" lon="116.650368">
        <time>2020-09-13T11:58:47Z</time>
      </trkpt>
      <trkpt lat="39.899144" lon="116.65025">
        <time>2020-09-13T11:58:52Z</time>
      </trkpt>
      <trkpt lat="39.899156" lon="116.650099">
        <time>2020-09-13T11:58:57Z</time>
      </trkpt>
      <trkpt lat="39.899183" lon="116.649912">
        <time>2020-09-13T11:59:02Z</time>
      </trkpt>
      <trkpt lat="39.899209" lon="116.649747">
        <time>2020-09-13T11:59:07Z</time>
      </trkpt>
      <trkpt lat="39.899218" lon="116.649595">
        <time>2020-09-13T11:59:12Z</time>
      </trkpt>
      <trkpt lat="39.899218" lon="116.649433">
        <time>2020-09-13T11:59:17Z</time>
      </trkpt>
      <trkpt lat="39.8992" lon="116.649274">
        <time>2020-09-13T11:59:22Z</time>
      </trkpt>
      <trkpt lat="39.899176" lon="116.649107">
        <time>2020-09-13T11:59:27Z</time>
      </trkpt>
      <trkpt lat="39.89916" lon="116.648951">
        <time>2020-09-13T11:59:32Z</time>
      </trkpt>
      <trkpt lat="39.899152" lon="116.648795">
        <time>2020-09-13T11:59:37Z</time>
      </trkpt>
      <trkpt lat="39.89914" lon="116.648643">
        <time>2020-09-13T11:59:42Z</time>
      </trkpt>
      <trkpt lat="39.899146" lon="116.648502">
        <time>2020-09-13T11:59:47Z</time>
      </trkpt>
      <trkpt lat="39.899191" lon="116.648347">
        <time>2020-09-13T11:59:52Z</time>
      </trkpt>
      <trkpt lat="39.899271" lon="116.648178">
        <time>2020-09-13T11:59:57Z</time>
      </trkpt>
      <trkpt lat="39.899285" lon="116.648029">
        <time>2020-09-13T12:00:02Z</time>
      </trkpt>
      <trkpt lat="39.899255" lon="116.647891">
        <time>2020-09-13T12:00:07Z</time>
      </trkpt>
      <trkpt lat="39.899239" lon="116.647756">
        <time>2020-09-13T12:00:12Z</time>
      </trkpt>
      <trkpt lat="39.899223" lon="116.647607">
        <time>2020-09-13T12:00:17Z</time>
      </trkpt>
      <trkpt lat="39.899228" lon="116.647464">
        <time>2020-09-13T12:00:22Z</time>
      </trkpt>
      <trkpt lat="39.899219" lon="116.647295">
        <time>2020-09-13T12:00:27Z</time>
      </trkpt>
      <trkpt lat="39.8992" lon="116.647134">
        <time>2020-09-13T12:00:32Z</time>
      </trkpt>
      <trkpt lat="39.899197" lon="116.647007">
        <time>2020-09-13T12:00:37Z</time>
      </trkpt>
      <trkpt lat="39.899235" lon="116.646875">
        <time>2020-09-13T12:00:42Z</time>
      </trkpt>
      <trkpt lat="39.899159" lon="116.646737">
        <time>2020-09-13T12:00:47Z</time>
      </trkpt>
      <trkpt lat="39.899093" lon="116.646617">
        <time>2020-09-13T12:00:52Z</time>
      </trkpt>
      <trkpt lat="39.899036" lon="116.646475">
        <time>2020-09-13T12:00:57Z</time>
      </trkpt>
      <trkpt lat="39.898977" lon="116.646328">
        <time>2020-09-13T12:01:02Z</time>
      </trkpt>
      <trkpt lat="39.898929" lon="116.646188">
        <time>2020-09-13T12:01:07Z</time>
      </trkpt>
      <trkpt lat="39.898885" lon="116.646061">
        <time>2020-09-13T12:01:12Z</time>
      </trkpt>
      <trkpt lat="39.898842" lon="116.64593">
        <time>2020-09-13T12:01:17Z</time>
      </trkpt>
      <trkpt lat="39.898794" lon="116.645798">
        <time>2020-09-13T12:01:22Z</time>
      </trkpt>
      <trkpt lat="39.898753" lon="116.645645">
        <time>2020-09-13T12:01:27Z</time>
      </trkpt>
      <trkpt lat="39.898717" lon="116.645489">
        <time>2020-09-13T12:01:32Z</time>
      </trkpt>
      <trkpt lat="39.898657" lon="116.64533">
        <time>2020-09-13T12:01:37Z</time>
      </trkpt>
      <trkpt lat="39.898602" lon="116.645181">
        <time>2020-09-13T12:01:42Z</time>
      </trkpt>
      <trkpt lat="39.898618" lon="116.645034">
        <time>2020-09-13T12:01:47Z</time>
      </trkpt>
      <trkpt lat="39.898585" lon="116.644894">
        <time>2020-09-13T12:01:52Z</time>
      </trkpt>
      <trkpt lat="39.89855" lon="116.644752">
        <time>2020-09-13T12:01:57Z</time>
      </trkpt>
      <trkpt lat="39.898529" lon="116.644594">
        <time>2020-09-13T12:02:02Z</time>
      </trkpt>
      <trkpt lat="39.898501" lon="116.644449">
        <time>2020-09-13T12:02:07Z</time>
      </trkpt>
      <trkpt lat="39.898484" lon="116.644316">
        <time>2020-09-13T12:02:12Z</time>
      </trkpt>
      <trkpt lat="39.898459" lon="116.644175">
        <time>2020-09-13T12:02:17Z</time>
      </trkpt>
      <trkpt lat="39.898432" lon="116.644027">
        <time>2020-09-13T12:02:22Z</time>
      </trkpt>
      <trkpt lat="39.898425" lon="116.643859">
        <time>2020-09-13T12:02:27Z</time>
      </trkpt>
      <trkpt lat="39.898451" lon="116.643702">
        <time>2020-09-13T12:02:32Z</time>
      </trkpt>
      <trkpt lat="39.898463" lon="116.643555">
        <time>2020-09-13T12:02:37Z</time>
      </trkpt>
      <trkpt lat="39.898446" lon="116.643405">
        <time>2020-09-13T12:02:42Z</time>
      </trkpt>
      <trkpt lat="39.898441" lon="116.643253">
        <time>2020-09-13T12:02:47Z</time>
      </trkpt>
      <trkpt lat="39.89842" lon="116.643088">
        <time>2020-09-13T12:02:52Z</time>
      </trkpt>
      <trkpt lat="39.898394" lon="116.642941">
        <time>2020-09-13T12:02:57Z</time>
      </trkpt>
      <trkpt lat="39.898383" lon="116.642794">
        <time>2020-09-13T12:03:02Z</time>
      </trkpt>
      <trkpt lat="39.898377" lon="116.642635">
        <time>2020-09-13T12:03:07Z</time>
      </trkpt>
      <trkpt lat="39.898385" lon="116.642472">
        <time>2020-09-13T12:03:12Z</time>
      </trkpt>
      <trkpt lat="39.898399" lon="116.642343">
        <time>2020-09-13T12:03:17Z</time>
      </trkpt>
      <trkpt lat="39.89841" lon="116.642177">
        <time>2020-09-13T12:03:22Z</time>
      </trkpt>
      <trkpt lat="39.898419" lon="116.642047">
        <time>2020-09-13T12:03:27Z</time>
      </trkpt>
      <trkpt lat="39.898456" lon="116.641905">
        <time>2020-09-13T12:03:32Z</time>
      </trkpt>
      <trkpt lat="39.898491" lon="116.641744">
        <time>2020-09-13T12:03:37Z</time>
      </trkpt>
      <trkpt lat="39.898522" lon="116.641602">
        <time>2020-09-13T12:03:42Z</time>
      </trkpt>
      <trkpt lat="39.898526" lon="116.641437">
        <time>2020-09-13T12:03:47Z</time>
      </trkpt>
      <trkpt lat="39.898503" lon="116.641348">
        <time>2020-09-13T12:03:52Z</time>
      </trkpt>
      <trkpt lat="39.898447" lon="116.641344">
        <time>2020-09-13T12:03:57Z</time>
      </trkpt>
      <trkpt lat="39.898376" lon="116.641325">
        <time>2020-09-13T12:04:02Z</time>
      </trkpt>
      <trkpt lat="39.898288" lon="116.64127">
        <time>2020-09-13T12:04:07Z</time>
      </trkpt>
      <trkpt lat="39.898219" lon="116.64122">
        <time>2020-09-13T12:04:12Z</time>
      </trkpt>
      <trkpt lat="39.898142" lon="116.641215">
        <time>2020-09-13T12:04:17Z</time>
      </trkpt>
      <trkpt lat="39.898068" lon="116.641203">
        <time>2020-09-13T12:04:22Z</time>
      </trkpt>
      <trkpt lat="39.898" lon="116.641147">
        <time>2020-09-13T12:04:27Z</time>
      </trkpt>
      <trkpt lat="39.89795" lon="116.641059">
        <time>2020-09-13T12:04:32Z</time>
      </trkpt>
      <trkpt lat="39.89789" lon="116.641023">
        <time>2020-09-13T12:04:37Z</time>
      </trkpt>
      <trkpt lat="39.897806" lon="116.64101">
        <time>2020-09-13T12:04:42Z</time>
      </trkpt>
      <trkpt lat="39.897727" lon="116.640969">
        <time>2020-09-13T12:04:47Z</time>
      </trkpt>
      <trkpt lat="39.897654" lon="116.640924">
        <time>2020-09-13T12:04:52Z</time>
      </trkpt>
      <trkpt lat="39.897575" lon="116.640897">
        <time>2020-09-13T12:04:57Z</time>
      </trkpt>
      <trkpt lat="39.89751" lon="116.640863">
        <time>2020-09-13T12:05:02Z</time>
      </trkpt>
      <trkpt lat="39.897426" lon="116.640843">
        <time>2020-09-13T12:05:07Z</time>
      </trkpt>
      <trkpt lat="39.897347" lon="116.6408">
        <time>2020-09-13T12:05:12Z</time>
      </trkpt>
      <trkpt lat="39.897242" lon="116.64078">
        <time>2020-09-13T12:05:17Z</time>
      </trkpt>
      <trkpt lat="39.897124" lon="116.640724">
        <time>2020-09-13T12:05:22Z</time>
      </trkpt>
      <trkpt lat="39.897012" lon="116.640647">
        <time>2020-09-13T12:05:27Z</time>
      </trkpt>
      <trkpt lat="39.8969" lon="116.640585">
        <time>2020-09-13T12:05:32Z</time>
      </trkpt>
      <trkpt lat="39.896787" lon="116.640512">
        <time>2020-09-13T12:05:37Z</time>
      </trkpt>
      <trkpt lat="39.896685" lon="116.640435">
        <time>2020-09-13T12:05:42Z</time>
      </trkpt>
      <trkpt lat="39.896293" lon="116.640156">
        <time>2020-09-13T12:05:47Z</time>
      </trkpt>
      <trkpt lat="39.896293" lon="116.640156">
        <time>2020-09-13T12:05:52Z</time>
      </trkpt>
      <trkpt lat="39.896313" lon="116.640148">
        <time>2020-09-13T12:05:57Z</time>
      </trkpt>
      <trkpt lat="39.896359" lon="116.640058">
        <time>2020-09-13T12:06:02Z</time>
      </trkpt>
      <trkpt lat="39.896382" lon="116.639943">
        <time>2020-09-13T12:06:07Z</time>
      </trkpt>
      <trkpt lat="39.896391" lon="116.639797">
        <time>2020-09-13T12:06:12Z</time>
      </trkpt>
      <trkpt lat="39.896398" lon="116.639642">
        <time>2020-09-13T12:06:17Z</time>
      </trkpt>
      <trkpt lat="39.896407" lon="116.639454">
        <time>2020-09-13T12:06:22Z</time>
      </trkpt>
      <trkpt lat="39.896418" lon="116.639306">
        <time>2020-09-13T12:06:27Z</time>
      </trkpt>
      <trkpt lat="39.896425" lon="116.639151">
        <time>2020-09-13T12:06:32Z</time>
      </trkpt>
      <trkpt lat="39.896419" lon="116.639004">
        <time>2020-09-13T12:06:37Z</time>
      </trkpt>
      <trkpt lat="39.896425" lon="116.638862">
        <time>2020-09-13T12:06:42Z</time>
      </trkpt>
      <trkpt lat="39.896426" lon="116.638714">
        <time>2020-09-13T12:06:47Z</time>
      </trkpt>
      <trkpt lat="39.896403" lon="116.638561">
        <time>2020-09-13T12:06:52Z</time>
      </trkpt>
      <trkpt lat="39.896382" lon="116.638413">
        <time>2020-09-13T12:06:57Z</time>
      </trkpt>
      <trkpt lat="39.896341" lon="116.638267">
        <time>2020-09-13T12:07:02Z</time>
      </trkpt>
      <trkpt lat="39.896285" lon="116.638119">
        <time>2020-09-13T12:07:07Z</time>
      </trkpt>
      <trkpt lat="39.89628" lon="116.637952">
        <time>2020-09-13T12:07:12Z</time>
      </trkpt>
      <trkpt lat="39.896267" lon="116.637803">
        <time>2020-09-13T12:07:17Z</time>
      </trkpt>
      <trkpt lat="39.896251" lon="116.63767">
        <time>2020-09-13T12:07:22Z</time>
      </trkpt>
      <trkpt lat="39.896219" lon="116.637521">
        <time>2020-09-13T12:07:27Z</time>
      </trkpt>
      <trkpt lat="39.896202" lon="116.637353">
        <time>2020-09-13T12:07:32Z</time>
      </trkpt>
      <trkpt lat="39.896195" lon="116.637184">
        <time>2020-09-13T12:07:37Z</time>
      </trkpt>
      <trkpt lat="39.896194" lon="116.637021">
        <time>2020-09-13T12:07:42Z</time>
      </trkpt>
      <trkpt lat="39.896182" lon="116.636871">
        <time>2020-09-13T12:07:47Z</time>
      </trkpt>
      <trkpt lat="39.896145" lon="116.636735">
        <time>2020-09-13T12:07:52Z</time>
      </trkpt>
      <trkpt lat="39.896073" lon="116.636626">
        <time>2020-09-13T12:07:57Z</time>
      </trkpt>
      <trkpt lat="39.896011" lon="116.63651">
        <time>2020-09-13T12:08:02Z</time>
      </trkpt>
      <trkpt lat="39.896023" lon="116.636412">
        <time>2020-09-13T12:08:07Z</time>
      </trkpt>
      <trkpt lat="39.896109" lon="116.636315">
        <time>2020-09-13T12:08:12Z</time>
      </trkpt>
      <trkpt lat="39.896213" lon="116.636216">
        <time>2020-09-13T12:08:17Z</time>
      </trkpt>
      <trkpt lat="39.896325" lon="116.636113">
        <time>2020-09-13T12:08:22Z</time>
      </trkpt>
      <trkpt lat="39.896431" lon="116.636043">
        <time>2020-09-13T12:08:27Z</time>
      </trkpt>
      <trkpt lat="39.896538" lon="116.635954">
        <time>2020-09-13T12:08:32Z</time>
      </trkpt>
      <trkpt lat="39.896647" lon="116.635878">
        <time>2020-09-13T12:08:37Z</time>
      </trkpt>
      <trkpt lat="39.896761" lon="116.635798">
        <time>2020-09-13T12:08:42Z</time>
      </trkpt>
      <trkpt lat="39.896876" lon="116.635717">
        <time>2020-09-13T12:08:47Z</time>
      </trkpt>
      <trkpt lat="39.897" lon="116.635648">
        <time>2020-09-13T12:08:52Z</time>
      </trkpt>
      <trkpt lat="39.897117" lon="116.635616">
        <time>2020-09-13T12:08:57Z</time>
      </trkpt>
      <trkpt lat="39.897224" lon="116.63555">
        <time>2020-09-13T12:09:02Z</time>
      </trkpt>
      <trkpt lat="39.897339" lon="116.635478">
        <time>2020-09-13T12:09:07Z</time>
      </trkpt>
      <trkpt lat="39.897479" lon="116.635411">
        <time>2020-09-13T12:09:12Z</time>
      </trkpt>
      <trkpt lat="39.897589" lon="116.635336">
        <time>2020-09-13T12:09:17Z</time>
      </trkpt>
      <trkpt lat="39.897702" lon="116.63525">
        <time>2020-09-13T12:09:22Z</time>
      </trkpt>
      <trkpt lat="39.897802" lon="116.635143">
        <time>2020-09-13T12:09:27Z</time>
      </trkpt>
      <trkpt lat="39.897916" lon="116.635056">
        <time>2020-09-13T12:09:32Z</time>
      </trkpt>
      <trkpt lat="39.898024" lon="116.634994">
        <time>2020-09-13T12:09:37Z</time>
      </trkpt>
      <trkpt lat="39.898133" lon="116.63493">
        <time>2020-09-13T12:09:42Z</time>
      </trkpt>
      <trkpt lat="39.898224" lon="116.634834">
        <time>2020-09-13T12:09:47Z</time>
      </trkpt>
      <trkpt lat="39.898177" lon="116.634682">
        <time>2020-09-13T12:09:52Z</time>
      </trkpt>
      <trkpt lat="39.898124" lon="116.634609">
        <time>2020-09-13T12:09:57Z</time>
      </trkpt>
      <trkpt lat="39.898123" lon="116.634518">
        <time>2020-09-13T12:10:02Z</time>
      </trkpt>
      <trkpt lat="39.898099" lon="116.63443">
        <time>2020-09-13T12:10:07Z</time>
      </trkpt>
      <trkpt lat="39.898067" lon="116.634353">
        <time>2020-09-13T12:10:12Z</time>
      </trkpt>
      <trkpt lat="39.898028" lon="116.634279">
        <time>2020-09-13T12:10:17Z</time>
      </trkpt>
      <trkpt lat="39.898012" lon="116.634205">
        <time>2020-09-13T12:10:22Z</time>
      </trkpt>
      <trkpt lat="39.897974" lon="116.634113">
        <time>2020-09-13T12:10:27Z</time>
      </trkpt>
      <trkpt lat="39.897939" lon="116.634011">
        <time>2020-09-13T12:10:32Z</time>
      </trkpt>
      <trkpt lat="39.897894" lon="116.633919">
        <time>2020-09-13T12:10:37Z</time>
      </trkpt>
      <trkpt lat="39.897857" lon="116.633846">
        <time>2020-09-13T12:10:42Z</time>
      </trkpt>
      <trkpt lat="39.897831" lon="116.633757">
        <time>2020-09-13T12:10:47Z</time>
      </trkpt>
      <trkpt lat="39.897792" lon="116.633695">
        <time>2020-09-13T12:10:52Z</time>
      </trkpt>
      <trkpt lat="39.897704" lon="116.633652">
        <time>2020-09-13T12:10:57Z</time>
      </trkpt>
      <trkpt lat="39.897599" lon="116.633661">
        <time>2020-09-13T12:11:02Z</time>
      </trkpt>
      <trkpt lat="39.897525" lon="116.633712">
        <time>2020-09-13T12:11:07Z</time>
      </trkpt>
      <trkpt lat="39.897421" lon="116.633709">
        <time>2020-09-13T12:11:12Z</time>
      </trkpt>
      <trkpt lat="39.897375" lon="116.633579">
        <time>2020-09-13T12:11:17Z</time>
      </trkpt>
      <trkpt lat="39.897339" lon="116.633447">
        <time>2020-09-13T12:11:22Z</time>
      </trkpt>
      <trkpt lat="39.897309" lon="116.633298">
        <time>2020-09-13T12:11:27Z</time>
      </trkpt>
      <trkpt lat="39.897307" lon="116.633151">
        <time>2020-09-13T12:11:32Z</time>
      </trkpt>
      <trkpt lat="39.897305" lon="116.632983">
        <time>2020-09-13T12:11:37Z</time>
      </trkpt>
      <trkpt lat="39.897183" lon="116.632807">
        <time>2020-09-13T12:11:42Z</time>
      </trkpt>
      <trkpt lat="39.897032" lon="116.632831">
        <time>2020-09-13T12:11:47Z</time>
      </trkpt>
      <trkpt lat="39.896961" lon="116.633006">
        <time>2020-09-13T12:11:52Z</time>
      </trkpt>
      <trkpt lat="39.896964" lon="116.633231">
        <time>2020-09-13T12:11:57Z</time>
      </trkpt>
      <trkpt lat="39.897015" lon="116.633492">
        <time>2020-09-13T12:12:02Z</time>
      </trkpt>
      <trkpt lat="39.89708" lon="116.633735">
        <time>2020-09-13T12:12:07Z</time>
      </trkpt>
      <trkpt lat="39.89721" lon="116.634023">
        <time>2020-09-13T12:12:12Z</time>
      </trkpt>
      <trkpt lat="39.897326" lon="116.634186">
        <time>2020-09-13T12:12:17Z</time>
      </trkpt>
      <trkpt lat="39.897391" lon="116.634238">
        <time>2020-09-13T12:12:22Z</time>
      </trkpt>
      <trkpt lat="39.897455" lon="116.634272">
        <time>2020-09-13T12:12:27Z</time>
      </trkpt>
      <trkpt lat="39.897489" lon="116.634326">
        <time>2020-09-13T12:12:48Z</time>
      </trkpt>
    </trkseg>
  </trk>
</gpx>