<?xml version="1.0" encoding="UTF-8"?>
<gpx xmlns="http://www.topografix.com/GPX/1/1" xmlns:gpxtpx="http://www.garmin.com/xmlschemas/TrackPointExtension/v1" xmlns:xsi="http://www.w3.org/2001/XMLSchema-instance" xsi:schemaLocation="http://www.topografix.com/GPX/1/1 http://www.topografix.com/GPX/1/1/gpx.xsd" version="1.1" creator="gpx.py -- https://github.com/tkrajina/gpxpy">
  <trk>
    <name>gpx from keep</name>
    <trkseg>
      <trkpt lat="39.89579" lon="116.636993">
        <time>2020-09-15T12:18:36Z</time>
      </trkpt>
      <trkpt lat="39.895819" lon="116.636993">
        <time>2020-09-15T12:18:41Z</time>
      </trkpt>
      <trkpt lat="39.895945" lon="116.637055">
        <time>2020-09-15T12:18:46Z</time>
      </trkpt>
      <trkpt lat="39.896012" lon="116.637213">
        <time>2020-09-15T12:18:51Z</time>
      </trkpt>
      <trkpt lat="39.896035" lon="116.63741">
        <time>2020-09-15T12:18:56Z</time>
      </trkpt>
      <trkpt lat="39.896068" lon="116.637603">
        <time>2020-09-15T12:19:01Z</time>
      </trkpt>
      <trkpt lat="39.896067" lon="116.637756">
        <time>2020-09-15T12:19:06Z</time>
      </trkpt>
      <trkpt lat="39.89604" lon="116.637929">
        <time>2020-09-15T12:19:11Z</time>
      </trkpt>
      <trkpt lat="39.896007" lon="116.638121">
        <time>2020-09-15T12:19:16Z</time>
      </trkpt>
      <trkpt lat="39.896026" lon="116.638281">
        <time>2020-09-15T12:19:21Z</time>
      </trkpt>
      <trkpt lat="39.896029" lon="116.638439">
        <time>2020-09-15T12:19:26Z</time>
      </trkpt>
      <trkpt lat="39.896046" lon="116.638565">
        <time>2020-09-15T12:19:31Z</time>
      </trkpt>
      <trkpt lat="39.896078" lon="116.638698">
        <time>2020-09-15T12:19:36Z</time>
      </trkpt>
      <trkpt lat="39.896094" lon="116.638833">
        <time>2020-09-15T12:19:41Z</time>
      </trkpt>
      <trkpt lat="39.896064" lon="116.638979">
        <time>2020-09-15T12:19:46Z</time>
      </trkpt>
      <trkpt lat="39.896067" lon="116.639117">
        <time>2020-09-15T12:19:51Z</time>
      </trkpt>
      <trkpt lat="39.896119" lon="116.639259">
        <time>2020-09-15T12:19:56Z</time>
      </trkpt>
      <trkpt lat="39.896146" lon="116.639401">
        <time>2020-09-15T12:20:01Z</time>
      </trkpt>
      <trkpt lat="39.896132" lon="116.639541">
        <time>2020-09-15T12:20:06Z</time>
      </trkpt>
      <trkpt lat="39.896081" lon="116.639684">
        <time>2020-09-15T12:20:11Z</time>
      </trkpt>
      <trkpt lat="39.896046" lon="116.639839">
        <time>2020-09-15T12:20:16Z</time>
      </trkpt>
      <trkpt lat="39.896058" lon="116.640021">
        <time>2020-09-15T12:20:21Z</time>
      </trkpt>
      <trkpt lat="39.896064" lon="116.640177">
        <time>2020-09-15T12:20:26Z</time>
      </trkpt>
      <trkpt lat="39.896072" lon="116.640353">
        <time>2020-09-15T12:20:31Z</time>
      </trkpt>
      <trkpt lat="39.896099" lon="116.640501">
        <time>2020-09-15T12:20:36Z</time>
      </trkpt>
      <trkpt lat="39.896092" lon="116.640677">
        <time>2020-09-15T12:20:41Z</time>
      </trkpt>
      <trkpt lat="39.896066" lon="116.640854">
        <time>2020-09-15T12:20:46Z</time>
      </trkpt>
      <trkpt lat="39.896053" lon="116.641031">
        <time>2020-09-15T12:20:51Z</time>
      </trkpt>
      <trkpt lat="39.896047" lon="116.641188">
        <time>2020-09-15T12:20:56Z</time>
      </trkpt>
      <trkpt lat="39.896045" lon="116.641364">
        <time>2020-09-15T12:21:01Z</time>
      </trkpt>
      <trkpt lat="39.896022" lon="116.641529">
        <time>2020-09-15T12:21:06Z</time>
      </trkpt>
      <trkpt lat="39.896004" lon="116.641668">
        <time>2020-09-15T12:21:11Z</time>
      </trkpt>
      <trkpt lat="39.89601" lon="116.641827">
        <time>2020-09-15T12:21:16Z</time>
      </trkpt>
      <trkpt lat="39.896029" lon="116.64197">
        <time>2020-09-15T12:21:21Z</time>
      </trkpt>
      <trkpt lat="39.896021" lon="116.64211">
        <time>2020-09-15T12:21:26Z</time>
      </trkpt>
      <trkpt lat="39.896019" lon="116.642267">
        <time>2020-09-15T12:21:31Z</time>
      </trkpt>
      <trkpt lat="39.896017" lon="116.642444">
        <time>2020-09-15T12:21:36Z</time>
      </trkpt>
      <trkpt lat="39.895991" lon="116.642592">
        <time>2020-09-15T12:21:41Z</time>
      </trkpt>
      <trkpt lat="39.895982" lon="116.64275">
        <time>2020-09-15T12:21:46Z</time>
      </trkpt>
      <trkpt lat="39.895992" lon="116.642893">
        <time>2020-09-15T12:21:51Z</time>
      </trkpt>
      <trkpt lat="39.896" lon="116.643027">
        <time>2020-09-15T12:21:56Z</time>
      </trkpt>
      <trkpt lat="39.89598" lon="116.643156">
        <time>2020-09-15T12:22:01Z</time>
      </trkpt>
      <trkpt lat="39.895965" lon="116.643293">
        <time>2020-09-15T12:22:06Z</time>
      </trkpt>
      <trkpt lat="39.895949" lon="116.643456">
        <time>2020-09-15T12:22:11Z</time>
      </trkpt>
      <trkpt lat="39.895971" lon="116.64361">
        <time>2020-09-15T12:22:16Z</time>
      </trkpt>
      <trkpt lat="39.895995" lon="116.643761">
        <time>2020-09-15T12:22:21Z</time>
      </trkpt>
      <trkpt lat="39.896016" lon="116.643876">
        <time>2020-09-15T12:22:26Z</time>
      </trkpt>
      <trkpt lat="39.896028" lon="116.643992">
        <time>2020-09-15T12:22:31Z</time>
      </trkpt>
      <trkpt lat="39.896021" lon="116.644099">
        <time>2020-09-15T12:22:36Z</time>
      </trkpt>
      <trkpt lat="39.896037" lon="116.644195">
        <time>2020-09-15T12:22:41Z</time>
      </trkpt>
      <trkpt lat="39.896076" lon="116.644269">
        <time>2020-09-15T12:22:46Z</time>
      </trkpt>
      <trkpt lat="39.896104" lon="116.644388">
        <time>2020-09-15T12:22:51Z</time>
      </trkpt>
      <trkpt lat="39.896111" lon="116.644528">
        <time>2020-09-15T12:22:56Z</time>
      </trkpt>
      <trkpt lat="39.89611" lon="116.644651">
        <time>2020-09-15T12:23:01Z</time>
      </trkpt>
      <trkpt lat="39.896121" lon="116.64478">
        <time>2020-09-15T12:23:06Z</time>
      </trkpt>
      <trkpt lat="39.896128" lon="116.644921">
        <time>2020-09-15T12:23:11Z</time>
      </trkpt>
      <trkpt lat="39.896101" lon="116.645062">
        <time>2020-09-15T12:23:16Z</time>
      </trkpt>
      <trkpt lat="39.896092" lon="116.645207">
        <time>2020-09-15T12:23:21Z</time>
      </trkpt>
      <trkpt lat="39.896091" lon="116.645367">
        <time>2020-09-15T12:23:26Z</time>
      </trkpt>
      <trkpt lat="39.896066" lon="116.645508">
        <time>2020-09-15T12:23:31Z</time>
      </trkpt>
      <trkpt lat="39.896047" lon="116.645643">
        <time>2020-09-15T12:23:36Z</time>
      </trkpt>
      <trkpt lat="39.896049" lon="116.645763">
        <time>2020-09-15T12:23:41Z</time>
      </trkpt>
      <trkpt lat="39.896056" lon="116.645901">
        <time>2020-09-15T12:23:46Z</time>
      </trkpt>
      <trkpt lat="39.896039" lon="116.646038">
        <time>2020-09-15T12:23:51Z</time>
      </trkpt>
      <trkpt lat="39.896022" lon="116.646155">
        <time>2020-09-15T12:23:56Z</time>
      </trkpt>
      <trkpt lat="39.896016" lon="116.646302">
        <time>2020-09-15T12:24:01Z</time>
      </trkpt>
      <trkpt lat="39.896028" lon="116.646435">
        <time>2020-09-15T12:24:06Z</time>
      </trkpt>
      <trkpt lat="39.896004" lon="116.646592">
        <time>2020-09-15T12:24:11Z</time>
      </trkpt>
      <trkpt lat="39.895911" lon="116.646709">
        <time>2020-09-15T12:24:16Z</time>
      </trkpt>
      <trkpt lat="39.895784" lon="116.646733">
        <time>2020-09-15T12:24:21Z</time>
      </trkpt>
      <trkpt lat="39.895673" lon="116.646683">
        <time>2020-09-15T12:24:26Z</time>
      </trkpt>
      <trkpt lat="39.895556" lon="116.646603">
        <time>2020-09-15T12:24:31Z</time>
      </trkpt>
      <trkpt lat="39.895446" lon="116.646559">
        <time>2020-09-15T12:24:36Z</time>
      </trkpt>
      <trkpt lat="39.895339" lon="116.64652">
        <time>2020-09-15T12:24:41Z</time>
      </trkpt>
      <trkpt lat="39.895233" lon="116.646499">
        <time>2020-09-15T12:24:46Z</time>
      </trkpt>
      <trkpt lat="39.895138" lon="116.646447">
        <time>2020-09-15T12:24:51Z</time>
      </trkpt>
      <trkpt lat="39.895033" lon="116.646389">
        <time>2020-09-15T12:24:56Z</time>
      </trkpt>
      <trkpt lat="39.894935" lon="116.646356">
        <time>2020-09-15T12:25:01Z</time>
      </trkpt>
      <trkpt lat="39.894838" lon="116.646314">
        <time>2020-09-15T12:25:06Z</time>
      </trkpt>
      <trkpt lat="39.894741" lon="116.646289">
        <time>2020-09-15T12:25:11Z</time>
      </trkpt>
      <trkpt lat="39.894683" lon="116.646229">
        <time>2020-09-15T12:25:16Z</time>
      </trkpt>
      <trkpt lat="39.894576" lon="116.646206">
        <time>2020-09-15T12:25:21Z</time>
      </trkpt>
      <trkpt lat="39.894464" lon="116.646144">
        <time>2020-09-15T12:25:26Z</time>
      </trkpt>
      <trkpt lat="39.894349" lon="116.646074">
        <time>2020-09-15T12:25:31Z</time>
      </trkpt>
      <trkpt lat="39.894225" lon="116.646022">
        <time>2020-09-15T12:25:36Z</time>
      </trkpt>
      <trkpt lat="39.894109" lon="116.645994">
        <time>2020-09-15T12:25:41Z</time>
      </trkpt>
      <trkpt lat="39.894" lon="116.645965">
        <time>2020-09-15T12:25:46Z</time>
      </trkpt>
      <trkpt lat="39.893899" lon="116.645989">
        <time>2020-09-15T12:25:51Z</time>
      </trkpt>
      <trkpt lat="39.893839" lon="116.646069">
        <time>2020-09-15T12:25:56Z</time>
      </trkpt>
      <trkpt lat="39.893795" lon="116.646136">
        <time>2020-09-15T12:26:01Z</time>
      </trkpt>
      <trkpt lat="39.893749" lon="116.646211">
        <time>2020-09-15T12:26:06Z</time>
      </trkpt>
      <trkpt lat="39.893686" lon="116.646285">
        <time>2020-09-15T12:26:11Z</time>
      </trkpt>
      <trkpt lat="39.89355" lon="116.646307">
        <time>2020-09-15T12:26:16Z</time>
      </trkpt>
      <trkpt lat="39.893429" lon="116.646277">
        <time>2020-09-15T12:26:21Z</time>
      </trkpt>
      <trkpt lat="39.893345" lon="116.646205">
        <time>2020-09-15T12:26:26Z</time>
      </trkpt>
      <trkpt lat="39.893263" lon="116.646155">
        <time>2020-09-15T12:26:31Z</time>
      </trkpt>
      <trkpt lat="39.893145" lon="116.646116">
        <time>2020-09-15T12:26:36Z</time>
      </trkpt>
      <trkpt lat="39.893003" lon="116.646091">
        <time>2020-09-15T12:26:41Z</time>
      </trkpt>
      <trkpt lat="39.892893" lon="116.646033">
        <time>2020-09-15T12:26:46Z</time>
      </trkpt>
      <trkpt lat="39.892803" lon="116.645968">
        <time>2020-09-15T12:26:51Z</time>
      </trkpt>
      <trkpt lat="39.892683" lon="116.645911">
        <time>2020-09-15T12:26:56Z</time>
      </trkpt>
      <trkpt lat="39.89258" lon="116.645839">
        <time>2020-09-15T12:27:01Z</time>
      </trkpt>
      <trkpt lat="39.892492" lon="116.645787">
        <time>2020-09-15T12:27:06Z</time>
      </trkpt>
      <trkpt lat="39.892358" lon="116.645776">
        <time>2020-09-15T12:27:11Z</time>
      </trkpt>
      <trkpt lat="39.892246" lon="116.645753">
        <time>2020-09-15T12:27:16Z</time>
      </trkpt>
      <trkpt lat="39.892133" lon="116.645729">
        <time>2020-09-15T12:27:21Z</time>
      </trkpt>
      <trkpt lat="39.892011" lon="116.645688">
        <time>2020-09-15T12:27:26Z</time>
      </trkpt>
      <trkpt lat="39.891911" lon="116.645621">
        <time>2020-09-15T12:27:31Z</time>
      </trkpt>
      <trkpt lat="39.891838" lon="116.64553">
        <time>2020-09-15T12:27:36Z</time>
      </trkpt>
      <trkpt lat="39.891753" lon="116.645437">
        <time>2020-09-15T12:27:41Z</time>
      </trkpt>
      <trkpt lat="39.891657" lon="116.645373">
        <time>2020-09-15T12:27:46Z</time>
      </trkpt>
      <trkpt lat="39.891592" lon="116.645326">
        <time>2020-09-15T12:27:51Z</time>
      </trkpt>
      <trkpt lat="39.891605" lon="116.645331">
        <time>2020-09-15T12:27:56Z</time>
      </trkpt>
      <trkpt lat="39.891676" lon="116.645372">
        <time>2020-09-15T12:28:01Z</time>
      </trkpt>
      <trkpt lat="39.891749" lon="116.645426">
        <time>2020-09-15T12:28:06Z</time>
      </trkpt>
      <trkpt lat="39.891835" lon="116.645487">
        <time>2020-09-15T12:28:11Z</time>
      </trkpt>
      <trkpt lat="39.89195" lon="116.645516">
        <time>2020-09-15T12:28:16Z</time>
      </trkpt>
      <trkpt lat="39.892034" lon="116.645569">
        <time>2020-09-15T12:28:21Z</time>
      </trkpt>
      <trkpt lat="39.892109" lon="116.645622">
        <time>2020-09-15T12:28:26Z</time>
      </trkpt>
      <trkpt lat="39.892197" lon="116.645664">
        <time>2020-09-15T12:28:31Z</time>
      </trkpt>
      <trkpt lat="39.892277" lon="116.645747">
        <time>2020-09-15T12:28:36Z</time>
      </trkpt>
      <trkpt lat="39.892387" lon="116.645797">
        <time>2020-09-15T12:28:41Z</time>
      </trkpt>
      <trkpt lat="39.892499" lon="116.645847">
        <time>2020-09-15T12:28:46Z</time>
      </trkpt>
      <trkpt lat="39.892597" lon="116.645887">
        <time>2020-09-15T12:28:51Z</time>
      </trkpt>
      <trkpt lat="39.892711" lon="116.645923">
        <time>2020-09-15T12:28:56Z</time>
      </trkpt>
      <trkpt lat="39.892822" lon="116.645946">
        <time>2020-09-15T12:29:01Z</time>
      </trkpt>
      <trkpt lat="39.892935" lon="116.645989">
        <time>2020-09-15T12:29:06Z</time>
      </trkpt>
      <trkpt lat="39.893036" lon="116.64605">
        <time>2020-09-15T12:29:11Z</time>
      </trkpt>
      <trkpt lat="39.893143" lon="116.646092">
        <time>2020-09-15T12:29:16Z</time>
      </trkpt>
      <trkpt lat="39.893262" lon="116.646096">
        <time>2020-09-15T12:29:21Z</time>
      </trkpt>
      <trkpt lat="39.893392" lon="116.646152">
        <time>2020-09-15T12:29:26Z</time>
      </trkpt>
      <trkpt lat="39.89349" lon="116.646202">
        <time>2020-09-15T12:29:31Z</time>
      </trkpt>
      <trkpt lat="39.89358" lon="116.646238">
        <time>2020-09-15T12:29:36Z</time>
      </trkpt>
      <trkpt lat="39.893684" lon="116.64617">
        <time>2020-09-15T12:29:41Z</time>
      </trkpt>
      <trkpt lat="39.893779" lon="116.646075">
        <time>2020-09-15T12:29:46Z</time>
      </trkpt>
      <trkpt lat="39.893867" lon="116.645944">
        <time>2020-09-15T12:29:51Z</time>
      </trkpt>
      <trkpt lat="39.893933" lon="116.645844">
        <time>2020-09-15T12:29:56Z</time>
      </trkpt>
      <trkpt lat="39.893973" lon="116.645789">
        <time>2020-09-15T12:30:01Z</time>
      </trkpt>
      <trkpt lat="39.894035" lon="116.645817">
        <time>2020-09-15T12:30:06Z</time>
      </trkpt>
      <trkpt lat="39.894099" lon="116.645901">
        <time>2020-09-15T12:30:11Z</time>
      </trkpt>
      <trkpt lat="39.89419" lon="116.645957">
        <time>2020-09-15T12:30:16Z</time>
      </trkpt>
      <trkpt lat="39.894284" lon="116.645977">
        <time>2020-09-15T12:30:21Z</time>
      </trkpt>
      <trkpt lat="39.894379" lon="116.646011">
        <time>2020-09-15T12:30:26Z</time>
      </trkpt>
      <trkpt lat="39.894462" lon="116.646062">
        <time>2020-09-15T12:30:31Z</time>
      </trkpt>
      <trkpt lat="39.894535" lon="116.646122">
        <time>2020-09-15T12:30:36Z</time>
      </trkpt>
      <trkpt lat="39.894592" lon="116.64618">
        <time>2020-09-15T12:30:41Z</time>
      </trkpt>
      <trkpt lat="39.894705" lon="116.64622">
        <time>2020-09-15T12:30:46Z</time>
      </trkpt>
      <trkpt lat="39.89482" lon="116.646258">
        <time>2020-09-15T12:30:51Z</time>
      </trkpt>
      <trkpt lat="39.894942" lon="116.646293">
        <time>2020-09-15T12:30:56Z</time>
      </trkpt>
      <trkpt lat="39.895058" lon="116.646331">
        <time>2020-09-15T12:31:01Z</time>
      </trkpt>
      <trkpt lat="39.895163" lon="116.646372">
        <time>2020-09-15T12:31:06Z</time>
      </trkpt>
      <trkpt lat="39.895282" lon="116.646422">
        <time>2020-09-15T12:31:11Z</time>
      </trkpt>
      <trkpt lat="39.895412" lon="116.646468">
        <time>2020-09-15T12:31:16Z</time>
      </trkpt>
      <trkpt lat="39.895509" lon="116.646501">
        <time>2020-09-15T12:31:21Z</time>
      </trkpt>
      <trkpt lat="39.895635" lon="116.646582">
        <time>2020-09-15T12:31:26Z</time>
      </trkpt>
      <trkpt lat="39.89576" lon="116.646649">
        <time>2020-09-15T12:31:31Z</time>
      </trkpt>
      <trkpt lat="39.895867" lon="116.646707">
        <time>2020-09-15T12:31:36Z</time>
      </trkpt>
      <trkpt lat="39.895965" lon="116.646748">
        <time>2020-09-15T12:31:41Z</time>
      </trkpt>
      <trkpt lat="39.896006" lon="116.646707">
        <time>2020-09-15T12:31:46Z</time>
      </trkpt>
      <trkpt lat="39.896005" lon="116.646627">
        <time>2020-09-15T12:31:51Z</time>
      </trkpt>
      <trkpt lat="39.896022" lon="116.646505">
        <time>2020-09-15T12:31:56Z</time>
      </trkpt>
      <trkpt lat="39.896024" lon="116.646374">
        <time>2020-09-15T12:32:01Z</time>
      </trkpt>
      <trkpt lat="39.896023" lon="116.646215">
        <time>2020-09-15T12:32:06Z</time>
      </trkpt>
      <trkpt lat="39.896058" lon="116.646062">
        <time>2020-09-15T12:32:11Z</time>
      </trkpt>
      <trkpt lat="39.896083" lon="116.645913">
        <time>2020-09-15T12:32:16Z</time>
      </trkpt>
      <trkpt lat="39.896075" lon="116.645791">
        <time>2020-09-15T12:32:21Z</time>
      </trkpt>
      <trkpt lat="39.896113" lon="116.645636">
        <time>2020-09-15T12:32:26Z</time>
      </trkpt>
      <trkpt lat="39.896157" lon="116.645474">
        <time>2020-09-15T12:32:31Z</time>
      </trkpt>
      <trkpt lat="39.896186" lon="116.645335">
        <time>2020-09-15T12:32:36Z</time>
      </trkpt>
      <trkpt lat="39.896192" lon="116.645205">
        <time>2020-09-15T12:32:41Z</time>
      </trkpt>
      <trkpt lat="39.896208" lon="116.645057">
        <time>2020-09-15T12:32:46Z</time>
      </trkpt>
      <trkpt lat="39.896213" lon="116.644915">
        <time>2020-09-15T12:32:51Z</time>
      </trkpt>
      <trkpt lat="39.89621" lon="116.644783">
        <time>2020-09-15T12:32:56Z</time>
      </trkpt>
      <trkpt lat="39.896207" lon="116.644654">
        <time>2020-09-15T12:33:01Z</time>
      </trkpt>
      <trkpt lat="39.896215" lon="116.64452">
        <time>2020-09-15T12:33:06Z</time>
      </trkpt>
      <trkpt lat="39.896223" lon="116.64439">
        <time>2020-09-15T12:33:11Z</time>
      </trkpt>
      <trkpt lat="39.896225" lon="116.644231">
        <time>2020-09-15T12:33:16Z</time>
      </trkpt>
      <trkpt lat="39.896231" lon="116.644083">
        <time>2020-09-15T12:33:21Z</time>
      </trkpt>
      <trkpt lat="39.896239" lon="116.643944">
        <time>2020-09-15T12:33:26Z</time>
      </trkpt>
      <trkpt lat="39.896245" lon="116.643807">
        <time>2020-09-15T12:33:31Z</time>
      </trkpt>
      <trkpt lat="39.896245" lon="116.643652">
        <time>2020-09-15T12:33:36Z</time>
      </trkpt>
      <trkpt lat="39.896246" lon="116.643514">
        <time>2020-09-15T12:33:41Z</time>
      </trkpt>
      <trkpt lat="39.896243" lon="116.64341">
        <time>2020-09-15T12:33:46Z</time>
      </trkpt>
      <trkpt lat="39.89624" lon="116.643284">
        <time>2020-09-15T12:33:51Z</time>
      </trkpt>
      <trkpt lat="39.896245" lon="116.643137">
        <time>2020-09-15T12:33:56Z</time>
      </trkpt>
      <trkpt lat="39.896252" lon="116.643008">
        <time>2020-09-15T12:34:01Z</time>
      </trkpt>
      <trkpt lat="39.896236" lon="116.642857">
        <time>2020-09-15T12:34:06Z</time>
      </trkpt>
      <trkpt lat="39.896229" lon="116.642708">
        <time>2020-09-15T12:34:11Z</time>
      </trkpt>
      <trkpt lat="39.896222" lon="116.642568">
        <time>2020-09-15T12:34:16Z</time>
      </trkpt>
      <trkpt lat="39.896207" lon="116.642436">
        <time>2020-09-15T12:34:21Z</time>
      </trkpt>
      <trkpt lat="39.896238" lon="116.642292">
        <time>2020-09-15T12:34:26Z</time>
      </trkpt>
      <trkpt lat="39.896298" lon="116.642131">
        <time>2020-09-15T12:34:31Z</time>
      </trkpt>
      <trkpt lat="39.896304" lon="116.641988">
        <time>2020-09-15T12:34:36Z</time>
      </trkpt>
      <trkpt lat="39.896281" lon="116.641886">
        <time>2020-09-15T12:34:41Z</time>
      </trkpt>
      <trkpt lat="39.89628" lon="116.641773">
        <time>2020-09-15T12:34:46Z</time>
      </trkpt>
      <trkpt lat="39.896262" lon="116.641639">
        <time>2020-09-15T12:34:51Z</time>
      </trkpt>
      <trkpt lat="39.89626" lon="116.641504">
        <time>2020-09-15T12:34:56Z</time>
      </trkpt>
      <trkpt lat="39.896255" lon="116.641374">
        <time>2020-09-15T12:35:01Z</time>
      </trkpt>
      <trkpt lat="39.89625" lon="116.64123">
        <time>2020-09-15T12:35:06Z</time>
      </trkpt>
      <trkpt lat="39.896266" lon="116.641129">
        <time>2020-09-15T12:35:11Z</time>
      </trkpt>
      <trkpt lat="39.89627" lon="116.641001">
        <time>2020-09-15T12:35:16Z</time>
      </trkpt>
      <trkpt lat="39.896261" lon="116.640862">
        <time>2020-09-15T12:35:21Z</time>
      </trkpt>
      <trkpt lat="39.896264" lon="116.640724">
        <time>2020-09-15T12:35:26Z</time>
      </trkpt>
      <trkpt lat="39.896259" lon="116.640586">
        <time>2020-09-15T12:35:31Z</time>
      </trkpt>
      <trkpt lat="39.896271" lon="116.640451">
        <time>2020-09-15T12:35:36Z</time>
      </trkpt>
      <trkpt lat="39.896274" lon="116.640313">
        <time>2020-09-15T12:35:41Z</time>
      </trkpt>
      <trkpt lat="39.896262" lon="116.640178">
        <time>2020-09-15T12:35:46Z</time>
      </trkpt>
      <trkpt lat="39.896247" lon="116.640048">
        <time>2020-09-15T12:35:51Z</time>
      </trkpt>
      <trkpt lat="39.896245" lon="116.639952">
        <time>2020-09-15T12:35:56Z</time>
      </trkpt>
      <trkpt lat="39.896241" lon="116.639833">
        <time>2020-09-15T12:36:01Z</time>
      </trkpt>
      <trkpt lat="39.896231" lon="116.639685">
        <time>2020-09-15T12:36:06Z</time>
      </trkpt>
      <trkpt lat="39.896236" lon="116.639577">
        <time>2020-09-15T12:36:11Z</time>
      </trkpt>
      <trkpt lat="39.896233" lon="116.639449">
        <time>2020-09-15T12:36:16Z</time>
      </trkpt>
      <trkpt lat="39.896198" lon="116.63932">
        <time>2020-09-15T12:36:21Z</time>
      </trkpt>
      <trkpt lat="39.896115" lon="116.639173">
        <time>2020-09-15T12:36:26Z</time>
      </trkpt>
      <trkpt lat="39.896091" lon="116.639035">
        <time>2020-09-15T12:36:31Z</time>
      </trkpt>
      <trkpt lat="39.896074" lon="116.638926">
        <time>2020-09-15T12:36:36Z</time>
      </trkpt>
      <trkpt lat="39.896039" lon="116.638808">
        <time>2020-09-15T12:36:41Z</time>
      </trkpt>
      <trkpt lat="39.89601" lon="116.638689">
        <time>2020-09-15T12:36:46Z</time>
      </trkpt>
      <trkpt lat="39.895988" lon="116.638585">
        <time>2020-09-15T12:36:51Z</time>
      </trkpt>
      <trkpt lat="39.895948" lon="116.638472">
        <time>2020-09-15T12:36:56Z</time>
      </trkpt>
      <trkpt lat="39.895909" lon="116.638354">
        <time>2020-09-15T12:37:01Z</time>
      </trkpt>
      <trkpt lat="39.895912" lon="116.638219">
        <time>2020-09-15T12:37:06Z</time>
      </trkpt>
      <trkpt lat="39.895971" lon="116.637997">
        <time>2020-09-15T12:37:11Z</time>
      </trkpt>
      <trkpt lat="39.895999" lon="116.637853">
        <time>2020-09-15T12:37:16Z</time>
      </trkpt>
      <trkpt lat="39.896025" lon="116.637686">
        <time>2020-09-15T12:37:21Z</time>
      </trkpt>
      <trkpt lat="39.896074" lon="116.637509">
        <time>2020-09-15T12:37:26Z</time>
      </trkpt>
      <trkpt lat="39.896101" lon="116.637344">
        <time>2020-09-15T12:37:31Z</time>
      </trkpt>
      <trkpt lat="39.896118" lon="116.637199">
        <time>2020-09-15T12:37:36Z</time>
      </trkpt>
      <trkpt lat="39.896141" lon="116.637079">
        <time>2020-09-15T12:37:41Z</time>
      </trkpt>
      <trkpt lat="39.89616" lon="116.636922">
        <time>2020-09-15T12:37:46Z</time>
      </trkpt>
      <trkpt lat="39.896133" lon="116.636801">
        <time>2020-09-15T12:37:51Z</time>
      </trkpt>
      <trkpt lat="39.896063" lon="116.636768">
        <time>2020-09-15T12:37:56Z</time>
      </trkpt>
      <trkpt lat="39.896039" lon="116.636807">
        <time>2020-09-15T12:38:01Z</time>
      </trkpt>
      <trkpt lat="39.896082" lon="116.636919">
        <time>2020-09-15T12:38:06Z</time>
      </trkpt>
      <trkpt lat="39.896123" lon="116.637082">
        <time>2020-09-15T12:38:11Z</time>
      </trkpt>
      <trkpt lat="39.896146" lon="116.637233">
        <time>2020-09-15T12:38:16Z</time>
      </trkpt>
      <trkpt lat="39.896161" lon="116.637374">
        <time>2020-09-15T12:38:21Z</time>
      </trkpt>
      <trkpt lat="39.89616" lon="116.637514">
        <time>2020-09-15T12:38:26Z</time>
      </trkpt>
      <trkpt lat="39.896166" lon="116.637651">
        <time>2020-09-15T12:38:31Z</time>
      </trkpt>
      <trkpt lat="39.896185" lon="116.637809">
        <time>2020-09-15T12:38:36Z</time>
      </trkpt>
      <trkpt lat="39.896185" lon="116.637959">
        <time>2020-09-15T12:38:41Z</time>
      </trkpt>
      <trkpt lat="39.896185" lon="116.638109">
        <time>2020-09-15T12:38:46Z</time>
      </trkpt>
      <trkpt lat="39.896198" lon="116.638359">
        <time>2020-09-15T12:38:51Z</time>
      </trkpt>
      <trkpt lat="39.896209" lon="116.638631">
        <time>2020-09-15T12:38:56Z</time>
      </trkpt>
      <trkpt lat="39.89619" lon="116.638638">
        <time>2020-09-15T12:39:01Z</time>
      </trkpt>
      <trkpt lat="39.896148" lon="116.638824">
        <time>2020-09-15T12:39:06Z</time>
      </trkpt>
      <trkpt lat="39.896356" lon="116.640531">
        <time>2020-09-15T12:39:11Z</time>
      </trkpt>
      <trkpt lat="39.896356" lon="116.640531">
        <time>2020-09-15T12:39:16Z</time>
      </trkpt>
      <trkpt lat="39.896356" lon="116.640531">
        <time>2020-09-15T12:39:21Z</time>
      </trkpt>
      <trkpt lat="39.896356" lon="116.640531">
        <time>2020-09-15T12:39:26Z</time>
      </trkpt>
      <trkpt lat="39.896356" lon="116.640531">
        <time>2020-09-15T12:39:31Z</time>
      </trkpt>
      <trkpt lat="39.896356" lon="116.640531">
        <time>2020-09-15T12:39:36Z</time>
      </trkpt>
      <trkpt lat="39.896356" lon="116.640531">
        <time>2020-09-15T12:39:41Z</time>
      </trkpt>
      <trkpt lat="39.896356" lon="116.640531">
        <time>2020-09-15T12:39:46Z</time>
      </trkpt>
      <trkpt lat="39.896356" lon="116.640531">
        <time>2020-09-15T12:39:51Z</time>
      </trkpt>
      <trkpt lat="39.896356" lon="116.640531">
        <time>2020-09-15T12:39:56Z</time>
      </trkpt>
      <trkpt lat="39.896356" lon="116.640531">
        <time>2020-09-15T12:40:01Z</time>
      </trkpt>
      <trkpt lat="39.896356" lon="116.640531">
        <time>2020-09-15T12:40:06Z</time>
      </trkpt>
      <trkpt lat="39.896354" lon="116.640558">
        <time>2020-09-15T12:40:11Z</time>
      </trkpt>
      <trkpt lat="39.896359" lon="116.640708">
        <time>2020-09-15T12:40:16Z</time>
      </trkpt>
      <trkpt lat="39.896376" lon="116.640845">
        <time>2020-09-15T12:40:21Z</time>
      </trkpt>
      <trkpt lat="39.89635" lon="116.640997">
        <time>2020-09-15T12:40:26Z</time>
      </trkpt>
      <trkpt lat="39.896323" lon="116.64114">
        <time>2020-09-15T12:40:31Z</time>
      </trkpt>
      <trkpt lat="39.896308" lon="116.641274">
        <time>2020-09-15T12:40:36Z</time>
      </trkpt>
      <trkpt lat="39.896291" lon="116.641394">
        <time>2020-09-15T12:40:41Z</time>
      </trkpt>
      <trkpt lat="39.896276" lon="116.641527">
        <time>2020-09-15T12:40:46Z</time>
      </trkpt>
      <trkpt lat="39.896249" lon="116.641672">
        <time>2020-09-15T12:40:51Z</time>
      </trkpt>
      <trkpt lat="39.896226" lon="116.641778">
        <time>2020-09-15T12:40:56Z</time>
      </trkpt>
      <trkpt lat="39.896231" lon="116.641874">
        <time>2020-09-15T12:41:01Z</time>
      </trkpt>
      <trkpt lat="39.896237" lon="116.642018">
        <time>2020-09-15T12:41:06Z</time>
      </trkpt>
      <trkpt lat="39.896224" lon="116.642168">
        <time>2020-09-15T12:41:11Z</time>
      </trkpt>
      <trkpt lat="39.896222" lon="116.642328">
        <time>2020-09-15T12:41:16Z</time>
      </trkpt>
      <trkpt lat="39.896245" lon="116.642494">
        <time>2020-09-15T12:41:21Z</time>
      </trkpt>
      <trkpt lat="39.896282" lon="116.642646">
        <time>2020-09-15T12:41:26Z</time>
      </trkpt>
      <trkpt lat="39.896285" lon="116.642792">
        <time>2020-09-15T12:41:31Z</time>
      </trkpt>
      <trkpt lat="39.896247" lon="116.642946">
        <time>2020-09-15T12:41:36Z</time>
      </trkpt>
      <trkpt lat="39.896243" lon="116.643098">
        <time>2020-09-15T12:41:41Z</time>
      </trkpt>
      <trkpt lat="39.896254" lon="116.643254">
        <time>2020-09-15T12:41:46Z</time>
      </trkpt>
      <trkpt lat="39.896259" lon="116.643408">
        <time>2020-09-15T12:41:51Z</time>
      </trkpt>
      <trkpt lat="39.896249" lon="116.643555">
        <time>2020-09-15T12:41:56Z</time>
      </trkpt>
      <trkpt lat="39.896244" lon="116.643706">
        <time>2020-09-15T12:42:01Z</time>
      </trkpt>
      <trkpt lat="39.896241" lon="116.643862">
        <time>2020-09-15T12:42:06Z</time>
      </trkpt>
      <trkpt lat="39.896232" lon="116.644015">
        <time>2020-09-15T12:42:11Z</time>
      </trkpt>
      <trkpt lat="39.896221" lon="116.644161">
        <time>2020-09-15T12:42:16Z</time>
      </trkpt>
      <trkpt lat="39.896227" lon="116.644314">
        <time>2020-09-15T12:42:21Z</time>
      </trkpt>
      <trkpt lat="39.89625" lon="116.644466">
        <time>2020-09-15T12:42:26Z</time>
      </trkpt>
      <trkpt lat="39.896245" lon="116.644614">
        <time>2020-09-15T12:42:31Z</time>
      </trkpt>
      <trkpt lat="39.896223" lon="116.644751">
        <time>2020-09-15T12:42:36Z</time>
      </trkpt>
      <trkpt lat="39.896225" lon="116.644894">
        <time>2020-09-15T12:42:41Z</time>
      </trkpt>
      <trkpt lat="39.896219" lon="116.645035">
        <time>2020-09-15T12:42:46Z</time>
      </trkpt>
      <trkpt lat="39.8962" lon="116.645174">
        <time>2020-09-15T12:42:51Z</time>
      </trkpt>
      <trkpt lat="39.896193" lon="116.64532">
        <time>2020-09-15T12:42:56Z</time>
      </trkpt>
      <trkpt lat="39.896172" lon="116.645463">
        <time>2020-09-15T12:43:01Z</time>
      </trkpt>
      <trkpt lat="39.896158" lon="116.645616">
        <time>2020-09-15T12:43:06Z</time>
      </trkpt>
      <trkpt lat="39.896148" lon="116.645744">
        <time>2020-09-15T12:43:11Z</time>
      </trkpt>
      <trkpt lat="39.89613" lon="116.645899">
        <time>2020-09-15T12:43:16Z</time>
      </trkpt>
      <trkpt lat="39.896103" lon="116.646025">
        <time>2020-09-15T12:43:21Z</time>
      </trkpt>
      <trkpt lat="39.896092" lon="116.646184">
        <time>2020-09-15T12:43:26Z</time>
      </trkpt>
      <trkpt lat="39.896064" lon="116.646314">
        <time>2020-09-15T12:43:31Z</time>
      </trkpt>
      <trkpt lat="39.896072" lon="116.646451">
        <time>2020-09-15T12:43:36Z</time>
      </trkpt>
      <trkpt lat="39.896044" lon="116.646591">
        <time>2020-09-15T12:43:41Z</time>
      </trkpt>
      <trkpt lat="39.895957" lon="116.646644">
        <time>2020-09-15T12:43:46Z</time>
      </trkpt>
      <trkpt lat="39.895844" lon="116.646627">
        <time>2020-09-15T12:43:51Z</time>
      </trkpt>
      <trkpt lat="39.895717" lon="116.646591">
        <time>2020-09-15T12:43:56Z</time>
      </trkpt>
      <trkpt lat="39.895608" lon="116.646539">
        <time>2020-09-15T12:44:01Z</time>
      </trkpt>
      <trkpt lat="39.895492" lon="116.64649">
        <time>2020-09-15T12:44:06Z</time>
      </trkpt>
      <trkpt lat="39.895339" lon="116.646453">
        <time>2020-09-15T12:44:11Z</time>
      </trkpt>
      <trkpt lat="39.89525" lon="116.646397">
        <time>2020-09-15T12:44:16Z</time>
      </trkpt>
      <trkpt lat="39.895168" lon="116.646323">
        <time>2020-09-15T12:44:21Z</time>
      </trkpt>
      <trkpt lat="39.895072" lon="116.646267">
        <time>2020-09-15T12:44:26Z</time>
      </trkpt>
      <trkpt lat="39.894973" lon="116.646249">
        <time>2020-09-15T12:44:31Z</time>
      </trkpt>
      <trkpt lat="39.894878" lon="116.646178">
        <time>2020-09-15T12:44:36Z</time>
      </trkpt>
      <trkpt lat="39.894768" lon="116.646114">
        <time>2020-09-15T12:44:41Z</time>
      </trkpt>
      <trkpt lat="39.89465" lon="116.646048">
        <time>2020-09-15T12:44:46Z</time>
      </trkpt>
      <trkpt lat="39.894536" lon="116.645991">
        <time>2020-09-15T12:44:51Z</time>
      </trkpt>
      <trkpt lat="39.894425" lon="116.645948">
        <time>2020-09-15T12:44:56Z</time>
      </trkpt>
      <trkpt lat="39.89433" lon="116.64589">
        <time>2020-09-15T12:45:01Z</time>
      </trkpt>
      <trkpt lat="39.894218" lon="116.645859">
        <time>2020-09-15T12:45:06Z</time>
      </trkpt>
      <trkpt lat="39.894089" lon="116.64583">
        <time>2020-09-15T12:45:11Z</time>
      </trkpt>
      <trkpt lat="39.893987" lon="116.645775">
        <time>2020-09-15T12:45:16Z</time>
      </trkpt>
      <trkpt lat="39.893922" lon="116.645806">
        <time>2020-09-15T12:45:21Z</time>
      </trkpt>
      <trkpt lat="39.893871" lon="116.645918">
        <time>2020-09-15T12:45:26Z</time>
      </trkpt>
      <trkpt lat="39.893851" lon="116.646045">
        <time>2020-09-15T12:45:31Z</time>
      </trkpt>
      <trkpt lat="39.893818" lon="116.646147">
        <time>2020-09-15T12:45:36Z</time>
      </trkpt>
      <trkpt lat="39.893708" lon="116.646182">
        <time>2020-09-15T12:45:41Z</time>
      </trkpt>
      <trkpt lat="39.893613" lon="116.646096">
        <time>2020-09-15T12:45:46Z</time>
      </trkpt>
      <trkpt lat="39.893493" lon="116.646026">
        <time>2020-09-15T12:45:51Z</time>
      </trkpt>
      <trkpt lat="39.893348" lon="116.645986">
        <time>2020-09-15T12:45:56Z</time>
      </trkpt>
      <trkpt lat="39.893215" lon="116.645942">
        <time>2020-09-15T12:46:01Z</time>
      </trkpt>
      <trkpt lat="39.893085" lon="116.645916">
        <time>2020-09-15T12:46:06Z</time>
      </trkpt>
      <trkpt lat="39.892959" lon="116.645871">
        <time>2020-09-15T12:46:11Z</time>
      </trkpt>
      <trkpt lat="39.892839" lon="116.645813">
        <time>2020-09-15T12:46:16Z</time>
      </trkpt>
      <trkpt lat="39.892723" lon="116.64576">
        <time>2020-09-15T12:46:21Z</time>
      </trkpt>
      <trkpt lat="39.892609" lon="116.645713">
        <time>2020-09-15T12:46:26Z</time>
      </trkpt>
      <trkpt lat="39.892483" lon="116.64571">
        <time>2020-09-15T12:46:31Z</time>
      </trkpt>
      <trkpt lat="39.892372" lon="116.645656">
        <time>2020-09-15T12:46:36Z</time>
      </trkpt>
      <trkpt lat="39.892264" lon="116.645603">
        <time>2020-09-15T12:46:41Z</time>
      </trkpt>
      <trkpt lat="39.892165" lon="116.645537">
        <time>2020-09-15T12:46:46Z</time>
      </trkpt>
      <trkpt lat="39.892045" lon="116.645489">
        <time>2020-09-15T12:46:51Z</time>
      </trkpt>
      <trkpt lat="39.891933" lon="116.645434">
        <time>2020-09-15T12:46:56Z</time>
      </trkpt>
      <trkpt lat="39.891829" lon="116.645384">
        <time>2020-09-15T12:47:01Z</time>
      </trkpt>
      <trkpt lat="39.891745" lon="116.645319">
        <time>2020-09-15T12:47:06Z</time>
      </trkpt>
      <trkpt lat="39.891671" lon="116.64526">
        <time>2020-09-15T12:47:11Z</time>
      </trkpt>
      <trkpt lat="39.891602" lon="116.645226">
        <time>2020-09-15T12:47:16Z</time>
      </trkpt>
      <trkpt lat="39.891607" lon="116.645253">
        <time>2020-09-15T12:47:21Z</time>
      </trkpt>
      <trkpt lat="39.89167" lon="116.64529">
        <time>2020-09-15T12:47:26Z</time>
      </trkpt>
      <trkpt lat="39.891746" lon="116.645335">
        <time>2020-09-15T12:47:31Z</time>
      </trkpt>
      <trkpt lat="39.891831" lon="116.645383">
        <time>2020-09-15T12:47:36Z</time>
      </trkpt>
      <trkpt lat="39.891935" lon="116.645404">
        <time>2020-09-15T12:47:41Z</time>
      </trkpt>
      <trkpt lat="39.892036" lon="116.645442">
        <time>2020-09-15T12:47:46Z</time>
      </trkpt>
      <trkpt lat="39.892155" lon="116.645514">
        <time>2020-09-15T12:47:51Z</time>
      </trkpt>
      <trkpt lat="39.892271" lon="116.645551">
        <time>2020-09-15T12:47:56Z</time>
      </trkpt>
      <trkpt lat="39.892375" lon="116.645595">
        <time>2020-09-15T12:48:01Z</time>
      </trkpt>
      <trkpt lat="39.892474" lon="116.64565">
        <time>2020-09-15T12:48:06Z</time>
      </trkpt>
      <trkpt lat="39.892596" lon="116.645712">
        <time>2020-09-15T12:48:11Z</time>
      </trkpt>
      <trkpt lat="39.892715" lon="116.645779">
        <time>2020-09-15T12:48:16Z</time>
      </trkpt>
      <trkpt lat="39.892825" lon="116.645827">
        <time>2020-09-15T12:48:21Z</time>
      </trkpt>
      <trkpt lat="39.892945" lon="116.645863">
        <time>2020-09-15T12:48:26Z</time>
      </trkpt>
      <trkpt lat="39.893053" lon="116.645898">
        <time>2020-09-15T12:48:31Z</time>
      </trkpt>
      <trkpt lat="39.893147" lon="116.645929">
        <time>2020-09-15T12:48:36Z</time>
      </trkpt>
      <trkpt lat="39.893261" lon="116.645982">
        <time>2020-09-15T12:48:41Z</time>
      </trkpt>
      <trkpt lat="39.89337" lon="116.646043">
        <time>2020-09-15T12:48:46Z</time>
      </trkpt>
      <trkpt lat="39.893493" lon="116.646118">
        <time>2020-09-15T12:48:51Z</time>
      </trkpt>
      <trkpt lat="39.893591" lon="116.646176">
        <time>2020-09-15T12:48:56Z</time>
      </trkpt>
      <trkpt lat="39.89369" lon="116.646163">
        <time>2020-09-15T12:49:01Z</time>
      </trkpt>
      <trkpt lat="39.893779" lon="116.646058">
        <time>2020-09-15T12:49:06Z</time>
      </trkpt>
      <trkpt lat="39.893861" lon="116.645971">
        <time>2020-09-15T12:49:11Z</time>
      </trkpt>
      <trkpt lat="39.893933" lon="116.645871">
        <time>2020-09-15T12:49:16Z</time>
      </trkpt>
      <trkpt lat="39.894008" lon="116.645806">
        <time>2020-09-15T12:49:21Z</time>
      </trkpt>
      <trkpt lat="39.894079" lon="116.645819">
        <time>2020-09-15T12:49:26Z</time>
      </trkpt>
      <trkpt lat="39.894161" lon="116.645854">
        <time>2020-09-15T12:49:31Z</time>
      </trkpt>
      <trkpt lat="39.894257" lon="116.6459">
        <time>2020-09-15T12:49:36Z</time>
      </trkpt>
      <trkpt lat="39.894356" lon="116.645935">
        <time>2020-09-15T12:49:41Z</time>
      </trkpt>
      <trkpt lat="39.894425" lon="116.646007">
        <time>2020-09-15T12:49:46Z</time>
      </trkpt>
      <trkpt lat="39.894515" lon="116.646069">
        <time>2020-09-15T12:49:51Z</time>
      </trkpt>
      <trkpt lat="39.894639" lon="116.646128">
        <time>2020-09-15T12:49:56Z</time>
      </trkpt>
      <trkpt lat="39.894732" lon="116.646161">
        <time>2020-09-15T12:50:01Z</time>
      </trkpt>
      <trkpt lat="39.89482" lon="116.646187">
        <time>2020-09-15T12:50:06Z</time>
      </trkpt>
      <trkpt lat="39.894925" lon="116.646213">
        <time>2020-09-15T12:50:11Z</time>
      </trkpt>
      <trkpt lat="39.895044" lon="116.646257">
        <time>2020-09-15T12:50:16Z</time>
      </trkpt>
      <trkpt lat="39.895157" lon="116.64628">
        <time>2020-09-15T12:50:21Z</time>
      </trkpt>
      <trkpt lat="39.895279" lon="116.646341">
        <time>2020-09-15T12:50:26Z</time>
      </trkpt>
      <trkpt lat="39.895392" lon="116.646404">
        <time>2020-09-15T12:50:31Z</time>
      </trkpt>
      <trkpt lat="39.895513" lon="116.646476">
        <time>2020-09-15T12:50:36Z</time>
      </trkpt>
      <trkpt lat="39.895616" lon="116.646537">
        <time>2020-09-15T12:50:41Z</time>
      </trkpt>
      <trkpt lat="39.895721" lon="116.64658">
        <time>2020-09-15T12:50:46Z</time>
      </trkpt>
      <trkpt lat="39.89585" lon="116.646618">
        <time>2020-09-15T12:50:51Z</time>
      </trkpt>
      <trkpt lat="39.895941" lon="116.646616">
        <time>2020-09-15T12:50:56Z</time>
      </trkpt>
      <trkpt lat="39.895961" lon="116.646525">
        <time>2020-09-15T12:51:01Z</time>
      </trkpt>
      <trkpt lat="39.895968" lon="116.646377">
        <time>2020-09-15T12:51:06Z</time>
      </trkpt>
      <trkpt lat="39.895982" lon="116.646197">
        <time>2020-09-15T12:51:11Z</time>
      </trkpt>
      <trkpt lat="39.896015" lon="116.646071">
        <time>2020-09-15T12:51:16Z</time>
      </trkpt>
      <trkpt lat="39.896049" lon="116.645981">
        <time>2020-09-15T12:51:21Z</time>
      </trkpt>
      <trkpt lat="39.896068" lon="116.645896">
        <time>2020-09-15T12:51:26Z</time>
      </trkpt>
      <trkpt lat="39.896072" lon="116.645805">
        <time>2020-09-15T12:51:31Z</time>
      </trkpt>
      <trkpt lat="39.896075" lon="116.645684">
        <time>2020-09-15T12:51:36Z</time>
      </trkpt>
      <trkpt lat="39.896094" lon="116.645511">
        <time>2020-09-15T12:51:41Z</time>
      </trkpt>
      <trkpt lat="39.896125" lon="116.645382">
        <time>2020-09-15T12:51:46Z</time>
      </trkpt>
      <trkpt lat="39.896162" lon="116.645256">
        <time>2020-09-15T12:51:51Z</time>
      </trkpt>
      <trkpt lat="39.896181" lon="116.645074">
        <time>2020-09-15T12:51:56Z</time>
      </trkpt>
      <trkpt lat="39.89619" lon="116.644909">
        <time>2020-09-15T12:52:01Z</time>
      </trkpt>
      <trkpt lat="39.896191" lon="116.644765">
        <time>2020-09-15T12:52:06Z</time>
      </trkpt>
      <trkpt lat="39.896203" lon="116.644626">
        <time>2020-09-15T12:52:11Z</time>
      </trkpt>
      <trkpt lat="39.896225" lon="116.644491">
        <time>2020-09-15T12:52:16Z</time>
      </trkpt>
      <trkpt lat="39.896231" lon="116.644328">
        <time>2020-09-15T12:52:21Z</time>
      </trkpt>
      <trkpt lat="39.896219" lon="116.644162">
        <time>2020-09-15T12:52:26Z</time>
      </trkpt>
      <trkpt lat="39.896226" lon="116.644021">
        <time>2020-09-15T12:52:31Z</time>
      </trkpt>
      <trkpt lat="39.896241" lon="116.643872">
        <time>2020-09-15T12:52:36Z</time>
      </trkpt>
      <trkpt lat="39.896261" lon="116.643721">
        <time>2020-09-15T12:52:41Z</time>
      </trkpt>
      <trkpt lat="39.896239" lon="116.643572">
        <time>2020-09-15T12:52:46Z</time>
      </trkpt>
      <trkpt lat="39.896221" lon="116.643411">
        <time>2020-09-15T12:52:51Z</time>
      </trkpt>
      <trkpt lat="39.896207" lon="116.643256">
        <time>2020-09-15T12:52:56Z</time>
      </trkpt>
      <trkpt lat="39.896216" lon="116.643083">
        <time>2020-09-15T12:53:01Z</time>
      </trkpt>
      <trkpt lat="39.89622" lon="116.642943">
        <time>2020-09-15T12:53:06Z</time>
      </trkpt>
      <trkpt lat="39.896216" lon="116.642788">
        <time>2020-09-15T12:53:11Z</time>
      </trkpt>
      <trkpt lat="39.896241" lon="116.642665">
        <time>2020-09-15T12:53:16Z</time>
      </trkpt>
      <trkpt lat="39.896244" lon="116.642515">
        <time>2020-09-15T12:53:21Z</time>
      </trkpt>
      <trkpt lat="39.896248" lon="116.642356">
        <time>2020-09-15T12:53:26Z</time>
      </trkpt>
      <trkpt lat="39.896238" lon="116.642229">
        <time>2020-09-15T12:53:31Z</time>
      </trkpt>
      <trkpt lat="39.896238" lon="116.642097">
        <time>2020-09-15T12:53:36Z</time>
      </trkpt>
      <trkpt lat="39.896227" lon="116.64194">
        <time>2020-09-15T12:53:41Z</time>
      </trkpt>
      <trkpt lat="39.896239" lon="116.641783">
        <time>2020-09-15T12:53:46Z</time>
      </trkpt>
      <trkpt lat="39.896259" lon="116.641634">
        <time>2020-09-15T12:53:51Z</time>
      </trkpt>
      <trkpt lat="39.896266" lon="116.641483">
        <time>2020-09-15T12:53:56Z</time>
      </trkpt>
      <trkpt lat="39.89627" lon="116.641344">
        <time>2020-09-15T12:54:01Z</time>
      </trkpt>
      <trkpt lat="39.896261" lon="116.641195">
        <time>2020-09-15T12:54:06Z</time>
      </trkpt>
      <trkpt lat="39.896265" lon="116.641053">
        <time>2020-09-15T12:54:11Z</time>
      </trkpt>
      <trkpt lat="39.896258" lon="116.640917">
        <time>2020-09-15T12:54:16Z</time>
      </trkpt>
      <trkpt lat="39.896257" lon="116.640785">
        <time>2020-09-15T12:54:21Z</time>
      </trkpt>
      <trkpt lat="39.896253" lon="116.640691">
        <time>2020-09-15T12:54:26Z</time>
      </trkpt>
      <trkpt lat="39.896254" lon="116.640577">
        <time>2020-09-15T12:54:31Z</time>
      </trkpt>
      <trkpt lat="39.896288" lon="116.640402">
        <time>2020-09-15T12:54:36Z</time>
      </trkpt>
      <trkpt lat="39.896632" lon="116.640179">
        <time>2020-09-15T12:54:41Z</time>
      </trkpt>
      <trkpt lat="39.896632" lon="116.640179">
        <time>2020-09-15T12:54:46Z</time>
      </trkpt>
      <trkpt lat="39.896646" lon="116.640226">
        <time>2020-09-15T12:54:51Z</time>
      </trkpt>
      <trkpt lat="39.896697" lon="116.640332">
        <time>2020-09-15T12:54:56Z</time>
      </trkpt>
      <trkpt lat="39.896814" lon="116.640419">
        <time>2020-09-15T12:55:01Z</time>
      </trkpt>
      <trkpt lat="39.89693" lon="116.640478">
        <time>2020-09-15T12:55:06Z</time>
      </trkpt>
      <trkpt lat="39.897031" lon="116.640521">
        <time>2020-09-15T12:55:11Z</time>
      </trkpt>
      <trkpt lat="39.897143" lon="116.640554">
        <time>2020-09-15T12:55:16Z</time>
      </trkpt>
      <trkpt lat="39.897231" lon="116.64059">
        <time>2020-09-15T12:55:21Z</time>
      </trkpt>
      <trkpt lat="39.897289" lon="116.640648">
        <time>2020-09-15T12:55:26Z</time>
      </trkpt>
      <trkpt lat="39.89734" lon="116.6407">
        <time>2020-09-15T12:55:31Z</time>
      </trkpt>
      <trkpt lat="39.897396" lon="116.640746">
        <time>2020-09-15T12:55:36Z</time>
      </trkpt>
      <trkpt lat="39.897451" lon="116.640767">
        <time>2020-09-15T12:55:41Z</time>
      </trkpt>
      <trkpt lat="39.897507" lon="116.640791">
        <time>2020-09-15T12:55:46Z</time>
      </trkpt>
      <trkpt lat="39.897564" lon="116.640828">
        <time>2020-09-15T12:55:51Z</time>
      </trkpt>
      <trkpt lat="39.897644" lon="116.640845">
        <time>2020-09-15T12:55:56Z</time>
      </trkpt>
      <trkpt lat="39.897718" lon="116.640858">
        <time>2020-09-15T12:56:01Z</time>
      </trkpt>
      <trkpt lat="39.897793" lon="116.640851">
        <time>2020-09-15T12:56:06Z</time>
      </trkpt>
      <trkpt lat="39.897855" lon="116.640872">
        <time>2020-09-15T12:56:11Z</time>
      </trkpt>
      <trkpt lat="39.897929" lon="116.640953">
        <time>2020-09-15T12:56:16Z</time>
      </trkpt>
      <trkpt lat="39.898013" lon="116.640984">
        <time>2020-09-15T12:56:21Z</time>
      </trkpt>
      <trkpt lat="39.898135" lon="116.641035">
        <time>2020-09-15T12:56:26Z</time>
      </trkpt>
      <trkpt lat="39.898246" lon="116.641074">
        <time>2020-09-15T12:56:31Z</time>
      </trkpt>
      <trkpt lat="39.89835" lon="116.641116">
        <time>2020-09-15T12:56:36Z</time>
      </trkpt>
      <trkpt lat="39.898422" lon="116.641191">
        <time>2020-09-15T12:56:41Z</time>
      </trkpt>
      <trkpt lat="39.898408" lon="116.641337">
        <time>2020-09-15T12:56:46Z</time>
      </trkpt>
      <trkpt lat="39.89837" lon="116.641487">
        <time>2020-09-15T12:56:51Z</time>
      </trkpt>
      <trkpt lat="39.898352" lon="116.641661">
        <time>2020-09-15T12:56:56Z</time>
      </trkpt>
      <trkpt lat="39.898363" lon="116.641826">
        <time>2020-09-15T12:57:01Z</time>
      </trkpt>
      <trkpt lat="39.898362" lon="116.641957">
        <time>2020-09-15T12:57:06Z</time>
      </trkpt>
      <trkpt lat="39.898365" lon="116.642106">
        <time>2020-09-15T12:57:11Z</time>
      </trkpt>
      <trkpt lat="39.898372" lon="116.64226">
        <time>2020-09-15T12:57:16Z</time>
      </trkpt>
      <trkpt lat="39.898364" lon="116.642406">
        <time>2020-09-15T12:57:21Z</time>
      </trkpt>
      <trkpt lat="39.898351" lon="116.642547">
        <time>2020-09-15T12:57:26Z</time>
      </trkpt>
      <trkpt lat="39.898369" lon="116.64269">
        <time>2020-09-15T12:57:31Z</time>
      </trkpt>
      <trkpt lat="39.898393" lon="116.642831">
        <time>2020-09-15T12:57:36Z</time>
      </trkpt>
      <trkpt lat="39.898431" lon="116.642966">
        <time>2020-09-15T12:57:41Z</time>
      </trkpt>
      <trkpt lat="39.898475" lon="116.643116">
        <time>2020-09-15T12:57:46Z</time>
      </trkpt>
      <trkpt lat="39.898474" lon="116.643251">
        <time>2020-09-15T12:57:51Z</time>
      </trkpt>
      <trkpt lat="39.898468" lon="116.643384">
        <time>2020-09-15T12:57:56Z</time>
      </trkpt>
      <trkpt lat="39.898461" lon="116.643522">
        <time>2020-09-15T12:58:01Z</time>
      </trkpt>
      <trkpt lat="39.898466" lon="116.643661">
        <time>2020-09-15T12:58:06Z</time>
      </trkpt>
      <trkpt lat="39.898482" lon="116.643802">
        <time>2020-09-15T12:58:11Z</time>
      </trkpt>
      <trkpt lat="39.898483" lon="116.643948">
        <time>2020-09-15T12:58:16Z</time>
      </trkpt>
      <trkpt lat="39.898518" lon="116.644096">
        <time>2020-09-15T12:58:21Z</time>
      </trkpt>
      <trkpt lat="39.898533" lon="116.644231">
        <time>2020-09-15T12:58:26Z</time>
      </trkpt>
      <trkpt lat="39.898533" lon="116.644334">
        <time>2020-09-15T12:58:31Z</time>
      </trkpt>
      <trkpt lat="39.898549" lon="116.644477">
        <time>2020-09-15T12:58:36Z</time>
      </trkpt>
      <trkpt lat="39.898545" lon="116.644636">
        <time>2020-09-15T12:58:41Z</time>
      </trkpt>
      <trkpt lat="39.898591" lon="116.644792">
        <time>2020-09-15T12:58:46Z</time>
      </trkpt>
      <trkpt lat="39.898625" lon="116.644958">
        <time>2020-09-15T12:58:51Z</time>
      </trkpt>
      <trkpt lat="39.898674" lon="116.645137">
        <time>2020-09-15T12:58:56Z</time>
      </trkpt>
      <trkpt lat="39.898676" lon="116.645286">
        <time>2020-09-15T12:59:01Z</time>
      </trkpt>
      <trkpt lat="39.898659" lon="116.645428">
        <time>2020-09-15T12:59:06Z</time>
      </trkpt>
      <trkpt lat="39.898656" lon="116.645549">
        <time>2020-09-15T12:59:11Z</time>
      </trkpt>
      <trkpt lat="39.898737" lon="116.645695">
        <time>2020-09-15T12:59:16Z</time>
      </trkpt>
      <trkpt lat="39.898798" lon="116.645846">
        <time>2020-09-15T12:59:21Z</time>
      </trkpt>
      <trkpt lat="39.898842" lon="116.645986">
        <time>2020-09-15T12:59:26Z</time>
      </trkpt>
      <trkpt lat="39.898897" lon="116.646126">
        <time>2020-09-15T12:59:31Z</time>
      </trkpt>
      <trkpt lat="39.898921" lon="116.646262">
        <time>2020-09-15T12:59:36Z</time>
      </trkpt>
      <trkpt lat="39.898983" lon="116.646393">
        <time>2020-09-15T12:59:41Z</time>
      </trkpt>
      <trkpt lat="39.89901" lon="116.646522">
        <time>2020-09-15T12:59:46Z</time>
      </trkpt>
      <trkpt lat="39.899026" lon="116.646655">
        <time>2020-09-15T12:59:51Z</time>
      </trkpt>
      <trkpt lat="39.899052" lon="116.646767">
        <time>2020-09-15T12:59:56Z</time>
      </trkpt>
      <trkpt lat="39.899106" lon="116.646886">
        <time>2020-09-15T13:00:01Z</time>
      </trkpt>
      <trkpt lat="39.899152" lon="116.647032">
        <time>2020-09-15T13:00:06Z</time>
      </trkpt>
      <trkpt lat="39.899156" lon="116.647158">
        <time>2020-09-15T13:00:11Z</time>
      </trkpt>
      <trkpt lat="39.899172" lon="116.647277">
        <time>2020-09-15T13:00:16Z</time>
      </trkpt>
      <trkpt lat="39.899179" lon="116.647357">
        <time>2020-09-15T13:00:21Z</time>
      </trkpt>
      <trkpt lat="39.899173" lon="116.647407">
        <time>2020-09-15T13:00:26Z</time>
      </trkpt>
      <trkpt lat="39.899191" lon="116.647592">
        <time>2020-09-15T13:00:31Z</time>
      </trkpt>
      <trkpt lat="39.89921" lon="116.647767">
        <time>2020-09-15T13:00:36Z</time>
      </trkpt>
      <trkpt lat="39.899233" lon="116.647944">
        <time>2020-09-15T13:00:41Z</time>
      </trkpt>
      <trkpt lat="39.899253" lon="116.648139">
        <time>2020-09-15T13:00:46Z</time>
      </trkpt>
      <trkpt lat="39.89924" lon="116.648284">
        <time>2020-09-15T13:00:51Z</time>
      </trkpt>
      <trkpt lat="39.899186" lon="116.648448">
        <time>2020-09-15T13:00:56Z</time>
      </trkpt>
      <trkpt lat="39.899168" lon="116.648587">
        <time>2020-09-15T13:01:01Z</time>
      </trkpt>
      <trkpt lat="39.899187" lon="116.648728">
        <time>2020-09-15T13:01:06Z</time>
      </trkpt>
      <trkpt lat="39.899147" lon="116.648916">
        <time>2020-09-15T13:01:11Z</time>
      </trkpt>
      <trkpt lat="39.899154" lon="116.649081">
        <time>2020-09-15T13:01:16Z</time>
      </trkpt>
      <trkpt lat="39.899195" lon="116.649211">
        <time>2020-09-15T13:01:21Z</time>
      </trkpt>
      <trkpt lat="39.899238" lon="116.649356">
        <time>2020-09-15T13:01:26Z</time>
      </trkpt>
      <trkpt lat="39.89929" lon="116.649508">
        <time>2020-09-15T13:01:31Z</time>
      </trkpt>
      <trkpt lat="39.899286" lon="116.649703">
        <time>2020-09-15T13:01:36Z</time>
      </trkpt>
      <trkpt lat="39.899258" lon="116.649868">
        <time>2020-09-15T13:01:41Z</time>
      </trkpt>
      <trkpt lat="39.899275" lon="116.650017">
        <time>2020-09-15T13:01:46Z</time>
      </trkpt>
      <trkpt lat="39.899252" lon="116.650171">
        <time>2020-09-15T13:01:51Z</time>
      </trkpt>
      <trkpt lat="39.899217" lon="116.650327">
        <time>2020-09-15T13:01:56Z</time>
      </trkpt>
      <trkpt lat="39.899197" lon="116.650469">
        <time>2020-09-15T13:02:01Z</time>
      </trkpt>
      <trkpt lat="39.899193" lon="116.650613">
        <time>2020-09-15T13:02:06Z</time>
      </trkpt>
      <trkpt lat="39.899198" lon="116.650764">
        <time>2020-09-15T13:02:11Z</time>
      </trkpt>
      <trkpt lat="39.899203" lon="116.650923">
        <time>2020-09-15T13:02:16Z</time>
      </trkpt>
      <trkpt lat="39.899183" lon="116.651093">
        <time>2020-09-15T13:02:21Z</time>
      </trkpt>
      <trkpt lat="39.899148" lon="116.651167">
        <time>2020-09-15T13:02:26Z</time>
      </trkpt>
      <trkpt lat="39.899134" lon="116.65112">
        <time>2020-09-15T13:02:31Z</time>
      </trkpt>
      <trkpt lat="39.899133" lon="116.651081">
        <time>2020-09-15T13:02:36Z</time>
      </trkpt>
      <trkpt lat="39.899202" lon="116.65102">
        <time>2020-09-15T13:02:41Z</time>
      </trkpt>
      <trkpt lat="39.899181" lon="116.650899">
        <time>2020-09-15T13:02:46Z</time>
      </trkpt>
      <trkpt lat="39.899229" lon="116.650781">
        <time>2020-09-15T13:02:51Z</time>
      </trkpt>
      <trkpt lat="39.899272" lon="116.650673">
        <time>2020-09-15T13:02:56Z</time>
      </trkpt>
      <trkpt lat="39.899315" lon="116.650547">
        <time>2020-09-15T13:03:01Z</time>
      </trkpt>
      <trkpt lat="39.899326" lon="116.650439">
        <time>2020-09-15T13:03:06Z</time>
      </trkpt>
      <trkpt lat="39.899304" lon="116.650299">
        <time>2020-09-15T13:03:11Z</time>
      </trkpt>
      <trkpt lat="39.899272" lon="116.650163">
        <time>2020-09-15T13:03:16Z</time>
      </trkpt>
      <trkpt lat="39.89928" lon="116.649985">
        <time>2020-09-15T13:03:21Z</time>
      </trkpt>
      <trkpt lat="39.899269" lon="116.649815">
        <time>2020-09-15T13:03:26Z</time>
      </trkpt>
      <trkpt lat="39.899229" lon="116.649679">
        <time>2020-09-15T13:03:31Z</time>
      </trkpt>
      <trkpt lat="39.899264" lon="116.649511">
        <time>2020-09-15T13:03:36Z</time>
      </trkpt>
      <trkpt lat="39.899307" lon="116.649301">
        <time>2020-09-15T13:03:41Z</time>
      </trkpt>
      <trkpt lat="39.899362" lon="116.6491">
        <time>2020-09-15T13:03:46Z</time>
      </trkpt>
      <trkpt lat="39.899316" lon="116.648974">
        <time>2020-09-15T13:03:51Z</time>
      </trkpt>
      <trkpt lat="39.899233" lon="116.648858">
        <time>2020-09-15T13:03:56Z</time>
      </trkpt>
      <trkpt lat="39.899187" lon="116.648631">
        <time>2020-09-15T13:04:01Z</time>
      </trkpt>
      <trkpt lat="39.899192" lon="116.648463">
        <time>2020-09-15T13:04:06Z</time>
      </trkpt>
      <trkpt lat="39.899265" lon="116.648314">
        <time>2020-09-15T13:04:11Z</time>
      </trkpt>
      <trkpt lat="39.899354" lon="116.64818">
        <time>2020-09-15T13:04:16Z</time>
      </trkpt>
      <trkpt lat="39.899339" lon="116.648003">
        <time>2020-09-15T13:04:21Z</time>
      </trkpt>
      <trkpt lat="39.899272" lon="116.64783">
        <time>2020-09-15T13:04:26Z</time>
      </trkpt>
      <trkpt lat="39.899242" lon="116.647663">
        <time>2020-09-15T13:04:31Z</time>
      </trkpt>
      <trkpt lat="39.899243" lon="116.647471">
        <time>2020-09-15T13:04:36Z</time>
      </trkpt>
      <trkpt lat="39.89926" lon="116.64728">
        <time>2020-09-15T13:04:41Z</time>
      </trkpt>
      <trkpt lat="39.899249" lon="116.647136">
        <time>2020-09-15T13:04:46Z</time>
      </trkpt>
      <trkpt lat="39.899269" lon="116.647029">
        <time>2020-09-15T13:04:51Z</time>
      </trkpt>
      <trkpt lat="39.899347" lon="116.64694">
        <time>2020-09-15T13:04:56Z</time>
      </trkpt>
      <trkpt lat="39.89936" lon="116.646846">
        <time>2020-09-15T13:05:01Z</time>
      </trkpt>
      <trkpt lat="39.899383" lon="116.646778">
        <time>2020-09-15T13:05:06Z</time>
      </trkpt>
      <trkpt lat="39.899463" lon="116.646761">
        <time>2020-09-15T13:05:11Z</time>
      </trkpt>
      <trkpt lat="39.899526" lon="116.64674">
        <time>2020-09-15T13:05:16Z</time>
      </trkpt>
      <trkpt lat="39.89952" lon="116.646584">
        <time>2020-09-15T13:05:21Z</time>
      </trkpt>
      <trkpt lat="39.899593" lon="116.646517">
        <time>2020-09-15T13:05:26Z</time>
      </trkpt>
      <trkpt lat="39.899695" lon="116.646565">
        <time>2020-09-15T13:05:31Z</time>
      </trkpt>
      <trkpt lat="39.899812" lon="116.646577">
        <time>2020-09-15T13:05:36Z</time>
      </trkpt>
      <trkpt lat="39.899873" lon="116.646566">
        <time>2020-09-15T13:05:41Z</time>
      </trkpt>
      <trkpt lat="39.899847" lon="116.646593">
        <time>2020-09-15T13:05:46Z</time>
      </trkpt>
      <trkpt lat="39.899797" lon="116.646606">
        <time>2020-09-15T13:05:51Z</time>
      </trkpt>
      <trkpt lat="39.899734" lon="116.646594">
        <time>2020-09-15T13:05:56Z</time>
      </trkpt>
      <trkpt lat="39.899617" lon="116.646624">
        <time>2020-09-15T13:06:01Z</time>
      </trkpt>
      <trkpt lat="39.899467" lon="116.646684">
        <time>2020-09-15T13:06:06Z</time>
      </trkpt>
      <trkpt lat="39.899333" lon="116.646734">
        <time>2020-09-15T13:06:11Z</time>
      </trkpt>
      <trkpt lat="39.89921" lon="116.646768">
        <time>2020-09-15T13:06:16Z</time>
      </trkpt>
      <trkpt lat="39.899077" lon="116.64674">
        <time>2020-09-15T13:06:21Z</time>
      </trkpt>
      <trkpt lat="39.898977" lon="116.646707">
        <time>2020-09-15T13:06:26Z</time>
      </trkpt>
      <trkpt lat="39.898948" lon="116.646784">
        <time>2020-09-15T13:06:31Z</time>
      </trkpt>
      <trkpt lat="39.898965" lon="116.646899">
        <time>2020-09-15T13:06:36Z</time>
      </trkpt>
      <trkpt lat="39.899007" lon="116.647011">
        <time>2020-09-15T13:06:41Z</time>
      </trkpt>
      <trkpt lat="39.899041" lon="116.647155">
        <time>2020-09-15T13:06:46Z</time>
      </trkpt>
      <trkpt lat="39.899066" lon="116.6473">
        <time>2020-09-15T13:06:51Z</time>
      </trkpt>
      <trkpt lat="39.899053" lon="116.647413">
        <time>2020-09-15T13:06:56Z</time>
      </trkpt>
      <trkpt lat="39.89903" lon="116.647522">
        <time>2020-09-15T13:07:01Z</time>
      </trkpt>
      <trkpt lat="39.899032" lon="116.647672">
        <time>2020-09-15T13:07:06Z</time>
      </trkpt>
      <trkpt lat="39.899066" lon="116.647853">
        <time>2020-09-15T13:07:11Z</time>
      </trkpt>
      <trkpt lat="39.899071" lon="116.648012">
        <time>2020-09-15T13:07:16Z</time>
      </trkpt>
      <trkpt lat="39.899116" lon="116.648179">
        <time>2020-09-15T13:07:21Z</time>
      </trkpt>
      <trkpt lat="39.899208" lon="116.648394">
        <time>2020-09-15T13:07:26Z</time>
      </trkpt>
      <trkpt lat="39.899235" lon="116.648559">
        <time>2020-09-15T13:07:31Z</time>
      </trkpt>
      <trkpt lat="39.899195" lon="116.648703">
        <time>2020-09-15T13:07:36Z</time>
      </trkpt>
      <trkpt lat="39.899181" lon="116.648839">
        <time>2020-09-15T13:07:41Z</time>
      </trkpt>
      <trkpt lat="39.899186" lon="116.64899">
        <time>2020-09-15T13:07:46Z</time>
      </trkpt>
      <trkpt lat="39.89916" lon="116.64914">
        <time>2020-09-15T13:07:51Z</time>
      </trkpt>
      <trkpt lat="39.899162" lon="116.649268">
        <time>2020-09-15T13:07:56Z</time>
      </trkpt>
      <trkpt lat="39.899185" lon="116.649428">
        <time>2020-09-15T13:08:01Z</time>
      </trkpt>
      <trkpt lat="39.89921" lon="116.649585">
        <time>2020-09-15T13:08:06Z</time>
      </trkpt>
      <trkpt lat="39.89924" lon="116.649714">
        <time>2020-09-15T13:08:11Z</time>
      </trkpt>
      <trkpt lat="39.899261" lon="116.649862">
        <time>2020-09-15T13:08:16Z</time>
      </trkpt>
      <trkpt lat="39.899265" lon="116.650045">
        <time>2020-09-15T13:08:21Z</time>
      </trkpt>
      <trkpt lat="39.899261" lon="116.650196">
        <time>2020-09-15T13:08:26Z</time>
      </trkpt>
      <trkpt lat="39.899256" lon="116.650348">
        <time>2020-09-15T13:08:31Z</time>
      </trkpt>
      <trkpt lat="39.899263" lon="116.65048">
        <time>2020-09-15T13:08:36Z</time>
      </trkpt>
      <trkpt lat="39.899256" lon="116.650641">
        <time>2020-09-15T13:08:41Z</time>
      </trkpt>
      <trkpt lat="39.899214" lon="116.650782">
        <time>2020-09-15T13:08:46Z</time>
      </trkpt>
      <trkpt lat="39.899189" lon="116.650916">
        <time>2020-09-15T13:08:51Z</time>
      </trkpt>
      <trkpt lat="39.899158" lon="116.651053">
        <time>2020-09-15T13:08:56Z</time>
      </trkpt>
      <trkpt lat="39.899118" lon="116.651192">
        <time>2020-09-15T13:09:01Z</time>
      </trkpt>
      <trkpt lat="39.899064" lon="116.651164">
        <time>2020-09-15T13:09:06Z</time>
      </trkpt>
      <trkpt lat="39.899028" lon="116.651054">
        <time>2020-09-15T13:09:11Z</time>
      </trkpt>
      <trkpt lat="39.89907" lon="116.650896">
        <time>2020-09-15T13:09:16Z</time>
      </trkpt>
      <trkpt lat="39.899067" lon="116.650711">
        <time>2020-09-15T13:09:21Z</time>
      </trkpt>
      <trkpt lat="39.899103" lon="116.650598">
        <time>2020-09-15T13:09:26Z</time>
      </trkpt>
      <trkpt lat="39.899119" lon="116.650457">
        <time>2020-09-15T13:09:31Z</time>
      </trkpt>
      <trkpt lat="39.899188" lon="116.65032">
        <time>2020-09-15T13:09:36Z</time>
      </trkpt>
      <trkpt lat="39.899191" lon="116.650156">
        <time>2020-09-15T13:09:41Z</time>
      </trkpt>
      <trkpt lat="39.899216" lon="116.649997">
        <time>2020-09-15T13:09:46Z</time>
      </trkpt>
      <trkpt lat="39.89921" lon="116.649852">
        <time>2020-09-15T13:09:51Z</time>
      </trkpt>
      <trkpt lat="39.899217" lon="116.649725">
        <time>2020-09-15T13:09:56Z</time>
      </trkpt>
      <trkpt lat="39.899284" lon="116.649639">
        <time>2020-09-15T13:10:01Z</time>
      </trkpt>
      <trkpt lat="39.89928" lon="116.649504">
        <time>2020-09-15T13:10:06Z</time>
      </trkpt>
      <trkpt lat="39.899268" lon="116.649327">
        <time>2020-09-15T13:10:11Z</time>
      </trkpt>
      <trkpt lat="39.899246" lon="116.649096">
        <time>2020-09-15T13:10:16Z</time>
      </trkpt>
      <trkpt lat="39.899181" lon="116.648923">
        <time>2020-09-15T13:10:21Z</time>
      </trkpt>
      <trkpt lat="39.899154" lon="116.648732">
        <time>2020-09-15T13:10:26Z</time>
      </trkpt>
      <trkpt lat="39.899144" lon="116.64854">
        <time>2020-09-15T13:10:31Z</time>
      </trkpt>
      <trkpt lat="39.899184" lon="116.648421">
        <time>2020-09-15T13:10:36Z</time>
      </trkpt>
      <trkpt lat="39.89926" lon="116.648325">
        <time>2020-09-15T13:10:41Z</time>
      </trkpt>
      <trkpt lat="39.899312" lon="116.648242">
        <time>2020-09-15T13:10:46Z</time>
      </trkpt>
      <trkpt lat="39.899352" lon="116.648103">
        <time>2020-09-15T13:10:51Z</time>
      </trkpt>
      <trkpt lat="39.899347" lon="116.647943">
        <time>2020-09-15T13:10:56Z</time>
      </trkpt>
      <trkpt lat="39.899346" lon="116.647766">
        <time>2020-09-15T13:11:01Z</time>
      </trkpt>
      <trkpt lat="39.89935" lon="116.647636">
        <time>2020-09-15T13:11:06Z</time>
      </trkpt>
      <trkpt lat="39.899311" lon="116.647516">
        <time>2020-09-15T13:11:11Z</time>
      </trkpt>
      <trkpt lat="39.899285" lon="116.647365">
        <time>2020-09-15T13:11:16Z</time>
      </trkpt>
      <trkpt lat="39.899288" lon="116.647227">
        <time>2020-09-15T13:11:21Z</time>
      </trkpt>
      <trkpt lat="39.899259" lon="116.647084">
        <time>2020-09-15T13:11:26Z</time>
      </trkpt>
      <trkpt lat="39.8992" lon="116.646922">
        <time>2020-09-15T13:11:31Z</time>
      </trkpt>
      <trkpt lat="39.899123" lon="116.64679">
        <time>2020-09-15T13:11:36Z</time>
      </trkpt>
      <trkpt lat="39.899011" lon="116.64671">
        <time>2020-09-15T13:11:41Z</time>
      </trkpt>
      <trkpt lat="39.898933" lon="116.646539">
        <time>2020-09-15T13:11:46Z</time>
      </trkpt>
      <trkpt lat="39.898902" lon="116.646415">
        <time>2020-09-15T13:11:51Z</time>
      </trkpt>
      <trkpt lat="39.898876" lon="116.646297">
        <time>2020-09-15T13:11:56Z</time>
      </trkpt>
      <trkpt lat="39.898854" lon="116.646163">
        <time>2020-09-15T13:12:01Z</time>
      </trkpt>
      <trkpt lat="39.898784" lon="116.646045">
        <time>2020-09-15T13:12:06Z</time>
      </trkpt>
      <trkpt lat="39.898701" lon="116.645901">
        <time>2020-09-15T13:12:11Z</time>
      </trkpt>
      <trkpt lat="39.898649" lon="116.645724">
        <time>2020-09-15T13:12:16Z</time>
      </trkpt>
      <trkpt lat="39.898606" lon="116.645552">
        <time>2020-09-15T13:12:21Z</time>
      </trkpt>
      <trkpt lat="39.898587" lon="116.6454">
        <time>2020-09-15T13:12:26Z</time>
      </trkpt>
      <trkpt lat="39.898567" lon="116.645249">
        <time>2020-09-15T13:12:31Z</time>
      </trkpt>
      <trkpt lat="39.898611" lon="116.645119">
        <time>2020-09-15T13:12:36Z</time>
      </trkpt>
      <trkpt lat="39.898638" lon="116.645025">
        <time>2020-09-15T13:12:41Z</time>
      </trkpt>
      <trkpt lat="39.898607" lon="116.644866">
        <time>2020-09-15T13:12:46Z</time>
      </trkpt>
      <trkpt lat="39.898592" lon="116.644731">
        <time>2020-09-15T13:12:51Z</time>
      </trkpt>
      <trkpt lat="39.898581" lon="116.644582">
        <time>2020-09-15T13:12:56Z</time>
      </trkpt>
      <trkpt lat="39.898593" lon="116.644493">
        <time>2020-09-15T13:13:01Z</time>
      </trkpt>
      <trkpt lat="39.898614" lon="116.644351">
        <time>2020-09-15T13:13:06Z</time>
      </trkpt>
      <trkpt lat="39.89864" lon="116.644179">
        <time>2020-09-15T13:13:11Z</time>
      </trkpt>
      <trkpt lat="39.898607" lon="116.643989">
        <time>2020-09-15T13:13:16Z</time>
      </trkpt>
      <trkpt lat="39.898605" lon="116.643798">
        <time>2020-09-15T13:13:21Z</time>
      </trkpt>
      <trkpt lat="39.898588" lon="116.643641">
        <time>2020-09-15T13:13:26Z</time>
      </trkpt>
      <trkpt lat="39.898564" lon="116.643499">
        <time>2020-09-15T13:13:31Z</time>
      </trkpt>
      <trkpt lat="39.898591" lon="116.643361">
        <time>2020-09-15T13:13:36Z</time>
      </trkpt>
      <trkpt lat="39.898618" lon="116.643207">
        <time>2020-09-15T13:13:41Z</time>
      </trkpt>
      <trkpt lat="39.898647" lon="116.643077">
        <time>2020-09-15T13:13:46Z</time>
      </trkpt>
      <trkpt lat="39.898683" lon="116.642967">
        <time>2020-09-15T13:13:51Z</time>
      </trkpt>
      <trkpt lat="39.89877" lon="116.642835">
        <time>2020-09-15T13:13:56Z</time>
      </trkpt>
      <trkpt lat="39.89876" lon="116.642701">
        <time>2020-09-15T13:14:01Z</time>
      </trkpt>
      <trkpt lat="39.89867" lon="116.642523">
        <time>2020-09-15T13:14:06Z</time>
      </trkpt>
      <trkpt lat="39.898583" lon="116.642327">
        <time>2020-09-15T13:14:11Z</time>
      </trkpt>
      <trkpt lat="39.898524" lon="116.64216">
        <time>2020-09-15T13:14:16Z</time>
      </trkpt>
      <trkpt lat="39.898481" lon="116.642001">
        <time>2020-09-15T13:14:21Z</time>
      </trkpt>
      <trkpt lat="39.89847" lon="116.641823">
        <time>2020-09-15T13:14:26Z</time>
      </trkpt>
      <trkpt lat="39.898482" lon="116.641651">
        <time>2020-09-15T13:14:31Z</time>
      </trkpt>
      <trkpt lat="39.898555" lon="116.641537">
        <time>2020-09-15T13:14:36Z</time>
      </trkpt>
      <trkpt lat="39.89856" lon="116.641394">
        <time>2020-09-15T13:14:41Z</time>
      </trkpt>
      <trkpt lat="39.898544" lon="116.64123">
        <time>2020-09-15T13:14:46Z</time>
      </trkpt>
      <trkpt lat="39.898469" lon="116.641148">
        <time>2020-09-15T13:14:51Z</time>
      </trkpt>
      <trkpt lat="39.89832" lon="116.641169">
        <time>2020-09-15T13:14:56Z</time>
      </trkpt>
      <trkpt lat="39.898189" lon="116.641143">
        <time>2020-09-15T13:15:01Z</time>
      </trkpt>
      <trkpt lat="39.89806" lon="116.641091">
        <time>2020-09-15T13:15:06Z</time>
      </trkpt>
      <trkpt lat="39.897977" lon="116.641035">
        <time>2020-09-15T13:15:11Z</time>
      </trkpt>
      <trkpt lat="39.897941" lon="116.640979">
        <time>2020-09-15T13:15:16Z</time>
      </trkpt>
      <trkpt lat="39.897902" lon="116.640936">
        <time>2020-09-15T13:15:21Z</time>
      </trkpt>
      <trkpt lat="39.897871" lon="116.640913">
        <time>2020-09-15T13:15:26Z</time>
      </trkpt>
      <trkpt lat="39.89778" lon="116.64089">
        <time>2020-09-15T13:15:31Z</time>
      </trkpt>
      <trkpt lat="39.89772" lon="116.640818">
        <time>2020-09-15T13:15:36Z</time>
      </trkpt>
      <trkpt lat="39.897643" lon="116.640781">
        <time>2020-09-15T13:15:41Z</time>
      </trkpt>
      <trkpt lat="39.897583" lon="116.640758">
        <time>2020-09-15T13:15:46Z</time>
      </trkpt>
      <trkpt lat="39.897583" lon="116.640754">
        <time>2020-09-15T13:15:51Z</time>
      </trkpt>
      <trkpt lat="39.897537" lon="116.640749">
        <time>2020-09-15T13:15:56Z</time>
      </trkpt>
      <trkpt lat="39.89741" lon="116.640719">
        <time>2020-09-15T13:16:01Z</time>
      </trkpt>
      <trkpt lat="39.897294" lon="116.640657">
        <time>2020-09-15T13:16:06Z</time>
      </trkpt>
      <trkpt lat="39.897152" lon="116.640602">
        <time>2020-09-15T13:16:11Z</time>
      </trkpt>
      <trkpt lat="39.897006" lon="116.640555">
        <time>2020-09-15T13:16:16Z</time>
      </trkpt>
      <trkpt lat="39.896874" lon="116.64049">
        <time>2020-09-15T13:16:21Z</time>
      </trkpt>
      <trkpt lat="39.896769" lon="116.640409">
        <time>2020-09-15T13:16:26Z</time>
      </trkpt>
      <trkpt lat="39.896662" lon="116.640333">
        <time>2020-09-15T13:16:31Z</time>
      </trkpt>
      <trkpt lat="39.896387" lon="116.640181">
        <time>2020-09-15T13:16:36Z</time>
      </trkpt>
      <trkpt lat="39.896387" lon="116.640181">
        <time>2020-09-15T13:16:41Z</time>
      </trkpt>
      <trkpt lat="39.896397" lon="116.640155">
        <time>2020-09-15T13:16:46Z</time>
      </trkpt>
      <trkpt lat="39.896339" lon="116.640015">
        <time>2020-09-15T13:16:51Z</time>
      </trkpt>
      <trkpt lat="39.896324" lon="116.639852">
        <time>2020-09-15T13:16:56Z</time>
      </trkpt>
      <trkpt lat="39.896305" lon="116.639711">
        <time>2020-09-15T13:17:01Z</time>
      </trkpt>
      <trkpt lat="39.896288" lon="116.639561">
        <time>2020-09-15T13:17:06Z</time>
      </trkpt>
      <trkpt lat="39.896319" lon="116.639429">
        <time>2020-09-15T13:17:11Z</time>
      </trkpt>
      <trkpt lat="39.896336" lon="116.639284">
        <time>2020-09-15T13:17:16Z</time>
      </trkpt>
      <trkpt lat="39.896345" lon="116.639142">
        <time>2020-09-15T13:17:21Z</time>
      </trkpt>
      <trkpt lat="39.896371" lon="116.639026">
        <time>2020-09-15T13:17:26Z</time>
      </trkpt>
      <trkpt lat="39.896371" lon="116.638893">
        <time>2020-09-15T13:17:31Z</time>
      </trkpt>
      <trkpt lat="39.896356" lon="116.638741">
        <time>2020-09-15T13:17:36Z</time>
      </trkpt>
      <trkpt lat="39.896367" lon="116.63861">
        <time>2020-09-15T13:17:41Z</time>
      </trkpt>
      <trkpt lat="39.896388" lon="116.638468">
        <time>2020-09-15T13:17:46Z</time>
      </trkpt>
      <trkpt lat="39.896361" lon="116.638324">
        <time>2020-09-15T13:17:51Z</time>
      </trkpt>
      <trkpt lat="39.89633" lon="116.638167">
        <time>2020-09-15T13:17:56Z</time>
      </trkpt>
      <trkpt lat="39.896321" lon="116.638011">
        <time>2020-09-15T13:18:01Z</time>
      </trkpt>
      <trkpt lat="39.896298" lon="116.637856">
        <time>2020-09-15T13:18:06Z</time>
      </trkpt>
      <trkpt lat="39.896283" lon="116.637675">
        <time>2020-09-15T13:18:11Z</time>
      </trkpt>
      <trkpt lat="39.896278" lon="116.637533">
        <time>2020-09-15T13:18:16Z</time>
      </trkpt>
      <trkpt lat="39.896269" lon="116.637363">
        <time>2020-09-15T13:18:21Z</time>
      </trkpt>
      <trkpt lat="39.896256" lon="116.637196">
        <time>2020-09-15T13:18:26Z</time>
      </trkpt>
      <trkpt lat="39.89625" lon="116.637026">
        <time>2020-09-15T13:18:31Z</time>
      </trkpt>
      <trkpt lat="39.896239" lon="116.636864">
        <time>2020-09-15T13:18:36Z</time>
      </trkpt>
      <trkpt lat="39.896201" lon="116.636731">
        <time>2020-09-15T13:18:41Z</time>
      </trkpt>
      <trkpt lat="39.89611" lon="116.636611">
        <time>2020-09-15T13:18:46Z</time>
      </trkpt>
      <trkpt lat="39.896004" lon="116.636556">
        <time>2020-09-15T13:18:51Z</time>
      </trkpt>
      <trkpt lat="39.895944" lon="116.63645">
        <time>2020-09-15T13:18:56Z</time>
      </trkpt>
      <trkpt lat="39.895983" lon="116.636319">
        <time>2020-09-15T13:19:01Z</time>
      </trkpt>
      <trkpt lat="39.896084" lon="116.63622">
        <time>2020-09-15T13:19:06Z</time>
      </trkpt>
      <trkpt lat="39.896201" lon="116.636116">
        <time>2020-09-15T13:19:11Z</time>
      </trkpt>
      <trkpt lat="39.896304" lon="116.636017">
        <time>2020-09-15T13:19:16Z</time>
      </trkpt>
      <trkpt lat="39.896412" lon="116.635882">
        <time>2020-09-15T13:19:21Z</time>
      </trkpt>
      <trkpt lat="39.896504" lon="116.635825">
        <time>2020-09-15T13:19:26Z</time>
      </trkpt>
      <trkpt lat="39.896623" lon="116.635771">
        <time>2020-09-15T13:19:31Z</time>
      </trkpt>
      <trkpt lat="39.896736" lon="116.635683">
        <time>2020-09-15T13:19:36Z</time>
      </trkpt>
      <trkpt lat="39.896856" lon="116.635606">
        <time>2020-09-15T13:19:41Z</time>
      </trkpt>
      <trkpt lat="39.89697" lon="116.635524">
        <time>2020-09-15T13:19:46Z</time>
      </trkpt>
      <trkpt lat="39.897091" lon="116.635521">
        <time>2020-09-15T13:19:51Z</time>
      </trkpt>
      <trkpt lat="39.89718" lon="116.63547">
        <time>2020-09-15T13:19:56Z</time>
      </trkpt>
      <trkpt lat="39.897249" lon="116.635421">
        <time>2020-09-15T13:20:01Z</time>
      </trkpt>
      <trkpt lat="39.897301" lon="116.635376">
        <time>2020-09-15T13:20:06Z</time>
      </trkpt>
      <trkpt lat="39.897371" lon="116.635355">
        <time>2020-09-15T13:20:11Z</time>
      </trkpt>
      <trkpt lat="39.897448" lon="116.635317">
        <time>2020-09-15T13:20:16Z</time>
      </trkpt>
      <trkpt lat="39.897527" lon="116.635286">
        <time>2020-09-15T13:20:21Z</time>
      </trkpt>
      <trkpt lat="39.897586" lon="116.635253">
        <time>2020-09-15T13:20:26Z</time>
      </trkpt>
      <trkpt lat="39.897647" lon="116.635232">
        <time>2020-09-15T13:20:31Z</time>
      </trkpt>
      <trkpt lat="39.897702" lon="116.635219">
        <time>2020-09-15T13:20:36Z</time>
      </trkpt>
      <trkpt lat="39.897771" lon="116.635174">
        <time>2020-09-15T13:20:41Z</time>
      </trkpt>
      <trkpt lat="39.897844" lon="116.635102">
        <time>2020-09-15T13:20:46Z</time>
      </trkpt>
      <trkpt lat="39.89793" lon="116.634994">
        <time>2020-09-15T13:20:51Z</time>
      </trkpt>
      <trkpt lat="39.898035" lon="116.634915">
        <time>2020-09-15T13:20:56Z</time>
      </trkpt>
      <trkpt lat="39.898144" lon="116.634859">
        <time>2020-09-15T13:21:01Z</time>
      </trkpt>
      <trkpt lat="39.898256" lon="116.634807">
        <time>2020-09-15T13:21:06Z</time>
      </trkpt>
      <trkpt lat="39.898364" lon="116.634735">
        <time>2020-09-15T13:21:11Z</time>
      </trkpt>
      <trkpt lat="39.898468" lon="116.634677">
        <time>2020-09-15T13:21:16Z</time>
      </trkpt>
      <trkpt lat="39.898574" lon="116.634616">
        <time>2020-09-15T13:21:21Z</time>
      </trkpt>
      <trkpt lat="39.89868" lon="116.634549">
        <time>2020-09-15T13:21:26Z</time>
      </trkpt>
      <trkpt lat="39.898788" lon="116.634479">
        <time>2020-09-15T13:21:31Z</time>
      </trkpt>
      <trkpt lat="39.89891" lon="116.634426">
        <time>2020-09-15T13:21:36Z</time>
      </trkpt>
      <trkpt lat="39.899014" lon="116.634342">
        <time>2020-09-15T13:21:41Z</time>
      </trkpt>
      <trkpt lat="39.899116" lon="116.634243">
        <time>2020-09-15T13:21:46Z</time>
      </trkpt>
      <trkpt lat="39.89922" lon="116.634176">
        <time>2020-09-15T13:21:51Z</time>
      </trkpt>
      <trkpt lat="39.899335" lon="116.634145">
        <time>2020-09-15T13:21:56Z</time>
      </trkpt>
      <trkpt lat="39.899467" lon="116.634137">
        <time>2020-09-15T13:22:01Z</time>
      </trkpt>
      <trkpt lat="39.899576" lon="116.634118">
        <time>2020-09-15T13:22:06Z</time>
      </trkpt>
      <trkpt lat="39.899673" lon="116.634034">
        <time>2020-09-15T13:22:11Z</time>
      </trkpt>
      <trkpt lat="39.899779" lon="116.633941">
        <time>2020-09-15T13:22:16Z</time>
      </trkpt>
      <trkpt lat="39.89988" lon="116.63385">
        <time>2020-09-15T13:22:21Z</time>
      </trkpt>
      <trkpt lat="39.900008" lon="116.633715">
        <time>2020-09-15T13:22:26Z</time>
      </trkpt>
      <trkpt lat="39.90011" lon="116.633603">
        <time>2020-09-15T13:22:31Z</time>
      </trkpt>
      <trkpt lat="39.900221" lon="116.633507">
        <time>2020-09-15T13:22:36Z</time>
      </trkpt>
      <trkpt lat="39.900329" lon="116.63342">
        <time>2020-09-15T13:22:41Z</time>
      </trkpt>
      <trkpt lat="39.900434" lon="116.633347">
        <time>2020-09-15T13:22:46Z</time>
      </trkpt>
      <trkpt lat="39.900537" lon="116.633261">
        <time>2020-09-15T13:22:51Z</time>
      </trkpt>
      <trkpt lat="39.90066" lon="116.633194">
        <time>2020-09-15T13:22:56Z</time>
      </trkpt>
      <trkpt lat="39.90079" lon="116.633127">
        <time>2020-09-15T13:23:01Z</time>
      </trkpt>
      <trkpt lat="39.900904" lon="116.633082">
        <time>2020-09-15T13:23:06Z</time>
      </trkpt>
      <trkpt lat="39.901019" lon="116.633011">
        <time>2020-09-15T13:23:11Z</time>
      </trkpt>
      <trkpt lat="39.901063" lon="116.632929">
        <time>2020-09-15T13:23:16Z</time>
      </trkpt>
      <trkpt lat="39.900995" lon="116.632819">
        <time>2020-09-15T13:23:21Z</time>
      </trkpt>
      <trkpt lat="39.900899" lon="116.632744">
        <time>2020-09-15T13:23:26Z</time>
      </trkpt>
      <trkpt lat="39.900799" lon="116.632771">
        <time>2020-09-15T13:23:31Z</time>
      </trkpt>
      <trkpt lat="39.900711" lon="116.632879">
        <time>2020-09-15T13:23:36Z</time>
      </trkpt>
      <trkpt lat="39.900628" lon="116.63297">
        <time>2020-09-15T13:23:41Z</time>
      </trkpt>
      <trkpt lat="39.900523" lon="116.633053">
        <time>2020-09-15T13:23:46Z</time>
      </trkpt>
      <trkpt lat="39.900419" lon="116.633162">
        <time>2020-09-15T13:23:51Z</time>
      </trkpt>
      <trkpt lat="39.900326" lon="116.633256">
        <time>2020-09-15T13:23:56Z</time>
      </trkpt>
      <trkpt lat="39.900234" lon="116.633337">
        <time>2020-09-15T13:24:01Z</time>
      </trkpt>
      <trkpt lat="39.900128" lon="116.633421">
        <time>2020-09-15T13:24:06Z</time>
      </trkpt>
      <trkpt lat="39.90004" lon="116.633502">
        <time>2020-09-15T13:24:11Z</time>
      </trkpt>
      <trkpt lat="39.899944" lon="116.633587">
        <time>2020-09-15T13:24:16Z</time>
      </trkpt>
      <trkpt lat="39.899852" lon="116.63367">
        <time>2020-09-15T13:24:21Z</time>
      </trkpt>
      <trkpt lat="39.899752" lon="116.633761">
        <time>2020-09-15T13:24:26Z</time>
      </trkpt>
      <trkpt lat="39.899642" lon="116.633829">
        <time>2020-09-15T13:24:31Z</time>
      </trkpt>
      <trkpt lat="39.899532" lon="116.633903">
        <time>2020-09-15T13:24:36Z</time>
      </trkpt>
      <trkpt lat="39.899433" lon="116.633977">
        <time>2020-09-15T13:24:41Z</time>
      </trkpt>
      <trkpt lat="39.899322" lon="116.634044">
        <time>2020-09-15T13:24:46Z</time>
      </trkpt>
      <trkpt lat="39.899191" lon="116.634116">
        <time>2020-09-15T13:24:51Z</time>
      </trkpt>
      <trkpt lat="39.899079" lon="116.634183">
        <time>2020-09-15T13:24:56Z</time>
      </trkpt>
      <trkpt lat="39.898973" lon="116.634261">
        <time>2020-09-15T13:25:01Z</time>
      </trkpt>
      <trkpt lat="39.898859" lon="116.634327">
        <time>2020-09-15T13:25:06Z</time>
      </trkpt>
      <trkpt lat="39.898755" lon="116.634419">
        <time>2020-09-15T13:25:11Z</time>
      </trkpt>
      <trkpt lat="39.898649" lon="116.634509">
        <time>2020-09-15T13:25:16Z</time>
      </trkpt>
      <trkpt lat="39.898536" lon="116.634643">
        <time>2020-09-15T13:25:21Z</time>
      </trkpt>
      <trkpt lat="39.898443" lon="116.634754">
        <time>2020-09-15T13:25:26Z</time>
      </trkpt>
      <trkpt lat="39.898331" lon="116.634775">
        <time>2020-09-15T13:25:31Z</time>
      </trkpt>
      <trkpt lat="39.898206" lon="116.634642">
        <time>2020-09-15T13:25:36Z</time>
      </trkpt>
      <trkpt lat="39.898137" lon="116.634538">
        <time>2020-09-15T13:25:41Z</time>
      </trkpt>
      <trkpt lat="39.898076" lon="116.634458">
        <time>2020-09-15T13:25:46Z</time>
      </trkpt>
      <trkpt lat="39.898017" lon="116.634311">
        <time>2020-09-15T13:25:51Z</time>
      </trkpt>
      <trkpt lat="39.897967" lon="116.634197">
        <time>2020-09-15T13:25:56Z</time>
      </trkpt>
      <trkpt lat="39.8979" lon="116.634109">
        <time>2020-09-15T13:26:01Z</time>
      </trkpt>
      <trkpt lat="39.89781" lon="116.633997">
        <time>2020-09-15T13:26:06Z</time>
      </trkpt>
      <trkpt lat="39.897779" lon="116.633882">
        <time>2020-09-15T13:26:11Z</time>
      </trkpt>
      <trkpt lat="39.897739" lon="116.633797">
        <time>2020-09-15T13:26:16Z</time>
      </trkpt>
      <trkpt lat="39.897669" lon="116.633736">
        <time>2020-09-15T13:26:21Z</time>
      </trkpt>
      <trkpt lat="39.897622" lon="116.63369">
        <time>2020-09-15T13:26:26Z</time>
      </trkpt>
      <trkpt lat="39.89757" lon="116.63367">
        <time>2020-09-15T13:26:31Z</time>
      </trkpt>
      <trkpt lat="39.897503" lon="116.633692">
        <time>2020-09-15T13:26:36Z</time>
      </trkpt>
      <trkpt lat="39.897362" lon="116.633709">
        <time>2020-09-15T13:26:41Z</time>
      </trkpt>
      <trkpt lat="39.897253" lon="116.633589">
        <time>2020-09-15T13:26:46Z</time>
      </trkpt>
      <trkpt lat="39.897262" lon="116.633453">
        <time>2020-09-15T13:26:51Z</time>
      </trkpt>
      <trkpt lat="39.89723" lon="116.63328">
        <time>2020-09-15T13:26:56Z</time>
      </trkpt>
      <trkpt lat="39.897131" lon="116.633071">
        <time>2020-09-15T13:27:01Z</time>
      </trkpt>
      <trkpt lat="39.89706" lon="116.632834">
        <time>2020-09-15T13:27:06Z</time>
      </trkpt>
      <trkpt lat="39.896967" lon="116.632797">
        <time>2020-09-15T13:27:11Z</time>
      </trkpt>
      <trkpt lat="39.896874" lon="116.632873">
        <time>2020-09-15T13:27:16Z</time>
      </trkpt>
      <trkpt lat="39.896904" lon="116.632993">
        <time>2020-09-15T13:27:21Z</time>
      </trkpt>
      <trkpt lat="39.896976" lon="116.633162">
        <time>2020-09-15T13:27:26Z</time>
      </trkpt>
      <trkpt lat="39.897045" lon="116.633408">
        <time>2020-09-15T13:27:31Z</time>
      </trkpt>
      <trkpt lat="39.897136" lon="116.633527">
        <time>2020-09-15T13:27:36Z</time>
      </trkpt>
      <trkpt lat="39.897225" lon="116.63365">
        <time>2020-09-15T13:27:41Z</time>
      </trkpt>
      <trkpt lat="39.897223" lon="116.633736">
        <time>2020-09-15T13:27:46Z</time>
      </trkpt>
      <trkpt lat="39.897228" lon="116.633807">
        <time>2020-09-15T13:27:51Z</time>
      </trkpt>
      <trkpt lat="39.8973" lon="116.633908">
        <time>2020-09-15T13:27:56Z</time>
      </trkpt>
      <trkpt lat="39.897339" lon="116.634033">
        <time>2020-09-15T13:28:01Z</time>
      </trkpt>
      <trkpt lat="39.89741" lon="116.634104">
        <time>2020-09-15T13:28:27Z</time>
      </trkpt>
    </trkseg>
  </trk>
</gpx>