<?xml version="1.0" encoding="UTF-8"?>
<gpx xmlns="http://www.topografix.com/GPX/1/1" xmlns:gpxtpx="http://www.garmin.com/xmlschemas/TrackPointExtension/v1" xmlns:xsi="http://www.w3.org/2001/XMLSchema-instance" xsi:schemaLocation="http://www.topografix.com/GPX/1/1 http://www.topografix.com/GPX/1/1/gpx.xsd" version="1.1" creator="gpx.py -- https://github.com/tkrajina/gpxpy">
  <trk>
    <name>gpx from keep</name>
    <trkseg>
      <trkpt lat="39.897708" lon="116.634885">
        <time>2020-09-27T12:43:56Z</time>
      </trkpt>
      <trkpt lat="39.89769" lon="116.634906">
        <time>2020-09-27T12:44:01Z</time>
      </trkpt>
      <trkpt lat="39.897668" lon="116.634984">
        <time>2020-09-27T12:44:06Z</time>
      </trkpt>
      <trkpt lat="39.89765" lon="116.635071">
        <time>2020-09-27T12:44:11Z</time>
      </trkpt>
      <trkpt lat="39.897598" lon="116.635173">
        <time>2020-09-27T12:44:16Z</time>
      </trkpt>
      <trkpt lat="39.897542" lon="116.635259">
        <time>2020-09-27T12:44:21Z</time>
      </trkpt>
      <trkpt lat="39.897484" lon="116.635346">
        <time>2020-09-27T12:44:26Z</time>
      </trkpt>
      <trkpt lat="39.897411" lon="116.63541">
        <time>2020-09-27T12:44:31Z</time>
      </trkpt>
      <trkpt lat="39.89732" lon="116.635441">
        <time>2020-09-27T12:44:36Z</time>
      </trkpt>
      <trkpt lat="39.897211" lon="116.635524">
        <time>2020-09-27T12:44:41Z</time>
      </trkpt>
      <trkpt lat="39.897112" lon="116.635637">
        <time>2020-09-27T12:44:46Z</time>
      </trkpt>
      <trkpt lat="39.897025" lon="116.635703">
        <time>2020-09-27T12:44:51Z</time>
      </trkpt>
      <trkpt lat="39.896915" lon="116.635749">
        <time>2020-09-27T12:44:56Z</time>
      </trkpt>
      <trkpt lat="39.896786" lon="116.635813">
        <time>2020-09-27T12:45:01Z</time>
      </trkpt>
      <trkpt lat="39.896682" lon="116.635883">
        <time>2020-09-27T12:45:06Z</time>
      </trkpt>
      <trkpt lat="39.896607" lon="116.635937">
        <time>2020-09-27T12:45:11Z</time>
      </trkpt>
      <trkpt lat="39.896529" lon="116.635961">
        <time>2020-09-27T12:45:16Z</time>
      </trkpt>
      <trkpt lat="39.896449" lon="116.635983">
        <time>2020-09-27T12:45:21Z</time>
      </trkpt>
      <trkpt lat="39.89637" lon="116.635999">
        <time>2020-09-27T12:45:26Z</time>
      </trkpt>
      <trkpt lat="39.896212" lon="116.636184">
        <time>2020-09-27T12:45:31Z</time>
      </trkpt>
      <trkpt lat="39.89619" lon="116.636135">
        <time>2020-09-27T12:45:36Z</time>
      </trkpt>
      <trkpt lat="39.896187" lon="116.63617">
        <time>2020-09-27T12:45:41Z</time>
      </trkpt>
      <trkpt lat="39.896188" lon="116.63627">
        <time>2020-09-27T12:45:46Z</time>
      </trkpt>
      <trkpt lat="39.896153" lon="116.636335">
        <time>2020-09-27T12:45:51Z</time>
      </trkpt>
      <trkpt lat="39.896131" lon="116.636381">
        <time>2020-09-27T12:45:56Z</time>
      </trkpt>
      <trkpt lat="39.896168" lon="116.636432">
        <time>2020-09-27T12:46:01Z</time>
      </trkpt>
      <trkpt lat="39.89616" lon="116.636411">
        <time>2020-09-27T12:46:06Z</time>
      </trkpt>
      <trkpt lat="39.896151" lon="116.636385">
        <time>2020-09-27T12:46:11Z</time>
      </trkpt>
      <trkpt lat="39.896141" lon="116.636364">
        <time>2020-09-27T12:46:16Z</time>
      </trkpt>
      <trkpt lat="39.89615" lon="116.636364">
        <time>2020-09-27T12:46:21Z</time>
      </trkpt>
      <trkpt lat="39.89615" lon="116.636364">
        <time>2020-09-27T12:46:26Z</time>
      </trkpt>
      <trkpt lat="39.896145" lon="116.636361">
        <time>2020-09-27T12:46:31Z</time>
      </trkpt>
      <trkpt lat="39.896142" lon="116.636359">
        <time>2020-09-27T12:46:36Z</time>
      </trkpt>
      <trkpt lat="39.896132" lon="116.636358">
        <time>2020-09-27T12:46:41Z</time>
      </trkpt>
      <trkpt lat="39.896133" lon="116.636341">
        <time>2020-09-27T12:46:46Z</time>
      </trkpt>
      <trkpt lat="39.896133" lon="116.636341">
        <time>2020-09-27T12:46:51Z</time>
      </trkpt>
      <trkpt lat="39.896133" lon="116.636341">
        <time>2020-09-27T12:46:56Z</time>
      </trkpt>
      <trkpt lat="39.896133" lon="116.636341">
        <time>2020-09-27T12:47:01Z</time>
      </trkpt>
      <trkpt lat="39.896133" lon="116.636341">
        <time>2020-09-27T12:47:06Z</time>
      </trkpt>
      <trkpt lat="39.89612" lon="116.636355">
        <time>2020-09-27T12:47:11Z</time>
      </trkpt>
      <trkpt lat="39.896079" lon="116.636419">
        <time>2020-09-27T12:47:16Z</time>
      </trkpt>
      <trkpt lat="39.896046" lon="116.636517">
        <time>2020-09-27T12:47:21Z</time>
      </trkpt>
      <trkpt lat="39.896084" lon="116.636638">
        <time>2020-09-27T12:47:26Z</time>
      </trkpt>
      <trkpt lat="39.896132" lon="116.636756">
        <time>2020-09-27T12:47:31Z</time>
      </trkpt>
      <trkpt lat="39.896151" lon="116.636909">
        <time>2020-09-27T12:47:36Z</time>
      </trkpt>
      <trkpt lat="39.89615" lon="116.637062">
        <time>2020-09-27T12:47:41Z</time>
      </trkpt>
      <trkpt lat="39.896155" lon="116.637213">
        <time>2020-09-27T12:47:46Z</time>
      </trkpt>
      <trkpt lat="39.896157" lon="116.637344">
        <time>2020-09-27T12:47:51Z</time>
      </trkpt>
      <trkpt lat="39.896152" lon="116.637479">
        <time>2020-09-27T12:47:56Z</time>
      </trkpt>
      <trkpt lat="39.896146" lon="116.637639">
        <time>2020-09-27T12:48:01Z</time>
      </trkpt>
      <trkpt lat="39.896141" lon="116.637777">
        <time>2020-09-27T12:48:06Z</time>
      </trkpt>
      <trkpt lat="39.896153" lon="116.637908">
        <time>2020-09-27T12:48:11Z</time>
      </trkpt>
      <trkpt lat="39.89617" lon="116.638076">
        <time>2020-09-27T12:48:16Z</time>
      </trkpt>
      <trkpt lat="39.896197" lon="116.638236">
        <time>2020-09-27T12:48:21Z</time>
      </trkpt>
      <trkpt lat="39.896228" lon="116.638371">
        <time>2020-09-27T12:48:26Z</time>
      </trkpt>
      <trkpt lat="39.89622" lon="116.638509">
        <time>2020-09-27T12:48:31Z</time>
      </trkpt>
      <trkpt lat="39.896195" lon="116.638648">
        <time>2020-09-27T12:48:36Z</time>
      </trkpt>
      <trkpt lat="39.896231" lon="116.63885">
        <time>2020-09-27T12:48:41Z</time>
      </trkpt>
      <trkpt lat="39.896214" lon="116.638952">
        <time>2020-09-27T12:48:46Z</time>
      </trkpt>
      <trkpt lat="39.896191" lon="116.639055">
        <time>2020-09-27T12:48:51Z</time>
      </trkpt>
      <trkpt lat="39.89619" lon="116.639195">
        <time>2020-09-27T12:48:56Z</time>
      </trkpt>
      <trkpt lat="39.896183" lon="116.639319">
        <time>2020-09-27T12:49:01Z</time>
      </trkpt>
      <trkpt lat="39.896154" lon="116.639392">
        <time>2020-09-27T12:49:06Z</time>
      </trkpt>
      <trkpt lat="39.896163" lon="116.639535">
        <time>2020-09-27T12:49:11Z</time>
      </trkpt>
      <trkpt lat="39.896163" lon="116.639535">
        <time>2020-09-27T12:49:16Z</time>
      </trkpt>
      <trkpt lat="39.896163" lon="116.639535">
        <time>2020-09-27T12:49:21Z</time>
      </trkpt>
      <trkpt lat="39.896163" lon="116.639535">
        <time>2020-09-27T12:49:26Z</time>
      </trkpt>
      <trkpt lat="39.896163" lon="116.639535">
        <time>2020-09-27T12:49:31Z</time>
      </trkpt>
      <trkpt lat="39.896163" lon="116.639535">
        <time>2020-09-27T12:49:36Z</time>
      </trkpt>
      <trkpt lat="39.896163" lon="116.639535">
        <time>2020-09-27T12:49:41Z</time>
      </trkpt>
      <trkpt lat="39.896163" lon="116.639535">
        <time>2020-09-27T12:49:46Z</time>
      </trkpt>
      <trkpt lat="39.896163" lon="116.639535">
        <time>2020-09-27T12:49:51Z</time>
      </trkpt>
      <trkpt lat="39.896163" lon="116.639535">
        <time>2020-09-27T12:49:56Z</time>
      </trkpt>
      <trkpt lat="39.896163" lon="116.639535">
        <time>2020-09-27T12:50:01Z</time>
      </trkpt>
      <trkpt lat="39.896184" lon="116.639645">
        <time>2020-09-27T12:50:06Z</time>
      </trkpt>
      <trkpt lat="39.89622" lon="116.639796">
        <time>2020-09-27T12:50:11Z</time>
      </trkpt>
      <trkpt lat="39.896206" lon="116.639896">
        <time>2020-09-27T12:50:16Z</time>
      </trkpt>
      <trkpt lat="39.896207" lon="116.639994">
        <time>2020-09-27T12:50:21Z</time>
      </trkpt>
      <trkpt lat="39.896207" lon="116.640156">
        <time>2020-09-27T12:50:26Z</time>
      </trkpt>
      <trkpt lat="39.896159" lon="116.640323">
        <time>2020-09-27T12:50:31Z</time>
      </trkpt>
      <trkpt lat="39.896138" lon="116.640495">
        <time>2020-09-27T12:50:36Z</time>
      </trkpt>
      <trkpt lat="39.896135" lon="116.640673">
        <time>2020-09-27T12:50:41Z</time>
      </trkpt>
      <trkpt lat="39.896131" lon="116.640828">
        <time>2020-09-27T12:50:46Z</time>
      </trkpt>
      <trkpt lat="39.896114" lon="116.640991">
        <time>2020-09-27T12:50:51Z</time>
      </trkpt>
      <trkpt lat="39.896116" lon="116.641157">
        <time>2020-09-27T12:50:56Z</time>
      </trkpt>
      <trkpt lat="39.896129" lon="116.641306">
        <time>2020-09-27T12:51:01Z</time>
      </trkpt>
      <trkpt lat="39.896166" lon="116.641462">
        <time>2020-09-27T12:51:06Z</time>
      </trkpt>
      <trkpt lat="39.8962" lon="116.641622">
        <time>2020-09-27T12:51:11Z</time>
      </trkpt>
      <trkpt lat="39.89618" lon="116.641759">
        <time>2020-09-27T12:51:16Z</time>
      </trkpt>
      <trkpt lat="39.896174" lon="116.641882">
        <time>2020-09-27T12:51:21Z</time>
      </trkpt>
      <trkpt lat="39.896197" lon="116.642039">
        <time>2020-09-27T12:51:26Z</time>
      </trkpt>
      <trkpt lat="39.8962" lon="116.642196">
        <time>2020-09-27T12:51:31Z</time>
      </trkpt>
      <trkpt lat="39.896174" lon="116.64233">
        <time>2020-09-27T12:51:36Z</time>
      </trkpt>
      <trkpt lat="39.89617" lon="116.642467">
        <time>2020-09-27T12:51:41Z</time>
      </trkpt>
      <trkpt lat="39.896172" lon="116.642595">
        <time>2020-09-27T12:51:46Z</time>
      </trkpt>
      <trkpt lat="39.89617" lon="116.642716">
        <time>2020-09-27T12:51:51Z</time>
      </trkpt>
      <trkpt lat="39.896162" lon="116.642857">
        <time>2020-09-27T12:51:56Z</time>
      </trkpt>
      <trkpt lat="39.896137" lon="116.642993">
        <time>2020-09-27T12:52:01Z</time>
      </trkpt>
      <trkpt lat="39.896114" lon="116.643129">
        <time>2020-09-27T12:52:06Z</time>
      </trkpt>
      <trkpt lat="39.896121" lon="116.643282">
        <time>2020-09-27T12:52:11Z</time>
      </trkpt>
      <trkpt lat="39.896154" lon="116.64341">
        <time>2020-09-27T12:52:16Z</time>
      </trkpt>
      <trkpt lat="39.89615" lon="116.643526">
        <time>2020-09-27T12:52:21Z</time>
      </trkpt>
      <trkpt lat="39.896142" lon="116.643643">
        <time>2020-09-27T12:52:26Z</time>
      </trkpt>
      <trkpt lat="39.896134" lon="116.64379">
        <time>2020-09-27T12:52:31Z</time>
      </trkpt>
      <trkpt lat="39.896114" lon="116.643903">
        <time>2020-09-27T12:52:36Z</time>
      </trkpt>
      <trkpt lat="39.896102" lon="116.644035">
        <time>2020-09-27T12:52:41Z</time>
      </trkpt>
      <trkpt lat="39.896101" lon="116.64417">
        <time>2020-09-27T12:52:46Z</time>
      </trkpt>
      <trkpt lat="39.896096" lon="116.6443">
        <time>2020-09-27T12:52:51Z</time>
      </trkpt>
      <trkpt lat="39.896114" lon="116.644437">
        <time>2020-09-27T12:52:56Z</time>
      </trkpt>
      <trkpt lat="39.896124" lon="116.644585">
        <time>2020-09-27T12:53:01Z</time>
      </trkpt>
      <trkpt lat="39.896152" lon="116.644733">
        <time>2020-09-27T12:53:06Z</time>
      </trkpt>
      <trkpt lat="39.896157" lon="116.644819">
        <time>2020-09-27T12:53:11Z</time>
      </trkpt>
      <trkpt lat="39.896155" lon="116.644924">
        <time>2020-09-27T12:53:16Z</time>
      </trkpt>
      <trkpt lat="39.896157" lon="116.645072">
        <time>2020-09-27T12:53:21Z</time>
      </trkpt>
      <trkpt lat="39.896148" lon="116.645203">
        <time>2020-09-27T12:53:26Z</time>
      </trkpt>
      <trkpt lat="39.89615" lon="116.645356">
        <time>2020-09-27T12:53:31Z</time>
      </trkpt>
      <trkpt lat="39.896144" lon="116.645534">
        <time>2020-09-27T12:53:36Z</time>
      </trkpt>
      <trkpt lat="39.896112" lon="116.645711">
        <time>2020-09-27T12:53:41Z</time>
      </trkpt>
      <trkpt lat="39.896077" lon="116.645853">
        <time>2020-09-27T12:53:46Z</time>
      </trkpt>
      <trkpt lat="39.896068" lon="116.645991">
        <time>2020-09-27T12:53:51Z</time>
      </trkpt>
      <trkpt lat="39.896068" lon="116.646132">
        <time>2020-09-27T12:53:56Z</time>
      </trkpt>
      <trkpt lat="39.896089" lon="116.646283">
        <time>2020-09-27T12:54:01Z</time>
      </trkpt>
      <trkpt lat="39.896107" lon="116.646454">
        <time>2020-09-27T12:54:06Z</time>
      </trkpt>
      <trkpt lat="39.896085" lon="116.646589">
        <time>2020-09-27T12:54:11Z</time>
      </trkpt>
      <trkpt lat="39.895983" lon="116.646651">
        <time>2020-09-27T12:54:16Z</time>
      </trkpt>
      <trkpt lat="39.895866" lon="116.646639">
        <time>2020-09-27T12:54:21Z</time>
      </trkpt>
      <trkpt lat="39.895745" lon="116.646581">
        <time>2020-09-27T12:54:26Z</time>
      </trkpt>
      <trkpt lat="39.895616" lon="116.646538">
        <time>2020-09-27T12:54:31Z</time>
      </trkpt>
      <trkpt lat="39.895507" lon="116.646501">
        <time>2020-09-27T12:54:36Z</time>
      </trkpt>
      <trkpt lat="39.895381" lon="116.646461">
        <time>2020-09-27T12:54:41Z</time>
      </trkpt>
      <trkpt lat="39.895285" lon="116.646407">
        <time>2020-09-27T12:54:46Z</time>
      </trkpt>
      <trkpt lat="39.895174" lon="116.646345">
        <time>2020-09-27T12:54:51Z</time>
      </trkpt>
      <trkpt lat="39.895086" lon="116.646293">
        <time>2020-09-27T12:54:56Z</time>
      </trkpt>
      <trkpt lat="39.894988" lon="116.646215">
        <time>2020-09-27T12:55:01Z</time>
      </trkpt>
      <trkpt lat="39.894894" lon="116.646181">
        <time>2020-09-27T12:55:06Z</time>
      </trkpt>
      <trkpt lat="39.894804" lon="116.64617">
        <time>2020-09-27T12:55:11Z</time>
      </trkpt>
      <trkpt lat="39.894711" lon="116.646135">
        <time>2020-09-27T12:55:16Z</time>
      </trkpt>
      <trkpt lat="39.89461" lon="116.64608">
        <time>2020-09-27T12:55:21Z</time>
      </trkpt>
      <trkpt lat="39.89449" lon="116.646009">
        <time>2020-09-27T12:55:26Z</time>
      </trkpt>
      <trkpt lat="39.894379" lon="116.645954">
        <time>2020-09-27T12:55:31Z</time>
      </trkpt>
      <trkpt lat="39.894268" lon="116.64592">
        <time>2020-09-27T12:55:36Z</time>
      </trkpt>
      <trkpt lat="39.894172" lon="116.645886">
        <time>2020-09-27T12:55:41Z</time>
      </trkpt>
      <trkpt lat="39.894085" lon="116.645846">
        <time>2020-09-27T12:55:46Z</time>
      </trkpt>
      <trkpt lat="39.89399" lon="116.645816">
        <time>2020-09-27T12:55:51Z</time>
      </trkpt>
      <trkpt lat="39.893898" lon="116.645861">
        <time>2020-09-27T12:55:56Z</time>
      </trkpt>
      <trkpt lat="39.893824" lon="116.645954">
        <time>2020-09-27T12:56:01Z</time>
      </trkpt>
      <trkpt lat="39.893773" lon="116.646058">
        <time>2020-09-27T12:56:06Z</time>
      </trkpt>
      <trkpt lat="39.893706" lon="116.646138">
        <time>2020-09-27T12:56:11Z</time>
      </trkpt>
      <trkpt lat="39.893622" lon="116.646189">
        <time>2020-09-27T12:56:16Z</time>
      </trkpt>
      <trkpt lat="39.893532" lon="116.646174">
        <time>2020-09-27T12:56:21Z</time>
      </trkpt>
      <trkpt lat="39.89343" lon="116.646138">
        <time>2020-09-27T12:56:26Z</time>
      </trkpt>
      <trkpt lat="39.893325" lon="116.646087">
        <time>2020-09-27T12:56:31Z</time>
      </trkpt>
      <trkpt lat="39.893225" lon="116.646026">
        <time>2020-09-27T12:56:36Z</time>
      </trkpt>
      <trkpt lat="39.893107" lon="116.645974">
        <time>2020-09-27T12:56:41Z</time>
      </trkpt>
      <trkpt lat="39.892982" lon="116.645895">
        <time>2020-09-27T12:56:46Z</time>
      </trkpt>
      <trkpt lat="39.892903" lon="116.645887">
        <time>2020-09-27T12:56:51Z</time>
      </trkpt>
      <trkpt lat="39.892804" lon="116.645861">
        <time>2020-09-27T12:56:56Z</time>
      </trkpt>
      <trkpt lat="39.892705" lon="116.645806">
        <time>2020-09-27T12:57:01Z</time>
      </trkpt>
      <trkpt lat="39.892603" lon="116.645766">
        <time>2020-09-27T12:57:06Z</time>
      </trkpt>
      <trkpt lat="39.892491" lon="116.645739">
        <time>2020-09-27T12:57:11Z</time>
      </trkpt>
      <trkpt lat="39.892384" lon="116.645692">
        <time>2020-09-27T12:57:16Z</time>
      </trkpt>
      <trkpt lat="39.892284" lon="116.645641">
        <time>2020-09-27T12:57:21Z</time>
      </trkpt>
      <trkpt lat="39.892186" lon="116.64557">
        <time>2020-09-27T12:57:26Z</time>
      </trkpt>
      <trkpt lat="39.892079" lon="116.645517">
        <time>2020-09-27T12:57:31Z</time>
      </trkpt>
      <trkpt lat="39.891973" lon="116.645486">
        <time>2020-09-27T12:57:36Z</time>
      </trkpt>
      <trkpt lat="39.891871" lon="116.64544">
        <time>2020-09-27T12:57:41Z</time>
      </trkpt>
      <trkpt lat="39.891766" lon="116.645363">
        <time>2020-09-27T12:57:46Z</time>
      </trkpt>
      <trkpt lat="39.891659" lon="116.645283">
        <time>2020-09-27T12:57:51Z</time>
      </trkpt>
      <trkpt lat="39.891593" lon="116.645254">
        <time>2020-09-27T12:57:56Z</time>
      </trkpt>
      <trkpt lat="39.891596" lon="116.645257">
        <time>2020-09-27T12:58:01Z</time>
      </trkpt>
      <trkpt lat="39.891659" lon="116.645231">
        <time>2020-09-27T12:58:06Z</time>
      </trkpt>
      <trkpt lat="39.891773" lon="116.645248">
        <time>2020-09-27T12:58:11Z</time>
      </trkpt>
      <trkpt lat="39.891897" lon="116.64527">
        <time>2020-09-27T12:58:16Z</time>
      </trkpt>
      <trkpt lat="39.892009" lon="116.645333">
        <time>2020-09-27T12:58:21Z</time>
      </trkpt>
      <trkpt lat="39.892111" lon="116.645377">
        <time>2020-09-27T12:58:26Z</time>
      </trkpt>
      <trkpt lat="39.892204" lon="116.645397">
        <time>2020-09-27T12:58:31Z</time>
      </trkpt>
      <trkpt lat="39.89227" lon="116.645448">
        <time>2020-09-27T12:58:36Z</time>
      </trkpt>
      <trkpt lat="39.892351" lon="116.645504">
        <time>2020-09-27T12:58:41Z</time>
      </trkpt>
      <trkpt lat="39.892448" lon="116.645546">
        <time>2020-09-27T12:58:46Z</time>
      </trkpt>
      <trkpt lat="39.892557" lon="116.645602">
        <time>2020-09-27T12:58:51Z</time>
      </trkpt>
      <trkpt lat="39.892649" lon="116.645698">
        <time>2020-09-27T12:58:56Z</time>
      </trkpt>
      <trkpt lat="39.892747" lon="116.645734">
        <time>2020-09-27T12:59:01Z</time>
      </trkpt>
      <trkpt lat="39.892873" lon="116.645727">
        <time>2020-09-27T12:59:06Z</time>
      </trkpt>
      <trkpt lat="39.892974" lon="116.645732">
        <time>2020-09-27T12:59:11Z</time>
      </trkpt>
      <trkpt lat="39.893061" lon="116.645764">
        <time>2020-09-27T12:59:16Z</time>
      </trkpt>
      <trkpt lat="39.893148" lon="116.645823">
        <time>2020-09-27T12:59:21Z</time>
      </trkpt>
      <trkpt lat="39.893247" lon="116.645876">
        <time>2020-09-27T12:59:26Z</time>
      </trkpt>
      <trkpt lat="39.893354" lon="116.645924">
        <time>2020-09-27T12:59:31Z</time>
      </trkpt>
      <trkpt lat="39.89346" lon="116.646015">
        <time>2020-09-27T12:59:36Z</time>
      </trkpt>
      <trkpt lat="39.893563" lon="116.646097">
        <time>2020-09-27T12:59:41Z</time>
      </trkpt>
      <trkpt lat="39.893656" lon="116.646134">
        <time>2020-09-27T12:59:46Z</time>
      </trkpt>
      <trkpt lat="39.893723" lon="116.646081">
        <time>2020-09-27T12:59:51Z</time>
      </trkpt>
      <trkpt lat="39.893794" lon="116.645985">
        <time>2020-09-27T12:59:56Z</time>
      </trkpt>
      <trkpt lat="39.893873" lon="116.64588">
        <time>2020-09-27T13:00:01Z</time>
      </trkpt>
      <trkpt lat="39.89393" lon="116.645775">
        <time>2020-09-27T13:00:06Z</time>
      </trkpt>
      <trkpt lat="39.894016" lon="116.64573">
        <time>2020-09-27T13:00:11Z</time>
      </trkpt>
      <trkpt lat="39.894096" lon="116.645749">
        <time>2020-09-27T13:00:16Z</time>
      </trkpt>
      <trkpt lat="39.894185" lon="116.645802">
        <time>2020-09-27T13:00:21Z</time>
      </trkpt>
      <trkpt lat="39.894303" lon="116.645847">
        <time>2020-09-27T13:00:26Z</time>
      </trkpt>
      <trkpt lat="39.894426" lon="116.645896">
        <time>2020-09-27T13:00:31Z</time>
      </trkpt>
      <trkpt lat="39.894538" lon="116.645947">
        <time>2020-09-27T13:00:36Z</time>
      </trkpt>
      <trkpt lat="39.894621" lon="116.645984">
        <time>2020-09-27T13:00:41Z</time>
      </trkpt>
      <trkpt lat="39.894715" lon="116.646033">
        <time>2020-09-27T13:00:46Z</time>
      </trkpt>
      <trkpt lat="39.894818" lon="116.64609">
        <time>2020-09-27T13:00:51Z</time>
      </trkpt>
      <trkpt lat="39.894902" lon="116.646132">
        <time>2020-09-27T13:00:56Z</time>
      </trkpt>
      <trkpt lat="39.895016" lon="116.646186">
        <time>2020-09-27T13:01:01Z</time>
      </trkpt>
      <trkpt lat="39.895102" lon="116.646237">
        <time>2020-09-27T13:01:06Z</time>
      </trkpt>
      <trkpt lat="39.895204" lon="116.646292">
        <time>2020-09-27T13:01:11Z</time>
      </trkpt>
      <trkpt lat="39.895302" lon="116.646332">
        <time>2020-09-27T13:01:16Z</time>
      </trkpt>
      <trkpt lat="39.895393" lon="116.646395">
        <time>2020-09-27T13:01:21Z</time>
      </trkpt>
      <trkpt lat="39.895495" lon="116.646451">
        <time>2020-09-27T13:01:26Z</time>
      </trkpt>
      <trkpt lat="39.895589" lon="116.646485">
        <time>2020-09-27T13:01:31Z</time>
      </trkpt>
      <trkpt lat="39.895685" lon="116.646518">
        <time>2020-09-27T13:01:36Z</time>
      </trkpt>
      <trkpt lat="39.895783" lon="116.646566">
        <time>2020-09-27T13:01:41Z</time>
      </trkpt>
      <trkpt lat="39.895893" lon="116.646602">
        <time>2020-09-27T13:01:46Z</time>
      </trkpt>
      <trkpt lat="39.896006" lon="116.646622">
        <time>2020-09-27T13:01:51Z</time>
      </trkpt>
      <trkpt lat="39.896066" lon="116.646589">
        <time>2020-09-27T13:01:56Z</time>
      </trkpt>
      <trkpt lat="39.89607" lon="116.646484">
        <time>2020-09-27T13:02:01Z</time>
      </trkpt>
      <trkpt lat="39.896098" lon="116.646336">
        <time>2020-09-27T13:02:06Z</time>
      </trkpt>
      <trkpt lat="39.896107" lon="116.646203">
        <time>2020-09-27T13:02:11Z</time>
      </trkpt>
      <trkpt lat="39.8961" lon="116.646071">
        <time>2020-09-27T13:02:16Z</time>
      </trkpt>
      <trkpt lat="39.896114" lon="116.645932">
        <time>2020-09-27T13:02:21Z</time>
      </trkpt>
      <trkpt lat="39.896121" lon="116.645803">
        <time>2020-09-27T13:02:26Z</time>
      </trkpt>
      <trkpt lat="39.896132" lon="116.645679">
        <time>2020-09-27T13:02:31Z</time>
      </trkpt>
      <trkpt lat="39.896145" lon="116.645545">
        <time>2020-09-27T13:02:36Z</time>
      </trkpt>
      <trkpt lat="39.896164" lon="116.645405">
        <time>2020-09-27T13:02:41Z</time>
      </trkpt>
      <trkpt lat="39.896184" lon="116.64529">
        <time>2020-09-27T13:02:46Z</time>
      </trkpt>
      <trkpt lat="39.896189" lon="116.645154">
        <time>2020-09-27T13:02:51Z</time>
      </trkpt>
      <trkpt lat="39.896182" lon="116.645037">
        <time>2020-09-27T13:02:56Z</time>
      </trkpt>
      <trkpt lat="39.896192" lon="116.644937">
        <time>2020-09-27T13:03:01Z</time>
      </trkpt>
      <trkpt lat="39.896206" lon="116.644874">
        <time>2020-09-27T13:03:06Z</time>
      </trkpt>
      <trkpt lat="39.896204" lon="116.644798">
        <time>2020-09-27T13:03:11Z</time>
      </trkpt>
      <trkpt lat="39.896225" lon="116.644679">
        <time>2020-09-27T13:03:16Z</time>
      </trkpt>
      <trkpt lat="39.89626" lon="116.644555">
        <time>2020-09-27T13:03:21Z</time>
      </trkpt>
      <trkpt lat="39.896266" lon="116.644433">
        <time>2020-09-27T13:03:26Z</time>
      </trkpt>
      <trkpt lat="39.896261" lon="116.644304">
        <time>2020-09-27T13:03:31Z</time>
      </trkpt>
      <trkpt lat="39.896241" lon="116.64416">
        <time>2020-09-27T13:03:36Z</time>
      </trkpt>
      <trkpt lat="39.896237" lon="116.644018">
        <time>2020-09-27T13:03:41Z</time>
      </trkpt>
      <trkpt lat="39.896225" lon="116.643879">
        <time>2020-09-27T13:03:46Z</time>
      </trkpt>
      <trkpt lat="39.896232" lon="116.643756">
        <time>2020-09-27T13:03:51Z</time>
      </trkpt>
      <trkpt lat="39.896235" lon="116.643619">
        <time>2020-09-27T13:03:56Z</time>
      </trkpt>
      <trkpt lat="39.896244" lon="116.643484">
        <time>2020-09-27T13:04:01Z</time>
      </trkpt>
      <trkpt lat="39.896225" lon="116.643339">
        <time>2020-09-27T13:04:06Z</time>
      </trkpt>
      <trkpt lat="39.896199" lon="116.643199">
        <time>2020-09-27T13:04:11Z</time>
      </trkpt>
      <trkpt lat="39.8962" lon="116.643057">
        <time>2020-09-27T13:04:16Z</time>
      </trkpt>
      <trkpt lat="39.896188" lon="116.642913">
        <time>2020-09-27T13:04:21Z</time>
      </trkpt>
      <trkpt lat="39.896177" lon="116.642786">
        <time>2020-09-27T13:04:26Z</time>
      </trkpt>
      <trkpt lat="39.896195" lon="116.642665">
        <time>2020-09-27T13:04:31Z</time>
      </trkpt>
      <trkpt lat="39.896193" lon="116.642571">
        <time>2020-09-27T13:04:36Z</time>
      </trkpt>
      <trkpt lat="39.896202" lon="116.642458">
        <time>2020-09-27T13:04:41Z</time>
      </trkpt>
      <trkpt lat="39.896205" lon="116.642322">
        <time>2020-09-27T13:04:46Z</time>
      </trkpt>
      <trkpt lat="39.896213" lon="116.64218">
        <time>2020-09-27T13:04:51Z</time>
      </trkpt>
      <trkpt lat="39.896216" lon="116.642033">
        <time>2020-09-27T13:04:56Z</time>
      </trkpt>
      <trkpt lat="39.896205" lon="116.641892">
        <time>2020-09-27T13:05:01Z</time>
      </trkpt>
      <trkpt lat="39.896211" lon="116.641772">
        <time>2020-09-27T13:05:06Z</time>
      </trkpt>
      <trkpt lat="39.896222" lon="116.641637">
        <time>2020-09-27T13:05:11Z</time>
      </trkpt>
      <trkpt lat="39.89623" lon="116.641485">
        <time>2020-09-27T13:05:16Z</time>
      </trkpt>
      <trkpt lat="39.896245" lon="116.641377">
        <time>2020-09-27T13:05:21Z</time>
      </trkpt>
      <trkpt lat="39.896245" lon="116.641236">
        <time>2020-09-27T13:05:26Z</time>
      </trkpt>
      <trkpt lat="39.896244" lon="116.641065">
        <time>2020-09-27T13:05:31Z</time>
      </trkpt>
      <trkpt lat="39.896238" lon="116.640917">
        <time>2020-09-27T13:05:36Z</time>
      </trkpt>
      <trkpt lat="39.89625" lon="116.640799">
        <time>2020-09-27T13:05:41Z</time>
      </trkpt>
      <trkpt lat="39.896283" lon="116.640677">
        <time>2020-09-27T13:05:46Z</time>
      </trkpt>
      <trkpt lat="39.896297" lon="116.640541">
        <time>2020-09-27T13:05:51Z</time>
      </trkpt>
      <trkpt lat="39.896307" lon="116.640388">
        <time>2020-09-27T13:05:56Z</time>
      </trkpt>
      <trkpt lat="39.896321" lon="116.640273">
        <time>2020-09-27T13:06:01Z</time>
      </trkpt>
      <trkpt lat="39.89632" lon="116.640132">
        <time>2020-09-27T13:06:06Z</time>
      </trkpt>
      <trkpt lat="39.896321" lon="116.639984">
        <time>2020-09-27T13:06:11Z</time>
      </trkpt>
      <trkpt lat="39.896297" lon="116.639836">
        <time>2020-09-27T13:06:16Z</time>
      </trkpt>
      <trkpt lat="39.896289" lon="116.639689">
        <time>2020-09-27T13:06:21Z</time>
      </trkpt>
      <trkpt lat="39.896286" lon="116.639582">
        <time>2020-09-27T13:06:26Z</time>
      </trkpt>
      <trkpt lat="39.896275" lon="116.639493">
        <time>2020-09-27T13:06:31Z</time>
      </trkpt>
      <trkpt lat="39.896272" lon="116.639371">
        <time>2020-09-27T13:06:36Z</time>
      </trkpt>
      <trkpt lat="39.89626" lon="116.639234">
        <time>2020-09-27T13:06:41Z</time>
      </trkpt>
      <trkpt lat="39.896232" lon="116.639088">
        <time>2020-09-27T13:06:46Z</time>
      </trkpt>
      <trkpt lat="39.896227" lon="116.638936">
        <time>2020-09-27T13:06:51Z</time>
      </trkpt>
      <trkpt lat="39.896219" lon="116.638796">
        <time>2020-09-27T13:06:56Z</time>
      </trkpt>
      <trkpt lat="39.896178" lon="116.638647">
        <time>2020-09-27T13:07:01Z</time>
      </trkpt>
      <trkpt lat="39.896155" lon="116.638504">
        <time>2020-09-27T13:07:06Z</time>
      </trkpt>
      <trkpt lat="39.896179" lon="116.638376">
        <time>2020-09-27T13:07:11Z</time>
      </trkpt>
      <trkpt lat="39.8962" lon="116.638243">
        <time>2020-09-27T13:07:16Z</time>
      </trkpt>
      <trkpt lat="39.896195" lon="116.638108">
        <time>2020-09-27T13:07:21Z</time>
      </trkpt>
      <trkpt lat="39.89621" lon="116.637971">
        <time>2020-09-27T13:07:26Z</time>
      </trkpt>
      <trkpt lat="39.896201" lon="116.637838">
        <time>2020-09-27T13:07:31Z</time>
      </trkpt>
      <trkpt lat="39.896198" lon="116.637705">
        <time>2020-09-27T13:07:36Z</time>
      </trkpt>
      <trkpt lat="39.896192" lon="116.637573">
        <time>2020-09-27T13:07:41Z</time>
      </trkpt>
      <trkpt lat="39.896207" lon="116.637435">
        <time>2020-09-27T13:07:46Z</time>
      </trkpt>
      <trkpt lat="39.896213" lon="116.637285">
        <time>2020-09-27T13:07:51Z</time>
      </trkpt>
      <trkpt lat="39.896204" lon="116.637145">
        <time>2020-09-27T13:07:56Z</time>
      </trkpt>
      <trkpt lat="39.896186" lon="116.637008">
        <time>2020-09-27T13:08:01Z</time>
      </trkpt>
      <trkpt lat="39.896134" lon="116.636873">
        <time>2020-09-27T13:08:06Z</time>
      </trkpt>
      <trkpt lat="39.896098" lon="116.636753">
        <time>2020-09-27T13:08:11Z</time>
      </trkpt>
      <trkpt lat="39.896041" lon="116.63668">
        <time>2020-09-27T13:08:16Z</time>
      </trkpt>
      <trkpt lat="39.896062" lon="116.636736">
        <time>2020-09-27T13:08:21Z</time>
      </trkpt>
      <trkpt lat="39.896118" lon="116.636865">
        <time>2020-09-27T13:08:26Z</time>
      </trkpt>
      <trkpt lat="39.896163" lon="116.637018">
        <time>2020-09-27T13:08:31Z</time>
      </trkpt>
      <trkpt lat="39.896201" lon="116.637156">
        <time>2020-09-27T13:08:36Z</time>
      </trkpt>
      <trkpt lat="39.896207" lon="116.63729">
        <time>2020-09-27T13:08:41Z</time>
      </trkpt>
      <trkpt lat="39.896207" lon="116.637422">
        <time>2020-09-27T13:08:46Z</time>
      </trkpt>
      <trkpt lat="39.896211" lon="116.637506">
        <time>2020-09-27T13:08:51Z</time>
      </trkpt>
      <trkpt lat="39.896216" lon="116.637596">
        <time>2020-09-27T13:08:56Z</time>
      </trkpt>
      <trkpt lat="39.896217" lon="116.637701">
        <time>2020-09-27T13:09:01Z</time>
      </trkpt>
      <trkpt lat="39.896223" lon="116.637802">
        <time>2020-09-27T13:09:06Z</time>
      </trkpt>
      <trkpt lat="39.89624" lon="116.637924">
        <time>2020-09-27T13:09:11Z</time>
      </trkpt>
      <trkpt lat="39.89624" lon="116.638086">
        <time>2020-09-27T13:09:16Z</time>
      </trkpt>
      <trkpt lat="39.896215" lon="116.63824">
        <time>2020-09-27T13:09:21Z</time>
      </trkpt>
      <trkpt lat="39.896203" lon="116.638405">
        <time>2020-09-27T13:09:26Z</time>
      </trkpt>
      <trkpt lat="39.89622" lon="116.638606">
        <time>2020-09-27T13:09:31Z</time>
      </trkpt>
      <trkpt lat="39.896228" lon="116.638784">
        <time>2020-09-27T13:09:36Z</time>
      </trkpt>
      <trkpt lat="39.896237" lon="116.638944">
        <time>2020-09-27T13:09:41Z</time>
      </trkpt>
      <trkpt lat="39.896258" lon="116.639088">
        <time>2020-09-27T13:09:46Z</time>
      </trkpt>
      <trkpt lat="39.896279" lon="116.639221">
        <time>2020-09-27T13:09:51Z</time>
      </trkpt>
      <trkpt lat="39.896272" lon="116.639367">
        <time>2020-09-27T13:09:56Z</time>
      </trkpt>
      <trkpt lat="39.896277" lon="116.639519">
        <time>2020-09-27T13:10:01Z</time>
      </trkpt>
      <trkpt lat="39.896277" lon="116.639658">
        <time>2020-09-27T13:10:06Z</time>
      </trkpt>
      <trkpt lat="39.896269" lon="116.6398">
        <time>2020-09-27T13:10:11Z</time>
      </trkpt>
      <trkpt lat="39.89628" lon="116.639947">
        <time>2020-09-27T13:10:16Z</time>
      </trkpt>
      <trkpt lat="39.896269" lon="116.640123">
        <time>2020-09-27T13:10:21Z</time>
      </trkpt>
      <trkpt lat="39.896282" lon="116.640265">
        <time>2020-09-27T13:10:26Z</time>
      </trkpt>
      <trkpt lat="39.896304" lon="116.640402">
        <time>2020-09-27T13:10:31Z</time>
      </trkpt>
      <trkpt lat="39.896263" lon="116.640573">
        <time>2020-09-27T13:10:36Z</time>
      </trkpt>
      <trkpt lat="39.896248" lon="116.640743">
        <time>2020-09-27T13:10:41Z</time>
      </trkpt>
      <trkpt lat="39.896231" lon="116.640881">
        <time>2020-09-27T13:10:46Z</time>
      </trkpt>
      <trkpt lat="39.89622" lon="116.640982">
        <time>2020-09-27T13:10:51Z</time>
      </trkpt>
      <trkpt lat="39.896228" lon="116.641079">
        <time>2020-09-27T13:10:56Z</time>
      </trkpt>
      <trkpt lat="39.896246" lon="116.641193">
        <time>2020-09-27T13:11:01Z</time>
      </trkpt>
      <trkpt lat="39.896244" lon="116.641293">
        <time>2020-09-27T13:11:06Z</time>
      </trkpt>
      <trkpt lat="39.896246" lon="116.641406">
        <time>2020-09-27T13:11:11Z</time>
      </trkpt>
      <trkpt lat="39.896223" lon="116.641551">
        <time>2020-09-27T13:11:16Z</time>
      </trkpt>
      <trkpt lat="39.896222" lon="116.641722">
        <time>2020-09-27T13:11:21Z</time>
      </trkpt>
      <trkpt lat="39.896223" lon="116.641893">
        <time>2020-09-27T13:11:26Z</time>
      </trkpt>
      <trkpt lat="39.896245" lon="116.64205">
        <time>2020-09-27T13:11:31Z</time>
      </trkpt>
      <trkpt lat="39.896245" lon="116.642173">
        <time>2020-09-27T13:11:36Z</time>
      </trkpt>
      <trkpt lat="39.89624" lon="116.642284">
        <time>2020-09-27T13:11:41Z</time>
      </trkpt>
      <trkpt lat="39.896242" lon="116.642384">
        <time>2020-09-27T13:11:46Z</time>
      </trkpt>
      <trkpt lat="39.896263" lon="116.642508">
        <time>2020-09-27T13:11:51Z</time>
      </trkpt>
      <trkpt lat="39.896255" lon="116.642652">
        <time>2020-09-27T13:11:56Z</time>
      </trkpt>
      <trkpt lat="39.896245" lon="116.642783">
        <time>2020-09-27T13:12:01Z</time>
      </trkpt>
      <trkpt lat="39.896243" lon="116.642907">
        <time>2020-09-27T13:12:06Z</time>
      </trkpt>
      <trkpt lat="39.896232" lon="116.643045">
        <time>2020-09-27T13:12:11Z</time>
      </trkpt>
      <trkpt lat="39.89622" lon="116.643165">
        <time>2020-09-27T13:12:16Z</time>
      </trkpt>
      <trkpt lat="39.896201" lon="116.64326">
        <time>2020-09-27T13:12:21Z</time>
      </trkpt>
      <trkpt lat="39.896189" lon="116.643358">
        <time>2020-09-27T13:12:26Z</time>
      </trkpt>
      <trkpt lat="39.896204" lon="116.643487">
        <time>2020-09-27T13:12:31Z</time>
      </trkpt>
      <trkpt lat="39.896225" lon="116.643635">
        <time>2020-09-27T13:12:36Z</time>
      </trkpt>
      <trkpt lat="39.896219" lon="116.643754">
        <time>2020-09-27T13:12:41Z</time>
      </trkpt>
      <trkpt lat="39.89625" lon="116.643877">
        <time>2020-09-27T13:12:46Z</time>
      </trkpt>
      <trkpt lat="39.896245" lon="116.644007">
        <time>2020-09-27T13:12:51Z</time>
      </trkpt>
      <trkpt lat="39.896242" lon="116.644126">
        <time>2020-09-27T13:12:56Z</time>
      </trkpt>
      <trkpt lat="39.89624" lon="116.644264">
        <time>2020-09-27T13:13:01Z</time>
      </trkpt>
      <trkpt lat="39.896243" lon="116.64439">
        <time>2020-09-27T13:13:06Z</time>
      </trkpt>
      <trkpt lat="39.896237" lon="116.644508">
        <time>2020-09-27T13:13:11Z</time>
      </trkpt>
      <trkpt lat="39.896235" lon="116.644636">
        <time>2020-09-27T13:13:16Z</time>
      </trkpt>
      <trkpt lat="39.896233" lon="116.644764">
        <time>2020-09-27T13:13:21Z</time>
      </trkpt>
      <trkpt lat="39.896227" lon="116.644874">
        <time>2020-09-27T13:13:26Z</time>
      </trkpt>
      <trkpt lat="39.896229" lon="116.645006">
        <time>2020-09-27T13:13:31Z</time>
      </trkpt>
      <trkpt lat="39.896245" lon="116.645154">
        <time>2020-09-27T13:13:36Z</time>
      </trkpt>
      <trkpt lat="39.896245" lon="116.645278">
        <time>2020-09-27T13:13:41Z</time>
      </trkpt>
      <trkpt lat="39.896215" lon="116.645423">
        <time>2020-09-27T13:13:46Z</time>
      </trkpt>
      <trkpt lat="39.896181" lon="116.645538">
        <time>2020-09-27T13:13:51Z</time>
      </trkpt>
      <trkpt lat="39.896168" lon="116.645649">
        <time>2020-09-27T13:13:56Z</time>
      </trkpt>
      <trkpt lat="39.896113" lon="116.645773">
        <time>2020-09-27T13:14:01Z</time>
      </trkpt>
      <trkpt lat="39.896094" lon="116.645906">
        <time>2020-09-27T13:14:06Z</time>
      </trkpt>
      <trkpt lat="39.896074" lon="116.646031">
        <time>2020-09-27T13:14:11Z</time>
      </trkpt>
      <trkpt lat="39.896061" lon="116.646176">
        <time>2020-09-27T13:14:16Z</time>
      </trkpt>
      <trkpt lat="39.896071" lon="116.646326">
        <time>2020-09-27T13:14:21Z</time>
      </trkpt>
      <trkpt lat="39.896069" lon="116.64647">
        <time>2020-09-27T13:14:26Z</time>
      </trkpt>
      <trkpt lat="39.896028" lon="116.646621">
        <time>2020-09-27T13:14:31Z</time>
      </trkpt>
      <trkpt lat="39.895943" lon="116.646696">
        <time>2020-09-27T13:14:36Z</time>
      </trkpt>
      <trkpt lat="39.895807" lon="116.646698">
        <time>2020-09-27T13:14:41Z</time>
      </trkpt>
      <trkpt lat="39.895698" lon="116.646662">
        <time>2020-09-27T13:14:46Z</time>
      </trkpt>
      <trkpt lat="39.895614" lon="116.646625">
        <time>2020-09-27T13:14:51Z</time>
      </trkpt>
      <trkpt lat="39.895525" lon="116.646587">
        <time>2020-09-27T13:14:56Z</time>
      </trkpt>
      <trkpt lat="39.895439" lon="116.646561">
        <time>2020-09-27T13:15:01Z</time>
      </trkpt>
      <trkpt lat="39.895358" lon="116.646521">
        <time>2020-09-27T13:15:06Z</time>
      </trkpt>
      <trkpt lat="39.895267" lon="116.646472">
        <time>2020-09-27T13:15:11Z</time>
      </trkpt>
      <trkpt lat="39.895162" lon="116.646399">
        <time>2020-09-27T13:15:16Z</time>
      </trkpt>
      <trkpt lat="39.895077" lon="116.646344">
        <time>2020-09-27T13:15:21Z</time>
      </trkpt>
      <trkpt lat="39.89499" lon="116.646274">
        <time>2020-09-27T13:15:26Z</time>
      </trkpt>
      <trkpt lat="39.894889" lon="116.646237">
        <time>2020-09-27T13:15:31Z</time>
      </trkpt>
      <trkpt lat="39.894789" lon="116.646207">
        <time>2020-09-27T13:15:36Z</time>
      </trkpt>
      <trkpt lat="39.894674" lon="116.646191">
        <time>2020-09-27T13:15:41Z</time>
      </trkpt>
      <trkpt lat="39.894565" lon="116.646168">
        <time>2020-09-27T13:15:46Z</time>
      </trkpt>
      <trkpt lat="39.894438" lon="116.646113">
        <time>2020-09-27T13:15:51Z</time>
      </trkpt>
      <trkpt lat="39.894324" lon="116.646064">
        <time>2020-09-27T13:15:56Z</time>
      </trkpt>
      <trkpt lat="39.894219" lon="116.646012">
        <time>2020-09-27T13:16:01Z</time>
      </trkpt>
      <trkpt lat="39.894126" lon="116.645973">
        <time>2020-09-27T13:16:06Z</time>
      </trkpt>
      <trkpt lat="39.894031" lon="116.645907">
        <time>2020-09-27T13:16:11Z</time>
      </trkpt>
      <trkpt lat="39.893936" lon="116.645899">
        <time>2020-09-27T13:16:16Z</time>
      </trkpt>
      <trkpt lat="39.89387" lon="116.645974">
        <time>2020-09-27T13:16:21Z</time>
      </trkpt>
      <trkpt lat="39.893807" lon="116.646068">
        <time>2020-09-27T13:16:26Z</time>
      </trkpt>
      <trkpt lat="39.893739" lon="116.646158">
        <time>2020-09-27T13:16:31Z</time>
      </trkpt>
      <trkpt lat="39.893665" lon="116.646232">
        <time>2020-09-27T13:16:36Z</time>
      </trkpt>
      <trkpt lat="39.893571" lon="116.646266">
        <time>2020-09-27T13:16:41Z</time>
      </trkpt>
      <trkpt lat="39.893459" lon="116.646229">
        <time>2020-09-27T13:16:46Z</time>
      </trkpt>
      <trkpt lat="39.893363" lon="116.646203">
        <time>2020-09-27T13:16:51Z</time>
      </trkpt>
      <trkpt lat="39.893263" lon="116.646161">
        <time>2020-09-27T13:16:56Z</time>
      </trkpt>
      <trkpt lat="39.893184" lon="116.646135">
        <time>2020-09-27T13:17:01Z</time>
      </trkpt>
      <trkpt lat="39.893095" lon="116.646099">
        <time>2020-09-27T13:17:06Z</time>
      </trkpt>
      <trkpt lat="39.892996" lon="116.646054">
        <time>2020-09-27T13:17:11Z</time>
      </trkpt>
      <trkpt lat="39.892891" lon="116.646013">
        <time>2020-09-27T13:17:16Z</time>
      </trkpt>
      <trkpt lat="39.89278" lon="116.645968">
        <time>2020-09-27T13:17:21Z</time>
      </trkpt>
      <trkpt lat="39.892674" lon="116.645928">
        <time>2020-09-27T13:17:26Z</time>
      </trkpt>
      <trkpt lat="39.89258" lon="116.645886">
        <time>2020-09-27T13:17:31Z</time>
      </trkpt>
      <trkpt lat="39.892491" lon="116.645858">
        <time>2020-09-27T13:17:36Z</time>
      </trkpt>
      <trkpt lat="39.892417" lon="116.645841">
        <time>2020-09-27T13:17:41Z</time>
      </trkpt>
      <trkpt lat="39.892309" lon="116.645797">
        <time>2020-09-27T13:17:46Z</time>
      </trkpt>
      <trkpt lat="39.892201" lon="116.645743">
        <time>2020-09-27T13:17:51Z</time>
      </trkpt>
      <trkpt lat="39.892104" lon="116.645675">
        <time>2020-09-27T13:17:56Z</time>
      </trkpt>
      <trkpt lat="39.892002" lon="116.645613">
        <time>2020-09-27T13:18:01Z</time>
      </trkpt>
      <trkpt lat="39.891913" lon="116.645582">
        <time>2020-09-27T13:18:06Z</time>
      </trkpt>
      <trkpt lat="39.891821" lon="116.6455">
        <time>2020-09-27T13:18:11Z</time>
      </trkpt>
      <trkpt lat="39.891727" lon="116.645401">
        <time>2020-09-27T13:18:16Z</time>
      </trkpt>
      <trkpt lat="39.891632" lon="116.645323">
        <time>2020-09-27T13:18:21Z</time>
      </trkpt>
      <trkpt lat="39.891608" lon="116.645304">
        <time>2020-09-27T13:18:26Z</time>
      </trkpt>
      <trkpt lat="39.891663" lon="116.64532">
        <time>2020-09-27T13:18:31Z</time>
      </trkpt>
      <trkpt lat="39.891733" lon="116.645339">
        <time>2020-09-27T13:18:36Z</time>
      </trkpt>
      <trkpt lat="39.891797" lon="116.645372">
        <time>2020-09-27T13:18:41Z</time>
      </trkpt>
      <trkpt lat="39.891867" lon="116.645386">
        <time>2020-09-27T13:18:46Z</time>
      </trkpt>
      <trkpt lat="39.891939" lon="116.645423">
        <time>2020-09-27T13:18:51Z</time>
      </trkpt>
      <trkpt lat="39.892047" lon="116.645434">
        <time>2020-09-27T13:18:56Z</time>
      </trkpt>
      <trkpt lat="39.892142" lon="116.645451">
        <time>2020-09-27T13:19:01Z</time>
      </trkpt>
      <trkpt lat="39.892264" lon="116.645466">
        <time>2020-09-27T13:19:06Z</time>
      </trkpt>
      <trkpt lat="39.892371" lon="116.645506">
        <time>2020-09-27T13:19:11Z</time>
      </trkpt>
      <trkpt lat="39.892501" lon="116.645556">
        <time>2020-09-27T13:19:16Z</time>
      </trkpt>
      <trkpt lat="39.892601" lon="116.645608">
        <time>2020-09-27T13:19:21Z</time>
      </trkpt>
      <trkpt lat="39.892692" lon="116.645671">
        <time>2020-09-27T13:19:26Z</time>
      </trkpt>
      <trkpt lat="39.892772" lon="116.645712">
        <time>2020-09-27T13:19:31Z</time>
      </trkpt>
      <trkpt lat="39.892903" lon="116.645722">
        <time>2020-09-27T13:19:36Z</time>
      </trkpt>
      <trkpt lat="39.893017" lon="116.645752">
        <time>2020-09-27T13:19:41Z</time>
      </trkpt>
      <trkpt lat="39.893119" lon="116.645791">
        <time>2020-09-27T13:19:46Z</time>
      </trkpt>
      <trkpt lat="39.893223" lon="116.64584">
        <time>2020-09-27T13:19:51Z</time>
      </trkpt>
      <trkpt lat="39.893336" lon="116.645887">
        <time>2020-09-27T13:19:56Z</time>
      </trkpt>
      <trkpt lat="39.893453" lon="116.645918">
        <time>2020-09-27T13:20:01Z</time>
      </trkpt>
      <trkpt lat="39.893555" lon="116.645974">
        <time>2020-09-27T13:20:06Z</time>
      </trkpt>
      <trkpt lat="39.893671" lon="116.646051">
        <time>2020-09-27T13:20:11Z</time>
      </trkpt>
      <trkpt lat="39.893766" lon="116.646078">
        <time>2020-09-27T13:20:16Z</time>
      </trkpt>
      <trkpt lat="39.893811" lon="116.646063">
        <time>2020-09-27T13:20:21Z</time>
      </trkpt>
      <trkpt lat="39.893855" lon="116.645994">
        <time>2020-09-27T13:20:26Z</time>
      </trkpt>
      <trkpt lat="39.893912" lon="116.645936">
        <time>2020-09-27T13:20:31Z</time>
      </trkpt>
      <trkpt lat="39.893967" lon="116.645847">
        <time>2020-09-27T13:20:36Z</time>
      </trkpt>
      <trkpt lat="39.894054" lon="116.645789">
        <time>2020-09-27T13:20:41Z</time>
      </trkpt>
      <trkpt lat="39.894166" lon="116.645827">
        <time>2020-09-27T13:20:46Z</time>
      </trkpt>
      <trkpt lat="39.894288" lon="116.64588">
        <time>2020-09-27T13:20:51Z</time>
      </trkpt>
      <trkpt lat="39.894388" lon="116.645937">
        <time>2020-09-27T13:20:56Z</time>
      </trkpt>
      <trkpt lat="39.894466" lon="116.646017">
        <time>2020-09-27T13:21:01Z</time>
      </trkpt>
      <trkpt lat="39.894555" lon="116.646048">
        <time>2020-09-27T13:21:06Z</time>
      </trkpt>
      <trkpt lat="39.894662" lon="116.64608">
        <time>2020-09-27T13:21:11Z</time>
      </trkpt>
      <trkpt lat="39.894769" lon="116.646132">
        <time>2020-09-27T13:21:16Z</time>
      </trkpt>
      <trkpt lat="39.894849" lon="116.646195">
        <time>2020-09-27T13:21:21Z</time>
      </trkpt>
      <trkpt lat="39.894921" lon="116.646215">
        <time>2020-09-27T13:21:26Z</time>
      </trkpt>
      <trkpt lat="39.894985" lon="116.646255">
        <time>2020-09-27T13:21:31Z</time>
      </trkpt>
      <trkpt lat="39.895052" lon="116.646295">
        <time>2020-09-27T13:21:36Z</time>
      </trkpt>
      <trkpt lat="39.895099" lon="116.646331">
        <time>2020-09-27T13:21:41Z</time>
      </trkpt>
      <trkpt lat="39.89516" lon="116.646356">
        <time>2020-09-27T13:21:46Z</time>
      </trkpt>
      <trkpt lat="39.895236" lon="116.646392">
        <time>2020-09-27T13:21:51Z</time>
      </trkpt>
      <trkpt lat="39.895316" lon="116.646426">
        <time>2020-09-27T13:21:56Z</time>
      </trkpt>
      <trkpt lat="39.895395" lon="116.646458">
        <time>2020-09-27T13:22:01Z</time>
      </trkpt>
      <trkpt lat="39.895489" lon="116.646503">
        <time>2020-09-27T13:22:06Z</time>
      </trkpt>
      <trkpt lat="39.895595" lon="116.646545">
        <time>2020-09-27T13:22:11Z</time>
      </trkpt>
      <trkpt lat="39.895747" lon="116.646569">
        <time>2020-09-27T13:22:16Z</time>
      </trkpt>
      <trkpt lat="39.895837" lon="116.646618">
        <time>2020-09-27T13:22:21Z</time>
      </trkpt>
      <trkpt lat="39.895942" lon="116.646665">
        <time>2020-09-27T13:22:26Z</time>
      </trkpt>
      <trkpt lat="39.896051" lon="116.646691">
        <time>2020-09-27T13:22:31Z</time>
      </trkpt>
      <trkpt lat="39.896109" lon="116.646613">
        <time>2020-09-27T13:22:36Z</time>
      </trkpt>
      <trkpt lat="39.896109" lon="116.646486">
        <time>2020-09-27T13:22:41Z</time>
      </trkpt>
      <trkpt lat="39.896096" lon="116.646351">
        <time>2020-09-27T13:22:46Z</time>
      </trkpt>
      <trkpt lat="39.896087" lon="116.646213">
        <time>2020-09-27T13:22:51Z</time>
      </trkpt>
      <trkpt lat="39.896087" lon="116.646068">
        <time>2020-09-27T13:22:56Z</time>
      </trkpt>
      <trkpt lat="39.896104" lon="116.645919">
        <time>2020-09-27T13:23:01Z</time>
      </trkpt>
      <trkpt lat="39.896118" lon="116.645789">
        <time>2020-09-27T13:23:06Z</time>
      </trkpt>
      <trkpt lat="39.896153" lon="116.645665">
        <time>2020-09-27T13:23:11Z</time>
      </trkpt>
      <trkpt lat="39.896182" lon="116.645527">
        <time>2020-09-27T13:23:16Z</time>
      </trkpt>
      <trkpt lat="39.896217" lon="116.645383">
        <time>2020-09-27T13:23:21Z</time>
      </trkpt>
      <trkpt lat="39.896232" lon="116.645251">
        <time>2020-09-27T13:23:26Z</time>
      </trkpt>
      <trkpt lat="39.896237" lon="116.64512">
        <time>2020-09-27T13:23:31Z</time>
      </trkpt>
      <trkpt lat="39.896229" lon="116.644968">
        <time>2020-09-27T13:23:36Z</time>
      </trkpt>
      <trkpt lat="39.896224" lon="116.644839">
        <time>2020-09-27T13:23:41Z</time>
      </trkpt>
      <trkpt lat="39.896228" lon="116.644703">
        <time>2020-09-27T13:23:46Z</time>
      </trkpt>
      <trkpt lat="39.896227" lon="116.644571">
        <time>2020-09-27T13:23:51Z</time>
      </trkpt>
      <trkpt lat="39.896251" lon="116.644457">
        <time>2020-09-27T13:23:56Z</time>
      </trkpt>
      <trkpt lat="39.896251" lon="116.644321">
        <time>2020-09-27T13:24:01Z</time>
      </trkpt>
      <trkpt lat="39.896252" lon="116.644183">
        <time>2020-09-27T13:24:06Z</time>
      </trkpt>
      <trkpt lat="39.896248" lon="116.644044">
        <time>2020-09-27T13:24:11Z</time>
      </trkpt>
      <trkpt lat="39.896239" lon="116.643902">
        <time>2020-09-27T13:24:16Z</time>
      </trkpt>
      <trkpt lat="39.896234" lon="116.643771">
        <time>2020-09-27T13:24:21Z</time>
      </trkpt>
      <trkpt lat="39.896223" lon="116.643631">
        <time>2020-09-27T13:24:26Z</time>
      </trkpt>
      <trkpt lat="39.896212" lon="116.643494">
        <time>2020-09-27T13:24:31Z</time>
      </trkpt>
      <trkpt lat="39.896195" lon="116.64338">
        <time>2020-09-27T13:24:36Z</time>
      </trkpt>
      <trkpt lat="39.896189" lon="116.643253">
        <time>2020-09-27T13:24:41Z</time>
      </trkpt>
      <trkpt lat="39.896181" lon="116.643122">
        <time>2020-09-27T13:24:46Z</time>
      </trkpt>
      <trkpt lat="39.896201" lon="116.642989">
        <time>2020-09-27T13:24:51Z</time>
      </trkpt>
      <trkpt lat="39.896206" lon="116.642856">
        <time>2020-09-27T13:24:56Z</time>
      </trkpt>
      <trkpt lat="39.896222" lon="116.64273">
        <time>2020-09-27T13:25:01Z</time>
      </trkpt>
      <trkpt lat="39.896219" lon="116.642599">
        <time>2020-09-27T13:25:06Z</time>
      </trkpt>
      <trkpt lat="39.896227" lon="116.642461">
        <time>2020-09-27T13:25:11Z</time>
      </trkpt>
      <trkpt lat="39.896223" lon="116.642324">
        <time>2020-09-27T13:25:16Z</time>
      </trkpt>
      <trkpt lat="39.896212" lon="116.642186">
        <time>2020-09-27T13:25:21Z</time>
      </trkpt>
      <trkpt lat="39.896222" lon="116.642074">
        <time>2020-09-27T13:25:26Z</time>
      </trkpt>
      <trkpt lat="39.896227" lon="116.641948">
        <time>2020-09-27T13:25:31Z</time>
      </trkpt>
      <trkpt lat="39.89624" lon="116.641823">
        <time>2020-09-27T13:25:36Z</time>
      </trkpt>
      <trkpt lat="39.896268" lon="116.641692">
        <time>2020-09-27T13:25:41Z</time>
      </trkpt>
      <trkpt lat="39.896277" lon="116.641564">
        <time>2020-09-27T13:25:46Z</time>
      </trkpt>
      <trkpt lat="39.896282" lon="116.641448">
        <time>2020-09-27T13:25:51Z</time>
      </trkpt>
      <trkpt lat="39.896277" lon="116.641311">
        <time>2020-09-27T13:25:56Z</time>
      </trkpt>
      <trkpt lat="39.896262" lon="116.64117">
        <time>2020-09-27T13:26:01Z</time>
      </trkpt>
      <trkpt lat="39.89627" lon="116.641049">
        <time>2020-09-27T13:26:06Z</time>
      </trkpt>
      <trkpt lat="39.896273" lon="116.640925">
        <time>2020-09-27T13:26:11Z</time>
      </trkpt>
      <trkpt lat="39.896283" lon="116.640813">
        <time>2020-09-27T13:26:16Z</time>
      </trkpt>
      <trkpt lat="39.896289" lon="116.640688">
        <time>2020-09-27T13:26:21Z</time>
      </trkpt>
      <trkpt lat="39.89627" lon="116.640575">
        <time>2020-09-27T13:26:26Z</time>
      </trkpt>
      <trkpt lat="39.896264" lon="116.640427">
        <time>2020-09-27T13:26:31Z</time>
      </trkpt>
      <trkpt lat="39.896272" lon="116.640293">
        <time>2020-09-27T13:26:36Z</time>
      </trkpt>
      <trkpt lat="39.896277" lon="116.640141">
        <time>2020-09-27T13:26:41Z</time>
      </trkpt>
      <trkpt lat="39.896289" lon="116.639983">
        <time>2020-09-27T13:26:46Z</time>
      </trkpt>
      <trkpt lat="39.896286" lon="116.639836">
        <time>2020-09-27T13:26:51Z</time>
      </trkpt>
      <trkpt lat="39.896281" lon="116.639695">
        <time>2020-09-27T13:26:56Z</time>
      </trkpt>
      <trkpt lat="39.896257" lon="116.639547">
        <time>2020-09-27T13:27:01Z</time>
      </trkpt>
      <trkpt lat="39.896244" lon="116.639406">
        <time>2020-09-27T13:27:06Z</time>
      </trkpt>
      <trkpt lat="39.896236" lon="116.639277">
        <time>2020-09-27T13:27:11Z</time>
      </trkpt>
      <trkpt lat="39.896231" lon="116.639144">
        <time>2020-09-27T13:27:16Z</time>
      </trkpt>
      <trkpt lat="39.896226" lon="116.639029">
        <time>2020-09-27T13:27:21Z</time>
      </trkpt>
      <trkpt lat="39.896214" lon="116.638906">
        <time>2020-09-27T13:27:26Z</time>
      </trkpt>
      <trkpt lat="39.896205" lon="116.638768">
        <time>2020-09-27T13:27:31Z</time>
      </trkpt>
      <trkpt lat="39.896214" lon="116.638629">
        <time>2020-09-27T13:27:36Z</time>
      </trkpt>
      <trkpt lat="39.896173" lon="116.638486">
        <time>2020-09-27T13:27:41Z</time>
      </trkpt>
      <trkpt lat="39.896147" lon="116.638351">
        <time>2020-09-27T13:27:46Z</time>
      </trkpt>
      <trkpt lat="39.896157" lon="116.638227">
        <time>2020-09-27T13:27:51Z</time>
      </trkpt>
      <trkpt lat="39.896198" lon="116.638104">
        <time>2020-09-27T13:27:56Z</time>
      </trkpt>
      <trkpt lat="39.896213" lon="116.637963">
        <time>2020-09-27T13:28:01Z</time>
      </trkpt>
      <trkpt lat="39.896204" lon="116.637825">
        <time>2020-09-27T13:28:06Z</time>
      </trkpt>
      <trkpt lat="39.896208" lon="116.637691">
        <time>2020-09-27T13:28:11Z</time>
      </trkpt>
      <trkpt lat="39.896188" lon="116.63755">
        <time>2020-09-27T13:28:16Z</time>
      </trkpt>
      <trkpt lat="39.89619" lon="116.637427">
        <time>2020-09-27T13:28:21Z</time>
      </trkpt>
      <trkpt lat="39.896205" lon="116.637301">
        <time>2020-09-27T13:28:26Z</time>
      </trkpt>
      <trkpt lat="39.89619" lon="116.637168">
        <time>2020-09-27T13:28:31Z</time>
      </trkpt>
      <trkpt lat="39.896171" lon="116.637039">
        <time>2020-09-27T13:28:36Z</time>
      </trkpt>
      <trkpt lat="39.896151" lon="116.636898">
        <time>2020-09-27T13:28:41Z</time>
      </trkpt>
      <trkpt lat="39.896116" lon="116.636788">
        <time>2020-09-27T13:28:46Z</time>
      </trkpt>
      <trkpt lat="39.89606" lon="116.636711">
        <time>2020-09-27T13:28:51Z</time>
      </trkpt>
      <trkpt lat="39.895952" lon="116.636661">
        <time>2020-09-27T13:28:56Z</time>
      </trkpt>
      <trkpt lat="39.895874" lon="116.636574">
        <time>2020-09-27T13:29:01Z</time>
      </trkpt>
      <trkpt lat="39.895884" lon="116.636451">
        <time>2020-09-27T13:29:06Z</time>
      </trkpt>
      <trkpt lat="39.895974" lon="116.636357">
        <time>2020-09-27T13:29:11Z</time>
      </trkpt>
      <trkpt lat="39.896086" lon="116.63628">
        <time>2020-09-27T13:29:16Z</time>
      </trkpt>
      <trkpt lat="39.89619" lon="116.636198">
        <time>2020-09-27T13:29:21Z</time>
      </trkpt>
      <trkpt lat="39.896349" lon="116.635851">
        <time>2020-09-27T13:29:26Z</time>
      </trkpt>
      <trkpt lat="39.896349" lon="116.635851">
        <time>2020-09-27T13:29:31Z</time>
      </trkpt>
      <trkpt lat="39.89646" lon="116.635897">
        <time>2020-09-27T13:29:36Z</time>
      </trkpt>
      <trkpt lat="39.896589" lon="116.635863">
        <time>2020-09-27T13:29:41Z</time>
      </trkpt>
      <trkpt lat="39.896676" lon="116.635792">
        <time>2020-09-27T13:29:46Z</time>
      </trkpt>
      <trkpt lat="39.896768" lon="116.635713">
        <time>2020-09-27T13:29:51Z</time>
      </trkpt>
      <trkpt lat="39.896852" lon="116.635646">
        <time>2020-09-27T13:29:56Z</time>
      </trkpt>
      <trkpt lat="39.896961" lon="116.635588">
        <time>2020-09-27T13:30:01Z</time>
      </trkpt>
      <trkpt lat="39.897065" lon="116.635531">
        <time>2020-09-27T13:30:06Z</time>
      </trkpt>
      <trkpt lat="39.897154" lon="116.635454">
        <time>2020-09-27T13:30:11Z</time>
      </trkpt>
      <trkpt lat="39.897227" lon="116.635363">
        <time>2020-09-27T13:30:16Z</time>
      </trkpt>
      <trkpt lat="39.897312" lon="116.635276">
        <time>2020-09-27T13:30:21Z</time>
      </trkpt>
      <trkpt lat="39.897432" lon="116.635226">
        <time>2020-09-27T13:30:26Z</time>
      </trkpt>
      <trkpt lat="39.897553" lon="116.63519">
        <time>2020-09-27T13:30:31Z</time>
      </trkpt>
      <trkpt lat="39.897645" lon="116.63511">
        <time>2020-09-27T13:30:36Z</time>
      </trkpt>
      <trkpt lat="39.897745" lon="116.635033">
        <time>2020-09-27T13:30:41Z</time>
      </trkpt>
      <trkpt lat="39.897886" lon="116.634956">
        <time>2020-09-27T13:30:46Z</time>
      </trkpt>
      <trkpt lat="39.898" lon="116.634892">
        <time>2020-09-27T13:30:51Z</time>
      </trkpt>
      <trkpt lat="39.898082" lon="116.634832">
        <time>2020-09-27T13:30:56Z</time>
      </trkpt>
      <trkpt lat="39.898104" lon="116.634842">
        <time>2020-09-27T13:31:01Z</time>
      </trkpt>
      <trkpt lat="39.898137" lon="116.634864">
        <time>2020-09-27T13:31:06Z</time>
      </trkpt>
      <trkpt lat="39.898159" lon="116.634876">
        <time>2020-09-27T13:31:11Z</time>
      </trkpt>
      <trkpt lat="39.898166" lon="116.634882">
        <time>2020-09-27T13:31:16Z</time>
      </trkpt>
      <trkpt lat="39.898159" lon="116.634898">
        <time>2020-09-27T13:31:21Z</time>
      </trkpt>
      <trkpt lat="39.89814" lon="116.634885">
        <time>2020-09-27T13:31:26Z</time>
      </trkpt>
      <trkpt lat="39.898068" lon="116.634778">
        <time>2020-09-27T13:31:31Z</time>
      </trkpt>
      <trkpt lat="39.898041" lon="116.63466">
        <time>2020-09-27T13:31:36Z</time>
      </trkpt>
      <trkpt lat="39.898002" lon="116.634529">
        <time>2020-09-27T13:31:41Z</time>
      </trkpt>
      <trkpt lat="39.897936" lon="116.634421">
        <time>2020-09-27T13:31:46Z</time>
      </trkpt>
      <trkpt lat="39.897913" lon="116.634318">
        <time>2020-09-27T13:31:51Z</time>
      </trkpt>
      <trkpt lat="39.897887" lon="116.634193">
        <time>2020-09-27T13:31:56Z</time>
      </trkpt>
      <trkpt lat="39.89777" lon="116.634043">
        <time>2020-09-27T13:32:01Z</time>
      </trkpt>
      <trkpt lat="39.897694" lon="116.633923">
        <time>2020-09-27T13:32:06Z</time>
      </trkpt>
      <trkpt lat="39.897595" lon="116.633845">
        <time>2020-09-27T13:32:11Z</time>
      </trkpt>
      <trkpt lat="39.897482" lon="116.633807">
        <time>2020-09-27T13:32:16Z</time>
      </trkpt>
      <trkpt lat="39.897403" lon="116.633823">
        <time>2020-09-27T13:32:21Z</time>
      </trkpt>
      <trkpt lat="39.897345" lon="116.633844">
        <time>2020-09-27T13:32:26Z</time>
      </trkpt>
      <trkpt lat="39.897391" lon="116.633877">
        <time>2020-09-27T13:32:31Z</time>
      </trkpt>
      <trkpt lat="39.897479" lon="116.633942">
        <time>2020-09-27T13:32:36Z</time>
      </trkpt>
      <trkpt lat="39.897546" lon="116.633988">
        <time>2020-09-27T13:32:41Z</time>
      </trkpt>
      <trkpt lat="39.897598" lon="116.634038">
        <time>2020-09-27T13:32:46Z</time>
      </trkpt>
      <trkpt lat="39.897612" lon="116.634065">
        <time>2020-09-27T13:32:51Z</time>
      </trkpt>
      <trkpt lat="39.897545" lon="116.63404">
        <time>2020-09-27T13:32:56Z</time>
      </trkpt>
      <trkpt lat="39.897534" lon="116.634059">
        <time>2020-09-27T13:33:01Z</time>
      </trkpt>
      <trkpt lat="39.897567" lon="116.634129">
        <time>2020-09-27T13:33:06Z</time>
      </trkpt>
      <trkpt lat="39.897549" lon="116.634117">
        <time>2020-09-27T13:33:11Z</time>
      </trkpt>
      <trkpt lat="39.897508" lon="116.634092">
        <time>2020-09-27T13:33:16Z</time>
      </trkpt>
      <trkpt lat="39.897536" lon="116.634142">
        <time>2020-09-27T13:33:21Z</time>
      </trkpt>
      <trkpt lat="39.897525" lon="116.634164">
        <time>2020-09-27T13:33:26Z</time>
      </trkpt>
      <trkpt lat="39.897469" lon="116.63411">
        <time>2020-09-27T13:33:46Z</time>
      </trkpt>
    </trkseg>
  </trk>
</gpx>