<?xml version="1.0" encoding="UTF-8"?>
<gpx xmlns="http://www.topografix.com/GPX/1/1" xmlns:gpxtpx="http://www.garmin.com/xmlschemas/TrackPointExtension/v1" xmlns:xsi="http://www.w3.org/2001/XMLSchema-instance" xsi:schemaLocation="http://www.topografix.com/GPX/1/1 http://www.topografix.com/GPX/1/1/gpx.xsd" version="1.1" creator="gpx.py -- https://github.com/tkrajina/gpxpy">
  <trk>
    <name>gpx from keep</name>
    <trkseg>
      <trkpt lat="39.895926" lon="116.636796">
        <time>2020-10-15T12:26:41Z</time>
      </trkpt>
      <trkpt lat="39.895947" lon="116.6368">
        <time>2020-10-15T12:26:46Z</time>
      </trkpt>
      <trkpt lat="39.896063" lon="116.636848">
        <time>2020-10-15T12:26:51Z</time>
      </trkpt>
      <trkpt lat="39.896132" lon="116.636963">
        <time>2020-10-15T12:26:56Z</time>
      </trkpt>
      <trkpt lat="39.896151" lon="116.63712">
        <time>2020-10-15T12:27:01Z</time>
      </trkpt>
      <trkpt lat="39.896172" lon="116.637278">
        <time>2020-10-15T12:27:06Z</time>
      </trkpt>
      <trkpt lat="39.896173" lon="116.637426">
        <time>2020-10-15T12:27:11Z</time>
      </trkpt>
      <trkpt lat="39.896177" lon="116.637578">
        <time>2020-10-15T12:27:16Z</time>
      </trkpt>
      <trkpt lat="39.896136" lon="116.637736">
        <time>2020-10-15T12:27:21Z</time>
      </trkpt>
      <trkpt lat="39.896099" lon="116.637897">
        <time>2020-10-15T12:27:26Z</time>
      </trkpt>
      <trkpt lat="39.896067" lon="116.638057">
        <time>2020-10-15T12:27:31Z</time>
      </trkpt>
      <trkpt lat="39.896026" lon="116.63822">
        <time>2020-10-15T12:27:36Z</time>
      </trkpt>
      <trkpt lat="39.89597" lon="116.638379">
        <time>2020-10-15T12:27:41Z</time>
      </trkpt>
      <trkpt lat="39.895974" lon="116.638537">
        <time>2020-10-15T12:27:46Z</time>
      </trkpt>
      <trkpt lat="39.895979" lon="116.638698">
        <time>2020-10-15T12:27:51Z</time>
      </trkpt>
      <trkpt lat="39.895974" lon="116.638857">
        <time>2020-10-15T12:27:56Z</time>
      </trkpt>
      <trkpt lat="39.895994" lon="116.639023">
        <time>2020-10-15T12:28:01Z</time>
      </trkpt>
      <trkpt lat="39.896012" lon="116.639192">
        <time>2020-10-15T12:28:06Z</time>
      </trkpt>
      <trkpt lat="39.895974" lon="116.639364">
        <time>2020-10-15T12:28:11Z</time>
      </trkpt>
      <trkpt lat="39.895968" lon="116.639522">
        <time>2020-10-15T12:28:16Z</time>
      </trkpt>
      <trkpt lat="39.895979" lon="116.639675">
        <time>2020-10-15T12:28:21Z</time>
      </trkpt>
      <trkpt lat="39.89601" lon="116.639825">
        <time>2020-10-15T12:28:26Z</time>
      </trkpt>
      <trkpt lat="39.896043" lon="116.639959">
        <time>2020-10-15T12:28:31Z</time>
      </trkpt>
      <trkpt lat="39.896079" lon="116.640111">
        <time>2020-10-15T12:28:36Z</time>
      </trkpt>
      <trkpt lat="39.896108" lon="116.640269">
        <time>2020-10-15T12:28:41Z</time>
      </trkpt>
      <trkpt lat="39.89613" lon="116.640417">
        <time>2020-10-15T12:28:46Z</time>
      </trkpt>
      <trkpt lat="39.896141" lon="116.640565">
        <time>2020-10-15T12:28:51Z</time>
      </trkpt>
      <trkpt lat="39.896176" lon="116.64072">
        <time>2020-10-15T12:28:56Z</time>
      </trkpt>
      <trkpt lat="39.896166" lon="116.64086">
        <time>2020-10-15T12:29:01Z</time>
      </trkpt>
      <trkpt lat="39.896146" lon="116.641006">
        <time>2020-10-15T12:29:06Z</time>
      </trkpt>
      <trkpt lat="39.896134" lon="116.641158">
        <time>2020-10-15T12:29:11Z</time>
      </trkpt>
      <trkpt lat="39.896123" lon="116.641311">
        <time>2020-10-15T12:29:16Z</time>
      </trkpt>
      <trkpt lat="39.896154" lon="116.641466">
        <time>2020-10-15T12:29:21Z</time>
      </trkpt>
      <trkpt lat="39.89617" lon="116.641614">
        <time>2020-10-15T12:29:26Z</time>
      </trkpt>
      <trkpt lat="39.896186" lon="116.641757">
        <time>2020-10-15T12:29:31Z</time>
      </trkpt>
      <trkpt lat="39.896176" lon="116.641906">
        <time>2020-10-15T12:29:36Z</time>
      </trkpt>
      <trkpt lat="39.896184" lon="116.642045">
        <time>2020-10-15T12:29:41Z</time>
      </trkpt>
      <trkpt lat="39.896204" lon="116.642186">
        <time>2020-10-15T12:29:46Z</time>
      </trkpt>
      <trkpt lat="39.896215" lon="116.642335">
        <time>2020-10-15T12:29:51Z</time>
      </trkpt>
      <trkpt lat="39.896206" lon="116.642478">
        <time>2020-10-15T12:29:56Z</time>
      </trkpt>
      <trkpt lat="39.896233" lon="116.642611">
        <time>2020-10-15T12:30:01Z</time>
      </trkpt>
      <trkpt lat="39.896259" lon="116.642762">
        <time>2020-10-15T12:30:06Z</time>
      </trkpt>
      <trkpt lat="39.896251" lon="116.642931">
        <time>2020-10-15T12:30:11Z</time>
      </trkpt>
      <trkpt lat="39.896224" lon="116.643085">
        <time>2020-10-15T12:30:16Z</time>
      </trkpt>
      <trkpt lat="39.8962" lon="116.643233">
        <time>2020-10-15T12:30:21Z</time>
      </trkpt>
      <trkpt lat="39.8962" lon="116.643387">
        <time>2020-10-15T12:30:26Z</time>
      </trkpt>
      <trkpt lat="39.896218" lon="116.643529">
        <time>2020-10-15T12:30:31Z</time>
      </trkpt>
      <trkpt lat="39.89623" lon="116.643664">
        <time>2020-10-15T12:30:36Z</time>
      </trkpt>
      <trkpt lat="39.896212" lon="116.64381">
        <time>2020-10-15T12:30:41Z</time>
      </trkpt>
      <trkpt lat="39.8962" lon="116.64395">
        <time>2020-10-15T12:30:46Z</time>
      </trkpt>
      <trkpt lat="39.896198" lon="116.644092">
        <time>2020-10-15T12:30:51Z</time>
      </trkpt>
      <trkpt lat="39.896229" lon="116.644231">
        <time>2020-10-15T12:30:56Z</time>
      </trkpt>
      <trkpt lat="39.896211" lon="116.64438">
        <time>2020-10-15T12:31:01Z</time>
      </trkpt>
      <trkpt lat="39.896204" lon="116.644515">
        <time>2020-10-15T12:31:06Z</time>
      </trkpt>
      <trkpt lat="39.896203" lon="116.644655">
        <time>2020-10-15T12:31:11Z</time>
      </trkpt>
      <trkpt lat="39.896193" lon="116.64478">
        <time>2020-10-15T12:31:16Z</time>
      </trkpt>
      <trkpt lat="39.896198" lon="116.644932">
        <time>2020-10-15T12:31:21Z</time>
      </trkpt>
      <trkpt lat="39.896211" lon="116.645076">
        <time>2020-10-15T12:31:26Z</time>
      </trkpt>
      <trkpt lat="39.896196" lon="116.645206">
        <time>2020-10-15T12:31:31Z</time>
      </trkpt>
      <trkpt lat="39.896152" lon="116.645343">
        <time>2020-10-15T12:31:36Z</time>
      </trkpt>
      <trkpt lat="39.896145" lon="116.645488">
        <time>2020-10-15T12:31:41Z</time>
      </trkpt>
      <trkpt lat="39.896118" lon="116.645647">
        <time>2020-10-15T12:31:46Z</time>
      </trkpt>
      <trkpt lat="39.896079" lon="116.645768">
        <time>2020-10-15T12:31:51Z</time>
      </trkpt>
      <trkpt lat="39.896068" lon="116.645909">
        <time>2020-10-15T12:31:56Z</time>
      </trkpt>
      <trkpt lat="39.896069" lon="116.646064">
        <time>2020-10-15T12:32:01Z</time>
      </trkpt>
      <trkpt lat="39.896079" lon="116.646225">
        <time>2020-10-15T12:32:06Z</time>
      </trkpt>
      <trkpt lat="39.896079" lon="116.646384">
        <time>2020-10-15T12:32:11Z</time>
      </trkpt>
      <trkpt lat="39.896067" lon="116.646544">
        <time>2020-10-15T12:32:16Z</time>
      </trkpt>
      <trkpt lat="39.896021" lon="116.646673">
        <time>2020-10-15T12:32:21Z</time>
      </trkpt>
      <trkpt lat="39.895929" lon="116.646726">
        <time>2020-10-15T12:32:26Z</time>
      </trkpt>
      <trkpt lat="39.895805" lon="116.646697">
        <time>2020-10-15T12:32:31Z</time>
      </trkpt>
      <trkpt lat="39.895681" lon="116.646655">
        <time>2020-10-15T12:32:36Z</time>
      </trkpt>
      <trkpt lat="39.89556" lon="116.646619">
        <time>2020-10-15T12:32:41Z</time>
      </trkpt>
      <trkpt lat="39.895435" lon="116.646574">
        <time>2020-10-15T12:32:46Z</time>
      </trkpt>
      <trkpt lat="39.895342" lon="116.646512">
        <time>2020-10-15T12:32:51Z</time>
      </trkpt>
      <trkpt lat="39.89524" lon="116.646462">
        <time>2020-10-15T12:32:56Z</time>
      </trkpt>
      <trkpt lat="39.895137" lon="116.646423">
        <time>2020-10-15T12:33:01Z</time>
      </trkpt>
      <trkpt lat="39.895021" lon="116.646379">
        <time>2020-10-15T12:33:06Z</time>
      </trkpt>
      <trkpt lat="39.894912" lon="116.646318">
        <time>2020-10-15T12:33:11Z</time>
      </trkpt>
      <trkpt lat="39.894804" lon="116.646257">
        <time>2020-10-15T12:33:16Z</time>
      </trkpt>
      <trkpt lat="39.89473" lon="116.646176">
        <time>2020-10-15T12:33:21Z</time>
      </trkpt>
      <trkpt lat="39.894631" lon="116.646115">
        <time>2020-10-15T12:33:26Z</time>
      </trkpt>
      <trkpt lat="39.894504" lon="116.646088">
        <time>2020-10-15T12:33:31Z</time>
      </trkpt>
      <trkpt lat="39.894381" lon="116.646059">
        <time>2020-10-15T12:33:36Z</time>
      </trkpt>
      <trkpt lat="39.894275" lon="116.646015">
        <time>2020-10-15T12:33:41Z</time>
      </trkpt>
      <trkpt lat="39.894167" lon="116.645983">
        <time>2020-10-15T12:33:46Z</time>
      </trkpt>
      <trkpt lat="39.894063" lon="116.645929">
        <time>2020-10-15T12:33:51Z</time>
      </trkpt>
      <trkpt lat="39.893964" lon="116.645905">
        <time>2020-10-15T12:33:56Z</time>
      </trkpt>
      <trkpt lat="39.893893" lon="116.645932">
        <time>2020-10-15T12:34:01Z</time>
      </trkpt>
      <trkpt lat="39.893864" lon="116.64602">
        <time>2020-10-15T12:34:06Z</time>
      </trkpt>
      <trkpt lat="39.893815" lon="116.646129">
        <time>2020-10-15T12:34:11Z</time>
      </trkpt>
      <trkpt lat="39.893764" lon="116.646202">
        <time>2020-10-15T12:34:16Z</time>
      </trkpt>
      <trkpt lat="39.893689" lon="116.646263">
        <time>2020-10-15T12:34:21Z</time>
      </trkpt>
      <trkpt lat="39.893595" lon="116.646263">
        <time>2020-10-15T12:34:26Z</time>
      </trkpt>
      <trkpt lat="39.893487" lon="116.646226">
        <time>2020-10-15T12:34:31Z</time>
      </trkpt>
      <trkpt lat="39.89337" lon="116.646194">
        <time>2020-10-15T12:34:36Z</time>
      </trkpt>
      <trkpt lat="39.893254" lon="116.646151">
        <time>2020-10-15T12:34:41Z</time>
      </trkpt>
      <trkpt lat="39.89314" lon="116.646108">
        <time>2020-10-15T12:34:46Z</time>
      </trkpt>
      <trkpt lat="39.893037" lon="116.646045">
        <time>2020-10-15T12:34:51Z</time>
      </trkpt>
      <trkpt lat="39.892931" lon="116.645992">
        <time>2020-10-15T12:34:56Z</time>
      </trkpt>
      <trkpt lat="39.892811" lon="116.645937">
        <time>2020-10-15T12:35:01Z</time>
      </trkpt>
      <trkpt lat="39.892685" lon="116.645901">
        <time>2020-10-15T12:35:06Z</time>
      </trkpt>
      <trkpt lat="39.892596" lon="116.645853">
        <time>2020-10-15T12:35:11Z</time>
      </trkpt>
      <trkpt lat="39.892454" lon="116.645797">
        <time>2020-10-15T12:35:16Z</time>
      </trkpt>
      <trkpt lat="39.892352" lon="116.645732">
        <time>2020-10-15T12:35:21Z</time>
      </trkpt>
      <trkpt lat="39.892236" lon="116.64569">
        <time>2020-10-15T12:35:26Z</time>
      </trkpt>
      <trkpt lat="39.892122" lon="116.645644">
        <time>2020-10-15T12:35:31Z</time>
      </trkpt>
      <trkpt lat="39.892009" lon="116.645615">
        <time>2020-10-15T12:35:36Z</time>
      </trkpt>
      <trkpt lat="39.891902" lon="116.64556">
        <time>2020-10-15T12:35:41Z</time>
      </trkpt>
      <trkpt lat="39.891783" lon="116.645476">
        <time>2020-10-15T12:35:46Z</time>
      </trkpt>
      <trkpt lat="39.891653" lon="116.64541">
        <time>2020-10-15T12:35:51Z</time>
      </trkpt>
      <trkpt lat="39.891547" lon="116.645342">
        <time>2020-10-15T12:35:56Z</time>
      </trkpt>
      <trkpt lat="39.891583" lon="116.645333">
        <time>2020-10-15T12:36:01Z</time>
      </trkpt>
      <trkpt lat="39.891691" lon="116.645338">
        <time>2020-10-15T12:36:06Z</time>
      </trkpt>
      <trkpt lat="39.891801" lon="116.645368">
        <time>2020-10-15T12:36:11Z</time>
      </trkpt>
      <trkpt lat="39.89189" lon="116.645422">
        <time>2020-10-15T12:36:16Z</time>
      </trkpt>
      <trkpt lat="39.892022" lon="116.645476">
        <time>2020-10-15T12:36:21Z</time>
      </trkpt>
      <trkpt lat="39.892142" lon="116.645532">
        <time>2020-10-15T12:36:26Z</time>
      </trkpt>
      <trkpt lat="39.892245" lon="116.645584">
        <time>2020-10-15T12:36:31Z</time>
      </trkpt>
      <trkpt lat="39.892354" lon="116.645644">
        <time>2020-10-15T12:36:36Z</time>
      </trkpt>
      <trkpt lat="39.892473" lon="116.645675">
        <time>2020-10-15T12:36:41Z</time>
      </trkpt>
      <trkpt lat="39.892589" lon="116.645707">
        <time>2020-10-15T12:36:46Z</time>
      </trkpt>
      <trkpt lat="39.892697" lon="116.645756">
        <time>2020-10-15T12:36:51Z</time>
      </trkpt>
      <trkpt lat="39.892795" lon="116.645817">
        <time>2020-10-15T12:36:56Z</time>
      </trkpt>
      <trkpt lat="39.892887" lon="116.645876">
        <time>2020-10-15T12:37:01Z</time>
      </trkpt>
      <trkpt lat="39.892979" lon="116.6459">
        <time>2020-10-15T12:37:06Z</time>
      </trkpt>
      <trkpt lat="39.893069" lon="116.645934">
        <time>2020-10-15T12:37:11Z</time>
      </trkpt>
      <trkpt lat="39.893168" lon="116.645993">
        <time>2020-10-15T12:37:16Z</time>
      </trkpt>
      <trkpt lat="39.893284" lon="116.646032">
        <time>2020-10-15T12:37:21Z</time>
      </trkpt>
      <trkpt lat="39.893381" lon="116.646056">
        <time>2020-10-15T12:37:26Z</time>
      </trkpt>
      <trkpt lat="39.893459" lon="116.646102">
        <time>2020-10-15T12:37:31Z</time>
      </trkpt>
      <trkpt lat="39.893504" lon="116.646171">
        <time>2020-10-15T12:37:36Z</time>
      </trkpt>
      <trkpt lat="39.893558" lon="116.646214">
        <time>2020-10-15T12:37:41Z</time>
      </trkpt>
      <trkpt lat="39.893651" lon="116.646221">
        <time>2020-10-15T12:37:46Z</time>
      </trkpt>
      <trkpt lat="39.893734" lon="116.646157">
        <time>2020-10-15T12:37:51Z</time>
      </trkpt>
      <trkpt lat="39.893814" lon="116.646053">
        <time>2020-10-15T12:37:56Z</time>
      </trkpt>
      <trkpt lat="39.89389" lon="116.645951">
        <time>2020-10-15T12:38:01Z</time>
      </trkpt>
      <trkpt lat="39.893959" lon="116.645847">
        <time>2020-10-15T12:38:06Z</time>
      </trkpt>
      <trkpt lat="39.894045" lon="116.645841">
        <time>2020-10-15T12:38:11Z</time>
      </trkpt>
      <trkpt lat="39.894133" lon="116.645902">
        <time>2020-10-15T12:38:16Z</time>
      </trkpt>
      <trkpt lat="39.894226" lon="116.645962">
        <time>2020-10-15T12:38:21Z</time>
      </trkpt>
      <trkpt lat="39.894342" lon="116.646027">
        <time>2020-10-15T12:38:26Z</time>
      </trkpt>
      <trkpt lat="39.894448" lon="116.64608">
        <time>2020-10-15T12:38:31Z</time>
      </trkpt>
      <trkpt lat="39.894568" lon="116.646128">
        <time>2020-10-15T12:38:36Z</time>
      </trkpt>
      <trkpt lat="39.894672" lon="116.646158">
        <time>2020-10-15T12:38:41Z</time>
      </trkpt>
      <trkpt lat="39.894762" lon="116.646208">
        <time>2020-10-15T12:38:46Z</time>
      </trkpt>
      <trkpt lat="39.894855" lon="116.64628">
        <time>2020-10-15T12:38:51Z</time>
      </trkpt>
      <trkpt lat="39.894966" lon="116.646312">
        <time>2020-10-15T12:38:56Z</time>
      </trkpt>
      <trkpt lat="39.895089" lon="116.646321">
        <time>2020-10-15T12:39:01Z</time>
      </trkpt>
      <trkpt lat="39.895199" lon="116.646332">
        <time>2020-10-15T12:39:06Z</time>
      </trkpt>
      <trkpt lat="39.895304" lon="116.64636">
        <time>2020-10-15T12:39:11Z</time>
      </trkpt>
      <trkpt lat="39.895402" lon="116.646395">
        <time>2020-10-15T12:39:16Z</time>
      </trkpt>
      <trkpt lat="39.8955" lon="116.646442">
        <time>2020-10-15T12:39:21Z</time>
      </trkpt>
      <trkpt lat="39.8956" lon="116.646496">
        <time>2020-10-15T12:39:26Z</time>
      </trkpt>
      <trkpt lat="39.895713" lon="116.646567">
        <time>2020-10-15T12:39:31Z</time>
      </trkpt>
      <trkpt lat="39.895813" lon="116.646611">
        <time>2020-10-15T12:39:36Z</time>
      </trkpt>
      <trkpt lat="39.895923" lon="116.646659">
        <time>2020-10-15T12:39:41Z</time>
      </trkpt>
      <trkpt lat="39.896021" lon="116.6467">
        <time>2020-10-15T12:39:46Z</time>
      </trkpt>
      <trkpt lat="39.896039" lon="116.64665">
        <time>2020-10-15T12:39:51Z</time>
      </trkpt>
      <trkpt lat="39.896032" lon="116.646557">
        <time>2020-10-15T12:39:56Z</time>
      </trkpt>
      <trkpt lat="39.896043" lon="116.646419">
        <time>2020-10-15T12:40:01Z</time>
      </trkpt>
      <trkpt lat="39.89604" lon="116.646282">
        <time>2020-10-15T12:40:06Z</time>
      </trkpt>
      <trkpt lat="39.89605" lon="116.646151">
        <time>2020-10-15T12:40:11Z</time>
      </trkpt>
      <trkpt lat="39.896065" lon="116.64603">
        <time>2020-10-15T12:40:16Z</time>
      </trkpt>
      <trkpt lat="39.896093" lon="116.64591">
        <time>2020-10-15T12:40:21Z</time>
      </trkpt>
      <trkpt lat="39.896113" lon="116.64578">
        <time>2020-10-15T12:40:26Z</time>
      </trkpt>
      <trkpt lat="39.896148" lon="116.645652">
        <time>2020-10-15T12:40:31Z</time>
      </trkpt>
      <trkpt lat="39.896184" lon="116.645532">
        <time>2020-10-15T12:40:36Z</time>
      </trkpt>
      <trkpt lat="39.896199" lon="116.645392">
        <time>2020-10-15T12:40:41Z</time>
      </trkpt>
      <trkpt lat="39.896219" lon="116.645273">
        <time>2020-10-15T12:40:46Z</time>
      </trkpt>
      <trkpt lat="39.896224" lon="116.645151">
        <time>2020-10-15T12:40:51Z</time>
      </trkpt>
      <trkpt lat="39.896235" lon="116.645008">
        <time>2020-10-15T12:40:56Z</time>
      </trkpt>
      <trkpt lat="39.896247" lon="116.644868">
        <time>2020-10-15T12:41:01Z</time>
      </trkpt>
      <trkpt lat="39.89626" lon="116.644734">
        <time>2020-10-15T12:41:06Z</time>
      </trkpt>
      <trkpt lat="39.89627" lon="116.644602">
        <time>2020-10-15T12:41:11Z</time>
      </trkpt>
      <trkpt lat="39.896256" lon="116.644459">
        <time>2020-10-15T12:41:16Z</time>
      </trkpt>
      <trkpt lat="39.89623" lon="116.64431">
        <time>2020-10-15T12:41:21Z</time>
      </trkpt>
      <trkpt lat="39.896228" lon="116.644172">
        <time>2020-10-15T12:41:26Z</time>
      </trkpt>
      <trkpt lat="39.896222" lon="116.644038">
        <time>2020-10-15T12:41:31Z</time>
      </trkpt>
      <trkpt lat="39.896207" lon="116.643917">
        <time>2020-10-15T12:41:36Z</time>
      </trkpt>
      <trkpt lat="39.896206" lon="116.643795">
        <time>2020-10-15T12:41:41Z</time>
      </trkpt>
      <trkpt lat="39.896225" lon="116.643674">
        <time>2020-10-15T12:41:46Z</time>
      </trkpt>
      <trkpt lat="39.896223" lon="116.64353">
        <time>2020-10-15T12:41:51Z</time>
      </trkpt>
      <trkpt lat="39.896197" lon="116.643374">
        <time>2020-10-15T12:41:56Z</time>
      </trkpt>
      <trkpt lat="39.89619" lon="116.643227">
        <time>2020-10-15T12:42:01Z</time>
      </trkpt>
      <trkpt lat="39.896202" lon="116.643077">
        <time>2020-10-15T12:42:06Z</time>
      </trkpt>
      <trkpt lat="39.896231" lon="116.642935">
        <time>2020-10-15T12:42:11Z</time>
      </trkpt>
      <trkpt lat="39.896238" lon="116.642795">
        <time>2020-10-15T12:42:16Z</time>
      </trkpt>
      <trkpt lat="39.896231" lon="116.642671">
        <time>2020-10-15T12:42:21Z</time>
      </trkpt>
      <trkpt lat="39.896207" lon="116.642506">
        <time>2020-10-15T12:42:26Z</time>
      </trkpt>
      <trkpt lat="39.896196" lon="116.642349">
        <time>2020-10-15T12:42:31Z</time>
      </trkpt>
      <trkpt lat="39.89621" lon="116.642179">
        <time>2020-10-15T12:42:36Z</time>
      </trkpt>
      <trkpt lat="39.896227" lon="116.642028">
        <time>2020-10-15T12:42:41Z</time>
      </trkpt>
      <trkpt lat="39.896248" lon="116.641899">
        <time>2020-10-15T12:42:46Z</time>
      </trkpt>
      <trkpt lat="39.896264" lon="116.641767">
        <time>2020-10-15T12:42:51Z</time>
      </trkpt>
      <trkpt lat="39.896267" lon="116.641616">
        <time>2020-10-15T12:42:56Z</time>
      </trkpt>
      <trkpt lat="39.896269" lon="116.641476">
        <time>2020-10-15T12:43:01Z</time>
      </trkpt>
      <trkpt lat="39.896268" lon="116.641325">
        <time>2020-10-15T12:43:06Z</time>
      </trkpt>
      <trkpt lat="39.896265" lon="116.641178">
        <time>2020-10-15T12:43:11Z</time>
      </trkpt>
      <trkpt lat="39.896259" lon="116.641022">
        <time>2020-10-15T12:43:16Z</time>
      </trkpt>
      <trkpt lat="39.896264" lon="116.640889">
        <time>2020-10-15T12:43:21Z</time>
      </trkpt>
      <trkpt lat="39.896261" lon="116.640745">
        <time>2020-10-15T12:43:26Z</time>
      </trkpt>
      <trkpt lat="39.896259" lon="116.64061">
        <time>2020-10-15T12:43:31Z</time>
      </trkpt>
      <trkpt lat="39.896253" lon="116.640457">
        <time>2020-10-15T12:43:36Z</time>
      </trkpt>
      <trkpt lat="39.896257" lon="116.640305">
        <time>2020-10-15T12:43:41Z</time>
      </trkpt>
      <trkpt lat="39.89626" lon="116.640091">
        <time>2020-10-15T12:43:46Z</time>
      </trkpt>
      <trkpt lat="39.896276" lon="116.639946">
        <time>2020-10-15T12:43:51Z</time>
      </trkpt>
      <trkpt lat="39.896276" lon="116.639797">
        <time>2020-10-15T12:43:56Z</time>
      </trkpt>
      <trkpt lat="39.89627" lon="116.639676">
        <time>2020-10-15T12:44:01Z</time>
      </trkpt>
      <trkpt lat="39.896266" lon="116.639547">
        <time>2020-10-15T12:44:06Z</time>
      </trkpt>
      <trkpt lat="39.89623" lon="116.639389">
        <time>2020-10-15T12:44:11Z</time>
      </trkpt>
      <trkpt lat="39.896201" lon="116.639232">
        <time>2020-10-15T12:44:16Z</time>
      </trkpt>
      <trkpt lat="39.896175" lon="116.639108">
        <time>2020-10-15T12:44:21Z</time>
      </trkpt>
      <trkpt lat="39.896166" lon="116.638989">
        <time>2020-10-15T12:44:26Z</time>
      </trkpt>
      <trkpt lat="39.89609" lon="116.638862">
        <time>2020-10-15T12:44:31Z</time>
      </trkpt>
      <trkpt lat="39.896034" lon="116.638731">
        <time>2020-10-15T12:44:36Z</time>
      </trkpt>
      <trkpt lat="39.896016" lon="116.638616">
        <time>2020-10-15T12:44:41Z</time>
      </trkpt>
      <trkpt lat="39.896018" lon="116.638491">
        <time>2020-10-15T12:44:46Z</time>
      </trkpt>
      <trkpt lat="39.896025" lon="116.638354">
        <time>2020-10-15T12:44:51Z</time>
      </trkpt>
      <trkpt lat="39.896034" lon="116.63821">
        <time>2020-10-15T12:44:56Z</time>
      </trkpt>
      <trkpt lat="39.896085" lon="116.638042">
        <time>2020-10-15T12:45:01Z</time>
      </trkpt>
      <trkpt lat="39.896115" lon="116.637908">
        <time>2020-10-15T12:45:06Z</time>
      </trkpt>
      <trkpt lat="39.896107" lon="116.637787">
        <time>2020-10-15T12:45:11Z</time>
      </trkpt>
      <trkpt lat="39.896076" lon="116.63766">
        <time>2020-10-15T12:45:16Z</time>
      </trkpt>
      <trkpt lat="39.896064" lon="116.637487">
        <time>2020-10-15T12:45:21Z</time>
      </trkpt>
      <trkpt lat="39.896086" lon="116.637341">
        <time>2020-10-15T12:45:26Z</time>
      </trkpt>
      <trkpt lat="39.896102" lon="116.637189">
        <time>2020-10-15T12:45:31Z</time>
      </trkpt>
      <trkpt lat="39.896104" lon="116.63699">
        <time>2020-10-15T12:45:36Z</time>
      </trkpt>
      <trkpt lat="39.896089" lon="116.636819">
        <time>2020-10-15T12:45:41Z</time>
      </trkpt>
      <trkpt lat="39.896031" lon="116.636699">
        <time>2020-10-15T12:45:46Z</time>
      </trkpt>
      <trkpt lat="39.896016" lon="116.636703">
        <time>2020-10-15T12:45:51Z</time>
      </trkpt>
      <trkpt lat="39.896082" lon="116.636818">
        <time>2020-10-15T12:45:56Z</time>
      </trkpt>
      <trkpt lat="39.896129" lon="116.636969">
        <time>2020-10-15T12:46:01Z</time>
      </trkpt>
      <trkpt lat="39.896164" lon="116.637113">
        <time>2020-10-15T12:46:06Z</time>
      </trkpt>
      <trkpt lat="39.896167" lon="116.637261">
        <time>2020-10-15T12:46:11Z</time>
      </trkpt>
      <trkpt lat="39.896171" lon="116.637404">
        <time>2020-10-15T12:46:16Z</time>
      </trkpt>
      <trkpt lat="39.89619" lon="116.63756">
        <time>2020-10-15T12:46:21Z</time>
      </trkpt>
      <trkpt lat="39.896199" lon="116.637704">
        <time>2020-10-15T12:46:26Z</time>
      </trkpt>
      <trkpt lat="39.896192" lon="116.637846">
        <time>2020-10-15T12:46:31Z</time>
      </trkpt>
      <trkpt lat="39.896213" lon="116.638003">
        <time>2020-10-15T12:46:36Z</time>
      </trkpt>
      <trkpt lat="39.896228" lon="116.638165">
        <time>2020-10-15T12:46:41Z</time>
      </trkpt>
      <trkpt lat="39.896241" lon="116.638321">
        <time>2020-10-15T12:46:46Z</time>
      </trkpt>
      <trkpt lat="39.896215" lon="116.638477">
        <time>2020-10-15T12:46:51Z</time>
      </trkpt>
      <trkpt lat="39.896219" lon="116.638625">
        <time>2020-10-15T12:46:56Z</time>
      </trkpt>
      <trkpt lat="39.896216" lon="116.638759">
        <time>2020-10-15T12:47:01Z</time>
      </trkpt>
      <trkpt lat="39.89619" lon="116.638895">
        <time>2020-10-15T12:47:06Z</time>
      </trkpt>
      <trkpt lat="39.896169" lon="116.639027">
        <time>2020-10-15T12:47:11Z</time>
      </trkpt>
      <trkpt lat="39.896154" lon="116.639166">
        <time>2020-10-15T12:47:16Z</time>
      </trkpt>
      <trkpt lat="39.896161" lon="116.63932">
        <time>2020-10-15T12:47:21Z</time>
      </trkpt>
      <trkpt lat="39.896181" lon="116.639466">
        <time>2020-10-15T12:47:26Z</time>
      </trkpt>
      <trkpt lat="39.896223" lon="116.639614">
        <time>2020-10-15T12:47:31Z</time>
      </trkpt>
      <trkpt lat="39.896265" lon="116.639761">
        <time>2020-10-15T12:47:36Z</time>
      </trkpt>
      <trkpt lat="39.896292" lon="116.639892">
        <time>2020-10-15T12:47:41Z</time>
      </trkpt>
      <trkpt lat="39.896311" lon="116.640038">
        <time>2020-10-15T12:47:46Z</time>
      </trkpt>
      <trkpt lat="39.896315" lon="116.640209">
        <time>2020-10-15T12:47:51Z</time>
      </trkpt>
      <trkpt lat="39.896316" lon="116.640374">
        <time>2020-10-15T12:47:56Z</time>
      </trkpt>
      <trkpt lat="39.896338" lon="116.640561">
        <time>2020-10-15T12:48:01Z</time>
      </trkpt>
      <trkpt lat="39.896336" lon="116.640715">
        <time>2020-10-15T12:48:06Z</time>
      </trkpt>
      <trkpt lat="39.8963" lon="116.640869">
        <time>2020-10-15T12:48:11Z</time>
      </trkpt>
      <trkpt lat="39.896266" lon="116.641007">
        <time>2020-10-15T12:48:16Z</time>
      </trkpt>
      <trkpt lat="39.896257" lon="116.641146">
        <time>2020-10-15T12:48:21Z</time>
      </trkpt>
      <trkpt lat="39.896263" lon="116.641291">
        <time>2020-10-15T12:48:26Z</time>
      </trkpt>
      <trkpt lat="39.896245" lon="116.641451">
        <time>2020-10-15T12:48:31Z</time>
      </trkpt>
      <trkpt lat="39.896208" lon="116.641592">
        <time>2020-10-15T12:48:36Z</time>
      </trkpt>
      <trkpt lat="39.896146" lon="116.641721">
        <time>2020-10-15T12:48:41Z</time>
      </trkpt>
      <trkpt lat="39.89608" lon="116.641851">
        <time>2020-10-15T12:48:46Z</time>
      </trkpt>
      <trkpt lat="39.896056" lon="116.641999">
        <time>2020-10-15T12:48:51Z</time>
      </trkpt>
      <trkpt lat="39.89606" lon="116.642155">
        <time>2020-10-15T12:48:56Z</time>
      </trkpt>
      <trkpt lat="39.896067" lon="116.642297">
        <time>2020-10-15T12:49:01Z</time>
      </trkpt>
      <trkpt lat="39.896088" lon="116.642446">
        <time>2020-10-15T12:49:06Z</time>
      </trkpt>
      <trkpt lat="39.896107" lon="116.642575">
        <time>2020-10-15T12:49:11Z</time>
      </trkpt>
      <trkpt lat="39.896153" lon="116.642709">
        <time>2020-10-15T12:49:16Z</time>
      </trkpt>
      <trkpt lat="39.89615" lon="116.642848">
        <time>2020-10-15T12:49:21Z</time>
      </trkpt>
      <trkpt lat="39.89614" lon="116.642973">
        <time>2020-10-15T12:49:26Z</time>
      </trkpt>
      <trkpt lat="39.896153" lon="116.643114">
        <time>2020-10-15T12:49:31Z</time>
      </trkpt>
      <trkpt lat="39.896184" lon="116.643249">
        <time>2020-10-15T12:49:36Z</time>
      </trkpt>
      <trkpt lat="39.896188" lon="116.643388">
        <time>2020-10-15T12:49:41Z</time>
      </trkpt>
      <trkpt lat="39.896174" lon="116.643544">
        <time>2020-10-15T12:49:46Z</time>
      </trkpt>
      <trkpt lat="39.896174" lon="116.643697">
        <time>2020-10-15T12:49:51Z</time>
      </trkpt>
      <trkpt lat="39.896187" lon="116.643843">
        <time>2020-10-15T12:49:56Z</time>
      </trkpt>
      <trkpt lat="39.896189" lon="116.643983">
        <time>2020-10-15T12:50:01Z</time>
      </trkpt>
      <trkpt lat="39.896213" lon="116.644132">
        <time>2020-10-15T12:50:06Z</time>
      </trkpt>
      <trkpt lat="39.896223" lon="116.644275">
        <time>2020-10-15T12:50:11Z</time>
      </trkpt>
      <trkpt lat="39.896221" lon="116.644428">
        <time>2020-10-15T12:50:16Z</time>
      </trkpt>
      <trkpt lat="39.896214" lon="116.64457">
        <time>2020-10-15T12:50:21Z</time>
      </trkpt>
      <trkpt lat="39.896226" lon="116.64472">
        <time>2020-10-15T12:50:26Z</time>
      </trkpt>
      <trkpt lat="39.896208" lon="116.644868">
        <time>2020-10-15T12:50:31Z</time>
      </trkpt>
      <trkpt lat="39.896173" lon="116.645021">
        <time>2020-10-15T12:50:36Z</time>
      </trkpt>
      <trkpt lat="39.896162" lon="116.645169">
        <time>2020-10-15T12:50:41Z</time>
      </trkpt>
      <trkpt lat="39.896174" lon="116.645323">
        <time>2020-10-15T12:50:46Z</time>
      </trkpt>
      <trkpt lat="39.896172" lon="116.645469">
        <time>2020-10-15T12:50:51Z</time>
      </trkpt>
      <trkpt lat="39.896149" lon="116.645622">
        <time>2020-10-15T12:50:56Z</time>
      </trkpt>
      <trkpt lat="39.896129" lon="116.645756">
        <time>2020-10-15T12:51:01Z</time>
      </trkpt>
      <trkpt lat="39.89612" lon="116.645892">
        <time>2020-10-15T12:51:06Z</time>
      </trkpt>
      <trkpt lat="39.89613" lon="116.646019">
        <time>2020-10-15T12:51:11Z</time>
      </trkpt>
      <trkpt lat="39.896122" lon="116.646176">
        <time>2020-10-15T12:51:16Z</time>
      </trkpt>
      <trkpt lat="39.896121" lon="116.64631">
        <time>2020-10-15T12:51:21Z</time>
      </trkpt>
      <trkpt lat="39.896085" lon="116.646456">
        <time>2020-10-15T12:51:26Z</time>
      </trkpt>
      <trkpt lat="39.896051" lon="116.646581">
        <time>2020-10-15T12:51:31Z</time>
      </trkpt>
      <trkpt lat="39.895939" lon="116.646644">
        <time>2020-10-15T12:51:36Z</time>
      </trkpt>
      <trkpt lat="39.895816" lon="116.646635">
        <time>2020-10-15T12:51:41Z</time>
      </trkpt>
      <trkpt lat="39.895711" lon="116.646576">
        <time>2020-10-15T12:51:46Z</time>
      </trkpt>
      <trkpt lat="39.8956" lon="116.64651">
        <time>2020-10-15T12:51:51Z</time>
      </trkpt>
      <trkpt lat="39.895503" lon="116.646449">
        <time>2020-10-15T12:51:56Z</time>
      </trkpt>
      <trkpt lat="39.895401" lon="116.646409">
        <time>2020-10-15T12:52:01Z</time>
      </trkpt>
      <trkpt lat="39.89528" lon="116.646376">
        <time>2020-10-15T12:52:06Z</time>
      </trkpt>
      <trkpt lat="39.895155" lon="116.646354">
        <time>2020-10-15T12:52:11Z</time>
      </trkpt>
      <trkpt lat="39.895032" lon="116.6463">
        <time>2020-10-15T12:52:16Z</time>
      </trkpt>
      <trkpt lat="39.894943" lon="116.646245">
        <time>2020-10-15T12:52:21Z</time>
      </trkpt>
      <trkpt lat="39.894861" lon="116.646212">
        <time>2020-10-15T12:52:26Z</time>
      </trkpt>
      <trkpt lat="39.894764" lon="116.646182">
        <time>2020-10-15T12:52:31Z</time>
      </trkpt>
      <trkpt lat="39.894648" lon="116.64613">
        <time>2020-10-15T12:52:36Z</time>
      </trkpt>
      <trkpt lat="39.894518" lon="116.646084">
        <time>2020-10-15T12:52:41Z</time>
      </trkpt>
      <trkpt lat="39.894396" lon="116.646041">
        <time>2020-10-15T12:52:46Z</time>
      </trkpt>
      <trkpt lat="39.894286" lon="116.646003">
        <time>2020-10-15T12:52:51Z</time>
      </trkpt>
      <trkpt lat="39.894168" lon="116.645961">
        <time>2020-10-15T12:52:56Z</time>
      </trkpt>
      <trkpt lat="39.894087" lon="116.645882">
        <time>2020-10-15T12:53:01Z</time>
      </trkpt>
      <trkpt lat="39.893989" lon="116.645832">
        <time>2020-10-15T12:53:06Z</time>
      </trkpt>
      <trkpt lat="39.893911" lon="116.645881">
        <time>2020-10-15T12:53:11Z</time>
      </trkpt>
      <trkpt lat="39.893871" lon="116.645979">
        <time>2020-10-15T12:53:16Z</time>
      </trkpt>
      <trkpt lat="39.893834" lon="116.646081">
        <time>2020-10-15T12:53:21Z</time>
      </trkpt>
      <trkpt lat="39.893772" lon="116.646167">
        <time>2020-10-15T12:53:26Z</time>
      </trkpt>
      <trkpt lat="39.893667" lon="116.646209">
        <time>2020-10-15T12:53:31Z</time>
      </trkpt>
      <trkpt lat="39.893529" lon="116.646208">
        <time>2020-10-15T12:53:36Z</time>
      </trkpt>
      <trkpt lat="39.893386" lon="116.646174">
        <time>2020-10-15T12:53:41Z</time>
      </trkpt>
      <trkpt lat="39.893268" lon="116.64614">
        <time>2020-10-15T12:53:46Z</time>
      </trkpt>
      <trkpt lat="39.893128" lon="116.646099">
        <time>2020-10-15T12:53:51Z</time>
      </trkpt>
      <trkpt lat="39.893033" lon="116.646054">
        <time>2020-10-15T12:53:56Z</time>
      </trkpt>
      <trkpt lat="39.892932" lon="116.64599">
        <time>2020-10-15T12:54:01Z</time>
      </trkpt>
      <trkpt lat="39.892794" lon="116.645986">
        <time>2020-10-15T12:54:06Z</time>
      </trkpt>
      <trkpt lat="39.892661" lon="116.645957">
        <time>2020-10-15T12:54:11Z</time>
      </trkpt>
      <trkpt lat="39.892535" lon="116.645896">
        <time>2020-10-15T12:54:16Z</time>
      </trkpt>
      <trkpt lat="39.892403" lon="116.645858">
        <time>2020-10-15T12:54:21Z</time>
      </trkpt>
      <trkpt lat="39.892282" lon="116.645801">
        <time>2020-10-15T12:54:26Z</time>
      </trkpt>
      <trkpt lat="39.892165" lon="116.645751">
        <time>2020-10-15T12:54:31Z</time>
      </trkpt>
      <trkpt lat="39.892067" lon="116.645695">
        <time>2020-10-15T12:54:36Z</time>
      </trkpt>
      <trkpt lat="39.891967" lon="116.645667">
        <time>2020-10-15T12:54:41Z</time>
      </trkpt>
      <trkpt lat="39.891867" lon="116.645611">
        <time>2020-10-15T12:54:46Z</time>
      </trkpt>
      <trkpt lat="39.891795" lon="116.645558">
        <time>2020-10-15T12:54:51Z</time>
      </trkpt>
      <trkpt lat="39.891701" lon="116.645491">
        <time>2020-10-15T12:54:56Z</time>
      </trkpt>
      <trkpt lat="39.891593" lon="116.645408">
        <time>2020-10-15T12:55:01Z</time>
      </trkpt>
      <trkpt lat="39.891518" lon="116.645348">
        <time>2020-10-15T12:55:06Z</time>
      </trkpt>
      <trkpt lat="39.891563" lon="116.645342">
        <time>2020-10-15T12:55:11Z</time>
      </trkpt>
      <trkpt lat="39.89166" lon="116.645357">
        <time>2020-10-15T12:55:16Z</time>
      </trkpt>
      <trkpt lat="39.891752" lon="116.645395">
        <time>2020-10-15T12:55:21Z</time>
      </trkpt>
      <trkpt lat="39.891859" lon="116.645459">
        <time>2020-10-15T12:55:26Z</time>
      </trkpt>
      <trkpt lat="39.891998" lon="116.64551">
        <time>2020-10-15T12:55:31Z</time>
      </trkpt>
      <trkpt lat="39.892138" lon="116.645547">
        <time>2020-10-15T12:55:36Z</time>
      </trkpt>
      <trkpt lat="39.892255" lon="116.645574">
        <time>2020-10-15T12:55:41Z</time>
      </trkpt>
      <trkpt lat="39.892365" lon="116.645604">
        <time>2020-10-15T12:55:46Z</time>
      </trkpt>
      <trkpt lat="39.892463" lon="116.64565">
        <time>2020-10-15T12:55:51Z</time>
      </trkpt>
      <trkpt lat="39.892552" lon="116.645719">
        <time>2020-10-15T12:55:56Z</time>
      </trkpt>
      <trkpt lat="39.89266" lon="116.645789">
        <time>2020-10-15T12:56:01Z</time>
      </trkpt>
      <trkpt lat="39.892761" lon="116.645833">
        <time>2020-10-15T12:56:06Z</time>
      </trkpt>
      <trkpt lat="39.892875" lon="116.645863">
        <time>2020-10-15T12:56:11Z</time>
      </trkpt>
      <trkpt lat="39.892974" lon="116.645882">
        <time>2020-10-15T12:56:16Z</time>
      </trkpt>
      <trkpt lat="39.893064" lon="116.645928">
        <time>2020-10-15T12:56:21Z</time>
      </trkpt>
      <trkpt lat="39.893162" lon="116.646002">
        <time>2020-10-15T12:56:26Z</time>
      </trkpt>
      <trkpt lat="39.89329" lon="116.646051">
        <time>2020-10-15T12:56:31Z</time>
      </trkpt>
      <trkpt lat="39.8934" lon="116.646127">
        <time>2020-10-15T12:56:36Z</time>
      </trkpt>
      <trkpt lat="39.893526" lon="116.646176">
        <time>2020-10-15T12:56:41Z</time>
      </trkpt>
      <trkpt lat="39.893649" lon="116.646206">
        <time>2020-10-15T12:56:46Z</time>
      </trkpt>
      <trkpt lat="39.893753" lon="116.646156">
        <time>2020-10-15T12:56:51Z</time>
      </trkpt>
      <trkpt lat="39.89384" lon="116.64604">
        <time>2020-10-15T12:56:56Z</time>
      </trkpt>
      <trkpt lat="39.893896" lon="116.645915">
        <time>2020-10-15T12:57:01Z</time>
      </trkpt>
      <trkpt lat="39.893967" lon="116.645809">
        <time>2020-10-15T12:57:06Z</time>
      </trkpt>
      <trkpt lat="39.894068" lon="116.64574">
        <time>2020-10-15T12:57:11Z</time>
      </trkpt>
      <trkpt lat="39.894148" lon="116.645795">
        <time>2020-10-15T12:57:16Z</time>
      </trkpt>
      <trkpt lat="39.894247" lon="116.645873">
        <time>2020-10-15T12:57:21Z</time>
      </trkpt>
      <trkpt lat="39.894348" lon="116.64594">
        <time>2020-10-15T12:57:26Z</time>
      </trkpt>
      <trkpt lat="39.894446" lon="116.646031">
        <time>2020-10-15T12:57:31Z</time>
      </trkpt>
      <trkpt lat="39.89454" lon="116.646108">
        <time>2020-10-15T12:57:36Z</time>
      </trkpt>
      <trkpt lat="39.894665" lon="116.64614">
        <time>2020-10-15T12:57:41Z</time>
      </trkpt>
      <trkpt lat="39.894787" lon="116.646181">
        <time>2020-10-15T12:57:46Z</time>
      </trkpt>
      <trkpt lat="39.894881" lon="116.646244">
        <time>2020-10-15T12:57:51Z</time>
      </trkpt>
      <trkpt lat="39.894994" lon="116.64627">
        <time>2020-10-15T12:57:56Z</time>
      </trkpt>
      <trkpt lat="39.895111" lon="116.646307">
        <time>2020-10-15T12:58:01Z</time>
      </trkpt>
      <trkpt lat="39.895239" lon="116.646309">
        <time>2020-10-15T12:58:06Z</time>
      </trkpt>
      <trkpt lat="39.895355" lon="116.646319">
        <time>2020-10-15T12:58:11Z</time>
      </trkpt>
      <trkpt lat="39.895461" lon="116.646381">
        <time>2020-10-15T12:58:16Z</time>
      </trkpt>
      <trkpt lat="39.895566" lon="116.646414">
        <time>2020-10-15T12:58:21Z</time>
      </trkpt>
      <trkpt lat="39.895675" lon="116.646463">
        <time>2020-10-15T12:58:26Z</time>
      </trkpt>
      <trkpt lat="39.895786" lon="116.646552">
        <time>2020-10-15T12:58:31Z</time>
      </trkpt>
      <trkpt lat="39.895898" lon="116.646621">
        <time>2020-10-15T12:58:36Z</time>
      </trkpt>
      <trkpt lat="39.895992" lon="116.646602">
        <time>2020-10-15T12:58:41Z</time>
      </trkpt>
      <trkpt lat="39.89602" lon="116.646509">
        <time>2020-10-15T12:58:46Z</time>
      </trkpt>
      <trkpt lat="39.896013" lon="116.646394">
        <time>2020-10-15T12:58:51Z</time>
      </trkpt>
      <trkpt lat="39.896017" lon="116.646261">
        <time>2020-10-15T12:58:56Z</time>
      </trkpt>
      <trkpt lat="39.896031" lon="116.646114">
        <time>2020-10-15T12:59:01Z</time>
      </trkpt>
      <trkpt lat="39.896053" lon="116.645969">
        <time>2020-10-15T12:59:06Z</time>
      </trkpt>
      <trkpt lat="39.896076" lon="116.645826">
        <time>2020-10-15T12:59:11Z</time>
      </trkpt>
      <trkpt lat="39.896084" lon="116.645675">
        <time>2020-10-15T12:59:16Z</time>
      </trkpt>
      <trkpt lat="39.896116" lon="116.645515">
        <time>2020-10-15T12:59:21Z</time>
      </trkpt>
      <trkpt lat="39.896144" lon="116.645366">
        <time>2020-10-15T12:59:26Z</time>
      </trkpt>
      <trkpt lat="39.896171" lon="116.645237">
        <time>2020-10-15T12:59:31Z</time>
      </trkpt>
      <trkpt lat="39.896173" lon="116.645125">
        <time>2020-10-15T12:59:36Z</time>
      </trkpt>
      <trkpt lat="39.896174" lon="116.645013">
        <time>2020-10-15T12:59:41Z</time>
      </trkpt>
      <trkpt lat="39.896191" lon="116.644884">
        <time>2020-10-15T12:59:46Z</time>
      </trkpt>
      <trkpt lat="39.896217" lon="116.644745">
        <time>2020-10-15T12:59:51Z</time>
      </trkpt>
      <trkpt lat="39.896204" lon="116.644602">
        <time>2020-10-15T12:59:56Z</time>
      </trkpt>
      <trkpt lat="39.896188" lon="116.644477">
        <time>2020-10-15T13:00:01Z</time>
      </trkpt>
      <trkpt lat="39.896187" lon="116.644328">
        <time>2020-10-15T13:00:06Z</time>
      </trkpt>
      <trkpt lat="39.896193" lon="116.644167">
        <time>2020-10-15T13:00:11Z</time>
      </trkpt>
      <trkpt lat="39.896181" lon="116.64401">
        <time>2020-10-15T13:00:16Z</time>
      </trkpt>
      <trkpt lat="39.896159" lon="116.643873">
        <time>2020-10-15T13:00:21Z</time>
      </trkpt>
      <trkpt lat="39.896147" lon="116.643746">
        <time>2020-10-15T13:00:26Z</time>
      </trkpt>
      <trkpt lat="39.896163" lon="116.643636">
        <time>2020-10-15T13:00:31Z</time>
      </trkpt>
      <trkpt lat="39.896159" lon="116.643514">
        <time>2020-10-15T13:00:36Z</time>
      </trkpt>
      <trkpt lat="39.896153" lon="116.643376">
        <time>2020-10-15T13:00:41Z</time>
      </trkpt>
      <trkpt lat="39.896176" lon="116.6432">
        <time>2020-10-15T13:00:46Z</time>
      </trkpt>
      <trkpt lat="39.896177" lon="116.643062">
        <time>2020-10-15T13:00:51Z</time>
      </trkpt>
      <trkpt lat="39.896176" lon="116.642936">
        <time>2020-10-15T13:00:56Z</time>
      </trkpt>
      <trkpt lat="39.896178" lon="116.642807">
        <time>2020-10-15T13:01:01Z</time>
      </trkpt>
      <trkpt lat="39.896184" lon="116.642672">
        <time>2020-10-15T13:01:06Z</time>
      </trkpt>
      <trkpt lat="39.896185" lon="116.642528">
        <time>2020-10-15T13:01:11Z</time>
      </trkpt>
      <trkpt lat="39.896214" lon="116.642394">
        <time>2020-10-15T13:01:16Z</time>
      </trkpt>
      <trkpt lat="39.896242" lon="116.642219">
        <time>2020-10-15T13:01:21Z</time>
      </trkpt>
      <trkpt lat="39.896236" lon="116.642052">
        <time>2020-10-15T13:01:26Z</time>
      </trkpt>
      <trkpt lat="39.89622" lon="116.6419">
        <time>2020-10-15T13:01:31Z</time>
      </trkpt>
      <trkpt lat="39.896197" lon="116.641757">
        <time>2020-10-15T13:01:36Z</time>
      </trkpt>
      <trkpt lat="39.896185" lon="116.641617">
        <time>2020-10-15T13:01:41Z</time>
      </trkpt>
      <trkpt lat="39.896178" lon="116.641478">
        <time>2020-10-15T13:01:46Z</time>
      </trkpt>
      <trkpt lat="39.89617" lon="116.641354">
        <time>2020-10-15T13:01:51Z</time>
      </trkpt>
      <trkpt lat="39.896185" lon="116.641232">
        <time>2020-10-15T13:01:56Z</time>
      </trkpt>
      <trkpt lat="39.896203" lon="116.641107">
        <time>2020-10-15T13:02:01Z</time>
      </trkpt>
      <trkpt lat="39.896202" lon="116.640971">
        <time>2020-10-15T13:02:06Z</time>
      </trkpt>
      <trkpt lat="39.896187" lon="116.640846">
        <time>2020-10-15T13:02:11Z</time>
      </trkpt>
      <trkpt lat="39.896178" lon="116.640707">
        <time>2020-10-15T13:02:16Z</time>
      </trkpt>
      <trkpt lat="39.896153" lon="116.640585">
        <time>2020-10-15T13:02:21Z</time>
      </trkpt>
      <trkpt lat="39.896153" lon="116.640446">
        <time>2020-10-15T13:02:26Z</time>
      </trkpt>
      <trkpt lat="39.89616" lon="116.64032">
        <time>2020-10-15T13:02:31Z</time>
      </trkpt>
      <trkpt lat="39.896181" lon="116.640172">
        <time>2020-10-15T13:02:36Z</time>
      </trkpt>
      <trkpt lat="39.896208" lon="116.640009">
        <time>2020-10-15T13:02:41Z</time>
      </trkpt>
      <trkpt lat="39.896238" lon="116.63985">
        <time>2020-10-15T13:02:46Z</time>
      </trkpt>
      <trkpt lat="39.896232" lon="116.639733">
        <time>2020-10-15T13:02:51Z</time>
      </trkpt>
      <trkpt lat="39.896181" lon="116.639269">
        <time>2020-10-15T13:02:56Z</time>
      </trkpt>
      <trkpt lat="39.896181" lon="116.639269">
        <time>2020-10-15T13:03:01Z</time>
      </trkpt>
      <trkpt lat="39.896181" lon="116.639269">
        <time>2020-10-15T13:03:06Z</time>
      </trkpt>
      <trkpt lat="39.896181" lon="116.639269">
        <time>2020-10-15T13:03:11Z</time>
      </trkpt>
      <trkpt lat="39.896181" lon="116.639269">
        <time>2020-10-15T13:03:16Z</time>
      </trkpt>
      <trkpt lat="39.896181" lon="116.639269">
        <time>2020-10-15T13:03:21Z</time>
      </trkpt>
      <trkpt lat="39.896181" lon="116.639269">
        <time>2020-10-15T13:03:26Z</time>
      </trkpt>
      <trkpt lat="39.896181" lon="116.639269">
        <time>2020-10-15T13:03:31Z</time>
      </trkpt>
      <trkpt lat="39.896181" lon="116.639269">
        <time>2020-10-15T13:03:36Z</time>
      </trkpt>
      <trkpt lat="39.896181" lon="116.639269">
        <time>2020-10-15T13:03:41Z</time>
      </trkpt>
      <trkpt lat="39.896181" lon="116.639269">
        <time>2020-10-15T13:03:46Z</time>
      </trkpt>
      <trkpt lat="39.896181" lon="116.639269">
        <time>2020-10-15T13:03:51Z</time>
      </trkpt>
      <trkpt lat="39.896181" lon="116.639269">
        <time>2020-10-15T13:03:56Z</time>
      </trkpt>
      <trkpt lat="39.896181" lon="116.639269">
        <time>2020-10-15T13:04:01Z</time>
      </trkpt>
      <trkpt lat="39.896181" lon="116.639269">
        <time>2020-10-15T13:04:06Z</time>
      </trkpt>
      <trkpt lat="39.896181" lon="116.639269">
        <time>2020-10-15T13:04:11Z</time>
      </trkpt>
      <trkpt lat="39.89623" lon="116.639255">
        <time>2020-10-15T13:04:16Z</time>
      </trkpt>
      <trkpt lat="39.896232" lon="116.639202">
        <time>2020-10-15T13:04:21Z</time>
      </trkpt>
      <trkpt lat="39.896179" lon="116.639109">
        <time>2020-10-15T13:04:26Z</time>
      </trkpt>
      <trkpt lat="39.896147" lon="116.638984">
        <time>2020-10-15T13:04:31Z</time>
      </trkpt>
      <trkpt lat="39.896127" lon="116.638865">
        <time>2020-10-15T13:04:36Z</time>
      </trkpt>
      <trkpt lat="39.896079" lon="116.638779">
        <time>2020-10-15T13:04:41Z</time>
      </trkpt>
      <trkpt lat="39.896038" lon="116.638646">
        <time>2020-10-15T13:04:46Z</time>
      </trkpt>
      <trkpt lat="39.896032" lon="116.638487">
        <time>2020-10-15T13:04:51Z</time>
      </trkpt>
      <trkpt lat="39.896031" lon="116.638329">
        <time>2020-10-15T13:04:56Z</time>
      </trkpt>
      <trkpt lat="39.896037" lon="116.638134">
        <time>2020-10-15T13:05:01Z</time>
      </trkpt>
      <trkpt lat="39.896066" lon="116.63798">
        <time>2020-10-15T13:05:06Z</time>
      </trkpt>
      <trkpt lat="39.896077" lon="116.63785">
        <time>2020-10-15T13:05:11Z</time>
      </trkpt>
      <trkpt lat="39.896049" lon="116.63772">
        <time>2020-10-15T13:05:16Z</time>
      </trkpt>
      <trkpt lat="39.896039" lon="116.637579">
        <time>2020-10-15T13:05:21Z</time>
      </trkpt>
      <trkpt lat="39.896047" lon="116.63742">
        <time>2020-10-15T13:05:26Z</time>
      </trkpt>
      <trkpt lat="39.896058" lon="116.637276">
        <time>2020-10-15T13:05:31Z</time>
      </trkpt>
      <trkpt lat="39.896062" lon="116.637123">
        <time>2020-10-15T13:05:36Z</time>
      </trkpt>
      <trkpt lat="39.896114" lon="116.63695">
        <time>2020-10-15T13:05:41Z</time>
      </trkpt>
      <trkpt lat="39.896104" lon="116.636804">
        <time>2020-10-15T13:05:46Z</time>
      </trkpt>
      <trkpt lat="39.896063" lon="116.636729">
        <time>2020-10-15T13:05:51Z</time>
      </trkpt>
      <trkpt lat="39.896082" lon="116.63679">
        <time>2020-10-15T13:05:56Z</time>
      </trkpt>
      <trkpt lat="39.896119" lon="116.636908">
        <time>2020-10-15T13:06:01Z</time>
      </trkpt>
      <trkpt lat="39.896142" lon="116.637048">
        <time>2020-10-15T13:06:06Z</time>
      </trkpt>
      <trkpt lat="39.896147" lon="116.637184">
        <time>2020-10-15T13:06:11Z</time>
      </trkpt>
      <trkpt lat="39.896148" lon="116.637337">
        <time>2020-10-15T13:06:16Z</time>
      </trkpt>
      <trkpt lat="39.896137" lon="116.637473">
        <time>2020-10-15T13:06:21Z</time>
      </trkpt>
      <trkpt lat="39.896137" lon="116.637614">
        <time>2020-10-15T13:06:26Z</time>
      </trkpt>
      <trkpt lat="39.896138" lon="116.637758">
        <time>2020-10-15T13:06:31Z</time>
      </trkpt>
      <trkpt lat="39.896128" lon="116.6379">
        <time>2020-10-15T13:06:36Z</time>
      </trkpt>
      <trkpt lat="39.896123" lon="116.638052">
        <time>2020-10-15T13:06:41Z</time>
      </trkpt>
      <trkpt lat="39.896142" lon="116.638211">
        <time>2020-10-15T13:06:46Z</time>
      </trkpt>
      <trkpt lat="39.896173" lon="116.638368">
        <time>2020-10-15T13:06:51Z</time>
      </trkpt>
      <trkpt lat="39.896165" lon="116.638518">
        <time>2020-10-15T13:06:56Z</time>
      </trkpt>
      <trkpt lat="39.896176" lon="116.638684">
        <time>2020-10-15T13:07:01Z</time>
      </trkpt>
      <trkpt lat="39.896179" lon="116.638845">
        <time>2020-10-15T13:07:06Z</time>
      </trkpt>
      <trkpt lat="39.896163" lon="116.639006">
        <time>2020-10-15T13:07:11Z</time>
      </trkpt>
      <trkpt lat="39.896157" lon="116.639162">
        <time>2020-10-15T13:07:16Z</time>
      </trkpt>
      <trkpt lat="39.896161" lon="116.639307">
        <time>2020-10-15T13:07:21Z</time>
      </trkpt>
      <trkpt lat="39.896184" lon="116.639459">
        <time>2020-10-15T13:07:26Z</time>
      </trkpt>
      <trkpt lat="39.896181" lon="116.639602">
        <time>2020-10-15T13:07:31Z</time>
      </trkpt>
      <trkpt lat="39.896188" lon="116.639748">
        <time>2020-10-15T13:07:36Z</time>
      </trkpt>
      <trkpt lat="39.896174" lon="116.639881">
        <time>2020-10-15T13:07:41Z</time>
      </trkpt>
      <trkpt lat="39.896191" lon="116.640023">
        <time>2020-10-15T13:07:46Z</time>
      </trkpt>
      <trkpt lat="39.896179" lon="116.640162">
        <time>2020-10-15T13:07:51Z</time>
      </trkpt>
      <trkpt lat="39.896177" lon="116.640306">
        <time>2020-10-15T13:07:56Z</time>
      </trkpt>
      <trkpt lat="39.896195" lon="116.640474">
        <time>2020-10-15T13:08:01Z</time>
      </trkpt>
      <trkpt lat="39.896204" lon="116.640633">
        <time>2020-10-15T13:08:06Z</time>
      </trkpt>
      <trkpt lat="39.896201" lon="116.640799">
        <time>2020-10-15T13:08:11Z</time>
      </trkpt>
      <trkpt lat="39.896201" lon="116.640944">
        <time>2020-10-15T13:08:16Z</time>
      </trkpt>
      <trkpt lat="39.896204" lon="116.641092">
        <time>2020-10-15T13:08:21Z</time>
      </trkpt>
      <trkpt lat="39.896169" lon="116.641211">
        <time>2020-10-15T13:08:26Z</time>
      </trkpt>
      <trkpt lat="39.896138" lon="116.641346">
        <time>2020-10-15T13:08:31Z</time>
      </trkpt>
      <trkpt lat="39.89612" lon="116.64149">
        <time>2020-10-15T13:08:36Z</time>
      </trkpt>
      <trkpt lat="39.896093" lon="116.641635">
        <time>2020-10-15T13:08:41Z</time>
      </trkpt>
      <trkpt lat="39.896088" lon="116.641777">
        <time>2020-10-15T13:08:46Z</time>
      </trkpt>
      <trkpt lat="39.896075" lon="116.641919">
        <time>2020-10-15T13:08:51Z</time>
      </trkpt>
      <trkpt lat="39.896069" lon="116.642068">
        <time>2020-10-15T13:08:56Z</time>
      </trkpt>
      <trkpt lat="39.896063" lon="116.642218">
        <time>2020-10-15T13:09:01Z</time>
      </trkpt>
      <trkpt lat="39.896069" lon="116.642353">
        <time>2020-10-15T13:09:06Z</time>
      </trkpt>
      <trkpt lat="39.896066" lon="116.6425">
        <time>2020-10-15T13:09:11Z</time>
      </trkpt>
      <trkpt lat="39.896072" lon="116.642691">
        <time>2020-10-15T13:09:16Z</time>
      </trkpt>
      <trkpt lat="39.896069" lon="116.642847">
        <time>2020-10-15T13:09:21Z</time>
      </trkpt>
      <trkpt lat="39.896038" lon="116.642996">
        <time>2020-10-15T13:09:26Z</time>
      </trkpt>
      <trkpt lat="39.896013" lon="116.643134">
        <time>2020-10-15T13:09:31Z</time>
      </trkpt>
      <trkpt lat="39.895994" lon="116.643268">
        <time>2020-10-15T13:09:36Z</time>
      </trkpt>
      <trkpt lat="39.895994" lon="116.643416">
        <time>2020-10-15T13:09:41Z</time>
      </trkpt>
      <trkpt lat="39.89603" lon="116.643564">
        <time>2020-10-15T13:09:46Z</time>
      </trkpt>
      <trkpt lat="39.896056" lon="116.643711">
        <time>2020-10-15T13:09:51Z</time>
      </trkpt>
      <trkpt lat="39.896079" lon="116.643851">
        <time>2020-10-15T13:09:56Z</time>
      </trkpt>
      <trkpt lat="39.896117" lon="116.643992">
        <time>2020-10-15T13:10:01Z</time>
      </trkpt>
      <trkpt lat="39.896154" lon="116.644133">
        <time>2020-10-15T13:10:06Z</time>
      </trkpt>
      <trkpt lat="39.896171" lon="116.644266">
        <time>2020-10-15T13:10:11Z</time>
      </trkpt>
      <trkpt lat="39.896184" lon="116.644397">
        <time>2020-10-15T13:10:16Z</time>
      </trkpt>
      <trkpt lat="39.896183" lon="116.644523">
        <time>2020-10-15T13:10:21Z</time>
      </trkpt>
      <trkpt lat="39.896202" lon="116.644645">
        <time>2020-10-15T13:10:26Z</time>
      </trkpt>
      <trkpt lat="39.896198" lon="116.644789">
        <time>2020-10-15T13:10:31Z</time>
      </trkpt>
      <trkpt lat="39.896189" lon="116.644937">
        <time>2020-10-15T13:10:36Z</time>
      </trkpt>
      <trkpt lat="39.896195" lon="116.645071">
        <time>2020-10-15T13:10:41Z</time>
      </trkpt>
      <trkpt lat="39.896208" lon="116.645217">
        <time>2020-10-15T13:10:46Z</time>
      </trkpt>
      <trkpt lat="39.896195" lon="116.645373">
        <time>2020-10-15T13:10:51Z</time>
      </trkpt>
      <trkpt lat="39.896196" lon="116.645534">
        <time>2020-10-15T13:10:56Z</time>
      </trkpt>
      <trkpt lat="39.896182" lon="116.645683">
        <time>2020-10-15T13:11:01Z</time>
      </trkpt>
      <trkpt lat="39.896148" lon="116.64579">
        <time>2020-10-15T13:11:06Z</time>
      </trkpt>
      <trkpt lat="39.896119" lon="116.645904">
        <time>2020-10-15T13:11:11Z</time>
      </trkpt>
      <trkpt lat="39.896081" lon="116.646029">
        <time>2020-10-15T13:11:16Z</time>
      </trkpt>
      <trkpt lat="39.896056" lon="116.646175">
        <time>2020-10-15T13:11:21Z</time>
      </trkpt>
      <trkpt lat="39.896047" lon="116.646311">
        <time>2020-10-15T13:11:26Z</time>
      </trkpt>
      <trkpt lat="39.896049" lon="116.646467">
        <time>2020-10-15T13:11:31Z</time>
      </trkpt>
      <trkpt lat="39.896031" lon="116.646611">
        <time>2020-10-15T13:11:36Z</time>
      </trkpt>
      <trkpt lat="39.895965" lon="116.646712">
        <time>2020-10-15T13:11:41Z</time>
      </trkpt>
      <trkpt lat="39.895844" lon="116.64674">
        <time>2020-10-15T13:11:46Z</time>
      </trkpt>
      <trkpt lat="39.895742" lon="116.646694">
        <time>2020-10-15T13:11:51Z</time>
      </trkpt>
      <trkpt lat="39.895605" lon="116.646646">
        <time>2020-10-15T13:11:56Z</time>
      </trkpt>
      <trkpt lat="39.895482" lon="116.646594">
        <time>2020-10-15T13:12:01Z</time>
      </trkpt>
      <trkpt lat="39.895359" lon="116.646554">
        <time>2020-10-15T13:12:06Z</time>
      </trkpt>
      <trkpt lat="39.895251" lon="116.646501">
        <time>2020-10-15T13:12:11Z</time>
      </trkpt>
      <trkpt lat="39.895133" lon="116.646446">
        <time>2020-10-15T13:12:16Z</time>
      </trkpt>
      <trkpt lat="39.895054" lon="116.646409">
        <time>2020-10-15T13:12:21Z</time>
      </trkpt>
      <trkpt lat="39.894949" lon="116.64637">
        <time>2020-10-15T13:12:26Z</time>
      </trkpt>
      <trkpt lat="39.894784" lon="116.646337">
        <time>2020-10-15T13:12:31Z</time>
      </trkpt>
      <trkpt lat="39.89467" lon="116.646304">
        <time>2020-10-15T13:12:36Z</time>
      </trkpt>
      <trkpt lat="39.894565" lon="116.646273">
        <time>2020-10-15T13:12:41Z</time>
      </trkpt>
      <trkpt lat="39.8945" lon="116.646226">
        <time>2020-10-15T13:12:46Z</time>
      </trkpt>
      <trkpt lat="39.894438" lon="116.646161">
        <time>2020-10-15T13:12:51Z</time>
      </trkpt>
      <trkpt lat="39.89435" lon="116.646123">
        <time>2020-10-15T13:12:56Z</time>
      </trkpt>
      <trkpt lat="39.894254" lon="116.646072">
        <time>2020-10-15T13:13:01Z</time>
      </trkpt>
      <trkpt lat="39.894151" lon="116.646007">
        <time>2020-10-15T13:13:06Z</time>
      </trkpt>
      <trkpt lat="39.894029" lon="116.645939">
        <time>2020-10-15T13:13:11Z</time>
      </trkpt>
      <trkpt lat="39.893944" lon="116.645939">
        <time>2020-10-15T13:13:16Z</time>
      </trkpt>
      <trkpt lat="39.893905" lon="116.646017">
        <time>2020-10-15T13:13:21Z</time>
      </trkpt>
      <trkpt lat="39.893864" lon="116.646125">
        <time>2020-10-15T13:13:26Z</time>
      </trkpt>
      <trkpt lat="39.893832" lon="116.646253">
        <time>2020-10-15T13:13:31Z</time>
      </trkpt>
      <trkpt lat="39.893771" lon="116.646324">
        <time>2020-10-15T13:13:36Z</time>
      </trkpt>
      <trkpt lat="39.893681" lon="116.646305">
        <time>2020-10-15T13:13:41Z</time>
      </trkpt>
      <trkpt lat="39.893554" lon="116.646264">
        <time>2020-10-15T13:13:46Z</time>
      </trkpt>
      <trkpt lat="39.893405" lon="116.646218">
        <time>2020-10-15T13:13:51Z</time>
      </trkpt>
      <trkpt lat="39.893265" lon="116.646179">
        <time>2020-10-15T13:13:56Z</time>
      </trkpt>
      <trkpt lat="39.893158" lon="116.646121">
        <time>2020-10-15T13:14:01Z</time>
      </trkpt>
      <trkpt lat="39.89302" lon="116.646065">
        <time>2020-10-15T13:14:06Z</time>
      </trkpt>
      <trkpt lat="39.892896" lon="116.646002">
        <time>2020-10-15T13:14:11Z</time>
      </trkpt>
      <trkpt lat="39.892781" lon="116.645942">
        <time>2020-10-15T13:14:16Z</time>
      </trkpt>
      <trkpt lat="39.892655" lon="116.645886">
        <time>2020-10-15T13:14:21Z</time>
      </trkpt>
      <trkpt lat="39.892543" lon="116.645844">
        <time>2020-10-15T13:14:26Z</time>
      </trkpt>
      <trkpt lat="39.892421" lon="116.64582">
        <time>2020-10-15T13:14:31Z</time>
      </trkpt>
      <trkpt lat="39.892299" lon="116.645775">
        <time>2020-10-15T13:14:36Z</time>
      </trkpt>
      <trkpt lat="39.892179" lon="116.645705">
        <time>2020-10-15T13:14:41Z</time>
      </trkpt>
      <trkpt lat="39.892062" lon="116.645665">
        <time>2020-10-15T13:14:46Z</time>
      </trkpt>
      <trkpt lat="39.891947" lon="116.645606">
        <time>2020-10-15T13:14:51Z</time>
      </trkpt>
      <trkpt lat="39.891848" lon="116.645558">
        <time>2020-10-15T13:14:56Z</time>
      </trkpt>
      <trkpt lat="39.891739" lon="116.645519">
        <time>2020-10-15T13:15:01Z</time>
      </trkpt>
      <trkpt lat="39.891627" lon="116.645445">
        <time>2020-10-15T13:15:06Z</time>
      </trkpt>
      <trkpt lat="39.891566" lon="116.645382">
        <time>2020-10-15T13:15:11Z</time>
      </trkpt>
      <trkpt lat="39.891546" lon="116.645373">
        <time>2020-10-15T13:15:16Z</time>
      </trkpt>
      <trkpt lat="39.891594" lon="116.645378">
        <time>2020-10-15T13:15:21Z</time>
      </trkpt>
      <trkpt lat="39.891637" lon="116.64539">
        <time>2020-10-15T13:15:26Z</time>
      </trkpt>
      <trkpt lat="39.891699" lon="116.645416">
        <time>2020-10-15T13:15:31Z</time>
      </trkpt>
      <trkpt lat="39.891756" lon="116.64543">
        <time>2020-10-15T13:15:36Z</time>
      </trkpt>
      <trkpt lat="39.891802" lon="116.645459">
        <time>2020-10-15T13:15:41Z</time>
      </trkpt>
      <trkpt lat="39.891865" lon="116.645496">
        <time>2020-10-15T13:15:46Z</time>
      </trkpt>
      <trkpt lat="39.891959" lon="116.645537">
        <time>2020-10-15T13:15:51Z</time>
      </trkpt>
      <trkpt lat="39.892072" lon="116.64557">
        <time>2020-10-15T13:15:56Z</time>
      </trkpt>
      <trkpt lat="39.892174" lon="116.645625">
        <time>2020-10-15T13:16:01Z</time>
      </trkpt>
      <trkpt lat="39.89229" lon="116.645657">
        <time>2020-10-15T13:16:06Z</time>
      </trkpt>
      <trkpt lat="39.892401" lon="116.645713">
        <time>2020-10-15T13:16:11Z</time>
      </trkpt>
      <trkpt lat="39.892506" lon="116.645776">
        <time>2020-10-15T13:16:16Z</time>
      </trkpt>
      <trkpt lat="39.892623" lon="116.645802">
        <time>2020-10-15T13:16:21Z</time>
      </trkpt>
      <trkpt lat="39.89271" lon="116.645841">
        <time>2020-10-15T13:16:26Z</time>
      </trkpt>
      <trkpt lat="39.892801" lon="116.645881">
        <time>2020-10-15T13:16:31Z</time>
      </trkpt>
      <trkpt lat="39.892898" lon="116.645918">
        <time>2020-10-15T13:16:36Z</time>
      </trkpt>
      <trkpt lat="39.892986" lon="116.645944">
        <time>2020-10-15T13:16:41Z</time>
      </trkpt>
      <trkpt lat="39.893096" lon="116.646009">
        <time>2020-10-15T13:16:46Z</time>
      </trkpt>
      <trkpt lat="39.893209" lon="116.646062">
        <time>2020-10-15T13:16:51Z</time>
      </trkpt>
      <trkpt lat="39.893302" lon="116.646094">
        <time>2020-10-15T13:16:56Z</time>
      </trkpt>
      <trkpt lat="39.893408" lon="116.646171">
        <time>2020-10-15T13:17:01Z</time>
      </trkpt>
      <trkpt lat="39.893531" lon="116.646241">
        <time>2020-10-15T13:17:06Z</time>
      </trkpt>
      <trkpt lat="39.893652" lon="116.646293">
        <time>2020-10-15T13:17:11Z</time>
      </trkpt>
      <trkpt lat="39.89375" lon="116.646222">
        <time>2020-10-15T13:17:16Z</time>
      </trkpt>
      <trkpt lat="39.893815" lon="116.646101">
        <time>2020-10-15T13:17:21Z</time>
      </trkpt>
      <trkpt lat="39.893863" lon="116.645959">
        <time>2020-10-15T13:17:26Z</time>
      </trkpt>
      <trkpt lat="39.893941" lon="116.645835">
        <time>2020-10-15T13:17:31Z</time>
      </trkpt>
      <trkpt lat="39.894017" lon="116.645773">
        <time>2020-10-15T13:17:36Z</time>
      </trkpt>
      <trkpt lat="39.894112" lon="116.645845">
        <time>2020-10-15T13:17:41Z</time>
      </trkpt>
      <trkpt lat="39.89424" lon="116.645927">
        <time>2020-10-15T13:17:46Z</time>
      </trkpt>
      <trkpt lat="39.894331" lon="116.645969">
        <time>2020-10-15T13:17:51Z</time>
      </trkpt>
      <trkpt lat="39.894441" lon="116.646013">
        <time>2020-10-15T13:17:56Z</time>
      </trkpt>
      <trkpt lat="39.89456" lon="116.646069">
        <time>2020-10-15T13:18:01Z</time>
      </trkpt>
      <trkpt lat="39.894657" lon="116.646121">
        <time>2020-10-15T13:18:06Z</time>
      </trkpt>
      <trkpt lat="39.894763" lon="116.646202">
        <time>2020-10-15T13:18:11Z</time>
      </trkpt>
      <trkpt lat="39.894886" lon="116.64627">
        <time>2020-10-15T13:18:16Z</time>
      </trkpt>
      <trkpt lat="39.894989" lon="116.646314">
        <time>2020-10-15T13:18:21Z</time>
      </trkpt>
      <trkpt lat="39.89509" lon="116.646353">
        <time>2020-10-15T13:18:26Z</time>
      </trkpt>
      <trkpt lat="39.895183" lon="116.646397">
        <time>2020-10-15T13:18:31Z</time>
      </trkpt>
      <trkpt lat="39.895273" lon="116.646424">
        <time>2020-10-15T13:18:36Z</time>
      </trkpt>
      <trkpt lat="39.895373" lon="116.646434">
        <time>2020-10-15T13:18:41Z</time>
      </trkpt>
      <trkpt lat="39.895479" lon="116.646483">
        <time>2020-10-15T13:18:46Z</time>
      </trkpt>
      <trkpt lat="39.895589" lon="116.646548">
        <time>2020-10-15T13:18:51Z</time>
      </trkpt>
      <trkpt lat="39.895693" lon="116.646596">
        <time>2020-10-15T13:18:56Z</time>
      </trkpt>
      <trkpt lat="39.895807" lon="116.646689">
        <time>2020-10-15T13:19:01Z</time>
      </trkpt>
      <trkpt lat="39.895894" lon="116.646754">
        <time>2020-10-15T13:19:06Z</time>
      </trkpt>
      <trkpt lat="39.895985" lon="116.646715">
        <time>2020-10-15T13:19:11Z</time>
      </trkpt>
      <trkpt lat="39.896028" lon="116.646643">
        <time>2020-10-15T13:19:16Z</time>
      </trkpt>
      <trkpt lat="39.896033" lon="116.646511">
        <time>2020-10-15T13:19:21Z</time>
      </trkpt>
      <trkpt lat="39.89604" lon="116.646369">
        <time>2020-10-15T13:19:26Z</time>
      </trkpt>
      <trkpt lat="39.896063" lon="116.646228">
        <time>2020-10-15T13:19:31Z</time>
      </trkpt>
      <trkpt lat="39.896084" lon="116.646093">
        <time>2020-10-15T13:19:36Z</time>
      </trkpt>
      <trkpt lat="39.896125" lon="116.645947">
        <time>2020-10-15T13:19:41Z</time>
      </trkpt>
      <trkpt lat="39.896123" lon="116.645807">
        <time>2020-10-15T13:19:46Z</time>
      </trkpt>
      <trkpt lat="39.896134" lon="116.645679">
        <time>2020-10-15T13:19:51Z</time>
      </trkpt>
      <trkpt lat="39.896158" lon="116.645535">
        <time>2020-10-15T13:19:56Z</time>
      </trkpt>
      <trkpt lat="39.896192" lon="116.645364">
        <time>2020-10-15T13:20:01Z</time>
      </trkpt>
      <trkpt lat="39.896218" lon="116.645208">
        <time>2020-10-15T13:20:06Z</time>
      </trkpt>
      <trkpt lat="39.896226" lon="116.645069">
        <time>2020-10-15T13:20:11Z</time>
      </trkpt>
      <trkpt lat="39.896226" lon="116.64494">
        <time>2020-10-15T13:20:16Z</time>
      </trkpt>
      <trkpt lat="39.896279" lon="116.644788">
        <time>2020-10-15T13:20:21Z</time>
      </trkpt>
      <trkpt lat="39.896269" lon="116.644652">
        <time>2020-10-15T13:20:26Z</time>
      </trkpt>
      <trkpt lat="39.896287" lon="116.644498">
        <time>2020-10-15T13:20:31Z</time>
      </trkpt>
      <trkpt lat="39.896332" lon="116.644346">
        <time>2020-10-15T13:20:36Z</time>
      </trkpt>
      <trkpt lat="39.896309" lon="116.644201">
        <time>2020-10-15T13:20:41Z</time>
      </trkpt>
      <trkpt lat="39.896293" lon="116.644064">
        <time>2020-10-15T13:20:46Z</time>
      </trkpt>
      <trkpt lat="39.896286" lon="116.643932">
        <time>2020-10-15T13:20:51Z</time>
      </trkpt>
      <trkpt lat="39.896279" lon="116.643786">
        <time>2020-10-15T13:20:56Z</time>
      </trkpt>
      <trkpt lat="39.896238" lon="116.643646">
        <time>2020-10-15T13:21:01Z</time>
      </trkpt>
      <trkpt lat="39.896218" lon="116.643506">
        <time>2020-10-15T13:21:06Z</time>
      </trkpt>
      <trkpt lat="39.896217" lon="116.643364">
        <time>2020-10-15T13:21:11Z</time>
      </trkpt>
      <trkpt lat="39.896216" lon="116.643237">
        <time>2020-10-15T13:21:16Z</time>
      </trkpt>
      <trkpt lat="39.89622" lon="116.643116">
        <time>2020-10-15T13:21:21Z</time>
      </trkpt>
      <trkpt lat="39.896219" lon="116.64298">
        <time>2020-10-15T13:21:26Z</time>
      </trkpt>
      <trkpt lat="39.896234" lon="116.642841">
        <time>2020-10-15T13:21:31Z</time>
      </trkpt>
      <trkpt lat="39.896216" lon="116.642719">
        <time>2020-10-15T13:21:36Z</time>
      </trkpt>
      <trkpt lat="39.896203" lon="116.642589">
        <time>2020-10-15T13:21:41Z</time>
      </trkpt>
      <trkpt lat="39.896198" lon="116.642445">
        <time>2020-10-15T13:21:46Z</time>
      </trkpt>
      <trkpt lat="39.896185" lon="116.642312">
        <time>2020-10-15T13:21:51Z</time>
      </trkpt>
      <trkpt lat="39.896174" lon="116.642157">
        <time>2020-10-15T13:21:56Z</time>
      </trkpt>
      <trkpt lat="39.896173" lon="116.641972">
        <time>2020-10-15T13:22:01Z</time>
      </trkpt>
      <trkpt lat="39.896162" lon="116.641807">
        <time>2020-10-15T13:22:06Z</time>
      </trkpt>
      <trkpt lat="39.896172" lon="116.641646">
        <time>2020-10-15T13:22:11Z</time>
      </trkpt>
      <trkpt lat="39.896185" lon="116.641516">
        <time>2020-10-15T13:22:16Z</time>
      </trkpt>
      <trkpt lat="39.896186" lon="116.641387">
        <time>2020-10-15T13:22:21Z</time>
      </trkpt>
      <trkpt lat="39.89619" lon="116.641239">
        <time>2020-10-15T13:22:26Z</time>
      </trkpt>
      <trkpt lat="39.896203" lon="116.641087">
        <time>2020-10-15T13:22:31Z</time>
      </trkpt>
      <trkpt lat="39.896196" lon="116.64095">
        <time>2020-10-15T13:22:36Z</time>
      </trkpt>
      <trkpt lat="39.896185" lon="116.640838">
        <time>2020-10-15T13:22:41Z</time>
      </trkpt>
      <trkpt lat="39.896202" lon="116.640712">
        <time>2020-10-15T13:22:46Z</time>
      </trkpt>
      <trkpt lat="39.896225" lon="116.64058">
        <time>2020-10-15T13:22:51Z</time>
      </trkpt>
      <trkpt lat="39.896231" lon="116.640428">
        <time>2020-10-15T13:22:56Z</time>
      </trkpt>
      <trkpt lat="39.896232" lon="116.64029">
        <time>2020-10-15T13:23:01Z</time>
      </trkpt>
      <trkpt lat="39.896234" lon="116.640153">
        <time>2020-10-15T13:23:06Z</time>
      </trkpt>
      <trkpt lat="39.896225" lon="116.64">
        <time>2020-10-15T13:23:11Z</time>
      </trkpt>
      <trkpt lat="39.896225" lon="116.63986">
        <time>2020-10-15T13:23:16Z</time>
      </trkpt>
      <trkpt lat="39.896232" lon="116.639735">
        <time>2020-10-15T13:23:21Z</time>
      </trkpt>
      <trkpt lat="39.896224" lon="116.639623">
        <time>2020-10-15T13:23:26Z</time>
      </trkpt>
      <trkpt lat="39.896213" lon="116.639506">
        <time>2020-10-15T13:23:31Z</time>
      </trkpt>
      <trkpt lat="39.896183" lon="116.639364">
        <time>2020-10-15T13:23:36Z</time>
      </trkpt>
      <trkpt lat="39.896157" lon="116.639227">
        <time>2020-10-15T13:23:41Z</time>
      </trkpt>
      <trkpt lat="39.896133" lon="116.639092">
        <time>2020-10-15T13:23:46Z</time>
      </trkpt>
      <trkpt lat="39.896129" lon="116.638943">
        <time>2020-10-15T13:23:51Z</time>
      </trkpt>
      <trkpt lat="39.89614" lon="116.638778">
        <time>2020-10-15T13:23:56Z</time>
      </trkpt>
      <trkpt lat="39.896077" lon="116.638651">
        <time>2020-10-15T13:24:01Z</time>
      </trkpt>
      <trkpt lat="39.896047" lon="116.638515">
        <time>2020-10-15T13:24:06Z</time>
      </trkpt>
      <trkpt lat="39.896023" lon="116.638392">
        <time>2020-10-15T13:24:11Z</time>
      </trkpt>
      <trkpt lat="39.896005" lon="116.638252">
        <time>2020-10-15T13:24:16Z</time>
      </trkpt>
      <trkpt lat="39.896035" lon="116.638087">
        <time>2020-10-15T13:24:21Z</time>
      </trkpt>
      <trkpt lat="39.896057" lon="116.637936">
        <time>2020-10-15T13:24:26Z</time>
      </trkpt>
      <trkpt lat="39.896055" lon="116.63781">
        <time>2020-10-15T13:24:31Z</time>
      </trkpt>
      <trkpt lat="39.896044" lon="116.637681">
        <time>2020-10-15T13:24:36Z</time>
      </trkpt>
      <trkpt lat="39.896066" lon="116.637528">
        <time>2020-10-15T13:24:41Z</time>
      </trkpt>
      <trkpt lat="39.896076" lon="116.637388">
        <time>2020-10-15T13:24:46Z</time>
      </trkpt>
      <trkpt lat="39.896083" lon="116.637255">
        <time>2020-10-15T13:24:51Z</time>
      </trkpt>
      <trkpt lat="39.896076" lon="116.637117">
        <time>2020-10-15T13:24:56Z</time>
      </trkpt>
      <trkpt lat="39.896104" lon="116.636977">
        <time>2020-10-15T13:25:01Z</time>
      </trkpt>
      <trkpt lat="39.896094" lon="116.636836">
        <time>2020-10-15T13:25:06Z</time>
      </trkpt>
      <trkpt lat="39.896026" lon="116.636729">
        <time>2020-10-15T13:25:11Z</time>
      </trkpt>
      <trkpt lat="39.895936" lon="116.636633">
        <time>2020-10-15T13:25:16Z</time>
      </trkpt>
      <trkpt lat="39.895876" lon="116.636539">
        <time>2020-10-15T13:25:21Z</time>
      </trkpt>
      <trkpt lat="39.895915" lon="116.636427">
        <time>2020-10-15T13:25:26Z</time>
      </trkpt>
      <trkpt lat="39.895996" lon="116.636321">
        <time>2020-10-15T13:25:31Z</time>
      </trkpt>
      <trkpt lat="39.896092" lon="116.636224">
        <time>2020-10-15T13:25:36Z</time>
      </trkpt>
      <trkpt lat="39.89618" lon="116.63614">
        <time>2020-10-15T13:25:41Z</time>
      </trkpt>
      <trkpt lat="39.896326" lon="116.635946">
        <time>2020-10-15T13:25:46Z</time>
      </trkpt>
      <trkpt lat="39.896348" lon="116.635911">
        <time>2020-10-15T13:25:51Z</time>
      </trkpt>
      <trkpt lat="39.896432" lon="116.635837">
        <time>2020-10-15T13:25:56Z</time>
      </trkpt>
      <trkpt lat="39.896547" lon="116.635817">
        <time>2020-10-15T13:26:01Z</time>
      </trkpt>
      <trkpt lat="39.896655" lon="116.635753">
        <time>2020-10-15T13:26:06Z</time>
      </trkpt>
      <trkpt lat="39.89674" lon="116.635666">
        <time>2020-10-15T13:26:11Z</time>
      </trkpt>
      <trkpt lat="39.896855" lon="116.635598">
        <time>2020-10-15T13:26:16Z</time>
      </trkpt>
      <trkpt lat="39.896955" lon="116.635645">
        <time>2020-10-15T13:26:21Z</time>
      </trkpt>
      <trkpt lat="39.897037" lon="116.635797">
        <time>2020-10-15T13:26:26Z</time>
      </trkpt>
      <trkpt lat="39.897126" lon="116.635951">
        <time>2020-10-15T13:26:31Z</time>
      </trkpt>
      <trkpt lat="39.897166" lon="116.636088">
        <time>2020-10-15T13:26:36Z</time>
      </trkpt>
      <trkpt lat="39.897161" lon="116.636139">
        <time>2020-10-15T13:26:41Z</time>
      </trkpt>
      <trkpt lat="39.897211" lon="116.636248">
        <time>2020-10-15T13:26:46Z</time>
      </trkpt>
      <trkpt lat="39.897218" lon="116.636367">
        <time>2020-10-15T13:26:51Z</time>
      </trkpt>
      <trkpt lat="39.897199" lon="116.636454">
        <time>2020-10-15T13:26:56Z</time>
      </trkpt>
      <trkpt lat="39.897239" lon="116.636555">
        <time>2020-10-15T13:27:01Z</time>
      </trkpt>
      <trkpt lat="39.897306" lon="116.636666">
        <time>2020-10-15T13:27:06Z</time>
      </trkpt>
      <trkpt lat="39.897393" lon="116.636803">
        <time>2020-10-15T13:27:11Z</time>
      </trkpt>
      <trkpt lat="39.897482" lon="116.636955">
        <time>2020-10-15T13:27:16Z</time>
      </trkpt>
      <trkpt lat="39.897566" lon="116.637105">
        <time>2020-10-15T13:27:21Z</time>
      </trkpt>
      <trkpt lat="39.897648" lon="116.637264">
        <time>2020-10-15T13:27:26Z</time>
      </trkpt>
      <trkpt lat="39.897711" lon="116.637411">
        <time>2020-10-15T13:27:31Z</time>
      </trkpt>
      <trkpt lat="39.897795" lon="116.637542">
        <time>2020-10-15T13:27:36Z</time>
      </trkpt>
      <trkpt lat="39.897864" lon="116.637676">
        <time>2020-10-15T13:27:41Z</time>
      </trkpt>
      <trkpt lat="39.897903" lon="116.6378">
        <time>2020-10-15T13:27:46Z</time>
      </trkpt>
      <trkpt lat="39.897957" lon="116.637913">
        <time>2020-10-15T13:27:51Z</time>
      </trkpt>
      <trkpt lat="39.898001" lon="116.637997">
        <time>2020-10-15T13:27:56Z</time>
      </trkpt>
      <trkpt lat="39.898054" lon="116.63804">
        <time>2020-10-15T13:28:01Z</time>
      </trkpt>
      <trkpt lat="39.89811" lon="116.638068">
        <time>2020-10-15T13:28:06Z</time>
      </trkpt>
      <trkpt lat="39.898207" lon="116.638081">
        <time>2020-10-15T13:28:11Z</time>
      </trkpt>
      <trkpt lat="39.89832" lon="116.638078">
        <time>2020-10-15T13:28:16Z</time>
      </trkpt>
      <trkpt lat="39.898441" lon="116.638064">
        <time>2020-10-15T13:28:21Z</time>
      </trkpt>
      <trkpt lat="39.898553" lon="116.638088">
        <time>2020-10-15T13:28:26Z</time>
      </trkpt>
      <trkpt lat="39.898642" lon="116.638072">
        <time>2020-10-15T13:28:31Z</time>
      </trkpt>
      <trkpt lat="39.898745" lon="116.638114">
        <time>2020-10-15T13:28:36Z</time>
      </trkpt>
      <trkpt lat="39.898877" lon="116.638135">
        <time>2020-10-15T13:28:41Z</time>
      </trkpt>
      <trkpt lat="39.898995" lon="116.638162">
        <time>2020-10-15T13:28:46Z</time>
      </trkpt>
      <trkpt lat="39.89911" lon="116.638186">
        <time>2020-10-15T13:28:51Z</time>
      </trkpt>
      <trkpt lat="39.899214" lon="116.63825">
        <time>2020-10-15T13:28:56Z</time>
      </trkpt>
      <trkpt lat="39.899289" lon="116.638304">
        <time>2020-10-15T13:29:01Z</time>
      </trkpt>
      <trkpt lat="39.899345" lon="116.638353">
        <time>2020-10-15T13:29:06Z</time>
      </trkpt>
      <trkpt lat="39.899382" lon="116.638392">
        <time>2020-10-15T13:29:11Z</time>
      </trkpt>
      <trkpt lat="39.899474" lon="116.638421">
        <time>2020-10-15T13:29:16Z</time>
      </trkpt>
      <trkpt lat="39.899598" lon="116.638464">
        <time>2020-10-15T13:29:21Z</time>
      </trkpt>
      <trkpt lat="39.899696" lon="116.638494">
        <time>2020-10-15T13:29:26Z</time>
      </trkpt>
      <trkpt lat="39.899787" lon="116.638467">
        <time>2020-10-15T13:29:31Z</time>
      </trkpt>
      <trkpt lat="39.899876" lon="116.638485">
        <time>2020-10-15T13:29:36Z</time>
      </trkpt>
      <trkpt lat="39.899946" lon="116.638526">
        <time>2020-10-15T13:29:41Z</time>
      </trkpt>
      <trkpt lat="39.900017" lon="116.638531">
        <time>2020-10-15T13:29:46Z</time>
      </trkpt>
      <trkpt lat="39.900089" lon="116.638503">
        <time>2020-10-15T13:29:51Z</time>
      </trkpt>
      <trkpt lat="39.900165" lon="116.63846">
        <time>2020-10-15T13:29:56Z</time>
      </trkpt>
      <trkpt lat="39.900267" lon="116.63841">
        <time>2020-10-15T13:30:01Z</time>
      </trkpt>
      <trkpt lat="39.900341" lon="116.638236">
        <time>2020-10-15T13:30:06Z</time>
      </trkpt>
      <trkpt lat="39.900399" lon="116.638092">
        <time>2020-10-15T13:30:11Z</time>
      </trkpt>
      <trkpt lat="39.900419" lon="116.637982">
        <time>2020-10-15T13:30:16Z</time>
      </trkpt>
      <trkpt lat="39.900461" lon="116.63786">
        <time>2020-10-15T13:30:21Z</time>
      </trkpt>
      <trkpt lat="39.900493" lon="116.63772">
        <time>2020-10-15T13:30:26Z</time>
      </trkpt>
      <trkpt lat="39.900512" lon="116.637518">
        <time>2020-10-15T13:30:31Z</time>
      </trkpt>
      <trkpt lat="39.900539" lon="116.637368">
        <time>2020-10-15T13:30:36Z</time>
      </trkpt>
      <trkpt lat="39.900561" lon="116.637216">
        <time>2020-10-15T13:30:41Z</time>
      </trkpt>
      <trkpt lat="39.900572" lon="116.637075">
        <time>2020-10-15T13:30:46Z</time>
      </trkpt>
      <trkpt lat="39.900561" lon="116.636922">
        <time>2020-10-15T13:30:51Z</time>
      </trkpt>
      <trkpt lat="39.900586" lon="116.636792">
        <time>2020-10-15T13:30:56Z</time>
      </trkpt>
      <trkpt lat="39.900619" lon="116.636644">
        <time>2020-10-15T13:31:01Z</time>
      </trkpt>
      <trkpt lat="39.900656" lon="116.636499">
        <time>2020-10-15T13:31:06Z</time>
      </trkpt>
      <trkpt lat="39.900682" lon="116.636347">
        <time>2020-10-15T13:31:11Z</time>
      </trkpt>
      <trkpt lat="39.9007" lon="116.636197">
        <time>2020-10-15T13:31:16Z</time>
      </trkpt>
      <trkpt lat="39.900744" lon="116.636042">
        <time>2020-10-15T13:31:21Z</time>
      </trkpt>
      <trkpt lat="39.900763" lon="116.635883">
        <time>2020-10-15T13:31:26Z</time>
      </trkpt>
      <trkpt lat="39.90077" lon="116.635734">
        <time>2020-10-15T13:31:31Z</time>
      </trkpt>
      <trkpt lat="39.900761" lon="116.635585">
        <time>2020-10-15T13:31:36Z</time>
      </trkpt>
      <trkpt lat="39.900765" lon="116.635416">
        <time>2020-10-15T13:31:41Z</time>
      </trkpt>
      <trkpt lat="39.900775" lon="116.63528">
        <time>2020-10-15T13:31:46Z</time>
      </trkpt>
      <trkpt lat="39.900768" lon="116.635127">
        <time>2020-10-15T13:31:51Z</time>
      </trkpt>
      <trkpt lat="39.900768" lon="116.634953">
        <time>2020-10-15T13:31:56Z</time>
      </trkpt>
      <trkpt lat="39.900809" lon="116.634809">
        <time>2020-10-15T13:32:01Z</time>
      </trkpt>
      <trkpt lat="39.900859" lon="116.634682">
        <time>2020-10-15T13:32:06Z</time>
      </trkpt>
      <trkpt lat="39.900906" lon="116.634572">
        <time>2020-10-15T13:32:11Z</time>
      </trkpt>
      <trkpt lat="39.900962" lon="116.634439">
        <time>2020-10-15T13:32:16Z</time>
      </trkpt>
      <trkpt lat="39.900986" lon="116.634312">
        <time>2020-10-15T13:32:21Z</time>
      </trkpt>
      <trkpt lat="39.900996" lon="116.634188">
        <time>2020-10-15T13:32:26Z</time>
      </trkpt>
      <trkpt lat="39.901012" lon="116.634052">
        <time>2020-10-15T13:32:31Z</time>
      </trkpt>
      <trkpt lat="39.901042" lon="116.633904">
        <time>2020-10-15T13:32:36Z</time>
      </trkpt>
      <trkpt lat="39.901064" lon="116.633733">
        <time>2020-10-15T13:32:41Z</time>
      </trkpt>
      <trkpt lat="39.901036" lon="116.633556">
        <time>2020-10-15T13:32:46Z</time>
      </trkpt>
      <trkpt lat="39.901014" lon="116.633402">
        <time>2020-10-15T13:32:51Z</time>
      </trkpt>
      <trkpt lat="39.90099" lon="116.633323">
        <time>2020-10-15T13:32:56Z</time>
      </trkpt>
      <trkpt lat="39.900924" lon="116.633305">
        <time>2020-10-15T13:33:01Z</time>
      </trkpt>
      <trkpt lat="39.900864" lon="116.633326">
        <time>2020-10-15T13:33:06Z</time>
      </trkpt>
      <trkpt lat="39.900728" lon="116.633296">
        <time>2020-10-15T13:33:11Z</time>
      </trkpt>
      <trkpt lat="39.900569" lon="116.633296">
        <time>2020-10-15T13:33:16Z</time>
      </trkpt>
      <trkpt lat="39.900415" lon="116.633326">
        <time>2020-10-15T13:33:21Z</time>
      </trkpt>
      <trkpt lat="39.900321" lon="116.633363">
        <time>2020-10-15T13:33:26Z</time>
      </trkpt>
      <trkpt lat="39.900233" lon="116.633382">
        <time>2020-10-15T13:33:31Z</time>
      </trkpt>
      <trkpt lat="39.900172" lon="116.633446">
        <time>2020-10-15T13:33:36Z</time>
      </trkpt>
      <trkpt lat="39.900097" lon="116.633531">
        <time>2020-10-15T13:33:41Z</time>
      </trkpt>
      <trkpt lat="39.900024" lon="116.633618">
        <time>2020-10-15T13:33:46Z</time>
      </trkpt>
      <trkpt lat="39.899949" lon="116.633697">
        <time>2020-10-15T13:33:51Z</time>
      </trkpt>
      <trkpt lat="39.899869" lon="116.633805">
        <time>2020-10-15T13:33:56Z</time>
      </trkpt>
      <trkpt lat="39.899783" lon="116.633931">
        <time>2020-10-15T13:34:01Z</time>
      </trkpt>
      <trkpt lat="39.899698" lon="116.63396">
        <time>2020-10-15T13:34:06Z</time>
      </trkpt>
      <trkpt lat="39.899616" lon="116.633967">
        <time>2020-10-15T13:34:11Z</time>
      </trkpt>
      <trkpt lat="39.899531" lon="116.634026">
        <time>2020-10-15T13:34:16Z</time>
      </trkpt>
      <trkpt lat="39.899429" lon="116.634101">
        <time>2020-10-15T13:34:21Z</time>
      </trkpt>
      <trkpt lat="39.899322" lon="116.634185">
        <time>2020-10-15T13:34:26Z</time>
      </trkpt>
      <trkpt lat="39.899202" lon="116.634259">
        <time>2020-10-15T13:34:31Z</time>
      </trkpt>
      <trkpt lat="39.899083" lon="116.634337">
        <time>2020-10-15T13:34:36Z</time>
      </trkpt>
      <trkpt lat="39.898988" lon="116.634408">
        <time>2020-10-15T13:34:41Z</time>
      </trkpt>
      <trkpt lat="39.898853" lon="116.634493">
        <time>2020-10-15T13:34:46Z</time>
      </trkpt>
      <trkpt lat="39.898748" lon="116.634579">
        <time>2020-10-15T13:34:51Z</time>
      </trkpt>
      <trkpt lat="39.898671" lon="116.634619">
        <time>2020-10-15T13:34:56Z</time>
      </trkpt>
      <trkpt lat="39.898568" lon="116.634681">
        <time>2020-10-15T13:35:01Z</time>
      </trkpt>
      <trkpt lat="39.898475" lon="116.634773">
        <time>2020-10-15T13:35:06Z</time>
      </trkpt>
      <trkpt lat="39.898382" lon="116.634851">
        <time>2020-10-15T13:35:11Z</time>
      </trkpt>
      <trkpt lat="39.898293" lon="116.634878">
        <time>2020-10-15T13:35:16Z</time>
      </trkpt>
      <trkpt lat="39.898236" lon="116.634842">
        <time>2020-10-15T13:35:21Z</time>
      </trkpt>
      <trkpt lat="39.898173" lon="116.634751">
        <time>2020-10-15T13:35:26Z</time>
      </trkpt>
      <trkpt lat="39.898156" lon="116.634656">
        <time>2020-10-15T13:35:31Z</time>
      </trkpt>
      <trkpt lat="39.8981" lon="116.634537">
        <time>2020-10-15T13:35:36Z</time>
      </trkpt>
      <trkpt lat="39.898045" lon="116.634433">
        <time>2020-10-15T13:35:41Z</time>
      </trkpt>
      <trkpt lat="39.897995" lon="116.634328">
        <time>2020-10-15T13:35:46Z</time>
      </trkpt>
      <trkpt lat="39.897893" lon="116.63422">
        <time>2020-10-15T13:35:51Z</time>
      </trkpt>
      <trkpt lat="39.897777" lon="116.634068">
        <time>2020-10-15T13:35:56Z</time>
      </trkpt>
      <trkpt lat="39.89772" lon="116.633945">
        <time>2020-10-15T13:36:01Z</time>
      </trkpt>
      <trkpt lat="39.897657" lon="116.633833">
        <time>2020-10-15T13:36:06Z</time>
      </trkpt>
      <trkpt lat="39.897625" lon="116.633708">
        <time>2020-10-15T13:36:11Z</time>
      </trkpt>
      <trkpt lat="39.897665" lon="116.633653">
        <time>2020-10-15T13:36:16Z</time>
      </trkpt>
      <trkpt lat="39.89762" lon="116.63368">
        <time>2020-10-15T13:36:21Z</time>
      </trkpt>
      <trkpt lat="39.897552" lon="116.633814">
        <time>2020-10-15T13:36:26Z</time>
      </trkpt>
      <trkpt lat="39.897549" lon="116.633948">
        <time>2020-10-15T13:36:31Z</time>
      </trkpt>
      <trkpt lat="39.897519" lon="116.634082">
        <time>2020-10-15T13:36:36Z</time>
      </trkpt>
      <trkpt lat="39.897526" lon="116.634209">
        <time>2020-10-15T13:36:41Z</time>
      </trkpt>
      <trkpt lat="39.897522" lon="116.634243">
        <time>2020-10-15T13:36:46Z</time>
      </trkpt>
      <trkpt lat="39.897519" lon="116.634223">
        <time>2020-10-15T13:37:08Z</time>
      </trkpt>
    </trkseg>
  </trk>
</gpx>