<?xml version="1.0" encoding="UTF-8"?>
<gpx xmlns="http://www.topografix.com/GPX/1/1" xmlns:gpxtpx="http://www.garmin.com/xmlschemas/TrackPointExtension/v1" xmlns:xsi="http://www.w3.org/2001/XMLSchema-instance" xsi:schemaLocation="http://www.topografix.com/GPX/1/1 http://www.topografix.com/GPX/1/1/gpx.xsd" version="1.1" creator="gpx.py -- https://github.com/tkrajina/gpxpy">
  <trk>
    <name>gpx from keep</name>
    <trkseg>
      <trkpt lat="39.896141" lon="116.638456">
        <time>2020-10-18T11:12:31Z</time>
      </trkpt>
      <trkpt lat="39.89616" lon="116.638492">
        <time>2020-10-18T11:12:36Z</time>
      </trkpt>
      <trkpt lat="39.896206" lon="116.638863">
        <time>2020-10-18T11:12:41Z</time>
      </trkpt>
      <trkpt lat="39.896208" lon="116.639418">
        <time>2020-10-18T11:12:46Z</time>
      </trkpt>
      <trkpt lat="39.896193" lon="116.639612">
        <time>2020-10-18T11:12:51Z</time>
      </trkpt>
      <trkpt lat="39.896184" lon="116.639805">
        <time>2020-10-18T11:12:56Z</time>
      </trkpt>
      <trkpt lat="39.896256" lon="116.640155">
        <time>2020-10-18T11:13:01Z</time>
      </trkpt>
      <trkpt lat="39.896352" lon="116.640505">
        <time>2020-10-18T11:13:06Z</time>
      </trkpt>
      <trkpt lat="39.896412" lon="116.640757">
        <time>2020-10-18T11:13:11Z</time>
      </trkpt>
      <trkpt lat="39.896455" lon="116.641019">
        <time>2020-10-18T11:13:16Z</time>
      </trkpt>
      <trkpt lat="39.896499" lon="116.641288">
        <time>2020-10-18T11:13:21Z</time>
      </trkpt>
      <trkpt lat="39.896528" lon="116.641498">
        <time>2020-10-18T11:13:26Z</time>
      </trkpt>
      <trkpt lat="39.896543" lon="116.641709">
        <time>2020-10-18T11:13:31Z</time>
      </trkpt>
      <trkpt lat="39.896547" lon="116.641923">
        <time>2020-10-18T11:13:36Z</time>
      </trkpt>
      <trkpt lat="39.896537" lon="116.642113">
        <time>2020-10-18T11:13:41Z</time>
      </trkpt>
      <trkpt lat="39.896536" lon="116.64229">
        <time>2020-10-18T11:13:46Z</time>
      </trkpt>
      <trkpt lat="39.89655" lon="116.642462">
        <time>2020-10-18T11:13:51Z</time>
      </trkpt>
      <trkpt lat="39.89656" lon="116.642633">
        <time>2020-10-18T11:13:56Z</time>
      </trkpt>
      <trkpt lat="39.896552" lon="116.642807">
        <time>2020-10-18T11:14:01Z</time>
      </trkpt>
      <trkpt lat="39.896547" lon="116.642964">
        <time>2020-10-18T11:14:06Z</time>
      </trkpt>
      <trkpt lat="39.896554" lon="116.643133">
        <time>2020-10-18T11:14:11Z</time>
      </trkpt>
      <trkpt lat="39.896567" lon="116.64331">
        <time>2020-10-18T11:14:16Z</time>
      </trkpt>
      <trkpt lat="39.896592" lon="116.643493">
        <time>2020-10-18T11:14:21Z</time>
      </trkpt>
      <trkpt lat="39.896589" lon="116.643661">
        <time>2020-10-18T11:14:26Z</time>
      </trkpt>
      <trkpt lat="39.896582" lon="116.643804">
        <time>2020-10-18T11:14:31Z</time>
      </trkpt>
      <trkpt lat="39.89657" lon="116.64396">
        <time>2020-10-18T11:14:36Z</time>
      </trkpt>
      <trkpt lat="39.896555" lon="116.644125">
        <time>2020-10-18T11:14:41Z</time>
      </trkpt>
      <trkpt lat="39.89653" lon="116.644292">
        <time>2020-10-18T11:14:46Z</time>
      </trkpt>
      <trkpt lat="39.896532" lon="116.644445">
        <time>2020-10-18T11:14:51Z</time>
      </trkpt>
      <trkpt lat="39.896534" lon="116.644604">
        <time>2020-10-18T11:14:56Z</time>
      </trkpt>
      <trkpt lat="39.896536" lon="116.644782">
        <time>2020-10-18T11:15:01Z</time>
      </trkpt>
      <trkpt lat="39.896528" lon="116.644944">
        <time>2020-10-18T11:15:06Z</time>
      </trkpt>
      <trkpt lat="39.896514" lon="116.645095">
        <time>2020-10-18T11:15:11Z</time>
      </trkpt>
      <trkpt lat="39.896513" lon="116.645221">
        <time>2020-10-18T11:15:16Z</time>
      </trkpt>
      <trkpt lat="39.89651" lon="116.645429">
        <time>2020-10-18T11:15:21Z</time>
      </trkpt>
      <trkpt lat="39.896492" lon="116.645571">
        <time>2020-10-18T11:15:26Z</time>
      </trkpt>
      <trkpt lat="39.896452" lon="116.645706">
        <time>2020-10-18T11:15:31Z</time>
      </trkpt>
      <trkpt lat="39.896418" lon="116.645851">
        <time>2020-10-18T11:15:36Z</time>
      </trkpt>
      <trkpt lat="39.896412" lon="116.646008">
        <time>2020-10-18T11:15:41Z</time>
      </trkpt>
      <trkpt lat="39.8964" lon="116.646159">
        <time>2020-10-18T11:15:46Z</time>
      </trkpt>
      <trkpt lat="39.896388" lon="116.646317">
        <time>2020-10-18T11:15:51Z</time>
      </trkpt>
      <trkpt lat="39.896391" lon="116.646485">
        <time>2020-10-18T11:15:56Z</time>
      </trkpt>
      <trkpt lat="39.896366" lon="116.646627">
        <time>2020-10-18T11:16:01Z</time>
      </trkpt>
      <trkpt lat="39.896242" lon="116.646692">
        <time>2020-10-18T11:16:06Z</time>
      </trkpt>
      <trkpt lat="39.896093" lon="116.646666">
        <time>2020-10-18T11:16:11Z</time>
      </trkpt>
      <trkpt lat="39.89597" lon="116.64661">
        <time>2020-10-18T11:16:16Z</time>
      </trkpt>
      <trkpt lat="39.895847" lon="116.646557">
        <time>2020-10-18T11:16:21Z</time>
      </trkpt>
      <trkpt lat="39.895722" lon="116.646501">
        <time>2020-10-18T11:16:26Z</time>
      </trkpt>
      <trkpt lat="39.895604" lon="116.646449">
        <time>2020-10-18T11:16:31Z</time>
      </trkpt>
      <trkpt lat="39.895476" lon="116.646411">
        <time>2020-10-18T11:16:36Z</time>
      </trkpt>
      <trkpt lat="39.895379" lon="116.646359">
        <time>2020-10-18T11:16:41Z</time>
      </trkpt>
      <trkpt lat="39.895293" lon="116.64631">
        <time>2020-10-18T11:16:46Z</time>
      </trkpt>
      <trkpt lat="39.895171" lon="116.646234">
        <time>2020-10-18T11:16:51Z</time>
      </trkpt>
      <trkpt lat="39.895068" lon="116.646191">
        <time>2020-10-18T11:16:56Z</time>
      </trkpt>
      <trkpt lat="39.894979" lon="116.646155">
        <time>2020-10-18T11:17:01Z</time>
      </trkpt>
      <trkpt lat="39.894897" lon="116.646122">
        <time>2020-10-18T11:17:06Z</time>
      </trkpt>
      <trkpt lat="39.894785" lon="116.646086">
        <time>2020-10-18T11:17:11Z</time>
      </trkpt>
      <trkpt lat="39.894664" lon="116.646043">
        <time>2020-10-18T11:17:16Z</time>
      </trkpt>
      <trkpt lat="39.894576" lon="116.645987">
        <time>2020-10-18T11:17:21Z</time>
      </trkpt>
      <trkpt lat="39.894486" lon="116.645936">
        <time>2020-10-18T11:17:26Z</time>
      </trkpt>
      <trkpt lat="39.8944" lon="116.645867">
        <time>2020-10-18T11:17:31Z</time>
      </trkpt>
      <trkpt lat="39.894298" lon="116.645854">
        <time>2020-10-18T11:17:36Z</time>
      </trkpt>
      <trkpt lat="39.894219" lon="116.645881">
        <time>2020-10-18T11:17:41Z</time>
      </trkpt>
      <trkpt lat="39.894168" lon="116.645963">
        <time>2020-10-18T11:17:46Z</time>
      </trkpt>
      <trkpt lat="39.894121" lon="116.646061">
        <time>2020-10-18T11:17:51Z</time>
      </trkpt>
      <trkpt lat="39.894052" lon="116.64615">
        <time>2020-10-18T11:17:56Z</time>
      </trkpt>
      <trkpt lat="39.89395" lon="116.646245">
        <time>2020-10-18T11:18:01Z</time>
      </trkpt>
      <trkpt lat="39.893822" lon="116.646304">
        <time>2020-10-18T11:18:06Z</time>
      </trkpt>
      <trkpt lat="39.893702" lon="116.646284">
        <time>2020-10-18T11:18:11Z</time>
      </trkpt>
      <trkpt lat="39.89358" lon="116.646219">
        <time>2020-10-18T11:18:16Z</time>
      </trkpt>
      <trkpt lat="39.893479" lon="116.646135">
        <time>2020-10-18T11:18:21Z</time>
      </trkpt>
      <trkpt lat="39.893355" lon="116.6461">
        <time>2020-10-18T11:18:26Z</time>
      </trkpt>
      <trkpt lat="39.893237" lon="116.646065">
        <time>2020-10-18T11:18:31Z</time>
      </trkpt>
      <trkpt lat="39.893125" lon="116.646007">
        <time>2020-10-18T11:18:36Z</time>
      </trkpt>
      <trkpt lat="39.893015" lon="116.645972">
        <time>2020-10-18T11:18:41Z</time>
      </trkpt>
      <trkpt lat="39.892882" lon="116.645941">
        <time>2020-10-18T11:18:46Z</time>
      </trkpt>
      <trkpt lat="39.892771" lon="116.645896">
        <time>2020-10-18T11:18:51Z</time>
      </trkpt>
      <trkpt lat="39.892671" lon="116.645828">
        <time>2020-10-18T11:18:56Z</time>
      </trkpt>
      <trkpt lat="39.89255" lon="116.645797">
        <time>2020-10-18T11:19:01Z</time>
      </trkpt>
      <trkpt lat="39.892463" lon="116.645723">
        <time>2020-10-18T11:19:06Z</time>
      </trkpt>
      <trkpt lat="39.892346" lon="116.645679">
        <time>2020-10-18T11:19:11Z</time>
      </trkpt>
      <trkpt lat="39.892218" lon="116.645636">
        <time>2020-10-18T11:19:16Z</time>
      </trkpt>
      <trkpt lat="39.892093" lon="116.645606">
        <time>2020-10-18T11:19:21Z</time>
      </trkpt>
      <trkpt lat="39.891964" lon="116.645588">
        <time>2020-10-18T11:19:26Z</time>
      </trkpt>
      <trkpt lat="39.891848" lon="116.645544">
        <time>2020-10-18T11:19:31Z</time>
      </trkpt>
      <trkpt lat="39.89176" lon="116.645451">
        <time>2020-10-18T11:19:36Z</time>
      </trkpt>
      <trkpt lat="39.891673" lon="116.645391">
        <time>2020-10-18T11:19:41Z</time>
      </trkpt>
      <trkpt lat="39.891654" lon="116.645366">
        <time>2020-10-18T11:19:46Z</time>
      </trkpt>
      <trkpt lat="39.891727" lon="116.645364">
        <time>2020-10-18T11:19:51Z</time>
      </trkpt>
      <trkpt lat="39.891841" lon="116.645401">
        <time>2020-10-18T11:19:56Z</time>
      </trkpt>
      <trkpt lat="39.89198" lon="116.64545">
        <time>2020-10-18T11:20:01Z</time>
      </trkpt>
      <trkpt lat="39.892107" lon="116.645491">
        <time>2020-10-18T11:20:06Z</time>
      </trkpt>
      <trkpt lat="39.89225" lon="116.645522">
        <time>2020-10-18T11:20:11Z</time>
      </trkpt>
      <trkpt lat="39.892393" lon="116.645565">
        <time>2020-10-18T11:20:16Z</time>
      </trkpt>
      <trkpt lat="39.892524" lon="116.645611">
        <time>2020-10-18T11:20:21Z</time>
      </trkpt>
      <trkpt lat="39.892654" lon="116.645663">
        <time>2020-10-18T11:20:26Z</time>
      </trkpt>
      <trkpt lat="39.892767" lon="116.64571">
        <time>2020-10-18T11:20:31Z</time>
      </trkpt>
      <trkpt lat="39.892882" lon="116.645763">
        <time>2020-10-18T11:20:36Z</time>
      </trkpt>
      <trkpt lat="39.892976" lon="116.645795">
        <time>2020-10-18T11:20:41Z</time>
      </trkpt>
      <trkpt lat="39.89307" lon="116.645831">
        <time>2020-10-18T11:20:46Z</time>
      </trkpt>
      <trkpt lat="39.893178" lon="116.645883">
        <time>2020-10-18T11:20:51Z</time>
      </trkpt>
      <trkpt lat="39.893281" lon="116.645945">
        <time>2020-10-18T11:20:56Z</time>
      </trkpt>
      <trkpt lat="39.893397" lon="116.645991">
        <time>2020-10-18T11:21:01Z</time>
      </trkpt>
      <trkpt lat="39.893554" lon="116.646047">
        <time>2020-10-18T11:21:06Z</time>
      </trkpt>
      <trkpt lat="39.893684" lon="116.646089">
        <time>2020-10-18T11:21:11Z</time>
      </trkpt>
      <trkpt lat="39.893795" lon="116.646166">
        <time>2020-10-18T11:21:16Z</time>
      </trkpt>
      <trkpt lat="39.893887" lon="116.646213">
        <time>2020-10-18T11:21:21Z</time>
      </trkpt>
      <trkpt lat="39.893982" lon="116.646223">
        <time>2020-10-18T11:21:26Z</time>
      </trkpt>
      <trkpt lat="39.894062" lon="116.646164">
        <time>2020-10-18T11:21:31Z</time>
      </trkpt>
      <trkpt lat="39.89411" lon="116.646074">
        <time>2020-10-18T11:21:36Z</time>
      </trkpt>
      <trkpt lat="39.894187" lon="116.645927">
        <time>2020-10-18T11:21:41Z</time>
      </trkpt>
      <trkpt lat="39.894272" lon="116.645829">
        <time>2020-10-18T11:21:46Z</time>
      </trkpt>
      <trkpt lat="39.894384" lon="116.645785">
        <time>2020-10-18T11:21:51Z</time>
      </trkpt>
      <trkpt lat="39.8945" lon="116.645848">
        <time>2020-10-18T11:21:56Z</time>
      </trkpt>
      <trkpt lat="39.894606" lon="116.645912">
        <time>2020-10-18T11:22:01Z</time>
      </trkpt>
      <trkpt lat="39.894711" lon="116.645974">
        <time>2020-10-18T11:22:06Z</time>
      </trkpt>
      <trkpt lat="39.894821" lon="116.646021">
        <time>2020-10-18T11:22:11Z</time>
      </trkpt>
      <trkpt lat="39.894929" lon="116.646065">
        <time>2020-10-18T11:22:16Z</time>
      </trkpt>
      <trkpt lat="39.895033" lon="116.646152">
        <time>2020-10-18T11:22:21Z</time>
      </trkpt>
      <trkpt lat="39.895147" lon="116.646225">
        <time>2020-10-18T11:22:26Z</time>
      </trkpt>
      <trkpt lat="39.895271" lon="116.646258">
        <time>2020-10-18T11:22:31Z</time>
      </trkpt>
      <trkpt lat="39.895364" lon="116.6463">
        <time>2020-10-18T11:22:36Z</time>
      </trkpt>
      <trkpt lat="39.895443" lon="116.646348">
        <time>2020-10-18T11:22:41Z</time>
      </trkpt>
      <trkpt lat="39.895529" lon="116.64636">
        <time>2020-10-18T11:22:46Z</time>
      </trkpt>
      <trkpt lat="39.895595" lon="116.646379">
        <time>2020-10-18T11:22:51Z</time>
      </trkpt>
      <trkpt lat="39.895698" lon="116.646414">
        <time>2020-10-18T11:22:56Z</time>
      </trkpt>
      <trkpt lat="39.895808" lon="116.646448">
        <time>2020-10-18T11:23:01Z</time>
      </trkpt>
      <trkpt lat="39.895898" lon="116.646489">
        <time>2020-10-18T11:23:06Z</time>
      </trkpt>
      <trkpt lat="39.895997" lon="116.646538">
        <time>2020-10-18T11:23:11Z</time>
      </trkpt>
      <trkpt lat="39.896097" lon="116.646578">
        <time>2020-10-18T11:23:16Z</time>
      </trkpt>
      <trkpt lat="39.89619" lon="116.646608">
        <time>2020-10-18T11:23:21Z</time>
      </trkpt>
      <trkpt lat="39.896277" lon="116.646646">
        <time>2020-10-18T11:23:26Z</time>
      </trkpt>
      <trkpt lat="39.896378" lon="116.64668">
        <time>2020-10-18T11:23:31Z</time>
      </trkpt>
      <trkpt lat="39.896438" lon="116.646652">
        <time>2020-10-18T11:23:36Z</time>
      </trkpt>
      <trkpt lat="39.89644" lon="116.646538">
        <time>2020-10-18T11:23:41Z</time>
      </trkpt>
      <trkpt lat="39.89642" lon="116.646417">
        <time>2020-10-18T11:23:46Z</time>
      </trkpt>
      <trkpt lat="39.896406" lon="116.646301">
        <time>2020-10-18T11:23:51Z</time>
      </trkpt>
      <trkpt lat="39.896388" lon="116.646193">
        <time>2020-10-18T11:23:56Z</time>
      </trkpt>
      <trkpt lat="39.896399" lon="116.646053">
        <time>2020-10-18T11:24:01Z</time>
      </trkpt>
      <trkpt lat="39.896406" lon="116.645919">
        <time>2020-10-18T11:24:06Z</time>
      </trkpt>
      <trkpt lat="39.89641" lon="116.645777">
        <time>2020-10-18T11:24:11Z</time>
      </trkpt>
      <trkpt lat="39.896414" lon="116.645639">
        <time>2020-10-18T11:24:16Z</time>
      </trkpt>
      <trkpt lat="39.896429" lon="116.645494">
        <time>2020-10-18T11:24:21Z</time>
      </trkpt>
      <trkpt lat="39.896471" lon="116.64538">
        <time>2020-10-18T11:24:26Z</time>
      </trkpt>
      <trkpt lat="39.896515" lon="116.645244">
        <time>2020-10-18T11:24:31Z</time>
      </trkpt>
      <trkpt lat="39.896534" lon="116.645115">
        <time>2020-10-18T11:24:36Z</time>
      </trkpt>
      <trkpt lat="39.896535" lon="116.644972">
        <time>2020-10-18T11:24:41Z</time>
      </trkpt>
      <trkpt lat="39.896538" lon="116.644831">
        <time>2020-10-18T11:24:46Z</time>
      </trkpt>
      <trkpt lat="39.896536" lon="116.644687">
        <time>2020-10-18T11:24:51Z</time>
      </trkpt>
      <trkpt lat="39.896546" lon="116.644543">
        <time>2020-10-18T11:24:56Z</time>
      </trkpt>
      <trkpt lat="39.896544" lon="116.644411">
        <time>2020-10-18T11:25:01Z</time>
      </trkpt>
      <trkpt lat="39.896548" lon="116.644285">
        <time>2020-10-18T11:25:06Z</time>
      </trkpt>
      <trkpt lat="39.896554" lon="116.644166">
        <time>2020-10-18T11:25:11Z</time>
      </trkpt>
      <trkpt lat="39.896563" lon="116.644037">
        <time>2020-10-18T11:25:16Z</time>
      </trkpt>
      <trkpt lat="39.896574" lon="116.643881">
        <time>2020-10-18T11:25:21Z</time>
      </trkpt>
      <trkpt lat="39.896573" lon="116.643751">
        <time>2020-10-18T11:25:26Z</time>
      </trkpt>
      <trkpt lat="39.896579" lon="116.643616">
        <time>2020-10-18T11:25:31Z</time>
      </trkpt>
      <trkpt lat="39.896577" lon="116.643475">
        <time>2020-10-18T11:25:36Z</time>
      </trkpt>
      <trkpt lat="39.896566" lon="116.643315">
        <time>2020-10-18T11:25:41Z</time>
      </trkpt>
      <trkpt lat="39.896551" lon="116.643169">
        <time>2020-10-18T11:25:46Z</time>
      </trkpt>
      <trkpt lat="39.89654" lon="116.643038">
        <time>2020-10-18T11:25:51Z</time>
      </trkpt>
      <trkpt lat="39.896552" lon="116.642909">
        <time>2020-10-18T11:25:56Z</time>
      </trkpt>
      <trkpt lat="39.896574" lon="116.642801">
        <time>2020-10-18T11:26:01Z</time>
      </trkpt>
      <trkpt lat="39.8966" lon="116.6427">
        <time>2020-10-18T11:26:06Z</time>
      </trkpt>
      <trkpt lat="39.896611" lon="116.642583">
        <time>2020-10-18T11:26:11Z</time>
      </trkpt>
      <trkpt lat="39.896627" lon="116.642459">
        <time>2020-10-18T11:26:16Z</time>
      </trkpt>
      <trkpt lat="39.896615" lon="116.642335">
        <time>2020-10-18T11:26:21Z</time>
      </trkpt>
      <trkpt lat="39.896622" lon="116.642204">
        <time>2020-10-18T11:26:26Z</time>
      </trkpt>
      <trkpt lat="39.89662" lon="116.642074">
        <time>2020-10-18T11:26:31Z</time>
      </trkpt>
      <trkpt lat="39.896624" lon="116.641947">
        <time>2020-10-18T11:26:36Z</time>
      </trkpt>
      <trkpt lat="39.896633" lon="116.641814">
        <time>2020-10-18T11:26:41Z</time>
      </trkpt>
      <trkpt lat="39.896636" lon="116.641674">
        <time>2020-10-18T11:26:46Z</time>
      </trkpt>
      <trkpt lat="39.896625" lon="116.641543">
        <time>2020-10-18T11:26:51Z</time>
      </trkpt>
      <trkpt lat="39.896617" lon="116.641408">
        <time>2020-10-18T11:26:56Z</time>
      </trkpt>
      <trkpt lat="39.896628" lon="116.641281">
        <time>2020-10-18T11:27:01Z</time>
      </trkpt>
      <trkpt lat="39.896631" lon="116.641148">
        <time>2020-10-18T11:27:06Z</time>
      </trkpt>
      <trkpt lat="39.89666" lon="116.641019">
        <time>2020-10-18T11:27:11Z</time>
      </trkpt>
      <trkpt lat="39.896677" lon="116.640892">
        <time>2020-10-18T11:27:16Z</time>
      </trkpt>
      <trkpt lat="39.896674" lon="116.640773">
        <time>2020-10-18T11:27:21Z</time>
      </trkpt>
      <trkpt lat="39.896684" lon="116.640645">
        <time>2020-10-18T11:27:26Z</time>
      </trkpt>
      <trkpt lat="39.896682" lon="116.640528">
        <time>2020-10-18T11:27:31Z</time>
      </trkpt>
      <trkpt lat="39.896686" lon="116.640397">
        <time>2020-10-18T11:27:36Z</time>
      </trkpt>
      <trkpt lat="39.896666" lon="116.640255">
        <time>2020-10-18T11:27:41Z</time>
      </trkpt>
      <trkpt lat="39.896631" lon="116.640096">
        <time>2020-10-18T11:27:46Z</time>
      </trkpt>
      <trkpt lat="39.896605" lon="116.639954">
        <time>2020-10-18T11:27:51Z</time>
      </trkpt>
      <trkpt lat="39.896584" lon="116.639817">
        <time>2020-10-18T11:27:56Z</time>
      </trkpt>
      <trkpt lat="39.896597" lon="116.639692">
        <time>2020-10-18T11:28:01Z</time>
      </trkpt>
      <trkpt lat="39.896618" lon="116.639567">
        <time>2020-10-18T11:28:06Z</time>
      </trkpt>
      <trkpt lat="39.89663" lon="116.639452">
        <time>2020-10-18T11:28:11Z</time>
      </trkpt>
      <trkpt lat="39.89663" lon="116.63933">
        <time>2020-10-18T11:28:16Z</time>
      </trkpt>
      <trkpt lat="39.89663" lon="116.639214">
        <time>2020-10-18T11:28:21Z</time>
      </trkpt>
      <trkpt lat="39.896627" lon="116.639089">
        <time>2020-10-18T11:28:26Z</time>
      </trkpt>
      <trkpt lat="39.89663" lon="116.638958">
        <time>2020-10-18T11:28:31Z</time>
      </trkpt>
      <trkpt lat="39.896635" lon="116.638826">
        <time>2020-10-18T11:28:36Z</time>
      </trkpt>
      <trkpt lat="39.896644" lon="116.638683">
        <time>2020-10-18T11:28:41Z</time>
      </trkpt>
      <trkpt lat="39.896648" lon="116.638542">
        <time>2020-10-18T11:28:46Z</time>
      </trkpt>
      <trkpt lat="39.896646" lon="116.638416">
        <time>2020-10-18T11:28:51Z</time>
      </trkpt>
      <trkpt lat="39.896642" lon="116.638283">
        <time>2020-10-18T11:28:56Z</time>
      </trkpt>
      <trkpt lat="39.896612" lon="116.638119">
        <time>2020-10-18T11:29:01Z</time>
      </trkpt>
      <trkpt lat="39.89663" lon="116.637964">
        <time>2020-10-18T11:29:06Z</time>
      </trkpt>
      <trkpt lat="39.896629" lon="116.637826">
        <time>2020-10-18T11:29:11Z</time>
      </trkpt>
      <trkpt lat="39.896612" lon="116.637691">
        <time>2020-10-18T11:29:16Z</time>
      </trkpt>
      <trkpt lat="39.89661" lon="116.637544">
        <time>2020-10-18T11:29:21Z</time>
      </trkpt>
      <trkpt lat="39.896581" lon="116.637403">
        <time>2020-10-18T11:29:26Z</time>
      </trkpt>
      <trkpt lat="39.896557" lon="116.637249">
        <time>2020-10-18T11:29:31Z</time>
      </trkpt>
      <trkpt lat="39.896529" lon="116.63707">
        <time>2020-10-18T11:29:36Z</time>
      </trkpt>
      <trkpt lat="39.896512" lon="116.636921">
        <time>2020-10-18T11:29:41Z</time>
      </trkpt>
      <trkpt lat="39.896451" lon="116.636786">
        <time>2020-10-18T11:29:46Z</time>
      </trkpt>
      <trkpt lat="39.896408" lon="116.636704">
        <time>2020-10-18T11:29:51Z</time>
      </trkpt>
      <trkpt lat="39.896386" lon="116.636679">
        <time>2020-10-18T11:29:56Z</time>
      </trkpt>
      <trkpt lat="39.896382" lon="116.636719">
        <time>2020-10-18T11:30:01Z</time>
      </trkpt>
      <trkpt lat="39.896416" lon="116.636792">
        <time>2020-10-18T11:30:06Z</time>
      </trkpt>
      <trkpt lat="39.896455" lon="116.636893">
        <time>2020-10-18T11:30:11Z</time>
      </trkpt>
      <trkpt lat="39.896484" lon="116.63703">
        <time>2020-10-18T11:30:16Z</time>
      </trkpt>
      <trkpt lat="39.89652" lon="116.637202">
        <time>2020-10-18T11:30:21Z</time>
      </trkpt>
      <trkpt lat="39.896554" lon="116.637377">
        <time>2020-10-18T11:30:26Z</time>
      </trkpt>
      <trkpt lat="39.896567" lon="116.637545">
        <time>2020-10-18T11:30:31Z</time>
      </trkpt>
      <trkpt lat="39.896564" lon="116.637725">
        <time>2020-10-18T11:30:36Z</time>
      </trkpt>
      <trkpt lat="39.89655" lon="116.637896">
        <time>2020-10-18T11:30:41Z</time>
      </trkpt>
      <trkpt lat="39.896531" lon="116.638062">
        <time>2020-10-18T11:30:46Z</time>
      </trkpt>
      <trkpt lat="39.896528" lon="116.638216">
        <time>2020-10-18T11:30:51Z</time>
      </trkpt>
      <trkpt lat="39.896522" lon="116.638364">
        <time>2020-10-18T11:30:56Z</time>
      </trkpt>
      <trkpt lat="39.896509" lon="116.638495">
        <time>2020-10-18T11:31:01Z</time>
      </trkpt>
      <trkpt lat="39.896513" lon="116.638649">
        <time>2020-10-18T11:31:06Z</time>
      </trkpt>
      <trkpt lat="39.896535" lon="116.638798">
        <time>2020-10-18T11:31:11Z</time>
      </trkpt>
      <trkpt lat="39.896557" lon="116.638934">
        <time>2020-10-18T11:31:16Z</time>
      </trkpt>
      <trkpt lat="39.896565" lon="116.639078">
        <time>2020-10-18T11:31:21Z</time>
      </trkpt>
      <trkpt lat="39.896565" lon="116.639219">
        <time>2020-10-18T11:31:26Z</time>
      </trkpt>
      <trkpt lat="39.896565" lon="116.639357">
        <time>2020-10-18T11:31:31Z</time>
      </trkpt>
      <trkpt lat="39.89658" lon="116.639506">
        <time>2020-10-18T11:31:36Z</time>
      </trkpt>
      <trkpt lat="39.896579" lon="116.639653">
        <time>2020-10-18T11:31:41Z</time>
      </trkpt>
      <trkpt lat="39.896586" lon="116.6398">
        <time>2020-10-18T11:31:46Z</time>
      </trkpt>
      <trkpt lat="39.896581" lon="116.639898">
        <time>2020-10-18T11:31:51Z</time>
      </trkpt>
      <trkpt lat="39.896572" lon="116.640007">
        <time>2020-10-18T11:31:56Z</time>
      </trkpt>
      <trkpt lat="39.896568" lon="116.640111">
        <time>2020-10-18T11:32:01Z</time>
      </trkpt>
      <trkpt lat="39.896567" lon="116.640225">
        <time>2020-10-18T11:32:06Z</time>
      </trkpt>
      <trkpt lat="39.896599" lon="116.640374">
        <time>2020-10-18T11:32:11Z</time>
      </trkpt>
      <trkpt lat="39.896608" lon="116.640538">
        <time>2020-10-18T11:32:16Z</time>
      </trkpt>
      <trkpt lat="39.896608" lon="116.640695">
        <time>2020-10-18T11:32:21Z</time>
      </trkpt>
      <trkpt lat="39.89661" lon="116.640853">
        <time>2020-10-18T11:32:26Z</time>
      </trkpt>
      <trkpt lat="39.896605" lon="116.640996">
        <time>2020-10-18T11:32:31Z</time>
      </trkpt>
      <trkpt lat="39.896609" lon="116.641147">
        <time>2020-10-18T11:32:36Z</time>
      </trkpt>
      <trkpt lat="39.896599" lon="116.641297">
        <time>2020-10-18T11:32:41Z</time>
      </trkpt>
      <trkpt lat="39.896593" lon="116.64144">
        <time>2020-10-18T11:32:46Z</time>
      </trkpt>
      <trkpt lat="39.896571" lon="116.641569">
        <time>2020-10-18T11:32:51Z</time>
      </trkpt>
      <trkpt lat="39.896549" lon="116.641701">
        <time>2020-10-18T11:32:56Z</time>
      </trkpt>
      <trkpt lat="39.896515" lon="116.641837">
        <time>2020-10-18T11:33:01Z</time>
      </trkpt>
      <trkpt lat="39.896496" lon="116.641971">
        <time>2020-10-18T11:33:06Z</time>
      </trkpt>
      <trkpt lat="39.896483" lon="116.642092">
        <time>2020-10-18T11:33:11Z</time>
      </trkpt>
      <trkpt lat="39.896492" lon="116.642223">
        <time>2020-10-18T11:33:16Z</time>
      </trkpt>
      <trkpt lat="39.896523" lon="116.642325">
        <time>2020-10-18T11:33:21Z</time>
      </trkpt>
      <trkpt lat="39.896535" lon="116.642422">
        <time>2020-10-18T11:33:26Z</time>
      </trkpt>
      <trkpt lat="39.896515" lon="116.642563">
        <time>2020-10-18T11:33:31Z</time>
      </trkpt>
      <trkpt lat="39.896496" lon="116.64272">
        <time>2020-10-18T11:33:36Z</time>
      </trkpt>
      <trkpt lat="39.896477" lon="116.642872">
        <time>2020-10-18T11:33:41Z</time>
      </trkpt>
      <trkpt lat="39.896474" lon="116.643011">
        <time>2020-10-18T11:33:46Z</time>
      </trkpt>
      <trkpt lat="39.896472" lon="116.643181">
        <time>2020-10-18T11:33:51Z</time>
      </trkpt>
      <trkpt lat="39.896465" lon="116.643332">
        <time>2020-10-18T11:33:56Z</time>
      </trkpt>
      <trkpt lat="39.896477" lon="116.643472">
        <time>2020-10-18T11:34:01Z</time>
      </trkpt>
      <trkpt lat="39.896473" lon="116.64361">
        <time>2020-10-18T11:34:06Z</time>
      </trkpt>
      <trkpt lat="39.896469" lon="116.643765">
        <time>2020-10-18T11:34:11Z</time>
      </trkpt>
      <trkpt lat="39.89649" lon="116.643914">
        <time>2020-10-18T11:34:16Z</time>
      </trkpt>
      <trkpt lat="39.896484" lon="116.644066">
        <time>2020-10-18T11:34:21Z</time>
      </trkpt>
      <trkpt lat="39.896465" lon="116.644212">
        <time>2020-10-18T11:34:26Z</time>
      </trkpt>
      <trkpt lat="39.896456" lon="116.644355">
        <time>2020-10-18T11:34:31Z</time>
      </trkpt>
      <trkpt lat="39.896453" lon="116.6445">
        <time>2020-10-18T11:34:36Z</time>
      </trkpt>
      <trkpt lat="39.896456" lon="116.644644">
        <time>2020-10-18T11:34:41Z</time>
      </trkpt>
      <trkpt lat="39.896448" lon="116.644779">
        <time>2020-10-18T11:34:46Z</time>
      </trkpt>
      <trkpt lat="39.896437" lon="116.644914">
        <time>2020-10-18T11:34:51Z</time>
      </trkpt>
      <trkpt lat="39.896422" lon="116.64505">
        <time>2020-10-18T11:34:56Z</time>
      </trkpt>
      <trkpt lat="39.896408" lon="116.645179">
        <time>2020-10-18T11:35:01Z</time>
      </trkpt>
      <trkpt lat="39.896399" lon="116.645336">
        <time>2020-10-18T11:35:06Z</time>
      </trkpt>
      <trkpt lat="39.896386" lon="116.645489">
        <time>2020-10-18T11:35:11Z</time>
      </trkpt>
      <trkpt lat="39.896372" lon="116.645647">
        <time>2020-10-18T11:35:16Z</time>
      </trkpt>
      <trkpt lat="39.896349" lon="116.645781">
        <time>2020-10-18T11:35:21Z</time>
      </trkpt>
      <trkpt lat="39.896315" lon="116.645904">
        <time>2020-10-18T11:35:26Z</time>
      </trkpt>
      <trkpt lat="39.896304" lon="116.64604">
        <time>2020-10-18T11:35:31Z</time>
      </trkpt>
      <trkpt lat="39.89631" lon="116.646185">
        <time>2020-10-18T11:35:36Z</time>
      </trkpt>
      <trkpt lat="39.896299" lon="116.646329">
        <time>2020-10-18T11:35:41Z</time>
      </trkpt>
      <trkpt lat="39.89628" lon="116.646463">
        <time>2020-10-18T11:35:46Z</time>
      </trkpt>
      <trkpt lat="39.896248" lon="116.646592">
        <time>2020-10-18T11:35:51Z</time>
      </trkpt>
      <trkpt lat="39.896157" lon="116.646695">
        <time>2020-10-18T11:35:56Z</time>
      </trkpt>
      <trkpt lat="39.896041" lon="116.646719">
        <time>2020-10-18T11:36:01Z</time>
      </trkpt>
      <trkpt lat="39.895924" lon="116.646697">
        <time>2020-10-18T11:36:06Z</time>
      </trkpt>
      <trkpt lat="39.895793" lon="116.646658">
        <time>2020-10-18T11:36:11Z</time>
      </trkpt>
      <trkpt lat="39.895675" lon="116.646606">
        <time>2020-10-18T11:36:16Z</time>
      </trkpt>
      <trkpt lat="39.895574" lon="116.646539">
        <time>2020-10-18T11:36:21Z</time>
      </trkpt>
      <trkpt lat="39.895482" lon="116.646472">
        <time>2020-10-18T11:36:26Z</time>
      </trkpt>
      <trkpt lat="39.895411" lon="116.64643">
        <time>2020-10-18T11:36:31Z</time>
      </trkpt>
      <trkpt lat="39.895323" lon="116.64638">
        <time>2020-10-18T11:36:36Z</time>
      </trkpt>
      <trkpt lat="39.895258" lon="116.646335">
        <time>2020-10-18T11:36:41Z</time>
      </trkpt>
      <trkpt lat="39.895161" lon="116.646309">
        <time>2020-10-18T11:36:46Z</time>
      </trkpt>
      <trkpt lat="39.895076" lon="116.646284">
        <time>2020-10-18T11:36:51Z</time>
      </trkpt>
      <trkpt lat="39.894969" lon="116.646247">
        <time>2020-10-18T11:36:56Z</time>
      </trkpt>
      <trkpt lat="39.894862" lon="116.646214">
        <time>2020-10-18T11:37:01Z</time>
      </trkpt>
      <trkpt lat="39.894753" lon="116.646159">
        <time>2020-10-18T11:37:06Z</time>
      </trkpt>
      <trkpt lat="39.894667" lon="116.646123">
        <time>2020-10-18T11:37:11Z</time>
      </trkpt>
      <trkpt lat="39.894541" lon="116.646098">
        <time>2020-10-18T11:37:16Z</time>
      </trkpt>
      <trkpt lat="39.894409" lon="116.646079">
        <time>2020-10-18T11:37:21Z</time>
      </trkpt>
      <trkpt lat="39.894315" lon="116.646064">
        <time>2020-10-18T11:37:26Z</time>
      </trkpt>
      <trkpt lat="39.894237" lon="116.646082">
        <time>2020-10-18T11:37:31Z</time>
      </trkpt>
      <trkpt lat="39.894162" lon="116.646141">
        <time>2020-10-18T11:37:36Z</time>
      </trkpt>
      <trkpt lat="39.894096" lon="116.646222">
        <time>2020-10-18T11:37:41Z</time>
      </trkpt>
      <trkpt lat="39.894025" lon="116.646292">
        <time>2020-10-18T11:37:46Z</time>
      </trkpt>
      <trkpt lat="39.893894" lon="116.646335">
        <time>2020-10-18T11:37:51Z</time>
      </trkpt>
      <trkpt lat="39.893721" lon="116.646283">
        <time>2020-10-18T11:37:56Z</time>
      </trkpt>
      <trkpt lat="39.893567" lon="116.646219">
        <time>2020-10-18T11:38:01Z</time>
      </trkpt>
      <trkpt lat="39.893402" lon="116.646151">
        <time>2020-10-18T11:38:06Z</time>
      </trkpt>
      <trkpt lat="39.893273" lon="116.646117">
        <time>2020-10-18T11:38:11Z</time>
      </trkpt>
      <trkpt lat="39.893139" lon="116.646074">
        <time>2020-10-18T11:38:16Z</time>
      </trkpt>
      <trkpt lat="39.89303" lon="116.646038">
        <time>2020-10-18T11:38:21Z</time>
      </trkpt>
      <trkpt lat="39.892902" lon="116.646003">
        <time>2020-10-18T11:38:26Z</time>
      </trkpt>
      <trkpt lat="39.892797" lon="116.64594">
        <time>2020-10-18T11:38:31Z</time>
      </trkpt>
      <trkpt lat="39.892692" lon="116.645911">
        <time>2020-10-18T11:38:36Z</time>
      </trkpt>
      <trkpt lat="39.892549" lon="116.645882">
        <time>2020-10-18T11:38:41Z</time>
      </trkpt>
      <trkpt lat="39.892442" lon="116.64583">
        <time>2020-10-18T11:38:46Z</time>
      </trkpt>
      <trkpt lat="39.892335" lon="116.645796">
        <time>2020-10-18T11:38:51Z</time>
      </trkpt>
      <trkpt lat="39.892225" lon="116.645754">
        <time>2020-10-18T11:38:56Z</time>
      </trkpt>
      <trkpt lat="39.892121" lon="116.645691">
        <time>2020-10-18T11:39:01Z</time>
      </trkpt>
      <trkpt lat="39.891999" lon="116.645595">
        <time>2020-10-18T11:39:06Z</time>
      </trkpt>
      <trkpt lat="39.891883" lon="116.645506">
        <time>2020-10-18T11:39:11Z</time>
      </trkpt>
      <trkpt lat="39.891787" lon="116.645393">
        <time>2020-10-18T11:39:16Z</time>
      </trkpt>
      <trkpt lat="39.891739" lon="116.645372">
        <time>2020-10-18T11:39:21Z</time>
      </trkpt>
      <trkpt lat="39.891763" lon="116.645376">
        <time>2020-10-18T11:39:26Z</time>
      </trkpt>
      <trkpt lat="39.891809" lon="116.645379">
        <time>2020-10-18T11:39:31Z</time>
      </trkpt>
      <trkpt lat="39.891893" lon="116.645397">
        <time>2020-10-18T11:39:36Z</time>
      </trkpt>
      <trkpt lat="39.892006" lon="116.645441">
        <time>2020-10-18T11:39:41Z</time>
      </trkpt>
      <trkpt lat="39.892137" lon="116.645502">
        <time>2020-10-18T11:39:46Z</time>
      </trkpt>
      <trkpt lat="39.892279" lon="116.645519">
        <time>2020-10-18T11:39:51Z</time>
      </trkpt>
      <trkpt lat="39.892406" lon="116.645555">
        <time>2020-10-18T11:39:56Z</time>
      </trkpt>
      <trkpt lat="39.892507" lon="116.64561">
        <time>2020-10-18T11:40:01Z</time>
      </trkpt>
      <trkpt lat="39.892628" lon="116.645658">
        <time>2020-10-18T11:40:06Z</time>
      </trkpt>
      <trkpt lat="39.892763" lon="116.645705">
        <time>2020-10-18T11:40:11Z</time>
      </trkpt>
      <trkpt lat="39.892902" lon="116.645756">
        <time>2020-10-18T11:40:16Z</time>
      </trkpt>
      <trkpt lat="39.893016" lon="116.645788">
        <time>2020-10-18T11:40:21Z</time>
      </trkpt>
      <trkpt lat="39.89311" lon="116.645835">
        <time>2020-10-18T11:40:26Z</time>
      </trkpt>
      <trkpt lat="39.893214" lon="116.645891">
        <time>2020-10-18T11:40:31Z</time>
      </trkpt>
      <trkpt lat="39.893336" lon="116.645936">
        <time>2020-10-18T11:40:36Z</time>
      </trkpt>
      <trkpt lat="39.893449" lon="116.646033">
        <time>2020-10-18T11:40:41Z</time>
      </trkpt>
      <trkpt lat="39.893566" lon="116.646085">
        <time>2020-10-18T11:40:46Z</time>
      </trkpt>
      <trkpt lat="39.893678" lon="116.646149">
        <time>2020-10-18T11:40:51Z</time>
      </trkpt>
      <trkpt lat="39.893798" lon="116.646216">
        <time>2020-10-18T11:40:56Z</time>
      </trkpt>
      <trkpt lat="39.893917" lon="116.646236">
        <time>2020-10-18T11:41:01Z</time>
      </trkpt>
      <trkpt lat="39.894009" lon="116.646163">
        <time>2020-10-18T11:41:06Z</time>
      </trkpt>
      <trkpt lat="39.894076" lon="116.646028">
        <time>2020-10-18T11:41:11Z</time>
      </trkpt>
      <trkpt lat="39.894138" lon="116.645902">
        <time>2020-10-18T11:41:16Z</time>
      </trkpt>
      <trkpt lat="39.894236" lon="116.645844">
        <time>2020-10-18T11:41:21Z</time>
      </trkpt>
      <trkpt lat="39.894342" lon="116.645875">
        <time>2020-10-18T11:41:26Z</time>
      </trkpt>
      <trkpt lat="39.894464" lon="116.645911">
        <time>2020-10-18T11:41:31Z</time>
      </trkpt>
      <trkpt lat="39.894611" lon="116.645973">
        <time>2020-10-18T11:41:36Z</time>
      </trkpt>
      <trkpt lat="39.894718" lon="116.646006">
        <time>2020-10-18T11:41:41Z</time>
      </trkpt>
      <trkpt lat="39.894841" lon="116.646063">
        <time>2020-10-18T11:41:46Z</time>
      </trkpt>
      <trkpt lat="39.894956" lon="116.646136">
        <time>2020-10-18T11:41:51Z</time>
      </trkpt>
      <trkpt lat="39.895071" lon="116.646214">
        <time>2020-10-18T11:41:56Z</time>
      </trkpt>
      <trkpt lat="39.89517" lon="116.646274">
        <time>2020-10-18T11:42:01Z</time>
      </trkpt>
      <trkpt lat="39.895267" lon="116.646316">
        <time>2020-10-18T11:42:06Z</time>
      </trkpt>
      <trkpt lat="39.895382" lon="116.646354">
        <time>2020-10-18T11:42:11Z</time>
      </trkpt>
      <trkpt lat="39.895479" lon="116.646387">
        <time>2020-10-18T11:42:16Z</time>
      </trkpt>
      <trkpt lat="39.895603" lon="116.646421">
        <time>2020-10-18T11:42:21Z</time>
      </trkpt>
      <trkpt lat="39.895705" lon="116.646457">
        <time>2020-10-18T11:42:26Z</time>
      </trkpt>
      <trkpt lat="39.895795" lon="116.646498">
        <time>2020-10-18T11:42:31Z</time>
      </trkpt>
      <trkpt lat="39.895845" lon="116.646545">
        <time>2020-10-18T11:42:36Z</time>
      </trkpt>
      <trkpt lat="39.8959" lon="116.646595">
        <time>2020-10-18T11:42:41Z</time>
      </trkpt>
      <trkpt lat="39.895961" lon="116.646639">
        <time>2020-10-18T11:42:46Z</time>
      </trkpt>
      <trkpt lat="39.896023" lon="116.646674">
        <time>2020-10-18T11:42:51Z</time>
      </trkpt>
      <trkpt lat="39.896083" lon="116.646717">
        <time>2020-10-18T11:42:56Z</time>
      </trkpt>
      <trkpt lat="39.89615" lon="116.646746">
        <time>2020-10-18T11:43:01Z</time>
      </trkpt>
      <trkpt lat="39.896208" lon="116.646766">
        <time>2020-10-18T11:43:06Z</time>
      </trkpt>
      <trkpt lat="39.896243" lon="116.646726">
        <time>2020-10-18T11:43:11Z</time>
      </trkpt>
      <trkpt lat="39.896239" lon="116.646647">
        <time>2020-10-18T11:43:16Z</time>
      </trkpt>
      <trkpt lat="39.89624" lon="116.646525">
        <time>2020-10-18T11:43:21Z</time>
      </trkpt>
      <trkpt lat="39.896257" lon="116.646378">
        <time>2020-10-18T11:43:26Z</time>
      </trkpt>
      <trkpt lat="39.896267" lon="116.64621">
        <time>2020-10-18T11:43:31Z</time>
      </trkpt>
      <trkpt lat="39.896255" lon="116.646044">
        <time>2020-10-18T11:43:36Z</time>
      </trkpt>
      <trkpt lat="39.896268" lon="116.645877">
        <time>2020-10-18T11:43:41Z</time>
      </trkpt>
      <trkpt lat="39.896292" lon="116.645725">
        <time>2020-10-18T11:43:46Z</time>
      </trkpt>
      <trkpt lat="39.896327" lon="116.645574">
        <time>2020-10-18T11:43:51Z</time>
      </trkpt>
      <trkpt lat="39.896369" lon="116.645415">
        <time>2020-10-18T11:43:56Z</time>
      </trkpt>
      <trkpt lat="39.896397" lon="116.64524">
        <time>2020-10-18T11:44:01Z</time>
      </trkpt>
      <trkpt lat="39.896398" lon="116.645059">
        <time>2020-10-18T11:44:06Z</time>
      </trkpt>
      <trkpt lat="39.896416" lon="116.644887">
        <time>2020-10-18T11:44:11Z</time>
      </trkpt>
      <trkpt lat="39.89645" lon="116.644699">
        <time>2020-10-18T11:44:16Z</time>
      </trkpt>
      <trkpt lat="39.896463" lon="116.644504">
        <time>2020-10-18T11:44:21Z</time>
      </trkpt>
      <trkpt lat="39.89644" lon="116.644325">
        <time>2020-10-18T11:44:26Z</time>
      </trkpt>
      <trkpt lat="39.896386" lon="116.644042">
        <time>2020-10-18T11:44:31Z</time>
      </trkpt>
      <trkpt lat="39.896376" lon="116.643853">
        <time>2020-10-18T11:44:36Z</time>
      </trkpt>
      <trkpt lat="39.896366" lon="116.643693">
        <time>2020-10-18T11:44:41Z</time>
      </trkpt>
      <trkpt lat="39.896366" lon="116.643576">
        <time>2020-10-18T11:44:46Z</time>
      </trkpt>
      <trkpt lat="39.896362" lon="116.643485">
        <time>2020-10-18T11:44:51Z</time>
      </trkpt>
      <trkpt lat="39.896344" lon="116.643385">
        <time>2020-10-18T11:44:56Z</time>
      </trkpt>
      <trkpt lat="39.89634" lon="116.643289">
        <time>2020-10-18T11:45:01Z</time>
      </trkpt>
      <trkpt lat="39.896331" lon="116.643203">
        <time>2020-10-18T11:45:06Z</time>
      </trkpt>
      <trkpt lat="39.896332" lon="116.643117">
        <time>2020-10-18T11:45:11Z</time>
      </trkpt>
      <trkpt lat="39.896344" lon="116.643019">
        <time>2020-10-18T11:45:16Z</time>
      </trkpt>
      <trkpt lat="39.896345" lon="116.6429">
        <time>2020-10-18T11:45:21Z</time>
      </trkpt>
      <trkpt lat="39.896359" lon="116.642804">
        <time>2020-10-18T11:45:26Z</time>
      </trkpt>
      <trkpt lat="39.896391" lon="116.642722">
        <time>2020-10-18T11:45:31Z</time>
      </trkpt>
      <trkpt lat="39.896403" lon="116.642617">
        <time>2020-10-18T11:45:36Z</time>
      </trkpt>
      <trkpt lat="39.896411" lon="116.642521">
        <time>2020-10-18T11:45:41Z</time>
      </trkpt>
      <trkpt lat="39.896404" lon="116.642409">
        <time>2020-10-18T11:45:46Z</time>
      </trkpt>
      <trkpt lat="39.896403" lon="116.642265">
        <time>2020-10-18T11:45:51Z</time>
      </trkpt>
      <trkpt lat="39.89642" lon="116.642115">
        <time>2020-10-18T11:45:56Z</time>
      </trkpt>
      <trkpt lat="39.896418" lon="116.641946">
        <time>2020-10-18T11:46:01Z</time>
      </trkpt>
      <trkpt lat="39.896442" lon="116.641799">
        <time>2020-10-18T11:46:06Z</time>
      </trkpt>
      <trkpt lat="39.896425" lon="116.641645">
        <time>2020-10-18T11:46:11Z</time>
      </trkpt>
      <trkpt lat="39.896391" lon="116.641464">
        <time>2020-10-18T11:46:16Z</time>
      </trkpt>
      <trkpt lat="39.896345" lon="116.641288">
        <time>2020-10-18T11:46:21Z</time>
      </trkpt>
      <trkpt lat="39.896337" lon="116.641109">
        <time>2020-10-18T11:46:26Z</time>
      </trkpt>
      <trkpt lat="39.896316" lon="116.640959">
        <time>2020-10-18T11:46:31Z</time>
      </trkpt>
      <trkpt lat="39.896317" lon="116.640733">
        <time>2020-10-18T11:46:36Z</time>
      </trkpt>
      <trkpt lat="39.896308" lon="116.640564">
        <time>2020-10-18T11:46:41Z</time>
      </trkpt>
      <trkpt lat="39.89634" lon="116.640398">
        <time>2020-10-18T11:46:46Z</time>
      </trkpt>
      <trkpt lat="39.896364" lon="116.640224">
        <time>2020-10-18T11:46:51Z</time>
      </trkpt>
      <trkpt lat="39.896403" lon="116.640048">
        <time>2020-10-18T11:46:56Z</time>
      </trkpt>
      <trkpt lat="39.896416" lon="116.639889">
        <time>2020-10-18T11:47:01Z</time>
      </trkpt>
      <trkpt lat="39.896421" lon="116.639741">
        <time>2020-10-18T11:47:06Z</time>
      </trkpt>
      <trkpt lat="39.896424" lon="116.639601">
        <time>2020-10-18T11:47:11Z</time>
      </trkpt>
      <trkpt lat="39.896432" lon="116.639489">
        <time>2020-10-18T11:47:16Z</time>
      </trkpt>
      <trkpt lat="39.896442" lon="116.639318">
        <time>2020-10-18T11:47:21Z</time>
      </trkpt>
      <trkpt lat="39.896464" lon="116.639183">
        <time>2020-10-18T11:47:26Z</time>
      </trkpt>
      <trkpt lat="39.896476" lon="116.639037">
        <time>2020-10-18T11:47:31Z</time>
      </trkpt>
      <trkpt lat="39.896448" lon="116.638882">
        <time>2020-10-18T11:47:36Z</time>
      </trkpt>
      <trkpt lat="39.89644" lon="116.638728">
        <time>2020-10-18T11:47:41Z</time>
      </trkpt>
      <trkpt lat="39.896452" lon="116.638593">
        <time>2020-10-18T11:47:46Z</time>
      </trkpt>
      <trkpt lat="39.896433" lon="116.63844">
        <time>2020-10-18T11:47:51Z</time>
      </trkpt>
      <trkpt lat="39.896407" lon="116.638309">
        <time>2020-10-18T11:47:56Z</time>
      </trkpt>
      <trkpt lat="39.896382" lon="116.638196">
        <time>2020-10-18T11:48:01Z</time>
      </trkpt>
      <trkpt lat="39.896359" lon="116.638084">
        <time>2020-10-18T11:48:06Z</time>
      </trkpt>
      <trkpt lat="39.896344" lon="116.63797">
        <time>2020-10-18T11:48:11Z</time>
      </trkpt>
      <trkpt lat="39.896338" lon="116.637896">
        <time>2020-10-18T11:48:16Z</time>
      </trkpt>
      <trkpt lat="39.896342" lon="116.637771">
        <time>2020-10-18T11:48:21Z</time>
      </trkpt>
      <trkpt lat="39.896332" lon="116.637659">
        <time>2020-10-18T11:48:26Z</time>
      </trkpt>
      <trkpt lat="39.89632" lon="116.63752">
        <time>2020-10-18T11:48:31Z</time>
      </trkpt>
      <trkpt lat="39.896299" lon="116.637366">
        <time>2020-10-18T11:48:36Z</time>
      </trkpt>
      <trkpt lat="39.896282" lon="116.637222">
        <time>2020-10-18T11:48:41Z</time>
      </trkpt>
      <trkpt lat="39.896272" lon="116.637091">
        <time>2020-10-18T11:48:46Z</time>
      </trkpt>
      <trkpt lat="39.896263" lon="116.636963">
        <time>2020-10-18T11:48:51Z</time>
      </trkpt>
      <trkpt lat="39.896233" lon="116.636831">
        <time>2020-10-18T11:48:56Z</time>
      </trkpt>
      <trkpt lat="39.896178" lon="116.63673">
        <time>2020-10-18T11:49:01Z</time>
      </trkpt>
      <trkpt lat="39.896046" lon="116.636606">
        <time>2020-10-18T11:49:06Z</time>
      </trkpt>
      <trkpt lat="39.895955" lon="116.636497">
        <time>2020-10-18T11:49:11Z</time>
      </trkpt>
      <trkpt lat="39.895961" lon="116.636403">
        <time>2020-10-18T11:49:16Z</time>
      </trkpt>
      <trkpt lat="39.896011" lon="116.636348">
        <time>2020-10-18T11:49:21Z</time>
      </trkpt>
      <trkpt lat="39.896067" lon="116.636305">
        <time>2020-10-18T11:49:26Z</time>
      </trkpt>
      <trkpt lat="39.896115" lon="116.636246">
        <time>2020-10-18T11:49:31Z</time>
      </trkpt>
      <trkpt lat="39.896165" lon="116.636203">
        <time>2020-10-18T11:49:36Z</time>
      </trkpt>
      <trkpt lat="39.896255" lon="116.636127">
        <time>2020-10-18T11:49:41Z</time>
      </trkpt>
      <trkpt lat="39.896335" lon="116.63607">
        <time>2020-10-18T11:49:46Z</time>
      </trkpt>
      <trkpt lat="39.896413" lon="116.636033">
        <time>2020-10-18T11:49:51Z</time>
      </trkpt>
      <trkpt lat="39.896501" lon="116.635988">
        <time>2020-10-18T11:49:56Z</time>
      </trkpt>
      <trkpt lat="39.896579" lon="116.63595">
        <time>2020-10-18T11:50:01Z</time>
      </trkpt>
      <trkpt lat="39.896627" lon="116.635922">
        <time>2020-10-18T11:50:06Z</time>
      </trkpt>
      <trkpt lat="39.896705" lon="116.635884">
        <time>2020-10-18T11:50:11Z</time>
      </trkpt>
      <trkpt lat="39.896772" lon="116.635842">
        <time>2020-10-18T11:50:16Z</time>
      </trkpt>
      <trkpt lat="39.896841" lon="116.635802">
        <time>2020-10-18T11:50:21Z</time>
      </trkpt>
      <trkpt lat="39.896912" lon="116.635749">
        <time>2020-10-18T11:50:26Z</time>
      </trkpt>
      <trkpt lat="39.896966" lon="116.635716">
        <time>2020-10-18T11:50:31Z</time>
      </trkpt>
      <trkpt lat="39.897041" lon="116.635741">
        <time>2020-10-18T11:50:36Z</time>
      </trkpt>
      <trkpt lat="39.897098" lon="116.635827">
        <time>2020-10-18T11:50:41Z</time>
      </trkpt>
      <trkpt lat="39.897197" lon="116.635978">
        <time>2020-10-18T11:50:46Z</time>
      </trkpt>
      <trkpt lat="39.897292" lon="116.636132">
        <time>2020-10-18T11:50:51Z</time>
      </trkpt>
      <trkpt lat="39.897389" lon="116.636253">
        <time>2020-10-18T11:50:56Z</time>
      </trkpt>
      <trkpt lat="39.897468" lon="116.63638">
        <time>2020-10-18T11:51:01Z</time>
      </trkpt>
      <trkpt lat="39.897555" lon="116.636514">
        <time>2020-10-18T11:51:06Z</time>
      </trkpt>
      <trkpt lat="39.897623" lon="116.636671">
        <time>2020-10-18T11:51:11Z</time>
      </trkpt>
      <trkpt lat="39.897676" lon="116.636821">
        <time>2020-10-18T11:51:16Z</time>
      </trkpt>
      <trkpt lat="39.897751" lon="116.636974">
        <time>2020-10-18T11:51:21Z</time>
      </trkpt>
      <trkpt lat="39.897809" lon="116.637082">
        <time>2020-10-18T11:51:26Z</time>
      </trkpt>
      <trkpt lat="39.897874" lon="116.637251">
        <time>2020-10-18T11:51:31Z</time>
      </trkpt>
      <trkpt lat="39.897922" lon="116.637386">
        <time>2020-10-18T11:51:36Z</time>
      </trkpt>
      <trkpt lat="39.897965" lon="116.637491">
        <time>2020-10-18T11:51:41Z</time>
      </trkpt>
      <trkpt lat="39.898057" lon="116.637661">
        <time>2020-10-18T11:51:46Z</time>
      </trkpt>
      <trkpt lat="39.898119" lon="116.637803">
        <time>2020-10-18T11:51:51Z</time>
      </trkpt>
      <trkpt lat="39.898169" lon="116.637912">
        <time>2020-10-18T11:51:56Z</time>
      </trkpt>
      <trkpt lat="39.898212" lon="116.637966">
        <time>2020-10-18T11:52:01Z</time>
      </trkpt>
      <trkpt lat="39.898321" lon="116.638005">
        <time>2020-10-18T11:52:06Z</time>
      </trkpt>
      <trkpt lat="39.898374" lon="116.63805">
        <time>2020-10-18T11:52:11Z</time>
      </trkpt>
      <trkpt lat="39.898451" lon="116.638078">
        <time>2020-10-18T11:52:16Z</time>
      </trkpt>
      <trkpt lat="39.898543" lon="116.638103">
        <time>2020-10-18T11:52:21Z</time>
      </trkpt>
      <trkpt lat="39.898624" lon="116.638142">
        <time>2020-10-18T11:52:26Z</time>
      </trkpt>
      <trkpt lat="39.898756" lon="116.638196">
        <time>2020-10-18T11:52:31Z</time>
      </trkpt>
      <trkpt lat="39.898855" lon="116.638235">
        <time>2020-10-18T11:52:36Z</time>
      </trkpt>
      <trkpt lat="39.898954" lon="116.638268">
        <time>2020-10-18T11:52:41Z</time>
      </trkpt>
      <trkpt lat="39.899042" lon="116.638266">
        <time>2020-10-18T11:52:46Z</time>
      </trkpt>
      <trkpt lat="39.899143" lon="116.638262">
        <time>2020-10-18T11:52:51Z</time>
      </trkpt>
      <trkpt lat="39.899207" lon="116.638265">
        <time>2020-10-18T11:52:56Z</time>
      </trkpt>
      <trkpt lat="39.899335" lon="116.638294">
        <time>2020-10-18T11:53:01Z</time>
      </trkpt>
      <trkpt lat="39.89942" lon="116.638312">
        <time>2020-10-18T11:53:06Z</time>
      </trkpt>
      <trkpt lat="39.899564" lon="116.63836">
        <time>2020-10-18T11:53:11Z</time>
      </trkpt>
      <trkpt lat="39.899691" lon="116.638374">
        <time>2020-10-18T11:53:16Z</time>
      </trkpt>
      <trkpt lat="39.89979" lon="116.638384">
        <time>2020-10-18T11:53:21Z</time>
      </trkpt>
      <trkpt lat="39.899909" lon="116.638433">
        <time>2020-10-18T11:53:26Z</time>
      </trkpt>
      <trkpt lat="39.899976" lon="116.638446">
        <time>2020-10-18T11:53:31Z</time>
      </trkpt>
      <trkpt lat="39.900049" lon="116.638511">
        <time>2020-10-18T11:53:36Z</time>
      </trkpt>
      <trkpt lat="39.900147" lon="116.638586">
        <time>2020-10-18T11:53:41Z</time>
      </trkpt>
      <trkpt lat="39.90024" lon="116.638591">
        <time>2020-10-18T11:53:46Z</time>
      </trkpt>
      <trkpt lat="39.900329" lon="116.638547">
        <time>2020-10-18T11:53:51Z</time>
      </trkpt>
      <trkpt lat="39.900417" lon="116.638475">
        <time>2020-10-18T11:53:56Z</time>
      </trkpt>
      <trkpt lat="39.900514" lon="116.638423">
        <time>2020-10-18T11:54:01Z</time>
      </trkpt>
      <trkpt lat="39.900556" lon="116.638343">
        <time>2020-10-18T11:54:06Z</time>
      </trkpt>
      <trkpt lat="39.90059" lon="116.638186">
        <time>2020-10-18T11:54:11Z</time>
      </trkpt>
      <trkpt lat="39.900623" lon="116.638036">
        <time>2020-10-18T11:54:16Z</time>
      </trkpt>
      <trkpt lat="39.900675" lon="116.637877">
        <time>2020-10-18T11:54:21Z</time>
      </trkpt>
      <trkpt lat="39.900675" lon="116.637752">
        <time>2020-10-18T11:54:26Z</time>
      </trkpt>
      <trkpt lat="39.900677" lon="116.637571">
        <time>2020-10-18T11:54:31Z</time>
      </trkpt>
      <trkpt lat="39.900725" lon="116.637447">
        <time>2020-10-18T11:54:36Z</time>
      </trkpt>
      <trkpt lat="39.900762" lon="116.637317">
        <time>2020-10-18T11:54:41Z</time>
      </trkpt>
      <trkpt lat="39.900775" lon="116.637207">
        <time>2020-10-18T11:54:46Z</time>
      </trkpt>
      <trkpt lat="39.900799" lon="116.637065">
        <time>2020-10-18T11:54:51Z</time>
      </trkpt>
      <trkpt lat="39.900802" lon="116.6369">
        <time>2020-10-18T11:54:56Z</time>
      </trkpt>
      <trkpt lat="39.900799" lon="116.636691">
        <time>2020-10-18T11:55:01Z</time>
      </trkpt>
      <trkpt lat="39.90083" lon="116.636498">
        <time>2020-10-18T11:55:06Z</time>
      </trkpt>
      <trkpt lat="39.900847" lon="116.636348">
        <time>2020-10-18T11:55:11Z</time>
      </trkpt>
      <trkpt lat="39.900864" lon="116.63619">
        <time>2020-10-18T11:55:16Z</time>
      </trkpt>
      <trkpt lat="39.900902" lon="116.636063">
        <time>2020-10-18T11:55:21Z</time>
      </trkpt>
      <trkpt lat="39.900914" lon="116.635971">
        <time>2020-10-18T11:55:26Z</time>
      </trkpt>
      <trkpt lat="39.900914" lon="116.635804">
        <time>2020-10-18T11:55:31Z</time>
      </trkpt>
      <trkpt lat="39.900884" lon="116.635654">
        <time>2020-10-18T11:55:36Z</time>
      </trkpt>
      <trkpt lat="39.900899" lon="116.635516">
        <time>2020-10-18T11:55:41Z</time>
      </trkpt>
      <trkpt lat="39.900906" lon="116.635361">
        <time>2020-10-18T11:55:46Z</time>
      </trkpt>
      <trkpt lat="39.900921" lon="116.635185">
        <time>2020-10-18T11:55:51Z</time>
      </trkpt>
      <trkpt lat="39.900963" lon="116.635014">
        <time>2020-10-18T11:55:56Z</time>
      </trkpt>
      <trkpt lat="39.900989" lon="116.634852">
        <time>2020-10-18T11:56:01Z</time>
      </trkpt>
      <trkpt lat="39.901021" lon="116.634679">
        <time>2020-10-18T11:56:06Z</time>
      </trkpt>
      <trkpt lat="39.901044" lon="116.634508">
        <time>2020-10-18T11:56:11Z</time>
      </trkpt>
      <trkpt lat="39.90109" lon="116.634369">
        <time>2020-10-18T11:56:16Z</time>
      </trkpt>
      <trkpt lat="39.901128" lon="116.634194">
        <time>2020-10-18T11:56:21Z</time>
      </trkpt>
      <trkpt lat="39.901131" lon="116.634025">
        <time>2020-10-18T11:56:26Z</time>
      </trkpt>
      <trkpt lat="39.901111" lon="116.633895">
        <time>2020-10-18T11:56:31Z</time>
      </trkpt>
      <trkpt lat="39.901137" lon="116.633759">
        <time>2020-10-18T11:56:36Z</time>
      </trkpt>
      <trkpt lat="39.90115" lon="116.633614">
        <time>2020-10-18T11:56:41Z</time>
      </trkpt>
      <trkpt lat="39.901162" lon="116.633518">
        <time>2020-10-18T11:56:46Z</time>
      </trkpt>
      <trkpt lat="39.901173" lon="116.63342">
        <time>2020-10-18T11:56:51Z</time>
      </trkpt>
      <trkpt lat="39.901148" lon="116.633351">
        <time>2020-10-18T11:56:56Z</time>
      </trkpt>
      <trkpt lat="39.901135" lon="116.633318">
        <time>2020-10-18T11:57:01Z</time>
      </trkpt>
      <trkpt lat="39.901102" lon="116.633299">
        <time>2020-10-18T11:57:06Z</time>
      </trkpt>
      <trkpt lat="39.901047" lon="116.633313">
        <time>2020-10-18T11:57:11Z</time>
      </trkpt>
      <trkpt lat="39.901011" lon="116.633329">
        <time>2020-10-18T11:57:16Z</time>
      </trkpt>
      <trkpt lat="39.900954" lon="116.633378">
        <time>2020-10-18T11:57:21Z</time>
      </trkpt>
      <trkpt lat="39.900874" lon="116.633418">
        <time>2020-10-18T11:57:26Z</time>
      </trkpt>
      <trkpt lat="39.900795" lon="116.633475">
        <time>2020-10-18T11:57:31Z</time>
      </trkpt>
      <trkpt lat="39.900705" lon="116.633555">
        <time>2020-10-18T11:57:36Z</time>
      </trkpt>
      <trkpt lat="39.900601" lon="116.633599">
        <time>2020-10-18T11:57:41Z</time>
      </trkpt>
      <trkpt lat="39.90051" lon="116.633652">
        <time>2020-10-18T11:57:46Z</time>
      </trkpt>
      <trkpt lat="39.900404" lon="116.633712">
        <time>2020-10-18T11:57:51Z</time>
      </trkpt>
      <trkpt lat="39.900292" lon="116.633794">
        <time>2020-10-18T11:57:56Z</time>
      </trkpt>
      <trkpt lat="39.900158" lon="116.633878">
        <time>2020-10-18T11:58:01Z</time>
      </trkpt>
      <trkpt lat="39.900035" lon="116.633953">
        <time>2020-10-18T11:58:06Z</time>
      </trkpt>
      <trkpt lat="39.899909" lon="116.634007">
        <time>2020-10-18T11:58:11Z</time>
      </trkpt>
      <trkpt lat="39.899806" lon="116.634085">
        <time>2020-10-18T11:58:16Z</time>
      </trkpt>
      <trkpt lat="39.899713" lon="116.634142">
        <time>2020-10-18T11:58:21Z</time>
      </trkpt>
      <trkpt lat="39.899628" lon="116.634203">
        <time>2020-10-18T11:58:26Z</time>
      </trkpt>
      <trkpt lat="39.899517" lon="116.634278">
        <time>2020-10-18T11:58:31Z</time>
      </trkpt>
      <trkpt lat="39.899407" lon="116.63434">
        <time>2020-10-18T11:58:36Z</time>
      </trkpt>
      <trkpt lat="39.899286" lon="116.634399">
        <time>2020-10-18T11:58:41Z</time>
      </trkpt>
      <trkpt lat="39.899175" lon="116.634452">
        <time>2020-10-18T11:58:46Z</time>
      </trkpt>
      <trkpt lat="39.899097" lon="116.634506">
        <time>2020-10-18T11:58:51Z</time>
      </trkpt>
      <trkpt lat="39.899036" lon="116.634565">
        <time>2020-10-18T11:58:56Z</time>
      </trkpt>
      <trkpt lat="39.898948" lon="116.634624">
        <time>2020-10-18T11:59:01Z</time>
      </trkpt>
      <trkpt lat="39.898879" lon="116.634668">
        <time>2020-10-18T11:59:06Z</time>
      </trkpt>
      <trkpt lat="39.898817" lon="116.634718">
        <time>2020-10-18T11:59:11Z</time>
      </trkpt>
      <trkpt lat="39.898737" lon="116.634753">
        <time>2020-10-18T11:59:16Z</time>
      </trkpt>
      <trkpt lat="39.89867" lon="116.634795">
        <time>2020-10-18T11:59:21Z</time>
      </trkpt>
      <trkpt lat="39.898589" lon="116.634832">
        <time>2020-10-18T11:59:26Z</time>
      </trkpt>
      <trkpt lat="39.898472" lon="116.634858">
        <time>2020-10-18T11:59:31Z</time>
      </trkpt>
      <trkpt lat="39.89834" lon="116.634768">
        <time>2020-10-18T11:59:36Z</time>
      </trkpt>
      <trkpt lat="39.898219" lon="116.634655">
        <time>2020-10-18T11:59:41Z</time>
      </trkpt>
      <trkpt lat="39.898114" lon="116.634551">
        <time>2020-10-18T11:59:46Z</time>
      </trkpt>
      <trkpt lat="39.898043" lon="116.63441">
        <time>2020-10-18T11:59:51Z</time>
      </trkpt>
      <trkpt lat="39.897995" lon="116.63431">
        <time>2020-10-18T11:59:56Z</time>
      </trkpt>
      <trkpt lat="39.897954" lon="116.634212">
        <time>2020-10-18T12:00:01Z</time>
      </trkpt>
      <trkpt lat="39.897886" lon="116.634106">
        <time>2020-10-18T12:00:06Z</time>
      </trkpt>
      <trkpt lat="39.897808" lon="116.633948">
        <time>2020-10-18T12:00:11Z</time>
      </trkpt>
      <trkpt lat="39.897721" lon="116.633806">
        <time>2020-10-18T12:00:16Z</time>
      </trkpt>
      <trkpt lat="39.897643" lon="116.633697">
        <time>2020-10-18T12:00:21Z</time>
      </trkpt>
      <trkpt lat="39.897558" lon="116.633671">
        <time>2020-10-18T12:00:26Z</time>
      </trkpt>
      <trkpt lat="39.897497" lon="116.633728">
        <time>2020-10-18T12:00:31Z</time>
      </trkpt>
      <trkpt lat="39.897445" lon="116.633781">
        <time>2020-10-18T12:00:36Z</time>
      </trkpt>
      <trkpt lat="39.897409" lon="116.633783">
        <time>2020-10-18T12:00:41Z</time>
      </trkpt>
      <trkpt lat="39.897344" lon="116.633781">
        <time>2020-10-18T12:00:46Z</time>
      </trkpt>
      <trkpt lat="39.897421" lon="116.633717">
        <time>2020-10-18T12:00:51Z</time>
      </trkpt>
      <trkpt lat="39.89745" lon="116.633701">
        <time>2020-10-18T12:00:56Z</time>
      </trkpt>
      <trkpt lat="39.897456" lon="116.633691">
        <time>2020-10-18T12:01:01Z</time>
      </trkpt>
      <trkpt lat="39.897399" lon="116.633715">
        <time>2020-10-18T12:01:06Z</time>
      </trkpt>
      <trkpt lat="39.897368" lon="116.633763">
        <time>2020-10-18T12:01:11Z</time>
      </trkpt>
      <trkpt lat="39.897392" lon="116.633838">
        <time>2020-10-18T12:01:16Z</time>
      </trkpt>
      <trkpt lat="39.897425" lon="116.633907">
        <time>2020-10-18T12:01:21Z</time>
      </trkpt>
      <trkpt lat="39.897466" lon="116.633981">
        <time>2020-10-18T12:01:43Z</time>
      </trkpt>
    </trkseg>
  </trk>
</gpx>