<?xml version="1.0" encoding="UTF-8"?>
<gpx xmlns="http://www.topografix.com/GPX/1/1" xmlns:gpxtpx="http://www.garmin.com/xmlschemas/TrackPointExtension/v1" xmlns:xsi="http://www.w3.org/2001/XMLSchema-instance" xsi:schemaLocation="http://www.topografix.com/GPX/1/1 http://www.topografix.com/GPX/1/1/gpx.xsd" version="1.1" creator="gpx.py -- https://github.com/tkrajina/gpxpy">
  <trk>
    <name>gpx from keep</name>
    <trkseg>
      <trkpt lat="39.897948" lon="116.63569">
        <time>2020-10-21T12:53:54Z</time>
      </trkpt>
      <trkpt lat="39.897907" lon="116.635714">
        <time>2020-10-21T12:53:59Z</time>
      </trkpt>
      <trkpt lat="39.897804" lon="116.635804">
        <time>2020-10-21T12:54:04Z</time>
      </trkpt>
      <trkpt lat="39.897739" lon="116.635811">
        <time>2020-10-21T12:54:09Z</time>
      </trkpt>
      <trkpt lat="39.897678" lon="116.635818">
        <time>2020-10-21T12:54:14Z</time>
      </trkpt>
      <trkpt lat="39.897592" lon="116.63578">
        <time>2020-10-21T12:54:19Z</time>
      </trkpt>
      <trkpt lat="39.897491" lon="116.635728">
        <time>2020-10-21T12:54:24Z</time>
      </trkpt>
      <trkpt lat="39.897371" lon="116.635724">
        <time>2020-10-21T12:54:29Z</time>
      </trkpt>
      <trkpt lat="39.897237" lon="116.635771">
        <time>2020-10-21T12:54:34Z</time>
      </trkpt>
      <trkpt lat="39.897075" lon="116.635816">
        <time>2020-10-21T12:54:39Z</time>
      </trkpt>
      <trkpt lat="39.896948" lon="116.635884">
        <time>2020-10-21T12:54:44Z</time>
      </trkpt>
      <trkpt lat="39.896812" lon="116.635953">
        <time>2020-10-21T12:54:49Z</time>
      </trkpt>
      <trkpt lat="39.896675" lon="116.636037">
        <time>2020-10-21T12:54:54Z</time>
      </trkpt>
      <trkpt lat="39.896556" lon="116.636112">
        <time>2020-10-21T12:54:59Z</time>
      </trkpt>
      <trkpt lat="39.896163" lon="116.636271">
        <time>2020-10-21T12:55:04Z</time>
      </trkpt>
      <trkpt lat="39.896163" lon="116.636271">
        <time>2020-10-21T12:55:09Z</time>
      </trkpt>
      <trkpt lat="39.896163" lon="116.636271">
        <time>2020-10-21T12:55:14Z</time>
      </trkpt>
      <trkpt lat="39.896158" lon="116.636327">
        <time>2020-10-21T12:55:19Z</time>
      </trkpt>
      <trkpt lat="39.896156" lon="116.636498">
        <time>2020-10-21T12:55:24Z</time>
      </trkpt>
      <trkpt lat="39.896125" lon="116.636518">
        <time>2020-10-21T12:55:29Z</time>
      </trkpt>
      <trkpt lat="39.896101" lon="116.636547">
        <time>2020-10-21T12:55:34Z</time>
      </trkpt>
      <trkpt lat="39.896073" lon="116.636594">
        <time>2020-10-21T12:55:39Z</time>
      </trkpt>
      <trkpt lat="39.896054" lon="116.636623">
        <time>2020-10-21T12:55:44Z</time>
      </trkpt>
      <trkpt lat="39.896071" lon="116.636638">
        <time>2020-10-21T12:55:49Z</time>
      </trkpt>
      <trkpt lat="39.896059" lon="116.63664">
        <time>2020-10-21T12:55:54Z</time>
      </trkpt>
      <trkpt lat="39.896028" lon="116.636613">
        <time>2020-10-21T12:55:59Z</time>
      </trkpt>
      <trkpt lat="39.895998" lon="116.636619">
        <time>2020-10-21T12:56:04Z</time>
      </trkpt>
      <trkpt lat="39.895979" lon="116.63666">
        <time>2020-10-21T12:56:09Z</time>
      </trkpt>
      <trkpt lat="39.895984" lon="116.636729">
        <time>2020-10-21T12:56:14Z</time>
      </trkpt>
      <trkpt lat="39.896031" lon="116.636865">
        <time>2020-10-21T12:56:19Z</time>
      </trkpt>
      <trkpt lat="39.896087" lon="116.637034">
        <time>2020-10-21T12:56:24Z</time>
      </trkpt>
      <trkpt lat="39.896141" lon="116.637206">
        <time>2020-10-21T12:56:29Z</time>
      </trkpt>
      <trkpt lat="39.89622" lon="116.637383">
        <time>2020-10-21T12:56:34Z</time>
      </trkpt>
      <trkpt lat="39.896262" lon="116.637548">
        <time>2020-10-21T12:56:39Z</time>
      </trkpt>
      <trkpt lat="39.896272" lon="116.637691">
        <time>2020-10-21T12:56:44Z</time>
      </trkpt>
      <trkpt lat="39.896274" lon="116.637839">
        <time>2020-10-21T12:56:49Z</time>
      </trkpt>
      <trkpt lat="39.896268" lon="116.637987">
        <time>2020-10-21T12:56:54Z</time>
      </trkpt>
      <trkpt lat="39.89626" lon="116.63814">
        <time>2020-10-21T12:56:59Z</time>
      </trkpt>
      <trkpt lat="39.896237" lon="116.638312">
        <time>2020-10-21T12:57:04Z</time>
      </trkpt>
      <trkpt lat="39.896217" lon="116.638477">
        <time>2020-10-21T12:57:09Z</time>
      </trkpt>
      <trkpt lat="39.896203" lon="116.638639">
        <time>2020-10-21T12:57:14Z</time>
      </trkpt>
      <trkpt lat="39.896169" lon="116.638793">
        <time>2020-10-21T12:57:19Z</time>
      </trkpt>
      <trkpt lat="39.896126" lon="116.638945">
        <time>2020-10-21T12:57:24Z</time>
      </trkpt>
      <trkpt lat="39.896106" lon="116.639096">
        <time>2020-10-21T12:57:29Z</time>
      </trkpt>
      <trkpt lat="39.896068" lon="116.639251">
        <time>2020-10-21T12:57:34Z</time>
      </trkpt>
      <trkpt lat="39.896037" lon="116.639429">
        <time>2020-10-21T12:57:39Z</time>
      </trkpt>
      <trkpt lat="39.896015" lon="116.639601">
        <time>2020-10-21T12:57:44Z</time>
      </trkpt>
      <trkpt lat="39.896025" lon="116.639768">
        <time>2020-10-21T12:57:49Z</time>
      </trkpt>
      <trkpt lat="39.896075" lon="116.639918">
        <time>2020-10-21T12:57:54Z</time>
      </trkpt>
      <trkpt lat="39.896109" lon="116.640055">
        <time>2020-10-21T12:57:59Z</time>
      </trkpt>
      <trkpt lat="39.896151" lon="116.640203">
        <time>2020-10-21T12:58:04Z</time>
      </trkpt>
      <trkpt lat="39.896201" lon="116.640354">
        <time>2020-10-21T12:58:09Z</time>
      </trkpt>
      <trkpt lat="39.896224" lon="116.640558">
        <time>2020-10-21T12:58:14Z</time>
      </trkpt>
      <trkpt lat="39.896188" lon="116.64076">
        <time>2020-10-21T12:58:19Z</time>
      </trkpt>
      <trkpt lat="39.89618" lon="116.640927">
        <time>2020-10-21T12:58:24Z</time>
      </trkpt>
      <trkpt lat="39.896176" lon="116.641081">
        <time>2020-10-21T12:58:29Z</time>
      </trkpt>
      <trkpt lat="39.896186" lon="116.641244">
        <time>2020-10-21T12:58:34Z</time>
      </trkpt>
      <trkpt lat="39.896216" lon="116.641403">
        <time>2020-10-21T12:58:39Z</time>
      </trkpt>
      <trkpt lat="39.896249" lon="116.641564">
        <time>2020-10-21T12:58:44Z</time>
      </trkpt>
      <trkpt lat="39.896241" lon="116.641725">
        <time>2020-10-21T12:58:49Z</time>
      </trkpt>
      <trkpt lat="39.896231" lon="116.641881">
        <time>2020-10-21T12:58:54Z</time>
      </trkpt>
      <trkpt lat="39.896186" lon="116.642034">
        <time>2020-10-21T12:58:59Z</time>
      </trkpt>
      <trkpt lat="39.896139" lon="116.642221">
        <time>2020-10-21T12:59:04Z</time>
      </trkpt>
      <trkpt lat="39.896101" lon="116.642393">
        <time>2020-10-21T12:59:09Z</time>
      </trkpt>
      <trkpt lat="39.896078" lon="116.64258">
        <time>2020-10-21T12:59:14Z</time>
      </trkpt>
      <trkpt lat="39.896081" lon="116.642766">
        <time>2020-10-21T12:59:19Z</time>
      </trkpt>
      <trkpt lat="39.896086" lon="116.642951">
        <time>2020-10-21T12:59:24Z</time>
      </trkpt>
      <trkpt lat="39.896087" lon="116.643117">
        <time>2020-10-21T12:59:29Z</time>
      </trkpt>
      <trkpt lat="39.896086" lon="116.643251">
        <time>2020-10-21T12:59:34Z</time>
      </trkpt>
      <trkpt lat="39.896079" lon="116.643388">
        <time>2020-10-21T12:59:39Z</time>
      </trkpt>
      <trkpt lat="39.896112" lon="116.643497">
        <time>2020-10-21T12:59:44Z</time>
      </trkpt>
      <trkpt lat="39.896126" lon="116.643637">
        <time>2020-10-21T12:59:49Z</time>
      </trkpt>
      <trkpt lat="39.896109" lon="116.643778">
        <time>2020-10-21T12:59:54Z</time>
      </trkpt>
      <trkpt lat="39.896106" lon="116.643912">
        <time>2020-10-21T12:59:59Z</time>
      </trkpt>
      <trkpt lat="39.89612" lon="116.644048">
        <time>2020-10-21T13:00:04Z</time>
      </trkpt>
      <trkpt lat="39.896139" lon="116.644175">
        <time>2020-10-21T13:00:09Z</time>
      </trkpt>
      <trkpt lat="39.896143" lon="116.644336">
        <time>2020-10-21T13:00:14Z</time>
      </trkpt>
      <trkpt lat="39.896139" lon="116.644493">
        <time>2020-10-21T13:00:19Z</time>
      </trkpt>
      <trkpt lat="39.896152" lon="116.644638">
        <time>2020-10-21T13:00:24Z</time>
      </trkpt>
      <trkpt lat="39.896172" lon="116.644771">
        <time>2020-10-21T13:00:29Z</time>
      </trkpt>
      <trkpt lat="39.896186" lon="116.64491">
        <time>2020-10-21T13:00:34Z</time>
      </trkpt>
      <trkpt lat="39.896169" lon="116.645073">
        <time>2020-10-21T13:00:39Z</time>
      </trkpt>
      <trkpt lat="39.896123" lon="116.645241">
        <time>2020-10-21T13:00:44Z</time>
      </trkpt>
      <trkpt lat="39.896106" lon="116.645413">
        <time>2020-10-21T13:00:49Z</time>
      </trkpt>
      <trkpt lat="39.896122" lon="116.645565">
        <time>2020-10-21T13:00:54Z</time>
      </trkpt>
      <trkpt lat="39.89613" lon="116.645704">
        <time>2020-10-21T13:00:59Z</time>
      </trkpt>
      <trkpt lat="39.896119" lon="116.645833">
        <time>2020-10-21T13:01:04Z</time>
      </trkpt>
      <trkpt lat="39.896098" lon="116.645973">
        <time>2020-10-21T13:01:09Z</time>
      </trkpt>
      <trkpt lat="39.896072" lon="116.646121">
        <time>2020-10-21T13:01:14Z</time>
      </trkpt>
      <trkpt lat="39.896028" lon="116.646285">
        <time>2020-10-21T13:01:19Z</time>
      </trkpt>
      <trkpt lat="39.895993" lon="116.64644">
        <time>2020-10-21T13:01:24Z</time>
      </trkpt>
      <trkpt lat="39.895984" lon="116.646603">
        <time>2020-10-21T13:01:29Z</time>
      </trkpt>
      <trkpt lat="39.895978" lon="116.646764">
        <time>2020-10-21T13:01:34Z</time>
      </trkpt>
      <trkpt lat="39.895927" lon="116.646863">
        <time>2020-10-21T13:01:39Z</time>
      </trkpt>
      <trkpt lat="39.895817" lon="116.646855">
        <time>2020-10-21T13:01:44Z</time>
      </trkpt>
      <trkpt lat="39.895697" lon="116.646803">
        <time>2020-10-21T13:01:49Z</time>
      </trkpt>
      <trkpt lat="39.89561" lon="116.646754">
        <time>2020-10-21T13:01:54Z</time>
      </trkpt>
      <trkpt lat="39.895522" lon="116.646692">
        <time>2020-10-21T13:01:59Z</time>
      </trkpt>
      <trkpt lat="39.895405" lon="116.646641">
        <time>2020-10-21T13:02:04Z</time>
      </trkpt>
      <trkpt lat="39.895302" lon="116.646602">
        <time>2020-10-21T13:02:09Z</time>
      </trkpt>
      <trkpt lat="39.895227" lon="116.646562">
        <time>2020-10-21T13:02:14Z</time>
      </trkpt>
      <trkpt lat="39.895153" lon="116.646494">
        <time>2020-10-21T13:02:19Z</time>
      </trkpt>
      <trkpt lat="39.895003" lon="116.646452">
        <time>2020-10-21T13:02:24Z</time>
      </trkpt>
      <trkpt lat="39.894903" lon="116.646434">
        <time>2020-10-21T13:02:29Z</time>
      </trkpt>
      <trkpt lat="39.894789" lon="116.64642">
        <time>2020-10-21T13:02:34Z</time>
      </trkpt>
      <trkpt lat="39.894671" lon="116.646377">
        <time>2020-10-21T13:02:39Z</time>
      </trkpt>
      <trkpt lat="39.894566" lon="116.646329">
        <time>2020-10-21T13:02:44Z</time>
      </trkpt>
      <trkpt lat="39.894448" lon="116.646282">
        <time>2020-10-21T13:02:49Z</time>
      </trkpt>
      <trkpt lat="39.894331" lon="116.646208">
        <time>2020-10-21T13:02:54Z</time>
      </trkpt>
      <trkpt lat="39.89424" lon="116.646132">
        <time>2020-10-21T13:02:59Z</time>
      </trkpt>
      <trkpt lat="39.894156" lon="116.646072">
        <time>2020-10-21T13:03:04Z</time>
      </trkpt>
      <trkpt lat="39.894032" lon="116.64608">
        <time>2020-10-21T13:03:09Z</time>
      </trkpt>
      <trkpt lat="39.89394" lon="116.646133">
        <time>2020-10-21T13:03:14Z</time>
      </trkpt>
      <trkpt lat="39.893899" lon="116.646237">
        <time>2020-10-21T13:03:19Z</time>
      </trkpt>
      <trkpt lat="39.893878" lon="116.646358">
        <time>2020-10-21T13:03:24Z</time>
      </trkpt>
      <trkpt lat="39.893836" lon="116.646439">
        <time>2020-10-21T13:03:29Z</time>
      </trkpt>
      <trkpt lat="39.893746" lon="116.646435">
        <time>2020-10-21T13:03:34Z</time>
      </trkpt>
      <trkpt lat="39.893621" lon="116.646384">
        <time>2020-10-21T13:03:39Z</time>
      </trkpt>
      <trkpt lat="39.893507" lon="116.646325">
        <time>2020-10-21T13:03:44Z</time>
      </trkpt>
      <trkpt lat="39.893376" lon="116.646259">
        <time>2020-10-21T13:03:49Z</time>
      </trkpt>
      <trkpt lat="39.893246" lon="116.646163">
        <time>2020-10-21T13:03:54Z</time>
      </trkpt>
      <trkpt lat="39.893138" lon="116.646113">
        <time>2020-10-21T13:03:59Z</time>
      </trkpt>
      <trkpt lat="39.893004" lon="116.646044">
        <time>2020-10-21T13:04:04Z</time>
      </trkpt>
      <trkpt lat="39.892862" lon="116.645969">
        <time>2020-10-21T13:04:09Z</time>
      </trkpt>
      <trkpt lat="39.892735" lon="116.645904">
        <time>2020-10-21T13:04:14Z</time>
      </trkpt>
      <trkpt lat="39.892611" lon="116.645853">
        <time>2020-10-21T13:04:19Z</time>
      </trkpt>
      <trkpt lat="39.892461" lon="116.645803">
        <time>2020-10-21T13:04:24Z</time>
      </trkpt>
      <trkpt lat="39.892303" lon="116.645747">
        <time>2020-10-21T13:04:29Z</time>
      </trkpt>
      <trkpt lat="39.892175" lon="116.64571">
        <time>2020-10-21T13:04:34Z</time>
      </trkpt>
      <trkpt lat="39.892066" lon="116.645674">
        <time>2020-10-21T13:04:39Z</time>
      </trkpt>
      <trkpt lat="39.89196" lon="116.645605">
        <time>2020-10-21T13:04:44Z</time>
      </trkpt>
      <trkpt lat="39.891859" lon="116.645555">
        <time>2020-10-21T13:04:49Z</time>
      </trkpt>
      <trkpt lat="39.891756" lon="116.645519">
        <time>2020-10-21T13:04:54Z</time>
      </trkpt>
      <trkpt lat="39.89165" lon="116.645475">
        <time>2020-10-21T13:04:59Z</time>
      </trkpt>
      <trkpt lat="39.89157" lon="116.645431">
        <time>2020-10-21T13:05:04Z</time>
      </trkpt>
      <trkpt lat="39.891546" lon="116.645464">
        <time>2020-10-21T13:05:09Z</time>
      </trkpt>
      <trkpt lat="39.891572" lon="116.645456">
        <time>2020-10-21T13:05:14Z</time>
      </trkpt>
      <trkpt lat="39.891628" lon="116.645472">
        <time>2020-10-21T13:05:19Z</time>
      </trkpt>
      <trkpt lat="39.891715" lon="116.645505">
        <time>2020-10-21T13:05:24Z</time>
      </trkpt>
      <trkpt lat="39.891859" lon="116.645555">
        <time>2020-10-21T13:05:29Z</time>
      </trkpt>
      <trkpt lat="39.892024" lon="116.645573">
        <time>2020-10-21T13:05:34Z</time>
      </trkpt>
      <trkpt lat="39.892155" lon="116.645607">
        <time>2020-10-21T13:05:39Z</time>
      </trkpt>
      <trkpt lat="39.892242" lon="116.645659">
        <time>2020-10-21T13:05:44Z</time>
      </trkpt>
      <trkpt lat="39.89231" lon="116.645698">
        <time>2020-10-21T13:05:49Z</time>
      </trkpt>
      <trkpt lat="39.892368" lon="116.645735">
        <time>2020-10-21T13:05:54Z</time>
      </trkpt>
      <trkpt lat="39.892471" lon="116.645798">
        <time>2020-10-21T13:05:59Z</time>
      </trkpt>
      <trkpt lat="39.892557" lon="116.645819">
        <time>2020-10-21T13:06:04Z</time>
      </trkpt>
      <trkpt lat="39.892652" lon="116.645887">
        <time>2020-10-21T13:06:09Z</time>
      </trkpt>
      <trkpt lat="39.89276" lon="116.645896">
        <time>2020-10-21T13:06:14Z</time>
      </trkpt>
      <trkpt lat="39.892876" lon="116.64592">
        <time>2020-10-21T13:06:19Z</time>
      </trkpt>
      <trkpt lat="39.893007" lon="116.645992">
        <time>2020-10-21T13:06:24Z</time>
      </trkpt>
      <trkpt lat="39.893126" lon="116.646082">
        <time>2020-10-21T13:06:29Z</time>
      </trkpt>
      <trkpt lat="39.893246" lon="116.646127">
        <time>2020-10-21T13:06:34Z</time>
      </trkpt>
      <trkpt lat="39.893339" lon="116.646176">
        <time>2020-10-21T13:06:39Z</time>
      </trkpt>
      <trkpt lat="39.893438" lon="116.646277">
        <time>2020-10-21T13:06:44Z</time>
      </trkpt>
      <trkpt lat="39.893503" lon="116.646309">
        <time>2020-10-21T13:06:49Z</time>
      </trkpt>
      <trkpt lat="39.893623" lon="116.646301">
        <time>2020-10-21T13:06:54Z</time>
      </trkpt>
      <trkpt lat="39.893723" lon="116.646214">
        <time>2020-10-21T13:06:59Z</time>
      </trkpt>
      <trkpt lat="39.893811" lon="116.646104">
        <time>2020-10-21T13:07:04Z</time>
      </trkpt>
      <trkpt lat="39.893903" lon="116.646002">
        <time>2020-10-21T13:07:09Z</time>
      </trkpt>
      <trkpt lat="39.894013" lon="116.645953">
        <time>2020-10-21T13:07:14Z</time>
      </trkpt>
      <trkpt lat="39.894116" lon="116.645969">
        <time>2020-10-21T13:07:19Z</time>
      </trkpt>
      <trkpt lat="39.894199" lon="116.646017">
        <time>2020-10-21T13:07:24Z</time>
      </trkpt>
      <trkpt lat="39.894291" lon="116.64606">
        <time>2020-10-21T13:07:29Z</time>
      </trkpt>
      <trkpt lat="39.894404" lon="116.646095">
        <time>2020-10-21T13:07:34Z</time>
      </trkpt>
      <trkpt lat="39.894485" lon="116.646106">
        <time>2020-10-21T13:07:39Z</time>
      </trkpt>
      <trkpt lat="39.894567" lon="116.646152">
        <time>2020-10-21T13:07:44Z</time>
      </trkpt>
      <trkpt lat="39.894636" lon="116.646176">
        <time>2020-10-21T13:07:49Z</time>
      </trkpt>
      <trkpt lat="39.894724" lon="116.646211">
        <time>2020-10-21T13:07:54Z</time>
      </trkpt>
      <trkpt lat="39.894821" lon="116.646273">
        <time>2020-10-21T13:07:59Z</time>
      </trkpt>
      <trkpt lat="39.894914" lon="116.646296">
        <time>2020-10-21T13:08:04Z</time>
      </trkpt>
      <trkpt lat="39.895019" lon="116.646379">
        <time>2020-10-21T13:08:09Z</time>
      </trkpt>
      <trkpt lat="39.89514" lon="116.64646">
        <time>2020-10-21T13:08:14Z</time>
      </trkpt>
      <trkpt lat="39.895276" lon="116.646518">
        <time>2020-10-21T13:08:19Z</time>
      </trkpt>
      <trkpt lat="39.895397" lon="116.64654">
        <time>2020-10-21T13:08:24Z</time>
      </trkpt>
      <trkpt lat="39.895523" lon="116.646583">
        <time>2020-10-21T13:08:29Z</time>
      </trkpt>
      <trkpt lat="39.895645" lon="116.646649">
        <time>2020-10-21T13:08:34Z</time>
      </trkpt>
      <trkpt lat="39.895769" lon="116.646725">
        <time>2020-10-21T13:08:39Z</time>
      </trkpt>
      <trkpt lat="39.895884" lon="116.646769">
        <time>2020-10-21T13:08:44Z</time>
      </trkpt>
      <trkpt lat="39.895985" lon="116.646764">
        <time>2020-10-21T13:08:49Z</time>
      </trkpt>
      <trkpt lat="39.896024" lon="116.646693">
        <time>2020-10-21T13:08:54Z</time>
      </trkpt>
      <trkpt lat="39.896023" lon="116.6466">
        <time>2020-10-21T13:08:59Z</time>
      </trkpt>
      <trkpt lat="39.896023" lon="116.646488">
        <time>2020-10-21T13:09:04Z</time>
      </trkpt>
      <trkpt lat="39.896057" lon="116.646351">
        <time>2020-10-21T13:09:09Z</time>
      </trkpt>
      <trkpt lat="39.896066" lon="116.646245">
        <time>2020-10-21T13:09:14Z</time>
      </trkpt>
      <trkpt lat="39.89607" lon="116.646179">
        <time>2020-10-21T13:09:19Z</time>
      </trkpt>
      <trkpt lat="39.896065" lon="116.646168">
        <time>2020-10-21T13:09:24Z</time>
      </trkpt>
      <trkpt lat="39.896079" lon="116.646118">
        <time>2020-10-21T13:09:29Z</time>
      </trkpt>
      <trkpt lat="39.896095" lon="116.645994">
        <time>2020-10-21T13:09:34Z</time>
      </trkpt>
      <trkpt lat="39.89612" lon="116.645847">
        <time>2020-10-21T13:09:39Z</time>
      </trkpt>
      <trkpt lat="39.896164" lon="116.645727">
        <time>2020-10-21T13:09:44Z</time>
      </trkpt>
      <trkpt lat="39.896193" lon="116.645563">
        <time>2020-10-21T13:09:49Z</time>
      </trkpt>
      <trkpt lat="39.896247" lon="116.64539">
        <time>2020-10-21T13:09:54Z</time>
      </trkpt>
      <trkpt lat="39.896285" lon="116.645219">
        <time>2020-10-21T13:09:59Z</time>
      </trkpt>
      <trkpt lat="39.896253" lon="116.64502">
        <time>2020-10-21T13:10:04Z</time>
      </trkpt>
      <trkpt lat="39.89624" lon="116.64484">
        <time>2020-10-21T13:10:09Z</time>
      </trkpt>
      <trkpt lat="39.89625" lon="116.644689">
        <time>2020-10-21T13:10:14Z</time>
      </trkpt>
      <trkpt lat="39.89624" lon="116.644559">
        <time>2020-10-21T13:10:19Z</time>
      </trkpt>
      <trkpt lat="39.896235" lon="116.644402">
        <time>2020-10-21T13:10:24Z</time>
      </trkpt>
      <trkpt lat="39.896211" lon="116.644227">
        <time>2020-10-21T13:10:29Z</time>
      </trkpt>
      <trkpt lat="39.896211" lon="116.644072">
        <time>2020-10-21T13:10:34Z</time>
      </trkpt>
      <trkpt lat="39.896205" lon="116.643935">
        <time>2020-10-21T13:10:39Z</time>
      </trkpt>
      <trkpt lat="39.896192" lon="116.643816">
        <time>2020-10-21T13:10:44Z</time>
      </trkpt>
      <trkpt lat="39.896188" lon="116.643684">
        <time>2020-10-21T13:10:49Z</time>
      </trkpt>
      <trkpt lat="39.896168" lon="116.643524">
        <time>2020-10-21T13:10:54Z</time>
      </trkpt>
      <trkpt lat="39.896158" lon="116.643331">
        <time>2020-10-21T13:10:59Z</time>
      </trkpt>
      <trkpt lat="39.896162" lon="116.64318">
        <time>2020-10-21T13:11:04Z</time>
      </trkpt>
      <trkpt lat="39.896172" lon="116.643073">
        <time>2020-10-21T13:11:09Z</time>
      </trkpt>
      <trkpt lat="39.896195" lon="116.642975">
        <time>2020-10-21T13:11:14Z</time>
      </trkpt>
      <trkpt lat="39.896232" lon="116.642842">
        <time>2020-10-21T13:11:19Z</time>
      </trkpt>
      <trkpt lat="39.896242" lon="116.642672">
        <time>2020-10-21T13:11:24Z</time>
      </trkpt>
      <trkpt lat="39.896237" lon="116.642546">
        <time>2020-10-21T13:11:29Z</time>
      </trkpt>
      <trkpt lat="39.89626" lon="116.642405">
        <time>2020-10-21T13:11:34Z</time>
      </trkpt>
      <trkpt lat="39.896252" lon="116.642242">
        <time>2020-10-21T13:11:39Z</time>
      </trkpt>
      <trkpt lat="39.896255" lon="116.642093">
        <time>2020-10-21T13:11:44Z</time>
      </trkpt>
      <trkpt lat="39.896249" lon="116.641923">
        <time>2020-10-21T13:11:49Z</time>
      </trkpt>
      <trkpt lat="39.896239" lon="116.641732">
        <time>2020-10-21T13:11:54Z</time>
      </trkpt>
      <trkpt lat="39.896247" lon="116.641541">
        <time>2020-10-21T13:11:59Z</time>
      </trkpt>
      <trkpt lat="39.896239" lon="116.641387">
        <time>2020-10-21T13:12:04Z</time>
      </trkpt>
      <trkpt lat="39.896251" lon="116.64125">
        <time>2020-10-21T13:12:09Z</time>
      </trkpt>
      <trkpt lat="39.896243" lon="116.64111">
        <time>2020-10-21T13:12:14Z</time>
      </trkpt>
      <trkpt lat="39.896242" lon="116.640953">
        <time>2020-10-21T13:12:19Z</time>
      </trkpt>
      <trkpt lat="39.896243" lon="116.64077">
        <time>2020-10-21T13:12:24Z</time>
      </trkpt>
      <trkpt lat="39.896246" lon="116.640607">
        <time>2020-10-21T13:12:29Z</time>
      </trkpt>
      <trkpt lat="39.896238" lon="116.640493">
        <time>2020-10-21T13:12:34Z</time>
      </trkpt>
      <trkpt lat="39.896234" lon="116.640407">
        <time>2020-10-21T13:12:39Z</time>
      </trkpt>
      <trkpt lat="39.896239" lon="116.640336">
        <time>2020-10-21T13:12:44Z</time>
      </trkpt>
      <trkpt lat="39.896245" lon="116.640205">
        <time>2020-10-21T13:12:49Z</time>
      </trkpt>
      <trkpt lat="39.896243" lon="116.640061">
        <time>2020-10-21T13:12:54Z</time>
      </trkpt>
      <trkpt lat="39.896245" lon="116.639942">
        <time>2020-10-21T13:12:59Z</time>
      </trkpt>
      <trkpt lat="39.896247" lon="116.639797">
        <time>2020-10-21T13:13:04Z</time>
      </trkpt>
      <trkpt lat="39.89626" lon="116.639595">
        <time>2020-10-21T13:13:09Z</time>
      </trkpt>
      <trkpt lat="39.896282" lon="116.639432">
        <time>2020-10-21T13:13:14Z</time>
      </trkpt>
      <trkpt lat="39.89625" lon="116.639252">
        <time>2020-10-21T13:13:19Z</time>
      </trkpt>
      <trkpt lat="39.896221" lon="116.639113">
        <time>2020-10-21T13:13:24Z</time>
      </trkpt>
      <trkpt lat="39.896185" lon="116.638978">
        <time>2020-10-21T13:13:29Z</time>
      </trkpt>
      <trkpt lat="39.8962" lon="116.638836">
        <time>2020-10-21T13:13:34Z</time>
      </trkpt>
      <trkpt lat="39.896195" lon="116.638659">
        <time>2020-10-21T13:13:39Z</time>
      </trkpt>
      <trkpt lat="39.896145" lon="116.63847">
        <time>2020-10-21T13:13:44Z</time>
      </trkpt>
      <trkpt lat="39.896128" lon="116.638275">
        <time>2020-10-21T13:13:49Z</time>
      </trkpt>
      <trkpt lat="39.896101" lon="116.638126">
        <time>2020-10-21T13:13:54Z</time>
      </trkpt>
      <trkpt lat="39.896099" lon="116.637977">
        <time>2020-10-21T13:13:59Z</time>
      </trkpt>
      <trkpt lat="39.896084" lon="116.637832">
        <time>2020-10-21T13:14:04Z</time>
      </trkpt>
      <trkpt lat="39.896114" lon="116.637691">
        <time>2020-10-21T13:14:09Z</time>
      </trkpt>
      <trkpt lat="39.896113" lon="116.637557">
        <time>2020-10-21T13:14:14Z</time>
      </trkpt>
      <trkpt lat="39.896118" lon="116.637409">
        <time>2020-10-21T13:14:19Z</time>
      </trkpt>
      <trkpt lat="39.896125" lon="116.637248">
        <time>2020-10-21T13:14:24Z</time>
      </trkpt>
      <trkpt lat="39.896125" lon="116.637063">
        <time>2020-10-21T13:14:29Z</time>
      </trkpt>
      <trkpt lat="39.896118" lon="116.636912">
        <time>2020-10-21T13:14:34Z</time>
      </trkpt>
      <trkpt lat="39.896119" lon="116.636817">
        <time>2020-10-21T13:14:39Z</time>
      </trkpt>
      <trkpt lat="39.896082" lon="116.636801">
        <time>2020-10-21T13:14:44Z</time>
      </trkpt>
      <trkpt lat="39.896085" lon="116.636859">
        <time>2020-10-21T13:14:49Z</time>
      </trkpt>
      <trkpt lat="39.896098" lon="116.636957">
        <time>2020-10-21T13:14:54Z</time>
      </trkpt>
      <trkpt lat="39.896111" lon="116.637083">
        <time>2020-10-21T13:14:59Z</time>
      </trkpt>
      <trkpt lat="39.896121" lon="116.637227">
        <time>2020-10-21T13:15:04Z</time>
      </trkpt>
      <trkpt lat="39.89614" lon="116.637371">
        <time>2020-10-21T13:15:09Z</time>
      </trkpt>
      <trkpt lat="39.896152" lon="116.637582">
        <time>2020-10-21T13:15:14Z</time>
      </trkpt>
      <trkpt lat="39.896166" lon="116.63775">
        <time>2020-10-21T13:15:19Z</time>
      </trkpt>
      <trkpt lat="39.896167" lon="116.637932">
        <time>2020-10-21T13:15:24Z</time>
      </trkpt>
      <trkpt lat="39.896188" lon="116.638085">
        <time>2020-10-21T13:15:29Z</time>
      </trkpt>
      <trkpt lat="39.896196" lon="116.638241">
        <time>2020-10-21T13:15:34Z</time>
      </trkpt>
      <trkpt lat="39.896171" lon="116.638384">
        <time>2020-10-21T13:15:39Z</time>
      </trkpt>
      <trkpt lat="39.896143" lon="116.638547">
        <time>2020-10-21T13:15:44Z</time>
      </trkpt>
      <trkpt lat="39.896129" lon="116.638718">
        <time>2020-10-21T13:15:49Z</time>
      </trkpt>
      <trkpt lat="39.896118" lon="116.638855">
        <time>2020-10-21T13:15:54Z</time>
      </trkpt>
      <trkpt lat="39.896093" lon="116.63896">
        <time>2020-10-21T13:15:59Z</time>
      </trkpt>
      <trkpt lat="39.896082" lon="116.639045">
        <time>2020-10-21T13:16:04Z</time>
      </trkpt>
      <trkpt lat="39.896093" lon="116.639124">
        <time>2020-10-21T13:16:09Z</time>
      </trkpt>
      <trkpt lat="39.896109" lon="116.639229">
        <time>2020-10-21T13:16:14Z</time>
      </trkpt>
      <trkpt lat="39.896121" lon="116.639361">
        <time>2020-10-21T13:16:19Z</time>
      </trkpt>
      <trkpt lat="39.896134" lon="116.639507">
        <time>2020-10-21T13:16:24Z</time>
      </trkpt>
      <trkpt lat="39.89612" lon="116.639648">
        <time>2020-10-21T13:16:29Z</time>
      </trkpt>
      <trkpt lat="39.896071" lon="116.639767">
        <time>2020-10-21T13:16:34Z</time>
      </trkpt>
      <trkpt lat="39.896069" lon="116.639913">
        <time>2020-10-21T13:16:39Z</time>
      </trkpt>
      <trkpt lat="39.896066" lon="116.640073">
        <time>2020-10-21T13:16:44Z</time>
      </trkpt>
      <trkpt lat="39.896042" lon="116.640228">
        <time>2020-10-21T13:16:49Z</time>
      </trkpt>
      <trkpt lat="39.896074" lon="116.640386">
        <time>2020-10-21T13:16:54Z</time>
      </trkpt>
      <trkpt lat="39.896157" lon="116.64057">
        <time>2020-10-21T13:16:59Z</time>
      </trkpt>
      <trkpt lat="39.896194" lon="116.640743">
        <time>2020-10-21T13:17:04Z</time>
      </trkpt>
      <trkpt lat="39.896225" lon="116.640926">
        <time>2020-10-21T13:17:09Z</time>
      </trkpt>
      <trkpt lat="39.896231" lon="116.641089">
        <time>2020-10-21T13:17:14Z</time>
      </trkpt>
      <trkpt lat="39.896227" lon="116.641246">
        <time>2020-10-21T13:17:19Z</time>
      </trkpt>
      <trkpt lat="39.896237" lon="116.641417">
        <time>2020-10-21T13:17:24Z</time>
      </trkpt>
      <trkpt lat="39.896269" lon="116.641617">
        <time>2020-10-21T13:17:29Z</time>
      </trkpt>
      <trkpt lat="39.89627" lon="116.64177">
        <time>2020-10-21T13:17:34Z</time>
      </trkpt>
      <trkpt lat="39.896249" lon="116.64192">
        <time>2020-10-21T13:17:39Z</time>
      </trkpt>
      <trkpt lat="39.896217" lon="116.64208">
        <time>2020-10-21T13:17:44Z</time>
      </trkpt>
      <trkpt lat="39.896202" lon="116.64223">
        <time>2020-10-21T13:17:49Z</time>
      </trkpt>
      <trkpt lat="39.896213" lon="116.642367">
        <time>2020-10-21T13:17:54Z</time>
      </trkpt>
      <trkpt lat="39.896226" lon="116.642472">
        <time>2020-10-21T13:17:59Z</time>
      </trkpt>
      <trkpt lat="39.896216" lon="116.642552">
        <time>2020-10-21T13:18:04Z</time>
      </trkpt>
      <trkpt lat="39.896193" lon="116.642637">
        <time>2020-10-21T13:18:09Z</time>
      </trkpt>
      <trkpt lat="39.896162" lon="116.642758">
        <time>2020-10-21T13:18:14Z</time>
      </trkpt>
      <trkpt lat="39.896133" lon="116.642903">
        <time>2020-10-21T13:18:19Z</time>
      </trkpt>
      <trkpt lat="39.89615" lon="116.643056">
        <time>2020-10-21T13:18:24Z</time>
      </trkpt>
      <trkpt lat="39.896138" lon="116.643219">
        <time>2020-10-21T13:18:29Z</time>
      </trkpt>
      <trkpt lat="39.896134" lon="116.643373">
        <time>2020-10-21T13:18:34Z</time>
      </trkpt>
      <trkpt lat="39.896161" lon="116.643547">
        <time>2020-10-21T13:18:39Z</time>
      </trkpt>
      <trkpt lat="39.896172" lon="116.643697">
        <time>2020-10-21T13:18:44Z</time>
      </trkpt>
      <trkpt lat="39.896185" lon="116.64387">
        <time>2020-10-21T13:18:49Z</time>
      </trkpt>
      <trkpt lat="39.896207" lon="116.644031">
        <time>2020-10-21T13:18:54Z</time>
      </trkpt>
      <trkpt lat="39.896232" lon="116.644198">
        <time>2020-10-21T13:18:59Z</time>
      </trkpt>
      <trkpt lat="39.896245" lon="116.644354">
        <time>2020-10-21T13:19:04Z</time>
      </trkpt>
      <trkpt lat="39.896221" lon="116.644505">
        <time>2020-10-21T13:19:09Z</time>
      </trkpt>
      <trkpt lat="39.896219" lon="116.644652">
        <time>2020-10-21T13:19:14Z</time>
      </trkpt>
      <trkpt lat="39.896221" lon="116.644796">
        <time>2020-10-21T13:19:19Z</time>
      </trkpt>
      <trkpt lat="39.896215" lon="116.644939">
        <time>2020-10-21T13:19:24Z</time>
      </trkpt>
      <trkpt lat="39.896195" lon="116.645102">
        <time>2020-10-21T13:19:29Z</time>
      </trkpt>
      <trkpt lat="39.896176" lon="116.645256">
        <time>2020-10-21T13:19:34Z</time>
      </trkpt>
      <trkpt lat="39.896172" lon="116.6454">
        <time>2020-10-21T13:19:39Z</time>
      </trkpt>
      <trkpt lat="39.896114" lon="116.645542">
        <time>2020-10-21T13:19:44Z</time>
      </trkpt>
      <trkpt lat="39.896083" lon="116.645674">
        <time>2020-10-21T13:19:49Z</time>
      </trkpt>
      <trkpt lat="39.896058" lon="116.645761">
        <time>2020-10-21T13:19:54Z</time>
      </trkpt>
      <trkpt lat="39.896051" lon="116.645851">
        <time>2020-10-21T13:19:59Z</time>
      </trkpt>
      <trkpt lat="39.896067" lon="116.645973">
        <time>2020-10-21T13:20:04Z</time>
      </trkpt>
      <trkpt lat="39.896066" lon="116.646092">
        <time>2020-10-21T13:20:09Z</time>
      </trkpt>
      <trkpt lat="39.896006" lon="116.646249">
        <time>2020-10-21T13:20:14Z</time>
      </trkpt>
      <trkpt lat="39.895989" lon="116.646429">
        <time>2020-10-21T13:20:19Z</time>
      </trkpt>
      <trkpt lat="39.895977" lon="116.646607">
        <time>2020-10-21T13:20:24Z</time>
      </trkpt>
      <trkpt lat="39.895947" lon="116.646743">
        <time>2020-10-21T13:20:29Z</time>
      </trkpt>
      <trkpt lat="39.895865" lon="116.646772">
        <time>2020-10-21T13:20:34Z</time>
      </trkpt>
      <trkpt lat="39.89574" lon="116.646742">
        <time>2020-10-21T13:20:39Z</time>
      </trkpt>
      <trkpt lat="39.895618" lon="116.64668">
        <time>2020-10-21T13:20:44Z</time>
      </trkpt>
      <trkpt lat="39.895502" lon="116.646642">
        <time>2020-10-21T13:20:49Z</time>
      </trkpt>
      <trkpt lat="39.895401" lon="116.6466">
        <time>2020-10-21T13:20:54Z</time>
      </trkpt>
      <trkpt lat="39.895309" lon="116.646563">
        <time>2020-10-21T13:20:59Z</time>
      </trkpt>
      <trkpt lat="39.895195" lon="116.646509">
        <time>2020-10-21T13:21:04Z</time>
      </trkpt>
      <trkpt lat="39.895048" lon="116.646436">
        <time>2020-10-21T13:21:09Z</time>
      </trkpt>
      <trkpt lat="39.894916" lon="116.646367">
        <time>2020-10-21T13:21:14Z</time>
      </trkpt>
      <trkpt lat="39.89477" lon="116.6463">
        <time>2020-10-21T13:21:19Z</time>
      </trkpt>
      <trkpt lat="39.894618" lon="116.646273">
        <time>2020-10-21T13:21:24Z</time>
      </trkpt>
      <trkpt lat="39.894473" lon="116.646253">
        <time>2020-10-21T13:21:29Z</time>
      </trkpt>
      <trkpt lat="39.894355" lon="116.646159">
        <time>2020-10-21T13:21:34Z</time>
      </trkpt>
      <trkpt lat="39.894242" lon="116.646112">
        <time>2020-10-21T13:21:39Z</time>
      </trkpt>
      <trkpt lat="39.894142" lon="116.646073">
        <time>2020-10-21T13:21:44Z</time>
      </trkpt>
      <trkpt lat="39.894044" lon="116.646027">
        <time>2020-10-21T13:21:49Z</time>
      </trkpt>
      <trkpt lat="39.89394" lon="116.645991">
        <time>2020-10-21T13:21:54Z</time>
      </trkpt>
      <trkpt lat="39.893835" lon="116.64602">
        <time>2020-10-21T13:21:59Z</time>
      </trkpt>
      <trkpt lat="39.89378" lon="116.646113">
        <time>2020-10-21T13:22:04Z</time>
      </trkpt>
      <trkpt lat="39.893706" lon="116.646233">
        <time>2020-10-21T13:22:09Z</time>
      </trkpt>
      <trkpt lat="39.893629" lon="116.646321">
        <time>2020-10-21T13:22:14Z</time>
      </trkpt>
      <trkpt lat="39.893509" lon="116.646328">
        <time>2020-10-21T13:22:19Z</time>
      </trkpt>
      <trkpt lat="39.893381" lon="116.646266">
        <time>2020-10-21T13:22:24Z</time>
      </trkpt>
      <trkpt lat="39.893246" lon="116.64618">
        <time>2020-10-21T13:22:29Z</time>
      </trkpt>
      <trkpt lat="39.893128" lon="116.64612">
        <time>2020-10-21T13:22:34Z</time>
      </trkpt>
      <trkpt lat="39.892989" lon="116.646077">
        <time>2020-10-21T13:22:39Z</time>
      </trkpt>
      <trkpt lat="39.892848" lon="116.646028">
        <time>2020-10-21T13:22:44Z</time>
      </trkpt>
      <trkpt lat="39.892717" lon="116.645971">
        <time>2020-10-21T13:22:49Z</time>
      </trkpt>
      <trkpt lat="39.892635" lon="116.645927">
        <time>2020-10-21T13:22:54Z</time>
      </trkpt>
      <trkpt lat="39.892562" lon="116.645892">
        <time>2020-10-21T13:22:59Z</time>
      </trkpt>
      <trkpt lat="39.892477" lon="116.645872">
        <time>2020-10-21T13:23:04Z</time>
      </trkpt>
      <trkpt lat="39.89235" lon="116.645847">
        <time>2020-10-21T13:23:09Z</time>
      </trkpt>
      <trkpt lat="39.892222" lon="116.645784">
        <time>2020-10-21T13:23:14Z</time>
      </trkpt>
      <trkpt lat="39.892066" lon="116.645722">
        <time>2020-10-21T13:23:19Z</time>
      </trkpt>
      <trkpt lat="39.891928" lon="116.645651">
        <time>2020-10-21T13:23:24Z</time>
      </trkpt>
      <trkpt lat="39.891803" lon="116.645579">
        <time>2020-10-21T13:23:29Z</time>
      </trkpt>
      <trkpt lat="39.891683" lon="116.645527">
        <time>2020-10-21T13:23:34Z</time>
      </trkpt>
      <trkpt lat="39.891599" lon="116.64544">
        <time>2020-10-21T13:23:39Z</time>
      </trkpt>
      <trkpt lat="39.891551" lon="116.645412">
        <time>2020-10-21T13:23:44Z</time>
      </trkpt>
      <trkpt lat="39.891574" lon="116.645393">
        <time>2020-10-21T13:23:49Z</time>
      </trkpt>
      <trkpt lat="39.891627" lon="116.645368">
        <time>2020-10-21T13:23:54Z</time>
      </trkpt>
      <trkpt lat="39.891707" lon="116.64539">
        <time>2020-10-21T13:23:59Z</time>
      </trkpt>
      <trkpt lat="39.891801" lon="116.64543">
        <time>2020-10-21T13:24:04Z</time>
      </trkpt>
      <trkpt lat="39.891886" lon="116.645458">
        <time>2020-10-21T13:24:09Z</time>
      </trkpt>
      <trkpt lat="39.891996" lon="116.645494">
        <time>2020-10-21T13:24:14Z</time>
      </trkpt>
      <trkpt lat="39.892118" lon="116.645552">
        <time>2020-10-21T13:24:19Z</time>
      </trkpt>
      <trkpt lat="39.892269" lon="116.645682">
        <time>2020-10-21T13:24:24Z</time>
      </trkpt>
      <trkpt lat="39.892392" lon="116.645732">
        <time>2020-10-21T13:24:29Z</time>
      </trkpt>
      <trkpt lat="39.892491" lon="116.645744">
        <time>2020-10-21T13:24:34Z</time>
      </trkpt>
      <trkpt lat="39.892608" lon="116.64577">
        <time>2020-10-21T13:24:39Z</time>
      </trkpt>
      <trkpt lat="39.892761" lon="116.64582">
        <time>2020-10-21T13:24:44Z</time>
      </trkpt>
      <trkpt lat="39.8929" lon="116.645878">
        <time>2020-10-21T13:24:49Z</time>
      </trkpt>
      <trkpt lat="39.893004" lon="116.645965">
        <time>2020-10-21T13:24:54Z</time>
      </trkpt>
      <trkpt lat="39.893119" lon="116.646028">
        <time>2020-10-21T13:24:59Z</time>
      </trkpt>
      <trkpt lat="39.893222" lon="116.646078">
        <time>2020-10-21T13:25:04Z</time>
      </trkpt>
      <trkpt lat="39.893279" lon="116.646163">
        <time>2020-10-21T13:25:09Z</time>
      </trkpt>
      <trkpt lat="39.893383" lon="116.646254">
        <time>2020-10-21T13:25:14Z</time>
      </trkpt>
      <trkpt lat="39.893521" lon="116.646264">
        <time>2020-10-21T13:25:19Z</time>
      </trkpt>
      <trkpt lat="39.893666" lon="116.646203">
        <time>2020-10-21T13:25:24Z</time>
      </trkpt>
      <trkpt lat="39.893796" lon="116.6461">
        <time>2020-10-21T13:25:29Z</time>
      </trkpt>
      <trkpt lat="39.893924" lon="116.645963">
        <time>2020-10-21T13:25:34Z</time>
      </trkpt>
      <trkpt lat="39.894032" lon="116.645975">
        <time>2020-10-21T13:25:39Z</time>
      </trkpt>
      <trkpt lat="39.894147" lon="116.64602">
        <time>2020-10-21T13:25:44Z</time>
      </trkpt>
      <trkpt lat="39.89426" lon="116.646068">
        <time>2020-10-21T13:25:49Z</time>
      </trkpt>
      <trkpt lat="39.894379" lon="116.646122">
        <time>2020-10-21T13:25:54Z</time>
      </trkpt>
      <trkpt lat="39.894497" lon="116.646158">
        <time>2020-10-21T13:25:59Z</time>
      </trkpt>
      <trkpt lat="39.894601" lon="116.646197">
        <time>2020-10-21T13:26:04Z</time>
      </trkpt>
      <trkpt lat="39.894705" lon="116.646243">
        <time>2020-10-21T13:26:09Z</time>
      </trkpt>
      <trkpt lat="39.894816" lon="116.646254">
        <time>2020-10-21T13:26:14Z</time>
      </trkpt>
      <trkpt lat="39.894934" lon="116.646308">
        <time>2020-10-21T13:26:19Z</time>
      </trkpt>
      <trkpt lat="39.895081" lon="116.646395">
        <time>2020-10-21T13:26:24Z</time>
      </trkpt>
      <trkpt lat="39.895128" lon="116.646429">
        <time>2020-10-21T13:26:29Z</time>
      </trkpt>
      <trkpt lat="39.895187" lon="116.646471">
        <time>2020-10-21T13:26:34Z</time>
      </trkpt>
      <trkpt lat="39.895239" lon="116.646488">
        <time>2020-10-21T13:26:39Z</time>
      </trkpt>
      <trkpt lat="39.895341" lon="116.646524">
        <time>2020-10-21T13:26:44Z</time>
      </trkpt>
      <trkpt lat="39.895466" lon="116.646592">
        <time>2020-10-21T13:26:49Z</time>
      </trkpt>
      <trkpt lat="39.895596" lon="116.646652">
        <time>2020-10-21T13:26:54Z</time>
      </trkpt>
      <trkpt lat="39.8957" lon="116.646685">
        <time>2020-10-21T13:26:59Z</time>
      </trkpt>
      <trkpt lat="39.895817" lon="116.646748">
        <time>2020-10-21T13:27:04Z</time>
      </trkpt>
      <trkpt lat="39.895932" lon="116.64676">
        <time>2020-10-21T13:27:09Z</time>
      </trkpt>
      <trkpt lat="39.895995" lon="116.646715">
        <time>2020-10-21T13:27:14Z</time>
      </trkpt>
      <trkpt lat="39.896036" lon="116.646601">
        <time>2020-10-21T13:27:19Z</time>
      </trkpt>
      <trkpt lat="39.896056" lon="116.64644">
        <time>2020-10-21T13:27:24Z</time>
      </trkpt>
      <trkpt lat="39.896084" lon="116.646258">
        <time>2020-10-21T13:27:29Z</time>
      </trkpt>
      <trkpt lat="39.896113" lon="116.646093">
        <time>2020-10-21T13:27:34Z</time>
      </trkpt>
      <trkpt lat="39.896144" lon="116.645946">
        <time>2020-10-21T13:27:39Z</time>
      </trkpt>
      <trkpt lat="39.896157" lon="116.645774">
        <time>2020-10-21T13:27:44Z</time>
      </trkpt>
      <trkpt lat="39.896127" lon="116.645546">
        <time>2020-10-21T13:27:49Z</time>
      </trkpt>
      <trkpt lat="39.896113" lon="116.645392">
        <time>2020-10-21T13:27:54Z</time>
      </trkpt>
      <trkpt lat="39.896075" lon="116.645197">
        <time>2020-10-21T13:27:59Z</time>
      </trkpt>
      <trkpt lat="39.896084" lon="116.645024">
        <time>2020-10-21T13:28:04Z</time>
      </trkpt>
      <trkpt lat="39.896102" lon="116.644855">
        <time>2020-10-21T13:28:09Z</time>
      </trkpt>
      <trkpt lat="39.8961" lon="116.644703">
        <time>2020-10-21T13:28:14Z</time>
      </trkpt>
      <trkpt lat="39.896111" lon="116.644561">
        <time>2020-10-21T13:28:19Z</time>
      </trkpt>
      <trkpt lat="39.896128" lon="116.644419">
        <time>2020-10-21T13:28:24Z</time>
      </trkpt>
      <trkpt lat="39.896134" lon="116.644317">
        <time>2020-10-21T13:28:29Z</time>
      </trkpt>
      <trkpt lat="39.896153" lon="116.644228">
        <time>2020-10-21T13:28:34Z</time>
      </trkpt>
      <trkpt lat="39.896158" lon="116.644127">
        <time>2020-10-21T13:28:39Z</time>
      </trkpt>
      <trkpt lat="39.896143" lon="116.643993">
        <time>2020-10-21T13:28:44Z</time>
      </trkpt>
      <trkpt lat="39.896156" lon="116.643867">
        <time>2020-10-21T13:28:49Z</time>
      </trkpt>
      <trkpt lat="39.896171" lon="116.643719">
        <time>2020-10-21T13:28:54Z</time>
      </trkpt>
      <trkpt lat="39.896178" lon="116.643576">
        <time>2020-10-21T13:28:59Z</time>
      </trkpt>
      <trkpt lat="39.89618" lon="116.643479">
        <time>2020-10-21T13:29:04Z</time>
      </trkpt>
      <trkpt lat="39.896166" lon="116.643377">
        <time>2020-10-21T13:29:09Z</time>
      </trkpt>
      <trkpt lat="39.896157" lon="116.643273">
        <time>2020-10-21T13:29:14Z</time>
      </trkpt>
      <trkpt lat="39.896168" lon="116.643189">
        <time>2020-10-21T13:29:19Z</time>
      </trkpt>
      <trkpt lat="39.896171" lon="116.643112">
        <time>2020-10-21T13:29:24Z</time>
      </trkpt>
      <trkpt lat="39.896155" lon="116.643001">
        <time>2020-10-21T13:29:29Z</time>
      </trkpt>
      <trkpt lat="39.896127" lon="116.642836">
        <time>2020-10-21T13:29:34Z</time>
      </trkpt>
      <trkpt lat="39.896132" lon="116.642633">
        <time>2020-10-21T13:29:39Z</time>
      </trkpt>
      <trkpt lat="39.896142" lon="116.642459">
        <time>2020-10-21T13:29:44Z</time>
      </trkpt>
      <trkpt lat="39.89616" lon="116.642299">
        <time>2020-10-21T13:29:49Z</time>
      </trkpt>
      <trkpt lat="39.896183" lon="116.642144">
        <time>2020-10-21T13:29:54Z</time>
      </trkpt>
      <trkpt lat="39.896188" lon="116.642023">
        <time>2020-10-21T13:29:59Z</time>
      </trkpt>
      <trkpt lat="39.896202" lon="116.641841">
        <time>2020-10-21T13:30:04Z</time>
      </trkpt>
      <trkpt lat="39.896217" lon="116.64167">
        <time>2020-10-21T13:30:09Z</time>
      </trkpt>
      <trkpt lat="39.896223" lon="116.641523">
        <time>2020-10-21T13:30:14Z</time>
      </trkpt>
      <trkpt lat="39.896242" lon="116.641392">
        <time>2020-10-21T13:30:19Z</time>
      </trkpt>
      <trkpt lat="39.896263" lon="116.641245">
        <time>2020-10-21T13:30:24Z</time>
      </trkpt>
      <trkpt lat="39.896263" lon="116.641075">
        <time>2020-10-21T13:30:29Z</time>
      </trkpt>
      <trkpt lat="39.896261" lon="116.640891">
        <time>2020-10-21T13:30:34Z</time>
      </trkpt>
      <trkpt lat="39.89626" lon="116.640721">
        <time>2020-10-21T13:30:39Z</time>
      </trkpt>
      <trkpt lat="39.896235" lon="116.64056">
        <time>2020-10-21T13:30:44Z</time>
      </trkpt>
      <trkpt lat="39.896251" lon="116.640394">
        <time>2020-10-21T13:30:49Z</time>
      </trkpt>
      <trkpt lat="39.896233" lon="116.640202">
        <time>2020-10-21T13:30:54Z</time>
      </trkpt>
      <trkpt lat="39.896213" lon="116.639993">
        <time>2020-10-21T13:30:59Z</time>
      </trkpt>
      <trkpt lat="39.896211" lon="116.63979">
        <time>2020-10-21T13:31:04Z</time>
      </trkpt>
      <trkpt lat="39.896216" lon="116.639652">
        <time>2020-10-21T13:31:09Z</time>
      </trkpt>
      <trkpt lat="39.896215" lon="116.63953">
        <time>2020-10-21T13:31:14Z</time>
      </trkpt>
      <trkpt lat="39.896201" lon="116.639398">
        <time>2020-10-21T13:31:19Z</time>
      </trkpt>
      <trkpt lat="39.896212" lon="116.63929">
        <time>2020-10-21T13:31:24Z</time>
      </trkpt>
      <trkpt lat="39.896207" lon="116.639191">
        <time>2020-10-21T13:31:29Z</time>
      </trkpt>
      <trkpt lat="39.896196" lon="116.639075">
        <time>2020-10-21T13:31:34Z</time>
      </trkpt>
      <trkpt lat="39.896219" lon="116.638993">
        <time>2020-10-21T13:31:39Z</time>
      </trkpt>
      <trkpt lat="39.896195" lon="116.638856">
        <time>2020-10-21T13:31:44Z</time>
      </trkpt>
      <trkpt lat="39.896171" lon="116.638687">
        <time>2020-10-21T13:31:49Z</time>
      </trkpt>
      <trkpt lat="39.896123" lon="116.638521">
        <time>2020-10-21T13:31:54Z</time>
      </trkpt>
      <trkpt lat="39.896101" lon="116.638407">
        <time>2020-10-21T13:31:59Z</time>
      </trkpt>
      <trkpt lat="39.896163" lon="116.638303">
        <time>2020-10-21T13:32:04Z</time>
      </trkpt>
      <trkpt lat="39.896164" lon="116.638184">
        <time>2020-10-21T13:32:09Z</time>
      </trkpt>
      <trkpt lat="39.896173" lon="116.638022">
        <time>2020-10-21T13:32:14Z</time>
      </trkpt>
      <trkpt lat="39.896201" lon="116.637886">
        <time>2020-10-21T13:32:19Z</time>
      </trkpt>
      <trkpt lat="39.896249" lon="116.637765">
        <time>2020-10-21T13:32:24Z</time>
      </trkpt>
      <trkpt lat="39.896334" lon="116.637667">
        <time>2020-10-21T13:32:29Z</time>
      </trkpt>
      <trkpt lat="39.896425" lon="116.637576">
        <time>2020-10-21T13:32:34Z</time>
      </trkpt>
      <trkpt lat="39.896462" lon="116.637437">
        <time>2020-10-21T13:32:39Z</time>
      </trkpt>
      <trkpt lat="39.896482" lon="116.637296">
        <time>2020-10-21T13:32:44Z</time>
      </trkpt>
      <trkpt lat="39.896456" lon="116.637126">
        <time>2020-10-21T13:32:49Z</time>
      </trkpt>
      <trkpt lat="39.896334" lon="116.636941">
        <time>2020-10-21T13:32:54Z</time>
      </trkpt>
      <trkpt lat="39.896205" lon="116.636809">
        <time>2020-10-21T13:32:59Z</time>
      </trkpt>
      <trkpt lat="39.89608" lon="116.636671">
        <time>2020-10-21T13:33:04Z</time>
      </trkpt>
      <trkpt lat="39.896059" lon="116.636498">
        <time>2020-10-21T13:33:09Z</time>
      </trkpt>
      <trkpt lat="39.896114" lon="116.636371">
        <time>2020-10-21T13:33:14Z</time>
      </trkpt>
      <trkpt lat="39.896219" lon="116.636269">
        <time>2020-10-21T13:33:19Z</time>
      </trkpt>
      <trkpt lat="39.896333" lon="116.636179">
        <time>2020-10-21T13:33:24Z</time>
      </trkpt>
      <trkpt lat="39.89643" lon="116.636054">
        <time>2020-10-21T13:33:29Z</time>
      </trkpt>
      <trkpt lat="39.896511" lon="116.635968">
        <time>2020-10-21T13:33:34Z</time>
      </trkpt>
      <trkpt lat="39.896617" lon="116.635903">
        <time>2020-10-21T13:33:39Z</time>
      </trkpt>
      <trkpt lat="39.896729" lon="116.635827">
        <time>2020-10-21T13:33:44Z</time>
      </trkpt>
      <trkpt lat="39.896828" lon="116.635729">
        <time>2020-10-21T13:33:49Z</time>
      </trkpt>
      <trkpt lat="39.896928" lon="116.635644">
        <time>2020-10-21T13:33:54Z</time>
      </trkpt>
      <trkpt lat="39.897048" lon="116.63557">
        <time>2020-10-21T13:33:59Z</time>
      </trkpt>
      <trkpt lat="39.897169" lon="116.635501">
        <time>2020-10-21T13:34:04Z</time>
      </trkpt>
      <trkpt lat="39.897306" lon="116.635495">
        <time>2020-10-21T13:34:09Z</time>
      </trkpt>
      <trkpt lat="39.897423" lon="116.63546">
        <time>2020-10-21T13:34:14Z</time>
      </trkpt>
      <trkpt lat="39.897527" lon="116.63541">
        <time>2020-10-21T13:34:19Z</time>
      </trkpt>
      <trkpt lat="39.897586" lon="116.635346">
        <time>2020-10-21T13:34:24Z</time>
      </trkpt>
      <trkpt lat="39.897608" lon="116.635244">
        <time>2020-10-21T13:34:29Z</time>
      </trkpt>
      <trkpt lat="39.897666" lon="116.635172">
        <time>2020-10-21T13:34:34Z</time>
      </trkpt>
      <trkpt lat="39.897724" lon="116.63511">
        <time>2020-10-21T13:34:39Z</time>
      </trkpt>
      <trkpt lat="39.897787" lon="116.635085">
        <time>2020-10-21T13:34:44Z</time>
      </trkpt>
      <trkpt lat="39.897847" lon="116.635049">
        <time>2020-10-21T13:34:49Z</time>
      </trkpt>
      <trkpt lat="39.89791" lon="116.635008">
        <time>2020-10-21T13:34:54Z</time>
      </trkpt>
      <trkpt lat="39.897964" lon="116.634956">
        <time>2020-10-21T13:34:59Z</time>
      </trkpt>
      <trkpt lat="39.898027" lon="116.634909">
        <time>2020-10-21T13:35:04Z</time>
      </trkpt>
      <trkpt lat="39.898044" lon="116.634885">
        <time>2020-10-21T13:35:09Z</time>
      </trkpt>
      <trkpt lat="39.89803" lon="116.634877">
        <time>2020-10-21T13:35:14Z</time>
      </trkpt>
      <trkpt lat="39.89803" lon="116.63488">
        <time>2020-10-21T13:35:19Z</time>
      </trkpt>
      <trkpt lat="39.89803" lon="116.63488">
        <time>2020-10-21T13:35:24Z</time>
      </trkpt>
      <trkpt lat="39.898033" lon="116.634861">
        <time>2020-10-21T13:35:29Z</time>
      </trkpt>
      <trkpt lat="39.898024" lon="116.634745">
        <time>2020-10-21T13:35:34Z</time>
      </trkpt>
      <trkpt lat="39.898043" lon="116.634644">
        <time>2020-10-21T13:35:39Z</time>
      </trkpt>
      <trkpt lat="39.898078" lon="116.634556">
        <time>2020-10-21T13:35:44Z</time>
      </trkpt>
      <trkpt lat="39.898052" lon="116.634507">
        <time>2020-10-21T13:35:49Z</time>
      </trkpt>
      <trkpt lat="39.897992" lon="116.63438">
        <time>2020-10-21T13:35:54Z</time>
      </trkpt>
      <trkpt lat="39.897964" lon="116.634276">
        <time>2020-10-21T13:35:59Z</time>
      </trkpt>
      <trkpt lat="39.897872" lon="116.63415">
        <time>2020-10-21T13:36:04Z</time>
      </trkpt>
      <trkpt lat="39.897779" lon="116.634068">
        <time>2020-10-21T13:36:09Z</time>
      </trkpt>
      <trkpt lat="39.897718" lon="116.633982">
        <time>2020-10-21T13:36:14Z</time>
      </trkpt>
      <trkpt lat="39.897646" lon="116.633846">
        <time>2020-10-21T13:36:19Z</time>
      </trkpt>
      <trkpt lat="39.897553" lon="116.633723">
        <time>2020-10-21T13:36:24Z</time>
      </trkpt>
      <trkpt lat="39.897446" lon="116.633664">
        <time>2020-10-21T13:36:29Z</time>
      </trkpt>
      <trkpt lat="39.897393" lon="116.633709">
        <time>2020-10-21T13:36:34Z</time>
      </trkpt>
      <trkpt lat="39.897372" lon="116.633836">
        <time>2020-10-21T13:36:39Z</time>
      </trkpt>
      <trkpt lat="39.897379" lon="116.633982">
        <time>2020-10-21T13:36:44Z</time>
      </trkpt>
      <trkpt lat="39.897384" lon="116.634124">
        <time>2020-10-21T13:37:01Z</time>
      </trkpt>
    </trkseg>
  </trk>
</gpx>