<?xml version="1.0" encoding="UTF-8"?>
<gpx xmlns="http://www.topografix.com/GPX/1/1" xmlns:gpxtpx="http://www.garmin.com/xmlschemas/TrackPointExtension/v1" xmlns:xsi="http://www.w3.org/2001/XMLSchema-instance" xsi:schemaLocation="http://www.topografix.com/GPX/1/1 http://www.topografix.com/GPX/1/1/gpx.xsd" version="1.1" creator="gpx.py -- https://github.com/tkrajina/gpxpy">
  <trk>
    <name>gpx from keep</name>
    <trkseg>
      <trkpt lat="39.898132" lon="116.634506">
        <time>2020-11-26T12:01:28Z</time>
      </trkpt>
      <trkpt lat="39.898166" lon="116.634552">
        <time>2020-11-26T12:01:33Z</time>
      </trkpt>
      <trkpt lat="39.898189" lon="116.63459">
        <time>2020-11-26T12:01:38Z</time>
      </trkpt>
      <trkpt lat="39.898185" lon="116.634666">
        <time>2020-11-26T12:01:43Z</time>
      </trkpt>
      <trkpt lat="39.89809" lon="116.634742">
        <time>2020-11-26T12:01:48Z</time>
      </trkpt>
      <trkpt lat="39.897949" lon="116.634857">
        <time>2020-11-26T12:01:53Z</time>
      </trkpt>
      <trkpt lat="39.897819" lon="116.634994">
        <time>2020-11-26T12:01:58Z</time>
      </trkpt>
      <trkpt lat="39.89772" lon="116.635139">
        <time>2020-11-26T12:02:03Z</time>
      </trkpt>
      <trkpt lat="39.897621" lon="116.635231">
        <time>2020-11-26T12:02:08Z</time>
      </trkpt>
      <trkpt lat="39.897491" lon="116.635314">
        <time>2020-11-26T12:02:13Z</time>
      </trkpt>
      <trkpt lat="39.897361" lon="116.635391">
        <time>2020-11-26T12:02:18Z</time>
      </trkpt>
      <trkpt lat="39.897239" lon="116.63549">
        <time>2020-11-26T12:02:23Z</time>
      </trkpt>
      <trkpt lat="39.897125" lon="116.635581">
        <time>2020-11-26T12:02:28Z</time>
      </trkpt>
      <trkpt lat="39.897014" lon="116.635658">
        <time>2020-11-26T12:02:33Z</time>
      </trkpt>
      <trkpt lat="39.896896" lon="116.635734">
        <time>2020-11-26T12:02:38Z</time>
      </trkpt>
      <trkpt lat="39.896774" lon="116.63581">
        <time>2020-11-26T12:02:43Z</time>
      </trkpt>
      <trkpt lat="39.896667" lon="116.635879">
        <time>2020-11-26T12:02:48Z</time>
      </trkpt>
      <trkpt lat="39.89648" lon="116.635902">
        <time>2020-11-26T12:02:53Z</time>
      </trkpt>
      <trkpt lat="39.896316" lon="116.635917">
        <time>2020-11-26T12:02:58Z</time>
      </trkpt>
      <trkpt lat="39.89627" lon="116.635978">
        <time>2020-11-26T12:03:03Z</time>
      </trkpt>
      <trkpt lat="39.896228" lon="116.636054">
        <time>2020-11-26T12:03:08Z</time>
      </trkpt>
      <trkpt lat="39.89619" lon="116.636161">
        <time>2020-11-26T12:03:13Z</time>
      </trkpt>
      <trkpt lat="39.896171" lon="116.636245">
        <time>2020-11-26T12:03:18Z</time>
      </trkpt>
      <trkpt lat="39.89616" lon="116.636291">
        <time>2020-11-26T12:03:23Z</time>
      </trkpt>
      <trkpt lat="39.896137" lon="116.636329">
        <time>2020-11-26T12:03:28Z</time>
      </trkpt>
      <trkpt lat="39.89611" lon="116.63636">
        <time>2020-11-26T12:03:33Z</time>
      </trkpt>
      <trkpt lat="39.896076" lon="116.636428">
        <time>2020-11-26T12:03:38Z</time>
      </trkpt>
      <trkpt lat="39.896038" lon="116.636512">
        <time>2020-11-26T12:03:43Z</time>
      </trkpt>
      <trkpt lat="39.896007" lon="116.636619">
        <time>2020-11-26T12:03:48Z</time>
      </trkpt>
      <trkpt lat="39.89603" lon="116.636734">
        <time>2020-11-26T12:03:53Z</time>
      </trkpt>
      <trkpt lat="39.896087" lon="116.636863">
        <time>2020-11-26T12:03:58Z</time>
      </trkpt>
      <trkpt lat="39.896114" lon="116.637016">
        <time>2020-11-26T12:04:03Z</time>
      </trkpt>
      <trkpt lat="39.896121" lon="116.637153">
        <time>2020-11-26T12:04:08Z</time>
      </trkpt>
      <trkpt lat="39.896133" lon="116.637298">
        <time>2020-11-26T12:04:13Z</time>
      </trkpt>
      <trkpt lat="39.89616" lon="116.637451">
        <time>2020-11-26T12:04:18Z</time>
      </trkpt>
      <trkpt lat="39.89619" lon="116.637611">
        <time>2020-11-26T12:04:23Z</time>
      </trkpt>
      <trkpt lat="39.896217" lon="116.637771">
        <time>2020-11-26T12:04:28Z</time>
      </trkpt>
      <trkpt lat="39.896232" lon="116.637931">
        <time>2020-11-26T12:04:33Z</time>
      </trkpt>
      <trkpt lat="39.896251" lon="116.638153">
        <time>2020-11-26T12:04:38Z</time>
      </trkpt>
      <trkpt lat="39.896266" lon="116.63842">
        <time>2020-11-26T12:04:43Z</time>
      </trkpt>
      <trkpt lat="39.89627" lon="116.63861">
        <time>2020-11-26T12:04:48Z</time>
      </trkpt>
      <trkpt lat="39.896274" lon="116.638763">
        <time>2020-11-26T12:04:53Z</time>
      </trkpt>
      <trkpt lat="39.896282" lon="116.638923">
        <time>2020-11-26T12:04:58Z</time>
      </trkpt>
      <trkpt lat="39.89627" lon="116.639091">
        <time>2020-11-26T12:05:03Z</time>
      </trkpt>
      <trkpt lat="39.896244" lon="116.639251">
        <time>2020-11-26T12:05:08Z</time>
      </trkpt>
      <trkpt lat="39.896224" lon="116.639411">
        <time>2020-11-26T12:05:13Z</time>
      </trkpt>
      <trkpt lat="39.896221" lon="116.639587">
        <time>2020-11-26T12:05:18Z</time>
      </trkpt>
      <trkpt lat="39.896236" lon="116.639747">
        <time>2020-11-26T12:05:23Z</time>
      </trkpt>
      <trkpt lat="39.896263" lon="116.6399">
        <time>2020-11-26T12:05:28Z</time>
      </trkpt>
      <trkpt lat="39.896278" lon="116.64006">
        <time>2020-11-26T12:05:33Z</time>
      </trkpt>
      <trkpt lat="39.896259" lon="116.640213">
        <time>2020-11-26T12:05:38Z</time>
      </trkpt>
      <trkpt lat="39.896247" lon="116.640373">
        <time>2020-11-26T12:05:43Z</time>
      </trkpt>
      <trkpt lat="39.896278" lon="116.640556">
        <time>2020-11-26T12:05:48Z</time>
      </trkpt>
      <trkpt lat="39.896316" lon="116.640739">
        <time>2020-11-26T12:05:53Z</time>
      </trkpt>
      <trkpt lat="39.896327" lon="116.640899">
        <time>2020-11-26T12:05:58Z</time>
      </trkpt>
      <trkpt lat="39.896324" lon="116.641067">
        <time>2020-11-26T12:06:03Z</time>
      </trkpt>
      <trkpt lat="39.896324" lon="116.641281">
        <time>2020-11-26T12:06:08Z</time>
      </trkpt>
      <trkpt lat="39.896316" lon="116.641479">
        <time>2020-11-26T12:06:13Z</time>
      </trkpt>
      <trkpt lat="39.896297" lon="116.641639">
        <time>2020-11-26T12:06:18Z</time>
      </trkpt>
      <trkpt lat="39.896297" lon="116.641792">
        <time>2020-11-26T12:06:23Z</time>
      </trkpt>
      <trkpt lat="39.896316" lon="116.641952">
        <time>2020-11-26T12:06:28Z</time>
      </trkpt>
      <trkpt lat="39.896339" lon="116.642105">
        <time>2020-11-26T12:06:33Z</time>
      </trkpt>
      <trkpt lat="39.89635" lon="116.642242">
        <time>2020-11-26T12:06:38Z</time>
      </trkpt>
      <trkpt lat="39.896331" lon="116.642387">
        <time>2020-11-26T12:06:43Z</time>
      </trkpt>
      <trkpt lat="39.896297" lon="116.642539">
        <time>2020-11-26T12:06:48Z</time>
      </trkpt>
      <trkpt lat="39.896293" lon="116.6427">
        <time>2020-11-26T12:06:53Z</time>
      </trkpt>
      <trkpt lat="39.896297" lon="116.642868">
        <time>2020-11-26T12:06:58Z</time>
      </trkpt>
      <trkpt lat="39.896297" lon="116.643043">
        <time>2020-11-26T12:07:03Z</time>
      </trkpt>
      <trkpt lat="39.896293" lon="116.643188">
        <time>2020-11-26T12:07:08Z</time>
      </trkpt>
      <trkpt lat="39.896297" lon="116.643325">
        <time>2020-11-26T12:07:13Z</time>
      </trkpt>
      <trkpt lat="39.896312" lon="116.643478">
        <time>2020-11-26T12:07:18Z</time>
      </trkpt>
      <trkpt lat="39.89632" lon="116.643638">
        <time>2020-11-26T12:07:23Z</time>
      </trkpt>
      <trkpt lat="39.896316" lon="116.643798">
        <time>2020-11-26T12:07:28Z</time>
      </trkpt>
      <trkpt lat="39.896293" lon="116.643959">
        <time>2020-11-26T12:07:33Z</time>
      </trkpt>
      <trkpt lat="39.896251" lon="116.644104">
        <time>2020-11-26T12:07:38Z</time>
      </trkpt>
      <trkpt lat="39.896228" lon="116.644264">
        <time>2020-11-26T12:07:43Z</time>
      </trkpt>
      <trkpt lat="39.896236" lon="116.644416">
        <time>2020-11-26T12:07:48Z</time>
      </trkpt>
      <trkpt lat="39.896259" lon="116.644561">
        <time>2020-11-26T12:07:53Z</time>
      </trkpt>
      <trkpt lat="39.896278" lon="116.644721">
        <time>2020-11-26T12:07:58Z</time>
      </trkpt>
      <trkpt lat="39.896297" lon="116.644882">
        <time>2020-11-26T12:08:03Z</time>
      </trkpt>
      <trkpt lat="39.896305" lon="116.645057">
        <time>2020-11-26T12:08:08Z</time>
      </trkpt>
      <trkpt lat="39.896316" lon="116.645202">
        <time>2020-11-26T12:08:13Z</time>
      </trkpt>
      <trkpt lat="39.896324" lon="116.645355">
        <time>2020-11-26T12:08:18Z</time>
      </trkpt>
      <trkpt lat="39.896305" lon="116.645507">
        <time>2020-11-26T12:08:23Z</time>
      </trkpt>
      <trkpt lat="39.896255" lon="116.645645">
        <time>2020-11-26T12:08:28Z</time>
      </trkpt>
      <trkpt lat="39.896213" lon="116.64579">
        <time>2020-11-26T12:08:33Z</time>
      </trkpt>
      <trkpt lat="39.896175" lon="116.645942">
        <time>2020-11-26T12:08:38Z</time>
      </trkpt>
      <trkpt lat="39.896156" lon="116.64608">
        <time>2020-11-26T12:08:43Z</time>
      </trkpt>
      <trkpt lat="39.896144" lon="116.646232">
        <time>2020-11-26T12:08:48Z</time>
      </trkpt>
      <trkpt lat="39.896144" lon="116.646392">
        <time>2020-11-26T12:08:53Z</time>
      </trkpt>
      <trkpt lat="39.896144" lon="116.646537">
        <time>2020-11-26T12:08:58Z</time>
      </trkpt>
      <trkpt lat="39.896099" lon="116.646667">
        <time>2020-11-26T12:09:03Z</time>
      </trkpt>
      <trkpt lat="39.895965" lon="116.646743">
        <time>2020-11-26T12:09:08Z</time>
      </trkpt>
      <trkpt lat="39.895801" lon="116.646728">
        <time>2020-11-26T12:09:13Z</time>
      </trkpt>
      <trkpt lat="39.895664" lon="116.646675">
        <time>2020-11-26T12:09:18Z</time>
      </trkpt>
      <trkpt lat="39.895542" lon="116.646621">
        <time>2020-11-26T12:09:23Z</time>
      </trkpt>
      <trkpt lat="39.895408" lon="116.646583">
        <time>2020-11-26T12:09:28Z</time>
      </trkpt>
      <trkpt lat="39.895259" lon="116.646514">
        <time>2020-11-26T12:09:33Z</time>
      </trkpt>
      <trkpt lat="39.895126" lon="116.646461">
        <time>2020-11-26T12:09:38Z</time>
      </trkpt>
      <trkpt lat="39.895019" lon="116.646408">
        <time>2020-11-26T12:09:43Z</time>
      </trkpt>
      <trkpt lat="39.89492" lon="116.646347">
        <time>2020-11-26T12:09:48Z</time>
      </trkpt>
      <trkpt lat="39.894809" lon="116.646301">
        <time>2020-11-26T12:09:53Z</time>
      </trkpt>
      <trkpt lat="39.894683" lon="116.646286">
        <time>2020-11-26T12:09:58Z</time>
      </trkpt>
      <trkpt lat="39.894561" lon="116.646247">
        <time>2020-11-26T12:10:03Z</time>
      </trkpt>
      <trkpt lat="39.894454" lon="116.646194">
        <time>2020-11-26T12:10:08Z</time>
      </trkpt>
      <trkpt lat="39.894351" lon="116.646133">
        <time>2020-11-26T12:10:13Z</time>
      </trkpt>
      <trkpt lat="39.894252" lon="116.646102">
        <time>2020-11-26T12:10:18Z</time>
      </trkpt>
      <trkpt lat="39.894157" lon="116.646072">
        <time>2020-11-26T12:10:23Z</time>
      </trkpt>
      <trkpt lat="39.894069" lon="116.646026">
        <time>2020-11-26T12:10:28Z</time>
      </trkpt>
      <trkpt lat="39.893985" lon="116.646018">
        <time>2020-11-26T12:10:33Z</time>
      </trkpt>
      <trkpt lat="39.893905" lon="116.64608">
        <time>2020-11-26T12:10:38Z</time>
      </trkpt>
      <trkpt lat="39.893829" lon="116.646179">
        <time>2020-11-26T12:10:43Z</time>
      </trkpt>
      <trkpt lat="39.893753" lon="116.64627">
        <time>2020-11-26T12:10:48Z</time>
      </trkpt>
      <trkpt lat="39.893653" lon="116.646316">
        <time>2020-11-26T12:10:53Z</time>
      </trkpt>
      <trkpt lat="39.893527" lon="116.646293">
        <time>2020-11-26T12:10:58Z</time>
      </trkpt>
      <trkpt lat="39.893413" lon="116.64624">
        <time>2020-11-26T12:11:03Z</time>
      </trkpt>
      <trkpt lat="39.893314" lon="116.646179">
        <time>2020-11-26T12:11:08Z</time>
      </trkpt>
      <trkpt lat="39.893207" lon="116.646125">
        <time>2020-11-26T12:11:13Z</time>
      </trkpt>
      <trkpt lat="39.893096" lon="116.64608">
        <time>2020-11-26T12:11:18Z</time>
      </trkpt>
      <trkpt lat="39.892974" lon="116.646026">
        <time>2020-11-26T12:11:23Z</time>
      </trkpt>
      <trkpt lat="39.892848" lon="116.645973">
        <time>2020-11-26T12:11:28Z</time>
      </trkpt>
      <trkpt lat="39.892738" lon="116.645912">
        <time>2020-11-26T12:11:33Z</time>
      </trkpt>
      <trkpt lat="39.892642" lon="116.645835">
        <time>2020-11-26T12:11:38Z</time>
      </trkpt>
      <trkpt lat="39.892539" lon="116.645759">
        <time>2020-11-26T12:11:43Z</time>
      </trkpt>
      <trkpt lat="39.892414" lon="116.645675">
        <time>2020-11-26T12:11:48Z</time>
      </trkpt>
      <trkpt lat="39.892288" lon="116.645599">
        <time>2020-11-26T12:11:53Z</time>
      </trkpt>
      <trkpt lat="39.892162" lon="116.645568">
        <time>2020-11-26T12:11:58Z</time>
      </trkpt>
      <trkpt lat="39.892044" lon="116.645545">
        <time>2020-11-26T12:12:03Z</time>
      </trkpt>
      <trkpt lat="39.891918" lon="116.645507">
        <time>2020-11-26T12:12:08Z</time>
      </trkpt>
      <trkpt lat="39.891769" lon="116.645462">
        <time>2020-11-26T12:12:13Z</time>
      </trkpt>
      <trkpt lat="39.891654" lon="116.645431">
        <time>2020-11-26T12:12:18Z</time>
      </trkpt>
      <trkpt lat="39.891654" lon="116.645439">
        <time>2020-11-26T12:12:23Z</time>
      </trkpt>
      <trkpt lat="39.891716" lon="116.645484">
        <time>2020-11-26T12:12:28Z</time>
      </trkpt>
      <trkpt lat="39.891819" lon="116.645545">
        <time>2020-11-26T12:12:33Z</time>
      </trkpt>
      <trkpt lat="39.89196" lon="116.645622">
        <time>2020-11-26T12:12:38Z</time>
      </trkpt>
      <trkpt lat="39.892124" lon="116.645683">
        <time>2020-11-26T12:12:43Z</time>
      </trkpt>
      <trkpt lat="39.892299" lon="116.645767">
        <time>2020-11-26T12:12:48Z</time>
      </trkpt>
      <trkpt lat="39.892475" lon="116.645858">
        <time>2020-11-26T12:12:53Z</time>
      </trkpt>
      <trkpt lat="39.892623" lon="116.645912">
        <time>2020-11-26T12:12:58Z</time>
      </trkpt>
      <trkpt lat="39.892772" lon="116.645942">
        <time>2020-11-26T12:13:03Z</time>
      </trkpt>
      <trkpt lat="39.892955" lon="116.645965">
        <time>2020-11-26T12:13:08Z</time>
      </trkpt>
      <trkpt lat="39.89315" lon="116.645996">
        <time>2020-11-26T12:13:13Z</time>
      </trkpt>
      <trkpt lat="39.893329" lon="116.646034">
        <time>2020-11-26T12:13:18Z</time>
      </trkpt>
      <trkpt lat="39.89347" lon="116.64608">
        <time>2020-11-26T12:13:23Z</time>
      </trkpt>
      <trkpt lat="39.893592" lon="116.646141">
        <time>2020-11-26T12:13:28Z</time>
      </trkpt>
      <trkpt lat="39.893714" lon="116.64624">
        <time>2020-11-26T12:13:33Z</time>
      </trkpt>
      <trkpt lat="39.893836" lon="116.646293">
        <time>2020-11-26T12:13:38Z</time>
      </trkpt>
      <trkpt lat="39.893913" lon="116.64627">
        <time>2020-11-26T12:13:43Z</time>
      </trkpt>
      <trkpt lat="39.893939" lon="116.646179">
        <time>2020-11-26T12:13:48Z</time>
      </trkpt>
      <trkpt lat="39.893959" lon="116.646049">
        <time>2020-11-26T12:13:53Z</time>
      </trkpt>
      <trkpt lat="39.894001" lon="116.645942">
        <time>2020-11-26T12:13:58Z</time>
      </trkpt>
      <trkpt lat="39.894081" lon="116.645919">
        <time>2020-11-26T12:14:03Z</time>
      </trkpt>
      <trkpt lat="39.894199" lon="116.64595">
        <time>2020-11-26T12:14:08Z</time>
      </trkpt>
      <trkpt lat="39.894313" lon="116.646003">
        <time>2020-11-26T12:14:13Z</time>
      </trkpt>
      <trkpt lat="39.894416" lon="116.646057">
        <time>2020-11-26T12:14:18Z</time>
      </trkpt>
      <trkpt lat="39.894538" lon="116.64611">
        <time>2020-11-26T12:14:23Z</time>
      </trkpt>
      <trkpt lat="39.894657" lon="116.646179">
        <time>2020-11-26T12:14:28Z</time>
      </trkpt>
      <trkpt lat="39.894744" lon="116.646217">
        <time>2020-11-26T12:14:33Z</time>
      </trkpt>
      <trkpt lat="39.894844" lon="116.64627">
        <time>2020-11-26T12:14:38Z</time>
      </trkpt>
      <trkpt lat="39.894954" lon="116.646339">
        <time>2020-11-26T12:14:43Z</time>
      </trkpt>
      <trkpt lat="39.895076" lon="116.6464">
        <time>2020-11-26T12:14:48Z</time>
      </trkpt>
      <trkpt lat="39.895206" lon="116.646461">
        <time>2020-11-26T12:14:53Z</time>
      </trkpt>
      <trkpt lat="39.895336" lon="116.646514">
        <time>2020-11-26T12:14:58Z</time>
      </trkpt>
      <trkpt lat="39.895465" lon="116.64656">
        <time>2020-11-26T12:15:03Z</time>
      </trkpt>
      <trkpt lat="39.895584" lon="116.646614">
        <time>2020-11-26T12:15:08Z</time>
      </trkpt>
      <trkpt lat="39.89569" lon="116.646667">
        <time>2020-11-26T12:15:13Z</time>
      </trkpt>
      <trkpt lat="39.895816" lon="116.646705">
        <time>2020-11-26T12:15:18Z</time>
      </trkpt>
      <trkpt lat="39.89595" lon="116.646728">
        <time>2020-11-26T12:15:23Z</time>
      </trkpt>
      <trkpt lat="39.896045" lon="116.646705">
        <time>2020-11-26T12:15:28Z</time>
      </trkpt>
      <trkpt lat="39.896083" lon="116.646621">
        <time>2020-11-26T12:15:33Z</time>
      </trkpt>
      <trkpt lat="39.896087" lon="116.646476">
        <time>2020-11-26T12:15:38Z</time>
      </trkpt>
      <trkpt lat="39.896068" lon="116.646316">
        <time>2020-11-26T12:15:43Z</time>
      </trkpt>
      <trkpt lat="39.896038" lon="116.646163">
        <time>2020-11-26T12:15:48Z</time>
      </trkpt>
      <trkpt lat="39.896018" lon="116.646003">
        <time>2020-11-26T12:15:53Z</time>
      </trkpt>
      <trkpt lat="39.896041" lon="116.645866">
        <time>2020-11-26T12:15:58Z</time>
      </trkpt>
      <trkpt lat="39.896091" lon="116.645729">
        <time>2020-11-26T12:16:03Z</time>
      </trkpt>
      <trkpt lat="39.896114" lon="116.645591">
        <time>2020-11-26T12:16:08Z</time>
      </trkpt>
      <trkpt lat="39.896118" lon="116.645439">
        <time>2020-11-26T12:16:13Z</time>
      </trkpt>
      <trkpt lat="39.896144" lon="116.645294">
        <time>2020-11-26T12:16:18Z</time>
      </trkpt>
      <trkpt lat="39.896183" lon="116.645141">
        <time>2020-11-26T12:16:23Z</time>
      </trkpt>
      <trkpt lat="39.896198" lon="116.644973">
        <time>2020-11-26T12:16:28Z</time>
      </trkpt>
      <trkpt lat="39.89619" lon="116.64479">
        <time>2020-11-26T12:16:33Z</time>
      </trkpt>
      <trkpt lat="39.896179" lon="116.64463">
        <time>2020-11-26T12:16:38Z</time>
      </trkpt>
      <trkpt lat="39.896152" lon="116.644439">
        <time>2020-11-26T12:16:43Z</time>
      </trkpt>
      <trkpt lat="39.896114" lon="116.644248">
        <time>2020-11-26T12:16:48Z</time>
      </trkpt>
      <trkpt lat="39.896102" lon="116.644088">
        <time>2020-11-26T12:16:53Z</time>
      </trkpt>
      <trkpt lat="39.896114" lon="116.643943">
        <time>2020-11-26T12:16:58Z</time>
      </trkpt>
      <trkpt lat="39.896144" lon="116.643821">
        <time>2020-11-26T12:17:03Z</time>
      </trkpt>
      <trkpt lat="39.896163" lon="116.643676">
        <time>2020-11-26T12:17:08Z</time>
      </trkpt>
      <trkpt lat="39.896163" lon="116.643516">
        <time>2020-11-26T12:17:13Z</time>
      </trkpt>
      <trkpt lat="39.89616" lon="116.643356">
        <time>2020-11-26T12:17:18Z</time>
      </trkpt>
      <trkpt lat="39.896167" lon="116.643234">
        <time>2020-11-26T12:17:23Z</time>
      </trkpt>
      <trkpt lat="39.896183" lon="116.643112">
        <time>2020-11-26T12:17:28Z</time>
      </trkpt>
      <trkpt lat="39.896175" lon="116.642997">
        <time>2020-11-26T12:17:33Z</time>
      </trkpt>
      <trkpt lat="39.896144" lon="116.642845">
        <time>2020-11-26T12:17:38Z</time>
      </trkpt>
      <trkpt lat="39.896118" lon="116.642677">
        <time>2020-11-26T12:17:43Z</time>
      </trkpt>
      <trkpt lat="39.896106" lon="116.642524">
        <time>2020-11-26T12:17:48Z</time>
      </trkpt>
      <trkpt lat="39.89611" lon="116.642402">
        <time>2020-11-26T12:17:53Z</time>
      </trkpt>
      <trkpt lat="39.896121" lon="116.642257">
        <time>2020-11-26T12:17:58Z</time>
      </trkpt>
      <trkpt lat="39.896137" lon="116.64212">
        <time>2020-11-26T12:18:03Z</time>
      </trkpt>
      <trkpt lat="39.896133" lon="116.641983">
        <time>2020-11-26T12:18:08Z</time>
      </trkpt>
      <trkpt lat="39.896137" lon="116.641845">
        <time>2020-11-26T12:18:13Z</time>
      </trkpt>
      <trkpt lat="39.896152" lon="116.641716">
        <time>2020-11-26T12:18:18Z</time>
      </trkpt>
      <trkpt lat="39.896167" lon="116.641571">
        <time>2020-11-26T12:18:23Z</time>
      </trkpt>
      <trkpt lat="39.89619" lon="116.641319">
        <time>2020-11-26T12:18:28Z</time>
      </trkpt>
      <trkpt lat="39.89619" lon="116.64109">
        <time>2020-11-26T12:18:33Z</time>
      </trkpt>
      <trkpt lat="39.89619" lon="116.640907">
        <time>2020-11-26T12:18:38Z</time>
      </trkpt>
      <trkpt lat="39.89619" lon="116.640754">
        <time>2020-11-26T12:18:43Z</time>
      </trkpt>
      <trkpt lat="39.896209" lon="116.640632">
        <time>2020-11-26T12:18:48Z</time>
      </trkpt>
      <trkpt lat="39.896236" lon="116.640502">
        <time>2020-11-26T12:18:53Z</time>
      </trkpt>
      <trkpt lat="39.896251" lon="116.64035">
        <time>2020-11-26T12:18:58Z</time>
      </trkpt>
      <trkpt lat="39.896251" lon="116.640205">
        <time>2020-11-26T12:19:03Z</time>
      </trkpt>
      <trkpt lat="39.896244" lon="116.640045">
        <time>2020-11-26T12:19:08Z</time>
      </trkpt>
      <trkpt lat="39.896236" lon="116.639862">
        <time>2020-11-26T12:19:13Z</time>
      </trkpt>
      <trkpt lat="39.896221" lon="116.639701">
        <time>2020-11-26T12:19:18Z</time>
      </trkpt>
      <trkpt lat="39.896198" lon="116.639541">
        <time>2020-11-26T12:19:23Z</time>
      </trkpt>
      <trkpt lat="39.896175" lon="116.639389">
        <time>2020-11-26T12:19:28Z</time>
      </trkpt>
      <trkpt lat="39.896156" lon="116.639228">
        <time>2020-11-26T12:19:33Z</time>
      </trkpt>
      <trkpt lat="39.896156" lon="116.639068">
        <time>2020-11-26T12:19:38Z</time>
      </trkpt>
      <trkpt lat="39.896167" lon="116.638908">
        <time>2020-11-26T12:19:43Z</time>
      </trkpt>
      <trkpt lat="39.896171" lon="116.638763">
        <time>2020-11-26T12:19:48Z</time>
      </trkpt>
      <trkpt lat="39.896171" lon="116.638633">
        <time>2020-11-26T12:19:53Z</time>
      </trkpt>
      <trkpt lat="39.896156" lon="116.638496">
        <time>2020-11-26T12:19:58Z</time>
      </trkpt>
      <trkpt lat="39.896118" lon="116.638336">
        <time>2020-11-26T12:20:03Z</time>
      </trkpt>
      <trkpt lat="39.896095" lon="116.638175">
        <time>2020-11-26T12:20:08Z</time>
      </trkpt>
      <trkpt lat="39.896083" lon="116.638023">
        <time>2020-11-26T12:20:13Z</time>
      </trkpt>
      <trkpt lat="39.896076" lon="116.637863">
        <time>2020-11-26T12:20:18Z</time>
      </trkpt>
      <trkpt lat="39.896072" lon="116.637687">
        <time>2020-11-26T12:20:23Z</time>
      </trkpt>
      <trkpt lat="39.896083" lon="116.637512">
        <time>2020-11-26T12:20:28Z</time>
      </trkpt>
      <trkpt lat="39.896106" lon="116.637367">
        <time>2020-11-26T12:20:33Z</time>
      </trkpt>
      <trkpt lat="39.896118" lon="116.637229">
        <time>2020-11-26T12:20:38Z</time>
      </trkpt>
      <trkpt lat="39.896095" lon="116.637077">
        <time>2020-11-26T12:20:43Z</time>
      </trkpt>
      <trkpt lat="39.896053" lon="116.636947">
        <time>2020-11-26T12:20:48Z</time>
      </trkpt>
      <trkpt lat="39.896018" lon="116.636863">
        <time>2020-11-26T12:20:53Z</time>
      </trkpt>
      <trkpt lat="39.896049" lon="116.636894">
        <time>2020-11-26T12:20:58Z</time>
      </trkpt>
      <trkpt lat="39.896121" lon="116.637016">
        <time>2020-11-26T12:21:03Z</time>
      </trkpt>
      <trkpt lat="39.896183" lon="116.637161">
        <time>2020-11-26T12:21:08Z</time>
      </trkpt>
      <trkpt lat="39.89624" lon="116.637313">
        <time>2020-11-26T12:21:13Z</time>
      </trkpt>
      <trkpt lat="39.896278" lon="116.637458">
        <time>2020-11-26T12:21:18Z</time>
      </trkpt>
      <trkpt lat="39.896289" lon="116.637634">
        <time>2020-11-26T12:21:23Z</time>
      </trkpt>
      <trkpt lat="39.896286" lon="116.637794">
        <time>2020-11-26T12:21:28Z</time>
      </trkpt>
      <trkpt lat="39.896297" lon="116.637939">
        <time>2020-11-26T12:21:33Z</time>
      </trkpt>
      <trkpt lat="39.896327" lon="116.638099">
        <time>2020-11-26T12:21:38Z</time>
      </trkpt>
      <trkpt lat="39.896358" lon="116.638252">
        <time>2020-11-26T12:21:43Z</time>
      </trkpt>
      <trkpt lat="39.896385" lon="116.638397">
        <time>2020-11-26T12:21:48Z</time>
      </trkpt>
      <trkpt lat="39.896408" lon="116.638549">
        <time>2020-11-26T12:21:53Z</time>
      </trkpt>
      <trkpt lat="39.896415" lon="116.63871">
        <time>2020-11-26T12:21:58Z</time>
      </trkpt>
      <trkpt lat="39.896419" lon="116.63887">
        <time>2020-11-26T12:22:03Z</time>
      </trkpt>
      <trkpt lat="39.896427" lon="116.63903">
        <time>2020-11-26T12:22:08Z</time>
      </trkpt>
      <trkpt lat="39.896419" lon="116.639175">
        <time>2020-11-26T12:22:13Z</time>
      </trkpt>
      <trkpt lat="39.896427" lon="116.63935">
        <time>2020-11-26T12:22:18Z</time>
      </trkpt>
      <trkpt lat="39.896442" lon="116.639511">
        <time>2020-11-26T12:22:23Z</time>
      </trkpt>
      <trkpt lat="39.896446" lon="116.639678">
        <time>2020-11-26T12:22:28Z</time>
      </trkpt>
      <trkpt lat="39.896446" lon="116.639854">
        <time>2020-11-26T12:22:33Z</time>
      </trkpt>
      <trkpt lat="39.896453" lon="116.640022">
        <time>2020-11-26T12:22:38Z</time>
      </trkpt>
      <trkpt lat="39.896472" lon="116.640182">
        <time>2020-11-26T12:22:43Z</time>
      </trkpt>
      <trkpt lat="39.896472" lon="116.64035">
        <time>2020-11-26T12:22:48Z</time>
      </trkpt>
      <trkpt lat="39.896438" lon="116.640533">
        <time>2020-11-26T12:22:53Z</time>
      </trkpt>
      <trkpt lat="39.896411" lon="116.640716">
        <time>2020-11-26T12:22:58Z</time>
      </trkpt>
      <trkpt lat="39.8964" lon="116.640884">
        <time>2020-11-26T12:23:03Z</time>
      </trkpt>
      <trkpt lat="39.896404" lon="116.641052">
        <time>2020-11-26T12:23:08Z</time>
      </trkpt>
      <trkpt lat="39.896411" lon="116.641204">
        <time>2020-11-26T12:23:13Z</time>
      </trkpt>
      <trkpt lat="39.896411" lon="116.641365">
        <time>2020-11-26T12:23:18Z</time>
      </trkpt>
      <trkpt lat="39.896419" lon="116.641525">
        <time>2020-11-26T12:23:23Z</time>
      </trkpt>
      <trkpt lat="39.896438" lon="116.641677">
        <time>2020-11-26T12:23:28Z</time>
      </trkpt>
      <trkpt lat="39.896446" lon="116.641845">
        <time>2020-11-26T12:23:33Z</time>
      </trkpt>
      <trkpt lat="39.896457" lon="116.642005">
        <time>2020-11-26T12:23:38Z</time>
      </trkpt>
      <trkpt lat="39.896465" lon="116.64215">
        <time>2020-11-26T12:23:43Z</time>
      </trkpt>
      <trkpt lat="39.896465" lon="116.642303">
        <time>2020-11-26T12:23:48Z</time>
      </trkpt>
      <trkpt lat="39.896457" lon="116.642456">
        <time>2020-11-26T12:23:53Z</time>
      </trkpt>
      <trkpt lat="39.896446" lon="116.642623">
        <time>2020-11-26T12:23:58Z</time>
      </trkpt>
      <trkpt lat="39.896427" lon="116.642814">
        <time>2020-11-26T12:24:03Z</time>
      </trkpt>
      <trkpt lat="39.896404" lon="116.643005">
        <time>2020-11-26T12:24:08Z</time>
      </trkpt>
      <trkpt lat="39.896389" lon="116.643188">
        <time>2020-11-26T12:24:13Z</time>
      </trkpt>
      <trkpt lat="39.896392" lon="116.643379">
        <time>2020-11-26T12:24:18Z</time>
      </trkpt>
      <trkpt lat="39.896411" lon="116.643562">
        <time>2020-11-26T12:24:23Z</time>
      </trkpt>
      <trkpt lat="39.896408" lon="116.643745">
        <time>2020-11-26T12:24:28Z</time>
      </trkpt>
      <trkpt lat="39.896392" lon="116.643943">
        <time>2020-11-26T12:24:33Z</time>
      </trkpt>
      <trkpt lat="39.896385" lon="116.644157">
        <time>2020-11-26T12:24:38Z</time>
      </trkpt>
      <trkpt lat="39.896377" lon="116.644355">
        <time>2020-11-26T12:24:43Z</time>
      </trkpt>
      <trkpt lat="39.896369" lon="116.644531">
        <time>2020-11-26T12:24:48Z</time>
      </trkpt>
      <trkpt lat="39.896377" lon="116.644706">
        <time>2020-11-26T12:24:53Z</time>
      </trkpt>
      <trkpt lat="39.896381" lon="116.644882">
        <time>2020-11-26T12:24:58Z</time>
      </trkpt>
      <trkpt lat="39.896377" lon="116.64508">
        <time>2020-11-26T12:25:03Z</time>
      </trkpt>
      <trkpt lat="39.896377" lon="116.645256">
        <time>2020-11-26T12:25:08Z</time>
      </trkpt>
      <trkpt lat="39.896369" lon="116.645462">
        <time>2020-11-26T12:25:13Z</time>
      </trkpt>
      <trkpt lat="39.896331" lon="116.645645">
        <time>2020-11-26T12:25:18Z</time>
      </trkpt>
      <trkpt lat="39.896289" lon="116.645805">
        <time>2020-11-26T12:25:23Z</time>
      </trkpt>
      <trkpt lat="39.896251" lon="116.645965">
        <time>2020-11-26T12:25:28Z</time>
      </trkpt>
      <trkpt lat="39.896228" lon="116.646133">
        <time>2020-11-26T12:25:33Z</time>
      </trkpt>
      <trkpt lat="39.896232" lon="116.646301">
        <time>2020-11-26T12:25:38Z</time>
      </trkpt>
      <trkpt lat="39.896244" lon="116.646476">
        <time>2020-11-26T12:25:43Z</time>
      </trkpt>
      <trkpt lat="39.896209" lon="116.646636">
        <time>2020-11-26T12:25:48Z</time>
      </trkpt>
      <trkpt lat="39.896083" lon="116.646728">
        <time>2020-11-26T12:25:53Z</time>
      </trkpt>
      <trkpt lat="39.895908" lon="116.646743">
        <time>2020-11-26T12:25:58Z</time>
      </trkpt>
      <trkpt lat="39.895721" lon="116.646697">
        <time>2020-11-26T12:26:03Z</time>
      </trkpt>
      <trkpt lat="39.895561" lon="116.646652">
        <time>2020-11-26T12:26:08Z</time>
      </trkpt>
      <trkpt lat="39.895435" lon="116.646606">
        <time>2020-11-26T12:26:13Z</time>
      </trkpt>
      <trkpt lat="39.895332" lon="116.646537">
        <time>2020-11-26T12:26:18Z</time>
      </trkpt>
      <trkpt lat="39.895217" lon="116.646476">
        <time>2020-11-26T12:26:23Z</time>
      </trkpt>
      <trkpt lat="39.895114" lon="116.6464">
        <time>2020-11-26T12:26:28Z</time>
      </trkpt>
      <trkpt lat="39.895034" lon="116.646339">
        <time>2020-11-26T12:26:33Z</time>
      </trkpt>
      <trkpt lat="39.894931" lon="116.646293">
        <time>2020-11-26T12:26:38Z</time>
      </trkpt>
      <trkpt lat="39.894817" lon="116.646247">
        <time>2020-11-26T12:26:43Z</time>
      </trkpt>
      <trkpt lat="39.894702" lon="116.646209">
        <time>2020-11-26T12:26:48Z</time>
      </trkpt>
      <trkpt lat="39.894599" lon="116.646163">
        <time>2020-11-26T12:26:53Z</time>
      </trkpt>
      <trkpt lat="39.894485" lon="116.646141">
        <time>2020-11-26T12:26:58Z</time>
      </trkpt>
      <trkpt lat="39.894363" lon="116.646133">
        <time>2020-11-26T12:27:03Z</time>
      </trkpt>
      <trkpt lat="39.894214" lon="116.64611">
        <time>2020-11-26T12:27:08Z</time>
      </trkpt>
      <trkpt lat="39.894065" lon="116.646057">
        <time>2020-11-26T12:27:13Z</time>
      </trkpt>
      <trkpt lat="39.893962" lon="116.646034">
        <time>2020-11-26T12:27:18Z</time>
      </trkpt>
      <trkpt lat="39.893886" lon="116.646087">
        <time>2020-11-26T12:27:23Z</time>
      </trkpt>
      <trkpt lat="39.893802" lon="116.646186">
        <time>2020-11-26T12:27:28Z</time>
      </trkpt>
      <trkpt lat="39.893718" lon="116.646286">
        <time>2020-11-26T12:27:33Z</time>
      </trkpt>
      <trkpt lat="39.893615" lon="116.646316">
        <time>2020-11-26T12:27:38Z</time>
      </trkpt>
      <trkpt lat="39.893493" lon="116.646263">
        <time>2020-11-26T12:27:43Z</time>
      </trkpt>
      <trkpt lat="39.893371" lon="116.646186">
        <time>2020-11-26T12:27:48Z</time>
      </trkpt>
      <trkpt lat="39.893241" lon="116.646133">
        <time>2020-11-26T12:27:53Z</time>
      </trkpt>
      <trkpt lat="39.893108" lon="116.646087">
        <time>2020-11-26T12:27:58Z</time>
      </trkpt>
      <trkpt lat="39.892982" lon="116.646072">
        <time>2020-11-26T12:28:03Z</time>
      </trkpt>
      <trkpt lat="39.89286" lon="116.646018">
        <time>2020-11-26T12:28:08Z</time>
      </trkpt>
      <trkpt lat="39.892742" lon="116.64595">
        <time>2020-11-26T12:28:13Z</time>
      </trkpt>
      <trkpt lat="39.892639" lon="116.645866">
        <time>2020-11-26T12:28:18Z</time>
      </trkpt>
      <trkpt lat="39.892532" lon="116.645805">
        <time>2020-11-26T12:28:23Z</time>
      </trkpt>
      <trkpt lat="39.892391" lon="116.645751">
        <time>2020-11-26T12:28:28Z</time>
      </trkpt>
      <trkpt lat="39.892238" lon="116.645698">
        <time>2020-11-26T12:28:33Z</time>
      </trkpt>
      <trkpt lat="39.892101" lon="116.645645">
        <time>2020-11-26T12:28:38Z</time>
      </trkpt>
      <trkpt lat="39.891979" lon="116.645576">
        <time>2020-11-26T12:28:43Z</time>
      </trkpt>
      <trkpt lat="39.891872" lon="116.645507">
        <time>2020-11-26T12:28:48Z</time>
      </trkpt>
      <trkpt lat="39.891757" lon="116.645431">
        <time>2020-11-26T12:28:53Z</time>
      </trkpt>
      <trkpt lat="39.891696" lon="116.645401">
        <time>2020-11-26T12:28:58Z</time>
      </trkpt>
      <trkpt lat="39.891723" lon="116.645431">
        <time>2020-11-26T12:29:03Z</time>
      </trkpt>
      <trkpt lat="39.891784" lon="116.645462">
        <time>2020-11-26T12:29:08Z</time>
      </trkpt>
      <trkpt lat="39.891849" lon="116.645492">
        <time>2020-11-26T12:29:13Z</time>
      </trkpt>
      <trkpt lat="39.89191" lon="116.645523">
        <time>2020-11-26T12:29:18Z</time>
      </trkpt>
      <trkpt lat="39.89196" lon="116.645553">
        <time>2020-11-26T12:29:23Z</time>
      </trkpt>
      <trkpt lat="39.892024" lon="116.645599">
        <time>2020-11-26T12:29:28Z</time>
      </trkpt>
      <trkpt lat="39.892139" lon="116.645629">
        <time>2020-11-26T12:29:33Z</time>
      </trkpt>
      <trkpt lat="39.892265" lon="116.64566">
        <time>2020-11-26T12:29:38Z</time>
      </trkpt>
      <trkpt lat="39.892372" lon="116.645713">
        <time>2020-11-26T12:29:43Z</time>
      </trkpt>
      <trkpt lat="39.892475" lon="116.645782">
        <time>2020-11-26T12:29:48Z</time>
      </trkpt>
      <trkpt lat="39.892608" lon="116.645835">
        <time>2020-11-26T12:29:53Z</time>
      </trkpt>
      <trkpt lat="39.892738" lon="116.645866">
        <time>2020-11-26T12:29:58Z</time>
      </trkpt>
      <trkpt lat="39.892848" lon="116.645896">
        <time>2020-11-26T12:30:03Z</time>
      </trkpt>
      <trkpt lat="39.89299" lon="116.645927">
        <time>2020-11-26T12:30:08Z</time>
      </trkpt>
      <trkpt lat="39.893142" lon="116.645973">
        <time>2020-11-26T12:30:13Z</time>
      </trkpt>
      <trkpt lat="39.893287" lon="116.646026">
        <time>2020-11-26T12:30:18Z</time>
      </trkpt>
      <trkpt lat="39.893436" lon="116.64608">
        <time>2020-11-26T12:30:23Z</time>
      </trkpt>
      <trkpt lat="39.893577" lon="116.646141">
        <time>2020-11-26T12:30:28Z</time>
      </trkpt>
      <trkpt lat="39.893703" lon="116.646232">
        <time>2020-11-26T12:30:33Z</time>
      </trkpt>
      <trkpt lat="39.893817" lon="116.64627">
        <time>2020-11-26T12:30:38Z</time>
      </trkpt>
      <trkpt lat="39.893913" lon="116.646209">
        <time>2020-11-26T12:30:43Z</time>
      </trkpt>
      <trkpt lat="39.893974" lon="116.646087">
        <time>2020-11-26T12:30:48Z</time>
      </trkpt>
      <trkpt lat="39.894016" lon="116.645965">
        <time>2020-11-26T12:30:53Z</time>
      </trkpt>
      <trkpt lat="39.894073" lon="116.645866">
        <time>2020-11-26T12:30:58Z</time>
      </trkpt>
      <trkpt lat="39.894134" lon="116.645874">
        <time>2020-11-26T12:31:03Z</time>
      </trkpt>
      <trkpt lat="39.894203" lon="116.64595">
        <time>2020-11-26T12:31:08Z</time>
      </trkpt>
      <trkpt lat="39.894283" lon="116.646026">
        <time>2020-11-26T12:31:13Z</time>
      </trkpt>
      <trkpt lat="39.894378" lon="116.646087">
        <time>2020-11-26T12:31:18Z</time>
      </trkpt>
      <trkpt lat="39.894485" lon="116.646156">
        <time>2020-11-26T12:31:23Z</time>
      </trkpt>
      <trkpt lat="39.894577" lon="116.646194">
        <time>2020-11-26T12:31:28Z</time>
      </trkpt>
      <trkpt lat="39.894687" lon="116.64624">
        <time>2020-11-26T12:31:33Z</time>
      </trkpt>
      <trkpt lat="39.894817" lon="116.646293">
        <time>2020-11-26T12:31:38Z</time>
      </trkpt>
      <trkpt lat="39.894943" lon="116.646347">
        <time>2020-11-26T12:31:43Z</time>
      </trkpt>
      <trkpt lat="39.895065" lon="116.6464">
        <time>2020-11-26T12:31:48Z</time>
      </trkpt>
      <trkpt lat="39.895202" lon="116.646453">
        <time>2020-11-26T12:31:53Z</time>
      </trkpt>
      <trkpt lat="39.895366" lon="116.646507">
        <time>2020-11-26T12:31:58Z</time>
      </trkpt>
      <trkpt lat="39.895526" lon="116.646553">
        <time>2020-11-26T12:32:03Z</time>
      </trkpt>
      <trkpt lat="39.89566" lon="116.646606">
        <time>2020-11-26T12:32:08Z</time>
      </trkpt>
      <trkpt lat="39.895793" lon="116.646652">
        <time>2020-11-26T12:32:13Z</time>
      </trkpt>
      <trkpt lat="39.895935" lon="116.646705">
        <time>2020-11-26T12:32:18Z</time>
      </trkpt>
      <trkpt lat="39.896038" lon="116.64672">
        <time>2020-11-26T12:32:23Z</time>
      </trkpt>
      <trkpt lat="39.896064" lon="116.646652">
        <time>2020-11-26T12:32:28Z</time>
      </trkpt>
      <trkpt lat="39.896057" lon="116.646507">
        <time>2020-11-26T12:32:33Z</time>
      </trkpt>
      <trkpt lat="39.89608" lon="116.646347">
        <time>2020-11-26T12:32:38Z</time>
      </trkpt>
      <trkpt lat="39.896118" lon="116.646186">
        <time>2020-11-26T12:32:43Z</time>
      </trkpt>
      <trkpt lat="39.896156" lon="116.646034">
        <time>2020-11-26T12:32:48Z</time>
      </trkpt>
      <trkpt lat="39.896183" lon="116.645889">
        <time>2020-11-26T12:32:53Z</time>
      </trkpt>
      <trkpt lat="39.896194" lon="116.645751">
        <time>2020-11-26T12:32:58Z</time>
      </trkpt>
      <trkpt lat="39.896198" lon="116.645622">
        <time>2020-11-26T12:33:03Z</time>
      </trkpt>
      <trkpt lat="39.896202" lon="116.645484">
        <time>2020-11-26T12:33:08Z</time>
      </trkpt>
      <trkpt lat="39.896217" lon="116.645324">
        <time>2020-11-26T12:33:13Z</time>
      </trkpt>
      <trkpt lat="39.896224" lon="116.645149">
        <time>2020-11-26T12:33:18Z</time>
      </trkpt>
      <trkpt lat="39.896224" lon="116.644981">
        <time>2020-11-26T12:33:23Z</time>
      </trkpt>
      <trkpt lat="39.896232" lon="116.644828">
        <time>2020-11-26T12:33:28Z</time>
      </trkpt>
      <trkpt lat="39.896224" lon="116.644706">
        <time>2020-11-26T12:33:33Z</time>
      </trkpt>
      <trkpt lat="39.896183" lon="116.644577">
        <time>2020-11-26T12:33:38Z</time>
      </trkpt>
      <trkpt lat="39.896163" lon="116.644393">
        <time>2020-11-26T12:33:43Z</time>
      </trkpt>
      <trkpt lat="39.89619" lon="116.64421">
        <time>2020-11-26T12:33:48Z</time>
      </trkpt>
      <trkpt lat="39.896217" lon="116.64405">
        <time>2020-11-26T12:33:53Z</time>
      </trkpt>
      <trkpt lat="39.896224" lon="116.643882">
        <time>2020-11-26T12:33:58Z</time>
      </trkpt>
      <trkpt lat="39.896224" lon="116.643722">
        <time>2020-11-26T12:34:03Z</time>
      </trkpt>
      <trkpt lat="39.896209" lon="116.643585">
        <time>2020-11-26T12:34:08Z</time>
      </trkpt>
      <trkpt lat="39.896186" lon="116.643447">
        <time>2020-11-26T12:34:13Z</time>
      </trkpt>
      <trkpt lat="39.896183" lon="116.643295">
        <time>2020-11-26T12:34:18Z</time>
      </trkpt>
      <trkpt lat="39.896198" lon="116.643157">
        <time>2020-11-26T12:34:23Z</time>
      </trkpt>
      <trkpt lat="39.896224" lon="116.643005">
        <time>2020-11-26T12:34:28Z</time>
      </trkpt>
      <trkpt lat="39.896228" lon="116.642868">
        <time>2020-11-26T12:34:33Z</time>
      </trkpt>
      <trkpt lat="39.896221" lon="116.64273">
        <time>2020-11-26T12:34:38Z</time>
      </trkpt>
      <trkpt lat="39.896232" lon="116.642578">
        <time>2020-11-26T12:34:43Z</time>
      </trkpt>
      <trkpt lat="39.896247" lon="116.64241">
        <time>2020-11-26T12:34:48Z</time>
      </trkpt>
      <trkpt lat="39.896232" lon="116.642257">
        <time>2020-11-26T12:34:53Z</time>
      </trkpt>
      <trkpt lat="39.896209" lon="116.642105">
        <time>2020-11-26T12:34:58Z</time>
      </trkpt>
      <trkpt lat="39.896202" lon="116.641952">
        <time>2020-11-26T12:35:03Z</time>
      </trkpt>
      <trkpt lat="39.89619" lon="116.641838">
        <time>2020-11-26T12:35:08Z</time>
      </trkpt>
      <trkpt lat="39.896183" lon="116.641731">
        <time>2020-11-26T12:35:13Z</time>
      </trkpt>
      <trkpt lat="39.896167" lon="116.641601">
        <time>2020-11-26T12:35:18Z</time>
      </trkpt>
      <trkpt lat="39.896144" lon="116.641464">
        <time>2020-11-26T12:35:23Z</time>
      </trkpt>
      <trkpt lat="39.89616" lon="116.641311">
        <time>2020-11-26T12:35:28Z</time>
      </trkpt>
      <trkpt lat="39.896198" lon="116.641159">
        <time>2020-11-26T12:35:33Z</time>
      </trkpt>
      <trkpt lat="39.896228" lon="116.641021">
        <time>2020-11-26T12:35:38Z</time>
      </trkpt>
      <trkpt lat="39.896247" lon="116.640899">
        <time>2020-11-26T12:35:43Z</time>
      </trkpt>
      <trkpt lat="39.896263" lon="116.640754">
        <time>2020-11-26T12:35:48Z</time>
      </trkpt>
      <trkpt lat="39.89627" lon="116.640609">
        <time>2020-11-26T12:35:53Z</time>
      </trkpt>
      <trkpt lat="39.896278" lon="116.640449">
        <time>2020-11-26T12:35:58Z</time>
      </trkpt>
      <trkpt lat="39.896278" lon="116.640296">
        <time>2020-11-26T12:36:03Z</time>
      </trkpt>
      <trkpt lat="39.896263" lon="116.640129">
        <time>2020-11-26T12:36:08Z</time>
      </trkpt>
      <trkpt lat="39.896247" lon="116.639953">
        <time>2020-11-26T12:36:13Z</time>
      </trkpt>
      <trkpt lat="39.896209" lon="116.639816">
        <time>2020-11-26T12:36:18Z</time>
      </trkpt>
      <trkpt lat="39.896171" lon="116.639648">
        <time>2020-11-26T12:36:23Z</time>
      </trkpt>
      <trkpt lat="39.896141" lon="116.63948">
        <time>2020-11-26T12:36:28Z</time>
      </trkpt>
      <trkpt lat="39.896137" lon="116.639335">
        <time>2020-11-26T12:36:33Z</time>
      </trkpt>
      <trkpt lat="39.896137" lon="116.63919">
        <time>2020-11-26T12:36:38Z</time>
      </trkpt>
      <trkpt lat="39.896129" lon="116.639007">
        <time>2020-11-26T12:36:43Z</time>
      </trkpt>
      <trkpt lat="39.896114" lon="116.638847">
        <time>2020-11-26T12:36:48Z</time>
      </trkpt>
      <trkpt lat="39.89611" lon="116.638717">
        <time>2020-11-26T12:36:53Z</time>
      </trkpt>
      <trkpt lat="39.896137" lon="116.638595">
        <time>2020-11-26T12:36:58Z</time>
      </trkpt>
      <trkpt lat="39.896171" lon="116.638435">
        <time>2020-11-26T12:37:03Z</time>
      </trkpt>
      <trkpt lat="39.896186" lon="116.63829">
        <time>2020-11-26T12:37:08Z</time>
      </trkpt>
      <trkpt lat="39.89619" lon="116.638153">
        <time>2020-11-26T12:37:13Z</time>
      </trkpt>
      <trkpt lat="39.896183" lon="116.637985">
        <time>2020-11-26T12:37:18Z</time>
      </trkpt>
      <trkpt lat="39.896163" lon="116.637809">
        <time>2020-11-26T12:37:23Z</time>
      </trkpt>
      <trkpt lat="39.896156" lon="116.637664">
        <time>2020-11-26T12:37:28Z</time>
      </trkpt>
      <trkpt lat="39.896163" lon="116.637527">
        <time>2020-11-26T12:37:33Z</time>
      </trkpt>
      <trkpt lat="39.896171" lon="116.637367">
        <time>2020-11-26T12:37:38Z</time>
      </trkpt>
      <trkpt lat="39.896163" lon="116.637229">
        <time>2020-11-26T12:37:43Z</time>
      </trkpt>
      <trkpt lat="39.89616" lon="116.6371">
        <time>2020-11-26T12:37:48Z</time>
      </trkpt>
      <trkpt lat="39.896163" lon="116.636947">
        <time>2020-11-26T12:37:53Z</time>
      </trkpt>
      <trkpt lat="39.896198" lon="116.636863">
        <time>2020-11-26T12:37:58Z</time>
      </trkpt>
      <trkpt lat="39.896251" lon="116.63694">
        <time>2020-11-26T12:38:03Z</time>
      </trkpt>
      <trkpt lat="39.896286" lon="116.637084">
        <time>2020-11-26T12:38:08Z</time>
      </trkpt>
      <trkpt lat="39.896305" lon="116.637237">
        <time>2020-11-26T12:38:13Z</time>
      </trkpt>
      <trkpt lat="39.896308" lon="116.63739">
        <time>2020-11-26T12:38:18Z</time>
      </trkpt>
      <trkpt lat="39.896301" lon="116.63755">
        <time>2020-11-26T12:38:23Z</time>
      </trkpt>
      <trkpt lat="39.896308" lon="116.637702">
        <time>2020-11-26T12:38:28Z</time>
      </trkpt>
      <trkpt lat="39.896324" lon="116.637863">
        <time>2020-11-26T12:38:33Z</time>
      </trkpt>
      <trkpt lat="39.896331" lon="116.638023">
        <time>2020-11-26T12:38:38Z</time>
      </trkpt>
      <trkpt lat="39.896354" lon="116.638183">
        <time>2020-11-26T12:38:43Z</time>
      </trkpt>
      <trkpt lat="39.896392" lon="116.638336">
        <time>2020-11-26T12:38:48Z</time>
      </trkpt>
      <trkpt lat="39.896419" lon="116.638488">
        <time>2020-11-26T12:38:53Z</time>
      </trkpt>
      <trkpt lat="39.89643" lon="116.638656">
        <time>2020-11-26T12:38:58Z</time>
      </trkpt>
      <trkpt lat="39.896434" lon="116.638824">
        <time>2020-11-26T12:39:03Z</time>
      </trkpt>
      <trkpt lat="39.896438" lon="116.639007">
        <time>2020-11-26T12:39:08Z</time>
      </trkpt>
      <trkpt lat="39.896465" lon="116.639175">
        <time>2020-11-26T12:39:13Z</time>
      </trkpt>
      <trkpt lat="39.896492" lon="116.639335">
        <time>2020-11-26T12:39:18Z</time>
      </trkpt>
      <trkpt lat="39.896499" lon="116.639564">
        <time>2020-11-26T12:39:23Z</time>
      </trkpt>
      <trkpt lat="39.896511" lon="116.639801">
        <time>2020-11-26T12:39:28Z</time>
      </trkpt>
      <trkpt lat="39.89653" lon="116.639976">
        <time>2020-11-26T12:39:33Z</time>
      </trkpt>
      <trkpt lat="39.896537" lon="116.640129">
        <time>2020-11-26T12:39:38Z</time>
      </trkpt>
      <trkpt lat="39.896526" lon="116.640289">
        <time>2020-11-26T12:39:43Z</time>
      </trkpt>
      <trkpt lat="39.896514" lon="116.640434">
        <time>2020-11-26T12:39:48Z</time>
      </trkpt>
      <trkpt lat="39.896518" lon="116.640594">
        <time>2020-11-26T12:39:53Z</time>
      </trkpt>
      <trkpt lat="39.896526" lon="116.640747">
        <time>2020-11-26T12:39:58Z</time>
      </trkpt>
      <trkpt lat="39.896507" lon="116.640884">
        <time>2020-11-26T12:40:03Z</time>
      </trkpt>
      <trkpt lat="39.896472" lon="116.640991">
        <time>2020-11-26T12:40:08Z</time>
      </trkpt>
      <trkpt lat="39.896457" lon="116.641098">
        <time>2020-11-26T12:40:13Z</time>
      </trkpt>
      <trkpt lat="39.896457" lon="116.641212">
        <time>2020-11-26T12:40:18Z</time>
      </trkpt>
      <trkpt lat="39.896465" lon="116.641365">
        <time>2020-11-26T12:40:23Z</time>
      </trkpt>
      <trkpt lat="39.896457" lon="116.641502">
        <time>2020-11-26T12:40:28Z</time>
      </trkpt>
      <trkpt lat="39.896446" lon="116.641662">
        <time>2020-11-26T12:40:33Z</time>
      </trkpt>
      <trkpt lat="39.89643" lon="116.641845">
        <time>2020-11-26T12:40:38Z</time>
      </trkpt>
      <trkpt lat="39.89643" lon="116.642013">
        <time>2020-11-26T12:40:43Z</time>
      </trkpt>
      <trkpt lat="39.896438" lon="116.642189">
        <time>2020-11-26T12:40:48Z</time>
      </trkpt>
      <trkpt lat="39.896446" lon="116.642356">
        <time>2020-11-26T12:40:53Z</time>
      </trkpt>
      <trkpt lat="39.896438" lon="116.642524">
        <time>2020-11-26T12:40:58Z</time>
      </trkpt>
      <trkpt lat="39.896419" lon="116.642684">
        <time>2020-11-26T12:41:03Z</time>
      </trkpt>
      <trkpt lat="39.896411" lon="116.64286">
        <time>2020-11-26T12:41:08Z</time>
      </trkpt>
      <trkpt lat="39.896404" lon="116.64302">
        <time>2020-11-26T12:41:13Z</time>
      </trkpt>
      <trkpt lat="39.896373" lon="116.643188">
        <time>2020-11-26T12:41:18Z</time>
      </trkpt>
      <trkpt lat="39.89635" lon="116.643356">
        <time>2020-11-26T12:41:23Z</time>
      </trkpt>
      <trkpt lat="39.896366" lon="116.643531">
        <time>2020-11-26T12:41:28Z</time>
      </trkpt>
      <trkpt lat="39.896392" lon="116.643692">
        <time>2020-11-26T12:41:33Z</time>
      </trkpt>
      <trkpt lat="39.896408" lon="116.643836">
        <time>2020-11-26T12:41:38Z</time>
      </trkpt>
      <trkpt lat="39.896411" lon="116.643997">
        <time>2020-11-26T12:41:43Z</time>
      </trkpt>
      <trkpt lat="39.896419" lon="116.644157">
        <time>2020-11-26T12:41:48Z</time>
      </trkpt>
      <trkpt lat="39.896442" lon="116.644332">
        <time>2020-11-26T12:41:53Z</time>
      </trkpt>
      <trkpt lat="39.896461" lon="116.6445">
        <time>2020-11-26T12:41:58Z</time>
      </trkpt>
      <trkpt lat="39.896457" lon="116.644653">
        <time>2020-11-26T12:42:03Z</time>
      </trkpt>
      <trkpt lat="39.896438" lon="116.644798">
        <time>2020-11-26T12:42:08Z</time>
      </trkpt>
      <trkpt lat="39.896415" lon="116.64495">
        <time>2020-11-26T12:42:13Z</time>
      </trkpt>
      <trkpt lat="39.896385" lon="116.645095">
        <time>2020-11-26T12:42:18Z</time>
      </trkpt>
      <trkpt lat="39.896358" lon="116.645256">
        <time>2020-11-26T12:42:23Z</time>
      </trkpt>
      <trkpt lat="39.896331" lon="116.645431">
        <time>2020-11-26T12:42:28Z</time>
      </trkpt>
      <trkpt lat="39.896305" lon="116.645591">
        <time>2020-11-26T12:42:33Z</time>
      </trkpt>
      <trkpt lat="39.896274" lon="116.645729">
        <time>2020-11-26T12:42:38Z</time>
      </trkpt>
      <trkpt lat="39.89624" lon="116.645874">
        <time>2020-11-26T12:42:43Z</time>
      </trkpt>
      <trkpt lat="39.896217" lon="116.646018">
        <time>2020-11-26T12:42:48Z</time>
      </trkpt>
      <trkpt lat="39.896198" lon="116.646133">
        <time>2020-11-26T12:42:53Z</time>
      </trkpt>
      <trkpt lat="39.89619" lon="116.64624">
        <time>2020-11-26T12:42:58Z</time>
      </trkpt>
      <trkpt lat="39.896183" lon="116.646369">
        <time>2020-11-26T12:43:03Z</time>
      </trkpt>
      <trkpt lat="39.896167" lon="116.646514">
        <time>2020-11-26T12:43:08Z</time>
      </trkpt>
      <trkpt lat="39.896144" lon="116.646667">
        <time>2020-11-26T12:43:13Z</time>
      </trkpt>
      <trkpt lat="39.896072" lon="116.646751">
        <time>2020-11-26T12:43:18Z</time>
      </trkpt>
      <trkpt lat="39.895969" lon="116.646759">
        <time>2020-11-26T12:43:23Z</time>
      </trkpt>
      <trkpt lat="39.895881" lon="116.646743">
        <time>2020-11-26T12:43:28Z</time>
      </trkpt>
      <trkpt lat="39.89579" lon="116.64672">
        <time>2020-11-26T12:43:33Z</time>
      </trkpt>
      <trkpt lat="39.895702" lon="116.64669">
        <time>2020-11-26T12:43:38Z</time>
      </trkpt>
      <trkpt lat="39.895622" lon="116.646644">
        <time>2020-11-26T12:43:43Z</time>
      </trkpt>
      <trkpt lat="39.895526" lon="116.646591">
        <time>2020-11-26T12:43:48Z</time>
      </trkpt>
      <trkpt lat="39.895427" lon="116.64653">
        <time>2020-11-26T12:43:53Z</time>
      </trkpt>
      <trkpt lat="39.895313" lon="116.646484">
        <time>2020-11-26T12:43:58Z</time>
      </trkpt>
      <trkpt lat="39.895191" lon="116.64643">
        <time>2020-11-26T12:44:03Z</time>
      </trkpt>
      <trkpt lat="39.895099" lon="116.646369">
        <time>2020-11-26T12:44:08Z</time>
      </trkpt>
      <trkpt lat="39.895023" lon="116.646316">
        <time>2020-11-26T12:44:13Z</time>
      </trkpt>
      <trkpt lat="39.89492" lon="116.64627">
        <time>2020-11-26T12:44:18Z</time>
      </trkpt>
      <trkpt lat="39.894809" lon="116.646232">
        <time>2020-11-26T12:44:23Z</time>
      </trkpt>
      <trkpt lat="39.894702" lon="116.646179">
        <time>2020-11-26T12:44:28Z</time>
      </trkpt>
      <trkpt lat="39.894603" lon="116.64611">
        <time>2020-11-26T12:44:33Z</time>
      </trkpt>
      <trkpt lat="39.894489" lon="116.64608">
        <time>2020-11-26T12:44:38Z</time>
      </trkpt>
      <trkpt lat="39.894367" lon="116.646049">
        <time>2020-11-26T12:44:43Z</time>
      </trkpt>
      <trkpt lat="39.894245" lon="116.645996">
        <time>2020-11-26T12:44:48Z</time>
      </trkpt>
      <trkpt lat="39.894142" lon="116.645965">
        <time>2020-11-26T12:44:53Z</time>
      </trkpt>
      <trkpt lat="39.894081" lon="116.646018">
        <time>2020-11-26T12:44:58Z</time>
      </trkpt>
      <trkpt lat="39.894039" lon="116.646133">
        <time>2020-11-26T12:45:03Z</time>
      </trkpt>
      <trkpt lat="39.893997" lon="116.646232">
        <time>2020-11-26T12:45:08Z</time>
      </trkpt>
      <trkpt lat="39.89392" lon="116.646293">
        <time>2020-11-26T12:45:13Z</time>
      </trkpt>
      <trkpt lat="39.893795" lon="116.646316">
        <time>2020-11-26T12:45:18Z</time>
      </trkpt>
      <trkpt lat="39.89363" lon="116.646286">
        <time>2020-11-26T12:45:23Z</time>
      </trkpt>
      <trkpt lat="39.893505" lon="116.646217">
        <time>2020-11-26T12:45:28Z</time>
      </trkpt>
      <trkpt lat="39.893409" lon="116.646163">
        <time>2020-11-26T12:45:33Z</time>
      </trkpt>
      <trkpt lat="39.89328" lon="116.646133">
        <time>2020-11-26T12:45:38Z</time>
      </trkpt>
      <trkpt lat="39.893123" lon="116.64608">
        <time>2020-11-26T12:45:43Z</time>
      </trkpt>
      <trkpt lat="39.892993" lon="116.646026">
        <time>2020-11-26T12:45:48Z</time>
      </trkpt>
      <trkpt lat="39.89286" lon="116.645996">
        <time>2020-11-26T12:45:53Z</time>
      </trkpt>
      <trkpt lat="39.892734" lon="116.645965">
        <time>2020-11-26T12:45:58Z</time>
      </trkpt>
      <trkpt lat="39.892612" lon="116.645919">
        <time>2020-11-26T12:46:03Z</time>
      </trkpt>
      <trkpt lat="39.892482" lon="116.645874">
        <time>2020-11-26T12:46:08Z</time>
      </trkpt>
      <trkpt lat="39.89236" lon="116.645835">
        <time>2020-11-26T12:46:13Z</time>
      </trkpt>
      <trkpt lat="39.892246" lon="116.645782">
        <time>2020-11-26T12:46:18Z</time>
      </trkpt>
      <trkpt lat="39.892131" lon="116.645729">
        <time>2020-11-26T12:46:23Z</time>
      </trkpt>
      <trkpt lat="39.892002" lon="116.645683">
        <time>2020-11-26T12:46:28Z</time>
      </trkpt>
      <trkpt lat="39.891864" lon="116.645622">
        <time>2020-11-26T12:46:33Z</time>
      </trkpt>
      <trkpt lat="39.89175" lon="116.645515">
        <time>2020-11-26T12:46:38Z</time>
      </trkpt>
      <trkpt lat="39.891696" lon="116.645431">
        <time>2020-11-26T12:46:43Z</time>
      </trkpt>
      <trkpt lat="39.891731" lon="116.645378">
        <time>2020-11-26T12:46:48Z</time>
      </trkpt>
      <trkpt lat="39.891788" lon="116.645347">
        <time>2020-11-26T12:46:53Z</time>
      </trkpt>
      <trkpt lat="39.891834" lon="116.645378">
        <time>2020-11-26T12:46:58Z</time>
      </trkpt>
      <trkpt lat="39.891891" lon="116.645439">
        <time>2020-11-26T12:47:03Z</time>
      </trkpt>
      <trkpt lat="39.891956" lon="116.645507">
        <time>2020-11-26T12:47:08Z</time>
      </trkpt>
      <trkpt lat="39.892028" lon="116.645545">
        <time>2020-11-26T12:47:13Z</time>
      </trkpt>
      <trkpt lat="39.892112" lon="116.645591">
        <time>2020-11-26T12:47:18Z</time>
      </trkpt>
      <trkpt lat="39.892223" lon="116.645629">
        <time>2020-11-26T12:47:23Z</time>
      </trkpt>
      <trkpt lat="39.892364" lon="116.64566">
        <time>2020-11-26T12:47:28Z</time>
      </trkpt>
      <trkpt lat="39.892486" lon="116.645706">
        <time>2020-11-26T12:47:33Z</time>
      </trkpt>
      <trkpt lat="39.892612" lon="116.645767">
        <time>2020-11-26T12:47:38Z</time>
      </trkpt>
      <trkpt lat="39.89273" lon="116.645835">
        <time>2020-11-26T12:47:43Z</time>
      </trkpt>
      <trkpt lat="39.892818" lon="116.645912">
        <time>2020-11-26T12:47:48Z</time>
      </trkpt>
      <trkpt lat="39.892913" lon="116.645973">
        <time>2020-11-26T12:47:53Z</time>
      </trkpt>
      <trkpt lat="39.893054" lon="116.646018">
        <time>2020-11-26T12:47:58Z</time>
      </trkpt>
      <trkpt lat="39.893211" lon="116.646034">
        <time>2020-11-26T12:48:03Z</time>
      </trkpt>
      <trkpt lat="39.893344" lon="116.646072">
        <time>2020-11-26T12:48:08Z</time>
      </trkpt>
      <trkpt lat="39.89347" lon="116.646125">
        <time>2020-11-26T12:48:13Z</time>
      </trkpt>
      <trkpt lat="39.893592" lon="116.646209">
        <time>2020-11-26T12:48:18Z</time>
      </trkpt>
      <trkpt lat="39.893695" lon="116.646293">
        <time>2020-11-26T12:48:23Z</time>
      </trkpt>
      <trkpt lat="39.893787" lon="116.646339">
        <time>2020-11-26T12:48:28Z</time>
      </trkpt>
      <trkpt lat="39.893882" lon="116.64627">
        <time>2020-11-26T12:48:33Z</time>
      </trkpt>
      <trkpt lat="39.893974" lon="116.646179">
        <time>2020-11-26T12:48:38Z</time>
      </trkpt>
      <trkpt lat="39.894058" lon="116.646057">
        <time>2020-11-26T12:48:43Z</time>
      </trkpt>
      <trkpt lat="39.894168" lon="116.645973">
        <time>2020-11-26T12:48:48Z</time>
      </trkpt>
      <trkpt lat="39.894275" lon="116.645965">
        <time>2020-11-26T12:48:53Z</time>
      </trkpt>
      <trkpt lat="39.894371" lon="116.646018">
        <time>2020-11-26T12:48:58Z</time>
      </trkpt>
      <trkpt lat="39.894462" lon="116.646102">
        <time>2020-11-26T12:49:03Z</time>
      </trkpt>
      <trkpt lat="39.89455" lon="116.646179">
        <time>2020-11-26T12:49:08Z</time>
      </trkpt>
      <trkpt lat="39.894653" lon="116.64624">
        <time>2020-11-26T12:49:13Z</time>
      </trkpt>
      <trkpt lat="39.894771" lon="116.646286">
        <time>2020-11-26T12:49:18Z</time>
      </trkpt>
      <trkpt lat="39.894897" lon="116.646339">
        <time>2020-11-26T12:49:23Z</time>
      </trkpt>
      <trkpt lat="39.895034" lon="116.646369">
        <time>2020-11-26T12:49:28Z</time>
      </trkpt>
      <trkpt lat="39.895179" lon="116.646408">
        <time>2020-11-26T12:49:33Z</time>
      </trkpt>
      <trkpt lat="39.895339" lon="116.646453">
        <time>2020-11-26T12:49:38Z</time>
      </trkpt>
      <trkpt lat="39.895507" lon="116.646484">
        <time>2020-11-26T12:49:43Z</time>
      </trkpt>
      <trkpt lat="39.895675" lon="116.64653">
        <time>2020-11-26T12:49:48Z</time>
      </trkpt>
      <trkpt lat="39.895801" lon="116.646591">
        <time>2020-11-26T12:49:53Z</time>
      </trkpt>
      <trkpt lat="39.895919" lon="116.646652">
        <time>2020-11-26T12:49:58Z</time>
      </trkpt>
      <trkpt lat="39.89606" lon="116.646705">
        <time>2020-11-26T12:50:03Z</time>
      </trkpt>
      <trkpt lat="39.896179" lon="116.64672">
        <time>2020-11-26T12:50:08Z</time>
      </trkpt>
      <trkpt lat="39.896244" lon="116.646667">
        <time>2020-11-26T12:50:13Z</time>
      </trkpt>
      <trkpt lat="39.896255" lon="116.64653">
        <time>2020-11-26T12:50:18Z</time>
      </trkpt>
      <trkpt lat="39.896251" lon="116.646347">
        <time>2020-11-26T12:50:23Z</time>
      </trkpt>
      <trkpt lat="39.896251" lon="116.646186">
        <time>2020-11-26T12:50:28Z</time>
      </trkpt>
      <trkpt lat="39.896259" lon="116.646018">
        <time>2020-11-26T12:50:33Z</time>
      </trkpt>
      <trkpt lat="39.896278" lon="116.645835">
        <time>2020-11-26T12:50:38Z</time>
      </trkpt>
      <trkpt lat="39.896305" lon="116.645675">
        <time>2020-11-26T12:50:43Z</time>
      </trkpt>
      <trkpt lat="39.89632" lon="116.645515">
        <time>2020-11-26T12:50:48Z</time>
      </trkpt>
      <trkpt lat="39.896324" lon="116.645355">
        <time>2020-11-26T12:50:53Z</time>
      </trkpt>
      <trkpt lat="39.896316" lon="116.645172">
        <time>2020-11-26T12:50:58Z</time>
      </trkpt>
      <trkpt lat="39.896305" lon="116.644989">
        <time>2020-11-26T12:51:03Z</time>
      </trkpt>
      <trkpt lat="39.896278" lon="116.644821">
        <time>2020-11-26T12:51:08Z</time>
      </trkpt>
      <trkpt lat="39.896244" lon="116.644691">
        <time>2020-11-26T12:51:13Z</time>
      </trkpt>
      <trkpt lat="39.896217" lon="116.644577">
        <time>2020-11-26T12:51:18Z</time>
      </trkpt>
      <trkpt lat="39.896217" lon="116.644447">
        <time>2020-11-26T12:51:23Z</time>
      </trkpt>
      <trkpt lat="39.896228" lon="116.644317">
        <time>2020-11-26T12:51:28Z</time>
      </trkpt>
      <trkpt lat="39.896244" lon="116.644195">
        <time>2020-11-26T12:51:33Z</time>
      </trkpt>
      <trkpt lat="39.896247" lon="116.644073">
        <time>2020-11-26T12:51:38Z</time>
      </trkpt>
      <trkpt lat="39.896263" lon="116.643943">
        <time>2020-11-26T12:51:43Z</time>
      </trkpt>
      <trkpt lat="39.896293" lon="116.643783">
        <time>2020-11-26T12:51:48Z</time>
      </trkpt>
      <trkpt lat="39.896312" lon="116.643638">
        <time>2020-11-26T12:51:53Z</time>
      </trkpt>
      <trkpt lat="39.896324" lon="116.643501">
        <time>2020-11-26T12:51:58Z</time>
      </trkpt>
      <trkpt lat="39.896343" lon="116.643379">
        <time>2020-11-26T12:52:03Z</time>
      </trkpt>
      <trkpt lat="39.89635" lon="116.643241">
        <time>2020-11-26T12:52:08Z</time>
      </trkpt>
      <trkpt lat="39.896343" lon="116.643104">
        <time>2020-11-26T12:52:13Z</time>
      </trkpt>
      <trkpt lat="39.896339" lon="116.642951">
        <time>2020-11-26T12:52:18Z</time>
      </trkpt>
      <trkpt lat="39.896347" lon="116.642791">
        <time>2020-11-26T12:52:23Z</time>
      </trkpt>
      <trkpt lat="39.896347" lon="116.642631">
        <time>2020-11-26T12:52:28Z</time>
      </trkpt>
      <trkpt lat="39.896331" lon="116.642471">
        <time>2020-11-26T12:52:33Z</time>
      </trkpt>
      <trkpt lat="39.896324" lon="116.642326">
        <time>2020-11-26T12:52:38Z</time>
      </trkpt>
      <trkpt lat="39.896327" lon="116.642166">
        <time>2020-11-26T12:52:43Z</time>
      </trkpt>
      <trkpt lat="39.896331" lon="116.642013">
        <time>2020-11-26T12:52:48Z</time>
      </trkpt>
      <trkpt lat="39.896316" lon="116.641876">
        <time>2020-11-26T12:52:53Z</time>
      </trkpt>
      <trkpt lat="39.896297" lon="116.641716">
        <time>2020-11-26T12:52:58Z</time>
      </trkpt>
      <trkpt lat="39.896293" lon="116.641532">
        <time>2020-11-26T12:53:03Z</time>
      </trkpt>
      <trkpt lat="39.896297" lon="116.641334">
        <time>2020-11-26T12:53:08Z</time>
      </trkpt>
      <trkpt lat="39.89632" lon="116.641143">
        <time>2020-11-26T12:53:13Z</time>
      </trkpt>
      <trkpt lat="39.896343" lon="116.640968">
        <time>2020-11-26T12:53:18Z</time>
      </trkpt>
      <trkpt lat="39.896331" lon="116.640823">
        <time>2020-11-26T12:53:23Z</time>
      </trkpt>
      <trkpt lat="39.896297" lon="116.64067">
        <time>2020-11-26T12:53:28Z</time>
      </trkpt>
      <trkpt lat="39.896316" lon="116.64051">
        <time>2020-11-26T12:53:33Z</time>
      </trkpt>
      <trkpt lat="39.896366" lon="116.640327">
        <time>2020-11-26T12:53:38Z</time>
      </trkpt>
      <trkpt lat="39.896389" lon="116.640159">
        <time>2020-11-26T12:53:43Z</time>
      </trkpt>
      <trkpt lat="39.896377" lon="116.640007">
        <time>2020-11-26T12:53:48Z</time>
      </trkpt>
      <trkpt lat="39.89635" lon="116.639862">
        <time>2020-11-26T12:53:53Z</time>
      </trkpt>
      <trkpt lat="39.896331" lon="116.639709">
        <time>2020-11-26T12:53:58Z</time>
      </trkpt>
      <trkpt lat="39.896308" lon="116.639541">
        <time>2020-11-26T12:54:03Z</time>
      </trkpt>
      <trkpt lat="39.89627" lon="116.63935">
        <time>2020-11-26T12:54:08Z</time>
      </trkpt>
      <trkpt lat="39.896247" lon="116.639167">
        <time>2020-11-26T12:54:13Z</time>
      </trkpt>
      <trkpt lat="39.896217" lon="116.639015">
        <time>2020-11-26T12:54:18Z</time>
      </trkpt>
      <trkpt lat="39.896171" lon="116.638877">
        <time>2020-11-26T12:54:23Z</time>
      </trkpt>
      <trkpt lat="39.896118" lon="116.63874">
        <time>2020-11-26T12:54:28Z</time>
      </trkpt>
      <trkpt lat="39.896102" lon="116.638557">
        <time>2020-11-26T12:54:33Z</time>
      </trkpt>
      <trkpt lat="39.896137" lon="116.638359">
        <time>2020-11-26T12:54:38Z</time>
      </trkpt>
      <trkpt lat="39.896186" lon="116.638153">
        <time>2020-11-26T12:54:43Z</time>
      </trkpt>
      <trkpt lat="39.896244" lon="116.637962">
        <time>2020-11-26T12:54:48Z</time>
      </trkpt>
      <trkpt lat="39.89627" lon="116.637756">
        <time>2020-11-26T12:54:53Z</time>
      </trkpt>
      <trkpt lat="39.896266" lon="116.637588">
        <time>2020-11-26T12:54:58Z</time>
      </trkpt>
      <trkpt lat="39.89627" lon="116.637428">
        <time>2020-11-26T12:55:03Z</time>
      </trkpt>
      <trkpt lat="39.896274" lon="116.63726">
        <time>2020-11-26T12:55:08Z</time>
      </trkpt>
      <trkpt lat="39.896266" lon="116.637054">
        <time>2020-11-26T12:55:13Z</time>
      </trkpt>
      <trkpt lat="39.896263" lon="116.636871">
        <time>2020-11-26T12:55:18Z</time>
      </trkpt>
      <trkpt lat="39.896236" lon="116.636734">
        <time>2020-11-26T12:55:23Z</time>
      </trkpt>
      <trkpt lat="39.896175" lon="116.63665">
        <time>2020-11-26T12:55:28Z</time>
      </trkpt>
      <trkpt lat="39.896129" lon="116.636566">
        <time>2020-11-26T12:55:33Z</time>
      </trkpt>
      <trkpt lat="39.89616" lon="116.636459">
        <time>2020-11-26T12:55:38Z</time>
      </trkpt>
      <trkpt lat="39.896259" lon="116.636344">
        <time>2020-11-26T12:55:43Z</time>
      </trkpt>
      <trkpt lat="39.89635" lon="116.636222">
        <time>2020-11-26T12:55:48Z</time>
      </trkpt>
      <trkpt lat="39.896438" lon="116.636093">
        <time>2020-11-26T12:55:53Z</time>
      </trkpt>
      <trkpt lat="39.896533" lon="116.636009">
        <time>2020-11-26T12:55:58Z</time>
      </trkpt>
      <trkpt lat="39.896617" lon="116.635955">
        <time>2020-11-26T12:56:03Z</time>
      </trkpt>
      <trkpt lat="39.896728" lon="116.635879">
        <time>2020-11-26T12:56:08Z</time>
      </trkpt>
      <trkpt lat="39.896858" lon="116.635772">
        <time>2020-11-26T12:56:13Z</time>
      </trkpt>
      <trkpt lat="39.897003" lon="116.635681">
        <time>2020-11-26T12:56:18Z</time>
      </trkpt>
      <trkpt lat="39.897148" lon="116.635604">
        <time>2020-11-26T12:56:23Z</time>
      </trkpt>
      <trkpt lat="39.897281" lon="116.635505">
        <time>2020-11-26T12:56:28Z</time>
      </trkpt>
      <trkpt lat="39.897403" lon="116.635398">
        <time>2020-11-26T12:56:33Z</time>
      </trkpt>
      <trkpt lat="39.89751" lon="116.635307">
        <time>2020-11-26T12:56:38Z</time>
      </trkpt>
      <trkpt lat="39.897609" lon="116.635246">
        <time>2020-11-26T12:56:43Z</time>
      </trkpt>
      <trkpt lat="39.897724" lon="116.635169">
        <time>2020-11-26T12:56:48Z</time>
      </trkpt>
      <trkpt lat="39.897842" lon="116.635063">
        <time>2020-11-26T12:56:53Z</time>
      </trkpt>
      <trkpt lat="39.89796" lon="116.634986">
        <time>2020-11-26T12:56:58Z</time>
      </trkpt>
      <trkpt lat="39.898052" lon="116.634941">
        <time>2020-11-26T12:57:03Z</time>
      </trkpt>
      <trkpt lat="39.898136" lon="116.63491">
        <time>2020-11-26T12:57:08Z</time>
      </trkpt>
      <trkpt lat="39.898235" lon="116.634857">
        <time>2020-11-26T12:57:13Z</time>
      </trkpt>
      <trkpt lat="39.898353" lon="116.634773">
        <time>2020-11-26T12:57:18Z</time>
      </trkpt>
      <trkpt lat="39.898479" lon="116.634689">
        <time>2020-11-26T12:57:23Z</time>
      </trkpt>
      <trkpt lat="39.898601" lon="116.63462">
        <time>2020-11-26T12:57:28Z</time>
      </trkpt>
      <trkpt lat="39.898723" lon="116.634559">
        <time>2020-11-26T12:57:33Z</time>
      </trkpt>
      <trkpt lat="39.898857" lon="116.634506">
        <time>2020-11-26T12:57:38Z</time>
      </trkpt>
      <trkpt lat="39.898979" lon="116.634452">
        <time>2020-11-26T12:57:43Z</time>
      </trkpt>
      <trkpt lat="39.899085" lon="116.634399">
        <time>2020-11-26T12:57:48Z</time>
      </trkpt>
      <trkpt lat="39.899192" lon="116.634338">
        <time>2020-11-26T12:57:53Z</time>
      </trkpt>
      <trkpt lat="39.899311" lon="116.634262">
        <time>2020-11-26T12:57:58Z</time>
      </trkpt>
      <trkpt lat="39.899436" lon="116.634208">
        <time>2020-11-26T12:58:03Z</time>
      </trkpt>
      <trkpt lat="39.899566" lon="116.634132">
        <time>2020-11-26T12:58:08Z</time>
      </trkpt>
      <trkpt lat="39.899692" lon="116.63404">
        <time>2020-11-26T12:58:13Z</time>
      </trkpt>
      <trkpt lat="39.89981" lon="116.633964">
        <time>2020-11-26T12:58:18Z</time>
      </trkpt>
      <trkpt lat="39.899936" lon="116.633941">
        <time>2020-11-26T12:58:23Z</time>
      </trkpt>
      <trkpt lat="39.900062" lon="116.633895">
        <time>2020-11-26T12:58:28Z</time>
      </trkpt>
      <trkpt lat="39.900184" lon="116.633827">
        <time>2020-11-26T12:58:33Z</time>
      </trkpt>
      <trkpt lat="39.900279" lon="116.633758">
        <time>2020-11-26T12:58:38Z</time>
      </trkpt>
      <trkpt lat="39.900344" lon="116.633697">
        <time>2020-11-26T12:58:43Z</time>
      </trkpt>
      <trkpt lat="39.900386" lon="116.633651">
        <time>2020-11-26T12:58:48Z</time>
      </trkpt>
      <trkpt lat="39.900428" lon="116.633598">
        <time>2020-11-26T12:58:53Z</time>
      </trkpt>
      <trkpt lat="39.900466" lon="116.633567">
        <time>2020-11-26T12:58:58Z</time>
      </trkpt>
      <trkpt lat="39.900524" lon="116.633544">
        <time>2020-11-26T12:59:03Z</time>
      </trkpt>
      <trkpt lat="39.900577" lon="116.633537">
        <time>2020-11-26T12:59:08Z</time>
      </trkpt>
      <trkpt lat="39.900558" lon="116.63356">
        <time>2020-11-26T12:59:13Z</time>
      </trkpt>
      <trkpt lat="39.900505" lon="116.63359">
        <time>2020-11-26T12:59:18Z</time>
      </trkpt>
      <trkpt lat="39.900436" lon="116.633628">
        <time>2020-11-26T12:59:23Z</time>
      </trkpt>
      <trkpt lat="39.900363" lon="116.633682">
        <time>2020-11-26T12:59:28Z</time>
      </trkpt>
      <trkpt lat="39.900272" lon="116.633758">
        <time>2020-11-26T12:59:33Z</time>
      </trkpt>
      <trkpt lat="39.900173" lon="116.633842">
        <time>2020-11-26T12:59:38Z</time>
      </trkpt>
      <trkpt lat="39.900074" lon="116.633911">
        <time>2020-11-26T12:59:43Z</time>
      </trkpt>
      <trkpt lat="39.899967" lon="116.633972">
        <time>2020-11-26T12:59:48Z</time>
      </trkpt>
      <trkpt lat="39.899868" lon="116.634025">
        <time>2020-11-26T12:59:53Z</time>
      </trkpt>
      <trkpt lat="39.89978" lon="116.634094">
        <time>2020-11-26T12:59:58Z</time>
      </trkpt>
      <trkpt lat="39.899692" lon="116.634162">
        <time>2020-11-26T13:00:03Z</time>
      </trkpt>
      <trkpt lat="39.899589" lon="116.634231">
        <time>2020-11-26T13:00:08Z</time>
      </trkpt>
      <trkpt lat="39.899471" lon="116.634269">
        <time>2020-11-26T13:00:13Z</time>
      </trkpt>
      <trkpt lat="39.899356" lon="116.634323">
        <time>2020-11-26T13:00:18Z</time>
      </trkpt>
      <trkpt lat="39.899257" lon="116.634391">
        <time>2020-11-26T13:00:23Z</time>
      </trkpt>
      <trkpt lat="39.89915" lon="116.63446">
        <time>2020-11-26T13:00:28Z</time>
      </trkpt>
      <trkpt lat="39.899024" lon="116.634529">
        <time>2020-11-26T13:00:33Z</time>
      </trkpt>
      <trkpt lat="39.898902" lon="116.63459">
        <time>2020-11-26T13:00:38Z</time>
      </trkpt>
      <trkpt lat="39.898811" lon="116.634666">
        <time>2020-11-26T13:00:43Z</time>
      </trkpt>
      <trkpt lat="39.898735" lon="116.634719">
        <time>2020-11-26T13:00:48Z</time>
      </trkpt>
      <trkpt lat="39.898662" lon="116.634765">
        <time>2020-11-26T13:00:53Z</time>
      </trkpt>
      <trkpt lat="39.898593" lon="116.634803">
        <time>2020-11-26T13:00:58Z</time>
      </trkpt>
      <trkpt lat="39.898513" lon="116.634849">
        <time>2020-11-26T13:01:03Z</time>
      </trkpt>
      <trkpt lat="39.898441" lon="116.634872">
        <time>2020-11-26T13:01:08Z</time>
      </trkpt>
      <trkpt lat="39.898406" lon="116.634849">
        <time>2020-11-26T13:01:13Z</time>
      </trkpt>
      <trkpt lat="39.898368" lon="116.634819">
        <time>2020-11-26T13:01:18Z</time>
      </trkpt>
      <trkpt lat="39.898326" lon="116.63475">
        <time>2020-11-26T13:01:23Z</time>
      </trkpt>
      <trkpt lat="39.898296" lon="116.634643">
        <time>2020-11-26T13:01:28Z</time>
      </trkpt>
      <trkpt lat="39.898281" lon="116.634552">
        <time>2020-11-26T13:01:33Z</time>
      </trkpt>
      <trkpt lat="39.898277" lon="116.634483">
        <time>2020-11-26T13:01:38Z</time>
      </trkpt>
      <trkpt lat="39.898258" lon="116.634407">
        <time>2020-11-26T13:01:43Z</time>
      </trkpt>
      <trkpt lat="39.898239" lon="116.634323">
        <time>2020-11-26T13:01:48Z</time>
      </trkpt>
      <trkpt lat="39.898212" lon="116.634239">
        <time>2020-11-26T13:01:53Z</time>
      </trkpt>
      <trkpt lat="39.898185" lon="116.634178">
        <time>2020-11-26T13:01:58Z</time>
      </trkpt>
      <trkpt lat="39.898128" lon="116.634109">
        <time>2020-11-26T13:02:03Z</time>
      </trkpt>
      <trkpt lat="39.898036" lon="116.63404">
        <time>2020-11-26T13:02:08Z</time>
      </trkpt>
      <trkpt lat="39.897926" lon="116.633987">
        <time>2020-11-26T13:02:13Z</time>
      </trkpt>
      <trkpt lat="39.897808" lon="116.633918">
        <time>2020-11-26T13:02:18Z</time>
      </trkpt>
      <trkpt lat="39.897712" lon="116.63388">
        <time>2020-11-26T13:02:23Z</time>
      </trkpt>
      <trkpt lat="39.897659" lon="116.633842">
        <time>2020-11-26T13:02:28Z</time>
      </trkpt>
      <trkpt lat="39.897617" lon="116.633811">
        <time>2020-11-26T13:02:33Z</time>
      </trkpt>
      <trkpt lat="39.897529" lon="116.633804">
        <time>2020-11-26T13:02:38Z</time>
      </trkpt>
      <trkpt lat="39.897438" lon="116.633834">
        <time>2020-11-26T13:02:43Z</time>
      </trkpt>
      <trkpt lat="39.897403" lon="116.633941">
        <time>2020-11-26T13:02:48Z</time>
      </trkpt>
      <trkpt lat="39.897483" lon="116.634178">
        <time>2020-11-26T13:07:23Z</time>
      </trkpt>
    </trkseg>
  </trk>
</gpx>