<?xml version="1.0" encoding="UTF-8"?>
<gpx xmlns="http://www.topografix.com/GPX/1/1" xmlns:gpxtpx="http://www.garmin.com/xmlschemas/TrackPointExtension/v1" xmlns:xsi="http://www.w3.org/2001/XMLSchema-instance" xsi:schemaLocation="http://www.topografix.com/GPX/1/1 http://www.topografix.com/GPX/1/1/gpx.xsd" version="1.1" creator="gpx.py -- https://github.com/tkrajina/gpxpy">
  <trk>
    <name>gpx from keep</name>
    <trkseg>
      <trkpt lat="39.895942" lon="116.636863">
        <time>2020-12-04T12:19:42Z</time>
      </trkpt>
      <trkpt lat="39.895957" lon="116.636863">
        <time>2020-12-04T12:19:47Z</time>
      </trkpt>
      <trkpt lat="39.895988" lon="116.636871">
        <time>2020-12-04T12:19:52Z</time>
      </trkpt>
      <trkpt lat="39.896068" lon="116.636917">
        <time>2020-12-04T12:19:57Z</time>
      </trkpt>
      <trkpt lat="39.896163" lon="116.637016">
        <time>2020-12-04T12:20:02Z</time>
      </trkpt>
      <trkpt lat="39.896274" lon="116.637123">
        <time>2020-12-04T12:20:07Z</time>
      </trkpt>
      <trkpt lat="39.896366" lon="116.637237">
        <time>2020-12-04T12:20:12Z</time>
      </trkpt>
      <trkpt lat="39.896415" lon="116.637367">
        <time>2020-12-04T12:20:17Z</time>
      </trkpt>
      <trkpt lat="39.896446" lon="116.637504">
        <time>2020-12-04T12:20:22Z</time>
      </trkpt>
      <trkpt lat="39.896469" lon="116.637649">
        <time>2020-12-04T12:20:27Z</time>
      </trkpt>
      <trkpt lat="39.896469" lon="116.637794">
        <time>2020-12-04T12:20:32Z</time>
      </trkpt>
      <trkpt lat="39.896465" lon="116.637939">
        <time>2020-12-04T12:20:37Z</time>
      </trkpt>
      <trkpt lat="39.896457" lon="116.638076">
        <time>2020-12-04T12:20:42Z</time>
      </trkpt>
      <trkpt lat="39.89645" lon="116.638206">
        <time>2020-12-04T12:20:47Z</time>
      </trkpt>
      <trkpt lat="39.896446" lon="116.638336">
        <time>2020-12-04T12:20:52Z</time>
      </trkpt>
      <trkpt lat="39.896446" lon="116.638473">
        <time>2020-12-04T12:20:57Z</time>
      </trkpt>
      <trkpt lat="39.896446" lon="116.638626">
        <time>2020-12-04T12:21:02Z</time>
      </trkpt>
      <trkpt lat="39.896457" lon="116.638786">
        <time>2020-12-04T12:21:07Z</time>
      </trkpt>
      <trkpt lat="39.896472" lon="116.638923">
        <time>2020-12-04T12:21:12Z</time>
      </trkpt>
      <trkpt lat="39.896484" lon="116.639068">
        <time>2020-12-04T12:21:17Z</time>
      </trkpt>
      <trkpt lat="39.896476" lon="116.639213">
        <time>2020-12-04T12:21:22Z</time>
      </trkpt>
      <trkpt lat="39.896472" lon="116.639358">
        <time>2020-12-04T12:21:27Z</time>
      </trkpt>
      <trkpt lat="39.896469" lon="116.639511">
        <time>2020-12-04T12:21:32Z</time>
      </trkpt>
      <trkpt lat="39.896469" lon="116.639656">
        <time>2020-12-04T12:21:37Z</time>
      </trkpt>
      <trkpt lat="39.896465" lon="116.639801">
        <time>2020-12-04T12:21:42Z</time>
      </trkpt>
      <trkpt lat="39.896457" lon="116.639938">
        <time>2020-12-04T12:21:47Z</time>
      </trkpt>
      <trkpt lat="39.896446" lon="116.640098">
        <time>2020-12-04T12:21:52Z</time>
      </trkpt>
      <trkpt lat="39.896434" lon="116.640266">
        <time>2020-12-04T12:21:57Z</time>
      </trkpt>
      <trkpt lat="39.896419" lon="116.640434">
        <time>2020-12-04T12:22:02Z</time>
      </trkpt>
      <trkpt lat="39.896423" lon="116.640617">
        <time>2020-12-04T12:22:07Z</time>
      </trkpt>
      <trkpt lat="39.896442" lon="116.640808">
        <time>2020-12-04T12:22:12Z</time>
      </trkpt>
      <trkpt lat="39.896442" lon="116.640983">
        <time>2020-12-04T12:22:17Z</time>
      </trkpt>
      <trkpt lat="39.896419" lon="116.641128">
        <time>2020-12-04T12:22:22Z</time>
      </trkpt>
      <trkpt lat="39.896392" lon="116.641281">
        <time>2020-12-04T12:22:27Z</time>
      </trkpt>
      <trkpt lat="39.896366" lon="116.641418">
        <time>2020-12-04T12:22:32Z</time>
      </trkpt>
      <trkpt lat="39.896362" lon="116.641571">
        <time>2020-12-04T12:22:37Z</time>
      </trkpt>
      <trkpt lat="39.896377" lon="116.641746">
        <time>2020-12-04T12:22:42Z</time>
      </trkpt>
      <trkpt lat="39.896389" lon="116.641944">
        <time>2020-12-04T12:22:47Z</time>
      </trkpt>
      <trkpt lat="39.896389" lon="116.642112">
        <time>2020-12-04T12:22:52Z</time>
      </trkpt>
      <trkpt lat="39.896389" lon="116.64225">
        <time>2020-12-04T12:22:57Z</time>
      </trkpt>
      <trkpt lat="39.896377" lon="116.642456">
        <time>2020-12-04T12:23:02Z</time>
      </trkpt>
      <trkpt lat="39.896358" lon="116.642616">
        <time>2020-12-04T12:23:07Z</time>
      </trkpt>
      <trkpt lat="39.89635" lon="116.642761">
        <time>2020-12-04T12:23:12Z</time>
      </trkpt>
      <trkpt lat="39.896347" lon="116.642913">
        <time>2020-12-04T12:23:17Z</time>
      </trkpt>
      <trkpt lat="39.89632" lon="116.643058">
        <time>2020-12-04T12:23:22Z</time>
      </trkpt>
      <trkpt lat="39.896297" lon="116.643211">
        <time>2020-12-04T12:23:27Z</time>
      </trkpt>
      <trkpt lat="39.896297" lon="116.643371">
        <time>2020-12-04T12:23:32Z</time>
      </trkpt>
      <trkpt lat="39.896316" lon="116.643531">
        <time>2020-12-04T12:23:37Z</time>
      </trkpt>
      <trkpt lat="39.896327" lon="116.643676">
        <time>2020-12-04T12:23:42Z</time>
      </trkpt>
      <trkpt lat="39.89632" lon="116.643836">
        <time>2020-12-04T12:23:47Z</time>
      </trkpt>
      <trkpt lat="39.896305" lon="116.643997">
        <time>2020-12-04T12:23:52Z</time>
      </trkpt>
      <trkpt lat="39.896305" lon="116.644172">
        <time>2020-12-04T12:23:57Z</time>
      </trkpt>
      <trkpt lat="39.896316" lon="116.644355">
        <time>2020-12-04T12:24:02Z</time>
      </trkpt>
      <trkpt lat="39.896335" lon="116.644523">
        <time>2020-12-04T12:24:07Z</time>
      </trkpt>
      <trkpt lat="39.896354" lon="116.644683">
        <time>2020-12-04T12:24:12Z</time>
      </trkpt>
      <trkpt lat="39.896358" lon="116.644828">
        <time>2020-12-04T12:24:17Z</time>
      </trkpt>
      <trkpt lat="39.896343" lon="116.644973">
        <time>2020-12-04T12:24:22Z</time>
      </trkpt>
      <trkpt lat="39.896316" lon="116.645111">
        <time>2020-12-04T12:24:27Z</time>
      </trkpt>
      <trkpt lat="39.896289" lon="116.645256">
        <time>2020-12-04T12:24:32Z</time>
      </trkpt>
      <trkpt lat="39.896259" lon="116.645408">
        <time>2020-12-04T12:24:37Z</time>
      </trkpt>
      <trkpt lat="39.896221" lon="116.645553">
        <time>2020-12-04T12:24:42Z</time>
      </trkpt>
      <trkpt lat="39.896175" lon="116.645713">
        <time>2020-12-04T12:24:47Z</time>
      </trkpt>
      <trkpt lat="39.896137" lon="116.645874">
        <time>2020-12-04T12:24:52Z</time>
      </trkpt>
      <trkpt lat="39.896121" lon="116.646049">
        <time>2020-12-04T12:24:57Z</time>
      </trkpt>
      <trkpt lat="39.896106" lon="116.646209">
        <time>2020-12-04T12:25:02Z</time>
      </trkpt>
      <trkpt lat="39.896072" lon="116.646377">
        <time>2020-12-04T12:25:07Z</time>
      </trkpt>
      <trkpt lat="39.89603" lon="116.646537">
        <time>2020-12-04T12:25:12Z</time>
      </trkpt>
      <trkpt lat="39.89595" lon="116.646644">
        <time>2020-12-04T12:25:17Z</time>
      </trkpt>
      <trkpt lat="39.895843" lon="116.646652">
        <time>2020-12-04T12:25:22Z</time>
      </trkpt>
      <trkpt lat="39.895713" lon="116.646621">
        <time>2020-12-04T12:25:27Z</time>
      </trkpt>
      <trkpt lat="39.895584" lon="116.646583">
        <time>2020-12-04T12:25:32Z</time>
      </trkpt>
      <trkpt lat="39.895477" lon="116.646537">
        <time>2020-12-04T12:25:37Z</time>
      </trkpt>
      <trkpt lat="39.89537" lon="116.646484">
        <time>2020-12-04T12:25:42Z</time>
      </trkpt>
      <trkpt lat="39.895252" lon="116.646453">
        <time>2020-12-04T12:25:47Z</time>
      </trkpt>
      <trkpt lat="39.895137" lon="116.646423">
        <time>2020-12-04T12:25:52Z</time>
      </trkpt>
      <trkpt lat="39.895042" lon="116.646354">
        <time>2020-12-04T12:25:57Z</time>
      </trkpt>
      <trkpt lat="39.89492" lon="116.646324">
        <time>2020-12-04T12:26:02Z</time>
      </trkpt>
      <trkpt lat="39.894744" lon="116.646369">
        <time>2020-12-04T12:26:07Z</time>
      </trkpt>
      <trkpt lat="39.894599" lon="116.646369">
        <time>2020-12-04T12:26:12Z</time>
      </trkpt>
      <trkpt lat="39.8945" lon="116.646301">
        <time>2020-12-04T12:26:17Z</time>
      </trkpt>
      <trkpt lat="39.894401" lon="116.646217">
        <time>2020-12-04T12:26:22Z</time>
      </trkpt>
      <trkpt lat="39.894302" lon="116.646133">
        <time>2020-12-04T12:26:27Z</time>
      </trkpt>
      <trkpt lat="39.894191" lon="116.646049">
        <time>2020-12-04T12:26:32Z</time>
      </trkpt>
      <trkpt lat="39.894058" lon="116.646003">
        <time>2020-12-04T12:26:37Z</time>
      </trkpt>
      <trkpt lat="39.893943" lon="116.64598">
        <time>2020-12-04T12:26:42Z</time>
      </trkpt>
      <trkpt lat="39.893878" lon="116.646003">
        <time>2020-12-04T12:26:47Z</time>
      </trkpt>
      <trkpt lat="39.893852" lon="116.646125">
        <time>2020-12-04T12:26:52Z</time>
      </trkpt>
      <trkpt lat="39.893795" lon="116.646217">
        <time>2020-12-04T12:26:57Z</time>
      </trkpt>
      <trkpt lat="39.893676" lon="116.646247">
        <time>2020-12-04T12:27:02Z</time>
      </trkpt>
      <trkpt lat="39.893535" lon="116.646217">
        <time>2020-12-04T12:27:07Z</time>
      </trkpt>
      <trkpt lat="39.893417" lon="116.646163">
        <time>2020-12-04T12:27:12Z</time>
      </trkpt>
      <trkpt lat="39.893291" lon="116.64611">
        <time>2020-12-04T12:27:17Z</time>
      </trkpt>
      <trkpt lat="39.893169" lon="116.646057">
        <time>2020-12-04T12:27:22Z</time>
      </trkpt>
      <trkpt lat="39.893047" lon="116.645996">
        <time>2020-12-04T12:27:27Z</time>
      </trkpt>
      <trkpt lat="39.89291" lon="116.645965">
        <time>2020-12-04T12:27:32Z</time>
      </trkpt>
      <trkpt lat="39.892757" lon="116.645965">
        <time>2020-12-04T12:27:37Z</time>
      </trkpt>
      <trkpt lat="39.892612" lon="116.645942">
        <time>2020-12-04T12:27:42Z</time>
      </trkpt>
      <trkpt lat="39.892478" lon="116.645912">
        <time>2020-12-04T12:27:47Z</time>
      </trkpt>
      <trkpt lat="39.892341" lon="116.645889">
        <time>2020-12-04T12:27:52Z</time>
      </trkpt>
      <trkpt lat="39.892196" lon="116.645843">
        <time>2020-12-04T12:27:57Z</time>
      </trkpt>
      <trkpt lat="39.892063" lon="116.64579">
        <time>2020-12-04T12:28:02Z</time>
      </trkpt>
      <trkpt lat="39.891941" lon="116.645729">
        <time>2020-12-04T12:28:07Z</time>
      </trkpt>
      <trkpt lat="39.891826" lon="116.645675">
        <time>2020-12-04T12:28:12Z</time>
      </trkpt>
      <trkpt lat="39.891708" lon="116.645645">
        <time>2020-12-04T12:28:17Z</time>
      </trkpt>
      <trkpt lat="39.891616" lon="116.645591">
        <time>2020-12-04T12:28:22Z</time>
      </trkpt>
      <trkpt lat="39.891574" lon="116.645492">
        <time>2020-12-04T12:28:27Z</time>
      </trkpt>
      <trkpt lat="39.891616" lon="116.645454">
        <time>2020-12-04T12:28:32Z</time>
      </trkpt>
      <trkpt lat="39.891716" lon="116.645484">
        <time>2020-12-04T12:28:37Z</time>
      </trkpt>
      <trkpt lat="39.891826" lon="116.645545">
        <time>2020-12-04T12:28:42Z</time>
      </trkpt>
      <trkpt lat="39.891967" lon="116.645591">
        <time>2020-12-04T12:28:47Z</time>
      </trkpt>
      <trkpt lat="39.892127" lon="116.645629">
        <time>2020-12-04T12:28:52Z</time>
      </trkpt>
      <trkpt lat="39.892288" lon="116.64566">
        <time>2020-12-04T12:28:57Z</time>
      </trkpt>
      <trkpt lat="39.89244" lon="116.645706">
        <time>2020-12-04T12:29:02Z</time>
      </trkpt>
      <trkpt lat="39.892581" lon="116.645782">
        <time>2020-12-04T12:29:07Z</time>
      </trkpt>
      <trkpt lat="39.8927" lon="116.645866">
        <time>2020-12-04T12:29:12Z</time>
      </trkpt>
      <trkpt lat="39.892822" lon="116.645919">
        <time>2020-12-04T12:29:17Z</time>
      </trkpt>
      <trkpt lat="39.892948" lon="116.645965">
        <time>2020-12-04T12:29:22Z</time>
      </trkpt>
      <trkpt lat="39.893062" lon="116.645996">
        <time>2020-12-04T12:29:27Z</time>
      </trkpt>
      <trkpt lat="39.893177" lon="116.646018">
        <time>2020-12-04T12:29:32Z</time>
      </trkpt>
      <trkpt lat="39.89331" lon="116.646049">
        <time>2020-12-04T12:29:37Z</time>
      </trkpt>
      <trkpt lat="39.893447" lon="116.646102">
        <time>2020-12-04T12:29:42Z</time>
      </trkpt>
      <trkpt lat="39.893581" lon="116.646141">
        <time>2020-12-04T12:29:47Z</time>
      </trkpt>
      <trkpt lat="39.893718" lon="116.646194">
        <time>2020-12-04T12:29:52Z</time>
      </trkpt>
      <trkpt lat="39.893848" lon="116.646247">
        <time>2020-12-04T12:29:57Z</time>
      </trkpt>
      <trkpt lat="39.893962" lon="116.646247">
        <time>2020-12-04T12:30:02Z</time>
      </trkpt>
      <trkpt lat="39.894054" lon="116.646179">
        <time>2020-12-04T12:30:07Z</time>
      </trkpt>
      <trkpt lat="39.894134" lon="116.646072">
        <time>2020-12-04T12:30:12Z</time>
      </trkpt>
      <trkpt lat="39.894226" lon="116.645965">
        <time>2020-12-04T12:30:17Z</time>
      </trkpt>
      <trkpt lat="39.89434" lon="116.645896">
        <time>2020-12-04T12:30:22Z</time>
      </trkpt>
      <trkpt lat="39.894454" lon="116.645889">
        <time>2020-12-04T12:30:27Z</time>
      </trkpt>
      <trkpt lat="39.89455" lon="116.645919">
        <time>2020-12-04T12:30:32Z</time>
      </trkpt>
      <trkpt lat="39.894649" lon="116.64595">
        <time>2020-12-04T12:30:37Z</time>
      </trkpt>
      <trkpt lat="39.894763" lon="116.645996">
        <time>2020-12-04T12:30:42Z</time>
      </trkpt>
      <trkpt lat="39.894886" lon="116.646072">
        <time>2020-12-04T12:30:47Z</time>
      </trkpt>
      <trkpt lat="39.894992" lon="116.646163">
        <time>2020-12-04T12:30:52Z</time>
      </trkpt>
      <trkpt lat="39.895088" lon="116.646247">
        <time>2020-12-04T12:30:57Z</time>
      </trkpt>
      <trkpt lat="39.895179" lon="116.646316">
        <time>2020-12-04T12:31:02Z</time>
      </trkpt>
      <trkpt lat="39.895294" lon="116.646369">
        <time>2020-12-04T12:31:07Z</time>
      </trkpt>
      <trkpt lat="39.895435" lon="116.646408">
        <time>2020-12-04T12:31:12Z</time>
      </trkpt>
      <trkpt lat="39.895572" lon="116.646446">
        <time>2020-12-04T12:31:17Z</time>
      </trkpt>
      <trkpt lat="39.895702" lon="116.646484">
        <time>2020-12-04T12:31:22Z</time>
      </trkpt>
      <trkpt lat="39.895835" lon="116.646553">
        <time>2020-12-04T12:31:27Z</time>
      </trkpt>
      <trkpt lat="39.895957" lon="116.646606">
        <time>2020-12-04T12:31:32Z</time>
      </trkpt>
      <trkpt lat="39.896064" lon="116.646652">
        <time>2020-12-04T12:31:37Z</time>
      </trkpt>
      <trkpt lat="39.896171" lon="116.646675">
        <time>2020-12-04T12:31:42Z</time>
      </trkpt>
      <trkpt lat="39.896255" lon="116.64656">
        <time>2020-12-04T12:31:47Z</time>
      </trkpt>
      <trkpt lat="39.896289" lon="116.646377">
        <time>2020-12-04T12:31:52Z</time>
      </trkpt>
      <trkpt lat="39.896305" lon="116.646247">
        <time>2020-12-04T12:31:57Z</time>
      </trkpt>
      <trkpt lat="39.896324" lon="116.646102">
        <time>2020-12-04T12:32:02Z</time>
      </trkpt>
      <trkpt lat="39.896335" lon="116.645927">
        <time>2020-12-04T12:32:07Z</time>
      </trkpt>
      <trkpt lat="39.896347" lon="116.645751">
        <time>2020-12-04T12:32:12Z</time>
      </trkpt>
      <trkpt lat="39.896373" lon="116.645591">
        <time>2020-12-04T12:32:17Z</time>
      </trkpt>
      <trkpt lat="39.896408" lon="116.645431">
        <time>2020-12-04T12:32:22Z</time>
      </trkpt>
      <trkpt lat="39.896423" lon="116.645271">
        <time>2020-12-04T12:32:27Z</time>
      </trkpt>
      <trkpt lat="39.896427" lon="116.645111">
        <time>2020-12-04T12:32:32Z</time>
      </trkpt>
      <trkpt lat="39.896419" lon="116.644958">
        <time>2020-12-04T12:32:37Z</time>
      </trkpt>
      <trkpt lat="39.896415" lon="116.644813">
        <time>2020-12-04T12:32:42Z</time>
      </trkpt>
      <trkpt lat="39.896419" lon="116.644638">
        <time>2020-12-04T12:32:47Z</time>
      </trkpt>
      <trkpt lat="39.896446" lon="116.644477">
        <time>2020-12-04T12:32:52Z</time>
      </trkpt>
      <trkpt lat="39.896465" lon="116.644309">
        <time>2020-12-04T12:32:57Z</time>
      </trkpt>
      <trkpt lat="39.896465" lon="116.644142">
        <time>2020-12-04T12:33:02Z</time>
      </trkpt>
      <trkpt lat="39.896465" lon="116.643966">
        <time>2020-12-04T12:33:07Z</time>
      </trkpt>
      <trkpt lat="39.89648" lon="116.643798">
        <time>2020-12-04T12:33:12Z</time>
      </trkpt>
      <trkpt lat="39.896503" lon="116.643623">
        <time>2020-12-04T12:33:17Z</time>
      </trkpt>
      <trkpt lat="39.896526" lon="116.643455">
        <time>2020-12-04T12:33:22Z</time>
      </trkpt>
      <trkpt lat="39.896514" lon="116.643295">
        <time>2020-12-04T12:33:27Z</time>
      </trkpt>
      <trkpt lat="39.896488" lon="116.643135">
        <time>2020-12-04T12:33:32Z</time>
      </trkpt>
      <trkpt lat="39.896465" lon="116.64299">
        <time>2020-12-04T12:33:37Z</time>
      </trkpt>
      <trkpt lat="39.896434" lon="116.642814">
        <time>2020-12-04T12:33:42Z</time>
      </trkpt>
      <trkpt lat="39.896423" lon="116.642654">
        <time>2020-12-04T12:33:47Z</time>
      </trkpt>
      <trkpt lat="39.89643" lon="116.642517">
        <time>2020-12-04T12:33:52Z</time>
      </trkpt>
      <trkpt lat="39.896446" lon="116.642364">
        <time>2020-12-04T12:33:57Z</time>
      </trkpt>
      <trkpt lat="39.896465" lon="116.642227">
        <time>2020-12-04T12:34:02Z</time>
      </trkpt>
      <trkpt lat="39.896488" lon="116.642059">
        <time>2020-12-04T12:34:07Z</time>
      </trkpt>
      <trkpt lat="39.896514" lon="116.641876">
        <time>2020-12-04T12:34:12Z</time>
      </trkpt>
      <trkpt lat="39.896518" lon="116.641716">
        <time>2020-12-04T12:34:17Z</time>
      </trkpt>
      <trkpt lat="39.896511" lon="116.641578">
        <time>2020-12-04T12:34:22Z</time>
      </trkpt>
      <trkpt lat="39.896492" lon="116.641448">
        <time>2020-12-04T12:34:27Z</time>
      </trkpt>
      <trkpt lat="39.896469" lon="116.641311">
        <time>2020-12-04T12:34:32Z</time>
      </trkpt>
      <trkpt lat="39.896457" lon="116.641151">
        <time>2020-12-04T12:34:37Z</time>
      </trkpt>
      <trkpt lat="39.896469" lon="116.641006">
        <time>2020-12-04T12:34:42Z</time>
      </trkpt>
      <trkpt lat="39.896469" lon="116.640861">
        <time>2020-12-04T12:34:47Z</time>
      </trkpt>
      <trkpt lat="39.896484" lon="116.640701">
        <time>2020-12-04T12:34:52Z</time>
      </trkpt>
      <trkpt lat="39.896507" lon="116.640533">
        <time>2020-12-04T12:34:57Z</time>
      </trkpt>
      <trkpt lat="39.896514" lon="116.64038">
        <time>2020-12-04T12:35:02Z</time>
      </trkpt>
      <trkpt lat="39.896499" lon="116.640258">
        <time>2020-12-04T12:35:07Z</time>
      </trkpt>
      <trkpt lat="39.896472" lon="116.640136">
        <time>2020-12-04T12:35:12Z</time>
      </trkpt>
      <trkpt lat="39.896457" lon="116.640029">
        <time>2020-12-04T12:35:17Z</time>
      </trkpt>
      <trkpt lat="39.896453" lon="116.639884">
        <time>2020-12-04T12:35:22Z</time>
      </trkpt>
      <trkpt lat="39.896453" lon="116.639732">
        <time>2020-12-04T12:35:27Z</time>
      </trkpt>
      <trkpt lat="39.896446" lon="116.639617">
        <time>2020-12-04T12:35:32Z</time>
      </trkpt>
      <trkpt lat="39.896453" lon="116.639495">
        <time>2020-12-04T12:35:37Z</time>
      </trkpt>
      <trkpt lat="39.896461" lon="116.639358">
        <time>2020-12-04T12:35:42Z</time>
      </trkpt>
      <trkpt lat="39.896446" lon="116.639198">
        <time>2020-12-04T12:35:47Z</time>
      </trkpt>
      <trkpt lat="39.896427" lon="116.639038">
        <time>2020-12-04T12:35:52Z</time>
      </trkpt>
      <trkpt lat="39.896423" lon="116.63887">
        <time>2020-12-04T12:35:57Z</time>
      </trkpt>
      <trkpt lat="39.896446" lon="116.638702">
        <time>2020-12-04T12:36:02Z</time>
      </trkpt>
      <trkpt lat="39.896457" lon="116.638526">
        <time>2020-12-04T12:36:07Z</time>
      </trkpt>
      <trkpt lat="39.896438" lon="116.638381">
        <time>2020-12-04T12:36:12Z</time>
      </trkpt>
      <trkpt lat="39.896411" lon="116.638229">
        <time>2020-12-04T12:36:17Z</time>
      </trkpt>
      <trkpt lat="39.896396" lon="116.638076">
        <time>2020-12-04T12:36:22Z</time>
      </trkpt>
      <trkpt lat="39.896404" lon="116.637939">
        <time>2020-12-04T12:36:27Z</time>
      </trkpt>
      <trkpt lat="39.896404" lon="116.637802">
        <time>2020-12-04T12:36:32Z</time>
      </trkpt>
      <trkpt lat="39.896392" lon="116.637672">
        <time>2020-12-04T12:36:37Z</time>
      </trkpt>
      <trkpt lat="39.896366" lon="116.637527">
        <time>2020-12-04T12:36:42Z</time>
      </trkpt>
      <trkpt lat="39.896369" lon="116.637351">
        <time>2020-12-04T12:36:47Z</time>
      </trkpt>
      <trkpt lat="39.8964" lon="116.637184">
        <time>2020-12-04T12:36:52Z</time>
      </trkpt>
      <trkpt lat="39.896404" lon="116.637023">
        <time>2020-12-04T12:36:57Z</time>
      </trkpt>
      <trkpt lat="39.896377" lon="116.636886">
        <time>2020-12-04T12:37:02Z</time>
      </trkpt>
      <trkpt lat="39.896358" lon="116.636802">
        <time>2020-12-04T12:37:07Z</time>
      </trkpt>
      <trkpt lat="39.896377" lon="116.63684">
        <time>2020-12-04T12:37:12Z</time>
      </trkpt>
      <trkpt lat="39.896392" lon="116.636947">
        <time>2020-12-04T12:37:17Z</time>
      </trkpt>
      <trkpt lat="39.896404" lon="116.637077">
        <time>2020-12-04T12:37:22Z</time>
      </trkpt>
      <trkpt lat="39.896419" lon="116.637207">
        <time>2020-12-04T12:37:27Z</time>
      </trkpt>
      <trkpt lat="39.89643" lon="116.637351">
        <time>2020-12-04T12:37:32Z</time>
      </trkpt>
      <trkpt lat="39.896457" lon="116.637512">
        <time>2020-12-04T12:37:37Z</time>
      </trkpt>
      <trkpt lat="39.896499" lon="116.637687">
        <time>2020-12-04T12:37:42Z</time>
      </trkpt>
      <trkpt lat="39.896526" lon="116.637855">
        <time>2020-12-04T12:37:47Z</time>
      </trkpt>
      <trkpt lat="39.896541" lon="116.638008">
        <time>2020-12-04T12:37:52Z</time>
      </trkpt>
      <trkpt lat="39.896549" lon="116.638153">
        <time>2020-12-04T12:37:57Z</time>
      </trkpt>
      <trkpt lat="39.896549" lon="116.638282">
        <time>2020-12-04T12:38:02Z</time>
      </trkpt>
      <trkpt lat="39.896541" lon="116.638397">
        <time>2020-12-04T12:38:07Z</time>
      </trkpt>
      <trkpt lat="39.896533" lon="116.638542">
        <time>2020-12-04T12:38:12Z</time>
      </trkpt>
      <trkpt lat="39.896533" lon="116.638687">
        <time>2020-12-04T12:38:17Z</time>
      </trkpt>
      <trkpt lat="39.89653" lon="116.638839">
        <time>2020-12-04T12:38:22Z</time>
      </trkpt>
      <trkpt lat="39.896522" lon="116.638984">
        <time>2020-12-04T12:38:27Z</time>
      </trkpt>
      <trkpt lat="39.896511" lon="116.639144">
        <time>2020-12-04T12:38:32Z</time>
      </trkpt>
      <trkpt lat="39.896503" lon="116.639335">
        <time>2020-12-04T12:38:37Z</time>
      </trkpt>
      <trkpt lat="39.896511" lon="116.639541">
        <time>2020-12-04T12:38:42Z</time>
      </trkpt>
      <trkpt lat="39.896526" lon="116.639694">
        <time>2020-12-04T12:38:47Z</time>
      </trkpt>
      <trkpt lat="39.896541" lon="116.639839">
        <time>2020-12-04T12:38:52Z</time>
      </trkpt>
      <trkpt lat="39.896537" lon="116.639991">
        <time>2020-12-04T12:38:57Z</time>
      </trkpt>
      <trkpt lat="39.896522" lon="116.640151">
        <time>2020-12-04T12:39:02Z</time>
      </trkpt>
      <trkpt lat="39.896511" lon="116.640296">
        <time>2020-12-04T12:39:07Z</time>
      </trkpt>
      <trkpt lat="39.896507" lon="116.640449">
        <time>2020-12-04T12:39:12Z</time>
      </trkpt>
      <trkpt lat="39.896503" lon="116.640663">
        <time>2020-12-04T12:39:17Z</time>
      </trkpt>
      <trkpt lat="39.896492" lon="116.640884">
        <time>2020-12-04T12:39:22Z</time>
      </trkpt>
      <trkpt lat="39.896469" lon="116.641021">
        <time>2020-12-04T12:39:27Z</time>
      </trkpt>
      <trkpt lat="39.896457" lon="116.641159">
        <time>2020-12-04T12:39:32Z</time>
      </trkpt>
      <trkpt lat="39.896446" lon="116.641304">
        <time>2020-12-04T12:39:37Z</time>
      </trkpt>
      <trkpt lat="39.896419" lon="116.641441">
        <time>2020-12-04T12:39:42Z</time>
      </trkpt>
      <trkpt lat="39.896392" lon="116.641601">
        <time>2020-12-04T12:39:47Z</time>
      </trkpt>
      <trkpt lat="39.896385" lon="116.641769">
        <time>2020-12-04T12:39:52Z</time>
      </trkpt>
      <trkpt lat="39.896392" lon="116.641944">
        <time>2020-12-04T12:39:57Z</time>
      </trkpt>
      <trkpt lat="39.896411" lon="116.642105">
        <time>2020-12-04T12:40:02Z</time>
      </trkpt>
      <trkpt lat="39.89643" lon="116.642272">
        <time>2020-12-04T12:40:07Z</time>
      </trkpt>
      <trkpt lat="39.896442" lon="116.642456">
        <time>2020-12-04T12:40:12Z</time>
      </trkpt>
      <trkpt lat="39.896442" lon="116.642616">
        <time>2020-12-04T12:40:17Z</time>
      </trkpt>
      <trkpt lat="39.896442" lon="116.642791">
        <time>2020-12-04T12:40:22Z</time>
      </trkpt>
      <trkpt lat="39.896438" lon="116.643005">
        <time>2020-12-04T12:40:27Z</time>
      </trkpt>
      <trkpt lat="39.896434" lon="116.643211">
        <time>2020-12-04T12:40:32Z</time>
      </trkpt>
      <trkpt lat="39.896453" lon="116.643379">
        <time>2020-12-04T12:40:37Z</time>
      </trkpt>
      <trkpt lat="39.89648" lon="116.643554">
        <time>2020-12-04T12:40:42Z</time>
      </trkpt>
      <trkpt lat="39.896499" lon="116.643714">
        <time>2020-12-04T12:40:47Z</time>
      </trkpt>
      <trkpt lat="39.896522" lon="116.643875">
        <time>2020-12-04T12:40:52Z</time>
      </trkpt>
      <trkpt lat="39.896533" lon="116.644035">
        <time>2020-12-04T12:40:57Z</time>
      </trkpt>
      <trkpt lat="39.896537" lon="116.644195">
        <time>2020-12-04T12:41:02Z</time>
      </trkpt>
      <trkpt lat="39.896541" lon="116.64434">
        <time>2020-12-04T12:41:07Z</time>
      </trkpt>
      <trkpt lat="39.896526" lon="116.644493">
        <time>2020-12-04T12:41:12Z</time>
      </trkpt>
      <trkpt lat="39.896511" lon="116.644668">
        <time>2020-12-04T12:41:17Z</time>
      </trkpt>
      <trkpt lat="39.896499" lon="116.644866">
        <time>2020-12-04T12:41:22Z</time>
      </trkpt>
      <trkpt lat="39.89648" lon="116.645034">
        <time>2020-12-04T12:41:27Z</time>
      </trkpt>
      <trkpt lat="39.896457" lon="116.645187">
        <time>2020-12-04T12:41:32Z</time>
      </trkpt>
      <trkpt lat="39.896438" lon="116.645362">
        <time>2020-12-04T12:41:37Z</time>
      </trkpt>
      <trkpt lat="39.896404" lon="116.645553">
        <time>2020-12-04T12:41:42Z</time>
      </trkpt>
      <trkpt lat="39.896366" lon="116.645729">
        <time>2020-12-04T12:41:47Z</time>
      </trkpt>
      <trkpt lat="39.896324" lon="116.645889">
        <time>2020-12-04T12:41:52Z</time>
      </trkpt>
      <trkpt lat="39.896278" lon="116.646049">
        <time>2020-12-04T12:41:57Z</time>
      </trkpt>
      <trkpt lat="39.896232" lon="116.646217">
        <time>2020-12-04T12:42:02Z</time>
      </trkpt>
      <trkpt lat="39.896198" lon="116.646377">
        <time>2020-12-04T12:42:07Z</time>
      </trkpt>
      <trkpt lat="39.896156" lon="116.646537">
        <time>2020-12-04T12:42:12Z</time>
      </trkpt>
      <trkpt lat="39.896072" lon="116.646644">
        <time>2020-12-04T12:42:17Z</time>
      </trkpt>
      <trkpt lat="39.895954" lon="116.646667">
        <time>2020-12-04T12:42:22Z</time>
      </trkpt>
      <trkpt lat="39.89582" lon="116.646644">
        <time>2020-12-04T12:42:27Z</time>
      </trkpt>
      <trkpt lat="39.895683" lon="116.646606">
        <time>2020-12-04T12:42:32Z</time>
      </trkpt>
      <trkpt lat="39.895553" lon="116.64656">
        <time>2020-12-04T12:42:37Z</time>
      </trkpt>
      <trkpt lat="39.895416" lon="116.646507">
        <time>2020-12-04T12:42:42Z</time>
      </trkpt>
      <trkpt lat="39.895286" lon="116.646446">
        <time>2020-12-04T12:42:47Z</time>
      </trkpt>
      <trkpt lat="39.895191" lon="116.646377">
        <time>2020-12-04T12:42:52Z</time>
      </trkpt>
      <trkpt lat="39.895111" lon="116.646324">
        <time>2020-12-04T12:42:57Z</time>
      </trkpt>
      <trkpt lat="39.895023" lon="116.646293">
        <time>2020-12-04T12:43:02Z</time>
      </trkpt>
      <trkpt lat="39.894916" lon="116.646286">
        <time>2020-12-04T12:43:07Z</time>
      </trkpt>
      <trkpt lat="39.89479" lon="116.64624">
        <time>2020-12-04T12:43:12Z</time>
      </trkpt>
      <trkpt lat="39.894657" lon="116.646194">
        <time>2020-12-04T12:43:17Z</time>
      </trkpt>
      <trkpt lat="39.894515" lon="116.646179">
        <time>2020-12-04T12:43:22Z</time>
      </trkpt>
      <trkpt lat="39.894359" lon="116.646179">
        <time>2020-12-04T12:43:27Z</time>
      </trkpt>
      <trkpt lat="39.894207" lon="116.646156">
        <time>2020-12-04T12:43:32Z</time>
      </trkpt>
      <trkpt lat="39.894096" lon="116.646125">
        <time>2020-12-04T12:43:37Z</time>
      </trkpt>
      <trkpt lat="39.89402" lon="116.646156">
        <time>2020-12-04T12:43:42Z</time>
      </trkpt>
      <trkpt lat="39.893951" lon="116.64624">
        <time>2020-12-04T12:43:47Z</time>
      </trkpt>
      <trkpt lat="39.893886" lon="116.646316">
        <time>2020-12-04T12:43:52Z</time>
      </trkpt>
      <trkpt lat="39.893814" lon="116.646369">
        <time>2020-12-04T12:43:57Z</time>
      </trkpt>
      <trkpt lat="39.893695" lon="116.646369">
        <time>2020-12-04T12:44:02Z</time>
      </trkpt>
      <trkpt lat="39.89355" lon="116.646324">
        <time>2020-12-04T12:44:07Z</time>
      </trkpt>
      <trkpt lat="39.893417" lon="116.646286">
        <time>2020-12-04T12:44:12Z</time>
      </trkpt>
      <trkpt lat="39.893306" lon="116.64624">
        <time>2020-12-04T12:44:17Z</time>
      </trkpt>
      <trkpt lat="39.893218" lon="116.646209">
        <time>2020-12-04T12:44:22Z</time>
      </trkpt>
      <trkpt lat="39.893135" lon="116.646163">
        <time>2020-12-04T12:44:27Z</time>
      </trkpt>
      <trkpt lat="39.893032" lon="116.646133">
        <time>2020-12-04T12:44:32Z</time>
      </trkpt>
      <trkpt lat="39.892913" lon="116.646102">
        <time>2020-12-04T12:44:37Z</time>
      </trkpt>
      <trkpt lat="39.89278" lon="116.646087">
        <time>2020-12-04T12:44:42Z</time>
      </trkpt>
      <trkpt lat="39.892616" lon="116.64608">
        <time>2020-12-04T12:44:47Z</time>
      </trkpt>
      <trkpt lat="39.892452" lon="116.646034">
        <time>2020-12-04T12:44:52Z</time>
      </trkpt>
      <trkpt lat="39.892314" lon="116.645965">
        <time>2020-12-04T12:44:57Z</time>
      </trkpt>
      <trkpt lat="39.892181" lon="116.645912">
        <time>2020-12-04T12:45:02Z</time>
      </trkpt>
      <trkpt lat="39.892051" lon="116.645858">
        <time>2020-12-04T12:45:07Z</time>
      </trkpt>
      <trkpt lat="39.891921" lon="116.645812">
        <time>2020-12-04T12:45:12Z</time>
      </trkpt>
      <trkpt lat="39.891803" lon="116.645751">
        <time>2020-12-04T12:45:17Z</time>
      </trkpt>
      <trkpt lat="39.891708" lon="116.64566">
        <time>2020-12-04T12:45:22Z</time>
      </trkpt>
      <trkpt lat="39.891654" lon="116.645591">
        <time>2020-12-04T12:45:27Z</time>
      </trkpt>
      <trkpt lat="39.891677" lon="116.645568">
        <time>2020-12-04T12:45:32Z</time>
      </trkpt>
      <trkpt lat="39.89186" lon="116.645591">
        <time>2020-12-04T12:45:37Z</time>
      </trkpt>
      <trkpt lat="39.892036" lon="116.645599">
        <time>2020-12-04T12:45:42Z</time>
      </trkpt>
      <trkpt lat="39.892166" lon="116.645622">
        <time>2020-12-04T12:45:47Z</time>
      </trkpt>
      <trkpt lat="39.892288" lon="116.645652">
        <time>2020-12-04T12:45:52Z</time>
      </trkpt>
      <trkpt lat="39.892425" lon="116.645706">
        <time>2020-12-04T12:45:57Z</time>
      </trkpt>
      <trkpt lat="39.892574" lon="116.645759">
        <time>2020-12-04T12:46:02Z</time>
      </trkpt>
      <trkpt lat="39.892707" lon="116.645812">
        <time>2020-12-04T12:46:07Z</time>
      </trkpt>
      <trkpt lat="39.892833" lon="116.645843">
        <time>2020-12-04T12:46:12Z</time>
      </trkpt>
      <trkpt lat="39.892974" lon="116.645858">
        <time>2020-12-04T12:46:17Z</time>
      </trkpt>
      <trkpt lat="39.893135" lon="116.645858">
        <time>2020-12-04T12:46:22Z</time>
      </trkpt>
      <trkpt lat="39.89328" lon="116.645912">
        <time>2020-12-04T12:46:27Z</time>
      </trkpt>
      <trkpt lat="39.893398" lon="116.645996">
        <time>2020-12-04T12:46:32Z</time>
      </trkpt>
      <trkpt lat="39.893527" lon="116.646057">
        <time>2020-12-04T12:46:37Z</time>
      </trkpt>
      <trkpt lat="39.89365" lon="116.64611">
        <time>2020-12-04T12:46:42Z</time>
      </trkpt>
      <trkpt lat="39.893772" lon="116.646186">
        <time>2020-12-04T12:46:47Z</time>
      </trkpt>
      <trkpt lat="39.893909" lon="116.646232">
        <time>2020-12-04T12:46:52Z</time>
      </trkpt>
      <trkpt lat="39.894023" lon="116.646194">
        <time>2020-12-04T12:46:57Z</time>
      </trkpt>
      <trkpt lat="39.894104" lon="116.646102">
        <time>2020-12-04T12:47:02Z</time>
      </trkpt>
      <trkpt lat="39.894168" lon="116.645973">
        <time>2020-12-04T12:47:07Z</time>
      </trkpt>
      <trkpt lat="39.894248" lon="116.645866">
        <time>2020-12-04T12:47:12Z</time>
      </trkpt>
      <trkpt lat="39.894348" lon="116.645835">
        <time>2020-12-04T12:47:17Z</time>
      </trkpt>
      <trkpt lat="39.894458" lon="116.645889">
        <time>2020-12-04T12:47:22Z</time>
      </trkpt>
      <trkpt lat="39.894565" lon="116.64595">
        <time>2020-12-04T12:47:27Z</time>
      </trkpt>
      <trkpt lat="39.894657" lon="116.645996">
        <time>2020-12-04T12:47:32Z</time>
      </trkpt>
      <trkpt lat="39.894737" lon="116.646034">
        <time>2020-12-04T12:47:37Z</time>
      </trkpt>
      <trkpt lat="39.894824" lon="116.646087">
        <time>2020-12-04T12:47:42Z</time>
      </trkpt>
      <trkpt lat="39.894924" lon="116.646141">
        <time>2020-12-04T12:47:47Z</time>
      </trkpt>
      <trkpt lat="39.895019" lon="116.646209">
        <time>2020-12-04T12:47:52Z</time>
      </trkpt>
      <trkpt lat="39.895118" lon="116.646263">
        <time>2020-12-04T12:47:57Z</time>
      </trkpt>
      <trkpt lat="39.89521" lon="116.646301">
        <time>2020-12-04T12:48:02Z</time>
      </trkpt>
      <trkpt lat="39.895317" lon="116.646347">
        <time>2020-12-04T12:48:07Z</time>
      </trkpt>
      <trkpt lat="39.895446" lon="116.6464">
        <time>2020-12-04T12:48:12Z</time>
      </trkpt>
      <trkpt lat="39.895568" lon="116.646453">
        <time>2020-12-04T12:48:17Z</time>
      </trkpt>
      <trkpt lat="39.895687" lon="116.646507">
        <time>2020-12-04T12:48:22Z</time>
      </trkpt>
      <trkpt lat="39.895809" lon="116.646553">
        <time>2020-12-04T12:48:27Z</time>
      </trkpt>
      <trkpt lat="39.895942" lon="116.646606">
        <time>2020-12-04T12:48:32Z</time>
      </trkpt>
      <trkpt lat="39.896072" lon="116.646644">
        <time>2020-12-04T12:48:37Z</time>
      </trkpt>
      <trkpt lat="39.89619" lon="116.646675">
        <time>2020-12-04T12:48:42Z</time>
      </trkpt>
      <trkpt lat="39.896282" lon="116.646652">
        <time>2020-12-04T12:48:47Z</time>
      </trkpt>
      <trkpt lat="39.896343" lon="116.646591">
        <time>2020-12-04T12:48:52Z</time>
      </trkpt>
      <trkpt lat="39.896366" lon="116.646484">
        <time>2020-12-04T12:48:57Z</time>
      </trkpt>
      <trkpt lat="39.896373" lon="116.646354">
        <time>2020-12-04T12:49:02Z</time>
      </trkpt>
      <trkpt lat="39.896389" lon="116.646209">
        <time>2020-12-04T12:49:07Z</time>
      </trkpt>
      <trkpt lat="39.896404" lon="116.646049">
        <time>2020-12-04T12:49:12Z</time>
      </trkpt>
      <trkpt lat="39.896411" lon="116.645866">
        <time>2020-12-04T12:49:17Z</time>
      </trkpt>
      <trkpt lat="39.896427" lon="116.645751">
        <time>2020-12-04T12:49:22Z</time>
      </trkpt>
      <trkpt lat="39.896457" lon="116.645599">
        <time>2020-12-04T12:49:27Z</time>
      </trkpt>
      <trkpt lat="39.896465" lon="116.645469">
        <time>2020-12-04T12:49:32Z</time>
      </trkpt>
      <trkpt lat="39.896465" lon="116.645332">
        <time>2020-12-04T12:49:37Z</time>
      </trkpt>
      <trkpt lat="39.896465" lon="116.645202">
        <time>2020-12-04T12:49:42Z</time>
      </trkpt>
      <trkpt lat="39.896453" lon="116.645042">
        <time>2020-12-04T12:49:47Z</time>
      </trkpt>
      <trkpt lat="39.896427" lon="116.644874">
        <time>2020-12-04T12:49:52Z</time>
      </trkpt>
      <trkpt lat="39.896404" lon="116.644683">
        <time>2020-12-04T12:49:57Z</time>
      </trkpt>
      <trkpt lat="39.896404" lon="116.6445">
        <time>2020-12-04T12:50:02Z</time>
      </trkpt>
      <trkpt lat="39.896415" lon="116.64434">
        <time>2020-12-04T12:50:07Z</time>
      </trkpt>
      <trkpt lat="39.896411" lon="116.644195">
        <time>2020-12-04T12:50:12Z</time>
      </trkpt>
      <trkpt lat="39.896408" lon="116.64405">
        <time>2020-12-04T12:50:17Z</time>
      </trkpt>
      <trkpt lat="39.8964" lon="116.643905">
        <time>2020-12-04T12:50:22Z</time>
      </trkpt>
      <trkpt lat="39.896389" lon="116.643753">
        <time>2020-12-04T12:50:27Z</time>
      </trkpt>
      <trkpt lat="39.896377" lon="116.643615">
        <time>2020-12-04T12:50:32Z</time>
      </trkpt>
      <trkpt lat="39.896358" lon="116.643463">
        <time>2020-12-04T12:50:37Z</time>
      </trkpt>
      <trkpt lat="39.896347" lon="116.643302">
        <time>2020-12-04T12:50:42Z</time>
      </trkpt>
      <trkpt lat="39.89635" lon="116.64315">
        <time>2020-12-04T12:50:47Z</time>
      </trkpt>
      <trkpt lat="39.89635" lon="116.642997">
        <time>2020-12-04T12:50:52Z</time>
      </trkpt>
      <trkpt lat="39.89635" lon="116.642837">
        <time>2020-12-04T12:50:57Z</time>
      </trkpt>
      <trkpt lat="39.896358" lon="116.642677">
        <time>2020-12-04T12:51:02Z</time>
      </trkpt>
      <trkpt lat="39.896358" lon="116.642539">
        <time>2020-12-04T12:51:07Z</time>
      </trkpt>
      <trkpt lat="39.89635" lon="116.642417">
        <time>2020-12-04T12:51:12Z</time>
      </trkpt>
      <trkpt lat="39.89635" lon="116.642311">
        <time>2020-12-04T12:51:17Z</time>
      </trkpt>
      <trkpt lat="39.896354" lon="116.642196">
        <time>2020-12-04T12:51:22Z</time>
      </trkpt>
      <trkpt lat="39.896377" lon="116.642066">
        <time>2020-12-04T12:51:27Z</time>
      </trkpt>
      <trkpt lat="39.896404" lon="116.641944">
        <time>2020-12-04T12:51:32Z</time>
      </trkpt>
      <trkpt lat="39.896419" lon="116.641822">
        <time>2020-12-04T12:51:37Z</time>
      </trkpt>
      <trkpt lat="39.896411" lon="116.641738">
        <time>2020-12-04T12:51:42Z</time>
      </trkpt>
      <trkpt lat="39.896404" lon="116.641654">
        <time>2020-12-04T12:51:47Z</time>
      </trkpt>
      <trkpt lat="39.896404" lon="116.641555">
        <time>2020-12-04T12:51:52Z</time>
      </trkpt>
      <trkpt lat="39.896392" lon="116.641448">
        <time>2020-12-04T12:51:57Z</time>
      </trkpt>
      <trkpt lat="39.896377" lon="116.641342">
        <time>2020-12-04T12:52:02Z</time>
      </trkpt>
      <trkpt lat="39.896369" lon="116.641227">
        <time>2020-12-04T12:52:07Z</time>
      </trkpt>
      <trkpt lat="39.896369" lon="116.641143">
        <time>2020-12-04T12:52:12Z</time>
      </trkpt>
      <trkpt lat="39.896377" lon="116.641044">
        <time>2020-12-04T12:52:17Z</time>
      </trkpt>
      <trkpt lat="39.896373" lon="116.64096">
        <time>2020-12-04T12:52:22Z</time>
      </trkpt>
      <trkpt lat="39.896366" lon="116.640846">
        <time>2020-12-04T12:52:27Z</time>
      </trkpt>
      <trkpt lat="39.896377" lon="116.640716">
        <time>2020-12-04T12:52:32Z</time>
      </trkpt>
      <trkpt lat="39.896392" lon="116.640563">
        <time>2020-12-04T12:52:37Z</time>
      </trkpt>
      <trkpt lat="39.896404" lon="116.640396">
        <time>2020-12-04T12:52:42Z</time>
      </trkpt>
      <trkpt lat="39.896392" lon="116.640235">
        <time>2020-12-04T12:52:47Z</time>
      </trkpt>
      <trkpt lat="39.896389" lon="116.640083">
        <time>2020-12-04T12:52:52Z</time>
      </trkpt>
      <trkpt lat="39.896392" lon="116.639945">
        <time>2020-12-04T12:52:57Z</time>
      </trkpt>
      <trkpt lat="39.896392" lon="116.639816">
        <time>2020-12-04T12:53:02Z</time>
      </trkpt>
      <trkpt lat="39.896392" lon="116.639694">
        <time>2020-12-04T12:53:07Z</time>
      </trkpt>
      <trkpt lat="39.8964" lon="116.639549">
        <time>2020-12-04T12:53:12Z</time>
      </trkpt>
      <trkpt lat="39.896419" lon="116.639389">
        <time>2020-12-04T12:53:17Z</time>
      </trkpt>
      <trkpt lat="39.896453" lon="116.639221">
        <time>2020-12-04T12:53:22Z</time>
      </trkpt>
      <trkpt lat="39.896472" lon="116.639038">
        <time>2020-12-04T12:53:27Z</time>
      </trkpt>
      <trkpt lat="39.896472" lon="116.638854">
        <time>2020-12-04T12:53:32Z</time>
      </trkpt>
      <trkpt lat="39.896472" lon="116.638679">
        <time>2020-12-04T12:53:37Z</time>
      </trkpt>
      <trkpt lat="39.896469" lon="116.638519">
        <time>2020-12-04T12:53:42Z</time>
      </trkpt>
      <trkpt lat="39.896457" lon="116.638359">
        <time>2020-12-04T12:53:47Z</time>
      </trkpt>
      <trkpt lat="39.896453" lon="116.638183">
        <time>2020-12-04T12:53:52Z</time>
      </trkpt>
      <trkpt lat="39.896465" lon="116.638023">
        <time>2020-12-04T12:53:57Z</time>
      </trkpt>
      <trkpt lat="39.896453" lon="116.637886">
        <time>2020-12-04T12:54:02Z</time>
      </trkpt>
      <trkpt lat="39.89643" lon="116.637802">
        <time>2020-12-04T12:54:07Z</time>
      </trkpt>
      <trkpt lat="39.896419" lon="116.637687">
        <time>2020-12-04T12:54:12Z</time>
      </trkpt>
      <trkpt lat="39.896404" lon="116.637588">
        <time>2020-12-04T12:54:17Z</time>
      </trkpt>
      <trkpt lat="39.896381" lon="116.637451">
        <time>2020-12-04T12:54:22Z</time>
      </trkpt>
      <trkpt lat="39.896347" lon="116.637321">
        <time>2020-12-04T12:54:27Z</time>
      </trkpt>
      <trkpt lat="39.896289" lon="116.637191">
        <time>2020-12-04T12:54:32Z</time>
      </trkpt>
      <trkpt lat="39.896236" lon="116.637069">
        <time>2020-12-04T12:54:37Z</time>
      </trkpt>
      <trkpt lat="39.896205" lon="116.63694">
        <time>2020-12-04T12:54:42Z</time>
      </trkpt>
      <trkpt lat="39.896179" lon="116.63684">
        <time>2020-12-04T12:54:47Z</time>
      </trkpt>
      <trkpt lat="39.89619" lon="116.636856">
        <time>2020-12-04T12:54:52Z</time>
      </trkpt>
      <trkpt lat="39.896236" lon="116.63694">
        <time>2020-12-04T12:54:57Z</time>
      </trkpt>
      <trkpt lat="39.896278" lon="116.637069">
        <time>2020-12-04T12:55:02Z</time>
      </trkpt>
      <trkpt lat="39.896305" lon="116.637207">
        <time>2020-12-04T12:55:07Z</time>
      </trkpt>
      <trkpt lat="39.896343" lon="116.637344">
        <time>2020-12-04T12:55:12Z</time>
      </trkpt>
      <trkpt lat="39.896369" lon="116.637496">
        <time>2020-12-04T12:55:17Z</time>
      </trkpt>
      <trkpt lat="39.896377" lon="116.637664">
        <time>2020-12-04T12:55:22Z</time>
      </trkpt>
      <trkpt lat="39.896362" lon="116.637809">
        <time>2020-12-04T12:55:27Z</time>
      </trkpt>
      <trkpt lat="39.896362" lon="116.637954">
        <time>2020-12-04T12:55:32Z</time>
      </trkpt>
      <trkpt lat="39.896385" lon="116.638069">
        <time>2020-12-04T12:55:37Z</time>
      </trkpt>
      <trkpt lat="39.89643" lon="116.638206">
        <time>2020-12-04T12:55:42Z</time>
      </trkpt>
      <trkpt lat="39.896469" lon="116.638366">
        <time>2020-12-04T12:55:47Z</time>
      </trkpt>
      <trkpt lat="39.896472" lon="116.638519">
        <time>2020-12-04T12:55:52Z</time>
      </trkpt>
      <trkpt lat="39.896469" lon="116.638656">
        <time>2020-12-04T12:55:57Z</time>
      </trkpt>
      <trkpt lat="39.896469" lon="116.638801">
        <time>2020-12-04T12:56:02Z</time>
      </trkpt>
      <trkpt lat="39.896472" lon="116.638954">
        <time>2020-12-04T12:56:07Z</time>
      </trkpt>
      <trkpt lat="39.896488" lon="116.639114">
        <time>2020-12-04T12:56:12Z</time>
      </trkpt>
      <trkpt lat="39.896499" lon="116.639282">
        <time>2020-12-04T12:56:17Z</time>
      </trkpt>
      <trkpt lat="39.896511" lon="116.639434">
        <time>2020-12-04T12:56:22Z</time>
      </trkpt>
      <trkpt lat="39.896507" lon="116.639587">
        <time>2020-12-04T12:56:27Z</time>
      </trkpt>
      <trkpt lat="39.896488" lon="116.639724">
        <time>2020-12-04T12:56:32Z</time>
      </trkpt>
      <trkpt lat="39.896446" lon="116.639869">
        <time>2020-12-04T12:56:37Z</time>
      </trkpt>
      <trkpt lat="39.896411" lon="116.640052">
        <time>2020-12-04T12:56:42Z</time>
      </trkpt>
      <trkpt lat="39.896411" lon="116.640243">
        <time>2020-12-04T12:56:47Z</time>
      </trkpt>
      <trkpt lat="39.896434" lon="116.640426">
        <time>2020-12-04T12:56:52Z</time>
      </trkpt>
      <trkpt lat="39.896442" lon="116.640594">
        <time>2020-12-04T12:56:57Z</time>
      </trkpt>
      <trkpt lat="39.896442" lon="116.640747">
        <time>2020-12-04T12:57:02Z</time>
      </trkpt>
      <trkpt lat="39.896438" lon="116.640884">
        <time>2020-12-04T12:57:07Z</time>
      </trkpt>
      <trkpt lat="39.89643" lon="116.641006">
        <time>2020-12-04T12:57:12Z</time>
      </trkpt>
      <trkpt lat="39.896404" lon="116.641105">
        <time>2020-12-04T12:57:17Z</time>
      </trkpt>
      <trkpt lat="39.896392" lon="116.641227">
        <time>2020-12-04T12:57:22Z</time>
      </trkpt>
      <trkpt lat="39.896396" lon="116.641357">
        <time>2020-12-04T12:57:27Z</time>
      </trkpt>
      <trkpt lat="39.896404" lon="116.641494">
        <time>2020-12-04T12:57:32Z</time>
      </trkpt>
      <trkpt lat="39.896396" lon="116.641624">
        <time>2020-12-04T12:57:37Z</time>
      </trkpt>
      <trkpt lat="39.896392" lon="116.641746">
        <time>2020-12-04T12:57:42Z</time>
      </trkpt>
      <trkpt lat="39.896392" lon="116.641891">
        <time>2020-12-04T12:57:47Z</time>
      </trkpt>
      <trkpt lat="39.896392" lon="116.642013">
        <time>2020-12-04T12:57:52Z</time>
      </trkpt>
      <trkpt lat="39.8964" lon="116.642166">
        <time>2020-12-04T12:57:57Z</time>
      </trkpt>
      <trkpt lat="39.896392" lon="116.642303">
        <time>2020-12-04T12:58:02Z</time>
      </trkpt>
      <trkpt lat="39.896373" lon="116.64244">
        <time>2020-12-04T12:58:07Z</time>
      </trkpt>
      <trkpt lat="39.896343" lon="116.642578">
        <time>2020-12-04T12:58:12Z</time>
      </trkpt>
      <trkpt lat="39.896316" lon="116.642723">
        <time>2020-12-04T12:58:17Z</time>
      </trkpt>
      <trkpt lat="39.896305" lon="116.642868">
        <time>2020-12-04T12:58:22Z</time>
      </trkpt>
      <trkpt lat="39.896289" lon="116.643005">
        <time>2020-12-04T12:58:27Z</time>
      </trkpt>
      <trkpt lat="39.896274" lon="116.64315">
        <time>2020-12-04T12:58:32Z</time>
      </trkpt>
      <trkpt lat="39.89627" lon="116.643295">
        <time>2020-12-04T12:58:37Z</time>
      </trkpt>
      <trkpt lat="39.896289" lon="116.643447">
        <time>2020-12-04T12:58:42Z</time>
      </trkpt>
      <trkpt lat="39.896316" lon="116.643592">
        <time>2020-12-04T12:58:47Z</time>
      </trkpt>
      <trkpt lat="39.896335" lon="116.643753">
        <time>2020-12-04T12:58:52Z</time>
      </trkpt>
      <trkpt lat="39.89635" lon="116.64389">
        <time>2020-12-04T12:58:57Z</time>
      </trkpt>
      <trkpt lat="39.896377" lon="116.64402">
        <time>2020-12-04T12:59:02Z</time>
      </trkpt>
      <trkpt lat="39.8964" lon="116.644157">
        <time>2020-12-04T12:59:07Z</time>
      </trkpt>
      <trkpt lat="39.896404" lon="116.644309">
        <time>2020-12-04T12:59:12Z</time>
      </trkpt>
      <trkpt lat="39.896392" lon="116.644454">
        <time>2020-12-04T12:59:17Z</time>
      </trkpt>
      <trkpt lat="39.896381" lon="116.64463">
        <time>2020-12-04T12:59:22Z</time>
      </trkpt>
      <trkpt lat="39.896358" lon="116.644798">
        <time>2020-12-04T12:59:27Z</time>
      </trkpt>
      <trkpt lat="39.896324" lon="116.644958">
        <time>2020-12-04T12:59:32Z</time>
      </trkpt>
      <trkpt lat="39.896289" lon="116.645118">
        <time>2020-12-04T12:59:37Z</time>
      </trkpt>
      <trkpt lat="39.89627" lon="116.645294">
        <time>2020-12-04T12:59:42Z</time>
      </trkpt>
      <trkpt lat="39.896259" lon="116.645469">
        <time>2020-12-04T12:59:47Z</time>
      </trkpt>
      <trkpt lat="39.896217" lon="116.645629">
        <time>2020-12-04T12:59:52Z</time>
      </trkpt>
      <trkpt lat="39.896163" lon="116.645805">
        <time>2020-12-04T12:59:57Z</time>
      </trkpt>
      <trkpt lat="39.896129" lon="116.64595">
        <time>2020-12-04T13:00:02Z</time>
      </trkpt>
      <trkpt lat="39.896125" lon="116.64608">
        <time>2020-12-04T13:00:07Z</time>
      </trkpt>
      <trkpt lat="39.896129" lon="116.646186">
        <time>2020-12-04T13:00:12Z</time>
      </trkpt>
      <trkpt lat="39.896125" lon="116.646293">
        <time>2020-12-04T13:00:17Z</time>
      </trkpt>
      <trkpt lat="39.896118" lon="116.646423">
        <time>2020-12-04T13:00:22Z</time>
      </trkpt>
      <trkpt lat="39.89611" lon="116.64656">
        <time>2020-12-04T13:00:27Z</time>
      </trkpt>
      <trkpt lat="39.896057" lon="116.646675">
        <time>2020-12-04T13:00:32Z</time>
      </trkpt>
      <trkpt lat="39.895961" lon="116.646743">
        <time>2020-12-04T13:00:37Z</time>
      </trkpt>
      <trkpt lat="39.895851" lon="116.646743">
        <time>2020-12-04T13:00:42Z</time>
      </trkpt>
      <trkpt lat="39.895755" lon="116.646705">
        <time>2020-12-04T13:00:47Z</time>
      </trkpt>
      <trkpt lat="39.895683" lon="116.646667">
        <time>2020-12-04T13:00:52Z</time>
      </trkpt>
      <trkpt lat="39.895622" lon="116.646621">
        <time>2020-12-04T13:00:57Z</time>
      </trkpt>
      <trkpt lat="39.895568" lon="116.646591">
        <time>2020-12-04T13:01:02Z</time>
      </trkpt>
      <trkpt lat="39.895484" lon="116.64656">
        <time>2020-12-04T13:01:07Z</time>
      </trkpt>
      <trkpt lat="39.895374" lon="116.64653">
        <time>2020-12-04T13:01:12Z</time>
      </trkpt>
      <trkpt lat="39.895248" lon="116.646484">
        <time>2020-12-04T13:01:17Z</time>
      </trkpt>
      <trkpt lat="39.895111" lon="116.646453">
        <time>2020-12-04T13:01:22Z</time>
      </trkpt>
      <trkpt lat="39.894981" lon="116.646423">
        <time>2020-12-04T13:01:27Z</time>
      </trkpt>
      <trkpt lat="39.894866" lon="116.646377">
        <time>2020-12-04T13:01:32Z</time>
      </trkpt>
      <trkpt lat="39.894756" lon="116.646339">
        <time>2020-12-04T13:01:37Z</time>
      </trkpt>
      <trkpt lat="39.894641" lon="116.646316">
        <time>2020-12-04T13:01:42Z</time>
      </trkpt>
      <trkpt lat="39.894523" lon="116.646286">
        <time>2020-12-04T13:01:47Z</time>
      </trkpt>
      <trkpt lat="39.894424" lon="116.646247">
        <time>2020-12-04T13:01:52Z</time>
      </trkpt>
      <trkpt lat="39.89434" lon="116.646232">
        <time>2020-12-04T13:01:57Z</time>
      </trkpt>
      <trkpt lat="39.894248" lon="116.646194">
        <time>2020-12-04T13:02:02Z</time>
      </trkpt>
      <trkpt lat="39.894165" lon="116.646156">
        <time>2020-12-04T13:02:07Z</time>
      </trkpt>
      <trkpt lat="39.894088" lon="116.64611">
        <time>2020-12-04T13:02:12Z</time>
      </trkpt>
      <trkpt lat="39.894008" lon="116.646057">
        <time>2020-12-04T13:02:17Z</time>
      </trkpt>
      <trkpt lat="39.893936" lon="116.646057">
        <time>2020-12-04T13:02:22Z</time>
      </trkpt>
      <trkpt lat="39.893882" lon="116.646125">
        <time>2020-12-04T13:02:27Z</time>
      </trkpt>
      <trkpt lat="39.893829" lon="116.646209">
        <time>2020-12-04T13:02:32Z</time>
      </trkpt>
      <trkpt lat="39.893753" lon="116.646301">
        <time>2020-12-04T13:02:37Z</time>
      </trkpt>
      <trkpt lat="39.893657" lon="116.646354">
        <time>2020-12-04T13:02:42Z</time>
      </trkpt>
      <trkpt lat="39.893547" lon="116.646347">
        <time>2020-12-04T13:02:47Z</time>
      </trkpt>
      <trkpt lat="39.893432" lon="116.646301">
        <time>2020-12-04T13:02:52Z</time>
      </trkpt>
      <trkpt lat="39.893314" lon="116.646263">
        <time>2020-12-04T13:02:57Z</time>
      </trkpt>
      <trkpt lat="39.893188" lon="116.64624">
        <time>2020-12-04T13:03:02Z</time>
      </trkpt>
      <trkpt lat="39.893062" lon="116.646217">
        <time>2020-12-04T13:03:07Z</time>
      </trkpt>
      <trkpt lat="39.89294" lon="116.646163">
        <time>2020-12-04T13:03:12Z</time>
      </trkpt>
      <trkpt lat="39.892795" lon="116.646141">
        <time>2020-12-04T13:03:17Z</time>
      </trkpt>
      <trkpt lat="39.89265" lon="116.646125">
        <time>2020-12-04T13:03:22Z</time>
      </trkpt>
      <trkpt lat="39.892513" lon="116.646087">
        <time>2020-12-04T13:03:27Z</time>
      </trkpt>
      <trkpt lat="39.892375" lon="116.64608">
        <time>2020-12-04T13:03:32Z</time>
      </trkpt>
      <trkpt lat="39.892257" lon="116.646018">
        <time>2020-12-04T13:03:37Z</time>
      </trkpt>
      <trkpt lat="39.89215" lon="116.645912">
        <time>2020-12-04T13:03:42Z</time>
      </trkpt>
      <trkpt lat="39.892032" lon="116.64582">
        <time>2020-12-04T13:03:47Z</time>
      </trkpt>
      <trkpt lat="39.891902" lon="116.64579">
        <time>2020-12-04T13:03:52Z</time>
      </trkpt>
      <trkpt lat="39.891788" lon="116.645767">
        <time>2020-12-04T13:03:57Z</time>
      </trkpt>
      <trkpt lat="39.891704" lon="116.645683">
        <time>2020-12-04T13:04:02Z</time>
      </trkpt>
      <trkpt lat="39.891654" lon="116.645545">
        <time>2020-12-04T13:04:07Z</time>
      </trkpt>
      <trkpt lat="39.891696" lon="116.645462">
        <time>2020-12-04T13:04:12Z</time>
      </trkpt>
      <trkpt lat="39.89178" lon="116.645462">
        <time>2020-12-04T13:04:17Z</time>
      </trkpt>
      <trkpt lat="39.891853" lon="116.645507">
        <time>2020-12-04T13:04:22Z</time>
      </trkpt>
      <trkpt lat="39.891944" lon="116.645568">
        <time>2020-12-04T13:04:27Z</time>
      </trkpt>
      <trkpt lat="39.89204" lon="116.645622">
        <time>2020-12-04T13:04:32Z</time>
      </trkpt>
      <trkpt lat="39.892143" lon="116.64566">
        <time>2020-12-04T13:04:37Z</time>
      </trkpt>
      <trkpt lat="39.892261" lon="116.645706">
        <time>2020-12-04T13:04:42Z</time>
      </trkpt>
      <trkpt lat="39.892372" lon="116.645767">
        <time>2020-12-04T13:04:47Z</time>
      </trkpt>
      <trkpt lat="39.892478" lon="116.64582">
        <time>2020-12-04T13:04:52Z</time>
      </trkpt>
      <trkpt lat="39.892585" lon="116.645866">
        <time>2020-12-04T13:04:57Z</time>
      </trkpt>
      <trkpt lat="39.892696" lon="116.645927">
        <time>2020-12-04T13:05:02Z</time>
      </trkpt>
      <trkpt lat="39.892814" lon="116.645973">
        <time>2020-12-04T13:05:07Z</time>
      </trkpt>
      <trkpt lat="39.892944" lon="116.646018">
        <time>2020-12-04T13:05:12Z</time>
      </trkpt>
      <trkpt lat="39.893081" lon="116.646072">
        <time>2020-12-04T13:05:17Z</time>
      </trkpt>
      <trkpt lat="39.893218" lon="116.646125">
        <time>2020-12-04T13:05:22Z</time>
      </trkpt>
      <trkpt lat="39.893363" lon="116.646179">
        <time>2020-12-04T13:05:27Z</time>
      </trkpt>
      <trkpt lat="39.893505" lon="116.646232">
        <time>2020-12-04T13:05:32Z</time>
      </trkpt>
      <trkpt lat="39.893638" lon="116.646301">
        <time>2020-12-04T13:05:37Z</time>
      </trkpt>
      <trkpt lat="39.893749" lon="116.646347">
        <time>2020-12-04T13:05:42Z</time>
      </trkpt>
      <trkpt lat="39.89384" lon="116.646339">
        <time>2020-12-04T13:05:47Z</time>
      </trkpt>
      <trkpt lat="39.893913" lon="116.646247">
        <time>2020-12-04T13:05:52Z</time>
      </trkpt>
      <trkpt lat="39.893985" lon="116.646141">
        <time>2020-12-04T13:05:57Z</time>
      </trkpt>
      <trkpt lat="39.894054" lon="116.646057">
        <time>2020-12-04T13:06:02Z</time>
      </trkpt>
      <trkpt lat="39.894134" lon="116.646003">
        <time>2020-12-04T13:06:07Z</time>
      </trkpt>
      <trkpt lat="39.894214" lon="116.646003">
        <time>2020-12-04T13:06:12Z</time>
      </trkpt>
      <trkpt lat="39.894302" lon="116.646049">
        <time>2020-12-04T13:06:17Z</time>
      </trkpt>
      <trkpt lat="39.894424" lon="116.646087">
        <time>2020-12-04T13:06:22Z</time>
      </trkpt>
      <trkpt lat="39.894557" lon="116.646141">
        <time>2020-12-04T13:06:27Z</time>
      </trkpt>
      <trkpt lat="39.894683" lon="116.646209">
        <time>2020-12-04T13:06:32Z</time>
      </trkpt>
      <trkpt lat="39.894805" lon="116.646263">
        <time>2020-12-04T13:06:37Z</time>
      </trkpt>
      <trkpt lat="39.894905" lon="116.646316">
        <time>2020-12-04T13:06:42Z</time>
      </trkpt>
      <trkpt lat="39.895015" lon="116.646369">
        <time>2020-12-04T13:06:47Z</time>
      </trkpt>
      <trkpt lat="39.895153" lon="116.646408">
        <time>2020-12-04T13:06:52Z</time>
      </trkpt>
      <trkpt lat="39.895305" lon="116.646453">
        <time>2020-12-04T13:06:57Z</time>
      </trkpt>
      <trkpt lat="39.895454" lon="116.646507">
        <time>2020-12-04T13:07:02Z</time>
      </trkpt>
      <trkpt lat="39.895595" lon="116.64656">
        <time>2020-12-04T13:07:07Z</time>
      </trkpt>
      <trkpt lat="39.895732" lon="116.646636">
        <time>2020-12-04T13:07:12Z</time>
      </trkpt>
      <trkpt lat="39.895862" lon="116.64669">
        <time>2020-12-04T13:07:17Z</time>
      </trkpt>
      <trkpt lat="39.89598" lon="116.646743">
        <time>2020-12-04T13:07:22Z</time>
      </trkpt>
      <trkpt lat="39.896087" lon="116.646774">
        <time>2020-12-04T13:07:27Z</time>
      </trkpt>
      <trkpt lat="39.896156" lon="116.646743">
        <time>2020-12-04T13:07:32Z</time>
      </trkpt>
      <trkpt lat="39.89619" lon="116.646644">
        <time>2020-12-04T13:07:37Z</time>
      </trkpt>
      <trkpt lat="39.896205" lon="116.646537">
        <time>2020-12-04T13:07:42Z</time>
      </trkpt>
      <trkpt lat="39.896209" lon="116.646423">
        <time>2020-12-04T13:07:47Z</time>
      </trkpt>
      <trkpt lat="39.896205" lon="116.646316">
        <time>2020-12-04T13:07:52Z</time>
      </trkpt>
      <trkpt lat="39.896198" lon="116.646217">
        <time>2020-12-04T13:07:57Z</time>
      </trkpt>
      <trkpt lat="39.89619" lon="116.64611">
        <time>2020-12-04T13:08:02Z</time>
      </trkpt>
      <trkpt lat="39.896194" lon="116.645996">
        <time>2020-12-04T13:08:07Z</time>
      </trkpt>
      <trkpt lat="39.896209" lon="116.645858">
        <time>2020-12-04T13:08:12Z</time>
      </trkpt>
      <trkpt lat="39.896236" lon="116.645706">
        <time>2020-12-04T13:08:17Z</time>
      </trkpt>
      <trkpt lat="39.896251" lon="116.645568">
        <time>2020-12-04T13:08:22Z</time>
      </trkpt>
      <trkpt lat="39.896251" lon="116.645408">
        <time>2020-12-04T13:08:27Z</time>
      </trkpt>
      <trkpt lat="39.896255" lon="116.645225">
        <time>2020-12-04T13:08:32Z</time>
      </trkpt>
      <trkpt lat="39.896263" lon="116.645042">
        <time>2020-12-04T13:08:37Z</time>
      </trkpt>
      <trkpt lat="39.896263" lon="116.644866">
        <time>2020-12-04T13:08:42Z</time>
      </trkpt>
      <trkpt lat="39.896255" lon="116.644683">
        <time>2020-12-04T13:08:47Z</time>
      </trkpt>
      <trkpt lat="39.896247" lon="116.6445">
        <time>2020-12-04T13:08:52Z</time>
      </trkpt>
      <trkpt lat="39.896247" lon="116.644355">
        <time>2020-12-04T13:08:57Z</time>
      </trkpt>
      <trkpt lat="39.896251" lon="116.64421">
        <time>2020-12-04T13:09:02Z</time>
      </trkpt>
      <trkpt lat="39.896251" lon="116.644096">
        <time>2020-12-04T13:09:07Z</time>
      </trkpt>
      <trkpt lat="39.896255" lon="116.643966">
        <time>2020-12-04T13:09:12Z</time>
      </trkpt>
      <trkpt lat="39.896266" lon="116.643836">
        <time>2020-12-04T13:09:17Z</time>
      </trkpt>
      <trkpt lat="39.89627" lon="116.643699">
        <time>2020-12-04T13:09:22Z</time>
      </trkpt>
      <trkpt lat="39.896263" lon="116.643516">
        <time>2020-12-04T13:09:27Z</time>
      </trkpt>
      <trkpt lat="39.896255" lon="116.643264">
        <time>2020-12-04T13:09:32Z</time>
      </trkpt>
      <trkpt lat="39.896251" lon="116.643043">
        <time>2020-12-04T13:09:37Z</time>
      </trkpt>
      <trkpt lat="39.896255" lon="116.64286">
        <time>2020-12-04T13:09:42Z</time>
      </trkpt>
      <trkpt lat="39.896263" lon="116.642684">
        <time>2020-12-04T13:09:47Z</time>
      </trkpt>
      <trkpt lat="39.896251" lon="116.642517">
        <time>2020-12-04T13:09:52Z</time>
      </trkpt>
      <trkpt lat="39.896244" lon="116.642349">
        <time>2020-12-04T13:09:57Z</time>
      </trkpt>
      <trkpt lat="39.896244" lon="116.642173">
        <time>2020-12-04T13:10:02Z</time>
      </trkpt>
      <trkpt lat="39.896251" lon="116.642005">
        <time>2020-12-04T13:10:07Z</time>
      </trkpt>
      <trkpt lat="39.896263" lon="116.641815">
        <time>2020-12-04T13:10:12Z</time>
      </trkpt>
      <trkpt lat="39.896282" lon="116.641639">
        <time>2020-12-04T13:10:17Z</time>
      </trkpt>
      <trkpt lat="39.896297" lon="116.641502">
        <time>2020-12-04T13:10:22Z</time>
      </trkpt>
      <trkpt lat="39.896305" lon="116.641357">
        <time>2020-12-04T13:10:27Z</time>
      </trkpt>
      <trkpt lat="39.89632" lon="116.641204">
        <time>2020-12-04T13:10:32Z</time>
      </trkpt>
      <trkpt lat="39.896331" lon="116.641044">
        <time>2020-12-04T13:10:37Z</time>
      </trkpt>
      <trkpt lat="39.896339" lon="116.640884">
        <time>2020-12-04T13:10:42Z</time>
      </trkpt>
      <trkpt lat="39.896335" lon="116.640724">
        <time>2020-12-04T13:10:47Z</time>
      </trkpt>
      <trkpt lat="39.896324" lon="116.640533">
        <time>2020-12-04T13:10:52Z</time>
      </trkpt>
      <trkpt lat="39.896297" lon="116.640342">
        <time>2020-12-04T13:10:57Z</time>
      </trkpt>
      <trkpt lat="39.896278" lon="116.640151">
        <time>2020-12-04T13:11:02Z</time>
      </trkpt>
      <trkpt lat="39.896274" lon="116.639953">
        <time>2020-12-04T13:11:07Z</time>
      </trkpt>
      <trkpt lat="39.896274" lon="116.639778">
        <time>2020-12-04T13:11:12Z</time>
      </trkpt>
      <trkpt lat="39.896282" lon="116.639617">
        <time>2020-12-04T13:11:17Z</time>
      </trkpt>
      <trkpt lat="39.896289" lon="116.639465">
        <time>2020-12-04T13:11:22Z</time>
      </trkpt>
      <trkpt lat="39.896305" lon="116.639297">
        <time>2020-12-04T13:11:27Z</time>
      </trkpt>
      <trkpt lat="39.896331" lon="116.639114">
        <time>2020-12-04T13:11:32Z</time>
      </trkpt>
      <trkpt lat="39.896339" lon="116.638923">
        <time>2020-12-04T13:11:37Z</time>
      </trkpt>
      <trkpt lat="39.896343" lon="116.638717">
        <time>2020-12-04T13:11:42Z</time>
      </trkpt>
      <trkpt lat="39.896358" lon="116.638519">
        <time>2020-12-04T13:11:47Z</time>
      </trkpt>
      <trkpt lat="39.896354" lon="116.638328">
        <time>2020-12-04T13:11:52Z</time>
      </trkpt>
      <trkpt lat="39.896324" lon="116.638168">
        <time>2020-12-04T13:11:57Z</time>
      </trkpt>
      <trkpt lat="39.896297" lon="116.638008">
        <time>2020-12-04T13:12:02Z</time>
      </trkpt>
      <trkpt lat="39.896278" lon="116.637863">
        <time>2020-12-04T13:12:07Z</time>
      </trkpt>
      <trkpt lat="39.896259" lon="116.637725">
        <time>2020-12-04T13:12:12Z</time>
      </trkpt>
      <trkpt lat="39.896255" lon="116.637565">
        <time>2020-12-04T13:12:17Z</time>
      </trkpt>
      <trkpt lat="39.896251" lon="116.63742">
        <time>2020-12-04T13:12:22Z</time>
      </trkpt>
      <trkpt lat="39.896244" lon="116.637268">
        <time>2020-12-04T13:12:27Z</time>
      </trkpt>
      <trkpt lat="39.896224" lon="116.637123">
        <time>2020-12-04T13:12:32Z</time>
      </trkpt>
      <trkpt lat="39.896171" lon="116.636962">
        <time>2020-12-04T13:12:37Z</time>
      </trkpt>
      <trkpt lat="39.896083" lon="116.636833">
        <time>2020-12-04T13:12:42Z</time>
      </trkpt>
      <trkpt lat="39.895973" lon="116.636726">
        <time>2020-12-04T13:12:47Z</time>
      </trkpt>
      <trkpt lat="39.895923" lon="116.636627">
        <time>2020-12-04T13:12:52Z</time>
      </trkpt>
      <trkpt lat="39.895965" lon="116.636489">
        <time>2020-12-04T13:12:57Z</time>
      </trkpt>
      <trkpt lat="39.896049" lon="116.63636">
        <time>2020-12-04T13:13:02Z</time>
      </trkpt>
      <trkpt lat="39.896152" lon="116.636268">
        <time>2020-12-04T13:13:07Z</time>
      </trkpt>
      <trkpt lat="39.896244" lon="116.636169">
        <time>2020-12-04T13:13:12Z</time>
      </trkpt>
      <trkpt lat="39.896343" lon="116.636062">
        <time>2020-12-04T13:13:17Z</time>
      </trkpt>
      <trkpt lat="39.896472" lon="116.635986">
        <time>2020-12-04T13:13:22Z</time>
      </trkpt>
      <trkpt lat="39.896614" lon="116.635948">
        <time>2020-12-04T13:13:27Z</time>
      </trkpt>
      <trkpt lat="39.896739" lon="116.635902">
        <time>2020-12-04T13:13:32Z</time>
      </trkpt>
      <trkpt lat="39.896854" lon="116.635848">
        <time>2020-12-04T13:13:37Z</time>
      </trkpt>
      <trkpt lat="39.896957" lon="116.635795">
        <time>2020-12-04T13:13:42Z</time>
      </trkpt>
      <trkpt lat="39.897048" lon="116.635711">
        <time>2020-12-04T13:13:47Z</time>
      </trkpt>
      <trkpt lat="39.897132" lon="116.635635">
        <time>2020-12-04T13:13:52Z</time>
      </trkpt>
      <trkpt lat="39.897205" lon="116.635528">
        <time>2020-12-04T13:13:57Z</time>
      </trkpt>
      <trkpt lat="39.897277" lon="116.635444">
        <time>2020-12-04T13:14:02Z</time>
      </trkpt>
      <trkpt lat="39.89735" lon="116.635391">
        <time>2020-12-04T13:14:07Z</time>
      </trkpt>
      <trkpt lat="39.89743" lon="116.635368">
        <time>2020-12-04T13:14:12Z</time>
      </trkpt>
      <trkpt lat="39.897502" lon="116.635337">
        <time>2020-12-04T13:14:17Z</time>
      </trkpt>
      <trkpt lat="39.897575" lon="116.635314">
        <time>2020-12-04T13:14:22Z</time>
      </trkpt>
      <trkpt lat="39.897647" lon="116.635284">
        <time>2020-12-04T13:14:27Z</time>
      </trkpt>
      <trkpt lat="39.897724" lon="116.635223">
        <time>2020-12-04T13:14:32Z</time>
      </trkpt>
      <trkpt lat="39.897804" lon="116.635124">
        <time>2020-12-04T13:14:37Z</time>
      </trkpt>
      <trkpt lat="39.897891" lon="116.635047">
        <time>2020-12-04T13:14:42Z</time>
      </trkpt>
      <trkpt lat="39.897979" lon="116.634994">
        <time>2020-12-04T13:14:47Z</time>
      </trkpt>
      <trkpt lat="39.898086" lon="116.634933">
        <time>2020-12-04T13:14:52Z</time>
      </trkpt>
      <trkpt lat="39.898193" lon="116.634857">
        <time>2020-12-04T13:14:57Z</time>
      </trkpt>
      <trkpt lat="39.8983" lon="116.63478">
        <time>2020-12-04T13:15:02Z</time>
      </trkpt>
      <trkpt lat="39.898403" lon="116.634712">
        <time>2020-12-04T13:15:07Z</time>
      </trkpt>
      <trkpt lat="39.898502" lon="116.634643">
        <time>2020-12-04T13:15:12Z</time>
      </trkpt>
      <trkpt lat="39.898601" lon="116.634567">
        <time>2020-12-04T13:15:17Z</time>
      </trkpt>
      <trkpt lat="39.898715" lon="116.634513">
        <time>2020-12-04T13:15:22Z</time>
      </trkpt>
      <trkpt lat="39.898841" lon="116.63446">
        <time>2020-12-04T13:15:27Z</time>
      </trkpt>
      <trkpt lat="39.898971" lon="116.634376">
        <time>2020-12-04T13:15:32Z</time>
      </trkpt>
      <trkpt lat="39.899101" lon="116.6343">
        <time>2020-12-04T13:15:37Z</time>
      </trkpt>
      <trkpt lat="39.899219" lon="116.634239">
        <time>2020-12-04T13:15:42Z</time>
      </trkpt>
      <trkpt lat="39.899326" lon="116.634178">
        <time>2020-12-04T13:15:47Z</time>
      </trkpt>
      <trkpt lat="39.899436" lon="116.634124">
        <time>2020-12-04T13:15:52Z</time>
      </trkpt>
      <trkpt lat="39.899547" lon="116.634078">
        <time>2020-12-04T13:15:57Z</time>
      </trkpt>
      <trkpt lat="39.899662" lon="116.634025">
        <time>2020-12-04T13:16:02Z</time>
      </trkpt>
      <trkpt lat="39.899772" lon="116.633964">
        <time>2020-12-04T13:16:07Z</time>
      </trkpt>
      <trkpt lat="39.899875" lon="116.63388">
        <time>2020-12-04T13:16:12Z</time>
      </trkpt>
      <trkpt lat="39.899974" lon="116.633804">
        <time>2020-12-04T13:16:17Z</time>
      </trkpt>
      <trkpt lat="39.900066" lon="116.633735">
        <time>2020-12-04T13:16:22Z</time>
      </trkpt>
      <trkpt lat="39.900169" lon="116.633666">
        <time>2020-12-04T13:16:27Z</time>
      </trkpt>
      <trkpt lat="39.900287" lon="116.63359">
        <time>2020-12-04T13:16:32Z</time>
      </trkpt>
      <trkpt lat="39.900409" lon="116.633522">
        <time>2020-12-04T13:16:37Z</time>
      </trkpt>
      <trkpt lat="39.900524" lon="116.633453">
        <time>2020-12-04T13:16:42Z</time>
      </trkpt>
      <trkpt lat="39.900623" lon="116.633361">
        <time>2020-12-04T13:16:47Z</time>
      </trkpt>
      <trkpt lat="39.900718" lon="116.633277">
        <time>2020-12-04T13:16:52Z</time>
      </trkpt>
      <trkpt lat="39.900825" lon="116.633216">
        <time>2020-12-04T13:16:57Z</time>
      </trkpt>
      <trkpt lat="39.900947" lon="116.633171">
        <time>2020-12-04T13:17:02Z</time>
      </trkpt>
      <trkpt lat="39.901012" lon="116.633193">
        <time>2020-12-04T13:17:07Z</time>
      </trkpt>
      <trkpt lat="39.900985" lon="116.63327">
        <time>2020-12-04T13:17:12Z</time>
      </trkpt>
      <trkpt lat="39.900909" lon="116.633323">
        <time>2020-12-04T13:17:17Z</time>
      </trkpt>
      <trkpt lat="39.900817" lon="116.633399">
        <time>2020-12-04T13:17:22Z</time>
      </trkpt>
      <trkpt lat="39.900714" lon="116.633483">
        <time>2020-12-04T13:17:27Z</time>
      </trkpt>
      <trkpt lat="39.900611" lon="116.63356">
        <time>2020-12-04T13:17:32Z</time>
      </trkpt>
      <trkpt lat="39.900501" lon="116.633621">
        <time>2020-12-04T13:17:37Z</time>
      </trkpt>
      <trkpt lat="39.900386" lon="116.633674">
        <time>2020-12-04T13:17:42Z</time>
      </trkpt>
      <trkpt lat="39.900272" lon="116.63375">
        <time>2020-12-04T13:17:47Z</time>
      </trkpt>
      <trkpt lat="39.900161" lon="116.633834">
        <time>2020-12-04T13:17:52Z</time>
      </trkpt>
      <trkpt lat="39.900054" lon="116.633918">
        <time>2020-12-04T13:17:57Z</time>
      </trkpt>
      <trkpt lat="39.89994" lon="116.634002">
        <time>2020-12-04T13:18:02Z</time>
      </trkpt>
      <trkpt lat="39.899822" lon="116.634094">
        <time>2020-12-04T13:18:07Z</time>
      </trkpt>
      <trkpt lat="39.899707" lon="116.634155">
        <time>2020-12-04T13:18:12Z</time>
      </trkpt>
      <trkpt lat="39.899593" lon="116.634208">
        <time>2020-12-04T13:18:17Z</time>
      </trkpt>
      <trkpt lat="39.899505" lon="116.634262">
        <time>2020-12-04T13:18:22Z</time>
      </trkpt>
      <trkpt lat="39.899383" lon="116.634346">
        <time>2020-12-04T13:18:27Z</time>
      </trkpt>
      <trkpt lat="39.899284" lon="116.634429">
        <time>2020-12-04T13:18:32Z</time>
      </trkpt>
      <trkpt lat="39.899166" lon="116.634513">
        <time>2020-12-04T13:18:37Z</time>
      </trkpt>
      <trkpt lat="39.899051" lon="116.63459">
        <time>2020-12-04T13:18:42Z</time>
      </trkpt>
      <trkpt lat="39.898933" lon="116.634643">
        <time>2020-12-04T13:18:47Z</time>
      </trkpt>
      <trkpt lat="39.898822" lon="116.634712">
        <time>2020-12-04T13:18:52Z</time>
      </trkpt>
      <trkpt lat="39.898719" lon="116.634773">
        <time>2020-12-04T13:18:57Z</time>
      </trkpt>
      <trkpt lat="39.898635" lon="116.634826">
        <time>2020-12-04T13:19:02Z</time>
      </trkpt>
      <trkpt lat="39.898567" lon="116.634872">
        <time>2020-12-04T13:19:07Z</time>
      </trkpt>
      <trkpt lat="39.898506" lon="116.634925">
        <time>2020-12-04T13:19:12Z</time>
      </trkpt>
      <trkpt lat="39.898445" lon="116.634979">
        <time>2020-12-04T13:19:17Z</time>
      </trkpt>
      <trkpt lat="39.898372" lon="116.635009">
        <time>2020-12-04T13:19:22Z</time>
      </trkpt>
      <trkpt lat="39.898277" lon="116.634956">
        <time>2020-12-04T13:19:27Z</time>
      </trkpt>
      <trkpt lat="39.898185" lon="116.634819">
        <time>2020-12-04T13:19:32Z</time>
      </trkpt>
      <trkpt lat="39.898109" lon="116.634666">
        <time>2020-12-04T13:19:37Z</time>
      </trkpt>
      <trkpt lat="39.898033" lon="116.634529">
        <time>2020-12-04T13:19:42Z</time>
      </trkpt>
      <trkpt lat="39.897987" lon="116.634399">
        <time>2020-12-04T13:19:47Z</time>
      </trkpt>
      <trkpt lat="39.897953" lon="116.634284">
        <time>2020-12-04T13:19:52Z</time>
      </trkpt>
      <trkpt lat="39.897914" lon="116.634155">
        <time>2020-12-04T13:19:57Z</time>
      </trkpt>
      <trkpt lat="39.897865" lon="116.634048">
        <time>2020-12-04T13:20:02Z</time>
      </trkpt>
      <trkpt lat="39.897811" lon="116.633949">
        <time>2020-12-04T13:20:07Z</time>
      </trkpt>
      <trkpt lat="39.897739" lon="116.63388">
        <time>2020-12-04T13:20:12Z</time>
      </trkpt>
      <trkpt lat="39.897644" lon="116.633804">
        <time>2020-12-04T13:20:17Z</time>
      </trkpt>
      <trkpt lat="39.897533" lon="116.63375">
        <time>2020-12-04T13:20:22Z</time>
      </trkpt>
      <trkpt lat="39.897445" lon="116.633789">
        <time>2020-12-04T13:20:27Z</time>
      </trkpt>
      <trkpt lat="39.897441" lon="116.633987">
        <time>2020-12-04T13:20:32Z</time>
      </trkpt>
      <trkpt lat="39.897396" lon="116.634101">
        <time>2020-12-04T13:23:07Z</time>
      </trkpt>
    </trkseg>
  </trk>
</gpx>