<?xml version="1.0" encoding="UTF-8"?>
<gpx xmlns="http://www.topografix.com/GPX/1/1" xmlns:gpxtpx="http://www.garmin.com/xmlschemas/TrackPointExtension/v1" xmlns:xsi="http://www.w3.org/2001/XMLSchema-instance" xsi:schemaLocation="http://www.topografix.com/GPX/1/1 http://www.topografix.com/GPX/1/1/gpx.xsd" version="1.1" creator="gpx.py -- https://github.com/tkrajina/gpxpy">
  <trk>
    <name>gpx from keep</name>
    <trkseg>
      <trkpt lat="39.897697" lon="116.63536">
        <time>2020-12-23T12:12:04Z</time>
      </trkpt>
      <trkpt lat="39.897678" lon="116.63536">
        <time>2020-12-23T12:12:09Z</time>
      </trkpt>
      <trkpt lat="39.897651" lon="116.635368">
        <time>2020-12-23T12:12:14Z</time>
      </trkpt>
      <trkpt lat="39.897602" lon="116.635383">
        <time>2020-12-23T12:12:19Z</time>
      </trkpt>
      <trkpt lat="39.897556" lon="116.635398">
        <time>2020-12-23T12:12:24Z</time>
      </trkpt>
      <trkpt lat="39.897502" lon="116.635437">
        <time>2020-12-23T12:12:29Z</time>
      </trkpt>
      <trkpt lat="39.897438" lon="116.635498">
        <time>2020-12-23T12:12:34Z</time>
      </trkpt>
      <trkpt lat="39.897354" lon="116.635559">
        <time>2020-12-23T12:12:39Z</time>
      </trkpt>
      <trkpt lat="39.897251" lon="116.635612">
        <time>2020-12-23T12:12:44Z</time>
      </trkpt>
      <trkpt lat="39.897148" lon="116.635665">
        <time>2020-12-23T12:12:49Z</time>
      </trkpt>
      <trkpt lat="39.897048" lon="116.635757">
        <time>2020-12-23T12:12:54Z</time>
      </trkpt>
      <trkpt lat="39.896953" lon="116.635848">
        <time>2020-12-23T12:12:59Z</time>
      </trkpt>
      <trkpt lat="39.896873" lon="116.635902">
        <time>2020-12-23T12:13:04Z</time>
      </trkpt>
      <trkpt lat="39.896785" lon="116.635948">
        <time>2020-12-23T12:13:09Z</time>
      </trkpt>
      <trkpt lat="39.896686" lon="116.635978">
        <time>2020-12-23T12:13:14Z</time>
      </trkpt>
      <trkpt lat="39.896587" lon="116.636024">
        <time>2020-12-23T12:13:19Z</time>
      </trkpt>
      <trkpt lat="39.896499" lon="116.636077">
        <time>2020-12-23T12:13:24Z</time>
      </trkpt>
      <trkpt lat="39.896411" lon="116.636138">
        <time>2020-12-23T12:13:29Z</time>
      </trkpt>
      <trkpt lat="39.896289" lon="116.636238">
        <time>2020-12-23T12:13:34Z</time>
      </trkpt>
      <trkpt lat="39.896213" lon="116.636344">
        <time>2020-12-23T12:13:39Z</time>
      </trkpt>
      <trkpt lat="39.896133" lon="116.636466">
        <time>2020-12-23T12:13:44Z</time>
      </trkpt>
      <trkpt lat="39.896076" lon="116.636573">
        <time>2020-12-23T12:13:49Z</time>
      </trkpt>
      <trkpt lat="39.896057" lon="116.636619">
        <time>2020-12-23T12:13:54Z</time>
      </trkpt>
      <trkpt lat="39.896034" lon="116.63665">
        <time>2020-12-23T12:13:59Z</time>
      </trkpt>
      <trkpt lat="39.896015" lon="116.63668">
        <time>2020-12-23T12:14:04Z</time>
      </trkpt>
      <trkpt lat="39.896003" lon="116.636734">
        <time>2020-12-23T12:14:09Z</time>
      </trkpt>
      <trkpt lat="39.896026" lon="116.636833">
        <time>2020-12-23T12:14:14Z</time>
      </trkpt>
      <trkpt lat="39.896072" lon="116.63697">
        <time>2020-12-23T12:14:19Z</time>
      </trkpt>
      <trkpt lat="39.896118" lon="116.637107">
        <time>2020-12-23T12:14:24Z</time>
      </trkpt>
      <trkpt lat="39.896156" lon="116.63726">
        <time>2020-12-23T12:14:29Z</time>
      </trkpt>
      <trkpt lat="39.89619" lon="116.637405">
        <time>2020-12-23T12:14:34Z</time>
      </trkpt>
      <trkpt lat="39.896209" lon="116.637565">
        <time>2020-12-23T12:14:39Z</time>
      </trkpt>
      <trkpt lat="39.896224" lon="116.637718">
        <time>2020-12-23T12:14:44Z</time>
      </trkpt>
      <trkpt lat="39.896259" lon="116.637863">
        <time>2020-12-23T12:14:49Z</time>
      </trkpt>
      <trkpt lat="39.896301" lon="116.638015">
        <time>2020-12-23T12:14:54Z</time>
      </trkpt>
      <trkpt lat="39.896335" lon="116.638168">
        <time>2020-12-23T12:14:59Z</time>
      </trkpt>
      <trkpt lat="39.896347" lon="116.638305">
        <time>2020-12-23T12:15:04Z</time>
      </trkpt>
      <trkpt lat="39.896347" lon="116.63845">
        <time>2020-12-23T12:15:09Z</time>
      </trkpt>
      <trkpt lat="39.896362" lon="116.638626">
        <time>2020-12-23T12:15:14Z</time>
      </trkpt>
      <trkpt lat="39.896381" lon="116.638824">
        <time>2020-12-23T12:15:19Z</time>
      </trkpt>
      <trkpt lat="39.896389" lon="116.639015">
        <time>2020-12-23T12:15:24Z</time>
      </trkpt>
      <trkpt lat="39.896411" lon="116.63919">
        <time>2020-12-23T12:15:29Z</time>
      </trkpt>
      <trkpt lat="39.896434" lon="116.639411">
        <time>2020-12-23T12:15:34Z</time>
      </trkpt>
      <trkpt lat="39.89643" lon="116.639656">
        <time>2020-12-23T12:15:39Z</time>
      </trkpt>
      <trkpt lat="39.896404" lon="116.639831">
        <time>2020-12-23T12:15:44Z</time>
      </trkpt>
      <trkpt lat="39.896389" lon="116.639968">
        <time>2020-12-23T12:15:49Z</time>
      </trkpt>
      <trkpt lat="39.896385" lon="116.640106">
        <time>2020-12-23T12:15:54Z</time>
      </trkpt>
      <trkpt lat="39.896385" lon="116.640274">
        <time>2020-12-23T12:15:59Z</time>
      </trkpt>
      <trkpt lat="39.896392" lon="116.640457">
        <time>2020-12-23T12:16:04Z</time>
      </trkpt>
      <trkpt lat="39.896381" lon="116.640609">
        <time>2020-12-23T12:16:09Z</time>
      </trkpt>
      <trkpt lat="39.896354" lon="116.640769">
        <time>2020-12-23T12:16:14Z</time>
      </trkpt>
      <trkpt lat="39.896339" lon="116.640914">
        <time>2020-12-23T12:16:19Z</time>
      </trkpt>
      <trkpt lat="39.896327" lon="116.641075">
        <time>2020-12-23T12:16:24Z</time>
      </trkpt>
      <trkpt lat="39.896324" lon="116.641235">
        <time>2020-12-23T12:16:29Z</time>
      </trkpt>
      <trkpt lat="39.89632" lon="116.64141">
        <time>2020-12-23T12:16:34Z</time>
      </trkpt>
      <trkpt lat="39.896301" lon="116.641571">
        <time>2020-12-23T12:16:39Z</time>
      </trkpt>
      <trkpt lat="39.896293" lon="116.641716">
        <time>2020-12-23T12:16:44Z</time>
      </trkpt>
      <trkpt lat="39.896301" lon="116.641853">
        <time>2020-12-23T12:16:49Z</time>
      </trkpt>
      <trkpt lat="39.896297" lon="116.641998">
        <time>2020-12-23T12:16:54Z</time>
      </trkpt>
      <trkpt lat="39.896293" lon="116.642135">
        <time>2020-12-23T12:16:59Z</time>
      </trkpt>
      <trkpt lat="39.896289" lon="116.642272">
        <time>2020-12-23T12:17:04Z</time>
      </trkpt>
      <trkpt lat="39.896289" lon="116.642433">
        <time>2020-12-23T12:17:09Z</time>
      </trkpt>
      <trkpt lat="39.896293" lon="116.642601">
        <time>2020-12-23T12:17:14Z</time>
      </trkpt>
      <trkpt lat="39.896282" lon="116.642753">
        <time>2020-12-23T12:17:19Z</time>
      </trkpt>
      <trkpt lat="39.896263" lon="116.642898">
        <time>2020-12-23T12:17:24Z</time>
      </trkpt>
      <trkpt lat="39.896244" lon="116.643051">
        <time>2020-12-23T12:17:29Z</time>
      </trkpt>
      <trkpt lat="39.896232" lon="116.643188">
        <time>2020-12-23T12:17:34Z</time>
      </trkpt>
      <trkpt lat="39.896236" lon="116.643341">
        <time>2020-12-23T12:17:39Z</time>
      </trkpt>
      <trkpt lat="39.896251" lon="116.643501">
        <time>2020-12-23T12:17:44Z</time>
      </trkpt>
      <trkpt lat="39.896266" lon="116.643646">
        <time>2020-12-23T12:17:49Z</time>
      </trkpt>
      <trkpt lat="39.89627" lon="116.643798">
        <time>2020-12-23T12:17:54Z</time>
      </trkpt>
      <trkpt lat="39.896274" lon="116.643936">
        <time>2020-12-23T12:17:59Z</time>
      </trkpt>
      <trkpt lat="39.896278" lon="116.644088">
        <time>2020-12-23T12:18:04Z</time>
      </trkpt>
      <trkpt lat="39.89627" lon="116.644226">
        <time>2020-12-23T12:18:09Z</time>
      </trkpt>
      <trkpt lat="39.896266" lon="116.644363">
        <time>2020-12-23T12:18:14Z</time>
      </trkpt>
      <trkpt lat="39.896263" lon="116.6445">
        <time>2020-12-23T12:18:19Z</time>
      </trkpt>
      <trkpt lat="39.896263" lon="116.644653">
        <time>2020-12-23T12:18:24Z</time>
      </trkpt>
      <trkpt lat="39.896251" lon="116.644767">
        <time>2020-12-23T12:18:29Z</time>
      </trkpt>
      <trkpt lat="39.89624" lon="116.644897">
        <time>2020-12-23T12:18:34Z</time>
      </trkpt>
      <trkpt lat="39.896221" lon="116.645027">
        <time>2020-12-23T12:18:39Z</time>
      </trkpt>
      <trkpt lat="39.89619" lon="116.645149">
        <time>2020-12-23T12:18:44Z</time>
      </trkpt>
      <trkpt lat="39.896171" lon="116.645294">
        <time>2020-12-23T12:18:49Z</time>
      </trkpt>
      <trkpt lat="39.896175" lon="116.645439">
        <time>2020-12-23T12:18:54Z</time>
      </trkpt>
      <trkpt lat="39.896163" lon="116.645599">
        <time>2020-12-23T12:18:59Z</time>
      </trkpt>
      <trkpt lat="39.896129" lon="116.645736">
        <time>2020-12-23T12:19:04Z</time>
      </trkpt>
      <trkpt lat="39.896102" lon="116.645874">
        <time>2020-12-23T12:19:09Z</time>
      </trkpt>
      <trkpt lat="39.896091" lon="116.646003">
        <time>2020-12-23T12:19:14Z</time>
      </trkpt>
      <trkpt lat="39.896083" lon="116.646141">
        <time>2020-12-23T12:19:19Z</time>
      </trkpt>
      <trkpt lat="39.896068" lon="116.646301">
        <time>2020-12-23T12:19:24Z</time>
      </trkpt>
      <trkpt lat="39.896064" lon="116.646446">
        <time>2020-12-23T12:19:29Z</time>
      </trkpt>
      <trkpt lat="39.896057" lon="116.64656">
        <time>2020-12-23T12:19:34Z</time>
      </trkpt>
      <trkpt lat="39.896041" lon="116.646697">
        <time>2020-12-23T12:19:39Z</time>
      </trkpt>
      <trkpt lat="39.895969" lon="116.646804">
        <time>2020-12-23T12:19:44Z</time>
      </trkpt>
      <trkpt lat="39.895851" lon="116.64685">
        <time>2020-12-23T12:19:49Z</time>
      </trkpt>
      <trkpt lat="39.895725" lon="116.646827">
        <time>2020-12-23T12:19:54Z</time>
      </trkpt>
      <trkpt lat="39.89561" lon="116.646797">
        <time>2020-12-23T12:19:59Z</time>
      </trkpt>
      <trkpt lat="39.895507" lon="116.646743">
        <time>2020-12-23T12:20:04Z</time>
      </trkpt>
      <trkpt lat="39.895412" lon="116.64669">
        <time>2020-12-23T12:20:09Z</time>
      </trkpt>
      <trkpt lat="39.89532" lon="116.646644">
        <time>2020-12-23T12:20:14Z</time>
      </trkpt>
      <trkpt lat="39.895236" lon="116.646614">
        <time>2020-12-23T12:20:19Z</time>
      </trkpt>
      <trkpt lat="39.895145" lon="116.646568">
        <time>2020-12-23T12:20:24Z</time>
      </trkpt>
      <trkpt lat="39.89505" lon="116.646514">
        <time>2020-12-23T12:20:29Z</time>
      </trkpt>
      <trkpt lat="39.894958" lon="116.646453">
        <time>2020-12-23T12:20:34Z</time>
      </trkpt>
      <trkpt lat="39.894863" lon="116.6464">
        <time>2020-12-23T12:20:39Z</time>
      </trkpt>
      <trkpt lat="39.894763" lon="116.646354">
        <time>2020-12-23T12:20:44Z</time>
      </trkpt>
      <trkpt lat="39.894668" lon="116.646301">
        <time>2020-12-23T12:20:49Z</time>
      </trkpt>
      <trkpt lat="39.894569" lon="116.646232">
        <time>2020-12-23T12:20:54Z</time>
      </trkpt>
      <trkpt lat="39.894458" lon="116.646179">
        <time>2020-12-23T12:20:59Z</time>
      </trkpt>
      <trkpt lat="39.894348" lon="116.646141">
        <time>2020-12-23T12:21:04Z</time>
      </trkpt>
      <trkpt lat="39.894237" lon="116.646087">
        <time>2020-12-23T12:21:09Z</time>
      </trkpt>
      <trkpt lat="39.894134" lon="116.646057">
        <time>2020-12-23T12:21:14Z</time>
      </trkpt>
      <trkpt lat="39.894031" lon="116.646049">
        <time>2020-12-23T12:21:19Z</time>
      </trkpt>
      <trkpt lat="39.893947" lon="116.646072">
        <time>2020-12-23T12:21:24Z</time>
      </trkpt>
      <trkpt lat="39.893882" lon="116.646156">
        <time>2020-12-23T12:21:29Z</time>
      </trkpt>
      <trkpt lat="39.893825" lon="116.646263">
        <time>2020-12-23T12:21:34Z</time>
      </trkpt>
      <trkpt lat="39.89376" lon="116.646354">
        <time>2020-12-23T12:21:39Z</time>
      </trkpt>
      <trkpt lat="39.893657" lon="116.6464">
        <time>2020-12-23T12:21:44Z</time>
      </trkpt>
      <trkpt lat="39.893539" lon="116.646377">
        <time>2020-12-23T12:21:49Z</time>
      </trkpt>
      <trkpt lat="39.893424" lon="116.646339">
        <time>2020-12-23T12:21:54Z</time>
      </trkpt>
      <trkpt lat="39.893314" lon="116.64627">
        <time>2020-12-23T12:21:59Z</time>
      </trkpt>
      <trkpt lat="39.893203" lon="116.646232">
        <time>2020-12-23T12:22:04Z</time>
      </trkpt>
      <trkpt lat="39.893089" lon="116.646186">
        <time>2020-12-23T12:22:09Z</time>
      </trkpt>
      <trkpt lat="39.892982" lon="116.646141">
        <time>2020-12-23T12:22:14Z</time>
      </trkpt>
      <trkpt lat="39.892875" lon="116.646102">
        <time>2020-12-23T12:22:19Z</time>
      </trkpt>
      <trkpt lat="39.892772" lon="116.646034">
        <time>2020-12-23T12:22:24Z</time>
      </trkpt>
      <trkpt lat="39.892673" lon="116.645973">
        <time>2020-12-23T12:22:29Z</time>
      </trkpt>
      <trkpt lat="39.892566" lon="116.645927">
        <time>2020-12-23T12:22:34Z</time>
      </trkpt>
      <trkpt lat="39.892452" lon="116.645896">
        <time>2020-12-23T12:22:39Z</time>
      </trkpt>
      <trkpt lat="39.892333" lon="116.645843">
        <time>2020-12-23T12:22:44Z</time>
      </trkpt>
      <trkpt lat="39.892223" lon="116.645782">
        <time>2020-12-23T12:22:49Z</time>
      </trkpt>
      <trkpt lat="39.892116" lon="116.645736">
        <time>2020-12-23T12:22:54Z</time>
      </trkpt>
      <trkpt lat="39.892009" lon="116.645683">
        <time>2020-12-23T12:22:59Z</time>
      </trkpt>
      <trkpt lat="39.891899" lon="116.645645">
        <time>2020-12-23T12:23:04Z</time>
      </trkpt>
      <trkpt lat="39.891773" lon="116.645576">
        <time>2020-12-23T12:23:09Z</time>
      </trkpt>
      <trkpt lat="39.89167" lon="116.645507">
        <time>2020-12-23T12:23:14Z</time>
      </trkpt>
      <trkpt lat="39.891677" lon="116.645484">
        <time>2020-12-23T12:23:19Z</time>
      </trkpt>
      <trkpt lat="39.891769" lon="116.645545">
        <time>2020-12-23T12:23:24Z</time>
      </trkpt>
      <trkpt lat="39.89188" lon="116.645591">
        <time>2020-12-23T12:23:29Z</time>
      </trkpt>
      <trkpt lat="39.89199" lon="116.645622">
        <time>2020-12-23T12:23:34Z</time>
      </trkpt>
      <trkpt lat="39.892097" lon="116.645629">
        <time>2020-12-23T12:23:39Z</time>
      </trkpt>
      <trkpt lat="39.892192" lon="116.64566">
        <time>2020-12-23T12:23:44Z</time>
      </trkpt>
      <trkpt lat="39.892276" lon="116.645713">
        <time>2020-12-23T12:23:49Z</time>
      </trkpt>
      <trkpt lat="39.892379" lon="116.645782">
        <time>2020-12-23T12:23:54Z</time>
      </trkpt>
      <trkpt lat="39.892505" lon="116.645858">
        <time>2020-12-23T12:23:59Z</time>
      </trkpt>
      <trkpt lat="39.892631" lon="116.645919">
        <time>2020-12-23T12:24:04Z</time>
      </trkpt>
      <trkpt lat="39.892757" lon="116.64595">
        <time>2020-12-23T12:24:09Z</time>
      </trkpt>
      <trkpt lat="39.892883" lon="116.645996">
        <time>2020-12-23T12:24:14Z</time>
      </trkpt>
      <trkpt lat="39.892997" lon="116.646049">
        <time>2020-12-23T12:24:19Z</time>
      </trkpt>
      <trkpt lat="39.893093" lon="116.646102">
        <time>2020-12-23T12:24:24Z</time>
      </trkpt>
      <trkpt lat="39.893184" lon="116.646156">
        <time>2020-12-23T12:24:29Z</time>
      </trkpt>
      <trkpt lat="39.893276" lon="116.646217">
        <time>2020-12-23T12:24:34Z</time>
      </trkpt>
      <trkpt lat="39.89336" lon="116.646286">
        <time>2020-12-23T12:24:39Z</time>
      </trkpt>
      <trkpt lat="39.893451" lon="116.646339">
        <time>2020-12-23T12:24:44Z</time>
      </trkpt>
      <trkpt lat="39.893566" lon="116.646316">
        <time>2020-12-23T12:24:49Z</time>
      </trkpt>
      <trkpt lat="39.89368" lon="116.646232">
        <time>2020-12-23T12:24:54Z</time>
      </trkpt>
      <trkpt lat="39.893787" lon="116.646133">
        <time>2020-12-23T12:24:59Z</time>
      </trkpt>
      <trkpt lat="39.893901" lon="116.646026">
        <time>2020-12-23T12:25:04Z</time>
      </trkpt>
      <trkpt lat="39.894023" lon="116.64598">
        <time>2020-12-23T12:25:09Z</time>
      </trkpt>
      <trkpt lat="39.894153" lon="116.646003">
        <time>2020-12-23T12:25:14Z</time>
      </trkpt>
      <trkpt lat="39.894271" lon="116.646049">
        <time>2020-12-23T12:25:19Z</time>
      </trkpt>
      <trkpt lat="39.89439" lon="116.646125">
        <time>2020-12-23T12:25:24Z</time>
      </trkpt>
      <trkpt lat="39.894485" lon="116.646209">
        <time>2020-12-23T12:25:29Z</time>
      </trkpt>
      <trkpt lat="39.894565" lon="116.646247">
        <time>2020-12-23T12:25:34Z</time>
      </trkpt>
      <trkpt lat="39.894649" lon="116.646293">
        <time>2020-12-23T12:25:39Z</time>
      </trkpt>
      <trkpt lat="39.894718" lon="116.646347">
        <time>2020-12-23T12:25:44Z</time>
      </trkpt>
      <trkpt lat="39.89479" lon="116.646408">
        <time>2020-12-23T12:25:49Z</time>
      </trkpt>
      <trkpt lat="39.89487" lon="116.646453">
        <time>2020-12-23T12:25:54Z</time>
      </trkpt>
      <trkpt lat="39.894966" lon="116.646484">
        <time>2020-12-23T12:25:59Z</time>
      </trkpt>
      <trkpt lat="39.895065" lon="116.64653">
        <time>2020-12-23T12:26:04Z</time>
      </trkpt>
      <trkpt lat="39.895198" lon="116.646583">
        <time>2020-12-23T12:26:09Z</time>
      </trkpt>
      <trkpt lat="39.895355" lon="116.646636">
        <time>2020-12-23T12:26:14Z</time>
      </trkpt>
      <trkpt lat="39.895496" lon="116.64669">
        <time>2020-12-23T12:26:19Z</time>
      </trkpt>
      <trkpt lat="39.895618" lon="116.646751">
        <time>2020-12-23T12:26:24Z</time>
      </trkpt>
      <trkpt lat="39.895732" lon="116.646812">
        <time>2020-12-23T12:26:29Z</time>
      </trkpt>
      <trkpt lat="39.895835" lon="116.64685">
        <time>2020-12-23T12:26:34Z</time>
      </trkpt>
      <trkpt lat="39.895942" lon="116.646865">
        <time>2020-12-23T12:26:39Z</time>
      </trkpt>
      <trkpt lat="39.896026" lon="116.646835">
        <time>2020-12-23T12:26:44Z</time>
      </trkpt>
      <trkpt lat="39.896068" lon="116.646705">
        <time>2020-12-23T12:26:49Z</time>
      </trkpt>
      <trkpt lat="39.896076" lon="116.646514">
        <time>2020-12-23T12:26:54Z</time>
      </trkpt>
      <trkpt lat="39.896076" lon="116.646301">
        <time>2020-12-23T12:26:59Z</time>
      </trkpt>
      <trkpt lat="39.896087" lon="116.646102">
        <time>2020-12-23T12:27:04Z</time>
      </trkpt>
      <trkpt lat="39.896102" lon="116.645919">
        <time>2020-12-23T12:27:09Z</time>
      </trkpt>
      <trkpt lat="39.896133" lon="116.645759">
        <time>2020-12-23T12:27:14Z</time>
      </trkpt>
      <trkpt lat="39.896163" lon="116.645599">
        <time>2020-12-23T12:27:19Z</time>
      </trkpt>
      <trkpt lat="39.896198" lon="116.645454">
        <time>2020-12-23T12:27:24Z</time>
      </trkpt>
      <trkpt lat="39.896221" lon="116.645278">
        <time>2020-12-23T12:27:29Z</time>
      </trkpt>
      <trkpt lat="39.896224" lon="116.645095">
        <time>2020-12-23T12:27:34Z</time>
      </trkpt>
      <trkpt lat="39.896224" lon="116.644927">
        <time>2020-12-23T12:27:39Z</time>
      </trkpt>
      <trkpt lat="39.896236" lon="116.644775">
        <time>2020-12-23T12:27:44Z</time>
      </trkpt>
      <trkpt lat="39.896251" lon="116.644615">
        <time>2020-12-23T12:27:49Z</time>
      </trkpt>
      <trkpt lat="39.896259" lon="116.644447">
        <time>2020-12-23T12:27:54Z</time>
      </trkpt>
      <trkpt lat="39.896251" lon="116.644248">
        <time>2020-12-23T12:27:59Z</time>
      </trkpt>
      <trkpt lat="39.896236" lon="116.644035">
        <time>2020-12-23T12:28:04Z</time>
      </trkpt>
      <trkpt lat="39.896224" lon="116.643859">
        <time>2020-12-23T12:28:09Z</time>
      </trkpt>
      <trkpt lat="39.896228" lon="116.643714">
        <time>2020-12-23T12:28:14Z</time>
      </trkpt>
      <trkpt lat="39.896236" lon="116.643562">
        <time>2020-12-23T12:28:19Z</time>
      </trkpt>
      <trkpt lat="39.896236" lon="116.643424">
        <time>2020-12-23T12:28:24Z</time>
      </trkpt>
      <trkpt lat="39.896236" lon="116.643287">
        <time>2020-12-23T12:28:29Z</time>
      </trkpt>
      <trkpt lat="39.896244" lon="116.643157">
        <time>2020-12-23T12:28:34Z</time>
      </trkpt>
      <trkpt lat="39.896251" lon="116.642997">
        <time>2020-12-23T12:28:39Z</time>
      </trkpt>
      <trkpt lat="39.896263" lon="116.642791">
        <time>2020-12-23T12:28:44Z</time>
      </trkpt>
      <trkpt lat="39.896278" lon="116.642616">
        <time>2020-12-23T12:28:49Z</time>
      </trkpt>
      <trkpt lat="39.896289" lon="116.642517">
        <time>2020-12-23T12:28:54Z</time>
      </trkpt>
      <trkpt lat="39.896312" lon="116.64241">
        <time>2020-12-23T12:28:59Z</time>
      </trkpt>
      <trkpt lat="39.89635" lon="116.642295">
        <time>2020-12-23T12:29:04Z</time>
      </trkpt>
      <trkpt lat="39.896389" lon="116.642166">
        <time>2020-12-23T12:29:09Z</time>
      </trkpt>
      <trkpt lat="39.896404" lon="116.642036">
        <time>2020-12-23T12:29:14Z</time>
      </trkpt>
      <trkpt lat="39.896389" lon="116.641921">
        <time>2020-12-23T12:29:19Z</time>
      </trkpt>
      <trkpt lat="39.896358" lon="116.641792">
        <time>2020-12-23T12:29:24Z</time>
      </trkpt>
      <trkpt lat="39.896335" lon="116.641677">
        <time>2020-12-23T12:29:29Z</time>
      </trkpt>
      <trkpt lat="39.89632" lon="116.641548">
        <time>2020-12-23T12:29:34Z</time>
      </trkpt>
      <trkpt lat="39.896305" lon="116.64141">
        <time>2020-12-23T12:29:39Z</time>
      </trkpt>
      <trkpt lat="39.896305" lon="116.641265">
        <time>2020-12-23T12:29:44Z</time>
      </trkpt>
      <trkpt lat="39.89632" lon="116.641128">
        <time>2020-12-23T12:29:49Z</time>
      </trkpt>
      <trkpt lat="39.896316" lon="116.640968">
        <time>2020-12-23T12:29:54Z</time>
      </trkpt>
      <trkpt lat="39.896301" lon="116.640808">
        <time>2020-12-23T12:29:59Z</time>
      </trkpt>
      <trkpt lat="39.896289" lon="116.640647">
        <time>2020-12-23T12:30:04Z</time>
      </trkpt>
      <trkpt lat="39.896286" lon="116.64048">
        <time>2020-12-23T12:30:09Z</time>
      </trkpt>
      <trkpt lat="39.896278" lon="116.640296">
        <time>2020-12-23T12:30:14Z</time>
      </trkpt>
      <trkpt lat="39.896278" lon="116.640129">
        <time>2020-12-23T12:30:19Z</time>
      </trkpt>
      <trkpt lat="39.896278" lon="116.639968">
        <time>2020-12-23T12:30:24Z</time>
      </trkpt>
      <trkpt lat="39.896282" lon="116.639839">
        <time>2020-12-23T12:30:29Z</time>
      </trkpt>
      <trkpt lat="39.896289" lon="116.639709">
        <time>2020-12-23T12:30:34Z</time>
      </trkpt>
      <trkpt lat="39.896289" lon="116.639595">
        <time>2020-12-23T12:30:39Z</time>
      </trkpt>
      <trkpt lat="39.896297" lon="116.639465">
        <time>2020-12-23T12:30:44Z</time>
      </trkpt>
      <trkpt lat="39.896316" lon="116.639373">
        <time>2020-12-23T12:30:49Z</time>
      </trkpt>
      <trkpt lat="39.896343" lon="116.639274">
        <time>2020-12-23T12:30:54Z</time>
      </trkpt>
      <trkpt lat="39.89635" lon="116.639144">
        <time>2020-12-23T12:30:59Z</time>
      </trkpt>
      <trkpt lat="39.896354" lon="116.639038">
        <time>2020-12-23T12:31:04Z</time>
      </trkpt>
      <trkpt lat="39.896358" lon="116.638908">
        <time>2020-12-23T12:31:09Z</time>
      </trkpt>
      <trkpt lat="39.896343" lon="116.638763">
        <time>2020-12-23T12:31:14Z</time>
      </trkpt>
      <trkpt lat="39.896331" lon="116.638603">
        <time>2020-12-23T12:31:19Z</time>
      </trkpt>
      <trkpt lat="39.896312" lon="116.638435">
        <time>2020-12-23T12:31:24Z</time>
      </trkpt>
      <trkpt lat="39.896293" lon="116.638275">
        <time>2020-12-23T12:31:29Z</time>
      </trkpt>
      <trkpt lat="39.896289" lon="116.638122">
        <time>2020-12-23T12:31:34Z</time>
      </trkpt>
      <trkpt lat="39.896278" lon="116.637962">
        <time>2020-12-23T12:31:39Z</time>
      </trkpt>
      <trkpt lat="39.896247" lon="116.637779">
        <time>2020-12-23T12:31:44Z</time>
      </trkpt>
      <trkpt lat="39.896224" lon="116.637603">
        <time>2020-12-23T12:31:49Z</time>
      </trkpt>
      <trkpt lat="39.896205" lon="116.637443">
        <time>2020-12-23T12:31:54Z</time>
      </trkpt>
      <trkpt lat="39.896183" lon="116.637313">
        <time>2020-12-23T12:31:59Z</time>
      </trkpt>
      <trkpt lat="39.896163" lon="116.637184">
        <time>2020-12-23T12:32:04Z</time>
      </trkpt>
      <trkpt lat="39.896144" lon="116.637046">
        <time>2020-12-23T12:32:09Z</time>
      </trkpt>
      <trkpt lat="39.896137" lon="116.636993">
        <time>2020-12-23T12:32:14Z</time>
      </trkpt>
      <trkpt lat="39.896163" lon="116.637054">
        <time>2020-12-23T12:32:19Z</time>
      </trkpt>
      <trkpt lat="39.89619" lon="116.637191">
        <time>2020-12-23T12:32:24Z</time>
      </trkpt>
      <trkpt lat="39.896205" lon="116.637344">
        <time>2020-12-23T12:32:29Z</time>
      </trkpt>
      <trkpt lat="39.896217" lon="116.637496">
        <time>2020-12-23T12:32:34Z</time>
      </trkpt>
      <trkpt lat="39.896236" lon="116.637649">
        <time>2020-12-23T12:32:39Z</time>
      </trkpt>
      <trkpt lat="39.896244" lon="116.637802">
        <time>2020-12-23T12:32:44Z</time>
      </trkpt>
      <trkpt lat="39.896244" lon="116.637939">
        <time>2020-12-23T12:32:49Z</time>
      </trkpt>
      <trkpt lat="39.896236" lon="116.638076">
        <time>2020-12-23T12:32:54Z</time>
      </trkpt>
      <trkpt lat="39.896247" lon="116.638236">
        <time>2020-12-23T12:32:59Z</time>
      </trkpt>
      <trkpt lat="39.896263" lon="116.638397">
        <time>2020-12-23T12:33:04Z</time>
      </trkpt>
      <trkpt lat="39.896266" lon="116.638572">
        <time>2020-12-23T12:33:09Z</time>
      </trkpt>
      <trkpt lat="39.89627" lon="116.638755">
        <time>2020-12-23T12:33:14Z</time>
      </trkpt>
      <trkpt lat="39.89627" lon="116.6389">
        <time>2020-12-23T12:33:19Z</time>
      </trkpt>
      <trkpt lat="39.89627" lon="116.63906">
        <time>2020-12-23T12:33:24Z</time>
      </trkpt>
      <trkpt lat="39.896278" lon="116.639228">
        <time>2020-12-23T12:33:29Z</time>
      </trkpt>
      <trkpt lat="39.896286" lon="116.639389">
        <time>2020-12-23T12:33:34Z</time>
      </trkpt>
      <trkpt lat="39.896289" lon="116.639549">
        <time>2020-12-23T12:33:39Z</time>
      </trkpt>
      <trkpt lat="39.896301" lon="116.639701">
        <time>2020-12-23T12:33:44Z</time>
      </trkpt>
      <trkpt lat="39.896316" lon="116.639854">
        <time>2020-12-23T12:33:49Z</time>
      </trkpt>
      <trkpt lat="39.896331" lon="116.640007">
        <time>2020-12-23T12:33:54Z</time>
      </trkpt>
      <trkpt lat="39.896343" lon="116.640159">
        <time>2020-12-23T12:33:59Z</time>
      </trkpt>
      <trkpt lat="39.896331" lon="116.640327">
        <time>2020-12-23T12:34:04Z</time>
      </trkpt>
      <trkpt lat="39.896324" lon="116.640525">
        <time>2020-12-23T12:34:09Z</time>
      </trkpt>
      <trkpt lat="39.896316" lon="116.640724">
        <time>2020-12-23T12:34:14Z</time>
      </trkpt>
      <trkpt lat="39.896301" lon="116.640907">
        <time>2020-12-23T12:34:19Z</time>
      </trkpt>
      <trkpt lat="39.896289" lon="116.641052">
        <time>2020-12-23T12:34:24Z</time>
      </trkpt>
      <trkpt lat="39.896282" lon="116.641212">
        <time>2020-12-23T12:34:29Z</time>
      </trkpt>
      <trkpt lat="39.896282" lon="116.641372">
        <time>2020-12-23T12:34:34Z</time>
      </trkpt>
      <trkpt lat="39.896286" lon="116.641548">
        <time>2020-12-23T12:34:39Z</time>
      </trkpt>
      <trkpt lat="39.896289" lon="116.641708">
        <time>2020-12-23T12:34:44Z</time>
      </trkpt>
      <trkpt lat="39.896293" lon="116.641876">
        <time>2020-12-23T12:34:49Z</time>
      </trkpt>
      <trkpt lat="39.896297" lon="116.642051">
        <time>2020-12-23T12:34:54Z</time>
      </trkpt>
      <trkpt lat="39.896289" lon="116.642204">
        <time>2020-12-23T12:34:59Z</time>
      </trkpt>
      <trkpt lat="39.896286" lon="116.642364">
        <time>2020-12-23T12:35:04Z</time>
      </trkpt>
      <trkpt lat="39.896278" lon="116.642524">
        <time>2020-12-23T12:35:09Z</time>
      </trkpt>
      <trkpt lat="39.896263" lon="116.642669">
        <time>2020-12-23T12:35:14Z</time>
      </trkpt>
      <trkpt lat="39.896255" lon="116.642776">
        <time>2020-12-23T12:35:19Z</time>
      </trkpt>
      <trkpt lat="39.89627" lon="116.642868">
        <time>2020-12-23T12:35:24Z</time>
      </trkpt>
      <trkpt lat="39.896278" lon="116.642967">
        <time>2020-12-23T12:35:29Z</time>
      </trkpt>
      <trkpt lat="39.896278" lon="116.643051">
        <time>2020-12-23T12:35:34Z</time>
      </trkpt>
      <trkpt lat="39.896278" lon="116.643157">
        <time>2020-12-23T12:35:39Z</time>
      </trkpt>
      <trkpt lat="39.896274" lon="116.643264">
        <time>2020-12-23T12:35:44Z</time>
      </trkpt>
      <trkpt lat="39.89627" lon="116.643409">
        <time>2020-12-23T12:35:49Z</time>
      </trkpt>
      <trkpt lat="39.896282" lon="116.643562">
        <time>2020-12-23T12:35:54Z</time>
      </trkpt>
      <trkpt lat="39.896289" lon="116.643714">
        <time>2020-12-23T12:35:59Z</time>
      </trkpt>
      <trkpt lat="39.896293" lon="116.643875">
        <time>2020-12-23T12:36:04Z</time>
      </trkpt>
      <trkpt lat="39.896297" lon="116.64402">
        <time>2020-12-23T12:36:09Z</time>
      </trkpt>
      <trkpt lat="39.896297" lon="116.64418">
        <time>2020-12-23T12:36:14Z</time>
      </trkpt>
      <trkpt lat="39.896289" lon="116.64434">
        <time>2020-12-23T12:36:19Z</time>
      </trkpt>
      <trkpt lat="39.896278" lon="116.6445">
        <time>2020-12-23T12:36:24Z</time>
      </trkpt>
      <trkpt lat="39.896266" lon="116.64466">
        <time>2020-12-23T12:36:29Z</time>
      </trkpt>
      <trkpt lat="39.896255" lon="116.644828">
        <time>2020-12-23T12:36:34Z</time>
      </trkpt>
      <trkpt lat="39.896251" lon="116.644973">
        <time>2020-12-23T12:36:39Z</time>
      </trkpt>
      <trkpt lat="39.896251" lon="116.64508">
        <time>2020-12-23T12:36:44Z</time>
      </trkpt>
      <trkpt lat="39.896251" lon="116.645164">
        <time>2020-12-23T12:36:49Z</time>
      </trkpt>
      <trkpt lat="39.896263" lon="116.645248">
        <time>2020-12-23T12:36:54Z</time>
      </trkpt>
      <trkpt lat="39.896263" lon="116.645332">
        <time>2020-12-23T12:36:59Z</time>
      </trkpt>
      <trkpt lat="39.896244" lon="116.645439">
        <time>2020-12-23T12:37:04Z</time>
      </trkpt>
      <trkpt lat="39.896224" lon="116.645576">
        <time>2020-12-23T12:37:09Z</time>
      </trkpt>
      <trkpt lat="39.896198" lon="116.645713">
        <time>2020-12-23T12:37:14Z</time>
      </trkpt>
      <trkpt lat="39.896163" lon="116.645866">
        <time>2020-12-23T12:37:19Z</time>
      </trkpt>
      <trkpt lat="39.896137" lon="116.646018">
        <time>2020-12-23T12:37:24Z</time>
      </trkpt>
      <trkpt lat="39.896118" lon="116.646179">
        <time>2020-12-23T12:37:29Z</time>
      </trkpt>
      <trkpt lat="39.896102" lon="116.646339">
        <time>2020-12-23T12:37:34Z</time>
      </trkpt>
      <trkpt lat="39.896091" lon="116.646507">
        <time>2020-12-23T12:37:39Z</time>
      </trkpt>
      <trkpt lat="39.896068" lon="116.646667">
        <time>2020-12-23T12:37:44Z</time>
      </trkpt>
      <trkpt lat="39.896003" lon="116.646774">
        <time>2020-12-23T12:37:49Z</time>
      </trkpt>
      <trkpt lat="39.895893" lon="116.646781">
        <time>2020-12-23T12:37:54Z</time>
      </trkpt>
      <trkpt lat="39.895767" lon="116.646743">
        <time>2020-12-23T12:37:59Z</time>
      </trkpt>
      <trkpt lat="39.895648" lon="116.646667">
        <time>2020-12-23T12:38:04Z</time>
      </trkpt>
      <trkpt lat="39.895542" lon="116.646614">
        <time>2020-12-23T12:38:09Z</time>
      </trkpt>
      <trkpt lat="39.895435" lon="116.646553">
        <time>2020-12-23T12:38:14Z</time>
      </trkpt>
      <trkpt lat="39.895317" lon="116.646499">
        <time>2020-12-23T12:38:19Z</time>
      </trkpt>
      <trkpt lat="39.895191" lon="116.646446">
        <time>2020-12-23T12:38:24Z</time>
      </trkpt>
      <trkpt lat="39.895069" lon="116.6464">
        <time>2020-12-23T12:38:29Z</time>
      </trkpt>
      <trkpt lat="39.89495" lon="116.646369">
        <time>2020-12-23T12:38:34Z</time>
      </trkpt>
      <trkpt lat="39.89484" lon="116.646339">
        <time>2020-12-23T12:38:39Z</time>
      </trkpt>
      <trkpt lat="39.894729" lon="116.646301">
        <time>2020-12-23T12:38:44Z</time>
      </trkpt>
      <trkpt lat="39.894638" lon="116.64627">
        <time>2020-12-23T12:38:49Z</time>
      </trkpt>
      <trkpt lat="39.894569" lon="116.646247">
        <time>2020-12-23T12:38:54Z</time>
      </trkpt>
      <trkpt lat="39.894493" lon="116.646247">
        <time>2020-12-23T12:38:59Z</time>
      </trkpt>
      <trkpt lat="39.894393" lon="116.64624">
        <time>2020-12-23T12:39:04Z</time>
      </trkpt>
      <trkpt lat="39.894287" lon="116.646209">
        <time>2020-12-23T12:39:09Z</time>
      </trkpt>
      <trkpt lat="39.894168" lon="116.646141">
        <time>2020-12-23T12:39:14Z</time>
      </trkpt>
      <trkpt lat="39.894054" lon="116.646087">
        <time>2020-12-23T12:39:19Z</time>
      </trkpt>
      <trkpt lat="39.893955" lon="116.646087">
        <time>2020-12-23T12:39:24Z</time>
      </trkpt>
      <trkpt lat="39.893878" lon="116.646179">
        <time>2020-12-23T12:39:29Z</time>
      </trkpt>
      <trkpt lat="39.893802" lon="116.646301">
        <time>2020-12-23T12:39:34Z</time>
      </trkpt>
      <trkpt lat="39.893718" lon="116.646408">
        <time>2020-12-23T12:39:39Z</time>
      </trkpt>
      <trkpt lat="39.893608" lon="116.646423">
        <time>2020-12-23T12:39:44Z</time>
      </trkpt>
      <trkpt lat="39.89347" lon="116.646354">
        <time>2020-12-23T12:39:49Z</time>
      </trkpt>
      <trkpt lat="39.893333" lon="116.646286">
        <time>2020-12-23T12:39:54Z</time>
      </trkpt>
      <trkpt lat="39.893203" lon="116.646209">
        <time>2020-12-23T12:39:59Z</time>
      </trkpt>
      <trkpt lat="39.893081" lon="116.646133">
        <time>2020-12-23T12:40:04Z</time>
      </trkpt>
      <trkpt lat="39.892959" lon="116.646057">
        <time>2020-12-23T12:40:09Z</time>
      </trkpt>
      <trkpt lat="39.892833" lon="116.64598">
        <time>2020-12-23T12:40:14Z</time>
      </trkpt>
      <trkpt lat="39.892707" lon="116.645927">
        <time>2020-12-23T12:40:19Z</time>
      </trkpt>
      <trkpt lat="39.892608" lon="116.645889">
        <time>2020-12-23T12:40:24Z</time>
      </trkpt>
      <trkpt lat="39.892536" lon="116.645874">
        <time>2020-12-23T12:40:29Z</time>
      </trkpt>
      <trkpt lat="39.892467" lon="116.645874">
        <time>2020-12-23T12:40:34Z</time>
      </trkpt>
      <trkpt lat="39.892398" lon="116.645858">
        <time>2020-12-23T12:40:39Z</time>
      </trkpt>
      <trkpt lat="39.892337" lon="116.64582">
        <time>2020-12-23T12:40:44Z</time>
      </trkpt>
      <trkpt lat="39.892272" lon="116.64579">
        <time>2020-12-23T12:40:49Z</time>
      </trkpt>
      <trkpt lat="39.892185" lon="116.645751">
        <time>2020-12-23T12:40:54Z</time>
      </trkpt>
      <trkpt lat="39.892086" lon="116.645698">
        <time>2020-12-23T12:40:59Z</time>
      </trkpt>
      <trkpt lat="39.891975" lon="116.645645">
        <time>2020-12-23T12:41:04Z</time>
      </trkpt>
      <trkpt lat="39.891853" lon="116.645606">
        <time>2020-12-23T12:41:09Z</time>
      </trkpt>
      <trkpt lat="39.891738" lon="116.645553">
        <time>2020-12-23T12:41:14Z</time>
      </trkpt>
      <trkpt lat="39.891643" lon="116.645492">
        <time>2020-12-23T12:41:19Z</time>
      </trkpt>
      <trkpt lat="39.89162" lon="116.645492">
        <time>2020-12-23T12:41:24Z</time>
      </trkpt>
      <trkpt lat="39.891666" lon="116.645538">
        <time>2020-12-23T12:41:29Z</time>
      </trkpt>
      <trkpt lat="39.891746" lon="116.645591">
        <time>2020-12-23T12:41:34Z</time>
      </trkpt>
      <trkpt lat="39.891864" lon="116.645645">
        <time>2020-12-23T12:41:39Z</time>
      </trkpt>
      <trkpt lat="39.892002" lon="116.645698">
        <time>2020-12-23T12:41:44Z</time>
      </trkpt>
      <trkpt lat="39.892139" lon="116.645736">
        <time>2020-12-23T12:41:49Z</time>
      </trkpt>
      <trkpt lat="39.892265" lon="116.645782">
        <time>2020-12-23T12:41:54Z</time>
      </trkpt>
      <trkpt lat="39.892383" lon="116.645835">
        <time>2020-12-23T12:41:59Z</time>
      </trkpt>
      <trkpt lat="39.892517" lon="116.645889">
        <time>2020-12-23T12:42:04Z</time>
      </trkpt>
      <trkpt lat="39.892665" lon="116.645942">
        <time>2020-12-23T12:42:09Z</time>
      </trkpt>
      <trkpt lat="39.892795" lon="116.64598">
        <time>2020-12-23T12:42:14Z</time>
      </trkpt>
      <trkpt lat="39.892917" lon="116.646026">
        <time>2020-12-23T12:42:19Z</time>
      </trkpt>
      <trkpt lat="39.893035" lon="116.646072">
        <time>2020-12-23T12:42:24Z</time>
      </trkpt>
      <trkpt lat="39.893131" lon="116.646125">
        <time>2020-12-23T12:42:29Z</time>
      </trkpt>
      <trkpt lat="39.893215" lon="116.646163">
        <time>2020-12-23T12:42:34Z</time>
      </trkpt>
      <trkpt lat="39.893318" lon="116.646232">
        <time>2020-12-23T12:42:39Z</time>
      </trkpt>
      <trkpt lat="39.893436" lon="116.646301">
        <time>2020-12-23T12:42:44Z</time>
      </trkpt>
      <trkpt lat="39.893535" lon="116.646354">
        <time>2020-12-23T12:42:49Z</time>
      </trkpt>
      <trkpt lat="39.893638" lon="116.646347">
        <time>2020-12-23T12:42:54Z</time>
      </trkpt>
      <trkpt lat="39.893753" lon="116.64627">
        <time>2020-12-23T12:42:59Z</time>
      </trkpt>
      <trkpt lat="39.893859" lon="116.646141">
        <time>2020-12-23T12:43:04Z</time>
      </trkpt>
      <trkpt lat="39.893955" lon="116.646003">
        <time>2020-12-23T12:43:09Z</time>
      </trkpt>
      <trkpt lat="39.894065" lon="116.645965">
        <time>2020-12-23T12:43:14Z</time>
      </trkpt>
      <trkpt lat="39.894168" lon="116.646003">
        <time>2020-12-23T12:43:19Z</time>
      </trkpt>
      <trkpt lat="39.894264" lon="116.64608">
        <time>2020-12-23T12:43:24Z</time>
      </trkpt>
      <trkpt lat="39.894382" lon="116.646141">
        <time>2020-12-23T12:43:29Z</time>
      </trkpt>
      <trkpt lat="39.894515" lon="116.646194">
        <time>2020-12-23T12:43:34Z</time>
      </trkpt>
      <trkpt lat="39.894611" lon="116.646232">
        <time>2020-12-23T12:43:39Z</time>
      </trkpt>
      <trkpt lat="39.894687" lon="116.646263">
        <time>2020-12-23T12:43:44Z</time>
      </trkpt>
      <trkpt lat="39.89476" lon="116.646286">
        <time>2020-12-23T12:43:49Z</time>
      </trkpt>
      <trkpt lat="39.894836" lon="116.646301">
        <time>2020-12-23T12:43:54Z</time>
      </trkpt>
      <trkpt lat="39.89492" lon="116.646347">
        <time>2020-12-23T12:43:59Z</time>
      </trkpt>
      <trkpt lat="39.89503" lon="116.646392">
        <time>2020-12-23T12:44:04Z</time>
      </trkpt>
      <trkpt lat="39.89516" lon="116.646446">
        <time>2020-12-23T12:44:09Z</time>
      </trkpt>
      <trkpt lat="39.895271" lon="116.646499">
        <time>2020-12-23T12:44:14Z</time>
      </trkpt>
      <trkpt lat="39.895362" lon="116.646537">
        <time>2020-12-23T12:44:19Z</time>
      </trkpt>
      <trkpt lat="39.895446" lon="116.646606">
        <time>2020-12-23T12:44:24Z</time>
      </trkpt>
      <trkpt lat="39.895515" lon="116.646652">
        <time>2020-12-23T12:44:29Z</time>
      </trkpt>
      <trkpt lat="39.895606" lon="116.64672">
        <time>2020-12-23T12:44:34Z</time>
      </trkpt>
      <trkpt lat="39.895736" lon="116.646774">
        <time>2020-12-23T12:44:39Z</time>
      </trkpt>
      <trkpt lat="39.895854" lon="116.646812">
        <time>2020-12-23T12:44:44Z</time>
      </trkpt>
      <trkpt lat="39.895935" lon="116.646774">
        <time>2020-12-23T12:44:49Z</time>
      </trkpt>
      <trkpt lat="39.895977" lon="116.646644">
        <time>2020-12-23T12:44:54Z</time>
      </trkpt>
      <trkpt lat="39.896003" lon="116.646476">
        <time>2020-12-23T12:44:59Z</time>
      </trkpt>
      <trkpt lat="39.896041" lon="116.646293">
        <time>2020-12-23T12:45:04Z</time>
      </trkpt>
      <trkpt lat="39.896083" lon="116.646125">
        <time>2020-12-23T12:45:09Z</time>
      </trkpt>
      <trkpt lat="39.896125" lon="116.645942">
        <time>2020-12-23T12:45:14Z</time>
      </trkpt>
      <trkpt lat="39.896167" lon="116.645782">
        <time>2020-12-23T12:45:19Z</time>
      </trkpt>
      <trkpt lat="39.896209" lon="116.64566">
        <time>2020-12-23T12:45:24Z</time>
      </trkpt>
      <trkpt lat="39.896224" lon="116.645568">
        <time>2020-12-23T12:45:29Z</time>
      </trkpt>
      <trkpt lat="39.896224" lon="116.645462">
        <time>2020-12-23T12:45:34Z</time>
      </trkpt>
      <trkpt lat="39.896232" lon="116.645362">
        <time>2020-12-23T12:45:39Z</time>
      </trkpt>
      <trkpt lat="39.896236" lon="116.645256">
        <time>2020-12-23T12:45:44Z</time>
      </trkpt>
      <trkpt lat="39.896228" lon="116.645141">
        <time>2020-12-23T12:45:49Z</time>
      </trkpt>
      <trkpt lat="39.896224" lon="116.645034">
        <time>2020-12-23T12:45:54Z</time>
      </trkpt>
      <trkpt lat="39.896221" lon="116.644935">
        <time>2020-12-23T12:45:59Z</time>
      </trkpt>
      <trkpt lat="39.896224" lon="116.644851">
        <time>2020-12-23T12:46:04Z</time>
      </trkpt>
      <trkpt lat="39.896236" lon="116.644798">
        <time>2020-12-23T12:46:09Z</time>
      </trkpt>
      <trkpt lat="39.896244" lon="116.644737">
        <time>2020-12-23T12:46:14Z</time>
      </trkpt>
      <trkpt lat="39.896244" lon="116.644653">
        <time>2020-12-23T12:46:19Z</time>
      </trkpt>
      <trkpt lat="39.89624" lon="116.644554">
        <time>2020-12-23T12:46:24Z</time>
      </trkpt>
      <trkpt lat="39.896232" lon="116.644424">
        <time>2020-12-23T12:46:29Z</time>
      </trkpt>
      <trkpt lat="39.896224" lon="116.644279">
        <time>2020-12-23T12:46:34Z</time>
      </trkpt>
      <trkpt lat="39.896224" lon="116.644119">
        <time>2020-12-23T12:46:39Z</time>
      </trkpt>
      <trkpt lat="39.896224" lon="116.643966">
        <time>2020-12-23T12:46:44Z</time>
      </trkpt>
      <trkpt lat="39.896228" lon="116.643821">
        <time>2020-12-23T12:46:49Z</time>
      </trkpt>
      <trkpt lat="39.896228" lon="116.643661">
        <time>2020-12-23T12:46:54Z</time>
      </trkpt>
      <trkpt lat="39.896217" lon="116.643501">
        <time>2020-12-23T12:46:59Z</time>
      </trkpt>
      <trkpt lat="39.896209" lon="116.643348">
        <time>2020-12-23T12:47:04Z</time>
      </trkpt>
      <trkpt lat="39.896213" lon="116.643203">
        <time>2020-12-23T12:47:09Z</time>
      </trkpt>
      <trkpt lat="39.896228" lon="116.643051">
        <time>2020-12-23T12:47:14Z</time>
      </trkpt>
      <trkpt lat="39.896236" lon="116.642883">
        <time>2020-12-23T12:47:19Z</time>
      </trkpt>
      <trkpt lat="39.89624" lon="116.642684">
        <time>2020-12-23T12:47:24Z</time>
      </trkpt>
      <trkpt lat="39.89624" lon="116.642509">
        <time>2020-12-23T12:47:29Z</time>
      </trkpt>
      <trkpt lat="39.896244" lon="116.642326">
        <time>2020-12-23T12:47:34Z</time>
      </trkpt>
      <trkpt lat="39.896251" lon="116.642143">
        <time>2020-12-23T12:47:39Z</time>
      </trkpt>
      <trkpt lat="39.896251" lon="116.64196">
        <time>2020-12-23T12:47:44Z</time>
      </trkpt>
      <trkpt lat="39.896263" lon="116.641799">
        <time>2020-12-23T12:47:49Z</time>
      </trkpt>
      <trkpt lat="39.89627" lon="116.641677">
        <time>2020-12-23T12:47:54Z</time>
      </trkpt>
      <trkpt lat="39.89627" lon="116.641571">
        <time>2020-12-23T12:47:59Z</time>
      </trkpt>
      <trkpt lat="39.896266" lon="116.641448">
        <time>2020-12-23T12:48:04Z</time>
      </trkpt>
      <trkpt lat="39.896263" lon="116.641311">
        <time>2020-12-23T12:48:09Z</time>
      </trkpt>
      <trkpt lat="39.89627" lon="116.641197">
        <time>2020-12-23T12:48:14Z</time>
      </trkpt>
      <trkpt lat="39.896286" lon="116.641098">
        <time>2020-12-23T12:48:19Z</time>
      </trkpt>
      <trkpt lat="39.896297" lon="116.640983">
        <time>2020-12-23T12:48:24Z</time>
      </trkpt>
      <trkpt lat="39.896305" lon="116.640861">
        <time>2020-12-23T12:48:29Z</time>
      </trkpt>
      <trkpt lat="39.896305" lon="116.640724">
        <time>2020-12-23T12:48:34Z</time>
      </trkpt>
      <trkpt lat="39.896308" lon="116.640586">
        <time>2020-12-23T12:48:39Z</time>
      </trkpt>
      <trkpt lat="39.896305" lon="116.640426">
        <time>2020-12-23T12:48:44Z</time>
      </trkpt>
      <trkpt lat="39.896297" lon="116.640258">
        <time>2020-12-23T12:48:49Z</time>
      </trkpt>
      <trkpt lat="39.896289" lon="116.640083">
        <time>2020-12-23T12:48:54Z</time>
      </trkpt>
      <trkpt lat="39.896286" lon="116.639923">
        <time>2020-12-23T12:48:59Z</time>
      </trkpt>
      <trkpt lat="39.89627" lon="116.639785">
        <time>2020-12-23T12:49:04Z</time>
      </trkpt>
      <trkpt lat="39.896266" lon="116.639617">
        <time>2020-12-23T12:49:09Z</time>
      </trkpt>
      <trkpt lat="39.896282" lon="116.639457">
        <time>2020-12-23T12:49:14Z</time>
      </trkpt>
      <trkpt lat="39.896305" lon="116.63932">
        <time>2020-12-23T12:49:19Z</time>
      </trkpt>
      <trkpt lat="39.896327" lon="116.63919">
        <time>2020-12-23T12:49:24Z</time>
      </trkpt>
      <trkpt lat="39.896343" lon="116.639053">
        <time>2020-12-23T12:49:29Z</time>
      </trkpt>
      <trkpt lat="39.896339" lon="116.6389">
        <time>2020-12-23T12:49:34Z</time>
      </trkpt>
      <trkpt lat="39.89632" lon="116.63871">
        <time>2020-12-23T12:49:39Z</time>
      </trkpt>
      <trkpt lat="39.896316" lon="116.638519">
        <time>2020-12-23T12:49:44Z</time>
      </trkpt>
      <trkpt lat="39.89632" lon="116.638313">
        <time>2020-12-23T12:49:49Z</time>
      </trkpt>
      <trkpt lat="39.896308" lon="116.638076">
        <time>2020-12-23T12:49:54Z</time>
      </trkpt>
      <trkpt lat="39.896289" lon="116.637863">
        <time>2020-12-23T12:49:59Z</time>
      </trkpt>
      <trkpt lat="39.896255" lon="116.637649">
        <time>2020-12-23T12:50:04Z</time>
      </trkpt>
      <trkpt lat="39.896221" lon="116.637443">
        <time>2020-12-23T12:50:09Z</time>
      </trkpt>
      <trkpt lat="39.896183" lon="116.637245">
        <time>2020-12-23T12:50:14Z</time>
      </trkpt>
      <trkpt lat="39.896137" lon="116.637054">
        <time>2020-12-23T12:50:19Z</time>
      </trkpt>
      <trkpt lat="39.896099" lon="116.636909">
        <time>2020-12-23T12:50:24Z</time>
      </trkpt>
      <trkpt lat="39.896118" lon="116.636886">
        <time>2020-12-23T12:50:29Z</time>
      </trkpt>
      <trkpt lat="39.896152" lon="116.636962">
        <time>2020-12-23T12:50:34Z</time>
      </trkpt>
      <trkpt lat="39.89616" lon="116.637054">
        <time>2020-12-23T12:50:39Z</time>
      </trkpt>
      <trkpt lat="39.896171" lon="116.637138">
        <time>2020-12-23T12:50:44Z</time>
      </trkpt>
      <trkpt lat="39.896194" lon="116.637237">
        <time>2020-12-23T12:50:49Z</time>
      </trkpt>
      <trkpt lat="39.896217" lon="116.637336">
        <time>2020-12-23T12:50:54Z</time>
      </trkpt>
      <trkpt lat="39.896236" lon="116.637428">
        <time>2020-12-23T12:50:59Z</time>
      </trkpt>
      <trkpt lat="39.896244" lon="116.637512">
        <time>2020-12-23T12:51:04Z</time>
      </trkpt>
      <trkpt lat="39.896247" lon="116.637588">
        <time>2020-12-23T12:51:09Z</time>
      </trkpt>
      <trkpt lat="39.896244" lon="116.637725">
        <time>2020-12-23T12:51:14Z</time>
      </trkpt>
      <trkpt lat="39.89624" lon="116.637901">
        <time>2020-12-23T12:51:19Z</time>
      </trkpt>
      <trkpt lat="39.896251" lon="116.638061">
        <time>2020-12-23T12:51:24Z</time>
      </trkpt>
      <trkpt lat="39.89627" lon="116.638229">
        <time>2020-12-23T12:51:29Z</time>
      </trkpt>
      <trkpt lat="39.896278" lon="116.638412">
        <time>2020-12-23T12:51:34Z</time>
      </trkpt>
      <trkpt lat="39.89627" lon="116.63858">
        <time>2020-12-23T12:51:39Z</time>
      </trkpt>
      <trkpt lat="39.896255" lon="116.63874">
        <time>2020-12-23T12:51:44Z</time>
      </trkpt>
      <trkpt lat="39.896255" lon="116.638908">
        <time>2020-12-23T12:51:49Z</time>
      </trkpt>
      <trkpt lat="39.896278" lon="116.639091">
        <time>2020-12-23T12:51:54Z</time>
      </trkpt>
      <trkpt lat="39.896297" lon="116.639282">
        <time>2020-12-23T12:51:59Z</time>
      </trkpt>
      <trkpt lat="39.896305" lon="116.63948">
        <time>2020-12-23T12:52:04Z</time>
      </trkpt>
      <trkpt lat="39.896305" lon="116.639656">
        <time>2020-12-23T12:52:09Z</time>
      </trkpt>
      <trkpt lat="39.896308" lon="116.639831">
        <time>2020-12-23T12:52:14Z</time>
      </trkpt>
      <trkpt lat="39.896316" lon="116.640029">
        <time>2020-12-23T12:52:19Z</time>
      </trkpt>
      <trkpt lat="39.896335" lon="116.640235">
        <time>2020-12-23T12:52:24Z</time>
      </trkpt>
      <trkpt lat="39.896354" lon="116.640419">
        <time>2020-12-23T12:52:29Z</time>
      </trkpt>
      <trkpt lat="39.896358" lon="116.640609">
        <time>2020-12-23T12:52:34Z</time>
      </trkpt>
      <trkpt lat="39.89635" lon="116.6408">
        <time>2020-12-23T12:52:39Z</time>
      </trkpt>
      <trkpt lat="39.896335" lon="116.640991">
        <time>2020-12-23T12:52:44Z</time>
      </trkpt>
      <trkpt lat="39.896324" lon="116.641151">
        <time>2020-12-23T12:52:49Z</time>
      </trkpt>
      <trkpt lat="39.896316" lon="116.641311">
        <time>2020-12-23T12:52:54Z</time>
      </trkpt>
      <trkpt lat="39.896305" lon="116.641448">
        <time>2020-12-23T12:52:59Z</time>
      </trkpt>
      <trkpt lat="39.896305" lon="116.641548">
        <time>2020-12-23T12:53:04Z</time>
      </trkpt>
      <trkpt lat="39.896316" lon="116.641662">
        <time>2020-12-23T12:53:09Z</time>
      </trkpt>
      <trkpt lat="39.896324" lon="116.641784">
        <time>2020-12-23T12:53:14Z</time>
      </trkpt>
      <trkpt lat="39.896331" lon="116.641868">
        <time>2020-12-23T12:53:19Z</time>
      </trkpt>
      <trkpt lat="39.896327" lon="116.641921">
        <time>2020-12-23T12:53:24Z</time>
      </trkpt>
      <trkpt lat="39.896312" lon="116.64196">
        <time>2020-12-23T12:53:29Z</time>
      </trkpt>
      <trkpt lat="39.896297" lon="116.642028">
        <time>2020-12-23T12:53:34Z</time>
      </trkpt>
      <trkpt lat="39.896305" lon="116.642105">
        <time>2020-12-23T12:53:39Z</time>
      </trkpt>
      <trkpt lat="39.896308" lon="116.642196">
        <time>2020-12-23T12:53:44Z</time>
      </trkpt>
      <trkpt lat="39.896305" lon="116.642303">
        <time>2020-12-23T12:53:49Z</time>
      </trkpt>
      <trkpt lat="39.896297" lon="116.642433">
        <time>2020-12-23T12:53:54Z</time>
      </trkpt>
      <trkpt lat="39.896289" lon="116.642601">
        <time>2020-12-23T12:53:59Z</time>
      </trkpt>
      <trkpt lat="39.896286" lon="116.642791">
        <time>2020-12-23T12:54:04Z</time>
      </trkpt>
      <trkpt lat="39.896278" lon="116.64299">
        <time>2020-12-23T12:54:09Z</time>
      </trkpt>
      <trkpt lat="39.896266" lon="116.643157">
        <time>2020-12-23T12:54:14Z</time>
      </trkpt>
      <trkpt lat="39.896255" lon="116.643325">
        <time>2020-12-23T12:54:19Z</time>
      </trkpt>
      <trkpt lat="39.896263" lon="116.643516">
        <time>2020-12-23T12:54:24Z</time>
      </trkpt>
      <trkpt lat="39.89627" lon="116.643699">
        <time>2020-12-23T12:54:29Z</time>
      </trkpt>
      <trkpt lat="39.89627" lon="116.643859">
        <time>2020-12-23T12:54:34Z</time>
      </trkpt>
      <trkpt lat="39.896282" lon="116.644035">
        <time>2020-12-23T12:54:39Z</time>
      </trkpt>
      <trkpt lat="39.896297" lon="116.644203">
        <time>2020-12-23T12:54:44Z</time>
      </trkpt>
      <trkpt lat="39.896305" lon="116.644371">
        <time>2020-12-23T12:54:49Z</time>
      </trkpt>
      <trkpt lat="39.896301" lon="116.644531">
        <time>2020-12-23T12:54:54Z</time>
      </trkpt>
      <trkpt lat="39.896289" lon="116.644706">
        <time>2020-12-23T12:54:59Z</time>
      </trkpt>
      <trkpt lat="39.896278" lon="116.644866">
        <time>2020-12-23T12:55:04Z</time>
      </trkpt>
      <trkpt lat="39.896278" lon="116.645034">
        <time>2020-12-23T12:55:09Z</time>
      </trkpt>
      <trkpt lat="39.896282" lon="116.645187">
        <time>2020-12-23T12:55:14Z</time>
      </trkpt>
      <trkpt lat="39.896278" lon="116.645301">
        <time>2020-12-23T12:55:19Z</time>
      </trkpt>
      <trkpt lat="39.896263" lon="116.645401">
        <time>2020-12-23T12:55:24Z</time>
      </trkpt>
      <trkpt lat="39.896244" lon="116.645484">
        <time>2020-12-23T12:55:29Z</time>
      </trkpt>
      <trkpt lat="39.896236" lon="116.645576">
        <time>2020-12-23T12:55:34Z</time>
      </trkpt>
      <trkpt lat="39.896228" lon="116.645675">
        <time>2020-12-23T12:55:39Z</time>
      </trkpt>
      <trkpt lat="39.896217" lon="116.645812">
        <time>2020-12-23T12:55:44Z</time>
      </trkpt>
      <trkpt lat="39.896198" lon="116.645965">
        <time>2020-12-23T12:55:49Z</time>
      </trkpt>
      <trkpt lat="39.896179" lon="116.646125">
        <time>2020-12-23T12:55:54Z</time>
      </trkpt>
      <trkpt lat="39.896156" lon="116.646286">
        <time>2020-12-23T12:55:59Z</time>
      </trkpt>
      <trkpt lat="39.896137" lon="116.646446">
        <time>2020-12-23T12:56:04Z</time>
      </trkpt>
      <trkpt lat="39.896099" lon="116.646621">
        <time>2020-12-23T12:56:09Z</time>
      </trkpt>
      <trkpt lat="39.896015" lon="116.646774">
        <time>2020-12-23T12:56:14Z</time>
      </trkpt>
      <trkpt lat="39.895881" lon="116.646835">
        <time>2020-12-23T12:56:19Z</time>
      </trkpt>
      <trkpt lat="39.89574" lon="116.646812">
        <time>2020-12-23T12:56:24Z</time>
      </trkpt>
      <trkpt lat="39.895622" lon="116.646759">
        <time>2020-12-23T12:56:29Z</time>
      </trkpt>
      <trkpt lat="39.89553" lon="116.646705">
        <time>2020-12-23T12:56:34Z</time>
      </trkpt>
      <trkpt lat="39.895454" lon="116.646652">
        <time>2020-12-23T12:56:39Z</time>
      </trkpt>
      <trkpt lat="39.895381" lon="116.646614">
        <time>2020-12-23T12:56:44Z</time>
      </trkpt>
      <trkpt lat="39.895305" lon="116.646591">
        <time>2020-12-23T12:56:49Z</time>
      </trkpt>
      <trkpt lat="39.895229" lon="116.646568">
        <time>2020-12-23T12:56:54Z</time>
      </trkpt>
      <trkpt lat="39.895153" lon="116.646553">
        <time>2020-12-23T12:56:59Z</time>
      </trkpt>
      <trkpt lat="39.895088" lon="116.646514">
        <time>2020-12-23T12:57:04Z</time>
      </trkpt>
      <trkpt lat="39.89503" lon="116.646476">
        <time>2020-12-23T12:57:09Z</time>
      </trkpt>
      <trkpt lat="39.894973" lon="116.646446">
        <time>2020-12-23T12:57:14Z</time>
      </trkpt>
      <trkpt lat="39.894893" lon="116.646453">
        <time>2020-12-23T12:57:19Z</time>
      </trkpt>
      <trkpt lat="39.894809" lon="116.646461">
        <time>2020-12-23T12:57:24Z</time>
      </trkpt>
      <trkpt lat="39.894725" lon="116.646453">
        <time>2020-12-23T12:57:29Z</time>
      </trkpt>
      <trkpt lat="39.89463" lon="116.64643">
        <time>2020-12-23T12:57:34Z</time>
      </trkpt>
      <trkpt lat="39.894515" lon="116.646377">
        <time>2020-12-23T12:57:39Z</time>
      </trkpt>
      <trkpt lat="39.894401" lon="116.646324">
        <time>2020-12-23T12:57:44Z</time>
      </trkpt>
      <trkpt lat="39.894275" lon="116.64627">
        <time>2020-12-23T12:57:49Z</time>
      </trkpt>
      <trkpt lat="39.894096" lon="116.646194">
        <time>2020-12-23T12:57:54Z</time>
      </trkpt>
      <trkpt lat="39.893917" lon="116.646179">
        <time>2020-12-23T12:57:59Z</time>
      </trkpt>
      <trkpt lat="39.893821" lon="116.646263">
        <time>2020-12-23T12:58:04Z</time>
      </trkpt>
      <trkpt lat="39.893745" lon="116.646377">
        <time>2020-12-23T12:58:09Z</time>
      </trkpt>
      <trkpt lat="39.893634" lon="116.646423">
        <time>2020-12-23T12:58:14Z</time>
      </trkpt>
      <trkpt lat="39.893497" lon="116.646369">
        <time>2020-12-23T12:58:19Z</time>
      </trkpt>
      <trkpt lat="39.893363" lon="116.646293">
        <time>2020-12-23T12:58:24Z</time>
      </trkpt>
      <trkpt lat="39.89323" lon="116.646209">
        <time>2020-12-23T12:58:29Z</time>
      </trkpt>
      <trkpt lat="39.893108" lon="116.646125">
        <time>2020-12-23T12:58:34Z</time>
      </trkpt>
      <trkpt lat="39.893024" lon="116.646057">
        <time>2020-12-23T12:58:39Z</time>
      </trkpt>
      <trkpt lat="39.892955" lon="116.646026">
        <time>2020-12-23T12:58:44Z</time>
      </trkpt>
      <trkpt lat="39.89289" lon="116.646018">
        <time>2020-12-23T12:58:49Z</time>
      </trkpt>
      <trkpt lat="39.892814" lon="116.646003">
        <time>2020-12-23T12:58:54Z</time>
      </trkpt>
      <trkpt lat="39.892745" lon="116.645973">
        <time>2020-12-23T12:58:59Z</time>
      </trkpt>
      <trkpt lat="39.892681" lon="116.645942">
        <time>2020-12-23T12:59:04Z</time>
      </trkpt>
      <trkpt lat="39.892616" lon="116.645912">
        <time>2020-12-23T12:59:09Z</time>
      </trkpt>
      <trkpt lat="39.892528" lon="116.645866">
        <time>2020-12-23T12:59:14Z</time>
      </trkpt>
      <trkpt lat="39.892414" lon="116.645812">
        <time>2020-12-23T12:59:19Z</time>
      </trkpt>
      <trkpt lat="39.892288" lon="116.645751">
        <time>2020-12-23T12:59:24Z</time>
      </trkpt>
      <trkpt lat="39.892154" lon="116.645683">
        <time>2020-12-23T12:59:29Z</time>
      </trkpt>
      <trkpt lat="39.892017" lon="116.645629">
        <time>2020-12-23T12:59:34Z</time>
      </trkpt>
      <trkpt lat="39.891887" lon="116.645568">
        <time>2020-12-23T12:59:39Z</time>
      </trkpt>
      <trkpt lat="39.891746" lon="116.645469">
        <time>2020-12-23T12:59:44Z</time>
      </trkpt>
      <trkpt lat="39.891674" lon="116.645401">
        <time>2020-12-23T12:59:49Z</time>
      </trkpt>
      <trkpt lat="39.891719" lon="116.645401">
        <time>2020-12-23T12:59:54Z</time>
      </trkpt>
      <trkpt lat="39.891784" lon="116.645439">
        <time>2020-12-23T12:59:59Z</time>
      </trkpt>
      <trkpt lat="39.891845" lon="116.645484">
        <time>2020-12-23T13:00:04Z</time>
      </trkpt>
      <trkpt lat="39.891918" lon="116.645523">
        <time>2020-12-23T13:00:09Z</time>
      </trkpt>
      <trkpt lat="39.891983" lon="116.645568">
        <time>2020-12-23T13:00:14Z</time>
      </trkpt>
      <trkpt lat="39.892032" lon="116.645599">
        <time>2020-12-23T13:00:19Z</time>
      </trkpt>
      <trkpt lat="39.892082" lon="116.645629">
        <time>2020-12-23T13:00:24Z</time>
      </trkpt>
      <trkpt lat="39.892143" lon="116.64566">
        <time>2020-12-23T13:00:29Z</time>
      </trkpt>
      <trkpt lat="39.892211" lon="116.645706">
        <time>2020-12-23T13:00:34Z</time>
      </trkpt>
      <trkpt lat="39.892284" lon="116.645736">
        <time>2020-12-23T13:00:39Z</time>
      </trkpt>
      <trkpt lat="39.892364" lon="116.645767">
        <time>2020-12-23T13:00:44Z</time>
      </trkpt>
      <trkpt lat="39.892444" lon="116.645805">
        <time>2020-12-23T13:00:49Z</time>
      </trkpt>
      <trkpt lat="39.892513" lon="116.645843">
        <time>2020-12-23T13:00:54Z</time>
      </trkpt>
      <trkpt lat="39.892597" lon="116.645889">
        <time>2020-12-23T13:00:59Z</time>
      </trkpt>
      <trkpt lat="39.892696" lon="116.645927">
        <time>2020-12-23T13:01:04Z</time>
      </trkpt>
      <trkpt lat="39.892803" lon="116.645965">
        <time>2020-12-23T13:01:09Z</time>
      </trkpt>
      <trkpt lat="39.892921" lon="116.645996">
        <time>2020-12-23T13:01:14Z</time>
      </trkpt>
      <trkpt lat="39.893035" lon="116.646026">
        <time>2020-12-23T13:01:19Z</time>
      </trkpt>
      <trkpt lat="39.893135" lon="116.64608">
        <time>2020-12-23T13:01:24Z</time>
      </trkpt>
      <trkpt lat="39.893241" lon="116.646141">
        <time>2020-12-23T13:01:29Z</time>
      </trkpt>
      <trkpt lat="39.893356" lon="116.646209">
        <time>2020-12-23T13:01:34Z</time>
      </trkpt>
      <trkpt lat="39.893531" lon="116.646286">
        <time>2020-12-23T13:01:39Z</time>
      </trkpt>
      <trkpt lat="39.893672" lon="116.646263">
        <time>2020-12-23T13:01:44Z</time>
      </trkpt>
      <trkpt lat="39.893779" lon="116.646156">
        <time>2020-12-23T13:01:49Z</time>
      </trkpt>
      <trkpt lat="39.893875" lon="116.646034">
        <time>2020-12-23T13:01:54Z</time>
      </trkpt>
      <trkpt lat="39.893978" lon="116.64595">
        <time>2020-12-23T13:01:59Z</time>
      </trkpt>
      <trkpt lat="39.894115" lon="116.64595">
        <time>2020-12-23T13:02:04Z</time>
      </trkpt>
      <trkpt lat="39.894252" lon="116.646003">
        <time>2020-12-23T13:02:09Z</time>
      </trkpt>
      <trkpt lat="39.894348" lon="116.646049">
        <time>2020-12-23T13:02:14Z</time>
      </trkpt>
      <trkpt lat="39.89442" lon="116.646087">
        <time>2020-12-23T13:02:19Z</time>
      </trkpt>
      <trkpt lat="39.894493" lon="116.646133">
        <time>2020-12-23T13:02:24Z</time>
      </trkpt>
      <trkpt lat="39.89455" lon="116.646179">
        <time>2020-12-23T13:02:29Z</time>
      </trkpt>
      <trkpt lat="39.894603" lon="116.646194">
        <time>2020-12-23T13:02:34Z</time>
      </trkpt>
      <trkpt lat="39.894657" lon="116.646232">
        <time>2020-12-23T13:02:39Z</time>
      </trkpt>
      <trkpt lat="39.894718" lon="116.64627">
        <time>2020-12-23T13:02:44Z</time>
      </trkpt>
      <trkpt lat="39.89479" lon="116.646316">
        <time>2020-12-23T13:02:49Z</time>
      </trkpt>
      <trkpt lat="39.894893" lon="116.646369">
        <time>2020-12-23T13:02:54Z</time>
      </trkpt>
      <trkpt lat="39.895011" lon="116.64643">
        <time>2020-12-23T13:02:59Z</time>
      </trkpt>
      <trkpt lat="39.895137" lon="116.646484">
        <time>2020-12-23T13:03:04Z</time>
      </trkpt>
      <trkpt lat="39.895259" lon="116.646537">
        <time>2020-12-23T13:03:09Z</time>
      </trkpt>
      <trkpt lat="39.895389" lon="116.646583">
        <time>2020-12-23T13:03:14Z</time>
      </trkpt>
      <trkpt lat="39.895511" lon="116.646644">
        <time>2020-12-23T13:03:19Z</time>
      </trkpt>
      <trkpt lat="39.895618" lon="116.646705">
        <time>2020-12-23T13:03:24Z</time>
      </trkpt>
      <trkpt lat="39.895709" lon="116.646759">
        <time>2020-12-23T13:03:29Z</time>
      </trkpt>
      <trkpt lat="39.895793" lon="116.646804">
        <time>2020-12-23T13:03:34Z</time>
      </trkpt>
      <trkpt lat="39.89587" lon="116.646827">
        <time>2020-12-23T13:03:39Z</time>
      </trkpt>
      <trkpt lat="39.895946" lon="116.646812">
        <time>2020-12-23T13:03:44Z</time>
      </trkpt>
      <trkpt lat="39.896007" lon="116.646774">
        <time>2020-12-23T13:03:49Z</time>
      </trkpt>
      <trkpt lat="39.896041" lon="116.64669">
        <time>2020-12-23T13:03:54Z</time>
      </trkpt>
      <trkpt lat="39.896057" lon="116.646568">
        <time>2020-12-23T13:03:59Z</time>
      </trkpt>
      <trkpt lat="39.896057" lon="116.646423">
        <time>2020-12-23T13:04:04Z</time>
      </trkpt>
      <trkpt lat="39.89606" lon="116.64624">
        <time>2020-12-23T13:04:09Z</time>
      </trkpt>
      <trkpt lat="39.896072" lon="116.646034">
        <time>2020-12-23T13:04:14Z</time>
      </trkpt>
      <trkpt lat="39.896083" lon="116.645843">
        <time>2020-12-23T13:04:19Z</time>
      </trkpt>
      <trkpt lat="39.896095" lon="116.645675">
        <time>2020-12-23T13:04:24Z</time>
      </trkpt>
      <trkpt lat="39.89611" lon="116.645507">
        <time>2020-12-23T13:04:29Z</time>
      </trkpt>
      <trkpt lat="39.896129" lon="116.645324">
        <time>2020-12-23T13:04:34Z</time>
      </trkpt>
      <trkpt lat="39.896137" lon="116.645133">
        <time>2020-12-23T13:04:39Z</time>
      </trkpt>
      <trkpt lat="39.896137" lon="116.644927">
        <time>2020-12-23T13:04:44Z</time>
      </trkpt>
      <trkpt lat="39.896152" lon="116.64476">
        <time>2020-12-23T13:04:49Z</time>
      </trkpt>
      <trkpt lat="39.896167" lon="116.644638">
        <time>2020-12-23T13:04:54Z</time>
      </trkpt>
      <trkpt lat="39.896175" lon="116.644531">
        <time>2020-12-23T13:04:59Z</time>
      </trkpt>
      <trkpt lat="39.896179" lon="116.644439">
        <time>2020-12-23T13:05:04Z</time>
      </trkpt>
      <trkpt lat="39.896183" lon="116.644332">
        <time>2020-12-23T13:05:09Z</time>
      </trkpt>
      <trkpt lat="39.89619" lon="116.64421">
        <time>2020-12-23T13:05:14Z</time>
      </trkpt>
      <trkpt lat="39.896202" lon="116.644035">
        <time>2020-12-23T13:05:19Z</time>
      </trkpt>
      <trkpt lat="39.896209" lon="116.643852">
        <time>2020-12-23T13:05:24Z</time>
      </trkpt>
      <trkpt lat="39.896221" lon="116.643692">
        <time>2020-12-23T13:05:29Z</time>
      </trkpt>
      <trkpt lat="39.896236" lon="116.643531">
        <time>2020-12-23T13:05:34Z</time>
      </trkpt>
      <trkpt lat="39.896236" lon="116.643356">
        <time>2020-12-23T13:05:39Z</time>
      </trkpt>
      <trkpt lat="39.896232" lon="116.643188">
        <time>2020-12-23T13:05:44Z</time>
      </trkpt>
      <trkpt lat="39.89624" lon="116.64302">
        <time>2020-12-23T13:05:49Z</time>
      </trkpt>
      <trkpt lat="39.896244" lon="116.642837">
        <time>2020-12-23T13:05:54Z</time>
      </trkpt>
      <trkpt lat="39.896236" lon="116.642646">
        <time>2020-12-23T13:05:59Z</time>
      </trkpt>
      <trkpt lat="39.896232" lon="116.64244">
        <time>2020-12-23T13:06:04Z</time>
      </trkpt>
      <trkpt lat="39.896221" lon="116.642227">
        <time>2020-12-23T13:06:09Z</time>
      </trkpt>
      <trkpt lat="39.896213" lon="116.642005">
        <time>2020-12-23T13:06:14Z</time>
      </trkpt>
      <trkpt lat="39.896217" lon="116.641784">
        <time>2020-12-23T13:06:19Z</time>
      </trkpt>
      <trkpt lat="39.896228" lon="116.641586">
        <time>2020-12-23T13:06:24Z</time>
      </trkpt>
      <trkpt lat="39.896236" lon="116.64141">
        <time>2020-12-23T13:06:29Z</time>
      </trkpt>
      <trkpt lat="39.89624" lon="116.641212">
        <time>2020-12-23T13:06:34Z</time>
      </trkpt>
      <trkpt lat="39.896251" lon="116.641044">
        <time>2020-12-23T13:06:39Z</time>
      </trkpt>
      <trkpt lat="39.896263" lon="116.64093">
        <time>2020-12-23T13:06:44Z</time>
      </trkpt>
      <trkpt lat="39.896274" lon="116.640823">
        <time>2020-12-23T13:06:49Z</time>
      </trkpt>
      <trkpt lat="39.896282" lon="116.640724">
        <time>2020-12-23T13:06:54Z</time>
      </trkpt>
      <trkpt lat="39.896282" lon="116.640617">
        <time>2020-12-23T13:06:59Z</time>
      </trkpt>
      <trkpt lat="39.896278" lon="116.64051">
        <time>2020-12-23T13:07:04Z</time>
      </trkpt>
      <trkpt lat="39.896278" lon="116.640403">
        <time>2020-12-23T13:07:09Z</time>
      </trkpt>
      <trkpt lat="39.89627" lon="116.640312">
        <time>2020-12-23T13:07:14Z</time>
      </trkpt>
      <trkpt lat="39.896266" lon="116.640213">
        <time>2020-12-23T13:07:19Z</time>
      </trkpt>
      <trkpt lat="39.89627" lon="116.640129">
        <time>2020-12-23T13:07:24Z</time>
      </trkpt>
      <trkpt lat="39.89627" lon="116.640029">
        <time>2020-12-23T13:07:29Z</time>
      </trkpt>
      <trkpt lat="39.89627" lon="116.639945">
        <time>2020-12-23T13:07:34Z</time>
      </trkpt>
      <trkpt lat="39.89627" lon="116.639869">
        <time>2020-12-23T13:07:39Z</time>
      </trkpt>
      <trkpt lat="39.896263" lon="116.639785">
        <time>2020-12-23T13:07:44Z</time>
      </trkpt>
      <trkpt lat="39.896244" lon="116.639671">
        <time>2020-12-23T13:07:49Z</time>
      </trkpt>
      <trkpt lat="39.896228" lon="116.639533">
        <time>2020-12-23T13:07:54Z</time>
      </trkpt>
      <trkpt lat="39.896224" lon="116.639389">
        <time>2020-12-23T13:07:59Z</time>
      </trkpt>
      <trkpt lat="39.896236" lon="116.639266">
        <time>2020-12-23T13:08:04Z</time>
      </trkpt>
      <trkpt lat="39.896247" lon="116.639122">
        <time>2020-12-23T13:08:09Z</time>
      </trkpt>
      <trkpt lat="39.896236" lon="116.638946">
        <time>2020-12-23T13:08:14Z</time>
      </trkpt>
      <trkpt lat="39.896221" lon="116.63871">
        <time>2020-12-23T13:08:19Z</time>
      </trkpt>
      <trkpt lat="39.896217" lon="116.638473">
        <time>2020-12-23T13:08:24Z</time>
      </trkpt>
      <trkpt lat="39.896209" lon="116.638229">
        <time>2020-12-23T13:08:29Z</time>
      </trkpt>
      <trkpt lat="39.896194" lon="116.637992">
        <time>2020-12-23T13:08:34Z</time>
      </trkpt>
      <trkpt lat="39.896171" lon="116.637748">
        <time>2020-12-23T13:08:39Z</time>
      </trkpt>
      <trkpt lat="39.896148" lon="116.637496">
        <time>2020-12-23T13:08:44Z</time>
      </trkpt>
      <trkpt lat="39.896121" lon="116.63729">
        <time>2020-12-23T13:08:49Z</time>
      </trkpt>
      <trkpt lat="39.896102" lon="116.637153">
        <time>2020-12-23T13:08:54Z</time>
      </trkpt>
      <trkpt lat="39.896106" lon="116.637046">
        <time>2020-12-23T13:08:59Z</time>
      </trkpt>
      <trkpt lat="39.896118" lon="116.636947">
        <time>2020-12-23T13:09:04Z</time>
      </trkpt>
      <trkpt lat="39.896106" lon="116.636871">
        <time>2020-12-23T13:09:09Z</time>
      </trkpt>
      <trkpt lat="39.89608" lon="116.636802">
        <time>2020-12-23T13:09:14Z</time>
      </trkpt>
      <trkpt lat="39.896053" lon="116.636749">
        <time>2020-12-23T13:09:19Z</time>
      </trkpt>
      <trkpt lat="39.896022" lon="116.636695">
        <time>2020-12-23T13:09:24Z</time>
      </trkpt>
      <trkpt lat="39.895984" lon="116.636657">
        <time>2020-12-23T13:09:29Z</time>
      </trkpt>
      <trkpt lat="39.895935" lon="116.636627">
        <time>2020-12-23T13:09:34Z</time>
      </trkpt>
      <trkpt lat="39.895923" lon="116.636543">
        <time>2020-12-23T13:09:39Z</time>
      </trkpt>
      <trkpt lat="39.895988" lon="116.636451">
        <time>2020-12-23T13:09:44Z</time>
      </trkpt>
      <trkpt lat="39.896087" lon="116.63636">
        <time>2020-12-23T13:09:49Z</time>
      </trkpt>
      <trkpt lat="39.896194" lon="116.636268">
        <time>2020-12-23T13:09:54Z</time>
      </trkpt>
      <trkpt lat="39.896308" lon="116.636161">
        <time>2020-12-23T13:09:59Z</time>
      </trkpt>
      <trkpt lat="39.896434" lon="116.636062">
        <time>2020-12-23T13:10:04Z</time>
      </trkpt>
      <trkpt lat="39.89656" lon="116.636001">
        <time>2020-12-23T13:10:09Z</time>
      </trkpt>
      <trkpt lat="39.896678" lon="116.635917">
        <time>2020-12-23T13:10:14Z</time>
      </trkpt>
      <trkpt lat="39.896793" lon="116.635818">
        <time>2020-12-23T13:10:19Z</time>
      </trkpt>
      <trkpt lat="39.896884" lon="116.635734">
        <time>2020-12-23T13:10:24Z</time>
      </trkpt>
      <trkpt lat="39.896961" lon="116.635688">
        <time>2020-12-23T13:10:29Z</time>
      </trkpt>
      <trkpt lat="39.897026" lon="116.635665">
        <time>2020-12-23T13:10:34Z</time>
      </trkpt>
      <trkpt lat="39.897094" lon="116.635627">
        <time>2020-12-23T13:10:39Z</time>
      </trkpt>
      <trkpt lat="39.897148" lon="116.635581">
        <time>2020-12-23T13:10:44Z</time>
      </trkpt>
      <trkpt lat="39.897197" lon="116.635543">
        <time>2020-12-23T13:10:49Z</time>
      </trkpt>
      <trkpt lat="39.897262" lon="116.635505">
        <time>2020-12-23T13:10:54Z</time>
      </trkpt>
      <trkpt lat="39.897335" lon="116.635475">
        <time>2020-12-23T13:10:59Z</time>
      </trkpt>
      <trkpt lat="39.897396" lon="116.635421">
        <time>2020-12-23T13:11:04Z</time>
      </trkpt>
      <trkpt lat="39.89746" lon="116.635368">
        <time>2020-12-23T13:11:09Z</time>
      </trkpt>
      <trkpt lat="39.897529" lon="116.635337">
        <time>2020-12-23T13:11:14Z</time>
      </trkpt>
      <trkpt lat="39.897598" lon="116.63533">
        <time>2020-12-23T13:11:19Z</time>
      </trkpt>
      <trkpt lat="39.89767" lon="116.635284">
        <time>2020-12-23T13:11:24Z</time>
      </trkpt>
      <trkpt lat="39.897766" lon="116.635208">
        <time>2020-12-23T13:11:29Z</time>
      </trkpt>
      <trkpt lat="39.897891" lon="116.635101">
        <time>2020-12-23T13:11:34Z</time>
      </trkpt>
      <trkpt lat="39.897918" lon="116.63507">
        <time>2020-12-23T13:11:39Z</time>
      </trkpt>
      <trkpt lat="39.897918" lon="116.63507">
        <time>2020-12-23T13:11:44Z</time>
      </trkpt>
      <trkpt lat="39.898029" lon="116.634956">
        <time>2020-12-23T13:11:49Z</time>
      </trkpt>
      <trkpt lat="39.89804" lon="116.634819">
        <time>2020-12-23T13:11:54Z</time>
      </trkpt>
      <trkpt lat="39.897991" lon="116.634689">
        <time>2020-12-23T13:11:59Z</time>
      </trkpt>
      <trkpt lat="39.897945" lon="116.634567">
        <time>2020-12-23T13:12:04Z</time>
      </trkpt>
      <trkpt lat="39.897914" lon="116.63446">
        <time>2020-12-23T13:12:09Z</time>
      </trkpt>
      <trkpt lat="39.897884" lon="116.634353">
        <time>2020-12-23T13:12:14Z</time>
      </trkpt>
      <trkpt lat="39.897838" lon="116.634254">
        <time>2020-12-23T13:12:19Z</time>
      </trkpt>
      <trkpt lat="39.897785" lon="116.634147">
        <time>2020-12-23T13:12:24Z</time>
      </trkpt>
      <trkpt lat="39.897758" lon="116.634025">
        <time>2020-12-23T13:12:29Z</time>
      </trkpt>
      <trkpt lat="39.89775" lon="116.633895">
        <time>2020-12-23T13:12:34Z</time>
      </trkpt>
      <trkpt lat="39.897739" lon="116.633804">
        <time>2020-12-23T13:12:39Z</time>
      </trkpt>
      <trkpt lat="39.897689" lon="116.63372">
        <time>2020-12-23T13:12:44Z</time>
      </trkpt>
      <trkpt lat="39.897605" lon="116.633666">
        <time>2020-12-23T13:12:49Z</time>
      </trkpt>
      <trkpt lat="39.897544" lon="116.633697">
        <time>2020-12-23T13:12:54Z</time>
      </trkpt>
      <trkpt lat="39.897529" lon="116.633781">
        <time>2020-12-23T13:12:59Z</time>
      </trkpt>
      <trkpt lat="39.897544" lon="116.633697">
        <time>2020-12-23T13:13:04Z</time>
      </trkpt>
      <trkpt lat="39.897529" lon="116.633781">
        <time>2020-12-23T13:19:09Z</time>
      </trkpt>
    </trkseg>
  </trk>
</gpx>