<?xml version="1.0" encoding="UTF-8"?>
<gpx xmlns="http://www.topografix.com/GPX/1/1" xmlns:gpxtpx="http://www.garmin.com/xmlschemas/TrackPointExtension/v1" xmlns:xsi="http://www.w3.org/2001/XMLSchema-instance" xsi:schemaLocation="http://www.topografix.com/GPX/1/1 http://www.topografix.com/GPX/1/1/gpx.xsd" version="1.1" creator="gpx.py -- https://github.com/tkrajina/gpxpy">
  <trk>
    <name>gpx from keep</name>
    <trkseg>
      <trkpt lat="39.898109" lon="116.634532">
        <time>2021-01-10T08:12:16Z</time>
      </trkpt>
      <trkpt lat="39.898109" lon="116.634532">
        <time>2021-01-10T08:12:21Z</time>
      </trkpt>
      <trkpt lat="39.898161" lon="116.634412">
        <time>2021-01-10T08:12:26Z</time>
      </trkpt>
      <trkpt lat="39.89817" lon="116.634419">
        <time>2021-01-10T08:12:31Z</time>
      </trkpt>
      <trkpt lat="39.898179" lon="116.634426">
        <time>2021-01-10T08:12:36Z</time>
      </trkpt>
      <trkpt lat="39.898188" lon="116.634433">
        <time>2021-01-10T08:12:41Z</time>
      </trkpt>
      <trkpt lat="39.898002" lon="116.634473">
        <time>2021-01-10T08:12:46Z</time>
      </trkpt>
      <trkpt lat="39.897966" lon="116.634423">
        <time>2021-01-10T08:12:51Z</time>
      </trkpt>
      <trkpt lat="39.89793" lon="116.634373">
        <time>2021-01-10T08:12:56Z</time>
      </trkpt>
      <trkpt lat="39.897959" lon="116.634377">
        <time>2021-01-10T08:13:01Z</time>
      </trkpt>
      <trkpt lat="39.897988" lon="116.634381">
        <time>2021-01-10T08:13:06Z</time>
      </trkpt>
      <trkpt lat="39.897967" lon="116.63439">
        <time>2021-01-10T08:13:11Z</time>
      </trkpt>
      <trkpt lat="39.897946" lon="116.634399">
        <time>2021-01-10T08:13:16Z</time>
      </trkpt>
      <trkpt lat="39.897925" lon="116.634408">
        <time>2021-01-10T08:13:21Z</time>
      </trkpt>
      <trkpt lat="39.897904" lon="116.634417">
        <time>2021-01-10T08:13:26Z</time>
      </trkpt>
      <trkpt lat="39.897883" lon="116.634426">
        <time>2021-01-10T08:13:31Z</time>
      </trkpt>
      <trkpt lat="39.897862" lon="116.634435">
        <time>2021-01-10T08:13:36Z</time>
      </trkpt>
      <trkpt lat="39.897876" lon="116.634502">
        <time>2021-01-10T08:13:41Z</time>
      </trkpt>
      <trkpt lat="39.897894" lon="116.634496">
        <time>2021-01-10T08:13:46Z</time>
      </trkpt>
      <trkpt lat="39.897912" lon="116.63449">
        <time>2021-01-10T08:13:51Z</time>
      </trkpt>
      <trkpt lat="39.897953" lon="116.634547">
        <time>2021-01-10T08:13:56Z</time>
      </trkpt>
      <trkpt lat="39.898054" lon="116.634436">
        <time>2021-01-10T08:14:01Z</time>
      </trkpt>
      <trkpt lat="39.89799" lon="116.634463">
        <time>2021-01-10T08:14:06Z</time>
      </trkpt>
      <trkpt lat="39.897926" lon="116.63449">
        <time>2021-01-10T08:14:11Z</time>
      </trkpt>
      <trkpt lat="39.897924" lon="116.634333">
        <time>2021-01-10T08:14:16Z</time>
      </trkpt>
      <trkpt lat="39.897812" lon="116.634274">
        <time>2021-01-10T08:14:21Z</time>
      </trkpt>
      <trkpt lat="39.8977" lon="116.634215">
        <time>2021-01-10T08:14:26Z</time>
      </trkpt>
      <trkpt lat="39.897588" lon="116.634156">
        <time>2021-01-10T08:14:31Z</time>
      </trkpt>
      <trkpt lat="39.897696" lon="116.634348">
        <time>2021-01-10T08:14:36Z</time>
      </trkpt>
      <trkpt lat="39.897847" lon="116.63451">
        <time>2021-01-10T08:14:41Z</time>
      </trkpt>
      <trkpt lat="39.89766" lon="116.634359">
        <time>2021-01-10T08:14:46Z</time>
      </trkpt>
      <trkpt lat="39.897473" lon="116.634208">
        <time>2021-01-10T08:14:51Z</time>
      </trkpt>
      <trkpt lat="39.897857" lon="116.634357">
        <time>2021-01-10T08:14:56Z</time>
      </trkpt>
      <trkpt lat="39.897978" lon="116.634409">
        <time>2021-01-10T08:15:01Z</time>
      </trkpt>
      <trkpt lat="39.897862" lon="116.634373">
        <time>2021-01-10T08:15:06Z</time>
      </trkpt>
      <trkpt lat="39.897826" lon="116.6344">
        <time>2021-01-10T08:15:11Z</time>
      </trkpt>
      <trkpt lat="39.897775" lon="116.634186">
        <time>2021-01-10T08:15:16Z</time>
      </trkpt>
      <trkpt lat="39.897543" lon="116.634176">
        <time>2021-01-10T08:15:21Z</time>
      </trkpt>
      <trkpt lat="39.897311" lon="116.634166">
        <time>2021-01-10T08:15:26Z</time>
      </trkpt>
      <trkpt lat="39.897395" lon="116.634122">
        <time>2021-01-10T08:15:31Z</time>
      </trkpt>
      <trkpt lat="39.897364" lon="116.633985">
        <time>2021-01-10T08:15:36Z</time>
      </trkpt>
      <trkpt lat="39.897299" lon="116.633851">
        <time>2021-01-10T08:15:41Z</time>
      </trkpt>
      <trkpt lat="39.897375" lon="116.633764">
        <time>2021-01-10T08:15:46Z</time>
      </trkpt>
      <trkpt lat="39.897453" lon="116.633705">
        <time>2021-01-10T08:15:51Z</time>
      </trkpt>
      <trkpt lat="39.897548" lon="116.633746">
        <time>2021-01-10T08:15:56Z</time>
      </trkpt>
      <trkpt lat="39.897679" lon="116.63388">
        <time>2021-01-10T08:16:01Z</time>
      </trkpt>
      <trkpt lat="39.897832" lon="116.634042">
        <time>2021-01-10T08:16:06Z</time>
      </trkpt>
      <trkpt lat="39.897883" lon="116.634194">
        <time>2021-01-10T08:16:11Z</time>
      </trkpt>
      <trkpt lat="39.897937" lon="116.634365">
        <time>2021-01-10T08:16:16Z</time>
      </trkpt>
      <trkpt lat="39.898017" lon="116.634496">
        <time>2021-01-10T08:16:21Z</time>
      </trkpt>
      <trkpt lat="39.89807" lon="116.634683">
        <time>2021-01-10T08:16:26Z</time>
      </trkpt>
      <trkpt lat="39.898054" lon="116.634707">
        <time>2021-01-10T08:16:31Z</time>
      </trkpt>
      <trkpt lat="39.898043" lon="116.634718">
        <time>2021-01-10T08:16:36Z</time>
      </trkpt>
      <trkpt lat="39.898047" lon="116.634732">
        <time>2021-01-10T08:16:41Z</time>
      </trkpt>
      <trkpt lat="39.898039" lon="116.634744">
        <time>2021-01-10T08:16:46Z</time>
      </trkpt>
      <trkpt lat="39.898033" lon="116.634759">
        <time>2021-01-10T08:16:51Z</time>
      </trkpt>
      <trkpt lat="39.898043" lon="116.63477">
        <time>2021-01-10T08:16:56Z</time>
      </trkpt>
      <trkpt lat="39.898042" lon="116.634769">
        <time>2021-01-10T08:17:01Z</time>
      </trkpt>
      <trkpt lat="39.898042" lon="116.634764">
        <time>2021-01-10T08:17:06Z</time>
      </trkpt>
      <trkpt lat="39.89805" lon="116.634785">
        <time>2021-01-10T08:17:11Z</time>
      </trkpt>
      <trkpt lat="39.898054" lon="116.634786">
        <time>2021-01-10T08:17:16Z</time>
      </trkpt>
      <trkpt lat="39.898058" lon="116.634787">
        <time>2021-01-10T08:17:21Z</time>
      </trkpt>
      <trkpt lat="39.898058" lon="116.634778">
        <time>2021-01-10T08:17:26Z</time>
      </trkpt>
      <trkpt lat="39.898064" lon="116.634766">
        <time>2021-01-10T08:17:31Z</time>
      </trkpt>
      <trkpt lat="39.898065" lon="116.634758">
        <time>2021-01-10T08:17:36Z</time>
      </trkpt>
      <trkpt lat="39.898061" lon="116.63475">
        <time>2021-01-10T08:17:41Z</time>
      </trkpt>
      <trkpt lat="39.898057" lon="116.634742">
        <time>2021-01-10T08:17:46Z</time>
      </trkpt>
      <trkpt lat="39.898071" lon="116.634766">
        <time>2021-01-10T08:17:51Z</time>
      </trkpt>
      <trkpt lat="39.898138" lon="116.634913">
        <time>2021-01-10T08:17:56Z</time>
      </trkpt>
      <trkpt lat="39.898136" lon="116.635066">
        <time>2021-01-10T08:18:01Z</time>
      </trkpt>
      <trkpt lat="39.898018" lon="116.635151">
        <time>2021-01-10T08:18:06Z</time>
      </trkpt>
      <trkpt lat="39.897934" lon="116.635169">
        <time>2021-01-10T08:18:11Z</time>
      </trkpt>
      <trkpt lat="39.89788" lon="116.635201">
        <time>2021-01-10T08:18:16Z</time>
      </trkpt>
      <trkpt lat="39.897831" lon="116.635228">
        <time>2021-01-10T08:18:21Z</time>
      </trkpt>
      <trkpt lat="39.897759" lon="116.635238">
        <time>2021-01-10T08:18:26Z</time>
      </trkpt>
      <trkpt lat="39.89767" lon="116.635299">
        <time>2021-01-10T08:18:31Z</time>
      </trkpt>
      <trkpt lat="39.897532" lon="116.6354">
        <time>2021-01-10T08:18:36Z</time>
      </trkpt>
      <trkpt lat="39.897357" lon="116.635479">
        <time>2021-01-10T08:18:41Z</time>
      </trkpt>
      <trkpt lat="39.897217" lon="116.635557">
        <time>2021-01-10T08:18:46Z</time>
      </trkpt>
      <trkpt lat="39.897" lon="116.635707">
        <time>2021-01-10T08:18:51Z</time>
      </trkpt>
      <trkpt lat="39.896908" lon="116.635756">
        <time>2021-01-10T08:18:56Z</time>
      </trkpt>
      <trkpt lat="39.89674" lon="116.635887">
        <time>2021-01-10T08:19:01Z</time>
      </trkpt>
      <trkpt lat="39.896501" lon="116.636065">
        <time>2021-01-10T08:19:06Z</time>
      </trkpt>
      <trkpt lat="39.896454" lon="116.636092">
        <time>2021-01-10T08:19:11Z</time>
      </trkpt>
      <trkpt lat="39.896323" lon="116.636068">
        <time>2021-01-10T08:19:16Z</time>
      </trkpt>
      <trkpt lat="39.896179" lon="116.636124">
        <time>2021-01-10T08:19:21Z</time>
      </trkpt>
      <trkpt lat="39.89613" lon="116.6363">
        <time>2021-01-10T08:19:26Z</time>
      </trkpt>
      <trkpt lat="39.896084" lon="116.636389">
        <time>2021-01-10T08:19:31Z</time>
      </trkpt>
      <trkpt lat="39.896066" lon="116.636431">
        <time>2021-01-10T08:19:36Z</time>
      </trkpt>
      <trkpt lat="39.89607" lon="116.636473">
        <time>2021-01-10T08:19:41Z</time>
      </trkpt>
      <trkpt lat="39.896075" lon="116.636492">
        <time>2021-01-10T08:19:46Z</time>
      </trkpt>
      <trkpt lat="39.896076" lon="116.636484">
        <time>2021-01-10T08:19:51Z</time>
      </trkpt>
      <trkpt lat="39.89608" lon="116.636482">
        <time>2021-01-10T08:19:56Z</time>
      </trkpt>
      <trkpt lat="39.896074" lon="116.636496">
        <time>2021-01-10T08:20:01Z</time>
      </trkpt>
      <trkpt lat="39.896062" lon="116.63651">
        <time>2021-01-10T08:20:06Z</time>
      </trkpt>
      <trkpt lat="39.896074" lon="116.636497">
        <time>2021-01-10T08:20:11Z</time>
      </trkpt>
      <trkpt lat="39.896076" lon="116.636485">
        <time>2021-01-10T08:20:16Z</time>
      </trkpt>
      <trkpt lat="39.896098" lon="116.63648">
        <time>2021-01-10T08:20:21Z</time>
      </trkpt>
      <trkpt lat="39.896091" lon="116.636493">
        <time>2021-01-10T08:20:26Z</time>
      </trkpt>
      <trkpt lat="39.896063" lon="116.636513">
        <time>2021-01-10T08:20:31Z</time>
      </trkpt>
      <trkpt lat="39.896057" lon="116.636529">
        <time>2021-01-10T08:20:36Z</time>
      </trkpt>
      <trkpt lat="39.896092" lon="116.636514">
        <time>2021-01-10T08:20:41Z</time>
      </trkpt>
      <trkpt lat="39.896095" lon="116.636518">
        <time>2021-01-10T08:20:46Z</time>
      </trkpt>
      <trkpt lat="39.896098" lon="116.636522">
        <time>2021-01-10T08:20:51Z</time>
      </trkpt>
      <trkpt lat="39.896088" lon="116.636527">
        <time>2021-01-10T08:20:56Z</time>
      </trkpt>
      <trkpt lat="39.896091" lon="116.636534">
        <time>2021-01-10T08:21:01Z</time>
      </trkpt>
      <trkpt lat="39.896088" lon="116.636529">
        <time>2021-01-10T08:21:06Z</time>
      </trkpt>
      <trkpt lat="39.896091" lon="116.63652">
        <time>2021-01-10T08:21:11Z</time>
      </trkpt>
      <trkpt lat="39.89607" lon="116.636517">
        <time>2021-01-10T08:21:16Z</time>
      </trkpt>
      <trkpt lat="39.896059" lon="116.636524">
        <time>2021-01-10T08:21:21Z</time>
      </trkpt>
      <trkpt lat="39.89606" lon="116.636531">
        <time>2021-01-10T08:21:26Z</time>
      </trkpt>
      <trkpt lat="39.896061" lon="116.636538">
        <time>2021-01-10T08:21:31Z</time>
      </trkpt>
      <trkpt lat="39.896057" lon="116.636539">
        <time>2021-01-10T08:21:36Z</time>
      </trkpt>
      <trkpt lat="39.896048" lon="116.63655">
        <time>2021-01-10T08:21:41Z</time>
      </trkpt>
      <trkpt lat="39.896047" lon="116.636567">
        <time>2021-01-10T08:21:46Z</time>
      </trkpt>
      <trkpt lat="39.896044" lon="116.636598">
        <time>2021-01-10T08:21:51Z</time>
      </trkpt>
      <trkpt lat="39.89603" lon="116.636606">
        <time>2021-01-10T08:21:56Z</time>
      </trkpt>
      <trkpt lat="39.896023" lon="116.636615">
        <time>2021-01-10T08:22:01Z</time>
      </trkpt>
      <trkpt lat="39.895998" lon="116.636619">
        <time>2021-01-10T08:22:06Z</time>
      </trkpt>
      <trkpt lat="39.895963" lon="116.636637">
        <time>2021-01-10T08:22:11Z</time>
      </trkpt>
      <trkpt lat="39.895979" lon="116.636687">
        <time>2021-01-10T08:22:16Z</time>
      </trkpt>
      <trkpt lat="39.896075" lon="116.636776">
        <time>2021-01-10T08:22:21Z</time>
      </trkpt>
      <trkpt lat="39.896101" lon="116.636777">
        <time>2021-01-10T08:22:26Z</time>
      </trkpt>
      <trkpt lat="39.896132" lon="116.636802">
        <time>2021-01-10T08:22:31Z</time>
      </trkpt>
      <trkpt lat="39.896168" lon="116.6369">
        <time>2021-01-10T08:22:36Z</time>
      </trkpt>
      <trkpt lat="39.896172" lon="116.637031">
        <time>2021-01-10T08:22:41Z</time>
      </trkpt>
      <trkpt lat="39.896183" lon="116.63718">
        <time>2021-01-10T08:22:46Z</time>
      </trkpt>
      <trkpt lat="39.896196" lon="116.637333">
        <time>2021-01-10T08:22:51Z</time>
      </trkpt>
      <trkpt lat="39.896188" lon="116.637486">
        <time>2021-01-10T08:22:56Z</time>
      </trkpt>
      <trkpt lat="39.896175" lon="116.637643">
        <time>2021-01-10T08:23:01Z</time>
      </trkpt>
      <trkpt lat="39.896183" lon="116.637811">
        <time>2021-01-10T08:23:06Z</time>
      </trkpt>
      <trkpt lat="39.896202" lon="116.637969">
        <time>2021-01-10T08:23:11Z</time>
      </trkpt>
      <trkpt lat="39.896213" lon="116.63813">
        <time>2021-01-10T08:23:16Z</time>
      </trkpt>
      <trkpt lat="39.896198" lon="116.638311">
        <time>2021-01-10T08:23:21Z</time>
      </trkpt>
      <trkpt lat="39.8962" lon="116.638479">
        <time>2021-01-10T08:23:26Z</time>
      </trkpt>
      <trkpt lat="39.896186" lon="116.638623">
        <time>2021-01-10T08:23:31Z</time>
      </trkpt>
      <trkpt lat="39.896196" lon="116.63878">
        <time>2021-01-10T08:23:36Z</time>
      </trkpt>
      <trkpt lat="39.896228" lon="116.63899">
        <time>2021-01-10T08:23:41Z</time>
      </trkpt>
      <trkpt lat="39.896216" lon="116.639149">
        <time>2021-01-10T08:23:46Z</time>
      </trkpt>
      <trkpt lat="39.896236" lon="116.639349">
        <time>2021-01-10T08:23:51Z</time>
      </trkpt>
      <trkpt lat="39.89626" lon="116.639558">
        <time>2021-01-10T08:23:56Z</time>
      </trkpt>
      <trkpt lat="39.896247" lon="116.639741">
        <time>2021-01-10T08:24:01Z</time>
      </trkpt>
      <trkpt lat="39.896237" lon="116.639911">
        <time>2021-01-10T08:24:06Z</time>
      </trkpt>
      <trkpt lat="39.896252" lon="116.640077">
        <time>2021-01-10T08:24:11Z</time>
      </trkpt>
      <trkpt lat="39.896258" lon="116.640255">
        <time>2021-01-10T08:24:16Z</time>
      </trkpt>
      <trkpt lat="39.89629" lon="116.640449">
        <time>2021-01-10T08:24:21Z</time>
      </trkpt>
      <trkpt lat="39.896299" lon="116.640648">
        <time>2021-01-10T08:24:26Z</time>
      </trkpt>
      <trkpt lat="39.896284" lon="116.640814">
        <time>2021-01-10T08:24:31Z</time>
      </trkpt>
      <trkpt lat="39.896289" lon="116.640983">
        <time>2021-01-10T08:24:36Z</time>
      </trkpt>
      <trkpt lat="39.896289" lon="116.641126">
        <time>2021-01-10T08:24:41Z</time>
      </trkpt>
      <trkpt lat="39.896288" lon="116.64125">
        <time>2021-01-10T08:24:46Z</time>
      </trkpt>
      <trkpt lat="39.896285" lon="116.641371">
        <time>2021-01-10T08:24:51Z</time>
      </trkpt>
      <trkpt lat="39.896256" lon="116.641535">
        <time>2021-01-10T08:24:56Z</time>
      </trkpt>
      <trkpt lat="39.89622" lon="116.64168">
        <time>2021-01-10T08:25:01Z</time>
      </trkpt>
      <trkpt lat="39.896205" lon="116.641812">
        <time>2021-01-10T08:25:06Z</time>
      </trkpt>
      <trkpt lat="39.896172" lon="116.641985">
        <time>2021-01-10T08:25:11Z</time>
      </trkpt>
      <trkpt lat="39.896149" lon="116.642245">
        <time>2021-01-10T08:25:16Z</time>
      </trkpt>
      <trkpt lat="39.896154" lon="116.642326">
        <time>2021-01-10T08:25:21Z</time>
      </trkpt>
      <trkpt lat="39.896169" lon="116.6425">
        <time>2021-01-10T08:25:26Z</time>
      </trkpt>
      <trkpt lat="39.896155" lon="116.642654">
        <time>2021-01-10T08:25:31Z</time>
      </trkpt>
      <trkpt lat="39.896161" lon="116.642968">
        <time>2021-01-10T08:25:36Z</time>
      </trkpt>
      <trkpt lat="39.896162" lon="116.642994">
        <time>2021-01-10T08:25:41Z</time>
      </trkpt>
      <trkpt lat="39.89616" lon="116.643149">
        <time>2021-01-10T08:25:46Z</time>
      </trkpt>
      <trkpt lat="39.896141" lon="116.643302">
        <time>2021-01-10T08:25:51Z</time>
      </trkpt>
      <trkpt lat="39.896128" lon="116.643502">
        <time>2021-01-10T08:25:56Z</time>
      </trkpt>
      <trkpt lat="39.896142" lon="116.643629">
        <time>2021-01-10T08:26:01Z</time>
      </trkpt>
      <trkpt lat="39.896155" lon="116.643774">
        <time>2021-01-10T08:26:06Z</time>
      </trkpt>
      <trkpt lat="39.896187" lon="116.64392">
        <time>2021-01-10T08:26:11Z</time>
      </trkpt>
      <trkpt lat="39.896199" lon="116.644079">
        <time>2021-01-10T08:26:16Z</time>
      </trkpt>
      <trkpt lat="39.896211" lon="116.644245">
        <time>2021-01-10T08:26:21Z</time>
      </trkpt>
      <trkpt lat="39.896218" lon="116.644401">
        <time>2021-01-10T08:26:26Z</time>
      </trkpt>
      <trkpt lat="39.896241" lon="116.644548">
        <time>2021-01-10T08:26:31Z</time>
      </trkpt>
      <trkpt lat="39.896266" lon="116.6447">
        <time>2021-01-10T08:26:36Z</time>
      </trkpt>
      <trkpt lat="39.896245" lon="116.644851">
        <time>2021-01-10T08:26:41Z</time>
      </trkpt>
      <trkpt lat="39.896232" lon="116.644998">
        <time>2021-01-10T08:26:46Z</time>
      </trkpt>
      <trkpt lat="39.896213" lon="116.645135">
        <time>2021-01-10T08:26:51Z</time>
      </trkpt>
      <trkpt lat="39.896219" lon="116.645273">
        <time>2021-01-10T08:26:56Z</time>
      </trkpt>
      <trkpt lat="39.896206" lon="116.645425">
        <time>2021-01-10T08:27:01Z</time>
      </trkpt>
      <trkpt lat="39.896172" lon="116.645581">
        <time>2021-01-10T08:27:06Z</time>
      </trkpt>
      <trkpt lat="39.896108" lon="116.645734">
        <time>2021-01-10T08:27:11Z</time>
      </trkpt>
      <trkpt lat="39.896085" lon="116.645902">
        <time>2021-01-10T08:27:16Z</time>
      </trkpt>
      <trkpt lat="39.896065" lon="116.646081">
        <time>2021-01-10T08:27:21Z</time>
      </trkpt>
      <trkpt lat="39.89605" lon="116.646259">
        <time>2021-01-10T08:27:26Z</time>
      </trkpt>
      <trkpt lat="39.896041" lon="116.646393">
        <time>2021-01-10T08:27:31Z</time>
      </trkpt>
      <trkpt lat="39.896035" lon="116.64649">
        <time>2021-01-10T08:27:36Z</time>
      </trkpt>
      <trkpt lat="39.896018" lon="116.646631">
        <time>2021-01-10T08:27:41Z</time>
      </trkpt>
      <trkpt lat="39.895926" lon="116.64678">
        <time>2021-01-10T08:27:46Z</time>
      </trkpt>
      <trkpt lat="39.895799" lon="116.646793">
        <time>2021-01-10T08:27:51Z</time>
      </trkpt>
      <trkpt lat="39.895683" lon="116.646716">
        <time>2021-01-10T08:27:56Z</time>
      </trkpt>
      <trkpt lat="39.89556" lon="116.64667">
        <time>2021-01-10T08:28:01Z</time>
      </trkpt>
      <trkpt lat="39.895442" lon="116.646635">
        <time>2021-01-10T08:28:06Z</time>
      </trkpt>
      <trkpt lat="39.895341" lon="116.64659">
        <time>2021-01-10T08:28:11Z</time>
      </trkpt>
      <trkpt lat="39.89524" lon="116.646574">
        <time>2021-01-10T08:28:16Z</time>
      </trkpt>
      <trkpt lat="39.895133" lon="116.646488">
        <time>2021-01-10T08:28:21Z</time>
      </trkpt>
      <trkpt lat="39.89502" lon="116.646424">
        <time>2021-01-10T08:28:26Z</time>
      </trkpt>
      <trkpt lat="39.894898" lon="116.646361">
        <time>2021-01-10T08:28:31Z</time>
      </trkpt>
      <trkpt lat="39.894785" lon="116.646336">
        <time>2021-01-10T08:28:36Z</time>
      </trkpt>
      <trkpt lat="39.894677" lon="116.646273">
        <time>2021-01-10T08:28:41Z</time>
      </trkpt>
      <trkpt lat="39.894457" lon="116.646141">
        <time>2021-01-10T08:28:46Z</time>
      </trkpt>
      <trkpt lat="39.894431" lon="116.646131">
        <time>2021-01-10T08:28:51Z</time>
      </trkpt>
      <trkpt lat="39.894292" lon="116.646104">
        <time>2021-01-10T08:28:56Z</time>
      </trkpt>
      <trkpt lat="39.894109" lon="116.645993">
        <time>2021-01-10T08:29:01Z</time>
      </trkpt>
      <trkpt lat="39.894089" lon="116.645976">
        <time>2021-01-10T08:29:06Z</time>
      </trkpt>
      <trkpt lat="39.893994" lon="116.645879">
        <time>2021-01-10T08:29:11Z</time>
      </trkpt>
      <trkpt lat="39.893886" lon="116.645943">
        <time>2021-01-10T08:29:16Z</time>
      </trkpt>
      <trkpt lat="39.893831" lon="116.646099">
        <time>2021-01-10T08:29:21Z</time>
      </trkpt>
      <trkpt lat="39.893774" lon="116.646181">
        <time>2021-01-10T08:29:26Z</time>
      </trkpt>
      <trkpt lat="39.893764" lon="116.646234">
        <time>2021-01-10T08:29:31Z</time>
      </trkpt>
      <trkpt lat="39.893693" lon="116.646305">
        <time>2021-01-10T08:29:36Z</time>
      </trkpt>
      <trkpt lat="39.89357" lon="116.646281">
        <time>2021-01-10T08:29:41Z</time>
      </trkpt>
      <trkpt lat="39.893478" lon="116.646213">
        <time>2021-01-10T08:29:46Z</time>
      </trkpt>
      <trkpt lat="39.893328" lon="116.646183">
        <time>2021-01-10T08:29:51Z</time>
      </trkpt>
      <trkpt lat="39.893212" lon="116.646161">
        <time>2021-01-10T08:29:56Z</time>
      </trkpt>
      <trkpt lat="39.893096" lon="116.646093">
        <time>2021-01-10T08:30:01Z</time>
      </trkpt>
      <trkpt lat="39.892993" lon="116.646021">
        <time>2021-01-10T08:30:06Z</time>
      </trkpt>
      <trkpt lat="39.892874" lon="116.645965">
        <time>2021-01-10T08:30:11Z</time>
      </trkpt>
      <trkpt lat="39.892739" lon="116.645934">
        <time>2021-01-10T08:30:16Z</time>
      </trkpt>
      <trkpt lat="39.892613" lon="116.645894">
        <time>2021-01-10T08:30:21Z</time>
      </trkpt>
      <trkpt lat="39.892539" lon="116.645807">
        <time>2021-01-10T08:30:26Z</time>
      </trkpt>
      <trkpt lat="39.892415" lon="116.645763">
        <time>2021-01-10T08:30:31Z</time>
      </trkpt>
      <trkpt lat="39.892291" lon="116.645707">
        <time>2021-01-10T08:30:36Z</time>
      </trkpt>
      <trkpt lat="39.89216" lon="116.645669">
        <time>2021-01-10T08:30:41Z</time>
      </trkpt>
      <trkpt lat="39.89206" lon="116.645601">
        <time>2021-01-10T08:30:46Z</time>
      </trkpt>
      <trkpt lat="39.891949" lon="116.645548">
        <time>2021-01-10T08:30:51Z</time>
      </trkpt>
      <trkpt lat="39.891824" lon="116.645488">
        <time>2021-01-10T08:30:56Z</time>
      </trkpt>
      <trkpt lat="39.891721" lon="116.645405">
        <time>2021-01-10T08:31:01Z</time>
      </trkpt>
      <trkpt lat="39.891617" lon="116.645324">
        <time>2021-01-10T08:31:06Z</time>
      </trkpt>
      <trkpt lat="39.89153" lon="116.645336">
        <time>2021-01-10T08:31:11Z</time>
      </trkpt>
      <trkpt lat="39.891581" lon="116.645416">
        <time>2021-01-10T08:31:16Z</time>
      </trkpt>
      <trkpt lat="39.891692" lon="116.645455">
        <time>2021-01-10T08:31:21Z</time>
      </trkpt>
      <trkpt lat="39.891811" lon="116.645497">
        <time>2021-01-10T08:31:26Z</time>
      </trkpt>
      <trkpt lat="39.891939" lon="116.645552">
        <time>2021-01-10T08:31:31Z</time>
      </trkpt>
      <trkpt lat="39.892081" lon="116.645599">
        <time>2021-01-10T08:31:36Z</time>
      </trkpt>
      <trkpt lat="39.892219" lon="116.64565">
        <time>2021-01-10T08:31:41Z</time>
      </trkpt>
      <trkpt lat="39.892338" lon="116.645717">
        <time>2021-01-10T08:31:46Z</time>
      </trkpt>
      <trkpt lat="39.892445" lon="116.645776">
        <time>2021-01-10T08:31:51Z</time>
      </trkpt>
      <trkpt lat="39.892563" lon="116.645823">
        <time>2021-01-10T08:31:56Z</time>
      </trkpt>
      <trkpt lat="39.89267" lon="116.645857">
        <time>2021-01-10T08:32:01Z</time>
      </trkpt>
      <trkpt lat="39.892727" lon="116.645921">
        <time>2021-01-10T08:32:06Z</time>
      </trkpt>
      <trkpt lat="39.892856" lon="116.645973">
        <time>2021-01-10T08:32:11Z</time>
      </trkpt>
      <trkpt lat="39.892996" lon="116.646009">
        <time>2021-01-10T08:32:16Z</time>
      </trkpt>
      <trkpt lat="39.893107" lon="116.646062">
        <time>2021-01-10T08:32:21Z</time>
      </trkpt>
      <trkpt lat="39.893229" lon="116.646119">
        <time>2021-01-10T08:32:26Z</time>
      </trkpt>
      <trkpt lat="39.893358" lon="116.64616">
        <time>2021-01-10T08:32:31Z</time>
      </trkpt>
      <trkpt lat="39.893478" lon="116.646236">
        <time>2021-01-10T08:32:36Z</time>
      </trkpt>
      <trkpt lat="39.893586" lon="116.646302">
        <time>2021-01-10T08:32:41Z</time>
      </trkpt>
      <trkpt lat="39.893683" lon="116.646334">
        <time>2021-01-10T08:32:46Z</time>
      </trkpt>
      <trkpt lat="39.89383" lon="116.646147">
        <time>2021-01-10T08:32:51Z</time>
      </trkpt>
      <trkpt lat="39.893845" lon="116.64612">
        <time>2021-01-10T08:32:56Z</time>
      </trkpt>
      <trkpt lat="39.89388" lon="116.645996">
        <time>2021-01-10T08:33:01Z</time>
      </trkpt>
      <trkpt lat="39.893965" lon="116.645931">
        <time>2021-01-10T08:33:06Z</time>
      </trkpt>
      <trkpt lat="39.894067" lon="116.645931">
        <time>2021-01-10T08:33:11Z</time>
      </trkpt>
      <trkpt lat="39.894282" lon="116.646018">
        <time>2021-01-10T08:33:16Z</time>
      </trkpt>
      <trkpt lat="39.894296" lon="116.646022">
        <time>2021-01-10T08:33:21Z</time>
      </trkpt>
      <trkpt lat="39.894399" lon="116.646079">
        <time>2021-01-10T08:33:26Z</time>
      </trkpt>
      <trkpt lat="39.894504" lon="116.646146">
        <time>2021-01-10T08:33:31Z</time>
      </trkpt>
      <trkpt lat="39.894694" lon="116.646263">
        <time>2021-01-10T08:33:36Z</time>
      </trkpt>
      <trkpt lat="39.894719" lon="116.646273">
        <time>2021-01-10T08:33:41Z</time>
      </trkpt>
      <trkpt lat="39.89482" lon="116.646328">
        <time>2021-01-10T08:33:46Z</time>
      </trkpt>
      <trkpt lat="39.894957" lon="116.646414">
        <time>2021-01-10T08:33:51Z</time>
      </trkpt>
      <trkpt lat="39.895094" lon="116.646444">
        <time>2021-01-10T08:33:56Z</time>
      </trkpt>
      <trkpt lat="39.89521" lon="116.646466">
        <time>2021-01-10T08:34:01Z</time>
      </trkpt>
      <trkpt lat="39.89528" lon="116.646531">
        <time>2021-01-10T08:34:06Z</time>
      </trkpt>
      <trkpt lat="39.895452" lon="116.646589">
        <time>2021-01-10T08:34:11Z</time>
      </trkpt>
      <trkpt lat="39.895551" lon="116.646624">
        <time>2021-01-10T08:34:16Z</time>
      </trkpt>
      <trkpt lat="39.895674" lon="116.646706">
        <time>2021-01-10T08:34:21Z</time>
      </trkpt>
      <trkpt lat="39.89582" lon="116.64675">
        <time>2021-01-10T08:34:26Z</time>
      </trkpt>
      <trkpt lat="39.895943" lon="116.646784">
        <time>2021-01-10T08:34:31Z</time>
      </trkpt>
      <trkpt lat="39.896032" lon="116.646755">
        <time>2021-01-10T08:34:36Z</time>
      </trkpt>
      <trkpt lat="39.896073" lon="116.646616">
        <time>2021-01-10T08:34:41Z</time>
      </trkpt>
      <trkpt lat="39.896043" lon="116.646462">
        <time>2021-01-10T08:34:46Z</time>
      </trkpt>
      <trkpt lat="39.896032" lon="116.646316">
        <time>2021-01-10T08:34:51Z</time>
      </trkpt>
      <trkpt lat="39.89604" lon="116.646183">
        <time>2021-01-10T08:34:56Z</time>
      </trkpt>
      <trkpt lat="39.896054" lon="116.646045">
        <time>2021-01-10T08:35:01Z</time>
      </trkpt>
      <trkpt lat="39.896077" lon="116.645894">
        <time>2021-01-10T08:35:06Z</time>
      </trkpt>
      <trkpt lat="39.896102" lon="116.645752">
        <time>2021-01-10T08:35:11Z</time>
      </trkpt>
      <trkpt lat="39.896114" lon="116.645597">
        <time>2021-01-10T08:35:16Z</time>
      </trkpt>
      <trkpt lat="39.896129" lon="116.645467">
        <time>2021-01-10T08:35:21Z</time>
      </trkpt>
      <trkpt lat="39.896142" lon="116.645337">
        <time>2021-01-10T08:35:26Z</time>
      </trkpt>
      <trkpt lat="39.896158" lon="116.64518">
        <time>2021-01-10T08:35:31Z</time>
      </trkpt>
      <trkpt lat="39.896174" lon="116.645037">
        <time>2021-01-10T08:35:36Z</time>
      </trkpt>
      <trkpt lat="39.89619" lon="116.644876">
        <time>2021-01-10T08:35:41Z</time>
      </trkpt>
      <trkpt lat="39.896196" lon="116.644698">
        <time>2021-01-10T08:35:46Z</time>
      </trkpt>
      <trkpt lat="39.896183" lon="116.6445">
        <time>2021-01-10T08:35:51Z</time>
      </trkpt>
      <trkpt lat="39.896165" lon="116.644296">
        <time>2021-01-10T08:35:56Z</time>
      </trkpt>
      <trkpt lat="39.896158" lon="116.644125">
        <time>2021-01-10T08:36:01Z</time>
      </trkpt>
      <trkpt lat="39.896153" lon="116.643958">
        <time>2021-01-10T08:36:06Z</time>
      </trkpt>
      <trkpt lat="39.896161" lon="116.643825">
        <time>2021-01-10T08:36:11Z</time>
      </trkpt>
      <trkpt lat="39.896192" lon="116.643687">
        <time>2021-01-10T08:36:16Z</time>
      </trkpt>
      <trkpt lat="39.896207" lon="116.643533">
        <time>2021-01-10T08:36:21Z</time>
      </trkpt>
      <trkpt lat="39.896184" lon="116.643375">
        <time>2021-01-10T08:36:26Z</time>
      </trkpt>
      <trkpt lat="39.89616" lon="116.643222">
        <time>2021-01-10T08:36:31Z</time>
      </trkpt>
      <trkpt lat="39.896151" lon="116.64306">
        <time>2021-01-10T08:36:36Z</time>
      </trkpt>
      <trkpt lat="39.896155" lon="116.642913">
        <time>2021-01-10T08:36:41Z</time>
      </trkpt>
      <trkpt lat="39.896186" lon="116.642782">
        <time>2021-01-10T08:36:46Z</time>
      </trkpt>
      <trkpt lat="39.896164" lon="116.642522">
        <time>2021-01-10T08:36:51Z</time>
      </trkpt>
      <trkpt lat="39.896163" lon="116.642425">
        <time>2021-01-10T08:36:56Z</time>
      </trkpt>
      <trkpt lat="39.896178" lon="116.642303">
        <time>2021-01-10T08:37:01Z</time>
      </trkpt>
      <trkpt lat="39.896189" lon="116.642146">
        <time>2021-01-10T08:37:06Z</time>
      </trkpt>
      <trkpt lat="39.89621" lon="116.642018">
        <time>2021-01-10T08:37:11Z</time>
      </trkpt>
      <trkpt lat="39.896196" lon="116.641875">
        <time>2021-01-10T08:37:16Z</time>
      </trkpt>
      <trkpt lat="39.89619" lon="116.641724">
        <time>2021-01-10T08:37:21Z</time>
      </trkpt>
      <trkpt lat="39.896198" lon="116.641581">
        <time>2021-01-10T08:37:26Z</time>
      </trkpt>
      <trkpt lat="39.896213" lon="116.641473">
        <time>2021-01-10T08:37:31Z</time>
      </trkpt>
      <trkpt lat="39.896219" lon="116.64132">
        <time>2021-01-10T08:37:36Z</time>
      </trkpt>
      <trkpt lat="39.896215" lon="116.641162">
        <time>2021-01-10T08:37:41Z</time>
      </trkpt>
      <trkpt lat="39.896193" lon="116.64101">
        <time>2021-01-10T08:37:46Z</time>
      </trkpt>
      <trkpt lat="39.896192" lon="116.640866">
        <time>2021-01-10T08:37:51Z</time>
      </trkpt>
      <trkpt lat="39.896207" lon="116.64072">
        <time>2021-01-10T08:37:56Z</time>
      </trkpt>
      <trkpt lat="39.896202" lon="116.640551">
        <time>2021-01-10T08:38:01Z</time>
      </trkpt>
      <trkpt lat="39.896229" lon="116.640415">
        <time>2021-01-10T08:38:06Z</time>
      </trkpt>
      <trkpt lat="39.896233" lon="116.640249">
        <time>2021-01-10T08:38:11Z</time>
      </trkpt>
      <trkpt lat="39.896219" lon="116.640077">
        <time>2021-01-10T08:38:16Z</time>
      </trkpt>
      <trkpt lat="39.89621" lon="116.639915">
        <time>2021-01-10T08:38:21Z</time>
      </trkpt>
      <trkpt lat="39.896236" lon="116.639768">
        <time>2021-01-10T08:38:26Z</time>
      </trkpt>
      <trkpt lat="39.896227" lon="116.639605">
        <time>2021-01-10T08:38:31Z</time>
      </trkpt>
      <trkpt lat="39.8962" lon="116.639487">
        <time>2021-01-10T08:38:36Z</time>
      </trkpt>
      <trkpt lat="39.896184" lon="116.639321">
        <time>2021-01-10T08:38:41Z</time>
      </trkpt>
      <trkpt lat="39.896162" lon="116.639153">
        <time>2021-01-10T08:38:46Z</time>
      </trkpt>
      <trkpt lat="39.89618" lon="116.639037">
        <time>2021-01-10T08:38:51Z</time>
      </trkpt>
      <trkpt lat="39.896182" lon="116.638896">
        <time>2021-01-10T08:38:56Z</time>
      </trkpt>
      <trkpt lat="39.896174" lon="116.638733">
        <time>2021-01-10T08:39:01Z</time>
      </trkpt>
      <trkpt lat="39.896137" lon="116.638566">
        <time>2021-01-10T08:39:06Z</time>
      </trkpt>
      <trkpt lat="39.896109" lon="116.638437">
        <time>2021-01-10T08:39:11Z</time>
      </trkpt>
      <trkpt lat="39.896111" lon="116.638297">
        <time>2021-01-10T08:39:16Z</time>
      </trkpt>
      <trkpt lat="39.896122" lon="116.63815">
        <time>2021-01-10T08:39:21Z</time>
      </trkpt>
      <trkpt lat="39.896134" lon="116.637983">
        <time>2021-01-10T08:39:26Z</time>
      </trkpt>
      <trkpt lat="39.896146" lon="116.637827">
        <time>2021-01-10T08:39:31Z</time>
      </trkpt>
      <trkpt lat="39.896135" lon="116.637666">
        <time>2021-01-10T08:39:36Z</time>
      </trkpt>
      <trkpt lat="39.896124" lon="116.637537">
        <time>2021-01-10T08:39:41Z</time>
      </trkpt>
      <trkpt lat="39.896114" lon="116.637347">
        <time>2021-01-10T08:39:46Z</time>
      </trkpt>
      <trkpt lat="39.896108" lon="116.637198">
        <time>2021-01-10T08:39:51Z</time>
      </trkpt>
      <trkpt lat="39.896098" lon="116.637042">
        <time>2021-01-10T08:39:56Z</time>
      </trkpt>
      <trkpt lat="39.896077" lon="116.636898">
        <time>2021-01-10T08:40:01Z</time>
      </trkpt>
      <trkpt lat="39.896021" lon="116.636744">
        <time>2021-01-10T08:40:06Z</time>
      </trkpt>
      <trkpt lat="39.895962" lon="116.636803">
        <time>2021-01-10T08:40:11Z</time>
      </trkpt>
      <trkpt lat="39.896052" lon="116.636974">
        <time>2021-01-10T08:40:16Z</time>
      </trkpt>
      <trkpt lat="39.896089" lon="116.637141">
        <time>2021-01-10T08:40:21Z</time>
      </trkpt>
      <trkpt lat="39.896134" lon="116.637296">
        <time>2021-01-10T08:40:26Z</time>
      </trkpt>
      <trkpt lat="39.896168" lon="116.637459">
        <time>2021-01-10T08:40:31Z</time>
      </trkpt>
      <trkpt lat="39.896189" lon="116.637643">
        <time>2021-01-10T08:40:36Z</time>
      </trkpt>
      <trkpt lat="39.896152" lon="116.637803">
        <time>2021-01-10T08:40:41Z</time>
      </trkpt>
      <trkpt lat="39.896156" lon="116.637977">
        <time>2021-01-10T08:40:46Z</time>
      </trkpt>
      <trkpt lat="39.896147" lon="116.638135">
        <time>2021-01-10T08:40:51Z</time>
      </trkpt>
      <trkpt lat="39.896175" lon="116.638285">
        <time>2021-01-10T08:40:56Z</time>
      </trkpt>
      <trkpt lat="39.896179" lon="116.638456">
        <time>2021-01-10T08:41:01Z</time>
      </trkpt>
      <trkpt lat="39.89618" lon="116.638617">
        <time>2021-01-10T08:41:06Z</time>
      </trkpt>
      <trkpt lat="39.896182" lon="116.638764">
        <time>2021-01-10T08:41:11Z</time>
      </trkpt>
      <trkpt lat="39.896187" lon="116.638932">
        <time>2021-01-10T08:41:16Z</time>
      </trkpt>
      <trkpt lat="39.89619" lon="116.639083">
        <time>2021-01-10T08:41:21Z</time>
      </trkpt>
      <trkpt lat="39.896192" lon="116.639224">
        <time>2021-01-10T08:41:26Z</time>
      </trkpt>
      <trkpt lat="39.89621" lon="116.639426">
        <time>2021-01-10T08:41:31Z</time>
      </trkpt>
      <trkpt lat="39.896221" lon="116.639636">
        <time>2021-01-10T08:41:36Z</time>
      </trkpt>
      <trkpt lat="39.896245" lon="116.639821">
        <time>2021-01-10T08:41:41Z</time>
      </trkpt>
      <trkpt lat="39.896262" lon="116.639963">
        <time>2021-01-10T08:41:46Z</time>
      </trkpt>
      <trkpt lat="39.89627" lon="116.640096">
        <time>2021-01-10T08:41:51Z</time>
      </trkpt>
      <trkpt lat="39.896264" lon="116.64027">
        <time>2021-01-10T08:41:56Z</time>
      </trkpt>
      <trkpt lat="39.896271" lon="116.640435">
        <time>2021-01-10T08:42:01Z</time>
      </trkpt>
      <trkpt lat="39.896262" lon="116.640597">
        <time>2021-01-10T08:42:06Z</time>
      </trkpt>
      <trkpt lat="39.896221" lon="116.640771">
        <time>2021-01-10T08:42:11Z</time>
      </trkpt>
      <trkpt lat="39.896204" lon="116.640937">
        <time>2021-01-10T08:42:16Z</time>
      </trkpt>
      <trkpt lat="39.896215" lon="116.641145">
        <time>2021-01-10T08:42:21Z</time>
      </trkpt>
      <trkpt lat="39.896246" lon="116.641316">
        <time>2021-01-10T08:42:26Z</time>
      </trkpt>
      <trkpt lat="39.896258" lon="116.64147">
        <time>2021-01-10T08:42:31Z</time>
      </trkpt>
      <trkpt lat="39.896239" lon="116.641573">
        <time>2021-01-10T08:42:36Z</time>
      </trkpt>
      <trkpt lat="39.896217" lon="116.64172">
        <time>2021-01-10T08:42:41Z</time>
      </trkpt>
      <trkpt lat="39.896194" lon="116.641867">
        <time>2021-01-10T08:42:46Z</time>
      </trkpt>
      <trkpt lat="39.896153" lon="116.642015">
        <time>2021-01-10T08:42:51Z</time>
      </trkpt>
      <trkpt lat="39.896171" lon="116.642244">
        <time>2021-01-10T08:42:56Z</time>
      </trkpt>
      <trkpt lat="39.89619" lon="116.64237">
        <time>2021-01-10T08:43:01Z</time>
      </trkpt>
      <trkpt lat="39.896195" lon="116.642466">
        <time>2021-01-10T08:43:06Z</time>
      </trkpt>
      <trkpt lat="39.8962" lon="116.642585">
        <time>2021-01-10T08:43:11Z</time>
      </trkpt>
      <trkpt lat="39.896215" lon="116.642684">
        <time>2021-01-10T08:43:16Z</time>
      </trkpt>
      <trkpt lat="39.896209" lon="116.642775">
        <time>2021-01-10T08:43:21Z</time>
      </trkpt>
      <trkpt lat="39.896203" lon="116.642783">
        <time>2021-01-10T08:43:26Z</time>
      </trkpt>
      <trkpt lat="39.896211" lon="116.642839">
        <time>2021-01-10T08:43:31Z</time>
      </trkpt>
      <trkpt lat="39.896211" lon="116.642933">
        <time>2021-01-10T08:43:36Z</time>
      </trkpt>
      <trkpt lat="39.896194" lon="116.643083">
        <time>2021-01-10T08:43:41Z</time>
      </trkpt>
      <trkpt lat="39.896177" lon="116.64324">
        <time>2021-01-10T08:43:46Z</time>
      </trkpt>
      <trkpt lat="39.896197" lon="116.643445">
        <time>2021-01-10T08:43:51Z</time>
      </trkpt>
      <trkpt lat="39.896202" lon="116.643618">
        <time>2021-01-10T08:43:56Z</time>
      </trkpt>
      <trkpt lat="39.896205" lon="116.643822">
        <time>2021-01-10T08:44:01Z</time>
      </trkpt>
      <trkpt lat="39.896221" lon="116.644005">
        <time>2021-01-10T08:44:06Z</time>
      </trkpt>
      <trkpt lat="39.896225" lon="116.644165">
        <time>2021-01-10T08:44:11Z</time>
      </trkpt>
      <trkpt lat="39.896241" lon="116.644321">
        <time>2021-01-10T08:44:16Z</time>
      </trkpt>
      <trkpt lat="39.896227" lon="116.644485">
        <time>2021-01-10T08:44:21Z</time>
      </trkpt>
      <trkpt lat="39.896207" lon="116.644665">
        <time>2021-01-10T08:44:26Z</time>
      </trkpt>
      <trkpt lat="39.896202" lon="116.644842">
        <time>2021-01-10T08:44:31Z</time>
      </trkpt>
      <trkpt lat="39.896204" lon="116.645037">
        <time>2021-01-10T08:44:36Z</time>
      </trkpt>
      <trkpt lat="39.896194" lon="116.645204">
        <time>2021-01-10T08:44:41Z</time>
      </trkpt>
      <trkpt lat="39.896202" lon="116.645396">
        <time>2021-01-10T08:44:46Z</time>
      </trkpt>
      <trkpt lat="39.896164" lon="116.645559">
        <time>2021-01-10T08:44:51Z</time>
      </trkpt>
      <trkpt lat="39.896105" lon="116.6457">
        <time>2021-01-10T08:44:56Z</time>
      </trkpt>
      <trkpt lat="39.896085" lon="116.64591">
        <time>2021-01-10T08:45:01Z</time>
      </trkpt>
      <trkpt lat="39.896068" lon="116.646072">
        <time>2021-01-10T08:45:06Z</time>
      </trkpt>
      <trkpt lat="39.89605" lon="116.646215">
        <time>2021-01-10T08:45:11Z</time>
      </trkpt>
      <trkpt lat="39.896016" lon="116.64638">
        <time>2021-01-10T08:45:16Z</time>
      </trkpt>
      <trkpt lat="39.896021" lon="116.646579">
        <time>2021-01-10T08:45:21Z</time>
      </trkpt>
      <trkpt lat="39.896006" lon="116.646756">
        <time>2021-01-10T08:45:26Z</time>
      </trkpt>
      <trkpt lat="39.895875" lon="116.646814">
        <time>2021-01-10T08:45:31Z</time>
      </trkpt>
      <trkpt lat="39.895737" lon="116.646737">
        <time>2021-01-10T08:45:36Z</time>
      </trkpt>
      <trkpt lat="39.89561" lon="116.646654">
        <time>2021-01-10T08:45:41Z</time>
      </trkpt>
      <trkpt lat="39.895484" lon="116.646592">
        <time>2021-01-10T08:45:46Z</time>
      </trkpt>
      <trkpt lat="39.895341" lon="116.646527">
        <time>2021-01-10T08:45:51Z</time>
      </trkpt>
      <trkpt lat="39.895207" lon="116.646454">
        <time>2021-01-10T08:45:56Z</time>
      </trkpt>
      <trkpt lat="39.895056" lon="116.646431">
        <time>2021-01-10T08:46:01Z</time>
      </trkpt>
      <trkpt lat="39.894899" lon="116.646363">
        <time>2021-01-10T08:46:06Z</time>
      </trkpt>
      <trkpt lat="39.894818" lon="116.646323">
        <time>2021-01-10T08:46:11Z</time>
      </trkpt>
      <trkpt lat="39.8947" lon="116.646224">
        <time>2021-01-10T08:46:16Z</time>
      </trkpt>
      <trkpt lat="39.894435" lon="116.646128">
        <time>2021-01-10T08:46:21Z</time>
      </trkpt>
      <trkpt lat="39.894411" lon="116.646111">
        <time>2021-01-10T08:46:26Z</time>
      </trkpt>
      <trkpt lat="39.894298" lon="116.64602">
        <time>2021-01-10T08:46:31Z</time>
      </trkpt>
      <trkpt lat="39.894123" lon="116.645926">
        <time>2021-01-10T08:46:36Z</time>
      </trkpt>
      <trkpt lat="39.894073" lon="116.645901">
        <time>2021-01-10T08:46:41Z</time>
      </trkpt>
      <trkpt lat="39.893927" lon="116.645888">
        <time>2021-01-10T08:46:46Z</time>
      </trkpt>
      <trkpt lat="39.89381" lon="116.646044">
        <time>2021-01-10T08:46:51Z</time>
      </trkpt>
      <trkpt lat="39.893756" lon="116.646185">
        <time>2021-01-10T08:46:56Z</time>
      </trkpt>
      <trkpt lat="39.893691" lon="116.646227">
        <time>2021-01-10T08:47:01Z</time>
      </trkpt>
      <trkpt lat="39.893579" lon="116.646256">
        <time>2021-01-10T08:47:06Z</time>
      </trkpt>
      <trkpt lat="39.893443" lon="116.64622">
        <time>2021-01-10T08:47:11Z</time>
      </trkpt>
      <trkpt lat="39.893302" lon="116.646183">
        <time>2021-01-10T08:47:16Z</time>
      </trkpt>
      <trkpt lat="39.893186" lon="116.646158">
        <time>2021-01-10T08:47:21Z</time>
      </trkpt>
      <trkpt lat="39.893101" lon="116.646127">
        <time>2021-01-10T08:47:26Z</time>
      </trkpt>
      <trkpt lat="39.893021" lon="116.646103">
        <time>2021-01-10T08:47:31Z</time>
      </trkpt>
      <trkpt lat="39.892964" lon="116.646069">
        <time>2021-01-10T08:47:36Z</time>
      </trkpt>
      <trkpt lat="39.892886" lon="116.646023">
        <time>2021-01-10T08:47:41Z</time>
      </trkpt>
      <trkpt lat="39.892795" lon="116.645952">
        <time>2021-01-10T08:47:46Z</time>
      </trkpt>
      <trkpt lat="39.892682" lon="116.645874">
        <time>2021-01-10T08:47:51Z</time>
      </trkpt>
      <trkpt lat="39.892543" lon="116.64584">
        <time>2021-01-10T08:47:56Z</time>
      </trkpt>
      <trkpt lat="39.892422" lon="116.645771">
        <time>2021-01-10T08:48:01Z</time>
      </trkpt>
      <trkpt lat="39.892292" lon="116.64571">
        <time>2021-01-10T08:48:06Z</time>
      </trkpt>
      <trkpt lat="39.89217" lon="116.645643">
        <time>2021-01-10T08:48:11Z</time>
      </trkpt>
      <trkpt lat="39.89205" lon="116.645576">
        <time>2021-01-10T08:48:16Z</time>
      </trkpt>
      <trkpt lat="39.891915" lon="116.645536">
        <time>2021-01-10T08:48:21Z</time>
      </trkpt>
      <trkpt lat="39.89177" lon="116.645472">
        <time>2021-01-10T08:48:26Z</time>
      </trkpt>
      <trkpt lat="39.89166" lon="116.645388">
        <time>2021-01-10T08:48:31Z</time>
      </trkpt>
      <trkpt lat="39.891581" lon="116.645333">
        <time>2021-01-10T08:48:36Z</time>
      </trkpt>
      <trkpt lat="39.891521" lon="116.645311">
        <time>2021-01-10T08:48:41Z</time>
      </trkpt>
      <trkpt lat="39.891523" lon="116.645345">
        <time>2021-01-10T08:48:46Z</time>
      </trkpt>
      <trkpt lat="39.891574" lon="116.645393">
        <time>2021-01-10T08:48:51Z</time>
      </trkpt>
      <trkpt lat="39.89164" lon="116.645404">
        <time>2021-01-10T08:48:56Z</time>
      </trkpt>
      <trkpt lat="39.891709" lon="116.645445">
        <time>2021-01-10T08:49:01Z</time>
      </trkpt>
      <trkpt lat="39.891796" lon="116.645465">
        <time>2021-01-10T08:49:06Z</time>
      </trkpt>
      <trkpt lat="39.891871" lon="116.645486">
        <time>2021-01-10T08:49:11Z</time>
      </trkpt>
      <trkpt lat="39.891922" lon="116.645529">
        <time>2021-01-10T08:49:16Z</time>
      </trkpt>
      <trkpt lat="39.891982" lon="116.645552">
        <time>2021-01-10T08:49:21Z</time>
      </trkpt>
      <trkpt lat="39.892048" lon="116.645573">
        <time>2021-01-10T08:49:26Z</time>
      </trkpt>
      <trkpt lat="39.892102" lon="116.645598">
        <time>2021-01-10T08:49:31Z</time>
      </trkpt>
      <trkpt lat="39.892194" lon="116.645641">
        <time>2021-01-10T08:49:36Z</time>
      </trkpt>
      <trkpt lat="39.892291" lon="116.645699">
        <time>2021-01-10T08:49:41Z</time>
      </trkpt>
      <trkpt lat="39.892369" lon="116.645763">
        <time>2021-01-10T08:49:46Z</time>
      </trkpt>
      <trkpt lat="39.892472" lon="116.645827">
        <time>2021-01-10T08:49:51Z</time>
      </trkpt>
      <trkpt lat="39.892589" lon="116.645863">
        <time>2021-01-10T08:49:56Z</time>
      </trkpt>
      <trkpt lat="39.892726" lon="116.645911">
        <time>2021-01-10T08:50:01Z</time>
      </trkpt>
      <trkpt lat="39.892823" lon="116.645964">
        <time>2021-01-10T08:50:06Z</time>
      </trkpt>
      <trkpt lat="39.892978" lon="116.645987">
        <time>2021-01-10T08:50:11Z</time>
      </trkpt>
      <trkpt lat="39.893116" lon="116.64604">
        <time>2021-01-10T08:50:16Z</time>
      </trkpt>
      <trkpt lat="39.893221" lon="116.646103">
        <time>2021-01-10T08:50:21Z</time>
      </trkpt>
      <trkpt lat="39.893308" lon="116.646158">
        <time>2021-01-10T08:50:26Z</time>
      </trkpt>
      <trkpt lat="39.893442" lon="116.646182">
        <time>2021-01-10T08:50:31Z</time>
      </trkpt>
      <trkpt lat="39.893525" lon="116.646245">
        <time>2021-01-10T08:50:36Z</time>
      </trkpt>
      <trkpt lat="39.893635" lon="116.646318">
        <time>2021-01-10T08:50:41Z</time>
      </trkpt>
      <trkpt lat="39.893745" lon="116.646322">
        <time>2021-01-10T08:50:46Z</time>
      </trkpt>
      <trkpt lat="39.893832" lon="116.646116">
        <time>2021-01-10T08:50:51Z</time>
      </trkpt>
      <trkpt lat="39.893887" lon="116.645979">
        <time>2021-01-10T08:50:56Z</time>
      </trkpt>
      <trkpt lat="39.893955" lon="116.645834">
        <time>2021-01-10T08:51:01Z</time>
      </trkpt>
      <trkpt lat="39.894071" lon="116.645892">
        <time>2021-01-10T08:51:06Z</time>
      </trkpt>
      <trkpt lat="39.894293" lon="116.64599">
        <time>2021-01-10T08:51:11Z</time>
      </trkpt>
      <trkpt lat="39.894347" lon="116.646014">
        <time>2021-01-10T08:51:16Z</time>
      </trkpt>
      <trkpt lat="39.894478" lon="116.646082">
        <time>2021-01-10T08:51:21Z</time>
      </trkpt>
      <trkpt lat="39.894671" lon="116.646182">
        <time>2021-01-10T08:51:26Z</time>
      </trkpt>
      <trkpt lat="39.894695" lon="116.646198">
        <time>2021-01-10T08:51:31Z</time>
      </trkpt>
      <trkpt lat="39.89474" lon="116.646243">
        <time>2021-01-10T08:51:36Z</time>
      </trkpt>
      <trkpt lat="39.894821" lon="116.646289">
        <time>2021-01-10T08:51:41Z</time>
      </trkpt>
      <trkpt lat="39.894915" lon="116.646343">
        <time>2021-01-10T08:51:46Z</time>
      </trkpt>
      <trkpt lat="39.89502" lon="116.646393">
        <time>2021-01-10T08:51:51Z</time>
      </trkpt>
      <trkpt lat="39.895157" lon="116.646457">
        <time>2021-01-10T08:51:56Z</time>
      </trkpt>
      <trkpt lat="39.895295" lon="116.646509">
        <time>2021-01-10T08:52:01Z</time>
      </trkpt>
      <trkpt lat="39.895446" lon="116.64658">
        <time>2021-01-10T08:52:06Z</time>
      </trkpt>
      <trkpt lat="39.89554" lon="116.646635">
        <time>2021-01-10T08:52:11Z</time>
      </trkpt>
      <trkpt lat="39.89563" lon="116.646702">
        <time>2021-01-10T08:52:16Z</time>
      </trkpt>
      <trkpt lat="39.895744" lon="116.646759">
        <time>2021-01-10T08:52:21Z</time>
      </trkpt>
      <trkpt lat="39.895877" lon="116.646802">
        <time>2021-01-10T08:52:26Z</time>
      </trkpt>
      <trkpt lat="39.895995" lon="116.646838">
        <time>2021-01-10T08:52:31Z</time>
      </trkpt>
      <trkpt lat="39.896061" lon="116.646752">
        <time>2021-01-10T08:52:36Z</time>
      </trkpt>
      <trkpt lat="39.896065" lon="116.64659">
        <time>2021-01-10T08:52:41Z</time>
      </trkpt>
      <trkpt lat="39.896055" lon="116.646425">
        <time>2021-01-10T08:52:46Z</time>
      </trkpt>
      <trkpt lat="39.89606" lon="116.64628">
        <time>2021-01-10T08:52:51Z</time>
      </trkpt>
      <trkpt lat="39.896062" lon="116.646122">
        <time>2021-01-10T08:52:56Z</time>
      </trkpt>
      <trkpt lat="39.89607" lon="116.64597">
        <time>2021-01-10T08:53:01Z</time>
      </trkpt>
      <trkpt lat="39.896066" lon="116.645778">
        <time>2021-01-10T08:53:06Z</time>
      </trkpt>
      <trkpt lat="39.896076" lon="116.645614">
        <time>2021-01-10T08:53:11Z</time>
      </trkpt>
      <trkpt lat="39.896076" lon="116.645422">
        <time>2021-01-10T08:53:16Z</time>
      </trkpt>
      <trkpt lat="39.896089" lon="116.645233">
        <time>2021-01-10T08:53:21Z</time>
      </trkpt>
      <trkpt lat="39.896131" lon="116.645102">
        <time>2021-01-10T08:53:26Z</time>
      </trkpt>
      <trkpt lat="39.89615" lon="116.644938">
        <time>2021-01-10T08:53:31Z</time>
      </trkpt>
      <trkpt lat="39.896156" lon="116.644759">
        <time>2021-01-10T08:53:36Z</time>
      </trkpt>
      <trkpt lat="39.896166" lon="116.644599">
        <time>2021-01-10T08:53:41Z</time>
      </trkpt>
      <trkpt lat="39.896148" lon="116.644406">
        <time>2021-01-10T08:53:46Z</time>
      </trkpt>
      <trkpt lat="39.896144" lon="116.644224">
        <time>2021-01-10T08:53:51Z</time>
      </trkpt>
      <trkpt lat="39.896154" lon="116.644077">
        <time>2021-01-10T08:53:56Z</time>
      </trkpt>
      <trkpt lat="39.896176" lon="116.643929">
        <time>2021-01-10T08:54:01Z</time>
      </trkpt>
      <trkpt lat="39.896169" lon="116.643764">
        <time>2021-01-10T08:54:06Z</time>
      </trkpt>
      <trkpt lat="39.896156" lon="116.643611">
        <time>2021-01-10T08:54:11Z</time>
      </trkpt>
      <trkpt lat="39.896167" lon="116.643435">
        <time>2021-01-10T08:54:16Z</time>
      </trkpt>
      <trkpt lat="39.896163" lon="116.643268">
        <time>2021-01-10T08:54:21Z</time>
      </trkpt>
      <trkpt lat="39.896179" lon="116.643163">
        <time>2021-01-10T08:54:26Z</time>
      </trkpt>
      <trkpt lat="39.896173" lon="116.642992">
        <time>2021-01-10T08:54:31Z</time>
      </trkpt>
      <trkpt lat="39.896181" lon="116.642878">
        <time>2021-01-10T08:54:36Z</time>
      </trkpt>
      <trkpt lat="39.89618" lon="116.642771">
        <time>2021-01-10T08:54:41Z</time>
      </trkpt>
      <trkpt lat="39.89619" lon="116.642631">
        <time>2021-01-10T08:54:46Z</time>
      </trkpt>
      <trkpt lat="39.896189" lon="116.642558">
        <time>2021-01-10T08:54:51Z</time>
      </trkpt>
      <trkpt lat="39.896199" lon="116.642452">
        <time>2021-01-10T08:54:56Z</time>
      </trkpt>
      <trkpt lat="39.896184" lon="116.642345">
        <time>2021-01-10T08:55:01Z</time>
      </trkpt>
      <trkpt lat="39.896188" lon="116.642263">
        <time>2021-01-10T08:55:06Z</time>
      </trkpt>
      <trkpt lat="39.8962" lon="116.642158">
        <time>2021-01-10T08:55:11Z</time>
      </trkpt>
      <trkpt lat="39.896206" lon="116.642066">
        <time>2021-01-10T08:55:16Z</time>
      </trkpt>
      <trkpt lat="39.896204" lon="116.641963">
        <time>2021-01-10T08:55:21Z</time>
      </trkpt>
      <trkpt lat="39.896204" lon="116.641853">
        <time>2021-01-10T08:55:26Z</time>
      </trkpt>
      <trkpt lat="39.896222" lon="116.641671">
        <time>2021-01-10T08:55:31Z</time>
      </trkpt>
      <trkpt lat="39.896221" lon="116.641622">
        <time>2021-01-10T08:55:36Z</time>
      </trkpt>
      <trkpt lat="39.896211" lon="116.641465">
        <time>2021-01-10T08:55:41Z</time>
      </trkpt>
      <trkpt lat="39.896203" lon="116.641294">
        <time>2021-01-10T08:55:46Z</time>
      </trkpt>
      <trkpt lat="39.896212" lon="116.641111">
        <time>2021-01-10T08:55:51Z</time>
      </trkpt>
      <trkpt lat="39.896208" lon="116.640947">
        <time>2021-01-10T08:55:56Z</time>
      </trkpt>
      <trkpt lat="39.896223" lon="116.640834">
        <time>2021-01-10T08:56:01Z</time>
      </trkpt>
      <trkpt lat="39.896237" lon="116.640697">
        <time>2021-01-10T08:56:06Z</time>
      </trkpt>
      <trkpt lat="39.896236" lon="116.640552">
        <time>2021-01-10T08:56:11Z</time>
      </trkpt>
      <trkpt lat="39.896229" lon="116.640388">
        <time>2021-01-10T08:56:16Z</time>
      </trkpt>
      <trkpt lat="39.896234" lon="116.640223">
        <time>2021-01-10T08:56:21Z</time>
      </trkpt>
      <trkpt lat="39.896224" lon="116.640003">
        <time>2021-01-10T08:56:26Z</time>
      </trkpt>
      <trkpt lat="39.896206" lon="116.639802">
        <time>2021-01-10T08:56:31Z</time>
      </trkpt>
      <trkpt lat="39.896196" lon="116.639639">
        <time>2021-01-10T08:56:36Z</time>
      </trkpt>
      <trkpt lat="39.896196" lon="116.639476">
        <time>2021-01-10T08:56:41Z</time>
      </trkpt>
      <trkpt lat="39.896189" lon="116.639351">
        <time>2021-01-10T08:56:46Z</time>
      </trkpt>
      <trkpt lat="39.89619" lon="116.639214">
        <time>2021-01-10T08:56:51Z</time>
      </trkpt>
      <trkpt lat="39.896194" lon="116.639033">
        <time>2021-01-10T08:56:56Z</time>
      </trkpt>
      <trkpt lat="39.896172" lon="116.638878">
        <time>2021-01-10T08:57:01Z</time>
      </trkpt>
      <trkpt lat="39.896169" lon="116.638752">
        <time>2021-01-10T08:57:06Z</time>
      </trkpt>
      <trkpt lat="39.896174" lon="116.638639">
        <time>2021-01-10T08:57:11Z</time>
      </trkpt>
      <trkpt lat="39.896148" lon="116.638544">
        <time>2021-01-10T08:57:16Z</time>
      </trkpt>
      <trkpt lat="39.896129" lon="116.638444">
        <time>2021-01-10T08:57:21Z</time>
      </trkpt>
      <trkpt lat="39.896112" lon="116.638339">
        <time>2021-01-10T08:57:26Z</time>
      </trkpt>
      <trkpt lat="39.896108" lon="116.638234">
        <time>2021-01-10T08:57:31Z</time>
      </trkpt>
      <trkpt lat="39.89613" lon="116.638067">
        <time>2021-01-10T08:57:36Z</time>
      </trkpt>
      <trkpt lat="39.896136" lon="116.637902">
        <time>2021-01-10T08:57:41Z</time>
      </trkpt>
      <trkpt lat="39.896145" lon="116.637746">
        <time>2021-01-10T08:57:46Z</time>
      </trkpt>
      <trkpt lat="39.896153" lon="116.637604">
        <time>2021-01-10T08:57:51Z</time>
      </trkpt>
      <trkpt lat="39.896152" lon="116.637507">
        <time>2021-01-10T08:57:56Z</time>
      </trkpt>
      <trkpt lat="39.896141" lon="116.63742">
        <time>2021-01-10T08:58:01Z</time>
      </trkpt>
      <trkpt lat="39.896144" lon="116.637308">
        <time>2021-01-10T08:58:06Z</time>
      </trkpt>
      <trkpt lat="39.896132" lon="116.637203">
        <time>2021-01-10T08:58:11Z</time>
      </trkpt>
      <trkpt lat="39.896118" lon="116.637096">
        <time>2021-01-10T08:58:16Z</time>
      </trkpt>
      <trkpt lat="39.896105" lon="116.637019">
        <time>2021-01-10T08:58:21Z</time>
      </trkpt>
      <trkpt lat="39.896076" lon="116.636893">
        <time>2021-01-10T08:58:26Z</time>
      </trkpt>
      <trkpt lat="39.896066" lon="116.63679">
        <time>2021-01-10T08:58:31Z</time>
      </trkpt>
      <trkpt lat="39.896032" lon="116.636723">
        <time>2021-01-10T08:58:36Z</time>
      </trkpt>
      <trkpt lat="39.89601" lon="116.636662">
        <time>2021-01-10T08:58:41Z</time>
      </trkpt>
      <trkpt lat="39.896008" lon="116.636744">
        <time>2021-01-10T08:58:46Z</time>
      </trkpt>
      <trkpt lat="39.896064" lon="116.636891">
        <time>2021-01-10T08:58:51Z</time>
      </trkpt>
      <trkpt lat="39.896085" lon="116.637052">
        <time>2021-01-10T08:58:56Z</time>
      </trkpt>
      <trkpt lat="39.89612" lon="116.637215">
        <time>2021-01-10T08:59:01Z</time>
      </trkpt>
      <trkpt lat="39.896132" lon="116.63739">
        <time>2021-01-10T08:59:06Z</time>
      </trkpt>
      <trkpt lat="39.89613" lon="116.637557">
        <time>2021-01-10T08:59:11Z</time>
      </trkpt>
      <trkpt lat="39.896119" lon="116.637714">
        <time>2021-01-10T08:59:16Z</time>
      </trkpt>
      <trkpt lat="39.89609" lon="116.63789">
        <time>2021-01-10T08:59:21Z</time>
      </trkpt>
      <trkpt lat="39.896102" lon="116.638062">
        <time>2021-01-10T08:59:26Z</time>
      </trkpt>
      <trkpt lat="39.896119" lon="116.638229">
        <time>2021-01-10T08:59:31Z</time>
      </trkpt>
      <trkpt lat="39.896139" lon="116.638373">
        <time>2021-01-10T08:59:36Z</time>
      </trkpt>
      <trkpt lat="39.896136" lon="116.638535">
        <time>2021-01-10T08:59:41Z</time>
      </trkpt>
      <trkpt lat="39.896154" lon="116.638696">
        <time>2021-01-10T08:59:46Z</time>
      </trkpt>
      <trkpt lat="39.896165" lon="116.638853">
        <time>2021-01-10T08:59:51Z</time>
      </trkpt>
      <trkpt lat="39.896162" lon="116.639012">
        <time>2021-01-10T08:59:56Z</time>
      </trkpt>
      <trkpt lat="39.89618" lon="116.639162">
        <time>2021-01-10T09:00:01Z</time>
      </trkpt>
      <trkpt lat="39.89618" lon="116.639277">
        <time>2021-01-10T09:00:06Z</time>
      </trkpt>
      <trkpt lat="39.8962" lon="116.639392">
        <time>2021-01-10T09:00:11Z</time>
      </trkpt>
      <trkpt lat="39.896225" lon="116.639511">
        <time>2021-01-10T09:00:16Z</time>
      </trkpt>
      <trkpt lat="39.896233" lon="116.639618">
        <time>2021-01-10T09:00:21Z</time>
      </trkpt>
      <trkpt lat="39.896238" lon="116.639737">
        <time>2021-01-10T09:00:26Z</time>
      </trkpt>
      <trkpt lat="39.89624" lon="116.639835">
        <time>2021-01-10T09:00:31Z</time>
      </trkpt>
      <trkpt lat="39.896236" lon="116.639936">
        <time>2021-01-10T09:00:36Z</time>
      </trkpt>
      <trkpt lat="39.896246" lon="116.64003">
        <time>2021-01-10T09:00:41Z</time>
      </trkpt>
      <trkpt lat="39.896258" lon="116.640131">
        <time>2021-01-10T09:00:46Z</time>
      </trkpt>
      <trkpt lat="39.89628" lon="116.640268">
        <time>2021-01-10T09:00:51Z</time>
      </trkpt>
      <trkpt lat="39.896285" lon="116.640438">
        <time>2021-01-10T09:00:56Z</time>
      </trkpt>
      <trkpt lat="39.896289" lon="116.640654">
        <time>2021-01-10T09:01:01Z</time>
      </trkpt>
      <trkpt lat="39.896304" lon="116.640851">
        <time>2021-01-10T09:01:06Z</time>
      </trkpt>
      <trkpt lat="39.896318" lon="116.641009">
        <time>2021-01-10T09:01:11Z</time>
      </trkpt>
      <trkpt lat="39.896301" lon="116.641165">
        <time>2021-01-10T09:01:16Z</time>
      </trkpt>
      <trkpt lat="39.896282" lon="116.641329">
        <time>2021-01-10T09:01:21Z</time>
      </trkpt>
      <trkpt lat="39.896256" lon="116.641507">
        <time>2021-01-10T09:01:26Z</time>
      </trkpt>
      <trkpt lat="39.896274" lon="116.641666">
        <time>2021-01-10T09:01:31Z</time>
      </trkpt>
      <trkpt lat="39.896255" lon="116.641835">
        <time>2021-01-10T09:01:36Z</time>
      </trkpt>
      <trkpt lat="39.89622" lon="116.641959">
        <time>2021-01-10T09:01:41Z</time>
      </trkpt>
      <trkpt lat="39.89623" lon="116.642089">
        <time>2021-01-10T09:01:46Z</time>
      </trkpt>
      <trkpt lat="39.896236" lon="116.642262">
        <time>2021-01-10T09:01:51Z</time>
      </trkpt>
      <trkpt lat="39.896223" lon="116.642432">
        <time>2021-01-10T09:01:56Z</time>
      </trkpt>
      <trkpt lat="39.896233" lon="116.642552">
        <time>2021-01-10T09:02:01Z</time>
      </trkpt>
      <trkpt lat="39.896221" lon="116.642674">
        <time>2021-01-10T09:02:06Z</time>
      </trkpt>
      <trkpt lat="39.896199" lon="116.642772">
        <time>2021-01-10T09:02:11Z</time>
      </trkpt>
      <trkpt lat="39.896214" lon="116.642859">
        <time>2021-01-10T09:02:16Z</time>
      </trkpt>
      <trkpt lat="39.896211" lon="116.642961">
        <time>2021-01-10T09:02:21Z</time>
      </trkpt>
      <trkpt lat="39.896203" lon="116.643028">
        <time>2021-01-10T09:02:26Z</time>
      </trkpt>
      <trkpt lat="39.8962" lon="116.643115">
        <time>2021-01-10T09:02:31Z</time>
      </trkpt>
      <trkpt lat="39.896194" lon="116.643215">
        <time>2021-01-10T09:02:36Z</time>
      </trkpt>
      <trkpt lat="39.896199" lon="116.643281">
        <time>2021-01-10T09:02:41Z</time>
      </trkpt>
      <trkpt lat="39.896202" lon="116.643402">
        <time>2021-01-10T09:02:46Z</time>
      </trkpt>
      <trkpt lat="39.896224" lon="116.643509">
        <time>2021-01-10T09:02:51Z</time>
      </trkpt>
      <trkpt lat="39.896235" lon="116.643642">
        <time>2021-01-10T09:02:56Z</time>
      </trkpt>
      <trkpt lat="39.896214" lon="116.643796">
        <time>2021-01-10T09:03:01Z</time>
      </trkpt>
      <trkpt lat="39.896215" lon="116.643936">
        <time>2021-01-10T09:03:06Z</time>
      </trkpt>
      <trkpt lat="39.896197" lon="116.644092">
        <time>2021-01-10T09:03:11Z</time>
      </trkpt>
      <trkpt lat="39.896212" lon="116.644253">
        <time>2021-01-10T09:03:16Z</time>
      </trkpt>
      <trkpt lat="39.896213" lon="116.644426">
        <time>2021-01-10T09:03:21Z</time>
      </trkpt>
      <trkpt lat="39.896225" lon="116.644589">
        <time>2021-01-10T09:03:26Z</time>
      </trkpt>
      <trkpt lat="39.896197" lon="116.644759">
        <time>2021-01-10T09:03:31Z</time>
      </trkpt>
      <trkpt lat="39.8962" lon="116.644893">
        <time>2021-01-10T09:03:36Z</time>
      </trkpt>
      <trkpt lat="39.896257" lon="116.645018">
        <time>2021-01-10T09:03:41Z</time>
      </trkpt>
      <trkpt lat="39.896267" lon="116.645168">
        <time>2021-01-10T09:03:46Z</time>
      </trkpt>
      <trkpt lat="39.896255" lon="116.645352">
        <time>2021-01-10T09:03:51Z</time>
      </trkpt>
      <trkpt lat="39.896195" lon="116.64548">
        <time>2021-01-10T09:03:56Z</time>
      </trkpt>
      <trkpt lat="39.896133" lon="116.645619">
        <time>2021-01-10T09:04:01Z</time>
      </trkpt>
      <trkpt lat="39.896084" lon="116.645815">
        <time>2021-01-10T09:04:06Z</time>
      </trkpt>
      <trkpt lat="39.896055" lon="116.646019">
        <time>2021-01-10T09:04:11Z</time>
      </trkpt>
      <trkpt lat="39.896031" lon="116.646205">
        <time>2021-01-10T09:04:16Z</time>
      </trkpt>
      <trkpt lat="39.896019" lon="116.646317">
        <time>2021-01-10T09:04:21Z</time>
      </trkpt>
      <trkpt lat="39.896031" lon="116.646415">
        <time>2021-01-10T09:04:26Z</time>
      </trkpt>
      <trkpt lat="39.896036" lon="116.646513">
        <time>2021-01-10T09:04:31Z</time>
      </trkpt>
      <trkpt lat="39.896022" lon="116.646606">
        <time>2021-01-10T09:04:36Z</time>
      </trkpt>
      <trkpt lat="39.896028" lon="116.646701">
        <time>2021-01-10T09:04:41Z</time>
      </trkpt>
      <trkpt lat="39.895976" lon="116.646779">
        <time>2021-01-10T09:04:46Z</time>
      </trkpt>
      <trkpt lat="39.895877" lon="116.646789">
        <time>2021-01-10T09:04:51Z</time>
      </trkpt>
      <trkpt lat="39.895763" lon="116.646738">
        <time>2021-01-10T09:04:56Z</time>
      </trkpt>
      <trkpt lat="39.895658" lon="116.646708">
        <time>2021-01-10T09:05:01Z</time>
      </trkpt>
      <trkpt lat="39.895521" lon="116.646642">
        <time>2021-01-10T09:05:06Z</time>
      </trkpt>
      <trkpt lat="39.895389" lon="116.646561">
        <time>2021-01-10T09:05:11Z</time>
      </trkpt>
      <trkpt lat="39.895268" lon="116.646522">
        <time>2021-01-10T09:05:16Z</time>
      </trkpt>
      <trkpt lat="39.895183" lon="116.646495">
        <time>2021-01-10T09:05:21Z</time>
      </trkpt>
      <trkpt lat="39.895047" lon="116.646425">
        <time>2021-01-10T09:05:26Z</time>
      </trkpt>
      <trkpt lat="39.894871" lon="116.646374">
        <time>2021-01-10T09:05:31Z</time>
      </trkpt>
      <trkpt lat="39.894798" lon="116.6463">
        <time>2021-01-10T09:05:36Z</time>
      </trkpt>
      <trkpt lat="39.89469" lon="116.646218">
        <time>2021-01-10T09:05:41Z</time>
      </trkpt>
      <trkpt lat="39.894453" lon="116.646123">
        <time>2021-01-10T09:05:46Z</time>
      </trkpt>
      <trkpt lat="39.894395" lon="116.6461">
        <time>2021-01-10T09:05:51Z</time>
      </trkpt>
      <trkpt lat="39.894282" lon="116.646044">
        <time>2021-01-10T09:05:56Z</time>
      </trkpt>
      <trkpt lat="39.894125" lon="116.645949">
        <time>2021-01-10T09:06:01Z</time>
      </trkpt>
      <trkpt lat="39.894033" lon="116.645916">
        <time>2021-01-10T09:06:06Z</time>
      </trkpt>
      <trkpt lat="39.893918" lon="116.645905">
        <time>2021-01-10T09:06:11Z</time>
      </trkpt>
      <trkpt lat="39.893809" lon="116.646005">
        <time>2021-01-10T09:06:16Z</time>
      </trkpt>
      <trkpt lat="39.893739" lon="116.64609">
        <time>2021-01-10T09:06:21Z</time>
      </trkpt>
      <trkpt lat="39.893708" lon="116.64619">
        <time>2021-01-10T09:06:26Z</time>
      </trkpt>
      <trkpt lat="39.893676" lon="116.646243">
        <time>2021-01-10T09:06:31Z</time>
      </trkpt>
      <trkpt lat="39.89356" lon="116.646304">
        <time>2021-01-10T09:06:36Z</time>
      </trkpt>
      <trkpt lat="39.893422" lon="116.646266">
        <time>2021-01-10T09:06:41Z</time>
      </trkpt>
      <trkpt lat="39.893296" lon="116.646237">
        <time>2021-01-10T09:06:46Z</time>
      </trkpt>
      <trkpt lat="39.893179" lon="116.646187">
        <time>2021-01-10T09:06:51Z</time>
      </trkpt>
      <trkpt lat="39.893061" lon="116.646124">
        <time>2021-01-10T09:06:56Z</time>
      </trkpt>
      <trkpt lat="39.892938" lon="116.646058">
        <time>2021-01-10T09:07:01Z</time>
      </trkpt>
      <trkpt lat="39.892823" lon="116.645998">
        <time>2021-01-10T09:07:06Z</time>
      </trkpt>
      <trkpt lat="39.892716" lon="116.645952">
        <time>2021-01-10T09:07:11Z</time>
      </trkpt>
      <trkpt lat="39.892592" lon="116.645883">
        <time>2021-01-10T09:07:16Z</time>
      </trkpt>
      <trkpt lat="39.892476" lon="116.645834">
        <time>2021-01-10T09:07:21Z</time>
      </trkpt>
      <trkpt lat="39.892372" lon="116.64575">
        <time>2021-01-10T09:07:26Z</time>
      </trkpt>
      <trkpt lat="39.89226" lon="116.645711">
        <time>2021-01-10T09:07:31Z</time>
      </trkpt>
      <trkpt lat="39.892196" lon="116.645663">
        <time>2021-01-10T09:07:36Z</time>
      </trkpt>
      <trkpt lat="39.892151" lon="116.645634">
        <time>2021-01-10T09:07:41Z</time>
      </trkpt>
      <trkpt lat="39.892076" lon="116.645578">
        <time>2021-01-10T09:07:46Z</time>
      </trkpt>
      <trkpt lat="39.891996" lon="116.645544">
        <time>2021-01-10T09:07:51Z</time>
      </trkpt>
      <trkpt lat="39.891917" lon="116.645492">
        <time>2021-01-10T09:07:56Z</time>
      </trkpt>
      <trkpt lat="39.891831" lon="116.64543">
        <time>2021-01-10T09:08:01Z</time>
      </trkpt>
      <trkpt lat="39.891737" lon="116.64538">
        <time>2021-01-10T09:08:06Z</time>
      </trkpt>
      <trkpt lat="39.89162" lon="116.645333">
        <time>2021-01-10T09:08:11Z</time>
      </trkpt>
      <trkpt lat="39.891523" lon="116.645353">
        <time>2021-01-10T09:08:16Z</time>
      </trkpt>
      <trkpt lat="39.891638" lon="116.645437">
        <time>2021-01-10T09:08:21Z</time>
      </trkpt>
      <trkpt lat="39.891748" lon="116.64552">
        <time>2021-01-10T09:08:26Z</time>
      </trkpt>
      <trkpt lat="39.891886" lon="116.645586">
        <time>2021-01-10T09:08:31Z</time>
      </trkpt>
      <trkpt lat="39.892006" lon="116.645611">
        <time>2021-01-10T09:08:36Z</time>
      </trkpt>
      <trkpt lat="39.892081" lon="116.64563">
        <time>2021-01-10T09:08:41Z</time>
      </trkpt>
      <trkpt lat="39.892178" lon="116.645667">
        <time>2021-01-10T09:08:46Z</time>
      </trkpt>
      <trkpt lat="39.892262" lon="116.645704">
        <time>2021-01-10T09:08:51Z</time>
      </trkpt>
      <trkpt lat="39.89235" lon="116.645742">
        <time>2021-01-10T09:08:56Z</time>
      </trkpt>
      <trkpt lat="39.89241" lon="116.645765">
        <time>2021-01-10T09:09:01Z</time>
      </trkpt>
      <trkpt lat="39.892483" lon="116.645805">
        <time>2021-01-10T09:09:06Z</time>
      </trkpt>
      <trkpt lat="39.892555" lon="116.645839">
        <time>2021-01-10T09:09:11Z</time>
      </trkpt>
      <trkpt lat="39.892626" lon="116.645899">
        <time>2021-01-10T09:09:16Z</time>
      </trkpt>
      <trkpt lat="39.892715" lon="116.645963">
        <time>2021-01-10T09:09:21Z</time>
      </trkpt>
      <trkpt lat="39.892861" lon="116.645987">
        <time>2021-01-10T09:09:26Z</time>
      </trkpt>
      <trkpt lat="39.893011" lon="116.646008">
        <time>2021-01-10T09:09:31Z</time>
      </trkpt>
      <trkpt lat="39.893125" lon="116.64607">
        <time>2021-01-10T09:09:36Z</time>
      </trkpt>
      <trkpt lat="39.893266" lon="116.646099">
        <time>2021-01-10T09:09:41Z</time>
      </trkpt>
      <trkpt lat="39.893358" lon="116.646178">
        <time>2021-01-10T09:09:46Z</time>
      </trkpt>
      <trkpt lat="39.893478" lon="116.646262">
        <time>2021-01-10T09:09:51Z</time>
      </trkpt>
      <trkpt lat="39.893596" lon="116.646331">
        <time>2021-01-10T09:09:56Z</time>
      </trkpt>
      <trkpt lat="39.893725" lon="116.646359">
        <time>2021-01-10T09:10:01Z</time>
      </trkpt>
      <trkpt lat="39.893863" lon="116.646186">
        <time>2021-01-10T09:10:06Z</time>
      </trkpt>
      <trkpt lat="39.89391" lon="116.646114">
        <time>2021-01-10T09:10:11Z</time>
      </trkpt>
      <trkpt lat="39.893974" lon="116.645978">
        <time>2021-01-10T09:10:16Z</time>
      </trkpt>
      <trkpt lat="39.894073" lon="116.645966">
        <time>2021-01-10T09:10:21Z</time>
      </trkpt>
      <trkpt lat="39.894273" lon="116.646051">
        <time>2021-01-10T09:10:26Z</time>
      </trkpt>
      <trkpt lat="39.894331" lon="116.646087">
        <time>2021-01-10T09:10:31Z</time>
      </trkpt>
      <trkpt lat="39.894454" lon="116.646131">
        <time>2021-01-10T09:10:36Z</time>
      </trkpt>
      <trkpt lat="39.894516" lon="116.646152">
        <time>2021-01-10T09:10:41Z</time>
      </trkpt>
      <trkpt lat="39.894572" lon="116.646192">
        <time>2021-01-10T09:10:46Z</time>
      </trkpt>
      <trkpt lat="39.894682" lon="116.646249">
        <time>2021-01-10T09:10:51Z</time>
      </trkpt>
      <trkpt lat="39.894691" lon="116.646257">
        <time>2021-01-10T09:10:56Z</time>
      </trkpt>
      <trkpt lat="39.894737" lon="116.646285">
        <time>2021-01-10T09:11:01Z</time>
      </trkpt>
      <trkpt lat="39.89482" lon="116.646326">
        <time>2021-01-10T09:11:06Z</time>
      </trkpt>
      <trkpt lat="39.894907" lon="116.64636">
        <time>2021-01-10T09:11:11Z</time>
      </trkpt>
      <trkpt lat="39.895008" lon="116.646388">
        <time>2021-01-10T09:11:16Z</time>
      </trkpt>
      <trkpt lat="39.895109" lon="116.646407">
        <time>2021-01-10T09:11:21Z</time>
      </trkpt>
      <trkpt lat="39.895188" lon="116.646441">
        <time>2021-01-10T09:11:26Z</time>
      </trkpt>
      <trkpt lat="39.895263" lon="116.646482">
        <time>2021-01-10T09:11:31Z</time>
      </trkpt>
      <trkpt lat="39.895334" lon="116.646505">
        <time>2021-01-10T09:11:36Z</time>
      </trkpt>
      <trkpt lat="39.895445" lon="116.646571">
        <time>2021-01-10T09:11:41Z</time>
      </trkpt>
      <trkpt lat="39.895488" lon="116.646596">
        <time>2021-01-10T09:11:46Z</time>
      </trkpt>
      <trkpt lat="39.895614" lon="116.646649">
        <time>2021-01-10T09:11:51Z</time>
      </trkpt>
      <trkpt lat="39.895721" lon="116.646698">
        <time>2021-01-10T09:11:56Z</time>
      </trkpt>
      <trkpt lat="39.895848" lon="116.646762">
        <time>2021-01-10T09:12:01Z</time>
      </trkpt>
      <trkpt lat="39.895978" lon="116.646792">
        <time>2021-01-10T09:12:06Z</time>
      </trkpt>
      <trkpt lat="39.896069" lon="116.646715">
        <time>2021-01-10T09:12:11Z</time>
      </trkpt>
      <trkpt lat="39.896073" lon="116.646523">
        <time>2021-01-10T09:12:16Z</time>
      </trkpt>
      <trkpt lat="39.896069" lon="116.646357">
        <time>2021-01-10T09:12:21Z</time>
      </trkpt>
      <trkpt lat="39.896077" lon="116.646181">
        <time>2021-01-10T09:12:26Z</time>
      </trkpt>
      <trkpt lat="39.896098" lon="116.64606">
        <time>2021-01-10T09:12:31Z</time>
      </trkpt>
      <trkpt lat="39.896079" lon="116.645832">
        <time>2021-01-10T09:12:36Z</time>
      </trkpt>
      <trkpt lat="39.896088" lon="116.645672">
        <time>2021-01-10T09:12:41Z</time>
      </trkpt>
      <trkpt lat="39.896115" lon="116.64552">
        <time>2021-01-10T09:12:46Z</time>
      </trkpt>
      <trkpt lat="39.896127" lon="116.645359">
        <time>2021-01-10T09:12:51Z</time>
      </trkpt>
      <trkpt lat="39.89613" lon="116.645195">
        <time>2021-01-10T09:12:56Z</time>
      </trkpt>
      <trkpt lat="39.896125" lon="116.645069">
        <time>2021-01-10T09:13:01Z</time>
      </trkpt>
      <trkpt lat="39.896142" lon="116.644962">
        <time>2021-01-10T09:13:06Z</time>
      </trkpt>
      <trkpt lat="39.896167" lon="116.644828">
        <time>2021-01-10T09:13:11Z</time>
      </trkpt>
      <trkpt lat="39.896192" lon="116.644692">
        <time>2021-01-10T09:13:16Z</time>
      </trkpt>
      <trkpt lat="39.896173" lon="116.644529">
        <time>2021-01-10T09:13:21Z</time>
      </trkpt>
      <trkpt lat="39.896173" lon="116.64434">
        <time>2021-01-10T09:13:26Z</time>
      </trkpt>
      <trkpt lat="39.896171" lon="116.64416">
        <time>2021-01-10T09:13:31Z</time>
      </trkpt>
      <trkpt lat="39.89615" lon="116.64397">
        <time>2021-01-10T09:13:36Z</time>
      </trkpt>
      <trkpt lat="39.896178" lon="116.6438">
        <time>2021-01-10T09:13:41Z</time>
      </trkpt>
      <trkpt lat="39.896202" lon="116.643649">
        <time>2021-01-10T09:13:46Z</time>
      </trkpt>
      <trkpt lat="39.896186" lon="116.643503">
        <time>2021-01-10T09:13:51Z</time>
      </trkpt>
      <trkpt lat="39.896172" lon="116.643385">
        <time>2021-01-10T09:13:56Z</time>
      </trkpt>
      <trkpt lat="39.896164" lon="116.643271">
        <time>2021-01-10T09:14:01Z</time>
      </trkpt>
      <trkpt lat="39.896155" lon="116.643183">
        <time>2021-01-10T09:14:06Z</time>
      </trkpt>
      <trkpt lat="39.896168" lon="116.643098">
        <time>2021-01-10T09:14:11Z</time>
      </trkpt>
      <trkpt lat="39.896179" lon="116.643013">
        <time>2021-01-10T09:14:16Z</time>
      </trkpt>
      <trkpt lat="39.896181" lon="116.642922">
        <time>2021-01-10T09:14:21Z</time>
      </trkpt>
      <trkpt lat="39.896204" lon="116.64285">
        <time>2021-01-10T09:14:26Z</time>
      </trkpt>
      <trkpt lat="39.896193" lon="116.64268">
        <time>2021-01-10T09:14:31Z</time>
      </trkpt>
      <trkpt lat="39.896192" lon="116.642616">
        <time>2021-01-10T09:14:36Z</time>
      </trkpt>
      <trkpt lat="39.896168" lon="116.642445">
        <time>2021-01-10T09:14:41Z</time>
      </trkpt>
      <trkpt lat="39.896158" lon="116.6423">
        <time>2021-01-10T09:14:46Z</time>
      </trkpt>
      <trkpt lat="39.896175" lon="116.642053">
        <time>2021-01-10T09:14:51Z</time>
      </trkpt>
      <trkpt lat="39.896161" lon="116.641943">
        <time>2021-01-10T09:14:56Z</time>
      </trkpt>
      <trkpt lat="39.896143" lon="116.641771">
        <time>2021-01-10T09:15:01Z</time>
      </trkpt>
      <trkpt lat="39.896162" lon="116.641504">
        <time>2021-01-10T09:15:06Z</time>
      </trkpt>
      <trkpt lat="39.896166" lon="116.64147">
        <time>2021-01-10T09:15:11Z</time>
      </trkpt>
      <trkpt lat="39.896184" lon="116.64133">
        <time>2021-01-10T09:15:16Z</time>
      </trkpt>
      <trkpt lat="39.896197" lon="116.641156">
        <time>2021-01-10T09:15:21Z</time>
      </trkpt>
      <trkpt lat="39.896197" lon="116.640998">
        <time>2021-01-10T09:15:26Z</time>
      </trkpt>
      <trkpt lat="39.896211" lon="116.640828">
        <time>2021-01-10T09:15:31Z</time>
      </trkpt>
      <trkpt lat="39.896189" lon="116.64066">
        <time>2021-01-10T09:15:36Z</time>
      </trkpt>
      <trkpt lat="39.896183" lon="116.640469">
        <time>2021-01-10T09:15:41Z</time>
      </trkpt>
      <trkpt lat="39.896218" lon="116.640299">
        <time>2021-01-10T09:15:46Z</time>
      </trkpt>
      <trkpt lat="39.896223" lon="116.640087">
        <time>2021-01-10T09:15:51Z</time>
      </trkpt>
      <trkpt lat="39.896221" lon="116.639917">
        <time>2021-01-10T09:15:56Z</time>
      </trkpt>
      <trkpt lat="39.89622" lon="116.639749">
        <time>2021-01-10T09:16:01Z</time>
      </trkpt>
      <trkpt lat="39.896199" lon="116.639576">
        <time>2021-01-10T09:16:06Z</time>
      </trkpt>
      <trkpt lat="39.89621" lon="116.639424">
        <time>2021-01-10T09:16:11Z</time>
      </trkpt>
      <trkpt lat="39.896182" lon="116.639278">
        <time>2021-01-10T09:16:16Z</time>
      </trkpt>
      <trkpt lat="39.896194" lon="116.639129">
        <time>2021-01-10T09:16:21Z</time>
      </trkpt>
      <trkpt lat="39.896187" lon="116.638955">
        <time>2021-01-10T09:16:26Z</time>
      </trkpt>
      <trkpt lat="39.89614" lon="116.638795">
        <time>2021-01-10T09:16:31Z</time>
      </trkpt>
      <trkpt lat="39.896126" lon="116.638644">
        <time>2021-01-10T09:16:36Z</time>
      </trkpt>
      <trkpt lat="39.896081" lon="116.638513">
        <time>2021-01-10T09:16:41Z</time>
      </trkpt>
      <trkpt lat="39.896067" lon="116.638374">
        <time>2021-01-10T09:16:46Z</time>
      </trkpt>
      <trkpt lat="39.896067" lon="116.638221">
        <time>2021-01-10T09:16:51Z</time>
      </trkpt>
      <trkpt lat="39.896108" lon="116.638042">
        <time>2021-01-10T09:16:56Z</time>
      </trkpt>
      <trkpt lat="39.896137" lon="116.637856">
        <time>2021-01-10T09:17:01Z</time>
      </trkpt>
      <trkpt lat="39.89614" lon="116.637711">
        <time>2021-01-10T09:17:06Z</time>
      </trkpt>
      <trkpt lat="39.896154" lon="116.637546">
        <time>2021-01-10T09:17:11Z</time>
      </trkpt>
      <trkpt lat="39.896161" lon="116.637401">
        <time>2021-01-10T09:17:16Z</time>
      </trkpt>
      <trkpt lat="39.896163" lon="116.637258">
        <time>2021-01-10T09:17:21Z</time>
      </trkpt>
      <trkpt lat="39.896145" lon="116.637095">
        <time>2021-01-10T09:17:26Z</time>
      </trkpt>
      <trkpt lat="39.896128" lon="116.636936">
        <time>2021-01-10T09:17:31Z</time>
      </trkpt>
      <trkpt lat="39.896093" lon="116.636853">
        <time>2021-01-10T09:17:36Z</time>
      </trkpt>
      <trkpt lat="39.896061" lon="116.636723">
        <time>2021-01-10T09:17:41Z</time>
      </trkpt>
      <trkpt lat="39.895997" lon="116.636596">
        <time>2021-01-10T09:17:46Z</time>
      </trkpt>
      <trkpt lat="39.895915" lon="116.63651">
        <time>2021-01-10T09:17:51Z</time>
      </trkpt>
      <trkpt lat="39.895944" lon="116.636383">
        <time>2021-01-10T09:17:56Z</time>
      </trkpt>
      <trkpt lat="39.89606" lon="116.636306">
        <time>2021-01-10T09:18:01Z</time>
      </trkpt>
      <trkpt lat="39.896177" lon="116.636258">
        <time>2021-01-10T09:18:06Z</time>
      </trkpt>
      <trkpt lat="39.896276" lon="116.636177">
        <time>2021-01-10T09:18:11Z</time>
      </trkpt>
      <trkpt lat="39.896385" lon="116.636096">
        <time>2021-01-10T09:18:16Z</time>
      </trkpt>
      <trkpt lat="39.896486" lon="116.636021">
        <time>2021-01-10T09:18:21Z</time>
      </trkpt>
      <trkpt lat="39.896588" lon="116.63596">
        <time>2021-01-10T09:18:26Z</time>
      </trkpt>
      <trkpt lat="39.896677" lon="116.635889">
        <time>2021-01-10T09:18:31Z</time>
      </trkpt>
      <trkpt lat="39.896736" lon="116.635853">
        <time>2021-01-10T09:18:36Z</time>
      </trkpt>
      <trkpt lat="39.896857" lon="116.635761">
        <time>2021-01-10T09:18:41Z</time>
      </trkpt>
      <trkpt lat="39.896867" lon="116.63574">
        <time>2021-01-10T09:18:46Z</time>
      </trkpt>
      <trkpt lat="39.896952" lon="116.635679">
        <time>2021-01-10T09:18:51Z</time>
      </trkpt>
      <trkpt lat="39.897001" lon="116.635697">
        <time>2021-01-10T09:18:56Z</time>
      </trkpt>
      <trkpt lat="39.897114" lon="116.63567">
        <time>2021-01-10T09:19:01Z</time>
      </trkpt>
      <trkpt lat="39.897214" lon="116.635613">
        <time>2021-01-10T09:19:06Z</time>
      </trkpt>
      <trkpt lat="39.89733" lon="116.635559">
        <time>2021-01-10T09:19:11Z</time>
      </trkpt>
      <trkpt lat="39.897414" lon="116.635473">
        <time>2021-01-10T09:19:16Z</time>
      </trkpt>
      <trkpt lat="39.897466" lon="116.635422">
        <time>2021-01-10T09:19:21Z</time>
      </trkpt>
      <trkpt lat="39.89753" lon="116.635359">
        <time>2021-01-10T09:19:26Z</time>
      </trkpt>
      <trkpt lat="39.897621" lon="116.635296">
        <time>2021-01-10T09:19:31Z</time>
      </trkpt>
      <trkpt lat="39.897737" lon="116.635227">
        <time>2021-01-10T09:19:36Z</time>
      </trkpt>
      <trkpt lat="39.897848" lon="116.635145">
        <time>2021-01-10T09:19:41Z</time>
      </trkpt>
      <trkpt lat="39.897941" lon="116.63508">
        <time>2021-01-10T09:19:46Z</time>
      </trkpt>
      <trkpt lat="39.89806" lon="116.635026">
        <time>2021-01-10T09:19:51Z</time>
      </trkpt>
      <trkpt lat="39.898187" lon="116.634961">
        <time>2021-01-10T09:19:56Z</time>
      </trkpt>
      <trkpt lat="39.898312" lon="116.634906">
        <time>2021-01-10T09:20:01Z</time>
      </trkpt>
      <trkpt lat="39.898431" lon="116.63482">
        <time>2021-01-10T09:20:06Z</time>
      </trkpt>
      <trkpt lat="39.898547" lon="116.634723">
        <time>2021-01-10T09:20:11Z</time>
      </trkpt>
      <trkpt lat="39.898666" lon="116.634647">
        <time>2021-01-10T09:20:16Z</time>
      </trkpt>
      <trkpt lat="39.898794" lon="116.634593">
        <time>2021-01-10T09:20:21Z</time>
      </trkpt>
      <trkpt lat="39.898902" lon="116.634518">
        <time>2021-01-10T09:20:26Z</time>
      </trkpt>
      <trkpt lat="39.899022" lon="116.634408">
        <time>2021-01-10T09:20:31Z</time>
      </trkpt>
      <trkpt lat="39.899154" lon="116.634331">
        <time>2021-01-10T09:20:36Z</time>
      </trkpt>
      <trkpt lat="39.899252" lon="116.634279">
        <time>2021-01-10T09:20:41Z</time>
      </trkpt>
      <trkpt lat="39.899318" lon="116.634236">
        <time>2021-01-10T09:20:46Z</time>
      </trkpt>
      <trkpt lat="39.899385" lon="116.634191">
        <time>2021-01-10T09:20:51Z</time>
      </trkpt>
      <trkpt lat="39.899454" lon="116.634157">
        <time>2021-01-10T09:20:56Z</time>
      </trkpt>
      <trkpt lat="39.899518" lon="116.634119">
        <time>2021-01-10T09:21:01Z</time>
      </trkpt>
      <trkpt lat="39.899577" lon="116.634065">
        <time>2021-01-10T09:21:06Z</time>
      </trkpt>
      <trkpt lat="39.899659" lon="116.634029">
        <time>2021-01-10T09:21:11Z</time>
      </trkpt>
      <trkpt lat="39.899738" lon="116.634023">
        <time>2021-01-10T09:21:16Z</time>
      </trkpt>
      <trkpt lat="39.89981" lon="116.633989">
        <time>2021-01-10T09:21:21Z</time>
      </trkpt>
      <trkpt lat="39.899898" lon="116.633915">
        <time>2021-01-10T09:21:26Z</time>
      </trkpt>
      <trkpt lat="39.899994" lon="116.633868">
        <time>2021-01-10T09:21:31Z</time>
      </trkpt>
      <trkpt lat="39.900099" lon="116.633805">
        <time>2021-01-10T09:21:36Z</time>
      </trkpt>
      <trkpt lat="39.900203" lon="116.633694">
        <time>2021-01-10T09:21:41Z</time>
      </trkpt>
      <trkpt lat="39.900305" lon="116.633633">
        <time>2021-01-10T09:21:46Z</time>
      </trkpt>
      <trkpt lat="39.900429" lon="116.633611">
        <time>2021-01-10T09:21:51Z</time>
      </trkpt>
      <trkpt lat="39.900516" lon="116.633525">
        <time>2021-01-10T09:21:56Z</time>
      </trkpt>
      <trkpt lat="39.900607" lon="116.633427">
        <time>2021-01-10T09:22:01Z</time>
      </trkpt>
      <trkpt lat="39.900713" lon="116.633315">
        <time>2021-01-10T09:22:06Z</time>
      </trkpt>
      <trkpt lat="39.900844" lon="116.633235">
        <time>2021-01-10T09:22:11Z</time>
      </trkpt>
      <trkpt lat="39.900935" lon="116.633066">
        <time>2021-01-10T09:22:16Z</time>
      </trkpt>
      <trkpt lat="39.900898" lon="116.632926">
        <time>2021-01-10T09:22:21Z</time>
      </trkpt>
      <trkpt lat="39.900873" lon="116.632907">
        <time>2021-01-10T09:22:26Z</time>
      </trkpt>
      <trkpt lat="39.900828" lon="116.632799">
        <time>2021-01-10T09:22:31Z</time>
      </trkpt>
      <trkpt lat="39.900727" lon="116.632805">
        <time>2021-01-10T09:22:36Z</time>
      </trkpt>
      <trkpt lat="39.9006" lon="116.632956">
        <time>2021-01-10T09:22:41Z</time>
      </trkpt>
      <trkpt lat="39.90047" lon="116.633049">
        <time>2021-01-10T09:22:46Z</time>
      </trkpt>
      <trkpt lat="39.900356" lon="116.63309">
        <time>2021-01-10T09:22:51Z</time>
      </trkpt>
      <trkpt lat="39.900237" lon="116.633188">
        <time>2021-01-10T09:22:56Z</time>
      </trkpt>
      <trkpt lat="39.900149" lon="116.633333">
        <time>2021-01-10T09:23:01Z</time>
      </trkpt>
      <trkpt lat="39.900086" lon="116.633404">
        <time>2021-01-10T09:23:06Z</time>
      </trkpt>
      <trkpt lat="39.900027" lon="116.633441">
        <time>2021-01-10T09:23:11Z</time>
      </trkpt>
      <trkpt lat="39.899961" lon="116.633471">
        <time>2021-01-10T09:23:16Z</time>
      </trkpt>
      <trkpt lat="39.899895" lon="116.633507">
        <time>2021-01-10T09:23:21Z</time>
      </trkpt>
      <trkpt lat="39.899832" lon="116.633554">
        <time>2021-01-10T09:23:26Z</time>
      </trkpt>
      <trkpt lat="39.899759" lon="116.633608">
        <time>2021-01-10T09:23:31Z</time>
      </trkpt>
      <trkpt lat="39.899689" lon="116.633649">
        <time>2021-01-10T09:23:36Z</time>
      </trkpt>
      <trkpt lat="39.899618" lon="116.633689">
        <time>2021-01-10T09:23:41Z</time>
      </trkpt>
      <trkpt lat="39.899468" lon="116.633778">
        <time>2021-01-10T09:23:46Z</time>
      </trkpt>
      <trkpt lat="39.899454" lon="116.633783">
        <time>2021-01-10T09:23:51Z</time>
      </trkpt>
      <trkpt lat="39.89935" lon="116.633812">
        <time>2021-01-10T09:23:56Z</time>
      </trkpt>
      <trkpt lat="39.899207" lon="116.633925">
        <time>2021-01-10T09:24:01Z</time>
      </trkpt>
      <trkpt lat="39.899106" lon="116.634008">
        <time>2021-01-10T09:24:06Z</time>
      </trkpt>
      <trkpt lat="39.898977" lon="116.634075">
        <time>2021-01-10T09:24:11Z</time>
      </trkpt>
      <trkpt lat="39.898864" lon="116.634175">
        <time>2021-01-10T09:24:16Z</time>
      </trkpt>
      <trkpt lat="39.898741" lon="116.634227">
        <time>2021-01-10T09:24:21Z</time>
      </trkpt>
      <trkpt lat="39.898543" lon="116.63436">
        <time>2021-01-10T09:24:26Z</time>
      </trkpt>
      <trkpt lat="39.898509" lon="116.634385">
        <time>2021-01-10T09:24:31Z</time>
      </trkpt>
      <trkpt lat="39.898449" lon="116.634434">
        <time>2021-01-10T09:24:36Z</time>
      </trkpt>
      <trkpt lat="39.898381" lon="116.634469">
        <time>2021-01-10T09:24:41Z</time>
      </trkpt>
      <trkpt lat="39.898317" lon="116.634533">
        <time>2021-01-10T09:24:46Z</time>
      </trkpt>
      <trkpt lat="39.898219" lon="116.63461">
        <time>2021-01-10T09:24:51Z</time>
      </trkpt>
      <trkpt lat="39.898179" lon="116.634662">
        <time>2021-01-10T09:24:56Z</time>
      </trkpt>
      <trkpt lat="39.898104" lon="116.634713">
        <time>2021-01-10T09:25:01Z</time>
      </trkpt>
      <trkpt lat="39.89804" lon="116.634652">
        <time>2021-01-10T09:25:06Z</time>
      </trkpt>
      <trkpt lat="39.898" lon="116.63458">
        <time>2021-01-10T09:25:11Z</time>
      </trkpt>
      <trkpt lat="39.897965" lon="116.634499">
        <time>2021-01-10T09:25:16Z</time>
      </trkpt>
      <trkpt lat="39.897906" lon="116.634405">
        <time>2021-01-10T09:25:21Z</time>
      </trkpt>
      <trkpt lat="39.897841" lon="116.634308">
        <time>2021-01-10T09:25:26Z</time>
      </trkpt>
      <trkpt lat="39.897772" lon="116.634246">
        <time>2021-01-10T09:25:31Z</time>
      </trkpt>
      <trkpt lat="39.897702" lon="116.63416">
        <time>2021-01-10T09:25:36Z</time>
      </trkpt>
      <trkpt lat="39.897641" lon="116.634085">
        <time>2021-01-10T09:25:41Z</time>
      </trkpt>
      <trkpt lat="39.897594" lon="116.633981">
        <time>2021-01-10T09:25:46Z</time>
      </trkpt>
      <trkpt lat="39.897559" lon="116.63391">
        <time>2021-01-10T09:25:51Z</time>
      </trkpt>
      <trkpt lat="39.897534" lon="116.63384">
        <time>2021-01-10T09:25:56Z</time>
      </trkpt>
      <trkpt lat="39.897517" lon="116.633712">
        <time>2021-01-10T09:26:01Z</time>
      </trkpt>
      <trkpt lat="39.897428" lon="116.633644">
        <time>2021-01-10T09:26:06Z</time>
      </trkpt>
      <trkpt lat="39.897349" lon="116.633715">
        <time>2021-01-10T09:26:11Z</time>
      </trkpt>
      <trkpt lat="39.897366" lon="116.633837">
        <time>2021-01-10T09:26:16Z</time>
      </trkpt>
      <trkpt lat="39.89746" lon="116.633965">
        <time>2021-01-10T09:26:21Z</time>
      </trkpt>
      <trkpt lat="39.897532" lon="116.634143">
        <time>2021-01-10T09:26:26Z</time>
      </trkpt>
      <trkpt lat="39.897516" lon="116.63426">
        <time>2021-01-10T09:26:31Z</time>
      </trkpt>
      <trkpt lat="39.897519" lon="116.634279">
        <time>2021-01-10T09:26:36Z</time>
      </trkpt>
      <trkpt lat="39.897522" lon="116.634298">
        <time>2021-01-10T09:26:41Z</time>
      </trkpt>
      <trkpt lat="39.897522" lon="116.634298">
        <time>2021-01-10T09:26:48Z</time>
      </trkpt>
    </trkseg>
  </trk>
</gpx>