<?xml version="1.0" encoding="UTF-8"?>
<gpx xmlns="http://www.topografix.com/GPX/1/1" xmlns:gpxtpx="http://www.garmin.com/xmlschemas/TrackPointExtension/v1" xmlns:xsi="http://www.w3.org/2001/XMLSchema-instance" xsi:schemaLocation="http://www.topografix.com/GPX/1/1 http://www.topografix.com/GPX/1/1/gpx.xsd" version="1.1" creator="gpx.py -- https://github.com/tkrajina/gpxpy">
  <trk>
    <name>gpx from keep</name>
    <trkseg>
      <trkpt lat="39.897493" lon="116.633829">
        <time>2021-01-27T12:14:35Z</time>
      </trkpt>
      <trkpt lat="39.897493" lon="116.633829">
        <time>2021-01-27T12:14:40Z</time>
      </trkpt>
      <trkpt lat="39.897535" lon="116.633807">
        <time>2021-01-27T12:14:45Z</time>
      </trkpt>
      <trkpt lat="39.897629" lon="116.633823">
        <time>2021-01-27T12:14:50Z</time>
      </trkpt>
      <trkpt lat="39.897705" lon="116.633895">
        <time>2021-01-27T12:14:55Z</time>
      </trkpt>
      <trkpt lat="39.897745" lon="116.634027">
        <time>2021-01-27T12:15:00Z</time>
      </trkpt>
      <trkpt lat="39.897787" lon="116.634164">
        <time>2021-01-27T12:15:05Z</time>
      </trkpt>
      <trkpt lat="39.897852" lon="116.634289">
        <time>2021-01-27T12:15:10Z</time>
      </trkpt>
      <trkpt lat="39.897958" lon="116.63441">
        <time>2021-01-27T12:15:15Z</time>
      </trkpt>
      <trkpt lat="39.897988" lon="116.634546">
        <time>2021-01-27T12:15:20Z</time>
      </trkpt>
      <trkpt lat="39.898006" lon="116.634662">
        <time>2021-01-27T12:15:25Z</time>
      </trkpt>
      <trkpt lat="39.898024" lon="116.634698">
        <time>2021-01-27T12:15:30Z</time>
      </trkpt>
      <trkpt lat="39.898019" lon="116.634716">
        <time>2021-01-27T12:15:35Z</time>
      </trkpt>
      <trkpt lat="39.898037" lon="116.634717">
        <time>2021-01-27T12:15:40Z</time>
      </trkpt>
      <trkpt lat="39.898008" lon="116.634749">
        <time>2021-01-27T12:15:45Z</time>
      </trkpt>
      <trkpt lat="39.898006" lon="116.634778">
        <time>2021-01-27T12:15:50Z</time>
      </trkpt>
      <trkpt lat="39.898065" lon="116.634904">
        <time>2021-01-27T12:15:55Z</time>
      </trkpt>
      <trkpt lat="39.89809" lon="116.635043">
        <time>2021-01-27T12:16:00Z</time>
      </trkpt>
      <trkpt lat="39.898044" lon="116.63511">
        <time>2021-01-27T12:16:05Z</time>
      </trkpt>
      <trkpt lat="39.897941" lon="116.635181">
        <time>2021-01-27T12:16:10Z</time>
      </trkpt>
      <trkpt lat="39.897823" lon="116.635254">
        <time>2021-01-27T12:16:15Z</time>
      </trkpt>
      <trkpt lat="39.897733" lon="116.635306">
        <time>2021-01-27T12:16:20Z</time>
      </trkpt>
      <trkpt lat="39.897615" lon="116.635419">
        <time>2021-01-27T12:16:25Z</time>
      </trkpt>
      <trkpt lat="39.8975" lon="116.635518">
        <time>2021-01-27T12:16:30Z</time>
      </trkpt>
      <trkpt lat="39.897405" lon="116.63555">
        <time>2021-01-27T12:16:35Z</time>
      </trkpt>
      <trkpt lat="39.897279" lon="116.635627">
        <time>2021-01-27T12:16:40Z</time>
      </trkpt>
      <trkpt lat="39.897131" lon="116.635742">
        <time>2021-01-27T12:16:45Z</time>
      </trkpt>
      <trkpt lat="39.896981" lon="116.635811">
        <time>2021-01-27T12:16:50Z</time>
      </trkpt>
      <trkpt lat="39.89684" lon="116.6359">
        <time>2021-01-27T12:16:55Z</time>
      </trkpt>
      <trkpt lat="39.896725" lon="116.635976">
        <time>2021-01-27T12:17:00Z</time>
      </trkpt>
      <trkpt lat="39.896615" lon="116.636055">
        <time>2021-01-27T12:17:05Z</time>
      </trkpt>
      <trkpt lat="39.896473" lon="116.63617">
        <time>2021-01-27T12:17:10Z</time>
      </trkpt>
      <trkpt lat="39.89634" lon="116.636248">
        <time>2021-01-27T12:17:15Z</time>
      </trkpt>
      <trkpt lat="39.896233" lon="116.636281">
        <time>2021-01-27T12:17:20Z</time>
      </trkpt>
      <trkpt lat="39.896158" lon="116.636332">
        <time>2021-01-27T12:17:25Z</time>
      </trkpt>
      <trkpt lat="39.896164" lon="116.636385">
        <time>2021-01-27T12:17:30Z</time>
      </trkpt>
      <trkpt lat="39.896131" lon="116.636424">
        <time>2021-01-27T12:17:35Z</time>
      </trkpt>
      <trkpt lat="39.896117" lon="116.636448">
        <time>2021-01-27T12:17:40Z</time>
      </trkpt>
      <trkpt lat="39.896112" lon="116.636458">
        <time>2021-01-27T12:17:45Z</time>
      </trkpt>
      <trkpt lat="39.896113" lon="116.636454">
        <time>2021-01-27T12:17:50Z</time>
      </trkpt>
      <trkpt lat="39.896118" lon="116.636473">
        <time>2021-01-27T12:17:55Z</time>
      </trkpt>
      <trkpt lat="39.896112" lon="116.636475">
        <time>2021-01-27T12:18:00Z</time>
      </trkpt>
      <trkpt lat="39.896108" lon="116.636473">
        <time>2021-01-27T12:18:05Z</time>
      </trkpt>
      <trkpt lat="39.896104" lon="116.636471">
        <time>2021-01-27T12:18:10Z</time>
      </trkpt>
      <trkpt lat="39.8961" lon="116.636489">
        <time>2021-01-27T12:18:15Z</time>
      </trkpt>
      <trkpt lat="39.896097" lon="116.636488">
        <time>2021-01-27T12:18:20Z</time>
      </trkpt>
      <trkpt lat="39.8961" lon="116.636488">
        <time>2021-01-27T12:18:25Z</time>
      </trkpt>
      <trkpt lat="39.896091" lon="116.636495">
        <time>2021-01-27T12:18:30Z</time>
      </trkpt>
      <trkpt lat="39.896085" lon="116.636499">
        <time>2021-01-27T12:18:35Z</time>
      </trkpt>
      <trkpt lat="39.896086" lon="116.636503">
        <time>2021-01-27T12:18:40Z</time>
      </trkpt>
      <trkpt lat="39.896093" lon="116.636502">
        <time>2021-01-27T12:18:45Z</time>
      </trkpt>
      <trkpt lat="39.89609" lon="116.636515">
        <time>2021-01-27T12:18:50Z</time>
      </trkpt>
      <trkpt lat="39.896099" lon="116.636518">
        <time>2021-01-27T12:18:55Z</time>
      </trkpt>
      <trkpt lat="39.896104" lon="116.636518">
        <time>2021-01-27T12:19:00Z</time>
      </trkpt>
      <trkpt lat="39.896098" lon="116.636501">
        <time>2021-01-27T12:19:05Z</time>
      </trkpt>
      <trkpt lat="39.896095" lon="116.636493">
        <time>2021-01-27T12:19:10Z</time>
      </trkpt>
      <trkpt lat="39.896092" lon="116.636485">
        <time>2021-01-27T12:19:15Z</time>
      </trkpt>
      <trkpt lat="39.896078" lon="116.636509">
        <time>2021-01-27T12:19:20Z</time>
      </trkpt>
      <trkpt lat="39.896066" lon="116.636532">
        <time>2021-01-27T12:19:25Z</time>
      </trkpt>
      <trkpt lat="39.896057" lon="116.636564">
        <time>2021-01-27T12:19:30Z</time>
      </trkpt>
      <trkpt lat="39.896039" lon="116.636595">
        <time>2021-01-27T12:19:35Z</time>
      </trkpt>
      <trkpt lat="39.896031" lon="116.636598">
        <time>2021-01-27T12:19:40Z</time>
      </trkpt>
      <trkpt lat="39.896011" lon="116.63659">
        <time>2021-01-27T12:19:45Z</time>
      </trkpt>
      <trkpt lat="39.895985" lon="116.636606">
        <time>2021-01-27T12:19:50Z</time>
      </trkpt>
      <trkpt lat="39.895961" lon="116.636652">
        <time>2021-01-27T12:19:55Z</time>
      </trkpt>
      <trkpt lat="39.895982" lon="116.636774">
        <time>2021-01-27T12:20:00Z</time>
      </trkpt>
      <trkpt lat="39.896069" lon="116.636866">
        <time>2021-01-27T12:20:05Z</time>
      </trkpt>
      <trkpt lat="39.8961" lon="116.637006">
        <time>2021-01-27T12:20:10Z</time>
      </trkpt>
      <trkpt lat="39.896129" lon="116.637121">
        <time>2021-01-27T12:20:15Z</time>
      </trkpt>
      <trkpt lat="39.896141" lon="116.63725">
        <time>2021-01-27T12:20:20Z</time>
      </trkpt>
      <trkpt lat="39.896134" lon="116.637416">
        <time>2021-01-27T12:20:25Z</time>
      </trkpt>
      <trkpt lat="39.896146" lon="116.637576">
        <time>2021-01-27T12:20:30Z</time>
      </trkpt>
      <trkpt lat="39.896147" lon="116.637722">
        <time>2021-01-27T12:20:35Z</time>
      </trkpt>
      <trkpt lat="39.896166" lon="116.637864">
        <time>2021-01-27T12:20:40Z</time>
      </trkpt>
      <trkpt lat="39.896185" lon="116.637975">
        <time>2021-01-27T12:20:45Z</time>
      </trkpt>
      <trkpt lat="39.896194" lon="116.638134">
        <time>2021-01-27T12:20:50Z</time>
      </trkpt>
      <trkpt lat="39.896216" lon="116.638302">
        <time>2021-01-27T12:20:55Z</time>
      </trkpt>
      <trkpt lat="39.896217" lon="116.638469">
        <time>2021-01-27T12:21:00Z</time>
      </trkpt>
      <trkpt lat="39.896206" lon="116.638648">
        <time>2021-01-27T12:21:05Z</time>
      </trkpt>
      <trkpt lat="39.896192" lon="116.638812">
        <time>2021-01-27T12:21:10Z</time>
      </trkpt>
      <trkpt lat="39.896206" lon="116.638977">
        <time>2021-01-27T12:21:15Z</time>
      </trkpt>
      <trkpt lat="39.896238" lon="116.63912">
        <time>2021-01-27T12:21:20Z</time>
      </trkpt>
      <trkpt lat="39.896281" lon="116.639235">
        <time>2021-01-27T12:21:25Z</time>
      </trkpt>
      <trkpt lat="39.896268" lon="116.639372">
        <time>2021-01-27T12:21:30Z</time>
      </trkpt>
      <trkpt lat="39.896259" lon="116.639562">
        <time>2021-01-27T12:21:35Z</time>
      </trkpt>
      <trkpt lat="39.896267" lon="116.639737">
        <time>2021-01-27T12:21:40Z</time>
      </trkpt>
      <trkpt lat="39.896269" lon="116.639908">
        <time>2021-01-27T12:21:45Z</time>
      </trkpt>
      <trkpt lat="39.896276" lon="116.640073">
        <time>2021-01-27T12:21:50Z</time>
      </trkpt>
      <trkpt lat="39.896273" lon="116.640244">
        <time>2021-01-27T12:21:55Z</time>
      </trkpt>
      <trkpt lat="39.896272" lon="116.64043">
        <time>2021-01-27T12:22:00Z</time>
      </trkpt>
      <trkpt lat="39.89627" lon="116.640607">
        <time>2021-01-27T12:22:05Z</time>
      </trkpt>
      <trkpt lat="39.896271" lon="116.640774">
        <time>2021-01-27T12:22:10Z</time>
      </trkpt>
      <trkpt lat="39.896267" lon="116.640949">
        <time>2021-01-27T12:22:15Z</time>
      </trkpt>
      <trkpt lat="39.896273" lon="116.64111">
        <time>2021-01-27T12:22:20Z</time>
      </trkpt>
      <trkpt lat="39.89626" lon="116.641279">
        <time>2021-01-27T12:22:25Z</time>
      </trkpt>
      <trkpt lat="39.896249" lon="116.641404">
        <time>2021-01-27T12:22:30Z</time>
      </trkpt>
      <trkpt lat="39.896241" lon="116.641561">
        <time>2021-01-27T12:22:35Z</time>
      </trkpt>
      <trkpt lat="39.896221" lon="116.641729">
        <time>2021-01-27T12:22:40Z</time>
      </trkpt>
      <trkpt lat="39.896217" lon="116.641893">
        <time>2021-01-27T12:22:45Z</time>
      </trkpt>
      <trkpt lat="39.896203" lon="116.642175">
        <time>2021-01-27T12:22:50Z</time>
      </trkpt>
      <trkpt lat="39.896204" lon="116.642242">
        <time>2021-01-27T12:22:55Z</time>
      </trkpt>
      <trkpt lat="39.896209" lon="116.642379">
        <time>2021-01-27T12:23:00Z</time>
      </trkpt>
      <trkpt lat="39.896202" lon="116.642558">
        <time>2021-01-27T12:23:05Z</time>
      </trkpt>
      <trkpt lat="39.896181" lon="116.642699">
        <time>2021-01-27T12:23:10Z</time>
      </trkpt>
      <trkpt lat="39.896165" lon="116.642847">
        <time>2021-01-27T12:23:15Z</time>
      </trkpt>
      <trkpt lat="39.89615" lon="116.643004">
        <time>2021-01-27T12:23:20Z</time>
      </trkpt>
      <trkpt lat="39.896173" lon="116.643104">
        <time>2021-01-27T12:23:25Z</time>
      </trkpt>
      <trkpt lat="39.896151" lon="116.643236">
        <time>2021-01-27T12:23:30Z</time>
      </trkpt>
      <trkpt lat="39.89614" lon="116.643452">
        <time>2021-01-27T12:23:35Z</time>
      </trkpt>
      <trkpt lat="39.896186" lon="116.643578">
        <time>2021-01-27T12:23:40Z</time>
      </trkpt>
      <trkpt lat="39.896186" lon="116.643719">
        <time>2021-01-27T12:23:45Z</time>
      </trkpt>
      <trkpt lat="39.896197" lon="116.643882">
        <time>2021-01-27T12:23:50Z</time>
      </trkpt>
      <trkpt lat="39.896205" lon="116.644059">
        <time>2021-01-27T12:23:55Z</time>
      </trkpt>
      <trkpt lat="39.896209" lon="116.644225">
        <time>2021-01-27T12:24:00Z</time>
      </trkpt>
      <trkpt lat="39.896209" lon="116.644372">
        <time>2021-01-27T12:24:05Z</time>
      </trkpt>
      <trkpt lat="39.896202" lon="116.644535">
        <time>2021-01-27T12:24:10Z</time>
      </trkpt>
      <trkpt lat="39.896207" lon="116.644672">
        <time>2021-01-27T12:24:15Z</time>
      </trkpt>
      <trkpt lat="39.896217" lon="116.64483">
        <time>2021-01-27T12:24:20Z</time>
      </trkpt>
      <trkpt lat="39.896212" lon="116.644956">
        <time>2021-01-27T12:24:25Z</time>
      </trkpt>
      <trkpt lat="39.896199" lon="116.645098">
        <time>2021-01-27T12:24:30Z</time>
      </trkpt>
      <trkpt lat="39.896185" lon="116.645287">
        <time>2021-01-27T12:24:35Z</time>
      </trkpt>
      <trkpt lat="39.89618" lon="116.645453">
        <time>2021-01-27T12:24:40Z</time>
      </trkpt>
      <trkpt lat="39.89616" lon="116.645593">
        <time>2021-01-27T12:24:45Z</time>
      </trkpt>
      <trkpt lat="39.896117" lon="116.645751">
        <time>2021-01-27T12:24:50Z</time>
      </trkpt>
      <trkpt lat="39.896087" lon="116.645907">
        <time>2021-01-27T12:24:55Z</time>
      </trkpt>
      <trkpt lat="39.896054" lon="116.646094">
        <time>2021-01-27T12:25:00Z</time>
      </trkpt>
      <trkpt lat="39.89604" lon="116.646226">
        <time>2021-01-27T12:25:05Z</time>
      </trkpt>
      <trkpt lat="39.89603" lon="116.646372">
        <time>2021-01-27T12:25:10Z</time>
      </trkpt>
      <trkpt lat="39.896026" lon="116.646527">
        <time>2021-01-27T12:25:15Z</time>
      </trkpt>
      <trkpt lat="39.896019" lon="116.646712">
        <time>2021-01-27T12:25:20Z</time>
      </trkpt>
      <trkpt lat="39.895922" lon="116.64687">
        <time>2021-01-27T12:25:25Z</time>
      </trkpt>
      <trkpt lat="39.895792" lon="116.646806">
        <time>2021-01-27T12:25:30Z</time>
      </trkpt>
      <trkpt lat="39.895655" lon="116.646723">
        <time>2021-01-27T12:25:35Z</time>
      </trkpt>
      <trkpt lat="39.895526" lon="116.64667">
        <time>2021-01-27T12:25:40Z</time>
      </trkpt>
      <trkpt lat="39.895418" lon="116.646617">
        <time>2021-01-27T12:25:45Z</time>
      </trkpt>
      <trkpt lat="39.895299" lon="116.646546">
        <time>2021-01-27T12:25:50Z</time>
      </trkpt>
      <trkpt lat="39.895191" lon="116.646496">
        <time>2021-01-27T12:25:55Z</time>
      </trkpt>
      <trkpt lat="39.895101" lon="116.646478">
        <time>2021-01-27T12:26:00Z</time>
      </trkpt>
      <trkpt lat="39.894999" lon="116.646437">
        <time>2021-01-27T12:26:05Z</time>
      </trkpt>
      <trkpt lat="39.894903" lon="116.646375">
        <time>2021-01-27T12:26:10Z</time>
      </trkpt>
      <trkpt lat="39.894805" lon="116.646322">
        <time>2021-01-27T12:26:15Z</time>
      </trkpt>
      <trkpt lat="39.8947" lon="116.646244">
        <time>2021-01-27T12:26:20Z</time>
      </trkpt>
      <trkpt lat="39.8946" lon="116.646187">
        <time>2021-01-27T12:26:25Z</time>
      </trkpt>
      <trkpt lat="39.89444" lon="116.64613">
        <time>2021-01-27T12:26:30Z</time>
      </trkpt>
      <trkpt lat="39.894351" lon="116.646094">
        <time>2021-01-27T12:26:35Z</time>
      </trkpt>
      <trkpt lat="39.894248" lon="116.646032">
        <time>2021-01-27T12:26:40Z</time>
      </trkpt>
      <trkpt lat="39.894119" lon="116.64595">
        <time>2021-01-27T12:26:45Z</time>
      </trkpt>
      <trkpt lat="39.894044" lon="116.645891">
        <time>2021-01-27T12:26:50Z</time>
      </trkpt>
      <trkpt lat="39.893925" lon="116.645911">
        <time>2021-01-27T12:26:55Z</time>
      </trkpt>
      <trkpt lat="39.893843" lon="116.646056">
        <time>2021-01-27T12:27:00Z</time>
      </trkpt>
      <trkpt lat="39.893774" lon="116.646231">
        <time>2021-01-27T12:27:05Z</time>
      </trkpt>
      <trkpt lat="39.893596" lon="116.646373">
        <time>2021-01-27T12:27:10Z</time>
      </trkpt>
      <trkpt lat="39.89357" lon="116.646377">
        <time>2021-01-27T12:27:15Z</time>
      </trkpt>
      <trkpt lat="39.893469" lon="116.646309">
        <time>2021-01-27T12:27:20Z</time>
      </trkpt>
      <trkpt lat="39.893393" lon="116.646231">
        <time>2021-01-27T12:27:25Z</time>
      </trkpt>
      <trkpt lat="39.893295" lon="116.646175">
        <time>2021-01-27T12:27:30Z</time>
      </trkpt>
      <trkpt lat="39.89317" lon="116.646159">
        <time>2021-01-27T12:27:35Z</time>
      </trkpt>
      <trkpt lat="39.893051" lon="116.646116">
        <time>2021-01-27T12:27:40Z</time>
      </trkpt>
      <trkpt lat="39.892926" lon="116.646066">
        <time>2021-01-27T12:27:45Z</time>
      </trkpt>
      <trkpt lat="39.892788" lon="116.646016">
        <time>2021-01-27T12:27:50Z</time>
      </trkpt>
      <trkpt lat="39.892683" lon="116.645926">
        <time>2021-01-27T12:27:55Z</time>
      </trkpt>
      <trkpt lat="39.892609" lon="116.645833">
        <time>2021-01-27T12:28:00Z</time>
      </trkpt>
      <trkpt lat="39.892473" lon="116.645796">
        <time>2021-01-27T12:28:05Z</time>
      </trkpt>
      <trkpt lat="39.892244" lon="116.645704">
        <time>2021-01-27T12:28:10Z</time>
      </trkpt>
      <trkpt lat="39.892222" lon="116.645694">
        <time>2021-01-27T12:28:15Z</time>
      </trkpt>
      <trkpt lat="39.892099" lon="116.645655">
        <time>2021-01-27T12:28:20Z</time>
      </trkpt>
      <trkpt lat="39.891977" lon="116.645621">
        <time>2021-01-27T12:28:25Z</time>
      </trkpt>
      <trkpt lat="39.891865" lon="116.645572">
        <time>2021-01-27T12:28:30Z</time>
      </trkpt>
      <trkpt lat="39.891777" lon="116.645492">
        <time>2021-01-27T12:28:35Z</time>
      </trkpt>
      <trkpt lat="39.891667" lon="116.645416">
        <time>2021-01-27T12:28:40Z</time>
      </trkpt>
      <trkpt lat="39.891558" lon="116.645349">
        <time>2021-01-27T12:28:45Z</time>
      </trkpt>
      <trkpt lat="39.891496" lon="116.645419">
        <time>2021-01-27T12:28:50Z</time>
      </trkpt>
      <trkpt lat="39.891563" lon="116.645477">
        <time>2021-01-27T12:28:55Z</time>
      </trkpt>
      <trkpt lat="39.89165" lon="116.645522">
        <time>2021-01-27T12:29:00Z</time>
      </trkpt>
      <trkpt lat="39.89181" lon="116.645544">
        <time>2021-01-27T12:29:05Z</time>
      </trkpt>
      <trkpt lat="39.891954" lon="116.645544">
        <time>2021-01-27T12:29:10Z</time>
      </trkpt>
      <trkpt lat="39.892053" lon="116.645575">
        <time>2021-01-27T12:29:15Z</time>
      </trkpt>
      <trkpt lat="39.892173" lon="116.645615">
        <time>2021-01-27T12:29:20Z</time>
      </trkpt>
      <trkpt lat="39.892323" lon="116.645651">
        <time>2021-01-27T12:29:25Z</time>
      </trkpt>
      <trkpt lat="39.892454" lon="116.645719">
        <time>2021-01-27T12:29:30Z</time>
      </trkpt>
      <trkpt lat="39.892583" lon="116.645773">
        <time>2021-01-27T12:29:35Z</time>
      </trkpt>
      <trkpt lat="39.892702" lon="116.645858">
        <time>2021-01-27T12:29:40Z</time>
      </trkpt>
      <trkpt lat="39.892825" lon="116.645921">
        <time>2021-01-27T12:29:45Z</time>
      </trkpt>
      <trkpt lat="39.892952" lon="116.645983">
        <time>2021-01-27T12:29:50Z</time>
      </trkpt>
      <trkpt lat="39.893047" lon="116.646022">
        <time>2021-01-27T12:29:55Z</time>
      </trkpt>
      <trkpt lat="39.893147" lon="116.646094">
        <time>2021-01-27T12:30:00Z</time>
      </trkpt>
      <trkpt lat="39.89325" lon="116.646175">
        <time>2021-01-27T12:30:05Z</time>
      </trkpt>
      <trkpt lat="39.893387" lon="116.646215">
        <time>2021-01-27T12:30:10Z</time>
      </trkpt>
      <trkpt lat="39.89353" lon="116.646249">
        <time>2021-01-27T12:30:15Z</time>
      </trkpt>
      <trkpt lat="39.893654" lon="116.646307">
        <time>2021-01-27T12:30:20Z</time>
      </trkpt>
      <trkpt lat="39.893746" lon="116.646313">
        <time>2021-01-27T12:30:25Z</time>
      </trkpt>
      <trkpt lat="39.893848" lon="116.646164">
        <time>2021-01-27T12:30:30Z</time>
      </trkpt>
      <trkpt lat="39.893904" lon="116.646049">
        <time>2021-01-27T12:30:35Z</time>
      </trkpt>
      <trkpt lat="39.893977" lon="116.645932">
        <time>2021-01-27T12:30:40Z</time>
      </trkpt>
      <trkpt lat="39.894059" lon="116.64587">
        <time>2021-01-27T12:30:45Z</time>
      </trkpt>
      <trkpt lat="39.894169" lon="116.645949">
        <time>2021-01-27T12:30:50Z</time>
      </trkpt>
      <trkpt lat="39.894307" lon="116.646016">
        <time>2021-01-27T12:30:55Z</time>
      </trkpt>
      <trkpt lat="39.894415" lon="116.646075">
        <time>2021-01-27T12:31:00Z</time>
      </trkpt>
      <trkpt lat="39.894474" lon="116.646096">
        <time>2021-01-27T12:31:05Z</time>
      </trkpt>
      <trkpt lat="39.894667" lon="116.646167">
        <time>2021-01-27T12:31:10Z</time>
      </trkpt>
      <trkpt lat="39.894693" lon="116.646178">
        <time>2021-01-27T12:31:15Z</time>
      </trkpt>
      <trkpt lat="39.894782" lon="116.646228">
        <time>2021-01-27T12:31:20Z</time>
      </trkpt>
      <trkpt lat="39.89488" lon="116.646264">
        <time>2021-01-27T12:31:25Z</time>
      </trkpt>
      <trkpt lat="39.894979" lon="116.646307">
        <time>2021-01-27T12:31:30Z</time>
      </trkpt>
      <trkpt lat="39.895073" lon="116.646389">
        <time>2021-01-27T12:31:35Z</time>
      </trkpt>
      <trkpt lat="39.895173" lon="116.646462">
        <time>2021-01-27T12:31:40Z</time>
      </trkpt>
      <trkpt lat="39.895291" lon="116.646505">
        <time>2021-01-27T12:31:45Z</time>
      </trkpt>
      <trkpt lat="39.895444" lon="116.646556">
        <time>2021-01-27T12:31:50Z</time>
      </trkpt>
      <trkpt lat="39.895495" lon="116.646569">
        <time>2021-01-27T12:31:55Z</time>
      </trkpt>
      <trkpt lat="39.8956" lon="116.646638">
        <time>2021-01-27T12:32:00Z</time>
      </trkpt>
      <trkpt lat="39.895731" lon="116.646688">
        <time>2021-01-27T12:32:05Z</time>
      </trkpt>
      <trkpt lat="39.895827" lon="116.646746">
        <time>2021-01-27T12:32:10Z</time>
      </trkpt>
      <trkpt lat="39.895919" lon="116.64679">
        <time>2021-01-27T12:32:15Z</time>
      </trkpt>
      <trkpt lat="39.89599" lon="116.6468">
        <time>2021-01-27T12:32:20Z</time>
      </trkpt>
      <trkpt lat="39.896047" lon="116.646692">
        <time>2021-01-27T12:32:25Z</time>
      </trkpt>
      <trkpt lat="39.896047" lon="116.646541">
        <time>2021-01-27T12:32:30Z</time>
      </trkpt>
      <trkpt lat="39.896057" lon="116.646395">
        <time>2021-01-27T12:32:35Z</time>
      </trkpt>
      <trkpt lat="39.896073" lon="116.64625">
        <time>2021-01-27T12:32:40Z</time>
      </trkpt>
      <trkpt lat="39.896083" lon="116.646109">
        <time>2021-01-27T12:32:45Z</time>
      </trkpt>
      <trkpt lat="39.896082" lon="116.645922">
        <time>2021-01-27T12:32:50Z</time>
      </trkpt>
      <trkpt lat="39.896089" lon="116.645758">
        <time>2021-01-27T12:32:55Z</time>
      </trkpt>
      <trkpt lat="39.896107" lon="116.645616">
        <time>2021-01-27T12:33:00Z</time>
      </trkpt>
      <trkpt lat="39.89613" lon="116.645455">
        <time>2021-01-27T12:33:05Z</time>
      </trkpt>
      <trkpt lat="39.896149" lon="116.645314">
        <time>2021-01-27T12:33:10Z</time>
      </trkpt>
      <trkpt lat="39.896165" lon="116.645177">
        <time>2021-01-27T12:33:15Z</time>
      </trkpt>
      <trkpt lat="39.896151" lon="116.645024">
        <time>2021-01-27T12:33:20Z</time>
      </trkpt>
      <trkpt lat="39.896171" lon="116.644874">
        <time>2021-01-27T12:33:25Z</time>
      </trkpt>
      <trkpt lat="39.896188" lon="116.644736">
        <time>2021-01-27T12:33:30Z</time>
      </trkpt>
      <trkpt lat="39.8962" lon="116.644606">
        <time>2021-01-27T12:33:35Z</time>
      </trkpt>
      <trkpt lat="39.896174" lon="116.644431">
        <time>2021-01-27T12:33:40Z</time>
      </trkpt>
      <trkpt lat="39.896158" lon="116.644268">
        <time>2021-01-27T12:33:45Z</time>
      </trkpt>
      <trkpt lat="39.896163" lon="116.644116">
        <time>2021-01-27T12:33:50Z</time>
      </trkpt>
      <trkpt lat="39.896168" lon="116.643956">
        <time>2021-01-27T12:33:55Z</time>
      </trkpt>
      <trkpt lat="39.896174" lon="116.643798">
        <time>2021-01-27T12:34:00Z</time>
      </trkpt>
      <trkpt lat="39.896176" lon="116.643617">
        <time>2021-01-27T12:34:05Z</time>
      </trkpt>
      <trkpt lat="39.896189" lon="116.643482">
        <time>2021-01-27T12:34:10Z</time>
      </trkpt>
      <trkpt lat="39.896185" lon="116.643322">
        <time>2021-01-27T12:34:15Z</time>
      </trkpt>
      <trkpt lat="39.896175" lon="116.643118">
        <time>2021-01-27T12:34:20Z</time>
      </trkpt>
      <trkpt lat="39.896177" lon="116.643023">
        <time>2021-01-27T12:34:25Z</time>
      </trkpt>
      <trkpt lat="39.896198" lon="116.642721">
        <time>2021-01-27T12:34:30Z</time>
      </trkpt>
      <trkpt lat="39.896211" lon="116.642643">
        <time>2021-01-27T12:34:35Z</time>
      </trkpt>
      <trkpt lat="39.896204" lon="116.642468">
        <time>2021-01-27T12:34:40Z</time>
      </trkpt>
      <trkpt lat="39.896213" lon="116.642312">
        <time>2021-01-27T12:34:45Z</time>
      </trkpt>
      <trkpt lat="39.896218" lon="116.642179">
        <time>2021-01-27T12:34:50Z</time>
      </trkpt>
      <trkpt lat="39.896226" lon="116.64206">
        <time>2021-01-27T12:34:55Z</time>
      </trkpt>
      <trkpt lat="39.896231" lon="116.641929">
        <time>2021-01-27T12:35:00Z</time>
      </trkpt>
      <trkpt lat="39.896222" lon="116.641655">
        <time>2021-01-27T12:35:05Z</time>
      </trkpt>
      <trkpt lat="39.896218" lon="116.64156">
        <time>2021-01-27T12:35:10Z</time>
      </trkpt>
      <trkpt lat="39.896223" lon="116.641396">
        <time>2021-01-27T12:35:15Z</time>
      </trkpt>
      <trkpt lat="39.896235" lon="116.641227">
        <time>2021-01-27T12:35:20Z</time>
      </trkpt>
      <trkpt lat="39.896237" lon="116.641079">
        <time>2021-01-27T12:35:25Z</time>
      </trkpt>
      <trkpt lat="39.896257" lon="116.640915">
        <time>2021-01-27T12:35:30Z</time>
      </trkpt>
      <trkpt lat="39.896252" lon="116.640763">
        <time>2021-01-27T12:35:35Z</time>
      </trkpt>
      <trkpt lat="39.896248" lon="116.6406">
        <time>2021-01-27T12:35:40Z</time>
      </trkpt>
      <trkpt lat="39.89624" lon="116.640417">
        <time>2021-01-27T12:35:45Z</time>
      </trkpt>
      <trkpt lat="39.896261" lon="116.640263">
        <time>2021-01-27T12:35:50Z</time>
      </trkpt>
      <trkpt lat="39.896282" lon="116.640112">
        <time>2021-01-27T12:35:55Z</time>
      </trkpt>
      <trkpt lat="39.89627" lon="116.639936">
        <time>2021-01-27T12:36:00Z</time>
      </trkpt>
      <trkpt lat="39.896253" lon="116.639773">
        <time>2021-01-27T12:36:05Z</time>
      </trkpt>
      <trkpt lat="39.896238" lon="116.639631">
        <time>2021-01-27T12:36:10Z</time>
      </trkpt>
      <trkpt lat="39.896237" lon="116.639504">
        <time>2021-01-27T12:36:15Z</time>
      </trkpt>
      <trkpt lat="39.896237" lon="116.639372">
        <time>2021-01-27T12:36:20Z</time>
      </trkpt>
      <trkpt lat="39.896202" lon="116.63921">
        <time>2021-01-27T12:36:25Z</time>
      </trkpt>
      <trkpt lat="39.896164" lon="116.639034">
        <time>2021-01-27T12:36:30Z</time>
      </trkpt>
      <trkpt lat="39.896114" lon="116.638869">
        <time>2021-01-27T12:36:35Z</time>
      </trkpt>
      <trkpt lat="39.896092" lon="116.638695">
        <time>2021-01-27T12:36:40Z</time>
      </trkpt>
      <trkpt lat="39.896082" lon="116.638534">
        <time>2021-01-27T12:36:45Z</time>
      </trkpt>
      <trkpt lat="39.896081" lon="116.638366">
        <time>2021-01-27T12:36:50Z</time>
      </trkpt>
      <trkpt lat="39.896106" lon="116.638188">
        <time>2021-01-27T12:36:55Z</time>
      </trkpt>
      <trkpt lat="39.896099" lon="116.637994">
        <time>2021-01-27T12:37:00Z</time>
      </trkpt>
      <trkpt lat="39.896126" lon="116.637838">
        <time>2021-01-27T12:37:05Z</time>
      </trkpt>
      <trkpt lat="39.896128" lon="116.637658">
        <time>2021-01-27T12:37:10Z</time>
      </trkpt>
      <trkpt lat="39.896119" lon="116.637486">
        <time>2021-01-27T12:37:15Z</time>
      </trkpt>
      <trkpt lat="39.896118" lon="116.637323">
        <time>2021-01-27T12:37:20Z</time>
      </trkpt>
      <trkpt lat="39.896091" lon="116.637174">
        <time>2021-01-27T12:37:25Z</time>
      </trkpt>
      <trkpt lat="39.896083" lon="116.637085">
        <time>2021-01-27T12:37:30Z</time>
      </trkpt>
      <trkpt lat="39.896082" lon="116.636994">
        <time>2021-01-27T12:37:35Z</time>
      </trkpt>
      <trkpt lat="39.896068" lon="116.636865">
        <time>2021-01-27T12:37:40Z</time>
      </trkpt>
      <trkpt lat="39.89604" lon="116.636743">
        <time>2021-01-27T12:37:45Z</time>
      </trkpt>
      <trkpt lat="39.895996" lon="116.636687">
        <time>2021-01-27T12:37:50Z</time>
      </trkpt>
      <trkpt lat="39.896037" lon="116.636802">
        <time>2021-01-27T12:37:55Z</time>
      </trkpt>
      <trkpt lat="39.896088" lon="116.636941">
        <time>2021-01-27T12:38:00Z</time>
      </trkpt>
      <trkpt lat="39.896119" lon="116.637056">
        <time>2021-01-27T12:38:05Z</time>
      </trkpt>
      <trkpt lat="39.896127" lon="116.637169">
        <time>2021-01-27T12:38:10Z</time>
      </trkpt>
      <trkpt lat="39.896143" lon="116.63725">
        <time>2021-01-27T12:38:15Z</time>
      </trkpt>
      <trkpt lat="39.896171" lon="116.637412">
        <time>2021-01-27T12:38:20Z</time>
      </trkpt>
      <trkpt lat="39.896187" lon="116.637566">
        <time>2021-01-27T12:38:25Z</time>
      </trkpt>
      <trkpt lat="39.896152" lon="116.63768">
        <time>2021-01-27T12:38:30Z</time>
      </trkpt>
      <trkpt lat="39.896169" lon="116.637844">
        <time>2021-01-27T12:38:35Z</time>
      </trkpt>
      <trkpt lat="39.896165" lon="116.637989">
        <time>2021-01-27T12:38:40Z</time>
      </trkpt>
      <trkpt lat="39.896155" lon="116.638151">
        <time>2021-01-27T12:38:45Z</time>
      </trkpt>
      <trkpt lat="39.896196" lon="116.63832">
        <time>2021-01-27T12:38:50Z</time>
      </trkpt>
      <trkpt lat="39.896208" lon="116.638475">
        <time>2021-01-27T12:38:55Z</time>
      </trkpt>
      <trkpt lat="39.896179" lon="116.638619">
        <time>2021-01-27T12:39:00Z</time>
      </trkpt>
      <trkpt lat="39.896178" lon="116.638772">
        <time>2021-01-27T12:39:05Z</time>
      </trkpt>
      <trkpt lat="39.896214" lon="116.63894">
        <time>2021-01-27T12:39:10Z</time>
      </trkpt>
      <trkpt lat="39.896258" lon="116.639105">
        <time>2021-01-27T12:39:15Z</time>
      </trkpt>
      <trkpt lat="39.896282" lon="116.639275">
        <time>2021-01-27T12:39:20Z</time>
      </trkpt>
      <trkpt lat="39.896289" lon="116.639418">
        <time>2021-01-27T12:39:25Z</time>
      </trkpt>
      <trkpt lat="39.896285" lon="116.639583">
        <time>2021-01-27T12:39:30Z</time>
      </trkpt>
      <trkpt lat="39.89627" lon="116.639755">
        <time>2021-01-27T12:39:35Z</time>
      </trkpt>
      <trkpt lat="39.896283" lon="116.639916">
        <time>2021-01-27T12:39:40Z</time>
      </trkpt>
      <trkpt lat="39.896263" lon="116.640084">
        <time>2021-01-27T12:39:45Z</time>
      </trkpt>
      <trkpt lat="39.896253" lon="116.640252">
        <time>2021-01-27T12:39:50Z</time>
      </trkpt>
      <trkpt lat="39.896249" lon="116.640428">
        <time>2021-01-27T12:39:55Z</time>
      </trkpt>
      <trkpt lat="39.896256" lon="116.640619">
        <time>2021-01-27T12:40:00Z</time>
      </trkpt>
      <trkpt lat="39.896252" lon="116.640792">
        <time>2021-01-27T12:40:05Z</time>
      </trkpt>
      <trkpt lat="39.896266" lon="116.640977">
        <time>2021-01-27T12:40:10Z</time>
      </trkpt>
      <trkpt lat="39.896269" lon="116.641171">
        <time>2021-01-27T12:40:15Z</time>
      </trkpt>
      <trkpt lat="39.896261" lon="116.641347">
        <time>2021-01-27T12:40:20Z</time>
      </trkpt>
      <trkpt lat="39.896256" lon="116.641519">
        <time>2021-01-27T12:40:25Z</time>
      </trkpt>
      <trkpt lat="39.896242" lon="116.641693">
        <time>2021-01-27T12:40:30Z</time>
      </trkpt>
      <trkpt lat="39.896219" lon="116.641866">
        <time>2021-01-27T12:40:35Z</time>
      </trkpt>
      <trkpt lat="39.89621" lon="116.642143">
        <time>2021-01-27T12:40:40Z</time>
      </trkpt>
      <trkpt lat="39.896207" lon="116.642204">
        <time>2021-01-27T12:40:45Z</time>
      </trkpt>
      <trkpt lat="39.896191" lon="116.642387">
        <time>2021-01-27T12:40:50Z</time>
      </trkpt>
      <trkpt lat="39.896176" lon="116.642555">
        <time>2021-01-27T12:40:55Z</time>
      </trkpt>
      <trkpt lat="39.896184" lon="116.642738">
        <time>2021-01-27T12:41:00Z</time>
      </trkpt>
      <trkpt lat="39.896183" lon="116.642896">
        <time>2021-01-27T12:41:05Z</time>
      </trkpt>
      <trkpt lat="39.896173" lon="116.643079">
        <time>2021-01-27T12:41:10Z</time>
      </trkpt>
      <trkpt lat="39.89617" lon="116.643239">
        <time>2021-01-27T12:41:15Z</time>
      </trkpt>
      <trkpt lat="39.896165" lon="116.643438">
        <time>2021-01-27T12:41:20Z</time>
      </trkpt>
      <trkpt lat="39.896185" lon="116.64361">
        <time>2021-01-27T12:41:25Z</time>
      </trkpt>
      <trkpt lat="39.896205" lon="116.643729">
        <time>2021-01-27T12:41:30Z</time>
      </trkpt>
      <trkpt lat="39.896194" lon="116.643812">
        <time>2021-01-27T12:41:35Z</time>
      </trkpt>
      <trkpt lat="39.896187" lon="116.643957">
        <time>2021-01-27T12:41:40Z</time>
      </trkpt>
      <trkpt lat="39.896186" lon="116.644131">
        <time>2021-01-27T12:41:45Z</time>
      </trkpt>
      <trkpt lat="39.896163" lon="116.644298">
        <time>2021-01-27T12:41:50Z</time>
      </trkpt>
      <trkpt lat="39.896162" lon="116.644436">
        <time>2021-01-27T12:41:55Z</time>
      </trkpt>
      <trkpt lat="39.896162" lon="116.644568">
        <time>2021-01-27T12:42:00Z</time>
      </trkpt>
      <trkpt lat="39.896191" lon="116.644742">
        <time>2021-01-27T12:42:05Z</time>
      </trkpt>
      <trkpt lat="39.896185" lon="116.644919">
        <time>2021-01-27T12:42:10Z</time>
      </trkpt>
      <trkpt lat="39.896176" lon="116.645077">
        <time>2021-01-27T12:42:15Z</time>
      </trkpt>
      <trkpt lat="39.896175" lon="116.645168">
        <time>2021-01-27T12:42:20Z</time>
      </trkpt>
      <trkpt lat="39.896185" lon="116.64533">
        <time>2021-01-27T12:42:25Z</time>
      </trkpt>
      <trkpt lat="39.896199" lon="116.645506">
        <time>2021-01-27T12:42:30Z</time>
      </trkpt>
      <trkpt lat="39.896178" lon="116.645652">
        <time>2021-01-27T12:42:35Z</time>
      </trkpt>
      <trkpt lat="39.896129" lon="116.645791">
        <time>2021-01-27T12:42:40Z</time>
      </trkpt>
      <trkpt lat="39.89609" lon="116.645945">
        <time>2021-01-27T12:42:45Z</time>
      </trkpt>
      <trkpt lat="39.896054" lon="116.646127">
        <time>2021-01-27T12:42:50Z</time>
      </trkpt>
      <trkpt lat="39.896049" lon="116.646314">
        <time>2021-01-27T12:42:55Z</time>
      </trkpt>
      <trkpt lat="39.896033" lon="116.646485">
        <time>2021-01-27T12:43:00Z</time>
      </trkpt>
      <trkpt lat="39.896014" lon="116.646669">
        <time>2021-01-27T12:43:05Z</time>
      </trkpt>
      <trkpt lat="39.895957" lon="116.646859">
        <time>2021-01-27T12:43:10Z</time>
      </trkpt>
      <trkpt lat="39.895786" lon="116.64679">
        <time>2021-01-27T12:43:15Z</time>
      </trkpt>
      <trkpt lat="39.895633" lon="116.646701">
        <time>2021-01-27T12:43:20Z</time>
      </trkpt>
      <trkpt lat="39.895495" lon="116.64664">
        <time>2021-01-27T12:43:25Z</time>
      </trkpt>
      <trkpt lat="39.89535" lon="116.646576">
        <time>2021-01-27T12:43:30Z</time>
      </trkpt>
      <trkpt lat="39.895224" lon="116.646483">
        <time>2021-01-27T12:43:35Z</time>
      </trkpt>
      <trkpt lat="39.895089" lon="116.646428">
        <time>2021-01-27T12:43:40Z</time>
      </trkpt>
      <trkpt lat="39.89491" lon="116.646353">
        <time>2021-01-27T12:43:45Z</time>
      </trkpt>
      <trkpt lat="39.894828" lon="116.646329">
        <time>2021-01-27T12:43:50Z</time>
      </trkpt>
      <trkpt lat="39.894737" lon="116.646287">
        <time>2021-01-27T12:43:55Z</time>
      </trkpt>
      <trkpt lat="39.894653" lon="116.646272">
        <time>2021-01-27T12:44:00Z</time>
      </trkpt>
      <trkpt lat="39.894582" lon="116.646253">
        <time>2021-01-27T12:44:05Z</time>
      </trkpt>
      <trkpt lat="39.894451" lon="116.64616">
        <time>2021-01-27T12:44:10Z</time>
      </trkpt>
      <trkpt lat="39.894432" lon="116.646146">
        <time>2021-01-27T12:44:15Z</time>
      </trkpt>
      <trkpt lat="39.894313" lon="116.646118">
        <time>2021-01-27T12:44:20Z</time>
      </trkpt>
      <trkpt lat="39.894206" lon="116.646058">
        <time>2021-01-27T12:44:25Z</time>
      </trkpt>
      <trkpt lat="39.894091" lon="116.646005">
        <time>2021-01-27T12:44:30Z</time>
      </trkpt>
      <trkpt lat="39.893995" lon="116.645939">
        <time>2021-01-27T12:44:35Z</time>
      </trkpt>
      <trkpt lat="39.893884" lon="116.645904">
        <time>2021-01-27T12:44:40Z</time>
      </trkpt>
      <trkpt lat="39.893789" lon="116.646011">
        <time>2021-01-27T12:44:45Z</time>
      </trkpt>
      <trkpt lat="39.893703" lon="116.646158">
        <time>2021-01-27T12:44:50Z</time>
      </trkpt>
      <trkpt lat="39.893607" lon="116.646382">
        <time>2021-01-27T12:44:55Z</time>
      </trkpt>
      <trkpt lat="39.893519" lon="116.646356">
        <time>2021-01-27T12:45:00Z</time>
      </trkpt>
      <trkpt lat="39.893385" lon="116.646276">
        <time>2021-01-27T12:45:05Z</time>
      </trkpt>
      <trkpt lat="39.893245" lon="116.646217">
        <time>2021-01-27T12:45:10Z</time>
      </trkpt>
      <trkpt lat="39.8931" lon="116.646172">
        <time>2021-01-27T12:45:15Z</time>
      </trkpt>
      <trkpt lat="39.892986" lon="116.646095">
        <time>2021-01-27T12:45:20Z</time>
      </trkpt>
      <trkpt lat="39.892873" lon="116.646008">
        <time>2021-01-27T12:45:25Z</time>
      </trkpt>
      <trkpt lat="39.892739" lon="116.645973">
        <time>2021-01-27T12:45:30Z</time>
      </trkpt>
      <trkpt lat="39.892613" lon="116.645912">
        <time>2021-01-27T12:45:35Z</time>
      </trkpt>
      <trkpt lat="39.8925" lon="116.645842">
        <time>2021-01-27T12:45:40Z</time>
      </trkpt>
      <trkpt lat="39.892386" lon="116.645783">
        <time>2021-01-27T12:45:45Z</time>
      </trkpt>
      <trkpt lat="39.892251" lon="116.645731">
        <time>2021-01-27T12:45:50Z</time>
      </trkpt>
      <trkpt lat="39.892128" lon="116.645668">
        <time>2021-01-27T12:45:55Z</time>
      </trkpt>
      <trkpt lat="39.892028" lon="116.645579">
        <time>2021-01-27T12:46:00Z</time>
      </trkpt>
      <trkpt lat="39.891888" lon="116.645547">
        <time>2021-01-27T12:46:05Z</time>
      </trkpt>
      <trkpt lat="39.891747" lon="116.645496">
        <time>2021-01-27T12:46:10Z</time>
      </trkpt>
      <trkpt lat="39.89163" lon="116.645418">
        <time>2021-01-27T12:46:15Z</time>
      </trkpt>
      <trkpt lat="39.89151" lon="116.645327">
        <time>2021-01-27T12:46:20Z</time>
      </trkpt>
      <trkpt lat="39.891507" lon="116.645361">
        <time>2021-01-27T12:46:25Z</time>
      </trkpt>
      <trkpt lat="39.891582" lon="116.645421">
        <time>2021-01-27T12:46:30Z</time>
      </trkpt>
      <trkpt lat="39.891688" lon="116.645474">
        <time>2021-01-27T12:46:35Z</time>
      </trkpt>
      <trkpt lat="39.891841" lon="116.64552">
        <time>2021-01-27T12:46:40Z</time>
      </trkpt>
      <trkpt lat="39.891974" lon="116.645577">
        <time>2021-01-27T12:46:45Z</time>
      </trkpt>
      <trkpt lat="39.892111" lon="116.645626">
        <time>2021-01-27T12:46:50Z</time>
      </trkpt>
      <trkpt lat="39.892209" lon="116.64567">
        <time>2021-01-27T12:46:55Z</time>
      </trkpt>
      <trkpt lat="39.892364" lon="116.645713">
        <time>2021-01-27T12:47:00Z</time>
      </trkpt>
      <trkpt lat="39.892487" lon="116.645746">
        <time>2021-01-27T12:47:05Z</time>
      </trkpt>
      <trkpt lat="39.892524" lon="116.64578">
        <time>2021-01-27T12:47:10Z</time>
      </trkpt>
      <trkpt lat="39.892569" lon="116.645828">
        <time>2021-01-27T12:47:15Z</time>
      </trkpt>
      <trkpt lat="39.892648" lon="116.645891">
        <time>2021-01-27T12:47:20Z</time>
      </trkpt>
      <trkpt lat="39.892733" lon="116.645928">
        <time>2021-01-27T12:47:25Z</time>
      </trkpt>
      <trkpt lat="39.892805" lon="116.64594">
        <time>2021-01-27T12:47:30Z</time>
      </trkpt>
      <trkpt lat="39.892883" lon="116.645969">
        <time>2021-01-27T12:47:35Z</time>
      </trkpt>
      <trkpt lat="39.893007" lon="116.645983">
        <time>2021-01-27T12:47:40Z</time>
      </trkpt>
      <trkpt lat="39.893118" lon="116.646034">
        <time>2021-01-27T12:47:45Z</time>
      </trkpt>
      <trkpt lat="39.893248" lon="116.6461">
        <time>2021-01-27T12:47:50Z</time>
      </trkpt>
      <trkpt lat="39.893345" lon="116.646163">
        <time>2021-01-27T12:47:55Z</time>
      </trkpt>
      <trkpt lat="39.893446" lon="116.646244">
        <time>2021-01-27T12:48:00Z</time>
      </trkpt>
      <trkpt lat="39.89359" lon="116.646331">
        <time>2021-01-27T12:48:05Z</time>
      </trkpt>
      <trkpt lat="39.893702" lon="116.646314">
        <time>2021-01-27T12:48:10Z</time>
      </trkpt>
      <trkpt lat="39.893842" lon="116.646155">
        <time>2021-01-27T12:48:15Z</time>
      </trkpt>
      <trkpt lat="39.893863" lon="116.646129">
        <time>2021-01-27T12:48:20Z</time>
      </trkpt>
      <trkpt lat="39.893933" lon="116.645991">
        <time>2021-01-27T12:48:25Z</time>
      </trkpt>
      <trkpt lat="39.89405" lon="116.645956">
        <time>2021-01-27T12:48:30Z</time>
      </trkpt>
      <trkpt lat="39.894296" lon="116.646026">
        <time>2021-01-27T12:48:35Z</time>
      </trkpt>
      <trkpt lat="39.894348" lon="116.646047">
        <time>2021-01-27T12:48:40Z</time>
      </trkpt>
      <trkpt lat="39.894481" lon="116.646088">
        <time>2021-01-27T12:48:45Z</time>
      </trkpt>
      <trkpt lat="39.894664" lon="116.646169">
        <time>2021-01-27T12:48:50Z</time>
      </trkpt>
      <trkpt lat="39.894746" lon="116.646203">
        <time>2021-01-27T12:48:55Z</time>
      </trkpt>
      <trkpt lat="39.894842" lon="116.646242">
        <time>2021-01-27T12:49:00Z</time>
      </trkpt>
      <trkpt lat="39.894946" lon="116.6463">
        <time>2021-01-27T12:49:05Z</time>
      </trkpt>
      <trkpt lat="39.895081" lon="116.646383">
        <time>2021-01-27T12:49:10Z</time>
      </trkpt>
      <trkpt lat="39.895165" lon="116.64644">
        <time>2021-01-27T12:49:15Z</time>
      </trkpt>
      <trkpt lat="39.895241" lon="116.646482">
        <time>2021-01-27T12:49:20Z</time>
      </trkpt>
      <trkpt lat="39.895319" lon="116.646529">
        <time>2021-01-27T12:49:25Z</time>
      </trkpt>
      <trkpt lat="39.895447" lon="116.646577">
        <time>2021-01-27T12:49:30Z</time>
      </trkpt>
      <trkpt lat="39.89557" lon="116.646644">
        <time>2021-01-27T12:49:35Z</time>
      </trkpt>
      <trkpt lat="39.895696" lon="116.646667">
        <time>2021-01-27T12:49:40Z</time>
      </trkpt>
      <trkpt lat="39.895804" lon="116.646709">
        <time>2021-01-27T12:49:45Z</time>
      </trkpt>
      <trkpt lat="39.895892" lon="116.646773">
        <time>2021-01-27T12:49:50Z</time>
      </trkpt>
      <trkpt lat="39.895997" lon="116.646825">
        <time>2021-01-27T12:49:55Z</time>
      </trkpt>
      <trkpt lat="39.896068" lon="116.646698">
        <time>2021-01-27T12:50:00Z</time>
      </trkpt>
      <trkpt lat="39.896069" lon="116.64651">
        <time>2021-01-27T12:50:05Z</time>
      </trkpt>
      <trkpt lat="39.89603" lon="116.646339">
        <time>2021-01-27T12:50:10Z</time>
      </trkpt>
      <trkpt lat="39.896039" lon="116.646184">
        <time>2021-01-27T12:50:15Z</time>
      </trkpt>
      <trkpt lat="39.896077" lon="116.64606">
        <time>2021-01-27T12:50:20Z</time>
      </trkpt>
      <trkpt lat="39.896073" lon="116.645898">
        <time>2021-01-27T12:50:25Z</time>
      </trkpt>
      <trkpt lat="39.896075" lon="116.645765">
        <time>2021-01-27T12:50:30Z</time>
      </trkpt>
      <trkpt lat="39.896108" lon="116.645614">
        <time>2021-01-27T12:50:35Z</time>
      </trkpt>
      <trkpt lat="39.89612" lon="116.64545">
        <time>2021-01-27T12:50:40Z</time>
      </trkpt>
      <trkpt lat="39.896139" lon="116.645318">
        <time>2021-01-27T12:50:45Z</time>
      </trkpt>
      <trkpt lat="39.896158" lon="116.645177">
        <time>2021-01-27T12:50:50Z</time>
      </trkpt>
      <trkpt lat="39.896165" lon="116.645031">
        <time>2021-01-27T12:50:55Z</time>
      </trkpt>
      <trkpt lat="39.89615" lon="116.644857">
        <time>2021-01-27T12:51:00Z</time>
      </trkpt>
      <trkpt lat="39.896164" lon="116.644688">
        <time>2021-01-27T12:51:05Z</time>
      </trkpt>
      <trkpt lat="39.896142" lon="116.644534">
        <time>2021-01-27T12:51:10Z</time>
      </trkpt>
      <trkpt lat="39.896164" lon="116.644371">
        <time>2021-01-27T12:51:15Z</time>
      </trkpt>
      <trkpt lat="39.896168" lon="116.644204">
        <time>2021-01-27T12:51:20Z</time>
      </trkpt>
      <trkpt lat="39.896159" lon="116.644033">
        <time>2021-01-27T12:51:25Z</time>
      </trkpt>
      <trkpt lat="39.896167" lon="116.643877">
        <time>2021-01-27T12:51:30Z</time>
      </trkpt>
      <trkpt lat="39.896177" lon="116.643716">
        <time>2021-01-27T12:51:35Z</time>
      </trkpt>
      <trkpt lat="39.89617" lon="116.643553">
        <time>2021-01-27T12:51:40Z</time>
      </trkpt>
      <trkpt lat="39.896164" lon="116.643405">
        <time>2021-01-27T12:51:45Z</time>
      </trkpt>
      <trkpt lat="39.896164" lon="116.643293">
        <time>2021-01-27T12:51:50Z</time>
      </trkpt>
      <trkpt lat="39.896148" lon="116.643198">
        <time>2021-01-27T12:51:55Z</time>
      </trkpt>
      <trkpt lat="39.896168" lon="116.643104">
        <time>2021-01-27T12:52:00Z</time>
      </trkpt>
      <trkpt lat="39.896184" lon="116.643025">
        <time>2021-01-27T12:52:05Z</time>
      </trkpt>
      <trkpt lat="39.896161" lon="116.642931">
        <time>2021-01-27T12:52:10Z</time>
      </trkpt>
      <trkpt lat="39.896166" lon="116.642866">
        <time>2021-01-27T12:52:15Z</time>
      </trkpt>
      <trkpt lat="39.896167" lon="116.642732">
        <time>2021-01-27T12:52:20Z</time>
      </trkpt>
      <trkpt lat="39.896184" lon="116.642587">
        <time>2021-01-27T12:52:25Z</time>
      </trkpt>
      <trkpt lat="39.896195" lon="116.642424">
        <time>2021-01-27T12:52:30Z</time>
      </trkpt>
      <trkpt lat="39.896199" lon="116.642249">
        <time>2021-01-27T12:52:35Z</time>
      </trkpt>
      <trkpt lat="39.89619" lon="116.642096">
        <time>2021-01-27T12:52:40Z</time>
      </trkpt>
      <trkpt lat="39.896195" lon="116.641947">
        <time>2021-01-27T12:52:45Z</time>
      </trkpt>
      <trkpt lat="39.896187" lon="116.641777">
        <time>2021-01-27T12:52:50Z</time>
      </trkpt>
      <trkpt lat="39.896207" lon="116.641621">
        <time>2021-01-27T12:52:55Z</time>
      </trkpt>
      <trkpt lat="39.896211" lon="116.641488">
        <time>2021-01-27T12:53:00Z</time>
      </trkpt>
      <trkpt lat="39.896207" lon="116.641311">
        <time>2021-01-27T12:53:05Z</time>
      </trkpt>
      <trkpt lat="39.896223" lon="116.641145">
        <time>2021-01-27T12:53:10Z</time>
      </trkpt>
      <trkpt lat="39.89624" lon="116.640993">
        <time>2021-01-27T12:53:15Z</time>
      </trkpt>
      <trkpt lat="39.896239" lon="116.640822">
        <time>2021-01-27T12:53:20Z</time>
      </trkpt>
      <trkpt lat="39.896246" lon="116.640675">
        <time>2021-01-27T12:53:25Z</time>
      </trkpt>
      <trkpt lat="39.896254" lon="116.640518">
        <time>2021-01-27T12:53:30Z</time>
      </trkpt>
      <trkpt lat="39.896259" lon="116.640352">
        <time>2021-01-27T12:53:35Z</time>
      </trkpt>
      <trkpt lat="39.896231" lon="116.640183">
        <time>2021-01-27T12:53:40Z</time>
      </trkpt>
      <trkpt lat="39.896229" lon="116.640003">
        <time>2021-01-27T12:53:45Z</time>
      </trkpt>
      <trkpt lat="39.896221" lon="116.639834">
        <time>2021-01-27T12:53:50Z</time>
      </trkpt>
      <trkpt lat="39.896225" lon="116.639681">
        <time>2021-01-27T12:53:55Z</time>
      </trkpt>
      <trkpt lat="39.896211" lon="116.639497">
        <time>2021-01-27T12:54:00Z</time>
      </trkpt>
      <trkpt lat="39.896192" lon="116.639335">
        <time>2021-01-27T12:54:05Z</time>
      </trkpt>
      <trkpt lat="39.896189" lon="116.639174">
        <time>2021-01-27T12:54:10Z</time>
      </trkpt>
      <trkpt lat="39.896165" lon="116.638995">
        <time>2021-01-27T12:54:15Z</time>
      </trkpt>
      <trkpt lat="39.896142" lon="116.638822">
        <time>2021-01-27T12:54:20Z</time>
      </trkpt>
      <trkpt lat="39.896132" lon="116.638662">
        <time>2021-01-27T12:54:25Z</time>
      </trkpt>
      <trkpt lat="39.896105" lon="116.638493">
        <time>2021-01-27T12:54:30Z</time>
      </trkpt>
      <trkpt lat="39.896079" lon="116.638352">
        <time>2021-01-27T12:54:35Z</time>
      </trkpt>
      <trkpt lat="39.896065" lon="116.638219">
        <time>2021-01-27T12:54:40Z</time>
      </trkpt>
      <trkpt lat="39.89607" lon="116.638123">
        <time>2021-01-27T12:54:45Z</time>
      </trkpt>
      <trkpt lat="39.896087" lon="116.638028">
        <time>2021-01-27T12:54:50Z</time>
      </trkpt>
      <trkpt lat="39.896106" lon="116.637931">
        <time>2021-01-27T12:54:55Z</time>
      </trkpt>
      <trkpt lat="39.896123" lon="116.637802">
        <time>2021-01-27T12:55:00Z</time>
      </trkpt>
      <trkpt lat="39.89612" lon="116.637637">
        <time>2021-01-27T12:55:05Z</time>
      </trkpt>
      <trkpt lat="39.896128" lon="116.637469">
        <time>2021-01-27T12:55:10Z</time>
      </trkpt>
      <trkpt lat="39.896125" lon="116.637297">
        <time>2021-01-27T12:55:15Z</time>
      </trkpt>
      <trkpt lat="39.896122" lon="116.637149">
        <time>2021-01-27T12:55:20Z</time>
      </trkpt>
      <trkpt lat="39.896109" lon="116.636949">
        <time>2021-01-27T12:55:25Z</time>
      </trkpt>
      <trkpt lat="39.896074" lon="116.636783">
        <time>2021-01-27T12:55:30Z</time>
      </trkpt>
      <trkpt lat="39.896034" lon="116.636647">
        <time>2021-01-27T12:55:35Z</time>
      </trkpt>
      <trkpt lat="39.896014" lon="116.636738">
        <time>2021-01-27T12:55:40Z</time>
      </trkpt>
      <trkpt lat="39.896073" lon="116.63692">
        <time>2021-01-27T12:55:45Z</time>
      </trkpt>
      <trkpt lat="39.896094" lon="116.637102">
        <time>2021-01-27T12:55:50Z</time>
      </trkpt>
      <trkpt lat="39.896109" lon="116.637276">
        <time>2021-01-27T12:55:55Z</time>
      </trkpt>
      <trkpt lat="39.896132" lon="116.637446">
        <time>2021-01-27T12:56:00Z</time>
      </trkpt>
      <trkpt lat="39.896162" lon="116.637631">
        <time>2021-01-27T12:56:05Z</time>
      </trkpt>
      <trkpt lat="39.896176" lon="116.637805">
        <time>2021-01-27T12:56:10Z</time>
      </trkpt>
      <trkpt lat="39.896196" lon="116.637987">
        <time>2021-01-27T12:56:15Z</time>
      </trkpt>
      <trkpt lat="39.896204" lon="116.638153">
        <time>2021-01-27T12:56:20Z</time>
      </trkpt>
      <trkpt lat="39.896193" lon="116.638248">
        <time>2021-01-27T12:56:25Z</time>
      </trkpt>
      <trkpt lat="39.896203" lon="116.638336">
        <time>2021-01-27T12:56:30Z</time>
      </trkpt>
      <trkpt lat="39.896193" lon="116.63844">
        <time>2021-01-27T12:56:35Z</time>
      </trkpt>
      <trkpt lat="39.896179" lon="116.638555">
        <time>2021-01-27T12:56:40Z</time>
      </trkpt>
      <trkpt lat="39.896175" lon="116.638697">
        <time>2021-01-27T12:56:45Z</time>
      </trkpt>
      <trkpt lat="39.896205" lon="116.638863">
        <time>2021-01-27T12:56:50Z</time>
      </trkpt>
      <trkpt lat="39.896219" lon="116.639021">
        <time>2021-01-27T12:56:55Z</time>
      </trkpt>
      <trkpt lat="39.896234" lon="116.639171">
        <time>2021-01-27T12:57:00Z</time>
      </trkpt>
      <trkpt lat="39.896217" lon="116.63931">
        <time>2021-01-27T12:57:05Z</time>
      </trkpt>
      <trkpt lat="39.896219" lon="116.639464">
        <time>2021-01-27T12:57:10Z</time>
      </trkpt>
      <trkpt lat="39.896243" lon="116.639626">
        <time>2021-01-27T12:57:15Z</time>
      </trkpt>
      <trkpt lat="39.896274" lon="116.639784">
        <time>2021-01-27T12:57:20Z</time>
      </trkpt>
      <trkpt lat="39.896267" lon="116.639926">
        <time>2021-01-27T12:57:25Z</time>
      </trkpt>
      <trkpt lat="39.896273" lon="116.640083">
        <time>2021-01-27T12:57:30Z</time>
      </trkpt>
      <trkpt lat="39.896291" lon="116.640246">
        <time>2021-01-27T12:57:35Z</time>
      </trkpt>
      <trkpt lat="39.896243" lon="116.640435">
        <time>2021-01-27T12:57:40Z</time>
      </trkpt>
      <trkpt lat="39.896239" lon="116.640622">
        <time>2021-01-27T12:57:45Z</time>
      </trkpt>
      <trkpt lat="39.896241" lon="116.640821">
        <time>2021-01-27T12:57:50Z</time>
      </trkpt>
      <trkpt lat="39.896246" lon="116.64101">
        <time>2021-01-27T12:57:55Z</time>
      </trkpt>
      <trkpt lat="39.896228" lon="116.641185">
        <time>2021-01-27T12:58:00Z</time>
      </trkpt>
      <trkpt lat="39.896241" lon="116.641363">
        <time>2021-01-27T12:58:05Z</time>
      </trkpt>
      <trkpt lat="39.896244" lon="116.641551">
        <time>2021-01-27T12:58:10Z</time>
      </trkpt>
      <trkpt lat="39.896243" lon="116.641716">
        <time>2021-01-27T12:58:15Z</time>
      </trkpt>
      <trkpt lat="39.896204" lon="116.641861">
        <time>2021-01-27T12:58:20Z</time>
      </trkpt>
      <trkpt lat="39.896197" lon="116.642179">
        <time>2021-01-27T12:58:25Z</time>
      </trkpt>
      <trkpt lat="39.896196" lon="116.642216">
        <time>2021-01-27T12:58:30Z</time>
      </trkpt>
      <trkpt lat="39.89617" lon="116.642369">
        <time>2021-01-27T12:58:35Z</time>
      </trkpt>
      <trkpt lat="39.89614" lon="116.642516">
        <time>2021-01-27T12:58:40Z</time>
      </trkpt>
      <trkpt lat="39.896139" lon="116.642706">
        <time>2021-01-27T12:58:45Z</time>
      </trkpt>
      <trkpt lat="39.896141" lon="116.642869">
        <time>2021-01-27T12:58:50Z</time>
      </trkpt>
      <trkpt lat="39.896133" lon="116.643094">
        <time>2021-01-27T12:58:55Z</time>
      </trkpt>
      <trkpt lat="39.896139" lon="116.643168">
        <time>2021-01-27T12:59:00Z</time>
      </trkpt>
      <trkpt lat="39.896148" lon="116.643398">
        <time>2021-01-27T12:59:05Z</time>
      </trkpt>
      <trkpt lat="39.896166" lon="116.64353">
        <time>2021-01-27T12:59:10Z</time>
      </trkpt>
      <trkpt lat="39.89616" lon="116.643688">
        <time>2021-01-27T12:59:15Z</time>
      </trkpt>
      <trkpt lat="39.896163" lon="116.643872">
        <time>2021-01-27T12:59:20Z</time>
      </trkpt>
      <trkpt lat="39.896185" lon="116.644045">
        <time>2021-01-27T12:59:25Z</time>
      </trkpt>
      <trkpt lat="39.896199" lon="116.644215">
        <time>2021-01-27T12:59:30Z</time>
      </trkpt>
      <trkpt lat="39.896194" lon="116.644303">
        <time>2021-01-27T12:59:35Z</time>
      </trkpt>
      <trkpt lat="39.896201" lon="116.644374">
        <time>2021-01-27T12:59:40Z</time>
      </trkpt>
      <trkpt lat="39.896196" lon="116.644484">
        <time>2021-01-27T12:59:45Z</time>
      </trkpt>
      <trkpt lat="39.896203" lon="116.644628">
        <time>2021-01-27T12:59:50Z</time>
      </trkpt>
      <trkpt lat="39.896201" lon="116.644733">
        <time>2021-01-27T12:59:55Z</time>
      </trkpt>
      <trkpt lat="39.896219" lon="116.644841">
        <time>2021-01-27T13:00:00Z</time>
      </trkpt>
      <trkpt lat="39.896194" lon="116.644987">
        <time>2021-01-27T13:00:05Z</time>
      </trkpt>
      <trkpt lat="39.8962" lon="116.645174">
        <time>2021-01-27T13:00:10Z</time>
      </trkpt>
      <trkpt lat="39.896195" lon="116.645367">
        <time>2021-01-27T13:00:15Z</time>
      </trkpt>
      <trkpt lat="39.896163" lon="116.645515">
        <time>2021-01-27T13:00:20Z</time>
      </trkpt>
      <trkpt lat="39.896136" lon="116.64569">
        <time>2021-01-27T13:00:25Z</time>
      </trkpt>
      <trkpt lat="39.896113" lon="116.645859">
        <time>2021-01-27T13:00:30Z</time>
      </trkpt>
      <trkpt lat="39.896084" lon="116.646044">
        <time>2021-01-27T13:00:35Z</time>
      </trkpt>
      <trkpt lat="39.896072" lon="116.646234">
        <time>2021-01-27T13:00:40Z</time>
      </trkpt>
      <trkpt lat="39.896052" lon="116.646396">
        <time>2021-01-27T13:00:45Z</time>
      </trkpt>
      <trkpt lat="39.896028" lon="116.646578">
        <time>2021-01-27T13:00:50Z</time>
      </trkpt>
      <trkpt lat="39.895995" lon="116.646735">
        <time>2021-01-27T13:00:55Z</time>
      </trkpt>
      <trkpt lat="39.895893" lon="116.64684">
        <time>2021-01-27T13:01:00Z</time>
      </trkpt>
      <trkpt lat="39.895761" lon="116.646764">
        <time>2021-01-27T13:01:05Z</time>
      </trkpt>
      <trkpt lat="39.895641" lon="116.646667">
        <time>2021-01-27T13:01:10Z</time>
      </trkpt>
      <trkpt lat="39.895523" lon="116.646598">
        <time>2021-01-27T13:01:15Z</time>
      </trkpt>
      <trkpt lat="39.895385" lon="116.646539">
        <time>2021-01-27T13:01:20Z</time>
      </trkpt>
      <trkpt lat="39.895254" lon="116.64649">
        <time>2021-01-27T13:01:25Z</time>
      </trkpt>
      <trkpt lat="39.895137" lon="116.646411">
        <time>2021-01-27T13:01:30Z</time>
      </trkpt>
      <trkpt lat="39.894933" lon="116.646338">
        <time>2021-01-27T13:01:35Z</time>
      </trkpt>
      <trkpt lat="39.894855" lon="116.64629">
        <time>2021-01-27T13:01:40Z</time>
      </trkpt>
      <trkpt lat="39.894728" lon="116.646225">
        <time>2021-01-27T13:01:45Z</time>
      </trkpt>
      <trkpt lat="39.89461" lon="116.646159">
        <time>2021-01-27T13:01:50Z</time>
      </trkpt>
      <trkpt lat="39.894462" lon="116.646111">
        <time>2021-01-27T13:01:55Z</time>
      </trkpt>
      <trkpt lat="39.894401" lon="116.646105">
        <time>2021-01-27T13:02:00Z</time>
      </trkpt>
      <trkpt lat="39.894332" lon="116.646076">
        <time>2021-01-27T13:02:05Z</time>
      </trkpt>
      <trkpt lat="39.894245" lon="116.646025">
        <time>2021-01-27T13:02:10Z</time>
      </trkpt>
      <trkpt lat="39.894139" lon="116.64594">
        <time>2021-01-27T13:02:15Z</time>
      </trkpt>
      <trkpt lat="39.894047" lon="116.645889">
        <time>2021-01-27T13:02:20Z</time>
      </trkpt>
      <trkpt lat="39.893904" lon="116.645895">
        <time>2021-01-27T13:02:25Z</time>
      </trkpt>
      <trkpt lat="39.893806" lon="116.646065">
        <time>2021-01-27T13:02:30Z</time>
      </trkpt>
      <trkpt lat="39.893724" lon="116.646231">
        <time>2021-01-27T13:02:35Z</time>
      </trkpt>
      <trkpt lat="39.893606" lon="116.646407">
        <time>2021-01-27T13:02:40Z</time>
      </trkpt>
      <trkpt lat="39.893493" lon="116.646393">
        <time>2021-01-27T13:02:45Z</time>
      </trkpt>
      <trkpt lat="39.893352" lon="116.646289">
        <time>2021-01-27T13:02:50Z</time>
      </trkpt>
      <trkpt lat="39.893239" lon="116.646219">
        <time>2021-01-27T13:02:55Z</time>
      </trkpt>
      <trkpt lat="39.893127" lon="116.646145">
        <time>2021-01-27T13:03:00Z</time>
      </trkpt>
      <trkpt lat="39.893008" lon="116.64608">
        <time>2021-01-27T13:03:05Z</time>
      </trkpt>
      <trkpt lat="39.892877" lon="116.646015">
        <time>2021-01-27T13:03:10Z</time>
      </trkpt>
      <trkpt lat="39.892752" lon="116.645944">
        <time>2021-01-27T13:03:15Z</time>
      </trkpt>
      <trkpt lat="39.892632" lon="116.645864">
        <time>2021-01-27T13:03:20Z</time>
      </trkpt>
      <trkpt lat="39.892493" lon="116.645832">
        <time>2021-01-27T13:03:25Z</time>
      </trkpt>
      <trkpt lat="39.892371" lon="116.645764">
        <time>2021-01-27T13:03:30Z</time>
      </trkpt>
      <trkpt lat="39.892288" lon="116.645738">
        <time>2021-01-27T13:03:35Z</time>
      </trkpt>
      <trkpt lat="39.892223" lon="116.645706">
        <time>2021-01-27T13:03:40Z</time>
      </trkpt>
      <trkpt lat="39.892149" lon="116.64567">
        <time>2021-01-27T13:03:45Z</time>
      </trkpt>
      <trkpt lat="39.892031" lon="116.645594">
        <time>2021-01-27T13:03:50Z</time>
      </trkpt>
      <trkpt lat="39.891888" lon="116.64555">
        <time>2021-01-27T13:03:55Z</time>
      </trkpt>
      <trkpt lat="39.891758" lon="116.645524">
        <time>2021-01-27T13:04:00Z</time>
      </trkpt>
      <trkpt lat="39.891639" lon="116.645441">
        <time>2021-01-27T13:04:05Z</time>
      </trkpt>
      <trkpt lat="39.891506" lon="116.64534">
        <time>2021-01-27T13:04:10Z</time>
      </trkpt>
      <trkpt lat="39.891499" lon="116.645392">
        <time>2021-01-27T13:04:15Z</time>
      </trkpt>
      <trkpt lat="39.891562" lon="116.645471">
        <time>2021-01-27T13:04:20Z</time>
      </trkpt>
      <trkpt lat="39.891705" lon="116.645511">
        <time>2021-01-27T13:04:25Z</time>
      </trkpt>
      <trkpt lat="39.891885" lon="116.645536">
        <time>2021-01-27T13:04:30Z</time>
      </trkpt>
      <trkpt lat="39.892036" lon="116.645575">
        <time>2021-01-27T13:04:35Z</time>
      </trkpt>
      <trkpt lat="39.892177" lon="116.645635">
        <time>2021-01-27T13:04:40Z</time>
      </trkpt>
      <trkpt lat="39.892311" lon="116.645721">
        <time>2021-01-27T13:04:45Z</time>
      </trkpt>
      <trkpt lat="39.892423" lon="116.645768">
        <time>2021-01-27T13:04:50Z</time>
      </trkpt>
      <trkpt lat="39.892559" lon="116.645817">
        <time>2021-01-27T13:04:55Z</time>
      </trkpt>
      <trkpt lat="39.892699" lon="116.645873">
        <time>2021-01-27T13:05:00Z</time>
      </trkpt>
      <trkpt lat="39.892826" lon="116.64593">
        <time>2021-01-27T13:05:05Z</time>
      </trkpt>
      <trkpt lat="39.892929" lon="116.645992">
        <time>2021-01-27T13:05:10Z</time>
      </trkpt>
      <trkpt lat="39.893044" lon="116.646041">
        <time>2021-01-27T13:05:15Z</time>
      </trkpt>
      <trkpt lat="39.893148" lon="116.646094">
        <time>2021-01-27T13:05:20Z</time>
      </trkpt>
      <trkpt lat="39.893271" lon="116.646145">
        <time>2021-01-27T13:05:25Z</time>
      </trkpt>
      <trkpt lat="39.893395" lon="116.646183">
        <time>2021-01-27T13:05:30Z</time>
      </trkpt>
      <trkpt lat="39.89352" lon="116.646247">
        <time>2021-01-27T13:05:35Z</time>
      </trkpt>
      <trkpt lat="39.893633" lon="116.646323">
        <time>2021-01-27T13:05:40Z</time>
      </trkpt>
      <trkpt lat="39.893759" lon="116.646287">
        <time>2021-01-27T13:05:45Z</time>
      </trkpt>
      <trkpt lat="39.893845" lon="116.64614">
        <time>2021-01-27T13:05:50Z</time>
      </trkpt>
      <trkpt lat="39.89392" lon="116.645973">
        <time>2021-01-27T13:05:55Z</time>
      </trkpt>
      <trkpt lat="39.893973" lon="116.645831">
        <time>2021-01-27T13:06:00Z</time>
      </trkpt>
      <trkpt lat="39.894058" lon="116.645858">
        <time>2021-01-27T13:06:05Z</time>
      </trkpt>
      <trkpt lat="39.894314" lon="116.645973">
        <time>2021-01-27T13:06:10Z</time>
      </trkpt>
      <trkpt lat="39.894368" lon="116.646">
        <time>2021-01-27T13:06:15Z</time>
      </trkpt>
      <trkpt lat="39.894491" lon="116.646053">
        <time>2021-01-27T13:06:20Z</time>
      </trkpt>
      <trkpt lat="39.894663" lon="116.646146">
        <time>2021-01-27T13:06:25Z</time>
      </trkpt>
      <trkpt lat="39.894732" lon="116.646196">
        <time>2021-01-27T13:06:30Z</time>
      </trkpt>
      <trkpt lat="39.894829" lon="116.646264">
        <time>2021-01-27T13:06:35Z</time>
      </trkpt>
      <trkpt lat="39.89488" lon="116.646297">
        <time>2021-01-27T13:06:40Z</time>
      </trkpt>
      <trkpt lat="39.894937" lon="116.646303">
        <time>2021-01-27T13:06:45Z</time>
      </trkpt>
      <trkpt lat="39.895001" lon="116.646346">
        <time>2021-01-27T13:06:50Z</time>
      </trkpt>
      <trkpt lat="39.895119" lon="116.646395">
        <time>2021-01-27T13:06:55Z</time>
      </trkpt>
      <trkpt lat="39.895244" lon="116.646462">
        <time>2021-01-27T13:07:00Z</time>
      </trkpt>
      <trkpt lat="39.895456" lon="116.646583">
        <time>2021-01-27T13:07:05Z</time>
      </trkpt>
      <trkpt lat="39.89551" lon="116.646616">
        <time>2021-01-27T13:07:10Z</time>
      </trkpt>
      <trkpt lat="39.895646" lon="116.646693">
        <time>2021-01-27T13:07:15Z</time>
      </trkpt>
      <trkpt lat="39.895782" lon="116.646748">
        <time>2021-01-27T13:07:20Z</time>
      </trkpt>
      <trkpt lat="39.89593" lon="116.646789">
        <time>2021-01-27T13:07:25Z</time>
      </trkpt>
      <trkpt lat="39.896049" lon="116.646699">
        <time>2021-01-27T13:07:30Z</time>
      </trkpt>
      <trkpt lat="39.896042" lon="116.646504">
        <time>2021-01-27T13:07:35Z</time>
      </trkpt>
      <trkpt lat="39.896037" lon="116.646312">
        <time>2021-01-27T13:07:40Z</time>
      </trkpt>
      <trkpt lat="39.896038" lon="116.646125">
        <time>2021-01-27T13:07:45Z</time>
      </trkpt>
      <trkpt lat="39.896043" lon="116.645918">
        <time>2021-01-27T13:07:50Z</time>
      </trkpt>
      <trkpt lat="39.896054" lon="116.645743">
        <time>2021-01-27T13:07:55Z</time>
      </trkpt>
      <trkpt lat="39.896079" lon="116.645579">
        <time>2021-01-27T13:08:00Z</time>
      </trkpt>
      <trkpt lat="39.896108" lon="116.645429">
        <time>2021-01-27T13:08:05Z</time>
      </trkpt>
      <trkpt lat="39.896143" lon="116.64529">
        <time>2021-01-27T13:08:10Z</time>
      </trkpt>
      <trkpt lat="39.896152" lon="116.645146">
        <time>2021-01-27T13:08:15Z</time>
      </trkpt>
      <trkpt lat="39.896162" lon="116.644961">
        <time>2021-01-27T13:08:20Z</time>
      </trkpt>
      <trkpt lat="39.896176" lon="116.644774">
        <time>2021-01-27T13:08:25Z</time>
      </trkpt>
      <trkpt lat="39.896177" lon="116.644599">
        <time>2021-01-27T13:08:30Z</time>
      </trkpt>
      <trkpt lat="39.896157" lon="116.6444">
        <time>2021-01-27T13:08:35Z</time>
      </trkpt>
      <trkpt lat="39.89617" lon="116.644218">
        <time>2021-01-27T13:08:40Z</time>
      </trkpt>
      <trkpt lat="39.896158" lon="116.644042">
        <time>2021-01-27T13:08:45Z</time>
      </trkpt>
      <trkpt lat="39.896152" lon="116.643917">
        <time>2021-01-27T13:08:50Z</time>
      </trkpt>
      <trkpt lat="39.896159" lon="116.64382">
        <time>2021-01-27T13:08:55Z</time>
      </trkpt>
      <trkpt lat="39.896182" lon="116.643682">
        <time>2021-01-27T13:09:00Z</time>
      </trkpt>
      <trkpt lat="39.896208" lon="116.643528">
        <time>2021-01-27T13:09:05Z</time>
      </trkpt>
      <trkpt lat="39.896209" lon="116.643377">
        <time>2021-01-27T13:09:10Z</time>
      </trkpt>
      <trkpt lat="39.896202" lon="116.643236">
        <time>2021-01-27T13:09:15Z</time>
      </trkpt>
      <trkpt lat="39.896208" lon="116.643081">
        <time>2021-01-27T13:09:20Z</time>
      </trkpt>
      <trkpt lat="39.896208" lon="116.642921">
        <time>2021-01-27T13:09:25Z</time>
      </trkpt>
      <trkpt lat="39.896197" lon="116.642728">
        <time>2021-01-27T13:09:30Z</time>
      </trkpt>
      <trkpt lat="39.896191" lon="116.642547">
        <time>2021-01-27T13:09:35Z</time>
      </trkpt>
      <trkpt lat="39.896225" lon="116.642389">
        <time>2021-01-27T13:09:40Z</time>
      </trkpt>
      <trkpt lat="39.896218" lon="116.642193">
        <time>2021-01-27T13:09:45Z</time>
      </trkpt>
      <trkpt lat="39.896208" lon="116.642051">
        <time>2021-01-27T13:09:50Z</time>
      </trkpt>
      <trkpt lat="39.89622" lon="116.641944">
        <time>2021-01-27T13:09:55Z</time>
      </trkpt>
      <trkpt lat="39.896219" lon="116.641815">
        <time>2021-01-27T13:10:00Z</time>
      </trkpt>
      <trkpt lat="39.896201" lon="116.641593">
        <time>2021-01-27T13:10:05Z</time>
      </trkpt>
      <trkpt lat="39.896191" lon="116.641465">
        <time>2021-01-27T13:10:10Z</time>
      </trkpt>
      <trkpt lat="39.8962" lon="116.641325">
        <time>2021-01-27T13:10:15Z</time>
      </trkpt>
      <trkpt lat="39.896205" lon="116.641167">
        <time>2021-01-27T13:10:20Z</time>
      </trkpt>
      <trkpt lat="39.896198" lon="116.640971">
        <time>2021-01-27T13:10:25Z</time>
      </trkpt>
      <trkpt lat="39.896195" lon="116.640807">
        <time>2021-01-27T13:10:30Z</time>
      </trkpt>
      <trkpt lat="39.896191" lon="116.640626">
        <time>2021-01-27T13:10:35Z</time>
      </trkpt>
      <trkpt lat="39.896184" lon="116.640446">
        <time>2021-01-27T13:10:40Z</time>
      </trkpt>
      <trkpt lat="39.896215" lon="116.640288">
        <time>2021-01-27T13:10:45Z</time>
      </trkpt>
      <trkpt lat="39.896242" lon="116.640119">
        <time>2021-01-27T13:10:50Z</time>
      </trkpt>
      <trkpt lat="39.896221" lon="116.63994">
        <time>2021-01-27T13:10:55Z</time>
      </trkpt>
      <trkpt lat="39.896227" lon="116.639804">
        <time>2021-01-27T13:11:00Z</time>
      </trkpt>
      <trkpt lat="39.896224" lon="116.639612">
        <time>2021-01-27T13:11:05Z</time>
      </trkpt>
      <trkpt lat="39.896216" lon="116.639443">
        <time>2021-01-27T13:11:10Z</time>
      </trkpt>
      <trkpt lat="39.896224" lon="116.639299">
        <time>2021-01-27T13:11:15Z</time>
      </trkpt>
      <trkpt lat="39.89624" lon="116.639144">
        <time>2021-01-27T13:11:20Z</time>
      </trkpt>
      <trkpt lat="39.896229" lon="116.638953">
        <time>2021-01-27T13:11:25Z</time>
      </trkpt>
      <trkpt lat="39.896216" lon="116.638791">
        <time>2021-01-27T13:11:30Z</time>
      </trkpt>
      <trkpt lat="39.896194" lon="116.63863">
        <time>2021-01-27T13:11:35Z</time>
      </trkpt>
      <trkpt lat="39.89615" lon="116.638449">
        <time>2021-01-27T13:11:40Z</time>
      </trkpt>
      <trkpt lat="39.89612" lon="116.638273">
        <time>2021-01-27T13:11:45Z</time>
      </trkpt>
      <trkpt lat="39.896153" lon="116.638088">
        <time>2021-01-27T13:11:50Z</time>
      </trkpt>
      <trkpt lat="39.896137" lon="116.637896">
        <time>2021-01-27T13:11:55Z</time>
      </trkpt>
      <trkpt lat="39.896133" lon="116.637705">
        <time>2021-01-27T13:12:00Z</time>
      </trkpt>
      <trkpt lat="39.896141" lon="116.637553">
        <time>2021-01-27T13:12:05Z</time>
      </trkpt>
      <trkpt lat="39.89612" lon="116.637362">
        <time>2021-01-27T13:12:10Z</time>
      </trkpt>
      <trkpt lat="39.896106" lon="116.637177">
        <time>2021-01-27T13:12:15Z</time>
      </trkpt>
      <trkpt lat="39.896093" lon="116.637023">
        <time>2021-01-27T13:12:20Z</time>
      </trkpt>
      <trkpt lat="39.896087" lon="116.636927">
        <time>2021-01-27T13:12:25Z</time>
      </trkpt>
      <trkpt lat="39.896064" lon="116.636839">
        <time>2021-01-27T13:12:30Z</time>
      </trkpt>
      <trkpt lat="39.896041" lon="116.636739">
        <time>2021-01-27T13:12:35Z</time>
      </trkpt>
      <trkpt lat="39.895996" lon="116.636645">
        <time>2021-01-27T13:12:40Z</time>
      </trkpt>
      <trkpt lat="39.89593" lon="116.636556">
        <time>2021-01-27T13:12:45Z</time>
      </trkpt>
      <trkpt lat="39.89584" lon="116.636459">
        <time>2021-01-27T13:12:50Z</time>
      </trkpt>
      <trkpt lat="39.895929" lon="116.636342">
        <time>2021-01-27T13:12:55Z</time>
      </trkpt>
      <trkpt lat="39.896087" lon="116.636218">
        <time>2021-01-27T13:13:00Z</time>
      </trkpt>
      <trkpt lat="39.896203" lon="116.636151">
        <time>2021-01-27T13:13:05Z</time>
      </trkpt>
      <trkpt lat="39.896318" lon="116.63606">
        <time>2021-01-27T13:13:10Z</time>
      </trkpt>
      <trkpt lat="39.896445" lon="116.635931">
        <time>2021-01-27T13:13:15Z</time>
      </trkpt>
      <trkpt lat="39.896592" lon="116.635855">
        <time>2021-01-27T13:13:20Z</time>
      </trkpt>
      <trkpt lat="39.896735" lon="116.635751">
        <time>2021-01-27T13:13:25Z</time>
      </trkpt>
      <trkpt lat="39.896981" lon="116.635655">
        <time>2021-01-27T13:13:30Z</time>
      </trkpt>
      <trkpt lat="39.897009" lon="116.635648">
        <time>2021-01-27T13:13:35Z</time>
      </trkpt>
      <trkpt lat="39.897147" lon="116.635613">
        <time>2021-01-27T13:13:40Z</time>
      </trkpt>
      <trkpt lat="39.897259" lon="116.635564">
        <time>2021-01-27T13:13:45Z</time>
      </trkpt>
      <trkpt lat="39.897417" lon="116.635426">
        <time>2021-01-27T13:13:50Z</time>
      </trkpt>
      <trkpt lat="39.897431" lon="116.635414">
        <time>2021-01-27T13:13:55Z</time>
      </trkpt>
      <trkpt lat="39.897525" lon="116.635354">
        <time>2021-01-27T13:14:00Z</time>
      </trkpt>
      <trkpt lat="39.89759" lon="116.63532">
        <time>2021-01-27T13:14:05Z</time>
      </trkpt>
      <trkpt lat="39.897702" lon="116.635221">
        <time>2021-01-27T13:14:10Z</time>
      </trkpt>
      <trkpt lat="39.897827" lon="116.635125">
        <time>2021-01-27T13:14:15Z</time>
      </trkpt>
      <trkpt lat="39.897946" lon="116.635053">
        <time>2021-01-27T13:14:20Z</time>
      </trkpt>
      <trkpt lat="39.898048" lon="116.634988">
        <time>2021-01-27T13:14:25Z</time>
      </trkpt>
      <trkpt lat="39.898178" lon="116.634895">
        <time>2021-01-27T13:14:30Z</time>
      </trkpt>
      <trkpt lat="39.898311" lon="116.634809">
        <time>2021-01-27T13:14:35Z</time>
      </trkpt>
      <trkpt lat="39.898429" lon="116.634748">
        <time>2021-01-27T13:14:40Z</time>
      </trkpt>
      <trkpt lat="39.898547" lon="116.63468">
        <time>2021-01-27T13:14:45Z</time>
      </trkpt>
      <trkpt lat="39.898688" lon="116.634596">
        <time>2021-01-27T13:14:50Z</time>
      </trkpt>
      <trkpt lat="39.898811" lon="116.634526">
        <time>2021-01-27T13:14:55Z</time>
      </trkpt>
      <trkpt lat="39.898913" lon="116.634474">
        <time>2021-01-27T13:15:00Z</time>
      </trkpt>
      <trkpt lat="39.899029" lon="116.634379">
        <time>2021-01-27T13:15:05Z</time>
      </trkpt>
      <trkpt lat="39.899162" lon="116.63428">
        <time>2021-01-27T13:15:10Z</time>
      </trkpt>
      <trkpt lat="39.899285" lon="116.634185">
        <time>2021-01-27T13:15:15Z</time>
      </trkpt>
      <trkpt lat="39.899397" lon="116.634105">
        <time>2021-01-27T13:15:20Z</time>
      </trkpt>
      <trkpt lat="39.899494" lon="116.634036">
        <time>2021-01-27T13:15:25Z</time>
      </trkpt>
      <trkpt lat="39.899592" lon="116.633943">
        <time>2021-01-27T13:15:30Z</time>
      </trkpt>
      <trkpt lat="39.899694" lon="116.633892">
        <time>2021-01-27T13:15:35Z</time>
      </trkpt>
      <trkpt lat="39.899813" lon="116.633859">
        <time>2021-01-27T13:15:40Z</time>
      </trkpt>
      <trkpt lat="39.899927" lon="116.633811">
        <time>2021-01-27T13:15:45Z</time>
      </trkpt>
      <trkpt lat="39.900054" lon="116.633733">
        <time>2021-01-27T13:15:50Z</time>
      </trkpt>
      <trkpt lat="39.900148" lon="116.633633">
        <time>2021-01-27T13:15:55Z</time>
      </trkpt>
      <trkpt lat="39.90028" lon="116.63355">
        <time>2021-01-27T13:16:00Z</time>
      </trkpt>
      <trkpt lat="39.900398" lon="116.633469">
        <time>2021-01-27T13:16:05Z</time>
      </trkpt>
      <trkpt lat="39.900514" lon="116.633368">
        <time>2021-01-27T13:16:10Z</time>
      </trkpt>
      <trkpt lat="39.900632" lon="116.633281">
        <time>2021-01-27T13:16:15Z</time>
      </trkpt>
      <trkpt lat="39.900736" lon="116.63323">
        <time>2021-01-27T13:16:20Z</time>
      </trkpt>
      <trkpt lat="39.900846" lon="116.633193">
        <time>2021-01-27T13:16:25Z</time>
      </trkpt>
      <trkpt lat="39.90093" lon="116.633133">
        <time>2021-01-27T13:16:30Z</time>
      </trkpt>
      <trkpt lat="39.901014" lon="116.633214">
        <time>2021-01-27T13:16:35Z</time>
      </trkpt>
      <trkpt lat="39.901016" lon="116.633391">
        <time>2021-01-27T13:16:40Z</time>
      </trkpt>
      <trkpt lat="39.901004" lon="116.63358">
        <time>2021-01-27T13:16:45Z</time>
      </trkpt>
      <trkpt lat="39.900975" lon="116.633763">
        <time>2021-01-27T13:16:50Z</time>
      </trkpt>
      <trkpt lat="39.900982" lon="116.633943">
        <time>2021-01-27T13:16:55Z</time>
      </trkpt>
      <trkpt lat="39.900951" lon="116.634084">
        <time>2021-01-27T13:17:00Z</time>
      </trkpt>
      <trkpt lat="39.900937" lon="116.634215">
        <time>2021-01-27T13:17:05Z</time>
      </trkpt>
      <trkpt lat="39.900924" lon="116.634391">
        <time>2021-01-27T13:17:10Z</time>
      </trkpt>
      <trkpt lat="39.900887" lon="116.634527">
        <time>2021-01-27T13:17:15Z</time>
      </trkpt>
      <trkpt lat="39.900881" lon="116.634676">
        <time>2021-01-27T13:17:20Z</time>
      </trkpt>
      <trkpt lat="39.900849" lon="116.634804">
        <time>2021-01-27T13:17:25Z</time>
      </trkpt>
      <trkpt lat="39.900847" lon="116.634934">
        <time>2021-01-27T13:17:30Z</time>
      </trkpt>
      <trkpt lat="39.90082" lon="116.634891">
        <time>2021-01-27T13:17:35Z</time>
      </trkpt>
      <trkpt lat="39.900836" lon="116.634734">
        <time>2021-01-27T13:17:40Z</time>
      </trkpt>
      <trkpt lat="39.900876" lon="116.634582">
        <time>2021-01-27T13:17:45Z</time>
      </trkpt>
      <trkpt lat="39.900858" lon="116.634374">
        <time>2021-01-27T13:17:50Z</time>
      </trkpt>
      <trkpt lat="39.90088" lon="116.634183">
        <time>2021-01-27T13:17:55Z</time>
      </trkpt>
      <trkpt lat="39.900876" lon="116.634015">
        <time>2021-01-27T13:18:00Z</time>
      </trkpt>
      <trkpt lat="39.900891" lon="116.633842">
        <time>2021-01-27T13:18:05Z</time>
      </trkpt>
      <trkpt lat="39.90094" lon="116.633636">
        <time>2021-01-27T13:18:10Z</time>
      </trkpt>
      <trkpt lat="39.90098" lon="116.633475">
        <time>2021-01-27T13:18:15Z</time>
      </trkpt>
      <trkpt lat="39.901006" lon="116.633303">
        <time>2021-01-27T13:18:20Z</time>
      </trkpt>
      <trkpt lat="39.900958" lon="116.633154">
        <time>2021-01-27T13:18:25Z</time>
      </trkpt>
      <trkpt lat="39.900914" lon="116.633027">
        <time>2021-01-27T13:18:30Z</time>
      </trkpt>
      <trkpt lat="39.900866" lon="116.632874">
        <time>2021-01-27T13:18:35Z</time>
      </trkpt>
      <trkpt lat="39.900779" lon="116.632786">
        <time>2021-01-27T13:18:40Z</time>
      </trkpt>
      <trkpt lat="39.900658" lon="116.632842">
        <time>2021-01-27T13:18:45Z</time>
      </trkpt>
      <trkpt lat="39.900533" lon="116.632964">
        <time>2021-01-27T13:18:50Z</time>
      </trkpt>
      <trkpt lat="39.900413" lon="116.633098">
        <time>2021-01-27T13:18:55Z</time>
      </trkpt>
      <trkpt lat="39.900305" lon="116.633236">
        <time>2021-01-27T13:19:00Z</time>
      </trkpt>
      <trkpt lat="39.900185" lon="116.63333">
        <time>2021-01-27T13:19:05Z</time>
      </trkpt>
      <trkpt lat="39.900071" lon="116.633386">
        <time>2021-01-27T13:19:10Z</time>
      </trkpt>
      <trkpt lat="39.899952" lon="116.63344">
        <time>2021-01-27T13:19:15Z</time>
      </trkpt>
      <trkpt lat="39.899831" lon="116.633552">
        <time>2021-01-27T13:19:20Z</time>
      </trkpt>
      <trkpt lat="39.899707" lon="116.633615">
        <time>2021-01-27T13:19:25Z</time>
      </trkpt>
      <trkpt lat="39.899516" lon="116.63371">
        <time>2021-01-27T13:19:30Z</time>
      </trkpt>
      <trkpt lat="39.899463" lon="116.633753">
        <time>2021-01-27T13:19:35Z</time>
      </trkpt>
      <trkpt lat="39.89933" lon="116.633848">
        <time>2021-01-27T13:19:40Z</time>
      </trkpt>
      <trkpt lat="39.899203" lon="116.633923">
        <time>2021-01-27T13:19:45Z</time>
      </trkpt>
      <trkpt lat="39.899084" lon="116.633978">
        <time>2021-01-27T13:19:50Z</time>
      </trkpt>
      <trkpt lat="39.898957" lon="116.634073">
        <time>2021-01-27T13:19:55Z</time>
      </trkpt>
      <trkpt lat="39.898847" lon="116.63413">
        <time>2021-01-27T13:20:00Z</time>
      </trkpt>
      <trkpt lat="39.898721" lon="116.634232">
        <time>2021-01-27T13:20:05Z</time>
      </trkpt>
      <trkpt lat="39.898555" lon="116.63436">
        <time>2021-01-27T13:20:10Z</time>
      </trkpt>
      <trkpt lat="39.898481" lon="116.634406">
        <time>2021-01-27T13:20:15Z</time>
      </trkpt>
      <trkpt lat="39.898365" lon="116.634509">
        <time>2021-01-27T13:20:20Z</time>
      </trkpt>
      <trkpt lat="39.898255" lon="116.634589">
        <time>2021-01-27T13:20:25Z</time>
      </trkpt>
      <trkpt lat="39.898135" lon="116.634671">
        <time>2021-01-27T13:20:30Z</time>
      </trkpt>
      <trkpt lat="39.898022" lon="116.634652">
        <time>2021-01-27T13:20:35Z</time>
      </trkpt>
      <trkpt lat="39.897971" lon="116.634469">
        <time>2021-01-27T13:20:40Z</time>
      </trkpt>
      <trkpt lat="39.897912" lon="116.634306">
        <time>2021-01-27T13:20:45Z</time>
      </trkpt>
      <trkpt lat="39.897848" lon="116.634184">
        <time>2021-01-27T13:20:50Z</time>
      </trkpt>
      <trkpt lat="39.897778" lon="116.634113">
        <time>2021-01-27T13:20:55Z</time>
      </trkpt>
      <trkpt lat="39.897742" lon="116.634037">
        <time>2021-01-27T13:21:00Z</time>
      </trkpt>
      <trkpt lat="39.897683" lon="116.633957">
        <time>2021-01-27T13:21:05Z</time>
      </trkpt>
      <trkpt lat="39.897643" lon="116.633871">
        <time>2021-01-27T13:21:10Z</time>
      </trkpt>
      <trkpt lat="39.897599" lon="116.633802">
        <time>2021-01-27T13:21:15Z</time>
      </trkpt>
      <trkpt lat="39.897547" lon="116.633728">
        <time>2021-01-27T13:21:20Z</time>
      </trkpt>
      <trkpt lat="39.897518" lon="116.633644">
        <time>2021-01-27T13:21:25Z</time>
      </trkpt>
      <trkpt lat="39.897458" lon="116.633675">
        <time>2021-01-27T13:21:30Z</time>
      </trkpt>
      <trkpt lat="39.897418" lon="116.633727">
        <time>2021-01-27T13:21:35Z</time>
      </trkpt>
      <trkpt lat="39.897381" lon="116.633791">
        <time>2021-01-27T13:21:40Z</time>
      </trkpt>
      <trkpt lat="39.89733" lon="116.633833">
        <time>2021-01-27T13:21:45Z</time>
      </trkpt>
      <trkpt lat="39.897314" lon="116.633889">
        <time>2021-01-27T13:21:50Z</time>
      </trkpt>
      <trkpt lat="39.897348" lon="116.633897">
        <time>2021-01-27T13:21:55Z</time>
      </trkpt>
      <trkpt lat="39.897389" lon="116.633932">
        <time>2021-01-27T13:22:00Z</time>
      </trkpt>
      <trkpt lat="39.897397" lon="116.634019">
        <time>2021-01-27T13:22:16Z</time>
      </trkpt>
    </trkseg>
  </trk>
</gpx>