<?xml version="1.0" encoding="UTF-8"?>
<gpx xmlns="http://www.topografix.com/GPX/1/1" xmlns:gpxtpx="http://www.garmin.com/xmlschemas/TrackPointExtension/v1" xmlns:xsi="http://www.w3.org/2001/XMLSchema-instance" xsi:schemaLocation="http://www.topografix.com/GPX/1/1 http://www.topografix.com/GPX/1/1/gpx.xsd" version="1.1" creator="gpx.py -- https://github.com/tkrajina/gpxpy">
  <trk>
    <name>gpx from keep</name>
    <trkseg>
      <trkpt lat="39.898107" lon="116.634654">
        <time>2021-01-30T11:13:45Z</time>
      </trkpt>
      <trkpt lat="39.898107" lon="116.634654">
        <time>2021-01-30T11:13:50Z</time>
      </trkpt>
      <trkpt lat="39.898119" lon="116.634671">
        <time>2021-01-30T11:13:55Z</time>
      </trkpt>
      <trkpt lat="39.898121" lon="116.634685">
        <time>2021-01-30T11:14:00Z</time>
      </trkpt>
      <trkpt lat="39.898127" lon="116.634695">
        <time>2021-01-30T11:14:05Z</time>
      </trkpt>
      <trkpt lat="39.898125" lon="116.634699">
        <time>2021-01-30T11:14:10Z</time>
      </trkpt>
      <trkpt lat="39.898116" lon="116.634715">
        <time>2021-01-30T11:14:15Z</time>
      </trkpt>
      <trkpt lat="39.898125" lon="116.634739">
        <time>2021-01-30T11:14:20Z</time>
      </trkpt>
      <trkpt lat="39.898127" lon="116.634762">
        <time>2021-01-30T11:14:25Z</time>
      </trkpt>
      <trkpt lat="39.898124" lon="116.634786">
        <time>2021-01-30T11:14:30Z</time>
      </trkpt>
      <trkpt lat="39.898121" lon="116.63481">
        <time>2021-01-30T11:14:35Z</time>
      </trkpt>
      <trkpt lat="39.898112" lon="116.634794">
        <time>2021-01-30T11:14:40Z</time>
      </trkpt>
      <trkpt lat="39.898103" lon="116.634778">
        <time>2021-01-30T11:14:45Z</time>
      </trkpt>
      <trkpt lat="39.898099" lon="116.634808">
        <time>2021-01-30T11:14:50Z</time>
      </trkpt>
      <trkpt lat="39.898182" lon="116.634976">
        <time>2021-01-30T11:14:55Z</time>
      </trkpt>
      <trkpt lat="39.898173" lon="116.635163">
        <time>2021-01-30T11:15:00Z</time>
      </trkpt>
      <trkpt lat="39.898019" lon="116.63523">
        <time>2021-01-30T11:15:05Z</time>
      </trkpt>
      <trkpt lat="39.89787" lon="116.635317">
        <time>2021-01-30T11:15:10Z</time>
      </trkpt>
      <trkpt lat="39.897735" lon="116.635371">
        <time>2021-01-30T11:15:15Z</time>
      </trkpt>
      <trkpt lat="39.897608" lon="116.635382">
        <time>2021-01-30T11:15:20Z</time>
      </trkpt>
      <trkpt lat="39.897487" lon="116.635463">
        <time>2021-01-30T11:15:25Z</time>
      </trkpt>
      <trkpt lat="39.897385" lon="116.635518">
        <time>2021-01-30T11:15:30Z</time>
      </trkpt>
      <trkpt lat="39.897331" lon="116.635565">
        <time>2021-01-30T11:15:35Z</time>
      </trkpt>
      <trkpt lat="39.897221" lon="116.635657">
        <time>2021-01-30T11:15:40Z</time>
      </trkpt>
      <trkpt lat="39.897078" lon="116.635755">
        <time>2021-01-30T11:15:45Z</time>
      </trkpt>
      <trkpt lat="39.896915" lon="116.635824">
        <time>2021-01-30T11:15:50Z</time>
      </trkpt>
      <trkpt lat="39.896771" lon="116.635919">
        <time>2021-01-30T11:15:55Z</time>
      </trkpt>
      <trkpt lat="39.896645" lon="116.636001">
        <time>2021-01-30T11:16:00Z</time>
      </trkpt>
      <trkpt lat="39.896531" lon="116.636077">
        <time>2021-01-30T11:16:05Z</time>
      </trkpt>
      <trkpt lat="39.896456" lon="116.636154">
        <time>2021-01-30T11:16:10Z</time>
      </trkpt>
      <trkpt lat="39.896418" lon="116.636145">
        <time>2021-01-30T11:16:15Z</time>
      </trkpt>
      <trkpt lat="39.896355" lon="116.636171">
        <time>2021-01-30T11:16:20Z</time>
      </trkpt>
      <trkpt lat="39.896274" lon="116.636216">
        <time>2021-01-30T11:16:25Z</time>
      </trkpt>
      <trkpt lat="39.896209" lon="116.63633">
        <time>2021-01-30T11:16:30Z</time>
      </trkpt>
      <trkpt lat="39.896163" lon="116.636383">
        <time>2021-01-30T11:16:35Z</time>
      </trkpt>
      <trkpt lat="39.896148" lon="116.636398">
        <time>2021-01-30T11:16:40Z</time>
      </trkpt>
      <trkpt lat="39.89614" lon="116.636415">
        <time>2021-01-30T11:16:45Z</time>
      </trkpt>
      <trkpt lat="39.896136" lon="116.63643">
        <time>2021-01-30T11:16:50Z</time>
      </trkpt>
      <trkpt lat="39.896137" lon="116.63646">
        <time>2021-01-30T11:16:55Z</time>
      </trkpt>
      <trkpt lat="39.896141" lon="116.636513">
        <time>2021-01-30T11:17:00Z</time>
      </trkpt>
      <trkpt lat="39.896143" lon="116.636529">
        <time>2021-01-30T11:17:05Z</time>
      </trkpt>
      <trkpt lat="39.896149" lon="116.636532">
        <time>2021-01-30T11:17:10Z</time>
      </trkpt>
      <trkpt lat="39.896152" lon="116.63653">
        <time>2021-01-30T11:17:15Z</time>
      </trkpt>
      <trkpt lat="39.896161" lon="116.63653">
        <time>2021-01-30T11:17:20Z</time>
      </trkpt>
      <trkpt lat="39.896163" lon="116.63652">
        <time>2021-01-30T11:17:25Z</time>
      </trkpt>
      <trkpt lat="39.896149" lon="116.636527">
        <time>2021-01-30T11:17:30Z</time>
      </trkpt>
      <trkpt lat="39.896138" lon="116.636521">
        <time>2021-01-30T11:17:35Z</time>
      </trkpt>
      <trkpt lat="39.896123" lon="116.636484">
        <time>2021-01-30T11:17:40Z</time>
      </trkpt>
      <trkpt lat="39.896124" lon="116.636477">
        <time>2021-01-30T11:17:45Z</time>
      </trkpt>
      <trkpt lat="39.896117" lon="116.636456">
        <time>2021-01-30T11:17:50Z</time>
      </trkpt>
      <trkpt lat="39.896124" lon="116.63644">
        <time>2021-01-30T11:17:55Z</time>
      </trkpt>
      <trkpt lat="39.89612" lon="116.636458">
        <time>2021-01-30T11:18:00Z</time>
      </trkpt>
      <trkpt lat="39.896118" lon="116.636487">
        <time>2021-01-30T11:18:05Z</time>
      </trkpt>
      <trkpt lat="39.896105" lon="116.636495">
        <time>2021-01-30T11:18:10Z</time>
      </trkpt>
      <trkpt lat="39.896102" lon="116.636542">
        <time>2021-01-30T11:18:15Z</time>
      </trkpt>
      <trkpt lat="39.896095" lon="116.636576">
        <time>2021-01-30T11:18:20Z</time>
      </trkpt>
      <trkpt lat="39.896073" lon="116.636595">
        <time>2021-01-30T11:18:25Z</time>
      </trkpt>
      <trkpt lat="39.896049" lon="116.636622">
        <time>2021-01-30T11:18:30Z</time>
      </trkpt>
      <trkpt lat="39.89603" lon="116.636652">
        <time>2021-01-30T11:18:35Z</time>
      </trkpt>
      <trkpt lat="39.895985" lon="116.636717">
        <time>2021-01-30T11:18:40Z</time>
      </trkpt>
      <trkpt lat="39.896025" lon="116.636802">
        <time>2021-01-30T11:18:45Z</time>
      </trkpt>
      <trkpt lat="39.896092" lon="116.637008">
        <time>2021-01-30T11:18:50Z</time>
      </trkpt>
      <trkpt lat="39.896107" lon="116.637156">
        <time>2021-01-30T11:18:55Z</time>
      </trkpt>
      <trkpt lat="39.89612" lon="116.637338">
        <time>2021-01-30T11:19:00Z</time>
      </trkpt>
      <trkpt lat="39.896143" lon="116.637512">
        <time>2021-01-30T11:19:05Z</time>
      </trkpt>
      <trkpt lat="39.896173" lon="116.637675">
        <time>2021-01-30T11:19:10Z</time>
      </trkpt>
      <trkpt lat="39.896187" lon="116.637827">
        <time>2021-01-30T11:19:15Z</time>
      </trkpt>
      <trkpt lat="39.896196" lon="116.637983">
        <time>2021-01-30T11:19:20Z</time>
      </trkpt>
      <trkpt lat="39.896203" lon="116.638162">
        <time>2021-01-30T11:19:25Z</time>
      </trkpt>
      <trkpt lat="39.896211" lon="116.638332">
        <time>2021-01-30T11:19:30Z</time>
      </trkpt>
      <trkpt lat="39.896225" lon="116.638527">
        <time>2021-01-30T11:19:35Z</time>
      </trkpt>
      <trkpt lat="39.896236" lon="116.638716">
        <time>2021-01-30T11:19:40Z</time>
      </trkpt>
      <trkpt lat="39.896247" lon="116.638887">
        <time>2021-01-30T11:19:45Z</time>
      </trkpt>
      <trkpt lat="39.896241" lon="116.639046">
        <time>2021-01-30T11:19:50Z</time>
      </trkpt>
      <trkpt lat="39.896238" lon="116.63921">
        <time>2021-01-30T11:19:55Z</time>
      </trkpt>
      <trkpt lat="39.896253" lon="116.639399">
        <time>2021-01-30T11:20:00Z</time>
      </trkpt>
      <trkpt lat="39.896252" lon="116.639573">
        <time>2021-01-30T11:20:05Z</time>
      </trkpt>
      <trkpt lat="39.896247" lon="116.639737">
        <time>2021-01-30T11:20:10Z</time>
      </trkpt>
      <trkpt lat="39.896276" lon="116.639899">
        <time>2021-01-30T11:20:15Z</time>
      </trkpt>
      <trkpt lat="39.89628" lon="116.640054">
        <time>2021-01-30T11:20:20Z</time>
      </trkpt>
      <trkpt lat="39.896295" lon="116.640209">
        <time>2021-01-30T11:20:25Z</time>
      </trkpt>
      <trkpt lat="39.896301" lon="116.640376">
        <time>2021-01-30T11:20:30Z</time>
      </trkpt>
      <trkpt lat="39.896308" lon="116.640524">
        <time>2021-01-30T11:20:35Z</time>
      </trkpt>
      <trkpt lat="39.896285" lon="116.640664">
        <time>2021-01-30T11:20:40Z</time>
      </trkpt>
      <trkpt lat="39.896271" lon="116.640813">
        <time>2021-01-30T11:20:45Z</time>
      </trkpt>
      <trkpt lat="39.896259" lon="116.640949">
        <time>2021-01-30T11:20:50Z</time>
      </trkpt>
      <trkpt lat="39.896251" lon="116.641132">
        <time>2021-01-30T11:20:55Z</time>
      </trkpt>
      <trkpt lat="39.896242" lon="116.641298">
        <time>2021-01-30T11:21:00Z</time>
      </trkpt>
      <trkpt lat="39.896253" lon="116.641426">
        <time>2021-01-30T11:21:05Z</time>
      </trkpt>
      <trkpt lat="39.896242" lon="116.641539">
        <time>2021-01-30T11:21:10Z</time>
      </trkpt>
      <trkpt lat="39.896252" lon="116.641689">
        <time>2021-01-30T11:21:15Z</time>
      </trkpt>
      <trkpt lat="39.896274" lon="116.641867">
        <time>2021-01-30T11:21:20Z</time>
      </trkpt>
      <trkpt lat="39.896261" lon="116.642035">
        <time>2021-01-30T11:21:25Z</time>
      </trkpt>
      <trkpt lat="39.896248" lon="116.64218">
        <time>2021-01-30T11:21:30Z</time>
      </trkpt>
      <trkpt lat="39.896239" lon="116.642345">
        <time>2021-01-30T11:21:35Z</time>
      </trkpt>
      <trkpt lat="39.89623" lon="116.642468">
        <time>2021-01-30T11:21:40Z</time>
      </trkpt>
      <trkpt lat="39.8962" lon="116.642644">
        <time>2021-01-30T11:21:45Z</time>
      </trkpt>
      <trkpt lat="39.896209" lon="116.642773">
        <time>2021-01-30T11:21:50Z</time>
      </trkpt>
      <trkpt lat="39.896209" lon="116.642909">
        <time>2021-01-30T11:21:55Z</time>
      </trkpt>
      <trkpt lat="39.896203" lon="116.643046">
        <time>2021-01-30T11:22:00Z</time>
      </trkpt>
      <trkpt lat="39.896186" lon="116.643194">
        <time>2021-01-30T11:22:05Z</time>
      </trkpt>
      <trkpt lat="39.896173" lon="116.64336">
        <time>2021-01-30T11:22:10Z</time>
      </trkpt>
      <trkpt lat="39.896171" lon="116.643523">
        <time>2021-01-30T11:22:15Z</time>
      </trkpt>
      <trkpt lat="39.896211" lon="116.64367">
        <time>2021-01-30T11:22:20Z</time>
      </trkpt>
      <trkpt lat="39.896209" lon="116.64386">
        <time>2021-01-30T11:22:25Z</time>
      </trkpt>
      <trkpt lat="39.896201" lon="116.643957">
        <time>2021-01-30T11:22:30Z</time>
      </trkpt>
      <trkpt lat="39.896211" lon="116.644101">
        <time>2021-01-30T11:22:35Z</time>
      </trkpt>
      <trkpt lat="39.896196" lon="116.644266">
        <time>2021-01-30T11:22:40Z</time>
      </trkpt>
      <trkpt lat="39.896199" lon="116.644415">
        <time>2021-01-30T11:22:45Z</time>
      </trkpt>
      <trkpt lat="39.896199" lon="116.64454">
        <time>2021-01-30T11:22:50Z</time>
      </trkpt>
      <trkpt lat="39.896204" lon="116.644672">
        <time>2021-01-30T11:22:55Z</time>
      </trkpt>
      <trkpt lat="39.896194" lon="116.64484">
        <time>2021-01-30T11:23:00Z</time>
      </trkpt>
      <trkpt lat="39.896194" lon="116.645013">
        <time>2021-01-30T11:23:05Z</time>
      </trkpt>
      <trkpt lat="39.896207" lon="116.645167">
        <time>2021-01-30T11:23:10Z</time>
      </trkpt>
      <trkpt lat="39.896207" lon="116.645301">
        <time>2021-01-30T11:23:15Z</time>
      </trkpt>
      <trkpt lat="39.896204" lon="116.645402">
        <time>2021-01-30T11:23:20Z</time>
      </trkpt>
      <trkpt lat="39.896206" lon="116.64557">
        <time>2021-01-30T11:23:25Z</time>
      </trkpt>
      <trkpt lat="39.896188" lon="116.64572">
        <time>2021-01-30T11:23:30Z</time>
      </trkpt>
      <trkpt lat="39.896148" lon="116.645879">
        <time>2021-01-30T11:23:35Z</time>
      </trkpt>
      <trkpt lat="39.896131" lon="116.646044">
        <time>2021-01-30T11:23:40Z</time>
      </trkpt>
      <trkpt lat="39.896099" lon="116.646207">
        <time>2021-01-30T11:23:45Z</time>
      </trkpt>
      <trkpt lat="39.896078" lon="116.646351">
        <time>2021-01-30T11:23:50Z</time>
      </trkpt>
      <trkpt lat="39.896065" lon="116.646483">
        <time>2021-01-30T11:23:55Z</time>
      </trkpt>
      <trkpt lat="39.896028" lon="116.646617">
        <time>2021-01-30T11:24:00Z</time>
      </trkpt>
      <trkpt lat="39.896028" lon="116.646756">
        <time>2021-01-30T11:24:05Z</time>
      </trkpt>
      <trkpt lat="39.895968" lon="116.646842">
        <time>2021-01-30T11:24:10Z</time>
      </trkpt>
      <trkpt lat="39.895853" lon="116.646881">
        <time>2021-01-30T11:24:15Z</time>
      </trkpt>
      <trkpt lat="39.895734" lon="116.646804">
        <time>2021-01-30T11:24:20Z</time>
      </trkpt>
      <trkpt lat="39.895616" lon="116.646748">
        <time>2021-01-30T11:24:25Z</time>
      </trkpt>
      <trkpt lat="39.895524" lon="116.646697">
        <time>2021-01-30T11:24:30Z</time>
      </trkpt>
      <trkpt lat="39.895436" lon="116.646634">
        <time>2021-01-30T11:24:35Z</time>
      </trkpt>
      <trkpt lat="39.895334" lon="116.646548">
        <time>2021-01-30T11:24:40Z</time>
      </trkpt>
      <trkpt lat="39.895212" lon="116.646497">
        <time>2021-01-30T11:24:45Z</time>
      </trkpt>
      <trkpt lat="39.895104" lon="116.646428">
        <time>2021-01-30T11:24:50Z</time>
      </trkpt>
      <trkpt lat="39.894915" lon="116.646348">
        <time>2021-01-30T11:24:55Z</time>
      </trkpt>
      <trkpt lat="39.894897" lon="116.646342">
        <time>2021-01-30T11:25:00Z</time>
      </trkpt>
      <trkpt lat="39.894816" lon="116.646291">
        <time>2021-01-30T11:25:05Z</time>
      </trkpt>
      <trkpt lat="39.894729" lon="116.646215">
        <time>2021-01-30T11:25:10Z</time>
      </trkpt>
      <trkpt lat="39.8946" lon="116.64617">
        <time>2021-01-30T11:25:15Z</time>
      </trkpt>
      <trkpt lat="39.894465" lon="116.646104">
        <time>2021-01-30T11:25:20Z</time>
      </trkpt>
      <trkpt lat="39.894426" lon="116.646079">
        <time>2021-01-30T11:25:25Z</time>
      </trkpt>
      <trkpt lat="39.894311" lon="116.646036">
        <time>2021-01-30T11:25:30Z</time>
      </trkpt>
      <trkpt lat="39.894144" lon="116.645926">
        <time>2021-01-30T11:25:35Z</time>
      </trkpt>
      <trkpt lat="39.894132" lon="116.645915">
        <time>2021-01-30T11:25:40Z</time>
      </trkpt>
      <trkpt lat="39.894005" lon="116.645942">
        <time>2021-01-30T11:25:45Z</time>
      </trkpt>
      <trkpt lat="39.893916" lon="116.646026">
        <time>2021-01-30T11:25:50Z</time>
      </trkpt>
      <trkpt lat="39.893845" lon="116.646139">
        <time>2021-01-30T11:25:55Z</time>
      </trkpt>
      <trkpt lat="39.893767" lon="116.646252">
        <time>2021-01-30T11:26:00Z</time>
      </trkpt>
      <trkpt lat="39.893591" lon="116.646423">
        <time>2021-01-30T11:26:05Z</time>
      </trkpt>
      <trkpt lat="39.893568" lon="116.646412">
        <time>2021-01-30T11:26:10Z</time>
      </trkpt>
      <trkpt lat="39.893409" lon="116.646273">
        <time>2021-01-30T11:26:15Z</time>
      </trkpt>
      <trkpt lat="39.893352" lon="116.646234">
        <time>2021-01-30T11:26:20Z</time>
      </trkpt>
      <trkpt lat="39.893257" lon="116.646182">
        <time>2021-01-30T11:26:25Z</time>
      </trkpt>
      <trkpt lat="39.893184" lon="116.646117">
        <time>2021-01-30T11:26:30Z</time>
      </trkpt>
      <trkpt lat="39.893031" lon="116.646078">
        <time>2021-01-30T11:26:35Z</time>
      </trkpt>
      <trkpt lat="39.892902" lon="116.646021">
        <time>2021-01-30T11:26:40Z</time>
      </trkpt>
      <trkpt lat="39.892784" lon="116.645964">
        <time>2021-01-30T11:26:45Z</time>
      </trkpt>
      <trkpt lat="39.892697" lon="116.645922">
        <time>2021-01-30T11:26:50Z</time>
      </trkpt>
      <trkpt lat="39.892592" lon="116.645897">
        <time>2021-01-30T11:26:55Z</time>
      </trkpt>
      <trkpt lat="39.892483" lon="116.645846">
        <time>2021-01-30T11:27:00Z</time>
      </trkpt>
      <trkpt lat="39.892367" lon="116.645782">
        <time>2021-01-30T11:27:05Z</time>
      </trkpt>
      <trkpt lat="39.892207" lon="116.645663">
        <time>2021-01-30T11:27:10Z</time>
      </trkpt>
      <trkpt lat="39.892137" lon="116.645628">
        <time>2021-01-30T11:27:15Z</time>
      </trkpt>
      <trkpt lat="39.892009" lon="116.645561">
        <time>2021-01-30T11:27:20Z</time>
      </trkpt>
      <trkpt lat="39.891885" lon="116.645505">
        <time>2021-01-30T11:27:25Z</time>
      </trkpt>
      <trkpt lat="39.891766" lon="116.645492">
        <time>2021-01-30T11:27:30Z</time>
      </trkpt>
      <trkpt lat="39.891675" lon="116.645446">
        <time>2021-01-30T11:27:35Z</time>
      </trkpt>
      <trkpt lat="39.891561" lon="116.645356">
        <time>2021-01-30T11:27:40Z</time>
      </trkpt>
      <trkpt lat="39.891525" lon="116.64534">
        <time>2021-01-30T11:27:45Z</time>
      </trkpt>
      <trkpt lat="39.891548" lon="116.645411">
        <time>2021-01-30T11:27:50Z</time>
      </trkpt>
      <trkpt lat="39.891662" lon="116.645455">
        <time>2021-01-30T11:27:55Z</time>
      </trkpt>
      <trkpt lat="39.891783" lon="116.645514">
        <time>2021-01-30T11:28:00Z</time>
      </trkpt>
      <trkpt lat="39.891924" lon="116.645545">
        <time>2021-01-30T11:28:05Z</time>
      </trkpt>
      <trkpt lat="39.892036" lon="116.645579">
        <time>2021-01-30T11:28:10Z</time>
      </trkpt>
      <trkpt lat="39.892143" lon="116.645662">
        <time>2021-01-30T11:28:15Z</time>
      </trkpt>
      <trkpt lat="39.892305" lon="116.645705">
        <time>2021-01-30T11:28:20Z</time>
      </trkpt>
      <trkpt lat="39.892393" lon="116.645743">
        <time>2021-01-30T11:28:25Z</time>
      </trkpt>
      <trkpt lat="39.892494" lon="116.645801">
        <time>2021-01-30T11:28:30Z</time>
      </trkpt>
      <trkpt lat="39.892599" lon="116.645836">
        <time>2021-01-30T11:28:35Z</time>
      </trkpt>
      <trkpt lat="39.892724" lon="116.645902">
        <time>2021-01-30T11:28:40Z</time>
      </trkpt>
      <trkpt lat="39.892782" lon="116.645938">
        <time>2021-01-30T11:28:45Z</time>
      </trkpt>
      <trkpt lat="39.892893" lon="116.645974">
        <time>2021-01-30T11:28:50Z</time>
      </trkpt>
      <trkpt lat="39.892993" lon="116.646018">
        <time>2021-01-30T11:28:55Z</time>
      </trkpt>
      <trkpt lat="39.893105" lon="116.646081">
        <time>2021-01-30T11:29:00Z</time>
      </trkpt>
      <trkpt lat="39.89318" lon="116.646153">
        <time>2021-01-30T11:29:05Z</time>
      </trkpt>
      <trkpt lat="39.893265" lon="116.646184">
        <time>2021-01-30T11:29:10Z</time>
      </trkpt>
      <trkpt lat="39.893377" lon="116.646246">
        <time>2021-01-30T11:29:15Z</time>
      </trkpt>
      <trkpt lat="39.893534" lon="116.64635">
        <time>2021-01-30T11:29:20Z</time>
      </trkpt>
      <trkpt lat="39.893582" lon="116.646377">
        <time>2021-01-30T11:29:25Z</time>
      </trkpt>
      <trkpt lat="39.893702" lon="116.646368">
        <time>2021-01-30T11:29:30Z</time>
      </trkpt>
      <trkpt lat="39.893777" lon="116.646264">
        <time>2021-01-30T11:29:35Z</time>
      </trkpt>
      <trkpt lat="39.893848" lon="116.646185">
        <time>2021-01-30T11:29:40Z</time>
      </trkpt>
      <trkpt lat="39.893915" lon="116.646088">
        <time>2021-01-30T11:29:45Z</time>
      </trkpt>
      <trkpt lat="39.893986" lon="116.64594">
        <time>2021-01-30T11:29:50Z</time>
      </trkpt>
      <trkpt lat="39.894095" lon="116.645945">
        <time>2021-01-30T11:29:55Z</time>
      </trkpt>
      <trkpt lat="39.894282" lon="116.646052">
        <time>2021-01-30T11:30:00Z</time>
      </trkpt>
      <trkpt lat="39.894332" lon="116.646066">
        <time>2021-01-30T11:30:05Z</time>
      </trkpt>
      <trkpt lat="39.894432" lon="116.646129">
        <time>2021-01-30T11:30:10Z</time>
      </trkpt>
      <trkpt lat="39.894553" lon="116.646189">
        <time>2021-01-30T11:30:15Z</time>
      </trkpt>
      <trkpt lat="39.894677" lon="116.646247">
        <time>2021-01-30T11:30:20Z</time>
      </trkpt>
      <trkpt lat="39.894776" lon="116.646311">
        <time>2021-01-30T11:30:25Z</time>
      </trkpt>
      <trkpt lat="39.894882" lon="116.646381">
        <time>2021-01-30T11:30:30Z</time>
      </trkpt>
      <trkpt lat="39.895009" lon="116.646427">
        <time>2021-01-30T11:30:35Z</time>
      </trkpt>
      <trkpt lat="39.895139" lon="116.646474">
        <time>2021-01-30T11:30:40Z</time>
      </trkpt>
      <trkpt lat="39.895256" lon="116.646541">
        <time>2021-01-30T11:30:45Z</time>
      </trkpt>
      <trkpt lat="39.89532" lon="116.646583">
        <time>2021-01-30T11:30:50Z</time>
      </trkpt>
      <trkpt lat="39.895442" lon="116.646651">
        <time>2021-01-30T11:30:55Z</time>
      </trkpt>
      <trkpt lat="39.895508" lon="116.646665">
        <time>2021-01-30T11:31:00Z</time>
      </trkpt>
      <trkpt lat="39.895589" lon="116.646705">
        <time>2021-01-30T11:31:05Z</time>
      </trkpt>
      <trkpt lat="39.895706" lon="116.646756">
        <time>2021-01-30T11:31:10Z</time>
      </trkpt>
      <trkpt lat="39.895804" lon="116.646818">
        <time>2021-01-30T11:31:15Z</time>
      </trkpt>
      <trkpt lat="39.895926" lon="116.646887">
        <time>2021-01-30T11:31:20Z</time>
      </trkpt>
      <trkpt lat="39.896023" lon="116.646833">
        <time>2021-01-30T11:31:25Z</time>
      </trkpt>
      <trkpt lat="39.896061" lon="116.646695">
        <time>2021-01-30T11:31:30Z</time>
      </trkpt>
      <trkpt lat="39.896051" lon="116.646508">
        <time>2021-01-30T11:31:35Z</time>
      </trkpt>
      <trkpt lat="39.896042" lon="116.646337">
        <time>2021-01-30T11:31:40Z</time>
      </trkpt>
      <trkpt lat="39.896057" lon="116.646196">
        <time>2021-01-30T11:31:45Z</time>
      </trkpt>
      <trkpt lat="39.896054" lon="116.646059">
        <time>2021-01-30T11:31:50Z</time>
      </trkpt>
      <trkpt lat="39.896067" lon="116.645904">
        <time>2021-01-30T11:31:55Z</time>
      </trkpt>
      <trkpt lat="39.896078" lon="116.645745">
        <time>2021-01-30T11:32:00Z</time>
      </trkpt>
      <trkpt lat="39.896112" lon="116.645589">
        <time>2021-01-30T11:32:05Z</time>
      </trkpt>
      <trkpt lat="39.896156" lon="116.645452">
        <time>2021-01-30T11:32:10Z</time>
      </trkpt>
      <trkpt lat="39.896164" lon="116.645336">
        <time>2021-01-30T11:32:15Z</time>
      </trkpt>
      <trkpt lat="39.896148" lon="116.645167">
        <time>2021-01-30T11:32:20Z</time>
      </trkpt>
      <trkpt lat="39.896173" lon="116.645015">
        <time>2021-01-30T11:32:25Z</time>
      </trkpt>
      <trkpt lat="39.896174" lon="116.644869">
        <time>2021-01-30T11:32:30Z</time>
      </trkpt>
      <trkpt lat="39.896163" lon="116.644705">
        <time>2021-01-30T11:32:35Z</time>
      </trkpt>
      <trkpt lat="39.896174" lon="116.644573">
        <time>2021-01-30T11:32:40Z</time>
      </trkpt>
      <trkpt lat="39.896185" lon="116.644441">
        <time>2021-01-30T11:32:45Z</time>
      </trkpt>
      <trkpt lat="39.896165" lon="116.644296">
        <time>2021-01-30T11:32:50Z</time>
      </trkpt>
      <trkpt lat="39.896171" lon="116.644178">
        <time>2021-01-30T11:32:55Z</time>
      </trkpt>
      <trkpt lat="39.896161" lon="116.644023">
        <time>2021-01-30T11:33:00Z</time>
      </trkpt>
      <trkpt lat="39.896179" lon="116.643879">
        <time>2021-01-30T11:33:05Z</time>
      </trkpt>
      <trkpt lat="39.896213" lon="116.64376">
        <time>2021-01-30T11:33:10Z</time>
      </trkpt>
      <trkpt lat="39.896205" lon="116.643589">
        <time>2021-01-30T11:33:15Z</time>
      </trkpt>
      <trkpt lat="39.896208" lon="116.643402">
        <time>2021-01-30T11:33:20Z</time>
      </trkpt>
      <trkpt lat="39.896195" lon="116.643278">
        <time>2021-01-30T11:33:25Z</time>
      </trkpt>
      <trkpt lat="39.896194" lon="116.643133">
        <time>2021-01-30T11:33:30Z</time>
      </trkpt>
      <trkpt lat="39.896197" lon="116.642989">
        <time>2021-01-30T11:33:35Z</time>
      </trkpt>
      <trkpt lat="39.896195" lon="116.642855">
        <time>2021-01-30T11:33:40Z</time>
      </trkpt>
      <trkpt lat="39.89619" lon="116.642646">
        <time>2021-01-30T11:33:45Z</time>
      </trkpt>
      <trkpt lat="39.89619" lon="116.64258">
        <time>2021-01-30T11:33:50Z</time>
      </trkpt>
      <trkpt lat="39.896186" lon="116.642442">
        <time>2021-01-30T11:33:55Z</time>
      </trkpt>
      <trkpt lat="39.896185" lon="116.642294">
        <time>2021-01-30T11:34:00Z</time>
      </trkpt>
      <trkpt lat="39.896202" lon="116.642136">
        <time>2021-01-30T11:34:05Z</time>
      </trkpt>
      <trkpt lat="39.89622" lon="116.641994">
        <time>2021-01-30T11:34:10Z</time>
      </trkpt>
      <trkpt lat="39.896219" lon="116.641851">
        <time>2021-01-30T11:34:15Z</time>
      </trkpt>
      <trkpt lat="39.896198" lon="116.641601">
        <time>2021-01-30T11:34:20Z</time>
      </trkpt>
      <trkpt lat="39.896197" lon="116.641581">
        <time>2021-01-30T11:34:25Z</time>
      </trkpt>
      <trkpt lat="39.896206" lon="116.641439">
        <time>2021-01-30T11:34:30Z</time>
      </trkpt>
      <trkpt lat="39.896196" lon="116.641283">
        <time>2021-01-30T11:34:35Z</time>
      </trkpt>
      <trkpt lat="39.896194" lon="116.641133">
        <time>2021-01-30T11:34:40Z</time>
      </trkpt>
      <trkpt lat="39.896217" lon="116.640978">
        <time>2021-01-30T11:34:45Z</time>
      </trkpt>
      <trkpt lat="39.89621" lon="116.640829">
        <time>2021-01-30T11:34:50Z</time>
      </trkpt>
      <trkpt lat="39.896191" lon="116.64071">
        <time>2021-01-30T11:34:55Z</time>
      </trkpt>
      <trkpt lat="39.896199" lon="116.640556">
        <time>2021-01-30T11:35:00Z</time>
      </trkpt>
      <trkpt lat="39.896218" lon="116.640398">
        <time>2021-01-30T11:35:05Z</time>
      </trkpt>
      <trkpt lat="39.896221" lon="116.640263">
        <time>2021-01-30T11:35:10Z</time>
      </trkpt>
      <trkpt lat="39.896224" lon="116.640115">
        <time>2021-01-30T11:35:15Z</time>
      </trkpt>
      <trkpt lat="39.896241" lon="116.63998">
        <time>2021-01-30T11:35:20Z</time>
      </trkpt>
      <trkpt lat="39.896242" lon="116.639847">
        <time>2021-01-30T11:35:25Z</time>
      </trkpt>
      <trkpt lat="39.896244" lon="116.639713">
        <time>2021-01-30T11:35:30Z</time>
      </trkpt>
      <trkpt lat="39.896203" lon="116.639528">
        <time>2021-01-30T11:35:35Z</time>
      </trkpt>
      <trkpt lat="39.896191" lon="116.639351">
        <time>2021-01-30T11:35:40Z</time>
      </trkpt>
      <trkpt lat="39.896187" lon="116.639199">
        <time>2021-01-30T11:35:45Z</time>
      </trkpt>
      <trkpt lat="39.896177" lon="116.638996">
        <time>2021-01-30T11:35:50Z</time>
      </trkpt>
      <trkpt lat="39.896155" lon="116.638861">
        <time>2021-01-30T11:35:55Z</time>
      </trkpt>
      <trkpt lat="39.896139" lon="116.638702">
        <time>2021-01-30T11:36:00Z</time>
      </trkpt>
      <trkpt lat="39.896126" lon="116.638535">
        <time>2021-01-30T11:36:05Z</time>
      </trkpt>
      <trkpt lat="39.896127" lon="116.638422">
        <time>2021-01-30T11:36:10Z</time>
      </trkpt>
      <trkpt lat="39.896106" lon="116.638231">
        <time>2021-01-30T11:36:15Z</time>
      </trkpt>
      <trkpt lat="39.896113" lon="116.638076">
        <time>2021-01-30T11:36:20Z</time>
      </trkpt>
      <trkpt lat="39.896096" lon="116.637913">
        <time>2021-01-30T11:36:25Z</time>
      </trkpt>
      <trkpt lat="39.896089" lon="116.63775">
        <time>2021-01-30T11:36:30Z</time>
      </trkpt>
      <trkpt lat="39.896099" lon="116.637563">
        <time>2021-01-30T11:36:35Z</time>
      </trkpt>
      <trkpt lat="39.896088" lon="116.637423">
        <time>2021-01-30T11:36:40Z</time>
      </trkpt>
      <trkpt lat="39.896093" lon="116.637281">
        <time>2021-01-30T11:36:45Z</time>
      </trkpt>
      <trkpt lat="39.896083" lon="116.637084">
        <time>2021-01-30T11:36:50Z</time>
      </trkpt>
      <trkpt lat="39.896081" lon="116.636924">
        <time>2021-01-30T11:36:55Z</time>
      </trkpt>
      <trkpt lat="39.896047" lon="116.636793">
        <time>2021-01-30T11:37:00Z</time>
      </trkpt>
      <trkpt lat="39.895981" lon="116.636676">
        <time>2021-01-30T11:37:05Z</time>
      </trkpt>
      <trkpt lat="39.895946" lon="116.636636">
        <time>2021-01-30T11:37:10Z</time>
      </trkpt>
      <trkpt lat="39.896025" lon="116.636829">
        <time>2021-01-30T11:37:15Z</time>
      </trkpt>
      <trkpt lat="39.896082" lon="116.636964">
        <time>2021-01-30T11:37:20Z</time>
      </trkpt>
      <trkpt lat="39.896097" lon="116.637171">
        <time>2021-01-30T11:37:25Z</time>
      </trkpt>
      <trkpt lat="39.89612" lon="116.637312">
        <time>2021-01-30T11:37:30Z</time>
      </trkpt>
      <trkpt lat="39.896148" lon="116.637482">
        <time>2021-01-30T11:37:35Z</time>
      </trkpt>
      <trkpt lat="39.896173" lon="116.637683">
        <time>2021-01-30T11:37:40Z</time>
      </trkpt>
      <trkpt lat="39.896175" lon="116.637813">
        <time>2021-01-30T11:37:45Z</time>
      </trkpt>
      <trkpt lat="39.896179" lon="116.63801">
        <time>2021-01-30T11:37:50Z</time>
      </trkpt>
      <trkpt lat="39.89616" lon="116.63814">
        <time>2021-01-30T11:37:55Z</time>
      </trkpt>
      <trkpt lat="39.896151" lon="116.638289">
        <time>2021-01-30T11:38:00Z</time>
      </trkpt>
      <trkpt lat="39.89616" lon="116.638434">
        <time>2021-01-30T11:38:05Z</time>
      </trkpt>
      <trkpt lat="39.896152" lon="116.638565">
        <time>2021-01-30T11:38:10Z</time>
      </trkpt>
      <trkpt lat="39.896162" lon="116.638755">
        <time>2021-01-30T11:38:15Z</time>
      </trkpt>
      <trkpt lat="39.896171" lon="116.638896">
        <time>2021-01-30T11:38:20Z</time>
      </trkpt>
      <trkpt lat="39.896174" lon="116.639042">
        <time>2021-01-30T11:38:25Z</time>
      </trkpt>
      <trkpt lat="39.896199" lon="116.639194">
        <time>2021-01-30T11:38:30Z</time>
      </trkpt>
      <trkpt lat="39.896214" lon="116.63932">
        <time>2021-01-30T11:38:35Z</time>
      </trkpt>
      <trkpt lat="39.896216" lon="116.639463">
        <time>2021-01-30T11:38:40Z</time>
      </trkpt>
      <trkpt lat="39.896229" lon="116.63964">
        <time>2021-01-30T11:38:45Z</time>
      </trkpt>
      <trkpt lat="39.896236" lon="116.639795">
        <time>2021-01-30T11:38:50Z</time>
      </trkpt>
      <trkpt lat="39.896251" lon="116.639921">
        <time>2021-01-30T11:38:55Z</time>
      </trkpt>
      <trkpt lat="39.896262" lon="116.640098">
        <time>2021-01-30T11:39:00Z</time>
      </trkpt>
      <trkpt lat="39.896272" lon="116.640196">
        <time>2021-01-30T11:39:05Z</time>
      </trkpt>
      <trkpt lat="39.896275" lon="116.64036">
        <time>2021-01-30T11:39:10Z</time>
      </trkpt>
      <trkpt lat="39.89628" lon="116.640515">
        <time>2021-01-30T11:39:15Z</time>
      </trkpt>
      <trkpt lat="39.896262" lon="116.640729">
        <time>2021-01-30T11:39:20Z</time>
      </trkpt>
      <trkpt lat="39.896273" lon="116.640955">
        <time>2021-01-30T11:39:25Z</time>
      </trkpt>
      <trkpt lat="39.896268" lon="116.641084">
        <time>2021-01-30T11:39:30Z</time>
      </trkpt>
      <trkpt lat="39.896258" lon="116.641221">
        <time>2021-01-30T11:39:35Z</time>
      </trkpt>
      <trkpt lat="39.89626" lon="116.641367">
        <time>2021-01-30T11:39:40Z</time>
      </trkpt>
      <trkpt lat="39.896259" lon="116.641518">
        <time>2021-01-30T11:39:45Z</time>
      </trkpt>
      <trkpt lat="39.896257" lon="116.641697">
        <time>2021-01-30T11:39:50Z</time>
      </trkpt>
      <trkpt lat="39.896246" lon="116.641866">
        <time>2021-01-30T11:39:55Z</time>
      </trkpt>
      <trkpt lat="39.896215" lon="116.642015">
        <time>2021-01-30T11:40:00Z</time>
      </trkpt>
      <trkpt lat="39.896196" lon="116.642168">
        <time>2021-01-30T11:40:05Z</time>
      </trkpt>
      <trkpt lat="39.896195" lon="116.64235">
        <time>2021-01-30T11:40:10Z</time>
      </trkpt>
      <trkpt lat="39.896199" lon="116.642507">
        <time>2021-01-30T11:40:15Z</time>
      </trkpt>
      <trkpt lat="39.89622" lon="116.642663">
        <time>2021-01-30T11:40:20Z</time>
      </trkpt>
      <trkpt lat="39.896216" lon="116.642848">
        <time>2021-01-30T11:40:25Z</time>
      </trkpt>
      <trkpt lat="39.896209" lon="116.642975">
        <time>2021-01-30T11:40:30Z</time>
      </trkpt>
      <trkpt lat="39.896203" lon="116.643112">
        <time>2021-01-30T11:40:35Z</time>
      </trkpt>
      <trkpt lat="39.89619" lon="116.643268">
        <time>2021-01-30T11:40:40Z</time>
      </trkpt>
      <trkpt lat="39.896193" lon="116.643429">
        <time>2021-01-30T11:40:45Z</time>
      </trkpt>
      <trkpt lat="39.8962" lon="116.64358">
        <time>2021-01-30T11:40:50Z</time>
      </trkpt>
      <trkpt lat="39.896214" lon="116.643746">
        <time>2021-01-30T11:40:55Z</time>
      </trkpt>
      <trkpt lat="39.89621" lon="116.643919">
        <time>2021-01-30T11:41:00Z</time>
      </trkpt>
      <trkpt lat="39.896218" lon="116.644074">
        <time>2021-01-30T11:41:05Z</time>
      </trkpt>
      <trkpt lat="39.89622" lon="116.644212">
        <time>2021-01-30T11:41:10Z</time>
      </trkpt>
      <trkpt lat="39.896199" lon="116.644362">
        <time>2021-01-30T11:41:15Z</time>
      </trkpt>
      <trkpt lat="39.89619" lon="116.644492">
        <time>2021-01-30T11:41:20Z</time>
      </trkpt>
      <trkpt lat="39.896196" lon="116.644618">
        <time>2021-01-30T11:41:25Z</time>
      </trkpt>
      <trkpt lat="39.896214" lon="116.644748">
        <time>2021-01-30T11:41:30Z</time>
      </trkpt>
      <trkpt lat="39.896194" lon="116.644868">
        <time>2021-01-30T11:41:35Z</time>
      </trkpt>
      <trkpt lat="39.896192" lon="116.645001">
        <time>2021-01-30T11:41:40Z</time>
      </trkpt>
      <trkpt lat="39.896198" lon="116.645137">
        <time>2021-01-30T11:41:45Z</time>
      </trkpt>
      <trkpt lat="39.896185" lon="116.645295">
        <time>2021-01-30T11:41:50Z</time>
      </trkpt>
      <trkpt lat="39.896213" lon="116.645435">
        <time>2021-01-30T11:41:55Z</time>
      </trkpt>
      <trkpt lat="39.896191" lon="116.645563">
        <time>2021-01-30T11:42:00Z</time>
      </trkpt>
      <trkpt lat="39.896158" lon="116.645718">
        <time>2021-01-30T11:42:05Z</time>
      </trkpt>
      <trkpt lat="39.89612" lon="116.645888">
        <time>2021-01-30T11:42:10Z</time>
      </trkpt>
      <trkpt lat="39.89607" lon="116.646063">
        <time>2021-01-30T11:42:15Z</time>
      </trkpt>
      <trkpt lat="39.896055" lon="116.64622">
        <time>2021-01-30T11:42:20Z</time>
      </trkpt>
      <trkpt lat="39.89604" lon="116.646324">
        <time>2021-01-30T11:42:25Z</time>
      </trkpt>
      <trkpt lat="39.896035" lon="116.646465">
        <time>2021-01-30T11:42:30Z</time>
      </trkpt>
      <trkpt lat="39.896027" lon="116.646611">
        <time>2021-01-30T11:42:35Z</time>
      </trkpt>
      <trkpt lat="39.896013" lon="116.64677">
        <time>2021-01-30T11:42:40Z</time>
      </trkpt>
      <trkpt lat="39.895881" lon="116.646815">
        <time>2021-01-30T11:42:45Z</time>
      </trkpt>
      <trkpt lat="39.895735" lon="116.64673">
        <time>2021-01-30T11:42:50Z</time>
      </trkpt>
      <trkpt lat="39.89562" lon="116.646664">
        <time>2021-01-30T11:42:55Z</time>
      </trkpt>
      <trkpt lat="39.895469" lon="116.646594">
        <time>2021-01-30T11:43:00Z</time>
      </trkpt>
      <trkpt lat="39.895376" lon="116.646551">
        <time>2021-01-30T11:43:05Z</time>
      </trkpt>
      <trkpt lat="39.895283" lon="116.646496">
        <time>2021-01-30T11:43:10Z</time>
      </trkpt>
      <trkpt lat="39.895168" lon="116.646461">
        <time>2021-01-30T11:43:15Z</time>
      </trkpt>
      <trkpt lat="39.895094" lon="116.646385">
        <time>2021-01-30T11:43:20Z</time>
      </trkpt>
      <trkpt lat="39.894949" lon="116.646306">
        <time>2021-01-30T11:43:25Z</time>
      </trkpt>
      <trkpt lat="39.894861" lon="116.646249">
        <time>2021-01-30T11:43:30Z</time>
      </trkpt>
      <trkpt lat="39.894705" lon="116.646165">
        <time>2021-01-30T11:43:35Z</time>
      </trkpt>
      <trkpt lat="39.894598" lon="116.646122">
        <time>2021-01-30T11:43:40Z</time>
      </trkpt>
      <trkpt lat="39.894468" lon="116.646071">
        <time>2021-01-30T11:43:45Z</time>
      </trkpt>
      <trkpt lat="39.894379" lon="116.646051">
        <time>2021-01-30T11:43:50Z</time>
      </trkpt>
      <trkpt lat="39.894248" lon="116.645999">
        <time>2021-01-30T11:43:55Z</time>
      </trkpt>
      <trkpt lat="39.894143" lon="116.645931">
        <time>2021-01-30T11:44:00Z</time>
      </trkpt>
      <trkpt lat="39.89404" lon="116.645892">
        <time>2021-01-30T11:44:05Z</time>
      </trkpt>
      <trkpt lat="39.89395" lon="116.64592">
        <time>2021-01-30T11:44:10Z</time>
      </trkpt>
      <trkpt lat="39.893862" lon="116.646063">
        <time>2021-01-30T11:44:15Z</time>
      </trkpt>
      <trkpt lat="39.893777" lon="116.64618">
        <time>2021-01-30T11:44:20Z</time>
      </trkpt>
      <trkpt lat="39.893591" lon="116.646338">
        <time>2021-01-30T11:44:25Z</time>
      </trkpt>
      <trkpt lat="39.893569" lon="116.646315">
        <time>2021-01-30T11:44:30Z</time>
      </trkpt>
      <trkpt lat="39.893437" lon="116.646217">
        <time>2021-01-30T11:44:35Z</time>
      </trkpt>
      <trkpt lat="39.893299" lon="116.646204">
        <time>2021-01-30T11:44:40Z</time>
      </trkpt>
      <trkpt lat="39.893173" lon="116.646139">
        <time>2021-01-30T11:44:45Z</time>
      </trkpt>
      <trkpt lat="39.893051" lon="116.646095">
        <time>2021-01-30T11:44:50Z</time>
      </trkpt>
      <trkpt lat="39.892946" lon="116.64603">
        <time>2021-01-30T11:44:55Z</time>
      </trkpt>
      <trkpt lat="39.892879" lon="116.645976">
        <time>2021-01-30T11:45:00Z</time>
      </trkpt>
      <trkpt lat="39.892802" lon="116.645957">
        <time>2021-01-30T11:45:05Z</time>
      </trkpt>
      <trkpt lat="39.892672" lon="116.64593">
        <time>2021-01-30T11:45:10Z</time>
      </trkpt>
      <trkpt lat="39.892575" lon="116.645871">
        <time>2021-01-30T11:45:15Z</time>
      </trkpt>
      <trkpt lat="39.892452" lon="116.645804">
        <time>2021-01-30T11:45:20Z</time>
      </trkpt>
      <trkpt lat="39.892323" lon="116.645728">
        <time>2021-01-30T11:45:25Z</time>
      </trkpt>
      <trkpt lat="39.892181" lon="116.645667">
        <time>2021-01-30T11:45:30Z</time>
      </trkpt>
      <trkpt lat="39.892071" lon="116.645587">
        <time>2021-01-30T11:45:35Z</time>
      </trkpt>
      <trkpt lat="39.891959" lon="116.645507">
        <time>2021-01-30T11:45:40Z</time>
      </trkpt>
      <trkpt lat="39.891818" lon="116.645458">
        <time>2021-01-30T11:45:45Z</time>
      </trkpt>
      <trkpt lat="39.891691" lon="116.645383">
        <time>2021-01-30T11:45:50Z</time>
      </trkpt>
      <trkpt lat="39.891563" lon="116.645311">
        <time>2021-01-30T11:45:55Z</time>
      </trkpt>
      <trkpt lat="39.891537" lon="116.645374">
        <time>2021-01-30T11:46:00Z</time>
      </trkpt>
      <trkpt lat="39.891614" lon="116.645439">
        <time>2021-01-30T11:46:05Z</time>
      </trkpt>
      <trkpt lat="39.891711" lon="116.645443">
        <time>2021-01-30T11:46:10Z</time>
      </trkpt>
      <trkpt lat="39.891783" lon="116.645471">
        <time>2021-01-30T11:46:15Z</time>
      </trkpt>
      <trkpt lat="39.891869" lon="116.645508">
        <time>2021-01-30T11:46:20Z</time>
      </trkpt>
      <trkpt lat="39.891973" lon="116.64554">
        <time>2021-01-30T11:46:25Z</time>
      </trkpt>
      <trkpt lat="39.892068" lon="116.645577">
        <time>2021-01-30T11:46:30Z</time>
      </trkpt>
      <trkpt lat="39.892173" lon="116.645637">
        <time>2021-01-30T11:46:35Z</time>
      </trkpt>
      <trkpt lat="39.892293" lon="116.645683">
        <time>2021-01-30T11:46:40Z</time>
      </trkpt>
      <trkpt lat="39.892416" lon="116.645735">
        <time>2021-01-30T11:46:45Z</time>
      </trkpt>
      <trkpt lat="39.892538" lon="116.645791">
        <time>2021-01-30T11:46:50Z</time>
      </trkpt>
      <trkpt lat="39.892644" lon="116.645868">
        <time>2021-01-30T11:46:55Z</time>
      </trkpt>
      <trkpt lat="39.892767" lon="116.645919">
        <time>2021-01-30T11:47:00Z</time>
      </trkpt>
      <trkpt lat="39.892885" lon="116.645966">
        <time>2021-01-30T11:47:05Z</time>
      </trkpt>
      <trkpt lat="39.893006" lon="116.646028">
        <time>2021-01-30T11:47:10Z</time>
      </trkpt>
      <trkpt lat="39.893084" lon="116.646085">
        <time>2021-01-30T11:47:15Z</time>
      </trkpt>
      <trkpt lat="39.893239" lon="116.646179">
        <time>2021-01-30T11:47:20Z</time>
      </trkpt>
      <trkpt lat="39.893312" lon="116.646199">
        <time>2021-01-30T11:47:25Z</time>
      </trkpt>
      <trkpt lat="39.893447" lon="116.646289">
        <time>2021-01-30T11:47:30Z</time>
      </trkpt>
      <trkpt lat="39.893548" lon="116.646354">
        <time>2021-01-30T11:47:35Z</time>
      </trkpt>
      <trkpt lat="39.89368" lon="116.646381">
        <time>2021-01-30T11:47:40Z</time>
      </trkpt>
      <trkpt lat="39.893834" lon="116.646141">
        <time>2021-01-30T11:47:45Z</time>
      </trkpt>
      <trkpt lat="39.893852" lon="116.646109">
        <time>2021-01-30T11:47:50Z</time>
      </trkpt>
      <trkpt lat="39.893944" lon="116.645969">
        <time>2021-01-30T11:47:55Z</time>
      </trkpt>
      <trkpt lat="39.894033" lon="116.645891">
        <time>2021-01-30T11:48:00Z</time>
      </trkpt>
      <trkpt lat="39.89417" lon="116.645968">
        <time>2021-01-30T11:48:05Z</time>
      </trkpt>
      <trkpt lat="39.894296" lon="116.646044">
        <time>2021-01-30T11:48:10Z</time>
      </trkpt>
      <trkpt lat="39.894435" lon="116.646122">
        <time>2021-01-30T11:48:15Z</time>
      </trkpt>
      <trkpt lat="39.894573" lon="116.646214">
        <time>2021-01-30T11:48:20Z</time>
      </trkpt>
      <trkpt lat="39.894698" lon="116.646279">
        <time>2021-01-30T11:48:25Z</time>
      </trkpt>
      <trkpt lat="39.894834" lon="116.646332">
        <time>2021-01-30T11:48:30Z</time>
      </trkpt>
      <trkpt lat="39.894975" lon="116.646397">
        <time>2021-01-30T11:48:35Z</time>
      </trkpt>
      <trkpt lat="39.89509" lon="116.64643">
        <time>2021-01-30T11:48:40Z</time>
      </trkpt>
      <trkpt lat="39.89523" lon="116.646477">
        <time>2021-01-30T11:48:45Z</time>
      </trkpt>
      <trkpt lat="39.895445" lon="116.646542">
        <time>2021-01-30T11:48:50Z</time>
      </trkpt>
      <trkpt lat="39.895468" lon="116.646554">
        <time>2021-01-30T11:48:55Z</time>
      </trkpt>
      <trkpt lat="39.895598" lon="116.646604">
        <time>2021-01-30T11:49:00Z</time>
      </trkpt>
      <trkpt lat="39.895692" lon="116.646652">
        <time>2021-01-30T11:49:05Z</time>
      </trkpt>
      <trkpt lat="39.89576" lon="116.646707">
        <time>2021-01-30T11:49:10Z</time>
      </trkpt>
      <trkpt lat="39.895829" lon="116.646725">
        <time>2021-01-30T11:49:15Z</time>
      </trkpt>
      <trkpt lat="39.895886" lon="116.646778">
        <time>2021-01-30T11:49:20Z</time>
      </trkpt>
      <trkpt lat="39.895958" lon="116.646806">
        <time>2021-01-30T11:49:25Z</time>
      </trkpt>
      <trkpt lat="39.896048" lon="116.646785">
        <time>2021-01-30T11:49:30Z</time>
      </trkpt>
      <trkpt lat="39.89607" lon="116.64662">
        <time>2021-01-30T11:49:35Z</time>
      </trkpt>
      <trkpt lat="39.896075" lon="116.646475">
        <time>2021-01-30T11:49:40Z</time>
      </trkpt>
      <trkpt lat="39.896079" lon="116.646306">
        <time>2021-01-30T11:49:45Z</time>
      </trkpt>
      <trkpt lat="39.896088" lon="116.646151">
        <time>2021-01-30T11:49:50Z</time>
      </trkpt>
      <trkpt lat="39.896086" lon="116.646033">
        <time>2021-01-30T11:49:55Z</time>
      </trkpt>
      <trkpt lat="39.896083" lon="116.645947">
        <time>2021-01-30T11:50:00Z</time>
      </trkpt>
      <trkpt lat="39.896087" lon="116.645836">
        <time>2021-01-30T11:50:05Z</time>
      </trkpt>
      <trkpt lat="39.896085" lon="116.645736">
        <time>2021-01-30T11:50:10Z</time>
      </trkpt>
      <trkpt lat="39.896092" lon="116.645609">
        <time>2021-01-30T11:50:15Z</time>
      </trkpt>
      <trkpt lat="39.896136" lon="116.64548">
        <time>2021-01-30T11:50:20Z</time>
      </trkpt>
      <trkpt lat="39.896152" lon="116.645304">
        <time>2021-01-30T11:50:25Z</time>
      </trkpt>
      <trkpt lat="39.896151" lon="116.645154">
        <time>2021-01-30T11:50:30Z</time>
      </trkpt>
      <trkpt lat="39.896162" lon="116.644974">
        <time>2021-01-30T11:50:35Z</time>
      </trkpt>
      <trkpt lat="39.896179" lon="116.644824">
        <time>2021-01-30T11:50:40Z</time>
      </trkpt>
      <trkpt lat="39.896181" lon="116.644655">
        <time>2021-01-30T11:50:45Z</time>
      </trkpt>
      <trkpt lat="39.896196" lon="116.644511">
        <time>2021-01-30T11:50:50Z</time>
      </trkpt>
      <trkpt lat="39.8962" lon="116.644369">
        <time>2021-01-30T11:50:55Z</time>
      </trkpt>
      <trkpt lat="39.896204" lon="116.644209">
        <time>2021-01-30T11:51:00Z</time>
      </trkpt>
      <trkpt lat="39.896197" lon="116.644045">
        <time>2021-01-30T11:51:05Z</time>
      </trkpt>
      <trkpt lat="39.896199" lon="116.643898">
        <time>2021-01-30T11:51:10Z</time>
      </trkpt>
      <trkpt lat="39.896174" lon="116.643726">
        <time>2021-01-30T11:51:15Z</time>
      </trkpt>
      <trkpt lat="39.896171" lon="116.643557">
        <time>2021-01-30T11:51:20Z</time>
      </trkpt>
      <trkpt lat="39.89618" lon="116.643367">
        <time>2021-01-30T11:51:25Z</time>
      </trkpt>
      <trkpt lat="39.896191" lon="116.643243">
        <time>2021-01-30T11:51:30Z</time>
      </trkpt>
      <trkpt lat="39.896197" lon="116.643109">
        <time>2021-01-30T11:51:35Z</time>
      </trkpt>
      <trkpt lat="39.896185" lon="116.64295">
        <time>2021-01-30T11:51:40Z</time>
      </trkpt>
      <trkpt lat="39.896213" lon="116.64276">
        <time>2021-01-30T11:51:45Z</time>
      </trkpt>
      <trkpt lat="39.896211" lon="116.642608">
        <time>2021-01-30T11:51:50Z</time>
      </trkpt>
      <trkpt lat="39.896222" lon="116.642451">
        <time>2021-01-30T11:51:55Z</time>
      </trkpt>
      <trkpt lat="39.896214" lon="116.642305">
        <time>2021-01-30T11:52:00Z</time>
      </trkpt>
      <trkpt lat="39.896222" lon="116.642197">
        <time>2021-01-30T11:52:05Z</time>
      </trkpt>
      <trkpt lat="39.896231" lon="116.642107">
        <time>2021-01-30T11:52:10Z</time>
      </trkpt>
      <trkpt lat="39.89625" lon="116.641988">
        <time>2021-01-30T11:52:15Z</time>
      </trkpt>
      <trkpt lat="39.896243" lon="116.641881">
        <time>2021-01-30T11:52:20Z</time>
      </trkpt>
      <trkpt lat="39.89623" lon="116.641682">
        <time>2021-01-30T11:52:25Z</time>
      </trkpt>
      <trkpt lat="39.896232" lon="116.641554">
        <time>2021-01-30T11:52:30Z</time>
      </trkpt>
      <trkpt lat="39.896213" lon="116.641384">
        <time>2021-01-30T11:52:35Z</time>
      </trkpt>
      <trkpt lat="39.896219" lon="116.641234">
        <time>2021-01-30T11:52:40Z</time>
      </trkpt>
      <trkpt lat="39.896254" lon="116.641058">
        <time>2021-01-30T11:52:45Z</time>
      </trkpt>
      <trkpt lat="39.89626" lon="116.640883">
        <time>2021-01-30T11:52:50Z</time>
      </trkpt>
      <trkpt lat="39.896278" lon="116.640744">
        <time>2021-01-30T11:52:55Z</time>
      </trkpt>
      <trkpt lat="39.896276" lon="116.640563">
        <time>2021-01-30T11:53:00Z</time>
      </trkpt>
      <trkpt lat="39.896291" lon="116.640379">
        <time>2021-01-30T11:53:05Z</time>
      </trkpt>
      <trkpt lat="39.896301" lon="116.640219">
        <time>2021-01-30T11:53:10Z</time>
      </trkpt>
      <trkpt lat="39.896291" lon="116.640029">
        <time>2021-01-30T11:53:15Z</time>
      </trkpt>
      <trkpt lat="39.896287" lon="116.639862">
        <time>2021-01-30T11:53:20Z</time>
      </trkpt>
      <trkpt lat="39.896274" lon="116.639692">
        <time>2021-01-30T11:53:25Z</time>
      </trkpt>
      <trkpt lat="39.896256" lon="116.639533">
        <time>2021-01-30T11:53:30Z</time>
      </trkpt>
      <trkpt lat="39.896241" lon="116.639378">
        <time>2021-01-30T11:53:35Z</time>
      </trkpt>
      <trkpt lat="39.896224" lon="116.639243">
        <time>2021-01-30T11:53:40Z</time>
      </trkpt>
      <trkpt lat="39.896197" lon="116.639038">
        <time>2021-01-30T11:53:45Z</time>
      </trkpt>
      <trkpt lat="39.89618" lon="116.638879">
        <time>2021-01-30T11:53:50Z</time>
      </trkpt>
      <trkpt lat="39.896165" lon="116.638733">
        <time>2021-01-30T11:53:55Z</time>
      </trkpt>
      <trkpt lat="39.896147" lon="116.638598">
        <time>2021-01-30T11:54:00Z</time>
      </trkpt>
      <trkpt lat="39.896138" lon="116.638513">
        <time>2021-01-30T11:54:05Z</time>
      </trkpt>
      <trkpt lat="39.896128" lon="116.638437">
        <time>2021-01-30T11:54:10Z</time>
      </trkpt>
      <trkpt lat="39.896112" lon="116.638337">
        <time>2021-01-30T11:54:15Z</time>
      </trkpt>
      <trkpt lat="39.896125" lon="116.638247">
        <time>2021-01-30T11:54:20Z</time>
      </trkpt>
      <trkpt lat="39.896134" lon="116.638131">
        <time>2021-01-30T11:54:25Z</time>
      </trkpt>
      <trkpt lat="39.896135" lon="116.637995">
        <time>2021-01-30T11:54:30Z</time>
      </trkpt>
      <trkpt lat="39.89613" lon="116.637898">
        <time>2021-01-30T11:54:35Z</time>
      </trkpt>
      <trkpt lat="39.89614" lon="116.637729">
        <time>2021-01-30T11:54:40Z</time>
      </trkpt>
      <trkpt lat="39.896132" lon="116.637581">
        <time>2021-01-30T11:54:45Z</time>
      </trkpt>
      <trkpt lat="39.896137" lon="116.637415">
        <time>2021-01-30T11:54:50Z</time>
      </trkpt>
      <trkpt lat="39.896128" lon="116.637309">
        <time>2021-01-30T11:54:55Z</time>
      </trkpt>
      <trkpt lat="39.896135" lon="116.637143">
        <time>2021-01-30T11:55:00Z</time>
      </trkpt>
      <trkpt lat="39.89612" lon="116.636946">
        <time>2021-01-30T11:55:05Z</time>
      </trkpt>
      <trkpt lat="39.896108" lon="116.636829">
        <time>2021-01-30T11:55:10Z</time>
      </trkpt>
      <trkpt lat="39.896085" lon="116.636696">
        <time>2021-01-30T11:55:15Z</time>
      </trkpt>
      <trkpt lat="39.896014" lon="116.636655">
        <time>2021-01-30T11:55:20Z</time>
      </trkpt>
      <trkpt lat="39.896045" lon="116.636807">
        <time>2021-01-30T11:55:25Z</time>
      </trkpt>
      <trkpt lat="39.89612" lon="116.63702">
        <time>2021-01-30T11:55:30Z</time>
      </trkpt>
      <trkpt lat="39.896149" lon="116.637157">
        <time>2021-01-30T11:55:35Z</time>
      </trkpt>
      <trkpt lat="39.896193" lon="116.637327">
        <time>2021-01-30T11:55:40Z</time>
      </trkpt>
      <trkpt lat="39.896203" lon="116.637492">
        <time>2021-01-30T11:55:45Z</time>
      </trkpt>
      <trkpt lat="39.896205" lon="116.637667">
        <time>2021-01-30T11:55:50Z</time>
      </trkpt>
      <trkpt lat="39.896216" lon="116.637831">
        <time>2021-01-30T11:55:55Z</time>
      </trkpt>
      <trkpt lat="39.89622" lon="116.637982">
        <time>2021-01-30T11:56:00Z</time>
      </trkpt>
      <trkpt lat="39.896215" lon="116.63812">
        <time>2021-01-30T11:56:05Z</time>
      </trkpt>
      <trkpt lat="39.896205" lon="116.63826">
        <time>2021-01-30T11:56:10Z</time>
      </trkpt>
      <trkpt lat="39.896216" lon="116.638405">
        <time>2021-01-30T11:56:15Z</time>
      </trkpt>
      <trkpt lat="39.896249" lon="116.638562">
        <time>2021-01-30T11:56:20Z</time>
      </trkpt>
      <trkpt lat="39.896252" lon="116.638728">
        <time>2021-01-30T11:56:25Z</time>
      </trkpt>
      <trkpt lat="39.896251" lon="116.638893">
        <time>2021-01-30T11:56:30Z</time>
      </trkpt>
      <trkpt lat="39.896263" lon="116.639053">
        <time>2021-01-30T11:56:35Z</time>
      </trkpt>
      <trkpt lat="39.89627" lon="116.639213">
        <time>2021-01-30T11:56:40Z</time>
      </trkpt>
      <trkpt lat="39.896265" lon="116.639362">
        <time>2021-01-30T11:56:45Z</time>
      </trkpt>
      <trkpt lat="39.896266" lon="116.639533">
        <time>2021-01-30T11:56:50Z</time>
      </trkpt>
      <trkpt lat="39.896286" lon="116.6397">
        <time>2021-01-30T11:56:55Z</time>
      </trkpt>
      <trkpt lat="39.896285" lon="116.63987">
        <time>2021-01-30T11:57:00Z</time>
      </trkpt>
      <trkpt lat="39.896276" lon="116.640017">
        <time>2021-01-30T11:57:05Z</time>
      </trkpt>
      <trkpt lat="39.896263" lon="116.640174">
        <time>2021-01-30T11:57:10Z</time>
      </trkpt>
      <trkpt lat="39.896283" lon="116.640401">
        <time>2021-01-30T11:57:15Z</time>
      </trkpt>
      <trkpt lat="39.896286" lon="116.640555">
        <time>2021-01-30T11:57:20Z</time>
      </trkpt>
      <trkpt lat="39.896288" lon="116.640754">
        <time>2021-01-30T11:57:25Z</time>
      </trkpt>
      <trkpt lat="39.896251" lon="116.640923">
        <time>2021-01-30T11:57:30Z</time>
      </trkpt>
      <trkpt lat="39.896245" lon="116.641063">
        <time>2021-01-30T11:57:35Z</time>
      </trkpt>
      <trkpt lat="39.896248" lon="116.641193">
        <time>2021-01-30T11:57:40Z</time>
      </trkpt>
      <trkpt lat="39.896257" lon="116.64134">
        <time>2021-01-30T11:57:45Z</time>
      </trkpt>
      <trkpt lat="39.896257" lon="116.6415">
        <time>2021-01-30T11:57:50Z</time>
      </trkpt>
      <trkpt lat="39.896228" lon="116.641669">
        <time>2021-01-30T11:57:55Z</time>
      </trkpt>
      <trkpt lat="39.896236" lon="116.641798">
        <time>2021-01-30T11:58:00Z</time>
      </trkpt>
      <trkpt lat="39.896236" lon="116.642047">
        <time>2021-01-30T11:58:05Z</time>
      </trkpt>
      <trkpt lat="39.89623" lon="116.642104">
        <time>2021-01-30T11:58:10Z</time>
      </trkpt>
      <trkpt lat="39.896211" lon="116.642233">
        <time>2021-01-30T11:58:15Z</time>
      </trkpt>
      <trkpt lat="39.896206" lon="116.642382">
        <time>2021-01-30T11:58:20Z</time>
      </trkpt>
      <trkpt lat="39.89622" lon="116.642544">
        <time>2021-01-30T11:58:25Z</time>
      </trkpt>
      <trkpt lat="39.896232" lon="116.642722">
        <time>2021-01-30T11:58:30Z</time>
      </trkpt>
      <trkpt lat="39.896229" lon="116.642881">
        <time>2021-01-30T11:58:35Z</time>
      </trkpt>
      <trkpt lat="39.896204" lon="116.643045">
        <time>2021-01-30T11:58:40Z</time>
      </trkpt>
      <trkpt lat="39.896215" lon="116.643191">
        <time>2021-01-30T11:58:45Z</time>
      </trkpt>
      <trkpt lat="39.896204" lon="116.643336">
        <time>2021-01-30T11:58:50Z</time>
      </trkpt>
      <trkpt lat="39.896214" lon="116.64349">
        <time>2021-01-30T11:58:55Z</time>
      </trkpt>
      <trkpt lat="39.896236" lon="116.643683">
        <time>2021-01-30T11:59:00Z</time>
      </trkpt>
      <trkpt lat="39.896226" lon="116.64378">
        <time>2021-01-30T11:59:05Z</time>
      </trkpt>
      <trkpt lat="39.896227" lon="116.643979">
        <time>2021-01-30T11:59:10Z</time>
      </trkpt>
      <trkpt lat="39.896236" lon="116.64414">
        <time>2021-01-30T11:59:15Z</time>
      </trkpt>
      <trkpt lat="39.896237" lon="116.64429">
        <time>2021-01-30T11:59:20Z</time>
      </trkpt>
      <trkpt lat="39.896245" lon="116.644456">
        <time>2021-01-30T11:59:25Z</time>
      </trkpt>
      <trkpt lat="39.896235" lon="116.644609">
        <time>2021-01-30T11:59:30Z</time>
      </trkpt>
      <trkpt lat="39.896225" lon="116.644766">
        <time>2021-01-30T11:59:35Z</time>
      </trkpt>
      <trkpt lat="39.896214" lon="116.644934">
        <time>2021-01-30T11:59:40Z</time>
      </trkpt>
      <trkpt lat="39.896196" lon="116.645056">
        <time>2021-01-30T11:59:45Z</time>
      </trkpt>
      <trkpt lat="39.89621" lon="116.64519">
        <time>2021-01-30T11:59:50Z</time>
      </trkpt>
      <trkpt lat="39.896197" lon="116.645337">
        <time>2021-01-30T11:59:55Z</time>
      </trkpt>
      <trkpt lat="39.896141" lon="116.645514">
        <time>2021-01-30T12:00:00Z</time>
      </trkpt>
      <trkpt lat="39.896095" lon="116.645677">
        <time>2021-01-30T12:00:05Z</time>
      </trkpt>
      <trkpt lat="39.896069" lon="116.645861">
        <time>2021-01-30T12:00:10Z</time>
      </trkpt>
      <trkpt lat="39.896057" lon="116.646019">
        <time>2021-01-30T12:00:15Z</time>
      </trkpt>
      <trkpt lat="39.896046" lon="116.646159">
        <time>2021-01-30T12:00:20Z</time>
      </trkpt>
      <trkpt lat="39.896037" lon="116.646292">
        <time>2021-01-30T12:00:25Z</time>
      </trkpt>
      <trkpt lat="39.896039" lon="116.646523">
        <time>2021-01-30T12:00:30Z</time>
      </trkpt>
      <trkpt lat="39.896022" lon="116.64667">
        <time>2021-01-30T12:00:35Z</time>
      </trkpt>
      <trkpt lat="39.895946" lon="116.646746">
        <time>2021-01-30T12:00:40Z</time>
      </trkpt>
      <trkpt lat="39.895828" lon="116.646721">
        <time>2021-01-30T12:00:45Z</time>
      </trkpt>
      <trkpt lat="39.895716" lon="116.646677">
        <time>2021-01-30T12:00:50Z</time>
      </trkpt>
      <trkpt lat="39.895598" lon="116.646626">
        <time>2021-01-30T12:00:55Z</time>
      </trkpt>
      <trkpt lat="39.895451" lon="116.646567">
        <time>2021-01-30T12:01:00Z</time>
      </trkpt>
      <trkpt lat="39.895321" lon="116.646526">
        <time>2021-01-30T12:01:05Z</time>
      </trkpt>
      <trkpt lat="39.895199" lon="116.646474">
        <time>2021-01-30T12:01:10Z</time>
      </trkpt>
      <trkpt lat="39.895098" lon="116.646427">
        <time>2021-01-30T12:01:15Z</time>
      </trkpt>
      <trkpt lat="39.894881" lon="116.646348">
        <time>2021-01-30T12:01:20Z</time>
      </trkpt>
      <trkpt lat="39.894859" lon="116.646341">
        <time>2021-01-30T12:01:25Z</time>
      </trkpt>
      <trkpt lat="39.894736" lon="116.646297">
        <time>2021-01-30T12:01:30Z</time>
      </trkpt>
      <trkpt lat="39.894602" lon="116.646252">
        <time>2021-01-30T12:01:35Z</time>
      </trkpt>
      <trkpt lat="39.894442" lon="116.646165">
        <time>2021-01-30T12:01:40Z</time>
      </trkpt>
      <trkpt lat="39.894409" lon="116.646144">
        <time>2021-01-30T12:01:45Z</time>
      </trkpt>
      <trkpt lat="39.894351" lon="116.646093">
        <time>2021-01-30T12:01:50Z</time>
      </trkpt>
      <trkpt lat="39.894285" lon="116.64605">
        <time>2021-01-30T12:01:55Z</time>
      </trkpt>
      <trkpt lat="39.894207" lon="116.646002">
        <time>2021-01-30T12:02:00Z</time>
      </trkpt>
      <trkpt lat="39.894121" lon="116.645949">
        <time>2021-01-30T12:02:05Z</time>
      </trkpt>
      <trkpt lat="39.894036" lon="116.645897">
        <time>2021-01-30T12:02:10Z</time>
      </trkpt>
      <trkpt lat="39.893931" lon="116.645917">
        <time>2021-01-30T12:02:15Z</time>
      </trkpt>
      <trkpt lat="39.893855" lon="116.64602">
        <time>2021-01-30T12:02:20Z</time>
      </trkpt>
      <trkpt lat="39.893782" lon="116.646156">
        <time>2021-01-30T12:02:25Z</time>
      </trkpt>
      <trkpt lat="39.893712" lon="116.646281">
        <time>2021-01-30T12:02:30Z</time>
      </trkpt>
      <trkpt lat="39.893605" lon="116.646333">
        <time>2021-01-30T12:02:35Z</time>
      </trkpt>
      <trkpt lat="39.893488" lon="116.64629">
        <time>2021-01-30T12:02:40Z</time>
      </trkpt>
      <trkpt lat="39.893392" lon="116.646219">
        <time>2021-01-30T12:02:45Z</time>
      </trkpt>
      <trkpt lat="39.89325" lon="116.6462">
        <time>2021-01-30T12:02:50Z</time>
      </trkpt>
      <trkpt lat="39.893103" lon="116.646136">
        <time>2021-01-30T12:02:55Z</time>
      </trkpt>
      <trkpt lat="39.893005" lon="116.646036">
        <time>2021-01-30T12:03:00Z</time>
      </trkpt>
      <trkpt lat="39.892904" lon="116.64597">
        <time>2021-01-30T12:03:05Z</time>
      </trkpt>
      <trkpt lat="39.892741" lon="116.645905">
        <time>2021-01-30T12:03:10Z</time>
      </trkpt>
      <trkpt lat="39.892593" lon="116.645839">
        <time>2021-01-30T12:03:15Z</time>
      </trkpt>
      <trkpt lat="39.892459" lon="116.645753">
        <time>2021-01-30T12:03:20Z</time>
      </trkpt>
      <trkpt lat="39.892315" lon="116.645696">
        <time>2021-01-30T12:03:25Z</time>
      </trkpt>
      <trkpt lat="39.892178" lon="116.64561">
        <time>2021-01-30T12:03:30Z</time>
      </trkpt>
      <trkpt lat="39.892013" lon="116.645546">
        <time>2021-01-30T12:03:35Z</time>
      </trkpt>
      <trkpt lat="39.89192" lon="116.645505">
        <time>2021-01-30T12:03:40Z</time>
      </trkpt>
      <trkpt lat="39.891785" lon="116.64545">
        <time>2021-01-30T12:03:45Z</time>
      </trkpt>
      <trkpt lat="39.891656" lon="116.645354">
        <time>2021-01-30T12:03:50Z</time>
      </trkpt>
      <trkpt lat="39.891591" lon="116.64533">
        <time>2021-01-30T12:03:55Z</time>
      </trkpt>
      <trkpt lat="39.891589" lon="116.645395">
        <time>2021-01-30T12:04:00Z</time>
      </trkpt>
      <trkpt lat="39.891664" lon="116.645442">
        <time>2021-01-30T12:04:05Z</time>
      </trkpt>
      <trkpt lat="39.891749" lon="116.645449">
        <time>2021-01-30T12:04:10Z</time>
      </trkpt>
      <trkpt lat="39.891835" lon="116.645487">
        <time>2021-01-30T12:04:15Z</time>
      </trkpt>
      <trkpt lat="39.891904" lon="116.645519">
        <time>2021-01-30T12:04:20Z</time>
      </trkpt>
      <trkpt lat="39.891982" lon="116.645544">
        <time>2021-01-30T12:04:25Z</time>
      </trkpt>
      <trkpt lat="39.892017" lon="116.645576">
        <time>2021-01-30T12:04:30Z</time>
      </trkpt>
      <trkpt lat="39.892081" lon="116.645602">
        <time>2021-01-30T12:04:35Z</time>
      </trkpt>
      <trkpt lat="39.892169" lon="116.645641">
        <time>2021-01-30T12:04:40Z</time>
      </trkpt>
      <trkpt lat="39.892304" lon="116.645701">
        <time>2021-01-30T12:04:45Z</time>
      </trkpt>
      <trkpt lat="39.892398" lon="116.645742">
        <time>2021-01-30T12:04:50Z</time>
      </trkpt>
      <trkpt lat="39.892504" lon="116.645795">
        <time>2021-01-30T12:04:55Z</time>
      </trkpt>
      <trkpt lat="39.892613" lon="116.645833">
        <time>2021-01-30T12:05:00Z</time>
      </trkpt>
      <trkpt lat="39.892794" lon="116.645883">
        <time>2021-01-30T12:05:05Z</time>
      </trkpt>
      <trkpt lat="39.892862" lon="116.645925">
        <time>2021-01-30T12:05:10Z</time>
      </trkpt>
      <trkpt lat="39.89298" lon="116.646015">
        <time>2021-01-30T12:05:15Z</time>
      </trkpt>
      <trkpt lat="39.893096" lon="116.646077">
        <time>2021-01-30T12:05:20Z</time>
      </trkpt>
      <trkpt lat="39.893207" lon="116.646149">
        <time>2021-01-30T12:05:25Z</time>
      </trkpt>
      <trkpt lat="39.893283" lon="116.646187">
        <time>2021-01-30T12:05:30Z</time>
      </trkpt>
      <trkpt lat="39.893434" lon="116.646234">
        <time>2021-01-30T12:05:35Z</time>
      </trkpt>
      <trkpt lat="39.893564" lon="116.646341">
        <time>2021-01-30T12:05:40Z</time>
      </trkpt>
      <trkpt lat="39.893647" lon="116.646414">
        <time>2021-01-30T12:05:45Z</time>
      </trkpt>
      <trkpt lat="39.893767" lon="116.64634">
        <time>2021-01-30T12:05:50Z</time>
      </trkpt>
      <trkpt lat="39.893851" lon="116.646158">
        <time>2021-01-30T12:05:55Z</time>
      </trkpt>
      <trkpt lat="39.893933" lon="116.646004">
        <time>2021-01-30T12:06:00Z</time>
      </trkpt>
      <trkpt lat="39.893992" lon="116.645904">
        <time>2021-01-30T12:06:05Z</time>
      </trkpt>
      <trkpt lat="39.894116" lon="116.645942">
        <time>2021-01-30T12:06:10Z</time>
      </trkpt>
      <trkpt lat="39.894309" lon="116.645989">
        <time>2021-01-30T12:06:15Z</time>
      </trkpt>
      <trkpt lat="39.894399" lon="116.646017">
        <time>2021-01-30T12:06:20Z</time>
      </trkpt>
      <trkpt lat="39.894525" lon="116.646079">
        <time>2021-01-30T12:06:25Z</time>
      </trkpt>
      <trkpt lat="39.894655" lon="116.646126">
        <time>2021-01-30T12:06:30Z</time>
      </trkpt>
      <trkpt lat="39.894773" lon="116.646208">
        <time>2021-01-30T12:06:35Z</time>
      </trkpt>
      <trkpt lat="39.894878" lon="116.646298">
        <time>2021-01-30T12:06:40Z</time>
      </trkpt>
      <trkpt lat="39.894988" lon="116.64634">
        <time>2021-01-30T12:06:45Z</time>
      </trkpt>
      <trkpt lat="39.895096" lon="116.646398">
        <time>2021-01-30T12:06:50Z</time>
      </trkpt>
      <trkpt lat="39.895222" lon="116.64648">
        <time>2021-01-30T12:06:55Z</time>
      </trkpt>
      <trkpt lat="39.89532" lon="116.646517">
        <time>2021-01-30T12:07:00Z</time>
      </trkpt>
      <trkpt lat="39.895467" lon="116.646537">
        <time>2021-01-30T12:07:05Z</time>
      </trkpt>
      <trkpt lat="39.895492" lon="116.646566">
        <time>2021-01-30T12:07:10Z</time>
      </trkpt>
      <trkpt lat="39.895565" lon="116.646609">
        <time>2021-01-30T12:07:15Z</time>
      </trkpt>
      <trkpt lat="39.895657" lon="116.646683">
        <time>2021-01-30T12:07:20Z</time>
      </trkpt>
      <trkpt lat="39.895751" lon="116.646728">
        <time>2021-01-30T12:07:25Z</time>
      </trkpt>
      <trkpt lat="39.895856" lon="116.646811">
        <time>2021-01-30T12:07:30Z</time>
      </trkpt>
      <trkpt lat="39.895948" lon="116.646851">
        <time>2021-01-30T12:07:35Z</time>
      </trkpt>
      <trkpt lat="39.896074" lon="116.646773">
        <time>2021-01-30T12:07:40Z</time>
      </trkpt>
      <trkpt lat="39.896098" lon="116.646607">
        <time>2021-01-30T12:07:45Z</time>
      </trkpt>
      <trkpt lat="39.89607" lon="116.646442">
        <time>2021-01-30T12:07:50Z</time>
      </trkpt>
      <trkpt lat="39.896063" lon="116.646285">
        <time>2021-01-30T12:07:55Z</time>
      </trkpt>
      <trkpt lat="39.896075" lon="116.646133">
        <time>2021-01-30T12:08:00Z</time>
      </trkpt>
      <trkpt lat="39.896119" lon="116.645985">
        <time>2021-01-30T12:08:05Z</time>
      </trkpt>
      <trkpt lat="39.896155" lon="116.645837">
        <time>2021-01-30T12:08:10Z</time>
      </trkpt>
      <trkpt lat="39.896165" lon="116.645667">
        <time>2021-01-30T12:08:15Z</time>
      </trkpt>
      <trkpt lat="39.896207" lon="116.645516">
        <time>2021-01-30T12:08:20Z</time>
      </trkpt>
      <trkpt lat="39.896235" lon="116.645323">
        <time>2021-01-30T12:08:25Z</time>
      </trkpt>
      <trkpt lat="39.896232" lon="116.645166">
        <time>2021-01-30T12:08:30Z</time>
      </trkpt>
      <trkpt lat="39.896199" lon="116.645">
        <time>2021-01-30T12:08:35Z</time>
      </trkpt>
      <trkpt lat="39.896197" lon="116.644857">
        <time>2021-01-30T12:08:40Z</time>
      </trkpt>
      <trkpt lat="39.896218" lon="116.644736">
        <time>2021-01-30T12:08:45Z</time>
      </trkpt>
      <trkpt lat="39.896222" lon="116.644574">
        <time>2021-01-30T12:08:50Z</time>
      </trkpt>
      <trkpt lat="39.896216" lon="116.644446">
        <time>2021-01-30T12:08:55Z</time>
      </trkpt>
      <trkpt lat="39.896206" lon="116.644242">
        <time>2021-01-30T12:09:00Z</time>
      </trkpt>
      <trkpt lat="39.896207" lon="116.644099">
        <time>2021-01-30T12:09:05Z</time>
      </trkpt>
      <trkpt lat="39.896216" lon="116.643949">
        <time>2021-01-30T12:09:10Z</time>
      </trkpt>
      <trkpt lat="39.896216" lon="116.643818">
        <time>2021-01-30T12:09:15Z</time>
      </trkpt>
      <trkpt lat="39.896211" lon="116.643661">
        <time>2021-01-30T12:09:20Z</time>
      </trkpt>
      <trkpt lat="39.896221" lon="116.643506">
        <time>2021-01-30T12:09:25Z</time>
      </trkpt>
      <trkpt lat="39.896199" lon="116.643319">
        <time>2021-01-30T12:09:30Z</time>
      </trkpt>
      <trkpt lat="39.896198" lon="116.643207">
        <time>2021-01-30T12:09:35Z</time>
      </trkpt>
      <trkpt lat="39.896209" lon="116.643069">
        <time>2021-01-30T12:09:40Z</time>
      </trkpt>
      <trkpt lat="39.896208" lon="116.642973">
        <time>2021-01-30T12:09:45Z</time>
      </trkpt>
      <trkpt lat="39.896216" lon="116.642897">
        <time>2021-01-30T12:09:50Z</time>
      </trkpt>
      <trkpt lat="39.896214" lon="116.642794">
        <time>2021-01-30T12:09:55Z</time>
      </trkpt>
      <trkpt lat="39.896225" lon="116.642717">
        <time>2021-01-30T12:10:00Z</time>
      </trkpt>
      <trkpt lat="39.896228" lon="116.642601">
        <time>2021-01-30T12:10:05Z</time>
      </trkpt>
      <trkpt lat="39.896236" lon="116.642453">
        <time>2021-01-30T12:10:10Z</time>
      </trkpt>
      <trkpt lat="39.89623" lon="116.642324">
        <time>2021-01-30T12:10:15Z</time>
      </trkpt>
      <trkpt lat="39.896221" lon="116.642153">
        <time>2021-01-30T12:10:20Z</time>
      </trkpt>
      <trkpt lat="39.896225" lon="116.641985">
        <time>2021-01-30T12:10:25Z</time>
      </trkpt>
      <trkpt lat="39.89621" lon="116.641863">
        <time>2021-01-30T12:10:30Z</time>
      </trkpt>
      <trkpt lat="39.896226" lon="116.641689">
        <time>2021-01-30T12:10:35Z</time>
      </trkpt>
      <trkpt lat="39.896226" lon="116.641537">
        <time>2021-01-30T12:10:40Z</time>
      </trkpt>
      <trkpt lat="39.896223" lon="116.6414">
        <time>2021-01-30T12:10:45Z</time>
      </trkpt>
      <trkpt lat="39.89622" lon="116.641254">
        <time>2021-01-30T12:10:50Z</time>
      </trkpt>
      <trkpt lat="39.89623" lon="116.641106">
        <time>2021-01-30T12:10:55Z</time>
      </trkpt>
      <trkpt lat="39.89627" lon="116.640956">
        <time>2021-01-30T12:11:00Z</time>
      </trkpt>
      <trkpt lat="39.89626" lon="116.64074">
        <time>2021-01-30T12:11:05Z</time>
      </trkpt>
      <trkpt lat="39.896285" lon="116.640629">
        <time>2021-01-30T12:11:10Z</time>
      </trkpt>
      <trkpt lat="39.896314" lon="116.640504">
        <time>2021-01-30T12:11:15Z</time>
      </trkpt>
      <trkpt lat="39.896317" lon="116.640345">
        <time>2021-01-30T12:11:20Z</time>
      </trkpt>
      <trkpt lat="39.896298" lon="116.640154">
        <time>2021-01-30T12:11:25Z</time>
      </trkpt>
      <trkpt lat="39.896289" lon="116.640038">
        <time>2021-01-30T12:11:30Z</time>
      </trkpt>
      <trkpt lat="39.896283" lon="116.639887">
        <time>2021-01-30T12:11:35Z</time>
      </trkpt>
      <trkpt lat="39.896261" lon="116.639686">
        <time>2021-01-30T12:11:40Z</time>
      </trkpt>
      <trkpt lat="39.896266" lon="116.639576">
        <time>2021-01-30T12:11:45Z</time>
      </trkpt>
      <trkpt lat="39.896269" lon="116.639452">
        <time>2021-01-30T12:11:50Z</time>
      </trkpt>
      <trkpt lat="39.89625" lon="116.639241">
        <time>2021-01-30T12:11:55Z</time>
      </trkpt>
      <trkpt lat="39.896235" lon="116.63911">
        <time>2021-01-30T12:12:00Z</time>
      </trkpt>
      <trkpt lat="39.896232" lon="116.63893">
        <time>2021-01-30T12:12:05Z</time>
      </trkpt>
      <trkpt lat="39.896193" lon="116.638756">
        <time>2021-01-30T12:12:10Z</time>
      </trkpt>
      <trkpt lat="39.896188" lon="116.638581">
        <time>2021-01-30T12:12:15Z</time>
      </trkpt>
      <trkpt lat="39.896197" lon="116.638412">
        <time>2021-01-30T12:12:20Z</time>
      </trkpt>
      <trkpt lat="39.896182" lon="116.638233">
        <time>2021-01-30T12:12:25Z</time>
      </trkpt>
      <trkpt lat="39.896178" lon="116.638069">
        <time>2021-01-30T12:12:30Z</time>
      </trkpt>
      <trkpt lat="39.896132" lon="116.637903">
        <time>2021-01-30T12:12:35Z</time>
      </trkpt>
      <trkpt lat="39.896115" lon="116.637762">
        <time>2021-01-30T12:12:40Z</time>
      </trkpt>
      <trkpt lat="39.896115" lon="116.637585">
        <time>2021-01-30T12:12:45Z</time>
      </trkpt>
      <trkpt lat="39.896099" lon="116.637475">
        <time>2021-01-30T12:12:50Z</time>
      </trkpt>
      <trkpt lat="39.896086" lon="116.637302">
        <time>2021-01-30T12:12:55Z</time>
      </trkpt>
      <trkpt lat="39.896095" lon="116.637153">
        <time>2021-01-30T12:13:00Z</time>
      </trkpt>
      <trkpt lat="39.896086" lon="116.637008">
        <time>2021-01-30T12:13:05Z</time>
      </trkpt>
      <trkpt lat="39.896044" lon="116.636846">
        <time>2021-01-30T12:13:10Z</time>
      </trkpt>
      <trkpt lat="39.896011" lon="116.636713">
        <time>2021-01-30T12:13:15Z</time>
      </trkpt>
      <trkpt lat="39.89597" lon="116.636604">
        <time>2021-01-30T12:13:20Z</time>
      </trkpt>
      <trkpt lat="39.895894" lon="116.636554">
        <time>2021-01-30T12:13:25Z</time>
      </trkpt>
      <trkpt lat="39.895853" lon="116.636455">
        <time>2021-01-30T12:13:30Z</time>
      </trkpt>
      <trkpt lat="39.895961" lon="116.636405">
        <time>2021-01-30T12:13:35Z</time>
      </trkpt>
      <trkpt lat="39.89609" lon="116.636327">
        <time>2021-01-30T12:13:40Z</time>
      </trkpt>
      <trkpt lat="39.896182" lon="116.636244">
        <time>2021-01-30T12:13:45Z</time>
      </trkpt>
      <trkpt lat="39.896292" lon="116.636129">
        <time>2021-01-30T12:13:50Z</time>
      </trkpt>
      <trkpt lat="39.896404" lon="116.636052">
        <time>2021-01-30T12:13:55Z</time>
      </trkpt>
      <trkpt lat="39.896526" lon="116.635996">
        <time>2021-01-30T12:14:00Z</time>
      </trkpt>
      <trkpt lat="39.896688" lon="116.635911">
        <time>2021-01-30T12:14:05Z</time>
      </trkpt>
      <trkpt lat="39.896818" lon="116.635843">
        <time>2021-01-30T12:14:10Z</time>
      </trkpt>
      <trkpt lat="39.896909" lon="116.635782">
        <time>2021-01-30T12:14:15Z</time>
      </trkpt>
      <trkpt lat="39.897025" lon="116.635747">
        <time>2021-01-30T12:14:20Z</time>
      </trkpt>
      <trkpt lat="39.89711" lon="116.63571">
        <time>2021-01-30T12:14:25Z</time>
      </trkpt>
      <trkpt lat="39.897216" lon="116.63567">
        <time>2021-01-30T12:14:30Z</time>
      </trkpt>
      <trkpt lat="39.897308" lon="116.635617">
        <time>2021-01-30T12:14:35Z</time>
      </trkpt>
      <trkpt lat="39.897506" lon="116.63541">
        <time>2021-01-30T12:14:40Z</time>
      </trkpt>
      <trkpt lat="39.897551" lon="116.635359">
        <time>2021-01-30T12:14:45Z</time>
      </trkpt>
      <trkpt lat="39.897637" lon="116.63524">
        <time>2021-01-30T12:14:50Z</time>
      </trkpt>
      <trkpt lat="39.897771" lon="116.635183">
        <time>2021-01-30T12:14:55Z</time>
      </trkpt>
      <trkpt lat="39.897895" lon="116.635129">
        <time>2021-01-30T12:15:00Z</time>
      </trkpt>
      <trkpt lat="39.898011" lon="116.635063">
        <time>2021-01-30T12:15:05Z</time>
      </trkpt>
      <trkpt lat="39.89813" lon="116.634969">
        <time>2021-01-30T12:15:10Z</time>
      </trkpt>
      <trkpt lat="39.898222" lon="116.634892">
        <time>2021-01-30T12:15:15Z</time>
      </trkpt>
      <trkpt lat="39.898367" lon="116.63487">
        <time>2021-01-30T12:15:20Z</time>
      </trkpt>
      <trkpt lat="39.898467" lon="116.634821">
        <time>2021-01-30T12:15:25Z</time>
      </trkpt>
      <trkpt lat="39.898573" lon="116.634759">
        <time>2021-01-30T12:15:30Z</time>
      </trkpt>
      <trkpt lat="39.898666" lon="116.634657">
        <time>2021-01-30T12:15:35Z</time>
      </trkpt>
      <trkpt lat="39.898772" lon="116.63457">
        <time>2021-01-30T12:15:40Z</time>
      </trkpt>
      <trkpt lat="39.898872" lon="116.634523">
        <time>2021-01-30T12:15:45Z</time>
      </trkpt>
      <trkpt lat="39.898996" lon="116.634448">
        <time>2021-01-30T12:15:50Z</time>
      </trkpt>
      <trkpt lat="39.899115" lon="116.634359">
        <time>2021-01-30T12:15:55Z</time>
      </trkpt>
      <trkpt lat="39.899241" lon="116.634282">
        <time>2021-01-30T12:16:00Z</time>
      </trkpt>
      <trkpt lat="39.899356" lon="116.634203">
        <time>2021-01-30T12:16:05Z</time>
      </trkpt>
      <trkpt lat="39.899459" lon="116.634147">
        <time>2021-01-30T12:16:10Z</time>
      </trkpt>
      <trkpt lat="39.899573" lon="116.634082">
        <time>2021-01-30T12:16:15Z</time>
      </trkpt>
      <trkpt lat="39.899682" lon="116.633995">
        <time>2021-01-30T12:16:20Z</time>
      </trkpt>
      <trkpt lat="39.899793" lon="116.633904">
        <time>2021-01-30T12:16:25Z</time>
      </trkpt>
      <trkpt lat="39.899939" lon="116.633853">
        <time>2021-01-30T12:16:30Z</time>
      </trkpt>
      <trkpt lat="39.900037" lon="116.633801">
        <time>2021-01-30T12:16:35Z</time>
      </trkpt>
      <trkpt lat="39.90014" lon="116.633743">
        <time>2021-01-30T12:16:40Z</time>
      </trkpt>
      <trkpt lat="39.900243" lon="116.633655">
        <time>2021-01-30T12:16:45Z</time>
      </trkpt>
      <trkpt lat="39.900393" lon="116.633555">
        <time>2021-01-30T12:16:50Z</time>
      </trkpt>
      <trkpt lat="39.900444" lon="116.633519">
        <time>2021-01-30T12:16:55Z</time>
      </trkpt>
      <trkpt lat="39.900583" lon="116.633416">
        <time>2021-01-30T12:17:00Z</time>
      </trkpt>
      <trkpt lat="39.900662" lon="116.633347">
        <time>2021-01-30T12:17:05Z</time>
      </trkpt>
      <trkpt lat="39.900763" lon="116.633247">
        <time>2021-01-30T12:17:10Z</time>
      </trkpt>
      <trkpt lat="39.900877" lon="116.633186">
        <time>2021-01-30T12:17:15Z</time>
      </trkpt>
      <trkpt lat="39.900985" lon="116.633138">
        <time>2021-01-30T12:17:20Z</time>
      </trkpt>
      <trkpt lat="39.901102" lon="116.633211">
        <time>2021-01-30T12:17:25Z</time>
      </trkpt>
      <trkpt lat="39.901079" lon="116.633372">
        <time>2021-01-30T12:17:30Z</time>
      </trkpt>
      <trkpt lat="39.901061" lon="116.633475">
        <time>2021-01-30T12:17:35Z</time>
      </trkpt>
      <trkpt lat="39.901058" lon="116.633555">
        <time>2021-01-30T12:17:40Z</time>
      </trkpt>
      <trkpt lat="39.901094" lon="116.633416">
        <time>2021-01-30T12:17:45Z</time>
      </trkpt>
      <trkpt lat="39.901047" lon="116.633242">
        <time>2021-01-30T12:17:50Z</time>
      </trkpt>
      <trkpt lat="39.900966" lon="116.633097">
        <time>2021-01-30T12:17:55Z</time>
      </trkpt>
      <trkpt lat="39.900895" lon="116.632956">
        <time>2021-01-30T12:18:00Z</time>
      </trkpt>
      <trkpt lat="39.900831" lon="116.632856">
        <time>2021-01-30T12:18:05Z</time>
      </trkpt>
      <trkpt lat="39.900761" lon="116.632768">
        <time>2021-01-30T12:18:10Z</time>
      </trkpt>
      <trkpt lat="39.900635" lon="116.632841">
        <time>2021-01-30T12:18:15Z</time>
      </trkpt>
      <trkpt lat="39.900552" lon="116.632937">
        <time>2021-01-30T12:18:20Z</time>
      </trkpt>
      <trkpt lat="39.900454" lon="116.633059">
        <time>2021-01-30T12:18:25Z</time>
      </trkpt>
      <trkpt lat="39.900324" lon="116.633165">
        <time>2021-01-30T12:18:30Z</time>
      </trkpt>
      <trkpt lat="39.900243" lon="116.633247">
        <time>2021-01-30T12:18:35Z</time>
      </trkpt>
      <trkpt lat="39.900142" lon="116.633341">
        <time>2021-01-30T12:18:40Z</time>
      </trkpt>
      <trkpt lat="39.900049" lon="116.633411">
        <time>2021-01-30T12:18:45Z</time>
      </trkpt>
      <trkpt lat="39.899951" lon="116.63347">
        <time>2021-01-30T12:18:50Z</time>
      </trkpt>
      <trkpt lat="39.899854" lon="116.633573">
        <time>2021-01-30T12:18:55Z</time>
      </trkpt>
      <trkpt lat="39.899763" lon="116.633595">
        <time>2021-01-30T12:19:00Z</time>
      </trkpt>
      <trkpt lat="39.899658" lon="116.63367">
        <time>2021-01-30T12:19:05Z</time>
      </trkpt>
      <trkpt lat="39.899562" lon="116.63377">
        <time>2021-01-30T12:19:10Z</time>
      </trkpt>
      <trkpt lat="39.899404" lon="116.633861">
        <time>2021-01-30T12:19:15Z</time>
      </trkpt>
      <trkpt lat="39.899364" lon="116.633863">
        <time>2021-01-30T12:19:20Z</time>
      </trkpt>
      <trkpt lat="39.899215" lon="116.633928">
        <time>2021-01-30T12:19:25Z</time>
      </trkpt>
      <trkpt lat="39.899152" lon="116.633993">
        <time>2021-01-30T12:19:30Z</time>
      </trkpt>
      <trkpt lat="39.899059" lon="116.634063">
        <time>2021-01-30T12:19:35Z</time>
      </trkpt>
      <trkpt lat="39.898995" lon="116.634118">
        <time>2021-01-30T12:19:40Z</time>
      </trkpt>
      <trkpt lat="39.898873" lon="116.634201">
        <time>2021-01-30T12:19:45Z</time>
      </trkpt>
      <trkpt lat="39.898762" lon="116.634304">
        <time>2021-01-30T12:19:50Z</time>
      </trkpt>
      <trkpt lat="39.898642" lon="116.634424">
        <time>2021-01-30T12:19:55Z</time>
      </trkpt>
      <trkpt lat="39.898558" lon="116.634489">
        <time>2021-01-30T12:20:00Z</time>
      </trkpt>
      <trkpt lat="39.898472" lon="116.634563">
        <time>2021-01-30T12:20:05Z</time>
      </trkpt>
      <trkpt lat="39.898352" lon="116.634631">
        <time>2021-01-30T12:20:10Z</time>
      </trkpt>
      <trkpt lat="39.898233" lon="116.634647">
        <time>2021-01-30T12:20:15Z</time>
      </trkpt>
      <trkpt lat="39.898152" lon="116.634667">
        <time>2021-01-30T12:20:20Z</time>
      </trkpt>
      <trkpt lat="39.898054" lon="116.634621">
        <time>2021-01-30T12:20:25Z</time>
      </trkpt>
      <trkpt lat="39.89799" lon="116.634469">
        <time>2021-01-30T12:20:30Z</time>
      </trkpt>
      <trkpt lat="39.897945" lon="116.634348">
        <time>2021-01-30T12:20:35Z</time>
      </trkpt>
      <trkpt lat="39.897883" lon="116.634229">
        <time>2021-01-30T12:20:40Z</time>
      </trkpt>
      <trkpt lat="39.897762" lon="116.634112">
        <time>2021-01-30T12:20:45Z</time>
      </trkpt>
      <trkpt lat="39.897635" lon="116.634008">
        <time>2021-01-30T12:20:50Z</time>
      </trkpt>
      <trkpt lat="39.897552" lon="116.633876">
        <time>2021-01-30T12:20:55Z</time>
      </trkpt>
      <trkpt lat="39.897545" lon="116.633725">
        <time>2021-01-30T12:21:00Z</time>
      </trkpt>
      <trkpt lat="39.897484" lon="116.633668">
        <time>2021-01-30T12:21:05Z</time>
      </trkpt>
      <trkpt lat="39.897422" lon="116.633724">
        <time>2021-01-30T12:21:10Z</time>
      </trkpt>
      <trkpt lat="39.897319" lon="116.633823">
        <time>2021-01-30T12:21:15Z</time>
      </trkpt>
      <trkpt lat="39.897247" lon="116.633716">
        <time>2021-01-30T12:21:20Z</time>
      </trkpt>
      <trkpt lat="39.897236" lon="116.633567">
        <time>2021-01-30T12:21:25Z</time>
      </trkpt>
      <trkpt lat="39.8972" lon="116.633433">
        <time>2021-01-30T12:21:30Z</time>
      </trkpt>
      <trkpt lat="39.897183" lon="116.633295">
        <time>2021-01-30T12:21:35Z</time>
      </trkpt>
      <trkpt lat="39.897135" lon="116.633199">
        <time>2021-01-30T12:21:40Z</time>
      </trkpt>
      <trkpt lat="39.897062" lon="116.633078">
        <time>2021-01-30T12:21:45Z</time>
      </trkpt>
      <trkpt lat="39.896982" lon="116.632939">
        <time>2021-01-30T12:21:50Z</time>
      </trkpt>
      <trkpt lat="39.896824" lon="116.632937">
        <time>2021-01-30T12:21:55Z</time>
      </trkpt>
      <trkpt lat="39.896785" lon="116.633054">
        <time>2021-01-30T12:22:00Z</time>
      </trkpt>
      <trkpt lat="39.896818" lon="116.63318">
        <time>2021-01-30T12:22:05Z</time>
      </trkpt>
      <trkpt lat="39.896882" lon="116.633365">
        <time>2021-01-30T12:22:10Z</time>
      </trkpt>
      <trkpt lat="39.89695" lon="116.633349">
        <time>2021-01-30T12:22:15Z</time>
      </trkpt>
      <trkpt lat="39.897013" lon="116.633482">
        <time>2021-01-30T12:22:20Z</time>
      </trkpt>
      <trkpt lat="39.897143" lon="116.633564">
        <time>2021-01-30T12:22:25Z</time>
      </trkpt>
      <trkpt lat="39.897212" lon="116.63374">
        <time>2021-01-30T12:22:30Z</time>
      </trkpt>
      <trkpt lat="39.897257" lon="116.633914">
        <time>2021-01-30T12:22:35Z</time>
      </trkpt>
      <trkpt lat="39.897299" lon="116.634062">
        <time>2021-01-30T12:22:40Z</time>
      </trkpt>
      <trkpt lat="39.897354" lon="116.634164">
        <time>2021-01-30T12:22:45Z</time>
      </trkpt>
      <trkpt lat="39.897382" lon="116.634221">
        <time>2021-01-30T12:22:50Z</time>
      </trkpt>
      <trkpt lat="39.897463" lon="116.634276">
        <time>2021-01-30T12:22:55Z</time>
      </trkpt>
      <trkpt lat="39.897502" lon="116.634283">
        <time>2021-01-30T12:23:00Z</time>
      </trkpt>
      <trkpt lat="39.897502" lon="116.634283">
        <time>2021-01-30T12:23:05Z</time>
      </trkpt>
    </trkseg>
  </trk>
</gpx>