<?xml version="1.0" encoding="UTF-8"?>
<gpx xmlns="http://www.topografix.com/GPX/1/1" xmlns:gpxtpx="http://www.garmin.com/xmlschemas/TrackPointExtension/v1" xmlns:xsi="http://www.w3.org/2001/XMLSchema-instance" xsi:schemaLocation="http://www.topografix.com/GPX/1/1 http://www.topografix.com/GPX/1/1/gpx.xsd" version="1.1" creator="gpx.py -- https://github.com/tkrajina/gpxpy">
  <trk>
    <name>gpx from keep</name>
    <trkseg>
      <trkpt lat="39.897876" lon="116.634153">
        <time>2021-02-08T12:37:59Z</time>
      </trkpt>
      <trkpt lat="39.897876" lon="116.634153">
        <time>2021-02-08T12:38:04Z</time>
      </trkpt>
      <trkpt lat="39.897881" lon="116.634267">
        <time>2021-02-08T12:38:09Z</time>
      </trkpt>
      <trkpt lat="39.897957" lon="116.634448">
        <time>2021-02-08T12:38:14Z</time>
      </trkpt>
      <trkpt lat="39.898015" lon="116.634584">
        <time>2021-02-08T12:38:19Z</time>
      </trkpt>
      <trkpt lat="39.898015" lon="116.634584">
        <time>2021-02-08T12:38:24Z</time>
      </trkpt>
      <trkpt lat="39.898008" lon="116.634701">
        <time>2021-02-08T12:38:29Z</time>
      </trkpt>
      <trkpt lat="39.898027" lon="116.634724">
        <time>2021-02-08T12:38:34Z</time>
      </trkpt>
      <trkpt lat="39.898069" lon="116.634952">
        <time>2021-02-08T12:38:39Z</time>
      </trkpt>
      <trkpt lat="39.898094" lon="116.635123">
        <time>2021-02-08T12:38:44Z</time>
      </trkpt>
      <trkpt lat="39.89799" lon="116.635206">
        <time>2021-02-08T12:38:49Z</time>
      </trkpt>
      <trkpt lat="39.897855" lon="116.635272">
        <time>2021-02-08T12:38:54Z</time>
      </trkpt>
      <trkpt lat="39.897733" lon="116.635284">
        <time>2021-02-08T12:38:59Z</time>
      </trkpt>
      <trkpt lat="39.89762" lon="116.635378">
        <time>2021-02-08T12:39:04Z</time>
      </trkpt>
      <trkpt lat="39.897499" lon="116.635464">
        <time>2021-02-08T12:39:09Z</time>
      </trkpt>
      <trkpt lat="39.897397" lon="116.635552">
        <time>2021-02-08T12:39:14Z</time>
      </trkpt>
      <trkpt lat="39.897301" lon="116.63562">
        <time>2021-02-08T12:39:19Z</time>
      </trkpt>
      <trkpt lat="39.89717" lon="116.635718">
        <time>2021-02-08T12:39:24Z</time>
      </trkpt>
      <trkpt lat="39.897035" lon="116.635781">
        <time>2021-02-08T12:39:29Z</time>
      </trkpt>
      <trkpt lat="39.896905" lon="116.635838">
        <time>2021-02-08T12:39:34Z</time>
      </trkpt>
      <trkpt lat="39.896788" lon="116.635862">
        <time>2021-02-08T12:39:39Z</time>
      </trkpt>
      <trkpt lat="39.896665" lon="116.635959">
        <time>2021-02-08T12:39:44Z</time>
      </trkpt>
      <trkpt lat="39.896501" lon="116.636071">
        <time>2021-02-08T12:39:49Z</time>
      </trkpt>
      <trkpt lat="39.896419" lon="116.636137">
        <time>2021-02-08T12:39:54Z</time>
      </trkpt>
      <trkpt lat="39.896319" lon="116.636162">
        <time>2021-02-08T12:39:59Z</time>
      </trkpt>
      <trkpt lat="39.896206" lon="116.636204">
        <time>2021-02-08T12:40:04Z</time>
      </trkpt>
      <trkpt lat="39.896141" lon="116.636307">
        <time>2021-02-08T12:40:09Z</time>
      </trkpt>
      <trkpt lat="39.896113" lon="116.636424">
        <time>2021-02-08T12:40:14Z</time>
      </trkpt>
      <trkpt lat="39.896085" lon="116.636489">
        <time>2021-02-08T12:40:19Z</time>
      </trkpt>
      <trkpt lat="39.896089" lon="116.6365">
        <time>2021-02-08T12:40:24Z</time>
      </trkpt>
      <trkpt lat="39.896089" lon="116.6365">
        <time>2021-02-08T12:40:29Z</time>
      </trkpt>
      <trkpt lat="39.896073" lon="116.63653">
        <time>2021-02-08T12:40:34Z</time>
      </trkpt>
      <trkpt lat="39.896002" lon="116.63663">
        <time>2021-02-08T12:40:39Z</time>
      </trkpt>
      <trkpt lat="39.895979" lon="116.636722">
        <time>2021-02-08T12:40:44Z</time>
      </trkpt>
      <trkpt lat="39.896052" lon="116.63686">
        <time>2021-02-08T12:40:49Z</time>
      </trkpt>
      <trkpt lat="39.89608" lon="116.637014">
        <time>2021-02-08T12:40:54Z</time>
      </trkpt>
      <trkpt lat="39.896075" lon="116.637105">
        <time>2021-02-08T12:40:59Z</time>
      </trkpt>
      <trkpt lat="39.896077" lon="116.637206">
        <time>2021-02-08T12:41:04Z</time>
      </trkpt>
      <trkpt lat="39.896099" lon="116.637397">
        <time>2021-02-08T12:41:09Z</time>
      </trkpt>
      <trkpt lat="39.896133" lon="116.637604">
        <time>2021-02-08T12:41:14Z</time>
      </trkpt>
      <trkpt lat="39.896133" lon="116.637746">
        <time>2021-02-08T12:41:19Z</time>
      </trkpt>
      <trkpt lat="39.896142" lon="116.637922">
        <time>2021-02-08T12:41:24Z</time>
      </trkpt>
      <trkpt lat="39.896171" lon="116.638158">
        <time>2021-02-08T12:41:29Z</time>
      </trkpt>
      <trkpt lat="39.896168" lon="116.63827">
        <time>2021-02-08T12:41:34Z</time>
      </trkpt>
      <trkpt lat="39.896191" lon="116.638466">
        <time>2021-02-08T12:41:39Z</time>
      </trkpt>
      <trkpt lat="39.896208" lon="116.638668">
        <time>2021-02-08T12:41:44Z</time>
      </trkpt>
      <trkpt lat="39.896191" lon="116.638782">
        <time>2021-02-08T12:41:49Z</time>
      </trkpt>
      <trkpt lat="39.896206" lon="116.638937">
        <time>2021-02-08T12:41:54Z</time>
      </trkpt>
      <trkpt lat="39.896226" lon="116.639128">
        <time>2021-02-08T12:41:59Z</time>
      </trkpt>
      <trkpt lat="39.896227" lon="116.639264">
        <time>2021-02-08T12:42:04Z</time>
      </trkpt>
      <trkpt lat="39.896202" lon="116.639409">
        <time>2021-02-08T12:42:09Z</time>
      </trkpt>
      <trkpt lat="39.896173" lon="116.639506">
        <time>2021-02-08T12:42:14Z</time>
      </trkpt>
      <trkpt lat="39.89613" lon="116.63955">
        <time>2021-02-08T12:42:19Z</time>
      </trkpt>
      <trkpt lat="39.896128" lon="116.639546">
        <time>2021-02-08T12:42:24Z</time>
      </trkpt>
      <trkpt lat="39.896122" lon="116.639558">
        <time>2021-02-08T12:42:29Z</time>
      </trkpt>
      <trkpt lat="39.896276" lon="116.639598">
        <time>2021-02-08T12:42:34Z</time>
      </trkpt>
      <trkpt lat="39.896324" lon="116.639651">
        <time>2021-02-08T12:42:39Z</time>
      </trkpt>
      <trkpt lat="39.896284" lon="116.639829">
        <time>2021-02-08T12:42:44Z</time>
      </trkpt>
      <trkpt lat="39.896253" lon="116.639967">
        <time>2021-02-08T12:42:49Z</time>
      </trkpt>
      <trkpt lat="39.896256" lon="116.640138">
        <time>2021-02-08T12:42:54Z</time>
      </trkpt>
      <trkpt lat="39.896242" lon="116.640321">
        <time>2021-02-08T12:42:59Z</time>
      </trkpt>
      <trkpt lat="39.896214" lon="116.640504">
        <time>2021-02-08T12:43:04Z</time>
      </trkpt>
      <trkpt lat="39.896192" lon="116.640671">
        <time>2021-02-08T12:43:09Z</time>
      </trkpt>
      <trkpt lat="39.896196" lon="116.64085">
        <time>2021-02-08T12:43:14Z</time>
      </trkpt>
      <trkpt lat="39.896207" lon="116.641014">
        <time>2021-02-08T12:43:19Z</time>
      </trkpt>
      <trkpt lat="39.896195" lon="116.641151">
        <time>2021-02-08T12:43:24Z</time>
      </trkpt>
      <trkpt lat="39.896199" lon="116.641286">
        <time>2021-02-08T12:43:29Z</time>
      </trkpt>
      <trkpt lat="39.896209" lon="116.641427">
        <time>2021-02-08T12:43:34Z</time>
      </trkpt>
      <trkpt lat="39.896185" lon="116.641565">
        <time>2021-02-08T12:43:39Z</time>
      </trkpt>
      <trkpt lat="39.896194" lon="116.641715">
        <time>2021-02-08T12:43:44Z</time>
      </trkpt>
      <trkpt lat="39.896193" lon="116.641881">
        <time>2021-02-08T12:43:49Z</time>
      </trkpt>
      <trkpt lat="39.896207" lon="116.642036">
        <time>2021-02-08T12:43:54Z</time>
      </trkpt>
      <trkpt lat="39.896197" lon="116.642181">
        <time>2021-02-08T12:43:59Z</time>
      </trkpt>
      <trkpt lat="39.896201" lon="116.642336">
        <time>2021-02-08T12:44:04Z</time>
      </trkpt>
      <trkpt lat="39.8962" lon="116.64252">
        <time>2021-02-08T12:44:09Z</time>
      </trkpt>
      <trkpt lat="39.896187" lon="116.642663">
        <time>2021-02-08T12:44:14Z</time>
      </trkpt>
      <trkpt lat="39.896181" lon="116.642906">
        <time>2021-02-08T12:44:19Z</time>
      </trkpt>
      <trkpt lat="39.896183" lon="116.642946">
        <time>2021-02-08T12:44:24Z</time>
      </trkpt>
      <trkpt lat="39.896168" lon="116.643107">
        <time>2021-02-08T12:44:29Z</time>
      </trkpt>
      <trkpt lat="39.896154" lon="116.643252">
        <time>2021-02-08T12:44:34Z</time>
      </trkpt>
      <trkpt lat="39.896158" lon="116.643384">
        <time>2021-02-08T12:44:39Z</time>
      </trkpt>
      <trkpt lat="39.896173" lon="116.643568">
        <time>2021-02-08T12:44:44Z</time>
      </trkpt>
      <trkpt lat="39.896172" lon="116.643737">
        <time>2021-02-08T12:44:49Z</time>
      </trkpt>
      <trkpt lat="39.896156" lon="116.643889">
        <time>2021-02-08T12:44:54Z</time>
      </trkpt>
      <trkpt lat="39.896156" lon="116.644024">
        <time>2021-02-08T12:44:59Z</time>
      </trkpt>
      <trkpt lat="39.896168" lon="116.644141">
        <time>2021-02-08T12:45:04Z</time>
      </trkpt>
      <trkpt lat="39.896176" lon="116.644282">
        <time>2021-02-08T12:45:09Z</time>
      </trkpt>
      <trkpt lat="39.896161" lon="116.64446">
        <time>2021-02-08T12:45:14Z</time>
      </trkpt>
      <trkpt lat="39.896164" lon="116.64461">
        <time>2021-02-08T12:45:19Z</time>
      </trkpt>
      <trkpt lat="39.896174" lon="116.644754">
        <time>2021-02-08T12:45:24Z</time>
      </trkpt>
      <trkpt lat="39.896163" lon="116.644909">
        <time>2021-02-08T12:45:29Z</time>
      </trkpt>
      <trkpt lat="39.896169" lon="116.645071">
        <time>2021-02-08T12:45:34Z</time>
      </trkpt>
      <trkpt lat="39.896161" lon="116.645246">
        <time>2021-02-08T12:45:39Z</time>
      </trkpt>
      <trkpt lat="39.896153" lon="116.645389">
        <time>2021-02-08T12:45:44Z</time>
      </trkpt>
      <trkpt lat="39.896148" lon="116.645522">
        <time>2021-02-08T12:45:49Z</time>
      </trkpt>
      <trkpt lat="39.896137" lon="116.645683">
        <time>2021-02-08T12:45:54Z</time>
      </trkpt>
      <trkpt lat="39.896099" lon="116.645871">
        <time>2021-02-08T12:45:59Z</time>
      </trkpt>
      <trkpt lat="39.89609" lon="116.64602">
        <time>2021-02-08T12:46:04Z</time>
      </trkpt>
      <trkpt lat="39.896075" lon="116.64617">
        <time>2021-02-08T12:46:09Z</time>
      </trkpt>
      <trkpt lat="39.89606" lon="116.646273">
        <time>2021-02-08T12:46:14Z</time>
      </trkpt>
      <trkpt lat="39.896055" lon="116.646393">
        <time>2021-02-08T12:46:19Z</time>
      </trkpt>
      <trkpt lat="39.896039" lon="116.646547">
        <time>2021-02-08T12:46:24Z</time>
      </trkpt>
      <trkpt lat="39.896026" lon="116.646697">
        <time>2021-02-08T12:46:29Z</time>
      </trkpt>
      <trkpt lat="39.895983" lon="116.646843">
        <time>2021-02-08T12:46:34Z</time>
      </trkpt>
      <trkpt lat="39.89586" lon="116.646853">
        <time>2021-02-08T12:46:39Z</time>
      </trkpt>
      <trkpt lat="39.895748" lon="116.646768">
        <time>2021-02-08T12:46:44Z</time>
      </trkpt>
      <trkpt lat="39.895639" lon="116.646693">
        <time>2021-02-08T12:46:49Z</time>
      </trkpt>
      <trkpt lat="39.895539" lon="116.646622">
        <time>2021-02-08T12:46:54Z</time>
      </trkpt>
      <trkpt lat="39.895445" lon="116.646556">
        <time>2021-02-08T12:46:59Z</time>
      </trkpt>
      <trkpt lat="39.895323" lon="116.646506">
        <time>2021-02-08T12:47:04Z</time>
      </trkpt>
      <trkpt lat="39.895216" lon="116.646465">
        <time>2021-02-08T12:47:09Z</time>
      </trkpt>
      <trkpt lat="39.8951" lon="116.646413">
        <time>2021-02-08T12:47:14Z</time>
      </trkpt>
      <trkpt lat="39.894913" lon="116.646348">
        <time>2021-02-08T12:47:19Z</time>
      </trkpt>
      <trkpt lat="39.894891" lon="116.646338">
        <time>2021-02-08T12:47:24Z</time>
      </trkpt>
      <trkpt lat="39.894787" lon="116.646263">
        <time>2021-02-08T12:47:29Z</time>
      </trkpt>
      <trkpt lat="39.894685" lon="116.64621">
        <time>2021-02-08T12:47:34Z</time>
      </trkpt>
      <trkpt lat="39.894581" lon="116.646149">
        <time>2021-02-08T12:47:39Z</time>
      </trkpt>
      <trkpt lat="39.894483" lon="116.646082">
        <time>2021-02-08T12:47:44Z</time>
      </trkpt>
      <trkpt lat="39.894415" lon="116.646048">
        <time>2021-02-08T12:47:49Z</time>
      </trkpt>
      <trkpt lat="39.894321" lon="116.646002">
        <time>2021-02-08T12:47:54Z</time>
      </trkpt>
      <trkpt lat="39.894152" lon="116.645925">
        <time>2021-02-08T12:47:59Z</time>
      </trkpt>
      <trkpt lat="39.894135" lon="116.645915">
        <time>2021-02-08T12:48:04Z</time>
      </trkpt>
      <trkpt lat="39.894035" lon="116.645866">
        <time>2021-02-08T12:48:09Z</time>
      </trkpt>
      <trkpt lat="39.893935" lon="116.645892">
        <time>2021-02-08T12:48:14Z</time>
      </trkpt>
      <trkpt lat="39.893846" lon="116.64603">
        <time>2021-02-08T12:48:19Z</time>
      </trkpt>
      <trkpt lat="39.893766" lon="116.646158">
        <time>2021-02-08T12:48:24Z</time>
      </trkpt>
      <trkpt lat="39.893593" lon="116.646405">
        <time>2021-02-08T12:48:29Z</time>
      </trkpt>
      <trkpt lat="39.893567" lon="116.646413">
        <time>2021-02-08T12:48:34Z</time>
      </trkpt>
      <trkpt lat="39.893397" lon="116.646282">
        <time>2021-02-08T12:48:39Z</time>
      </trkpt>
      <trkpt lat="39.893357" lon="116.646247">
        <time>2021-02-08T12:48:44Z</time>
      </trkpt>
      <trkpt lat="39.893233" lon="116.646184">
        <time>2021-02-08T12:48:49Z</time>
      </trkpt>
      <trkpt lat="39.893119" lon="116.646134">
        <time>2021-02-08T12:48:54Z</time>
      </trkpt>
      <trkpt lat="39.893012" lon="116.646083">
        <time>2021-02-08T12:48:59Z</time>
      </trkpt>
      <trkpt lat="39.892909" lon="116.646018">
        <time>2021-02-08T12:49:04Z</time>
      </trkpt>
      <trkpt lat="39.89281" lon="116.645945">
        <time>2021-02-08T12:49:09Z</time>
      </trkpt>
      <trkpt lat="39.8927" lon="116.645884">
        <time>2021-02-08T12:49:14Z</time>
      </trkpt>
      <trkpt lat="39.892587" lon="116.645856">
        <time>2021-02-08T12:49:19Z</time>
      </trkpt>
      <trkpt lat="39.892491" lon="116.645815">
        <time>2021-02-08T12:49:24Z</time>
      </trkpt>
      <trkpt lat="39.892402" lon="116.645755">
        <time>2021-02-08T12:49:29Z</time>
      </trkpt>
      <trkpt lat="39.892304" lon="116.645696">
        <time>2021-02-08T12:49:34Z</time>
      </trkpt>
      <trkpt lat="39.892188" lon="116.645633">
        <time>2021-02-08T12:49:39Z</time>
      </trkpt>
      <trkpt lat="39.89208" lon="116.64557">
        <time>2021-02-08T12:49:44Z</time>
      </trkpt>
      <trkpt lat="39.891966" lon="116.645511">
        <time>2021-02-08T12:49:49Z</time>
      </trkpt>
      <trkpt lat="39.891853" lon="116.645458">
        <time>2021-02-08T12:49:54Z</time>
      </trkpt>
      <trkpt lat="39.891737" lon="116.64542">
        <time>2021-02-08T12:49:59Z</time>
      </trkpt>
      <trkpt lat="39.891642" lon="116.645364">
        <time>2021-02-08T12:50:04Z</time>
      </trkpt>
      <trkpt lat="39.891573" lon="116.6453">
        <time>2021-02-08T12:50:09Z</time>
      </trkpt>
      <trkpt lat="39.89154" lon="116.645372">
        <time>2021-02-08T12:50:14Z</time>
      </trkpt>
      <trkpt lat="39.891616" lon="116.645431">
        <time>2021-02-08T12:50:19Z</time>
      </trkpt>
      <trkpt lat="39.891738" lon="116.645488">
        <time>2021-02-08T12:50:24Z</time>
      </trkpt>
      <trkpt lat="39.891845" lon="116.645541">
        <time>2021-02-08T12:50:29Z</time>
      </trkpt>
      <trkpt lat="39.891971" lon="116.645592">
        <time>2021-02-08T12:50:34Z</time>
      </trkpt>
      <trkpt lat="39.892105" lon="116.645647">
        <time>2021-02-08T12:50:39Z</time>
      </trkpt>
      <trkpt lat="39.892227" lon="116.645679">
        <time>2021-02-08T12:50:44Z</time>
      </trkpt>
      <trkpt lat="39.89234" lon="116.645745">
        <time>2021-02-08T12:50:49Z</time>
      </trkpt>
      <trkpt lat="39.892444" lon="116.645823">
        <time>2021-02-08T12:50:54Z</time>
      </trkpt>
      <trkpt lat="39.892544" lon="116.645865">
        <time>2021-02-08T12:50:59Z</time>
      </trkpt>
      <trkpt lat="39.892636" lon="116.645922">
        <time>2021-02-08T12:51:04Z</time>
      </trkpt>
      <trkpt lat="39.892754" lon="116.645976">
        <time>2021-02-08T12:51:09Z</time>
      </trkpt>
      <trkpt lat="39.892853" lon="116.645994">
        <time>2021-02-08T12:51:14Z</time>
      </trkpt>
      <trkpt lat="39.892947" lon="116.646028">
        <time>2021-02-08T12:51:19Z</time>
      </trkpt>
      <trkpt lat="39.893076" lon="116.646092">
        <time>2021-02-08T12:51:24Z</time>
      </trkpt>
      <trkpt lat="39.893203" lon="116.646149">
        <time>2021-02-08T12:51:29Z</time>
      </trkpt>
      <trkpt lat="39.893318" lon="116.64622">
        <time>2021-02-08T12:51:34Z</time>
      </trkpt>
      <trkpt lat="39.89338" lon="116.646281">
        <time>2021-02-08T12:51:39Z</time>
      </trkpt>
      <trkpt lat="39.893532" lon="116.64636">
        <time>2021-02-08T12:51:44Z</time>
      </trkpt>
      <trkpt lat="39.893574" lon="116.646386">
        <time>2021-02-08T12:51:49Z</time>
      </trkpt>
      <trkpt lat="39.893691" lon="116.646371">
        <time>2021-02-08T12:51:54Z</time>
      </trkpt>
      <trkpt lat="39.893765" lon="116.646278">
        <time>2021-02-08T12:51:59Z</time>
      </trkpt>
      <trkpt lat="39.893843" lon="116.646167">
        <time>2021-02-08T12:52:04Z</time>
      </trkpt>
      <trkpt lat="39.893913" lon="116.646046">
        <time>2021-02-08T12:52:09Z</time>
      </trkpt>
      <trkpt lat="39.894007" lon="116.645984">
        <time>2021-02-08T12:52:14Z</time>
      </trkpt>
      <trkpt lat="39.894124" lon="116.646012">
        <time>2021-02-08T12:52:19Z</time>
      </trkpt>
      <trkpt lat="39.894265" lon="116.646059">
        <time>2021-02-08T12:52:24Z</time>
      </trkpt>
      <trkpt lat="39.894363" lon="116.646099">
        <time>2021-02-08T12:52:29Z</time>
      </trkpt>
      <trkpt lat="39.894456" lon="116.646168">
        <time>2021-02-08T12:52:34Z</time>
      </trkpt>
      <trkpt lat="39.894544" lon="116.646226">
        <time>2021-02-08T12:52:39Z</time>
      </trkpt>
      <trkpt lat="39.894675" lon="116.646254">
        <time>2021-02-08T12:52:44Z</time>
      </trkpt>
      <trkpt lat="39.894732" lon="116.646283">
        <time>2021-02-08T12:52:49Z</time>
      </trkpt>
      <trkpt lat="39.894799" lon="116.646338">
        <time>2021-02-08T12:52:54Z</time>
      </trkpt>
      <trkpt lat="39.894925" lon="116.646381">
        <time>2021-02-08T12:52:59Z</time>
      </trkpt>
      <trkpt lat="39.895044" lon="116.646438">
        <time>2021-02-08T12:53:04Z</time>
      </trkpt>
      <trkpt lat="39.895171" lon="116.646495">
        <time>2021-02-08T12:53:09Z</time>
      </trkpt>
      <trkpt lat="39.895278" lon="116.646551">
        <time>2021-02-08T12:53:14Z</time>
      </trkpt>
      <trkpt lat="39.895444" lon="116.646648">
        <time>2021-02-08T12:53:19Z</time>
      </trkpt>
      <trkpt lat="39.895489" lon="116.646674">
        <time>2021-02-08T12:53:24Z</time>
      </trkpt>
      <trkpt lat="39.895595" lon="116.646738">
        <time>2021-02-08T12:53:29Z</time>
      </trkpt>
      <trkpt lat="39.895709" lon="116.646804">
        <time>2021-02-08T12:53:34Z</time>
      </trkpt>
      <trkpt lat="39.895805" lon="116.646859">
        <time>2021-02-08T12:53:39Z</time>
      </trkpt>
      <trkpt lat="39.895924" lon="116.646871">
        <time>2021-02-08T12:53:44Z</time>
      </trkpt>
      <trkpt lat="39.89602" lon="116.64683">
        <time>2021-02-08T12:53:49Z</time>
      </trkpt>
      <trkpt lat="39.896039" lon="116.64665">
        <time>2021-02-08T12:53:54Z</time>
      </trkpt>
      <trkpt lat="39.896032" lon="116.64645">
        <time>2021-02-08T12:53:59Z</time>
      </trkpt>
      <trkpt lat="39.896034" lon="116.646277">
        <time>2021-02-08T12:54:04Z</time>
      </trkpt>
      <trkpt lat="39.89605" lon="116.646073">
        <time>2021-02-08T12:54:09Z</time>
      </trkpt>
      <trkpt lat="39.89607" lon="116.645928">
        <time>2021-02-08T12:54:14Z</time>
      </trkpt>
      <trkpt lat="39.896094" lon="116.645798">
        <time>2021-02-08T12:54:19Z</time>
      </trkpt>
      <trkpt lat="39.896111" lon="116.645666">
        <time>2021-02-08T12:54:24Z</time>
      </trkpt>
      <trkpt lat="39.896132" lon="116.645538">
        <time>2021-02-08T12:54:29Z</time>
      </trkpt>
      <trkpt lat="39.896156" lon="116.645445">
        <time>2021-02-08T12:54:34Z</time>
      </trkpt>
      <trkpt lat="39.896171" lon="116.645317">
        <time>2021-02-08T12:54:39Z</time>
      </trkpt>
      <trkpt lat="39.896172" lon="116.64517">
        <time>2021-02-08T12:54:44Z</time>
      </trkpt>
      <trkpt lat="39.896183" lon="116.644987">
        <time>2021-02-08T12:54:49Z</time>
      </trkpt>
      <trkpt lat="39.896184" lon="116.644828">
        <time>2021-02-08T12:54:54Z</time>
      </trkpt>
      <trkpt lat="39.896181" lon="116.644691">
        <time>2021-02-08T12:54:59Z</time>
      </trkpt>
      <trkpt lat="39.896186" lon="116.644552">
        <time>2021-02-08T12:55:04Z</time>
      </trkpt>
      <trkpt lat="39.89619" lon="116.644427">
        <time>2021-02-08T12:55:09Z</time>
      </trkpt>
      <trkpt lat="39.896189" lon="116.644278">
        <time>2021-02-08T12:55:14Z</time>
      </trkpt>
      <trkpt lat="39.896189" lon="116.644126">
        <time>2021-02-08T12:55:19Z</time>
      </trkpt>
      <trkpt lat="39.896185" lon="116.64397">
        <time>2021-02-08T12:55:24Z</time>
      </trkpt>
      <trkpt lat="39.896188" lon="116.643816">
        <time>2021-02-08T12:55:29Z</time>
      </trkpt>
      <trkpt lat="39.896189" lon="116.643654">
        <time>2021-02-08T12:55:34Z</time>
      </trkpt>
      <trkpt lat="39.896193" lon="116.643483">
        <time>2021-02-08T12:55:39Z</time>
      </trkpt>
      <trkpt lat="39.89618" lon="116.643341">
        <time>2021-02-08T12:55:44Z</time>
      </trkpt>
      <trkpt lat="39.896163" lon="116.643205">
        <time>2021-02-08T12:55:49Z</time>
      </trkpt>
      <trkpt lat="39.896163" lon="116.643109">
        <time>2021-02-08T12:55:54Z</time>
      </trkpt>
      <trkpt lat="39.896164" lon="116.643007">
        <time>2021-02-08T12:55:59Z</time>
      </trkpt>
      <trkpt lat="39.896163" lon="116.642852">
        <time>2021-02-08T12:56:04Z</time>
      </trkpt>
      <trkpt lat="39.896172" lon="116.642702">
        <time>2021-02-08T12:56:09Z</time>
      </trkpt>
      <trkpt lat="39.89617" lon="116.642544">
        <time>2021-02-08T12:56:14Z</time>
      </trkpt>
      <trkpt lat="39.896175" lon="116.642414">
        <time>2021-02-08T12:56:19Z</time>
      </trkpt>
      <trkpt lat="39.896178" lon="116.642271">
        <time>2021-02-08T12:56:24Z</time>
      </trkpt>
      <trkpt lat="39.896175" lon="116.642122">
        <time>2021-02-08T12:56:29Z</time>
      </trkpt>
      <trkpt lat="39.896173" lon="116.641973">
        <time>2021-02-08T12:56:34Z</time>
      </trkpt>
      <trkpt lat="39.896178" lon="116.641826">
        <time>2021-02-08T12:56:39Z</time>
      </trkpt>
      <trkpt lat="39.896188" lon="116.641564">
        <time>2021-02-08T12:56:44Z</time>
      </trkpt>
      <trkpt lat="39.896187" lon="116.641542">
        <time>2021-02-08T12:56:49Z</time>
      </trkpt>
      <trkpt lat="39.896182" lon="116.641446">
        <time>2021-02-08T12:56:54Z</time>
      </trkpt>
      <trkpt lat="39.896187" lon="116.641306">
        <time>2021-02-08T12:56:59Z</time>
      </trkpt>
      <trkpt lat="39.896207" lon="116.641183">
        <time>2021-02-08T12:57:04Z</time>
      </trkpt>
      <trkpt lat="39.896226" lon="116.641099">
        <time>2021-02-08T12:57:09Z</time>
      </trkpt>
      <trkpt lat="39.896233" lon="116.641044">
        <time>2021-02-08T12:57:14Z</time>
      </trkpt>
      <trkpt lat="39.896229" lon="116.640963">
        <time>2021-02-08T12:57:19Z</time>
      </trkpt>
      <trkpt lat="39.89622" lon="116.640907">
        <time>2021-02-08T12:57:24Z</time>
      </trkpt>
      <trkpt lat="39.896232" lon="116.640795">
        <time>2021-02-08T12:57:29Z</time>
      </trkpt>
      <trkpt lat="39.89623" lon="116.640643">
        <time>2021-02-08T12:57:34Z</time>
      </trkpt>
      <trkpt lat="39.896241" lon="116.640494">
        <time>2021-02-08T12:57:39Z</time>
      </trkpt>
      <trkpt lat="39.896252" lon="116.640334">
        <time>2021-02-08T12:57:44Z</time>
      </trkpt>
      <trkpt lat="39.896267" lon="116.640187">
        <time>2021-02-08T12:57:49Z</time>
      </trkpt>
      <trkpt lat="39.89626" lon="116.640046">
        <time>2021-02-08T12:57:54Z</time>
      </trkpt>
      <trkpt lat="39.896253" lon="116.639904">
        <time>2021-02-08T12:57:59Z</time>
      </trkpt>
      <trkpt lat="39.896239" lon="116.639752">
        <time>2021-02-08T12:58:04Z</time>
      </trkpt>
      <trkpt lat="39.896233" lon="116.639619">
        <time>2021-02-08T12:58:09Z</time>
      </trkpt>
      <trkpt lat="39.896237" lon="116.639467">
        <time>2021-02-08T12:58:14Z</time>
      </trkpt>
      <trkpt lat="39.89623" lon="116.639314">
        <time>2021-02-08T12:58:19Z</time>
      </trkpt>
      <trkpt lat="39.896222" lon="116.63917">
        <time>2021-02-08T12:58:24Z</time>
      </trkpt>
      <trkpt lat="39.896204" lon="116.639045">
        <time>2021-02-08T12:58:29Z</time>
      </trkpt>
      <trkpt lat="39.896197" lon="116.638891">
        <time>2021-02-08T12:58:34Z</time>
      </trkpt>
      <trkpt lat="39.896185" lon="116.638743">
        <time>2021-02-08T12:58:39Z</time>
      </trkpt>
      <trkpt lat="39.896176" lon="116.638611">
        <time>2021-02-08T12:58:44Z</time>
      </trkpt>
      <trkpt lat="39.896165" lon="116.638455">
        <time>2021-02-08T12:58:49Z</time>
      </trkpt>
      <trkpt lat="39.896163" lon="116.638342">
        <time>2021-02-08T12:58:54Z</time>
      </trkpt>
      <trkpt lat="39.896153" lon="116.638248">
        <time>2021-02-08T12:58:59Z</time>
      </trkpt>
      <trkpt lat="39.896144" lon="116.638133">
        <time>2021-02-08T12:59:04Z</time>
      </trkpt>
      <trkpt lat="39.896148" lon="116.637985">
        <time>2021-02-08T12:59:09Z</time>
      </trkpt>
      <trkpt lat="39.896143" lon="116.63784">
        <time>2021-02-08T12:59:14Z</time>
      </trkpt>
      <trkpt lat="39.896142" lon="116.637701">
        <time>2021-02-08T12:59:19Z</time>
      </trkpt>
      <trkpt lat="39.896135" lon="116.637565">
        <time>2021-02-08T12:59:24Z</time>
      </trkpt>
      <trkpt lat="39.896138" lon="116.63743">
        <time>2021-02-08T12:59:29Z</time>
      </trkpt>
      <trkpt lat="39.896131" lon="116.637288">
        <time>2021-02-08T12:59:34Z</time>
      </trkpt>
      <trkpt lat="39.896107" lon="116.637129">
        <time>2021-02-08T12:59:39Z</time>
      </trkpt>
      <trkpt lat="39.89609" lon="116.637006">
        <time>2021-02-08T12:59:44Z</time>
      </trkpt>
      <trkpt lat="39.896067" lon="116.63686">
        <time>2021-02-08T12:59:49Z</time>
      </trkpt>
      <trkpt lat="39.89604" lon="116.636723">
        <time>2021-02-08T12:59:54Z</time>
      </trkpt>
      <trkpt lat="39.895977" lon="116.636623">
        <time>2021-02-08T12:59:59Z</time>
      </trkpt>
      <trkpt lat="39.895879" lon="116.636533">
        <time>2021-02-08T13:00:04Z</time>
      </trkpt>
      <trkpt lat="39.895814" lon="116.636413">
        <time>2021-02-08T13:00:09Z</time>
      </trkpt>
      <trkpt lat="39.895927" lon="116.636345">
        <time>2021-02-08T13:00:14Z</time>
      </trkpt>
      <trkpt lat="39.896056" lon="116.63626">
        <time>2021-02-08T13:00:19Z</time>
      </trkpt>
      <trkpt lat="39.896184" lon="116.636185">
        <time>2021-02-08T13:00:24Z</time>
      </trkpt>
      <trkpt lat="39.89631" lon="116.636113">
        <time>2021-02-08T13:00:29Z</time>
      </trkpt>
      <trkpt lat="39.896412" lon="116.636042">
        <time>2021-02-08T13:00:34Z</time>
      </trkpt>
      <trkpt lat="39.89648" lon="116.635972">
        <time>2021-02-08T13:00:39Z</time>
      </trkpt>
      <trkpt lat="39.896551" lon="116.635958">
        <time>2021-02-08T13:00:44Z</time>
      </trkpt>
      <trkpt lat="39.896625" lon="116.635947">
        <time>2021-02-08T13:00:49Z</time>
      </trkpt>
      <trkpt lat="39.896716" lon="116.635879">
        <time>2021-02-08T13:00:54Z</time>
      </trkpt>
      <trkpt lat="39.896806" lon="116.635808">
        <time>2021-02-08T13:00:59Z</time>
      </trkpt>
      <trkpt lat="39.896984" lon="116.635716">
        <time>2021-02-08T13:01:04Z</time>
      </trkpt>
      <trkpt lat="39.897024" lon="116.635693">
        <time>2021-02-08T13:01:09Z</time>
      </trkpt>
      <trkpt lat="39.897133" lon="116.635628">
        <time>2021-02-08T13:01:14Z</time>
      </trkpt>
      <trkpt lat="39.897228" lon="116.63556">
        <time>2021-02-08T13:01:19Z</time>
      </trkpt>
      <trkpt lat="39.89732" lon="116.635488">
        <time>2021-02-08T13:01:24Z</time>
      </trkpt>
      <trkpt lat="39.897376" lon="116.635466">
        <time>2021-02-08T13:01:29Z</time>
      </trkpt>
      <trkpt lat="39.897443" lon="116.635425">
        <time>2021-02-08T13:01:34Z</time>
      </trkpt>
      <trkpt lat="39.897538" lon="116.635367">
        <time>2021-02-08T13:01:39Z</time>
      </trkpt>
      <trkpt lat="39.897563" lon="116.635347">
        <time>2021-02-08T13:01:44Z</time>
      </trkpt>
      <trkpt lat="39.897647" lon="116.635299">
        <time>2021-02-08T13:01:49Z</time>
      </trkpt>
      <trkpt lat="39.897723" lon="116.635248">
        <time>2021-02-08T13:01:54Z</time>
      </trkpt>
      <trkpt lat="39.897799" lon="116.635186">
        <time>2021-02-08T13:01:59Z</time>
      </trkpt>
      <trkpt lat="39.897885" lon="116.635144">
        <time>2021-02-08T13:02:04Z</time>
      </trkpt>
      <trkpt lat="39.897988" lon="116.63509">
        <time>2021-02-08T13:02:09Z</time>
      </trkpt>
      <trkpt lat="39.898077" lon="116.635071">
        <time>2021-02-08T13:02:14Z</time>
      </trkpt>
      <trkpt lat="39.898077" lon="116.635071">
        <time>2021-02-08T13:02:19Z</time>
      </trkpt>
      <trkpt lat="39.898131" lon="116.635018">
        <time>2021-02-08T13:02:24Z</time>
      </trkpt>
      <trkpt lat="39.898033" lon="116.634726">
        <time>2021-02-08T13:02:29Z</time>
      </trkpt>
      <trkpt lat="39.897996" lon="116.634633">
        <time>2021-02-08T13:02:34Z</time>
      </trkpt>
      <trkpt lat="39.89796" lon="116.634502">
        <time>2021-02-08T13:02:39Z</time>
      </trkpt>
      <trkpt lat="39.89788" lon="116.634322">
        <time>2021-02-08T13:02:44Z</time>
      </trkpt>
      <trkpt lat="39.897802" lon="116.634218">
        <time>2021-02-08T13:02:49Z</time>
      </trkpt>
      <trkpt lat="39.897738" lon="116.634071">
        <time>2021-02-08T13:02:54Z</time>
      </trkpt>
      <trkpt lat="39.897665" lon="116.633916">
        <time>2021-02-08T13:02:59Z</time>
      </trkpt>
      <trkpt lat="39.897603" lon="116.633783">
        <time>2021-02-08T13:03:04Z</time>
      </trkpt>
      <trkpt lat="39.897571" lon="116.633674">
        <time>2021-02-08T13:03:09Z</time>
      </trkpt>
      <trkpt lat="39.897564" lon="116.633615">
        <time>2021-02-08T13:03:14Z</time>
      </trkpt>
      <trkpt lat="39.897469" lon="116.633662">
        <time>2021-02-08T13:03:19Z</time>
      </trkpt>
      <trkpt lat="39.897399" lon="116.633734">
        <time>2021-02-08T13:03:24Z</time>
      </trkpt>
      <trkpt lat="39.897385" lon="116.63387">
        <time>2021-02-08T13:03:29Z</time>
      </trkpt>
      <trkpt lat="39.897424" lon="116.6341">
        <time>2021-02-08T13:03:34Z</time>
      </trkpt>
      <trkpt lat="39.897391" lon="116.634252">
        <time>2021-02-08T13:07:18Z</time>
      </trkpt>
    </trkseg>
  </trk>
</gpx>