<?xml version="1.0" encoding="UTF-8"?>
<gpx xmlns="http://www.topografix.com/GPX/1/1" xmlns:gpxtpx="http://www.garmin.com/xmlschemas/TrackPointExtension/v1" xmlns:xsi="http://www.w3.org/2001/XMLSchema-instance" xsi:schemaLocation="http://www.topografix.com/GPX/1/1 http://www.topografix.com/GPX/1/1/gpx.xsd" version="1.1" creator="gpx.py -- https://github.com/tkrajina/gpxpy">
  <trk>
    <name>gpx from keep</name>
    <trkseg>
      <trkpt lat="39.897868" lon="116.634146">
        <time>2021-02-21T08:14:31Z</time>
      </trkpt>
      <trkpt lat="39.897868" lon="116.634146">
        <time>2021-02-21T08:14:36Z</time>
      </trkpt>
      <trkpt lat="39.897922" lon="116.634232">
        <time>2021-02-21T08:14:41Z</time>
      </trkpt>
      <trkpt lat="39.897919" lon="116.634254">
        <time>2021-02-21T08:14:46Z</time>
      </trkpt>
      <trkpt lat="39.897917" lon="116.63434">
        <time>2021-02-21T08:14:51Z</time>
      </trkpt>
      <trkpt lat="39.897929" lon="116.634425">
        <time>2021-02-21T08:14:56Z</time>
      </trkpt>
      <trkpt lat="39.897969" lon="116.634524">
        <time>2021-02-21T08:15:01Z</time>
      </trkpt>
      <trkpt lat="39.898068" lon="116.634683">
        <time>2021-02-21T08:15:06Z</time>
      </trkpt>
      <trkpt lat="39.898073" lon="116.634685">
        <time>2021-02-21T08:15:11Z</time>
      </trkpt>
      <trkpt lat="39.898042" lon="116.634721">
        <time>2021-02-21T08:15:16Z</time>
      </trkpt>
      <trkpt lat="39.898067" lon="116.634859">
        <time>2021-02-21T08:15:21Z</time>
      </trkpt>
      <trkpt lat="39.898051" lon="116.634962">
        <time>2021-02-21T08:15:26Z</time>
      </trkpt>
      <trkpt lat="39.897963" lon="116.635037">
        <time>2021-02-21T08:15:31Z</time>
      </trkpt>
      <trkpt lat="39.897818" lon="116.635158">
        <time>2021-02-21T08:15:36Z</time>
      </trkpt>
      <trkpt lat="39.897696" lon="116.635238">
        <time>2021-02-21T08:15:41Z</time>
      </trkpt>
      <trkpt lat="39.89759" lon="116.635358">
        <time>2021-02-21T08:15:46Z</time>
      </trkpt>
      <trkpt lat="39.897465" lon="116.635453">
        <time>2021-02-21T08:15:51Z</time>
      </trkpt>
      <trkpt lat="39.897334" lon="116.635531">
        <time>2021-02-21T08:15:56Z</time>
      </trkpt>
      <trkpt lat="39.897199" lon="116.635613">
        <time>2021-02-21T08:16:01Z</time>
      </trkpt>
      <trkpt lat="39.897075" lon="116.635703">
        <time>2021-02-21T08:16:06Z</time>
      </trkpt>
      <trkpt lat="39.896951" lon="116.63582">
        <time>2021-02-21T08:16:11Z</time>
      </trkpt>
      <trkpt lat="39.896825" lon="116.635892">
        <time>2021-02-21T08:16:16Z</time>
      </trkpt>
      <trkpt lat="39.8967" lon="116.635977">
        <time>2021-02-21T08:16:21Z</time>
      </trkpt>
      <trkpt lat="39.896477" lon="116.636141">
        <time>2021-02-21T08:16:26Z</time>
      </trkpt>
      <trkpt lat="39.896455" lon="116.636159">
        <time>2021-02-21T08:16:31Z</time>
      </trkpt>
      <trkpt lat="39.896363" lon="116.636203">
        <time>2021-02-21T08:16:36Z</time>
      </trkpt>
      <trkpt lat="39.896245" lon="116.636277">
        <time>2021-02-21T08:16:41Z</time>
      </trkpt>
      <trkpt lat="39.896201" lon="116.636382">
        <time>2021-02-21T08:16:46Z</time>
      </trkpt>
      <trkpt lat="39.896152" lon="116.636454">
        <time>2021-02-21T08:16:51Z</time>
      </trkpt>
      <trkpt lat="39.896143" lon="116.636473">
        <time>2021-02-21T08:16:56Z</time>
      </trkpt>
      <trkpt lat="39.896138" lon="116.636499">
        <time>2021-02-21T08:17:01Z</time>
      </trkpt>
      <trkpt lat="39.896131" lon="116.636521">
        <time>2021-02-21T08:17:06Z</time>
      </trkpt>
      <trkpt lat="39.896144" lon="116.63653">
        <time>2021-02-21T08:17:11Z</time>
      </trkpt>
      <trkpt lat="39.896133" lon="116.636527">
        <time>2021-02-21T08:17:16Z</time>
      </trkpt>
      <trkpt lat="39.896116" lon="116.636546">
        <time>2021-02-21T08:17:21Z</time>
      </trkpt>
      <trkpt lat="39.896103" lon="116.636564">
        <time>2021-02-21T08:17:26Z</time>
      </trkpt>
      <trkpt lat="39.896093" lon="116.636516">
        <time>2021-02-21T08:17:31Z</time>
      </trkpt>
      <trkpt lat="39.896092" lon="116.636526">
        <time>2021-02-21T08:17:36Z</time>
      </trkpt>
      <trkpt lat="39.896095" lon="116.63653">
        <time>2021-02-21T08:17:41Z</time>
      </trkpt>
      <trkpt lat="39.896068" lon="116.636555">
        <time>2021-02-21T08:17:46Z</time>
      </trkpt>
      <trkpt lat="39.896053" lon="116.636577">
        <time>2021-02-21T08:17:51Z</time>
      </trkpt>
      <trkpt lat="39.896062" lon="116.636604">
        <time>2021-02-21T08:17:56Z</time>
      </trkpt>
      <trkpt lat="39.896078" lon="116.636597">
        <time>2021-02-21T08:18:01Z</time>
      </trkpt>
      <trkpt lat="39.89606" lon="116.636604">
        <time>2021-02-21T08:18:06Z</time>
      </trkpt>
      <trkpt lat="39.896046" lon="116.636628">
        <time>2021-02-21T08:18:11Z</time>
      </trkpt>
      <trkpt lat="39.896036" lon="116.636647">
        <time>2021-02-21T08:18:16Z</time>
      </trkpt>
      <trkpt lat="39.896003" lon="116.63667">
        <time>2021-02-21T08:18:21Z</time>
      </trkpt>
      <trkpt lat="39.896058" lon="116.636774">
        <time>2021-02-21T08:18:26Z</time>
      </trkpt>
      <trkpt lat="39.896106" lon="116.636921">
        <time>2021-02-21T08:18:31Z</time>
      </trkpt>
      <trkpt lat="39.896134" lon="116.637101">
        <time>2021-02-21T08:18:36Z</time>
      </trkpt>
      <trkpt lat="39.896151" lon="116.637288">
        <time>2021-02-21T08:18:41Z</time>
      </trkpt>
      <trkpt lat="39.896158" lon="116.637472">
        <time>2021-02-21T08:18:46Z</time>
      </trkpt>
      <trkpt lat="39.896173" lon="116.637657">
        <time>2021-02-21T08:18:51Z</time>
      </trkpt>
      <trkpt lat="39.896192" lon="116.637836">
        <time>2021-02-21T08:18:56Z</time>
      </trkpt>
      <trkpt lat="39.896196" lon="116.638006">
        <time>2021-02-21T08:19:01Z</time>
      </trkpt>
      <trkpt lat="39.896196" lon="116.638157">
        <time>2021-02-21T08:19:06Z</time>
      </trkpt>
      <trkpt lat="39.896219" lon="116.638323">
        <time>2021-02-21T08:19:11Z</time>
      </trkpt>
      <trkpt lat="39.896233" lon="116.638485">
        <time>2021-02-21T08:19:16Z</time>
      </trkpt>
      <trkpt lat="39.896182" lon="116.638642">
        <time>2021-02-21T08:19:21Z</time>
      </trkpt>
      <trkpt lat="39.896141" lon="116.638795">
        <time>2021-02-21T08:19:26Z</time>
      </trkpt>
      <trkpt lat="39.896181" lon="116.638931">
        <time>2021-02-21T08:19:31Z</time>
      </trkpt>
      <trkpt lat="39.896207" lon="116.639115">
        <time>2021-02-21T08:19:36Z</time>
      </trkpt>
      <trkpt lat="39.896248" lon="116.639308">
        <time>2021-02-21T08:19:41Z</time>
      </trkpt>
      <trkpt lat="39.896272" lon="116.639488">
        <time>2021-02-21T08:19:46Z</time>
      </trkpt>
      <trkpt lat="39.896277" lon="116.639677">
        <time>2021-02-21T08:19:51Z</time>
      </trkpt>
      <trkpt lat="39.896294" lon="116.63984">
        <time>2021-02-21T08:19:56Z</time>
      </trkpt>
      <trkpt lat="39.896309" lon="116.640002">
        <time>2021-02-21T08:20:01Z</time>
      </trkpt>
      <trkpt lat="39.896317" lon="116.640152">
        <time>2021-02-21T08:20:06Z</time>
      </trkpt>
      <trkpt lat="39.896318" lon="116.640316">
        <time>2021-02-21T08:20:11Z</time>
      </trkpt>
      <trkpt lat="39.896302" lon="116.640483">
        <time>2021-02-21T08:20:16Z</time>
      </trkpt>
      <trkpt lat="39.896323" lon="116.640684">
        <time>2021-02-21T08:20:21Z</time>
      </trkpt>
      <trkpt lat="39.896328" lon="116.640859">
        <time>2021-02-21T08:20:26Z</time>
      </trkpt>
      <trkpt lat="39.896316" lon="116.641007">
        <time>2021-02-21T08:20:31Z</time>
      </trkpt>
      <trkpt lat="39.896327" lon="116.641151">
        <time>2021-02-21T08:20:36Z</time>
      </trkpt>
      <trkpt lat="39.896293" lon="116.64132">
        <time>2021-02-21T08:20:41Z</time>
      </trkpt>
      <trkpt lat="39.89627" lon="116.64147">
        <time>2021-02-21T08:20:46Z</time>
      </trkpt>
      <trkpt lat="39.896214" lon="116.641589">
        <time>2021-02-21T08:20:51Z</time>
      </trkpt>
      <trkpt lat="39.896183" lon="116.641716">
        <time>2021-02-21T08:20:56Z</time>
      </trkpt>
      <trkpt lat="39.896227" lon="116.64206">
        <time>2021-02-21T08:21:01Z</time>
      </trkpt>
      <trkpt lat="39.896233" lon="116.642098">
        <time>2021-02-21T08:21:06Z</time>
      </trkpt>
      <trkpt lat="39.896256" lon="116.642284">
        <time>2021-02-21T08:21:11Z</time>
      </trkpt>
      <trkpt lat="39.896267" lon="116.642457">
        <time>2021-02-21T08:21:16Z</time>
      </trkpt>
      <trkpt lat="39.896255" lon="116.642603">
        <time>2021-02-21T08:21:21Z</time>
      </trkpt>
      <trkpt lat="39.896226" lon="116.642736">
        <time>2021-02-21T08:21:26Z</time>
      </trkpt>
      <trkpt lat="39.89621" lon="116.64287">
        <time>2021-02-21T08:21:31Z</time>
      </trkpt>
      <trkpt lat="39.896211" lon="116.64302">
        <time>2021-02-21T08:21:36Z</time>
      </trkpt>
      <trkpt lat="39.89623" lon="116.643224">
        <time>2021-02-21T08:21:41Z</time>
      </trkpt>
      <trkpt lat="39.896214" lon="116.643401">
        <time>2021-02-21T08:21:46Z</time>
      </trkpt>
      <trkpt lat="39.896207" lon="116.643568">
        <time>2021-02-21T08:21:51Z</time>
      </trkpt>
      <trkpt lat="39.896208" lon="116.64373">
        <time>2021-02-21T08:21:56Z</time>
      </trkpt>
      <trkpt lat="39.896223" lon="116.6439">
        <time>2021-02-21T08:22:01Z</time>
      </trkpt>
      <trkpt lat="39.896227" lon="116.644062">
        <time>2021-02-21T08:22:06Z</time>
      </trkpt>
      <trkpt lat="39.896213" lon="116.644212">
        <time>2021-02-21T08:22:11Z</time>
      </trkpt>
      <trkpt lat="39.896209" lon="116.644356">
        <time>2021-02-21T08:22:16Z</time>
      </trkpt>
      <trkpt lat="39.896211" lon="116.644493">
        <time>2021-02-21T08:22:21Z</time>
      </trkpt>
      <trkpt lat="39.896239" lon="116.644658">
        <time>2021-02-21T08:22:26Z</time>
      </trkpt>
      <trkpt lat="39.896232" lon="116.644813">
        <time>2021-02-21T08:22:31Z</time>
      </trkpt>
      <trkpt lat="39.8962" lon="116.644983">
        <time>2021-02-21T08:22:36Z</time>
      </trkpt>
      <trkpt lat="39.896206" lon="116.64514">
        <time>2021-02-21T08:22:41Z</time>
      </trkpt>
      <trkpt lat="39.896204" lon="116.645327">
        <time>2021-02-21T08:22:46Z</time>
      </trkpt>
      <trkpt lat="39.896192" lon="116.64548">
        <time>2021-02-21T08:22:51Z</time>
      </trkpt>
      <trkpt lat="39.896128" lon="116.645634">
        <time>2021-02-21T08:22:56Z</time>
      </trkpt>
      <trkpt lat="39.896108" lon="116.645807">
        <time>2021-02-21T08:23:01Z</time>
      </trkpt>
      <trkpt lat="39.896113" lon="116.645975">
        <time>2021-02-21T08:23:06Z</time>
      </trkpt>
      <trkpt lat="39.896096" lon="116.646142">
        <time>2021-02-21T08:23:11Z</time>
      </trkpt>
      <trkpt lat="39.896074" lon="116.646296">
        <time>2021-02-21T08:23:16Z</time>
      </trkpt>
      <trkpt lat="39.896046" lon="116.646463">
        <time>2021-02-21T08:23:21Z</time>
      </trkpt>
      <trkpt lat="39.896058" lon="116.646623">
        <time>2021-02-21T08:23:26Z</time>
      </trkpt>
      <trkpt lat="39.896012" lon="116.646805">
        <time>2021-02-21T08:23:31Z</time>
      </trkpt>
      <trkpt lat="39.89585" lon="116.646849">
        <time>2021-02-21T08:23:36Z</time>
      </trkpt>
      <trkpt lat="39.895702" lon="116.646792">
        <time>2021-02-21T08:23:41Z</time>
      </trkpt>
      <trkpt lat="39.895596" lon="116.646719">
        <time>2021-02-21T08:23:46Z</time>
      </trkpt>
      <trkpt lat="39.895488" lon="116.646683">
        <time>2021-02-21T08:23:51Z</time>
      </trkpt>
      <trkpt lat="39.895381" lon="116.64661">
        <time>2021-02-21T08:23:56Z</time>
      </trkpt>
      <trkpt lat="39.895263" lon="116.64655">
        <time>2021-02-21T08:24:01Z</time>
      </trkpt>
      <trkpt lat="39.895161" lon="116.646509">
        <time>2021-02-21T08:24:06Z</time>
      </trkpt>
      <trkpt lat="39.895031" lon="116.646466">
        <time>2021-02-21T08:24:11Z</time>
      </trkpt>
      <trkpt lat="39.894836" lon="116.646381">
        <time>2021-02-21T08:24:16Z</time>
      </trkpt>
      <trkpt lat="39.894816" lon="116.646369">
        <time>2021-02-21T08:24:21Z</time>
      </trkpt>
      <trkpt lat="39.894715" lon="116.646306">
        <time>2021-02-21T08:24:26Z</time>
      </trkpt>
      <trkpt lat="39.89462" lon="116.646232">
        <time>2021-02-21T08:24:31Z</time>
      </trkpt>
      <trkpt lat="39.89443" lon="116.646154">
        <time>2021-02-21T08:24:36Z</time>
      </trkpt>
      <trkpt lat="39.894353" lon="116.646127">
        <time>2021-02-21T08:24:41Z</time>
      </trkpt>
      <trkpt lat="39.894262" lon="116.646049">
        <time>2021-02-21T08:24:46Z</time>
      </trkpt>
      <trkpt lat="39.894143" lon="116.645935">
        <time>2021-02-21T08:24:51Z</time>
      </trkpt>
      <trkpt lat="39.894077" lon="116.645895">
        <time>2021-02-21T08:24:56Z</time>
      </trkpt>
      <trkpt lat="39.893949" lon="116.645953">
        <time>2021-02-21T08:25:01Z</time>
      </trkpt>
      <trkpt lat="39.893859" lon="116.64609">
        <time>2021-02-21T08:25:06Z</time>
      </trkpt>
      <trkpt lat="39.89377" lon="116.64624">
        <time>2021-02-21T08:25:11Z</time>
      </trkpt>
      <trkpt lat="39.893641" lon="116.646425">
        <time>2021-02-21T08:25:16Z</time>
      </trkpt>
      <trkpt lat="39.893584" lon="116.646429">
        <time>2021-02-21T08:25:21Z</time>
      </trkpt>
      <trkpt lat="39.893445" lon="116.646382">
        <time>2021-02-21T08:25:26Z</time>
      </trkpt>
      <trkpt lat="39.893246" lon="116.646262">
        <time>2021-02-21T08:25:31Z</time>
      </trkpt>
      <trkpt lat="39.893227" lon="116.646246">
        <time>2021-02-21T08:25:36Z</time>
      </trkpt>
      <trkpt lat="39.893117" lon="116.646183">
        <time>2021-02-21T08:25:41Z</time>
      </trkpt>
      <trkpt lat="39.892963" lon="116.646141">
        <time>2021-02-21T08:25:46Z</time>
      </trkpt>
      <trkpt lat="39.892845" lon="116.646116">
        <time>2021-02-21T08:25:51Z</time>
      </trkpt>
      <trkpt lat="39.892711" lon="116.64606">
        <time>2021-02-21T08:25:56Z</time>
      </trkpt>
      <trkpt lat="39.892626" lon="116.645952">
        <time>2021-02-21T08:26:01Z</time>
      </trkpt>
      <trkpt lat="39.892532" lon="116.645902">
        <time>2021-02-21T08:26:06Z</time>
      </trkpt>
      <trkpt lat="39.892423" lon="116.64586">
        <time>2021-02-21T08:26:11Z</time>
      </trkpt>
      <trkpt lat="39.892342" lon="116.645761">
        <time>2021-02-21T08:26:16Z</time>
      </trkpt>
      <trkpt lat="39.892228" lon="116.64569">
        <time>2021-02-21T08:26:21Z</time>
      </trkpt>
      <trkpt lat="39.892094" lon="116.645664">
        <time>2021-02-21T08:26:26Z</time>
      </trkpt>
      <trkpt lat="39.891979" lon="116.645633">
        <time>2021-02-21T08:26:31Z</time>
      </trkpt>
      <trkpt lat="39.891873" lon="116.645539">
        <time>2021-02-21T08:26:36Z</time>
      </trkpt>
      <trkpt lat="39.891779" lon="116.645467">
        <time>2021-02-21T08:26:41Z</time>
      </trkpt>
      <trkpt lat="39.891641" lon="116.645419">
        <time>2021-02-21T08:26:46Z</time>
      </trkpt>
      <trkpt lat="39.891544" lon="116.645361">
        <time>2021-02-21T08:26:51Z</time>
      </trkpt>
      <trkpt lat="39.891497" lon="116.645339">
        <time>2021-02-21T08:26:56Z</time>
      </trkpt>
      <trkpt lat="39.891455" lon="116.645385">
        <time>2021-02-21T08:27:01Z</time>
      </trkpt>
      <trkpt lat="39.89154" lon="116.645441">
        <time>2021-02-21T08:27:06Z</time>
      </trkpt>
      <trkpt lat="39.891706" lon="116.645504">
        <time>2021-02-21T08:27:11Z</time>
      </trkpt>
      <trkpt lat="39.891875" lon="116.645552">
        <time>2021-02-21T08:27:16Z</time>
      </trkpt>
      <trkpt lat="39.892021" lon="116.645616">
        <time>2021-02-21T08:27:21Z</time>
      </trkpt>
      <trkpt lat="39.892158" lon="116.645656">
        <time>2021-02-21T08:27:26Z</time>
      </trkpt>
      <trkpt lat="39.892302" lon="116.645721">
        <time>2021-02-21T08:27:31Z</time>
      </trkpt>
      <trkpt lat="39.892392" lon="116.645758">
        <time>2021-02-21T08:27:36Z</time>
      </trkpt>
      <trkpt lat="39.892511" lon="116.645803">
        <time>2021-02-21T08:27:41Z</time>
      </trkpt>
      <trkpt lat="39.892606" lon="116.645854">
        <time>2021-02-21T08:27:46Z</time>
      </trkpt>
      <trkpt lat="39.892712" lon="116.645893">
        <time>2021-02-21T08:27:51Z</time>
      </trkpt>
      <trkpt lat="39.892823" lon="116.645932">
        <time>2021-02-21T08:27:56Z</time>
      </trkpt>
      <trkpt lat="39.892922" lon="116.645945">
        <time>2021-02-21T08:28:01Z</time>
      </trkpt>
      <trkpt lat="39.893026" lon="116.645991">
        <time>2021-02-21T08:28:06Z</time>
      </trkpt>
      <trkpt lat="39.893124" lon="116.646052">
        <time>2021-02-21T08:28:11Z</time>
      </trkpt>
      <trkpt lat="39.893233" lon="116.646113">
        <time>2021-02-21T08:28:16Z</time>
      </trkpt>
      <trkpt lat="39.893351" lon="116.646148">
        <time>2021-02-21T08:28:21Z</time>
      </trkpt>
      <trkpt lat="39.893477" lon="116.646247">
        <time>2021-02-21T08:28:26Z</time>
      </trkpt>
      <trkpt lat="39.893493" lon="116.646361">
        <time>2021-02-21T08:28:31Z</time>
      </trkpt>
      <trkpt lat="39.893525" lon="116.646403">
        <time>2021-02-21T08:28:36Z</time>
      </trkpt>
      <trkpt lat="39.893659" lon="116.646329">
        <time>2021-02-21T08:28:41Z</time>
      </trkpt>
      <trkpt lat="39.893817" lon="116.646112">
        <time>2021-02-21T08:28:46Z</time>
      </trkpt>
      <trkpt lat="39.893847" lon="116.646044">
        <time>2021-02-21T08:28:51Z</time>
      </trkpt>
      <trkpt lat="39.893927" lon="116.6459">
        <time>2021-02-21T08:28:56Z</time>
      </trkpt>
      <trkpt lat="39.894046" lon="116.645909">
        <time>2021-02-21T08:29:01Z</time>
      </trkpt>
      <trkpt lat="39.894286" lon="116.646029">
        <time>2021-02-21T08:29:06Z</time>
      </trkpt>
      <trkpt lat="39.894313" lon="116.64604">
        <time>2021-02-21T08:29:11Z</time>
      </trkpt>
      <trkpt lat="39.894472" lon="116.646086">
        <time>2021-02-21T08:29:16Z</time>
      </trkpt>
      <trkpt lat="39.894594" lon="116.646152">
        <time>2021-02-21T08:29:21Z</time>
      </trkpt>
      <trkpt lat="39.894696" lon="116.646285">
        <time>2021-02-21T08:29:26Z</time>
      </trkpt>
      <trkpt lat="39.894727" lon="116.646297">
        <time>2021-02-21T08:29:31Z</time>
      </trkpt>
      <trkpt lat="39.89479" lon="116.646321">
        <time>2021-02-21T08:29:36Z</time>
      </trkpt>
      <trkpt lat="39.894889" lon="116.646391">
        <time>2021-02-21T08:29:41Z</time>
      </trkpt>
      <trkpt lat="39.895018" lon="116.646466">
        <time>2021-02-21T08:29:46Z</time>
      </trkpt>
      <trkpt lat="39.895159" lon="116.646493">
        <time>2021-02-21T08:29:51Z</time>
      </trkpt>
      <trkpt lat="39.895256" lon="116.646527">
        <time>2021-02-21T08:29:56Z</time>
      </trkpt>
      <trkpt lat="39.89533" lon="116.646604">
        <time>2021-02-21T08:30:01Z</time>
      </trkpt>
      <trkpt lat="39.895454" lon="116.646642">
        <time>2021-02-21T08:30:06Z</time>
      </trkpt>
      <trkpt lat="39.895594" lon="116.646674">
        <time>2021-02-21T08:30:11Z</time>
      </trkpt>
      <trkpt lat="39.895714" lon="116.646724">
        <time>2021-02-21T08:30:16Z</time>
      </trkpt>
      <trkpt lat="39.895852" lon="116.646773">
        <time>2021-02-21T08:30:21Z</time>
      </trkpt>
      <trkpt lat="39.895979" lon="116.646783">
        <time>2021-02-21T08:30:26Z</time>
      </trkpt>
      <trkpt lat="39.896053" lon="116.646723">
        <time>2021-02-21T08:30:31Z</time>
      </trkpt>
      <trkpt lat="39.896082" lon="116.646569">
        <time>2021-02-21T08:30:36Z</time>
      </trkpt>
      <trkpt lat="39.896056" lon="116.646416">
        <time>2021-02-21T08:30:41Z</time>
      </trkpt>
      <trkpt lat="39.896034" lon="116.646271">
        <time>2021-02-21T08:30:46Z</time>
      </trkpt>
      <trkpt lat="39.896034" lon="116.646103">
        <time>2021-02-21T08:30:51Z</time>
      </trkpt>
      <trkpt lat="39.89604" lon="116.64595">
        <time>2021-02-21T08:30:56Z</time>
      </trkpt>
      <trkpt lat="39.896064" lon="116.645858">
        <time>2021-02-21T08:31:01Z</time>
      </trkpt>
      <trkpt lat="39.89609" lon="116.645726">
        <time>2021-02-21T08:31:06Z</time>
      </trkpt>
      <trkpt lat="39.896145" lon="116.645597">
        <time>2021-02-21T08:31:11Z</time>
      </trkpt>
      <trkpt lat="39.89615" lon="116.645431">
        <time>2021-02-21T08:31:16Z</time>
      </trkpt>
      <trkpt lat="39.896164" lon="116.645284">
        <time>2021-02-21T08:31:21Z</time>
      </trkpt>
      <trkpt lat="39.896196" lon="116.645138">
        <time>2021-02-21T08:31:26Z</time>
      </trkpt>
      <trkpt lat="39.896185" lon="116.644984">
        <time>2021-02-21T08:31:31Z</time>
      </trkpt>
      <trkpt lat="39.896185" lon="116.644814">
        <time>2021-02-21T08:31:36Z</time>
      </trkpt>
      <trkpt lat="39.896179" lon="116.644645">
        <time>2021-02-21T08:31:41Z</time>
      </trkpt>
      <trkpt lat="39.896155" lon="116.644475">
        <time>2021-02-21T08:31:46Z</time>
      </trkpt>
      <trkpt lat="39.896176" lon="116.644331">
        <time>2021-02-21T08:31:51Z</time>
      </trkpt>
      <trkpt lat="39.896204" lon="116.644192">
        <time>2021-02-21T08:31:56Z</time>
      </trkpt>
      <trkpt lat="39.896192" lon="116.644033">
        <time>2021-02-21T08:32:01Z</time>
      </trkpt>
      <trkpt lat="39.896177" lon="116.643894">
        <time>2021-02-21T08:32:06Z</time>
      </trkpt>
      <trkpt lat="39.896188" lon="116.643754">
        <time>2021-02-21T08:32:11Z</time>
      </trkpt>
      <trkpt lat="39.896195" lon="116.643597">
        <time>2021-02-21T08:32:16Z</time>
      </trkpt>
      <trkpt lat="39.896179" lon="116.643435">
        <time>2021-02-21T08:32:21Z</time>
      </trkpt>
      <trkpt lat="39.896155" lon="116.643263">
        <time>2021-02-21T08:32:26Z</time>
      </trkpt>
      <trkpt lat="39.896156" lon="116.643115">
        <time>2021-02-21T08:32:31Z</time>
      </trkpt>
      <trkpt lat="39.896157" lon="116.643011">
        <time>2021-02-21T08:32:36Z</time>
      </trkpt>
      <trkpt lat="39.896172" lon="116.642865">
        <time>2021-02-21T08:32:41Z</time>
      </trkpt>
      <trkpt lat="39.89619" lon="116.642632">
        <time>2021-02-21T08:32:46Z</time>
      </trkpt>
      <trkpt lat="39.89623" lon="116.642553">
        <time>2021-02-21T08:32:51Z</time>
      </trkpt>
      <trkpt lat="39.896253" lon="116.64241">
        <time>2021-02-21T08:32:56Z</time>
      </trkpt>
      <trkpt lat="39.89627" lon="116.642313">
        <time>2021-02-21T08:33:01Z</time>
      </trkpt>
      <trkpt lat="39.896271" lon="116.64219">
        <time>2021-02-21T08:33:06Z</time>
      </trkpt>
      <trkpt lat="39.896236" lon="116.642016">
        <time>2021-02-21T08:33:11Z</time>
      </trkpt>
      <trkpt lat="39.896198" lon="116.64183">
        <time>2021-02-21T08:33:16Z</time>
      </trkpt>
      <trkpt lat="39.896197" lon="116.641595">
        <time>2021-02-21T08:33:21Z</time>
      </trkpt>
      <trkpt lat="39.896201" lon="116.641495">
        <time>2021-02-21T08:33:26Z</time>
      </trkpt>
      <trkpt lat="39.896216" lon="116.641353">
        <time>2021-02-21T08:33:31Z</time>
      </trkpt>
      <trkpt lat="39.896225" lon="116.64119">
        <time>2021-02-21T08:33:36Z</time>
      </trkpt>
      <trkpt lat="39.896216" lon="116.641045">
        <time>2021-02-21T08:33:41Z</time>
      </trkpt>
      <trkpt lat="39.896196" lon="116.640882">
        <time>2021-02-21T08:33:46Z</time>
      </trkpt>
      <trkpt lat="39.89621" lon="116.640748">
        <time>2021-02-21T08:33:51Z</time>
      </trkpt>
      <trkpt lat="39.896219" lon="116.640615">
        <time>2021-02-21T08:33:56Z</time>
      </trkpt>
      <trkpt lat="39.896211" lon="116.640441">
        <time>2021-02-21T08:34:01Z</time>
      </trkpt>
      <trkpt lat="39.896227" lon="116.640269">
        <time>2021-02-21T08:34:06Z</time>
      </trkpt>
      <trkpt lat="39.896211" lon="116.640097">
        <time>2021-02-21T08:34:11Z</time>
      </trkpt>
      <trkpt lat="39.896219" lon="116.639957">
        <time>2021-02-21T08:34:16Z</time>
      </trkpt>
      <trkpt lat="39.896207" lon="116.639806">
        <time>2021-02-21T08:34:21Z</time>
      </trkpt>
      <trkpt lat="39.896204" lon="116.639641">
        <time>2021-02-21T08:34:26Z</time>
      </trkpt>
      <trkpt lat="39.896193" lon="116.639454">
        <time>2021-02-21T08:34:31Z</time>
      </trkpt>
      <trkpt lat="39.896184" lon="116.639294">
        <time>2021-02-21T08:34:36Z</time>
      </trkpt>
      <trkpt lat="39.896162" lon="116.639128">
        <time>2021-02-21T08:34:41Z</time>
      </trkpt>
      <trkpt lat="39.896155" lon="116.63896">
        <time>2021-02-21T08:34:46Z</time>
      </trkpt>
      <trkpt lat="39.896116" lon="116.638799">
        <time>2021-02-21T08:34:51Z</time>
      </trkpt>
      <trkpt lat="39.896093" lon="116.638659">
        <time>2021-02-21T08:34:56Z</time>
      </trkpt>
      <trkpt lat="39.896073" lon="116.638502">
        <time>2021-02-21T08:35:01Z</time>
      </trkpt>
      <trkpt lat="39.896096" lon="116.638345">
        <time>2021-02-21T08:35:06Z</time>
      </trkpt>
      <trkpt lat="39.896112" lon="116.63817">
        <time>2021-02-21T08:35:11Z</time>
      </trkpt>
      <trkpt lat="39.896098" lon="116.638001">
        <time>2021-02-21T08:35:16Z</time>
      </trkpt>
      <trkpt lat="39.896085" lon="116.637818">
        <time>2021-02-21T08:35:21Z</time>
      </trkpt>
      <trkpt lat="39.896077" lon="116.637671">
        <time>2021-02-21T08:35:26Z</time>
      </trkpt>
      <trkpt lat="39.896087" lon="116.637577">
        <time>2021-02-21T08:35:31Z</time>
      </trkpt>
      <trkpt lat="39.896099" lon="116.637501">
        <time>2021-02-21T08:35:36Z</time>
      </trkpt>
      <trkpt lat="39.896109" lon="116.637422">
        <time>2021-02-21T08:35:41Z</time>
      </trkpt>
      <trkpt lat="39.896108" lon="116.637308">
        <time>2021-02-21T08:35:46Z</time>
      </trkpt>
      <trkpt lat="39.896117" lon="116.637205">
        <time>2021-02-21T08:35:51Z</time>
      </trkpt>
      <trkpt lat="39.896096" lon="116.637098">
        <time>2021-02-21T08:35:56Z</time>
      </trkpt>
      <trkpt lat="39.896098" lon="116.636968">
        <time>2021-02-21T08:36:01Z</time>
      </trkpt>
      <trkpt lat="39.896079" lon="116.636861">
        <time>2021-02-21T08:36:06Z</time>
      </trkpt>
      <trkpt lat="39.896039" lon="116.636742">
        <time>2021-02-21T08:36:11Z</time>
      </trkpt>
      <trkpt lat="39.895992" lon="116.636715">
        <time>2021-02-21T08:36:16Z</time>
      </trkpt>
      <trkpt lat="39.896028" lon="116.636839">
        <time>2021-02-21T08:36:21Z</time>
      </trkpt>
      <trkpt lat="39.896107" lon="116.636996">
        <time>2021-02-21T08:36:26Z</time>
      </trkpt>
      <trkpt lat="39.896175" lon="116.637161">
        <time>2021-02-21T08:36:31Z</time>
      </trkpt>
      <trkpt lat="39.896182" lon="116.637308">
        <time>2021-02-21T08:36:36Z</time>
      </trkpt>
      <trkpt lat="39.896175" lon="116.637441">
        <time>2021-02-21T08:36:41Z</time>
      </trkpt>
      <trkpt lat="39.896169" lon="116.637573">
        <time>2021-02-21T08:36:46Z</time>
      </trkpt>
      <trkpt lat="39.896171" lon="116.637735">
        <time>2021-02-21T08:36:51Z</time>
      </trkpt>
      <trkpt lat="39.896172" lon="116.6379">
        <time>2021-02-21T08:36:56Z</time>
      </trkpt>
      <trkpt lat="39.89618" lon="116.638061">
        <time>2021-02-21T08:37:01Z</time>
      </trkpt>
      <trkpt lat="39.896187" lon="116.638235">
        <time>2021-02-21T08:37:06Z</time>
      </trkpt>
      <trkpt lat="39.8962" lon="116.638406">
        <time>2021-02-21T08:37:11Z</time>
      </trkpt>
      <trkpt lat="39.896218" lon="116.638555">
        <time>2021-02-21T08:37:16Z</time>
      </trkpt>
      <trkpt lat="39.896246" lon="116.638695">
        <time>2021-02-21T08:37:21Z</time>
      </trkpt>
      <trkpt lat="39.896257" lon="116.638783">
        <time>2021-02-21T08:37:26Z</time>
      </trkpt>
      <trkpt lat="39.896258" lon="116.638882">
        <time>2021-02-21T08:37:31Z</time>
      </trkpt>
      <trkpt lat="39.896263" lon="116.638987">
        <time>2021-02-21T08:37:36Z</time>
      </trkpt>
      <trkpt lat="39.89627" lon="116.639134">
        <time>2021-02-21T08:37:41Z</time>
      </trkpt>
      <trkpt lat="39.896266" lon="116.639297">
        <time>2021-02-21T08:37:46Z</time>
      </trkpt>
      <trkpt lat="39.896269" lon="116.639462">
        <time>2021-02-21T08:37:51Z</time>
      </trkpt>
      <trkpt lat="39.896295" lon="116.639609">
        <time>2021-02-21T08:37:56Z</time>
      </trkpt>
      <trkpt lat="39.896323" lon="116.639774">
        <time>2021-02-21T08:38:01Z</time>
      </trkpt>
      <trkpt lat="39.896328" lon="116.639941">
        <time>2021-02-21T08:38:06Z</time>
      </trkpt>
      <trkpt lat="39.896307" lon="116.640095">
        <time>2021-02-21T08:38:11Z</time>
      </trkpt>
      <trkpt lat="39.896313" lon="116.640263">
        <time>2021-02-21T08:38:16Z</time>
      </trkpt>
      <trkpt lat="39.896331" lon="116.640428">
        <time>2021-02-21T08:38:21Z</time>
      </trkpt>
      <trkpt lat="39.896319" lon="116.640623">
        <time>2021-02-21T08:38:26Z</time>
      </trkpt>
      <trkpt lat="39.896288" lon="116.640804">
        <time>2021-02-21T08:38:31Z</time>
      </trkpt>
      <trkpt lat="39.896259" lon="116.640989">
        <time>2021-02-21T08:38:36Z</time>
      </trkpt>
      <trkpt lat="39.896269" lon="116.641103">
        <time>2021-02-21T08:38:41Z</time>
      </trkpt>
      <trkpt lat="39.896264" lon="116.641195">
        <time>2021-02-21T08:38:46Z</time>
      </trkpt>
      <trkpt lat="39.89628" lon="116.641294">
        <time>2021-02-21T08:38:51Z</time>
      </trkpt>
      <trkpt lat="39.896264" lon="116.641401">
        <time>2021-02-21T08:38:56Z</time>
      </trkpt>
      <trkpt lat="39.896248" lon="116.641533">
        <time>2021-02-21T08:39:01Z</time>
      </trkpt>
      <trkpt lat="39.896255" lon="116.641655">
        <time>2021-02-21T08:39:06Z</time>
      </trkpt>
      <trkpt lat="39.896254" lon="116.641823">
        <time>2021-02-21T08:39:11Z</time>
      </trkpt>
      <trkpt lat="39.896234" lon="116.642033">
        <time>2021-02-21T08:39:16Z</time>
      </trkpt>
      <trkpt lat="39.896226" lon="116.64213">
        <time>2021-02-21T08:39:21Z</time>
      </trkpt>
      <trkpt lat="39.896213" lon="116.642306">
        <time>2021-02-21T08:39:26Z</time>
      </trkpt>
      <trkpt lat="39.896232" lon="116.642467">
        <time>2021-02-21T08:39:31Z</time>
      </trkpt>
      <trkpt lat="39.89625" lon="116.642625">
        <time>2021-02-21T08:39:36Z</time>
      </trkpt>
      <trkpt lat="39.896265" lon="116.642784">
        <time>2021-02-21T08:39:41Z</time>
      </trkpt>
      <trkpt lat="39.896265" lon="116.642963">
        <time>2021-02-21T08:39:46Z</time>
      </trkpt>
      <trkpt lat="39.896237" lon="116.643132">
        <time>2021-02-21T08:39:51Z</time>
      </trkpt>
      <trkpt lat="39.896206" lon="116.643276">
        <time>2021-02-21T08:39:56Z</time>
      </trkpt>
      <trkpt lat="39.896202" lon="116.643449">
        <time>2021-02-21T08:40:01Z</time>
      </trkpt>
      <trkpt lat="39.896238" lon="116.643629">
        <time>2021-02-21T08:40:06Z</time>
      </trkpt>
      <trkpt lat="39.896257" lon="116.643788">
        <time>2021-02-21T08:40:11Z</time>
      </trkpt>
      <trkpt lat="39.896245" lon="116.64395">
        <time>2021-02-21T08:40:16Z</time>
      </trkpt>
      <trkpt lat="39.896249" lon="116.644072">
        <time>2021-02-21T08:40:21Z</time>
      </trkpt>
      <trkpt lat="39.896238" lon="116.644147">
        <time>2021-02-21T08:40:26Z</time>
      </trkpt>
      <trkpt lat="39.896227" lon="116.644225">
        <time>2021-02-21T08:40:31Z</time>
      </trkpt>
      <trkpt lat="39.896213" lon="116.644309">
        <time>2021-02-21T08:40:36Z</time>
      </trkpt>
      <trkpt lat="39.89623" lon="116.644395">
        <time>2021-02-21T08:40:41Z</time>
      </trkpt>
      <trkpt lat="39.896239" lon="116.644535">
        <time>2021-02-21T08:40:46Z</time>
      </trkpt>
      <trkpt lat="39.896241" lon="116.6447">
        <time>2021-02-21T08:40:51Z</time>
      </trkpt>
      <trkpt lat="39.896213" lon="116.644823">
        <time>2021-02-21T08:40:56Z</time>
      </trkpt>
      <trkpt lat="39.896181" lon="116.644985">
        <time>2021-02-21T08:41:01Z</time>
      </trkpt>
      <trkpt lat="39.896186" lon="116.645174">
        <time>2021-02-21T08:41:06Z</time>
      </trkpt>
      <trkpt lat="39.896183" lon="116.645355">
        <time>2021-02-21T08:41:11Z</time>
      </trkpt>
      <trkpt lat="39.896165" lon="116.645526">
        <time>2021-02-21T08:41:16Z</time>
      </trkpt>
      <trkpt lat="39.896105" lon="116.645696">
        <time>2021-02-21T08:41:21Z</time>
      </trkpt>
      <trkpt lat="39.896079" lon="116.645844">
        <time>2021-02-21T08:41:26Z</time>
      </trkpt>
      <trkpt lat="39.89606" lon="116.645988">
        <time>2021-02-21T08:41:31Z</time>
      </trkpt>
      <trkpt lat="39.896078" lon="116.646171">
        <time>2021-02-21T08:41:36Z</time>
      </trkpt>
      <trkpt lat="39.896063" lon="116.646356">
        <time>2021-02-21T08:41:41Z</time>
      </trkpt>
      <trkpt lat="39.896065" lon="116.646547">
        <time>2021-02-21T08:41:46Z</time>
      </trkpt>
      <trkpt lat="39.896065" lon="116.646731">
        <time>2021-02-21T08:41:51Z</time>
      </trkpt>
      <trkpt lat="39.895949" lon="116.646857">
        <time>2021-02-21T08:41:56Z</time>
      </trkpt>
      <trkpt lat="39.895754" lon="116.646835">
        <time>2021-02-21T08:42:01Z</time>
      </trkpt>
      <trkpt lat="39.895611" lon="116.64678">
        <time>2021-02-21T08:42:06Z</time>
      </trkpt>
      <trkpt lat="39.89546" lon="116.646699">
        <time>2021-02-21T08:42:11Z</time>
      </trkpt>
      <trkpt lat="39.895358" lon="116.646629">
        <time>2021-02-21T08:42:16Z</time>
      </trkpt>
      <trkpt lat="39.895302" lon="116.646606">
        <time>2021-02-21T08:42:21Z</time>
      </trkpt>
      <trkpt lat="39.895243" lon="116.646556">
        <time>2021-02-21T08:42:26Z</time>
      </trkpt>
      <trkpt lat="39.895177" lon="116.646508">
        <time>2021-02-21T08:42:31Z</time>
      </trkpt>
      <trkpt lat="39.895129" lon="116.646489">
        <time>2021-02-21T08:42:36Z</time>
      </trkpt>
      <trkpt lat="39.895075" lon="116.646441">
        <time>2021-02-21T08:42:41Z</time>
      </trkpt>
      <trkpt lat="39.894902" lon="116.646372">
        <time>2021-02-21T08:42:46Z</time>
      </trkpt>
      <trkpt lat="39.894881" lon="116.646357">
        <time>2021-02-21T08:42:51Z</time>
      </trkpt>
      <trkpt lat="39.894778" lon="116.646325">
        <time>2021-02-21T08:42:56Z</time>
      </trkpt>
      <trkpt lat="39.894678" lon="116.646297">
        <time>2021-02-21T08:43:01Z</time>
      </trkpt>
      <trkpt lat="39.894445" lon="116.646172">
        <time>2021-02-21T08:43:06Z</time>
      </trkpt>
      <trkpt lat="39.894421" lon="116.64616">
        <time>2021-02-21T08:43:11Z</time>
      </trkpt>
      <trkpt lat="39.8943" lon="116.6461">
        <time>2021-02-21T08:43:16Z</time>
      </trkpt>
      <trkpt lat="39.894117" lon="116.645966">
        <time>2021-02-21T08:43:21Z</time>
      </trkpt>
      <trkpt lat="39.894092" lon="116.645963">
        <time>2021-02-21T08:43:26Z</time>
      </trkpt>
      <trkpt lat="39.893956" lon="116.645948">
        <time>2021-02-21T08:43:31Z</time>
      </trkpt>
      <trkpt lat="39.893839" lon="116.645964">
        <time>2021-02-21T08:43:36Z</time>
      </trkpt>
      <trkpt lat="39.893757" lon="116.646091">
        <time>2021-02-21T08:43:41Z</time>
      </trkpt>
      <trkpt lat="39.893674" lon="116.646232">
        <time>2021-02-21T08:43:46Z</time>
      </trkpt>
      <trkpt lat="39.893625" lon="116.646405">
        <time>2021-02-21T08:43:51Z</time>
      </trkpt>
      <trkpt lat="39.893551" lon="116.646372">
        <time>2021-02-21T08:43:56Z</time>
      </trkpt>
      <trkpt lat="39.893417" lon="116.64632">
        <time>2021-02-21T08:44:01Z</time>
      </trkpt>
      <trkpt lat="39.893191" lon="116.646248">
        <time>2021-02-21T08:44:06Z</time>
      </trkpt>
      <trkpt lat="39.893176" lon="116.646244">
        <time>2021-02-21T08:44:11Z</time>
      </trkpt>
      <trkpt lat="39.893097" lon="116.646186">
        <time>2021-02-21T08:44:16Z</time>
      </trkpt>
      <trkpt lat="39.892961" lon="116.646123">
        <time>2021-02-21T08:44:21Z</time>
      </trkpt>
      <trkpt lat="39.892912" lon="116.646109">
        <time>2021-02-21T08:44:26Z</time>
      </trkpt>
      <trkpt lat="39.892853" lon="116.646064">
        <time>2021-02-21T08:44:31Z</time>
      </trkpt>
      <trkpt lat="39.892766" lon="116.646014">
        <time>2021-02-21T08:44:36Z</time>
      </trkpt>
      <trkpt lat="39.892653" lon="116.645977">
        <time>2021-02-21T08:44:41Z</time>
      </trkpt>
      <trkpt lat="39.892567" lon="116.645912">
        <time>2021-02-21T08:44:46Z</time>
      </trkpt>
      <trkpt lat="39.892456" lon="116.645857">
        <time>2021-02-21T08:44:51Z</time>
      </trkpt>
      <trkpt lat="39.892346" lon="116.645825">
        <time>2021-02-21T08:44:56Z</time>
      </trkpt>
      <trkpt lat="39.892258" lon="116.645749">
        <time>2021-02-21T08:45:01Z</time>
      </trkpt>
      <trkpt lat="39.892163" lon="116.645687">
        <time>2021-02-21T08:45:06Z</time>
      </trkpt>
      <trkpt lat="39.892067" lon="116.64563">
        <time>2021-02-21T08:45:11Z</time>
      </trkpt>
      <trkpt lat="39.891961" lon="116.645585">
        <time>2021-02-21T08:45:16Z</time>
      </trkpt>
      <trkpt lat="39.891828" lon="116.645511">
        <time>2021-02-21T08:45:21Z</time>
      </trkpt>
      <trkpt lat="39.891689" lon="116.645442">
        <time>2021-02-21T08:45:26Z</time>
      </trkpt>
      <trkpt lat="39.89149" lon="116.645349">
        <time>2021-02-21T08:45:31Z</time>
      </trkpt>
      <trkpt lat="39.891453" lon="116.645345">
        <time>2021-02-21T08:45:36Z</time>
      </trkpt>
      <trkpt lat="39.891469" lon="116.645431">
        <time>2021-02-21T08:45:41Z</time>
      </trkpt>
      <trkpt lat="39.891608" lon="116.645484">
        <time>2021-02-21T08:45:46Z</time>
      </trkpt>
      <trkpt lat="39.891787" lon="116.645505">
        <time>2021-02-21T08:45:51Z</time>
      </trkpt>
      <trkpt lat="39.89192" lon="116.645531">
        <time>2021-02-21T08:45:56Z</time>
      </trkpt>
      <trkpt lat="39.891987" lon="116.645566">
        <time>2021-02-21T08:46:01Z</time>
      </trkpt>
      <trkpt lat="39.892058" lon="116.645603">
        <time>2021-02-21T08:46:06Z</time>
      </trkpt>
      <trkpt lat="39.892156" lon="116.645655">
        <time>2021-02-21T08:46:11Z</time>
      </trkpt>
      <trkpt lat="39.892307" lon="116.645695">
        <time>2021-02-21T08:46:16Z</time>
      </trkpt>
      <trkpt lat="39.892359" lon="116.645744">
        <time>2021-02-21T08:46:21Z</time>
      </trkpt>
      <trkpt lat="39.892428" lon="116.645772">
        <time>2021-02-21T08:46:26Z</time>
      </trkpt>
      <trkpt lat="39.892543" lon="116.645804">
        <time>2021-02-21T08:46:31Z</time>
      </trkpt>
      <trkpt lat="39.892711" lon="116.645883">
        <time>2021-02-21T08:46:36Z</time>
      </trkpt>
      <trkpt lat="39.892833" lon="116.645961">
        <time>2021-02-21T08:46:41Z</time>
      </trkpt>
      <trkpt lat="39.892967" lon="116.645991">
        <time>2021-02-21T08:46:46Z</time>
      </trkpt>
      <trkpt lat="39.893103" lon="116.646035">
        <time>2021-02-21T08:46:51Z</time>
      </trkpt>
      <trkpt lat="39.893216" lon="116.646112">
        <time>2021-02-21T08:46:56Z</time>
      </trkpt>
      <trkpt lat="39.89333" lon="116.646174">
        <time>2021-02-21T08:47:01Z</time>
      </trkpt>
      <trkpt lat="39.893446" lon="116.646221">
        <time>2021-02-21T08:47:06Z</time>
      </trkpt>
      <trkpt lat="39.893574" lon="116.646292">
        <time>2021-02-21T08:47:11Z</time>
      </trkpt>
      <trkpt lat="39.893706" lon="116.646327">
        <time>2021-02-21T08:47:16Z</time>
      </trkpt>
      <trkpt lat="39.893834" lon="116.646132">
        <time>2021-02-21T08:47:21Z</time>
      </trkpt>
      <trkpt lat="39.893873" lon="116.646067">
        <time>2021-02-21T08:47:26Z</time>
      </trkpt>
      <trkpt lat="39.893938" lon="116.64592">
        <time>2021-02-21T08:47:31Z</time>
      </trkpt>
      <trkpt lat="39.894053" lon="116.64586">
        <time>2021-02-21T08:47:36Z</time>
      </trkpt>
      <trkpt lat="39.894276" lon="116.646019">
        <time>2021-02-21T08:47:41Z</time>
      </trkpt>
      <trkpt lat="39.894302" lon="116.646035">
        <time>2021-02-21T08:47:46Z</time>
      </trkpt>
      <trkpt lat="39.894426" lon="116.646084">
        <time>2021-02-21T08:47:51Z</time>
      </trkpt>
      <trkpt lat="39.894537" lon="116.646128">
        <time>2021-02-21T08:47:56Z</time>
      </trkpt>
      <trkpt lat="39.894673" lon="116.64622">
        <time>2021-02-21T08:48:01Z</time>
      </trkpt>
      <trkpt lat="39.894696" lon="116.646234">
        <time>2021-02-21T08:48:06Z</time>
      </trkpt>
      <trkpt lat="39.894803" lon="116.646301">
        <time>2021-02-21T08:48:11Z</time>
      </trkpt>
      <trkpt lat="39.894913" lon="116.646342">
        <time>2021-02-21T08:48:16Z</time>
      </trkpt>
      <trkpt lat="39.895022" lon="116.646375">
        <time>2021-02-21T08:48:21Z</time>
      </trkpt>
      <trkpt lat="39.895126" lon="116.646433">
        <time>2021-02-21T08:48:26Z</time>
      </trkpt>
      <trkpt lat="39.895243" lon="116.64652">
        <time>2021-02-21T08:48:31Z</time>
      </trkpt>
      <trkpt lat="39.895449" lon="116.646605">
        <time>2021-02-21T08:48:36Z</time>
      </trkpt>
      <trkpt lat="39.895489" lon="116.646617">
        <time>2021-02-21T08:48:41Z</time>
      </trkpt>
      <trkpt lat="39.895607" lon="116.646672">
        <time>2021-02-21T08:48:46Z</time>
      </trkpt>
      <trkpt lat="39.895734" lon="116.646731">
        <time>2021-02-21T08:48:51Z</time>
      </trkpt>
      <trkpt lat="39.895841" lon="116.646764">
        <time>2021-02-21T08:48:56Z</time>
      </trkpt>
      <trkpt lat="39.8959" lon="116.646774">
        <time>2021-02-21T08:49:01Z</time>
      </trkpt>
      <trkpt lat="39.896028" lon="116.646693">
        <time>2021-02-21T08:49:06Z</time>
      </trkpt>
      <trkpt lat="39.896006" lon="116.646546">
        <time>2021-02-21T08:49:11Z</time>
      </trkpt>
      <trkpt lat="39.895967" lon="116.646424">
        <time>2021-02-21T08:49:16Z</time>
      </trkpt>
      <trkpt lat="39.895994" lon="116.646369">
        <time>2021-02-21T08:49:21Z</time>
      </trkpt>
      <trkpt lat="39.895996" lon="116.646297">
        <time>2021-02-21T08:49:26Z</time>
      </trkpt>
      <trkpt lat="39.895998" lon="116.64623">
        <time>2021-02-21T08:49:31Z</time>
      </trkpt>
      <trkpt lat="39.89601" lon="116.646172">
        <time>2021-02-21T08:49:36Z</time>
      </trkpt>
      <trkpt lat="39.896032" lon="116.646093">
        <time>2021-02-21T08:49:41Z</time>
      </trkpt>
      <trkpt lat="39.896038" lon="116.646024">
        <time>2021-02-21T08:49:46Z</time>
      </trkpt>
      <trkpt lat="39.896061" lon="116.64593">
        <time>2021-02-21T08:49:51Z</time>
      </trkpt>
      <trkpt lat="39.896088" lon="116.645824">
        <time>2021-02-21T08:49:56Z</time>
      </trkpt>
      <trkpt lat="39.896104" lon="116.645678">
        <time>2021-02-21T08:50:01Z</time>
      </trkpt>
      <trkpt lat="39.896146" lon="116.645507">
        <time>2021-02-21T08:50:06Z</time>
      </trkpt>
      <trkpt lat="39.896174" lon="116.645375">
        <time>2021-02-21T08:50:11Z</time>
      </trkpt>
      <trkpt lat="39.896215" lon="116.645226">
        <time>2021-02-21T08:50:16Z</time>
      </trkpt>
      <trkpt lat="39.896201" lon="116.645065">
        <time>2021-02-21T08:50:21Z</time>
      </trkpt>
      <trkpt lat="39.896206" lon="116.644876">
        <time>2021-02-21T08:50:26Z</time>
      </trkpt>
      <trkpt lat="39.896208" lon="116.644691">
        <time>2021-02-21T08:50:31Z</time>
      </trkpt>
      <trkpt lat="39.896208" lon="116.644517">
        <time>2021-02-21T08:50:36Z</time>
      </trkpt>
      <trkpt lat="39.896216" lon="116.644377">
        <time>2021-02-21T08:50:41Z</time>
      </trkpt>
      <trkpt lat="39.896213" lon="116.644232">
        <time>2021-02-21T08:50:46Z</time>
      </trkpt>
      <trkpt lat="39.896198" lon="116.644133">
        <time>2021-02-21T08:50:51Z</time>
      </trkpt>
      <trkpt lat="39.896188" lon="116.644025">
        <time>2021-02-21T08:50:56Z</time>
      </trkpt>
      <trkpt lat="39.896191" lon="116.643931">
        <time>2021-02-21T08:51:01Z</time>
      </trkpt>
      <trkpt lat="39.896187" lon="116.643795">
        <time>2021-02-21T08:51:06Z</time>
      </trkpt>
      <trkpt lat="39.896185" lon="116.643656">
        <time>2021-02-21T08:51:11Z</time>
      </trkpt>
      <trkpt lat="39.896156" lon="116.643496">
        <time>2021-02-21T08:51:16Z</time>
      </trkpt>
      <trkpt lat="39.896162" lon="116.643334">
        <time>2021-02-21T08:51:21Z</time>
      </trkpt>
      <trkpt lat="39.896174" lon="116.643173">
        <time>2021-02-21T08:51:26Z</time>
      </trkpt>
      <trkpt lat="39.896203" lon="116.64305">
        <time>2021-02-21T08:51:31Z</time>
      </trkpt>
      <trkpt lat="39.896189" lon="116.642979">
        <time>2021-02-21T08:51:36Z</time>
      </trkpt>
      <trkpt lat="39.896193" lon="116.642813">
        <time>2021-02-21T08:51:41Z</time>
      </trkpt>
      <trkpt lat="39.896195" lon="116.642674">
        <time>2021-02-21T08:51:46Z</time>
      </trkpt>
      <trkpt lat="39.8962" lon="116.642482">
        <time>2021-02-21T08:51:51Z</time>
      </trkpt>
      <trkpt lat="39.896225" lon="116.642298">
        <time>2021-02-21T08:51:56Z</time>
      </trkpt>
      <trkpt lat="39.896232" lon="116.642123">
        <time>2021-02-21T08:52:01Z</time>
      </trkpt>
      <trkpt lat="39.896227" lon="116.641984">
        <time>2021-02-21T08:52:06Z</time>
      </trkpt>
      <trkpt lat="39.896227" lon="116.641832">
        <time>2021-02-21T08:52:11Z</time>
      </trkpt>
      <trkpt lat="39.896202" lon="116.641593">
        <time>2021-02-21T08:52:16Z</time>
      </trkpt>
      <trkpt lat="39.896209" lon="116.641441">
        <time>2021-02-21T08:52:21Z</time>
      </trkpt>
      <trkpt lat="39.896234" lon="116.641338">
        <time>2021-02-21T08:52:26Z</time>
      </trkpt>
      <trkpt lat="39.896246" lon="116.641198">
        <time>2021-02-21T08:52:31Z</time>
      </trkpt>
      <trkpt lat="39.89623" lon="116.641037">
        <time>2021-02-21T08:52:36Z</time>
      </trkpt>
      <trkpt lat="39.896216" lon="116.640858">
        <time>2021-02-21T08:52:41Z</time>
      </trkpt>
      <trkpt lat="39.896232" lon="116.640685">
        <time>2021-02-21T08:52:46Z</time>
      </trkpt>
      <trkpt lat="39.896245" lon="116.64055">
        <time>2021-02-21T08:52:51Z</time>
      </trkpt>
      <trkpt lat="39.89624" lon="116.640411">
        <time>2021-02-21T08:52:56Z</time>
      </trkpt>
      <trkpt lat="39.896227" lon="116.640249">
        <time>2021-02-21T08:53:01Z</time>
      </trkpt>
      <trkpt lat="39.896215" lon="116.640083">
        <time>2021-02-21T08:53:06Z</time>
      </trkpt>
      <trkpt lat="39.896207" lon="116.639915">
        <time>2021-02-21T08:53:11Z</time>
      </trkpt>
      <trkpt lat="39.896195" lon="116.639754">
        <time>2021-02-21T08:53:16Z</time>
      </trkpt>
      <trkpt lat="39.896188" lon="116.639594">
        <time>2021-02-21T08:53:21Z</time>
      </trkpt>
      <trkpt lat="39.896181" lon="116.639408">
        <time>2021-02-21T08:53:26Z</time>
      </trkpt>
      <trkpt lat="39.896158" lon="116.639215">
        <time>2021-02-21T08:53:31Z</time>
      </trkpt>
      <trkpt lat="39.896194" lon="116.63907">
        <time>2021-02-21T08:53:36Z</time>
      </trkpt>
      <trkpt lat="39.896247" lon="116.638931">
        <time>2021-02-21T08:53:41Z</time>
      </trkpt>
      <trkpt lat="39.896239" lon="116.638718">
        <time>2021-02-21T08:53:46Z</time>
      </trkpt>
      <trkpt lat="39.896215" lon="116.638551">
        <time>2021-02-21T08:53:51Z</time>
      </trkpt>
      <trkpt lat="39.89622" lon="116.638429">
        <time>2021-02-21T08:53:56Z</time>
      </trkpt>
      <trkpt lat="39.896217" lon="116.638313">
        <time>2021-02-21T08:54:01Z</time>
      </trkpt>
      <trkpt lat="39.896172" lon="116.638206">
        <time>2021-02-21T08:54:06Z</time>
      </trkpt>
      <trkpt lat="39.896168" lon="116.638091">
        <time>2021-02-21T08:54:11Z</time>
      </trkpt>
      <trkpt lat="39.896169" lon="116.63798">
        <time>2021-02-21T08:54:16Z</time>
      </trkpt>
      <trkpt lat="39.896168" lon="116.637875">
        <time>2021-02-21T08:54:21Z</time>
      </trkpt>
      <trkpt lat="39.896168" lon="116.637796">
        <time>2021-02-21T08:54:26Z</time>
      </trkpt>
      <trkpt lat="39.896149" lon="116.637703">
        <time>2021-02-21T08:54:31Z</time>
      </trkpt>
      <trkpt lat="39.896143" lon="116.637602">
        <time>2021-02-21T08:54:36Z</time>
      </trkpt>
      <trkpt lat="39.896142" lon="116.637479">
        <time>2021-02-21T08:54:41Z</time>
      </trkpt>
      <trkpt lat="39.896134" lon="116.63736">
        <time>2021-02-21T08:54:46Z</time>
      </trkpt>
      <trkpt lat="39.896117" lon="116.637199">
        <time>2021-02-21T08:54:51Z</time>
      </trkpt>
      <trkpt lat="39.896069" lon="116.637021">
        <time>2021-02-21T08:54:56Z</time>
      </trkpt>
      <trkpt lat="39.896074" lon="116.636872">
        <time>2021-02-21T08:55:01Z</time>
      </trkpt>
      <trkpt lat="39.896055" lon="116.636795">
        <time>2021-02-21T08:55:06Z</time>
      </trkpt>
      <trkpt lat="39.895991" lon="116.636711">
        <time>2021-02-21T08:55:11Z</time>
      </trkpt>
      <trkpt lat="39.896027" lon="116.63678">
        <time>2021-02-21T08:55:16Z</time>
      </trkpt>
      <trkpt lat="39.896085" lon="116.636881">
        <time>2021-02-21T08:55:21Z</time>
      </trkpt>
      <trkpt lat="39.896115" lon="116.636981">
        <time>2021-02-21T08:55:26Z</time>
      </trkpt>
      <trkpt lat="39.896126" lon="116.637089">
        <time>2021-02-21T08:55:31Z</time>
      </trkpt>
      <trkpt lat="39.896151" lon="116.637193">
        <time>2021-02-21T08:55:36Z</time>
      </trkpt>
      <trkpt lat="39.896163" lon="116.637295">
        <time>2021-02-21T08:55:41Z</time>
      </trkpt>
      <trkpt lat="39.896166" lon="116.637417">
        <time>2021-02-21T08:55:46Z</time>
      </trkpt>
      <trkpt lat="39.896152" lon="116.637523">
        <time>2021-02-21T08:55:51Z</time>
      </trkpt>
      <trkpt lat="39.896177" lon="116.637651">
        <time>2021-02-21T08:55:56Z</time>
      </trkpt>
      <trkpt lat="39.896203" lon="116.637817">
        <time>2021-02-21T08:56:01Z</time>
      </trkpt>
      <trkpt lat="39.896212" lon="116.637942">
        <time>2021-02-21T08:56:06Z</time>
      </trkpt>
      <trkpt lat="39.896191" lon="116.638076">
        <time>2021-02-21T08:56:11Z</time>
      </trkpt>
      <trkpt lat="39.896193" lon="116.638249">
        <time>2021-02-21T08:56:16Z</time>
      </trkpt>
      <trkpt lat="39.896221" lon="116.638439">
        <time>2021-02-21T08:56:21Z</time>
      </trkpt>
      <trkpt lat="39.896235" lon="116.638606">
        <time>2021-02-21T08:56:26Z</time>
      </trkpt>
      <trkpt lat="39.896223" lon="116.638752">
        <time>2021-02-21T08:56:31Z</time>
      </trkpt>
      <trkpt lat="39.896208" lon="116.638915">
        <time>2021-02-21T08:56:36Z</time>
      </trkpt>
      <trkpt lat="39.89621" lon="116.639095">
        <time>2021-02-21T08:56:41Z</time>
      </trkpt>
      <trkpt lat="39.89624" lon="116.639269">
        <time>2021-02-21T08:56:46Z</time>
      </trkpt>
      <trkpt lat="39.896235" lon="116.639427">
        <time>2021-02-21T08:56:51Z</time>
      </trkpt>
      <trkpt lat="39.89624" lon="116.639574">
        <time>2021-02-21T08:56:56Z</time>
      </trkpt>
      <trkpt lat="39.896255" lon="116.639724">
        <time>2021-02-21T08:57:01Z</time>
      </trkpt>
      <trkpt lat="39.896248" lon="116.639867">
        <time>2021-02-21T08:57:06Z</time>
      </trkpt>
      <trkpt lat="39.896252" lon="116.639999">
        <time>2021-02-21T08:57:11Z</time>
      </trkpt>
      <trkpt lat="39.896244" lon="116.640158">
        <time>2021-02-21T08:57:16Z</time>
      </trkpt>
      <trkpt lat="39.896258" lon="116.640354">
        <time>2021-02-21T08:57:21Z</time>
      </trkpt>
      <trkpt lat="39.896275" lon="116.640563">
        <time>2021-02-21T08:57:26Z</time>
      </trkpt>
      <trkpt lat="39.896286" lon="116.640743">
        <time>2021-02-21T08:57:31Z</time>
      </trkpt>
      <trkpt lat="39.896305" lon="116.640887">
        <time>2021-02-21T08:57:36Z</time>
      </trkpt>
      <trkpt lat="39.896299" lon="116.641014">
        <time>2021-02-21T08:57:41Z</time>
      </trkpt>
      <trkpt lat="39.89627" lon="116.641161">
        <time>2021-02-21T08:57:46Z</time>
      </trkpt>
      <trkpt lat="39.896257" lon="116.641261">
        <time>2021-02-21T08:57:51Z</time>
      </trkpt>
      <trkpt lat="39.896247" lon="116.641408">
        <time>2021-02-21T08:57:56Z</time>
      </trkpt>
      <trkpt lat="39.896245" lon="116.641562">
        <time>2021-02-21T08:58:01Z</time>
      </trkpt>
      <trkpt lat="39.896238" lon="116.641685">
        <time>2021-02-21T08:58:06Z</time>
      </trkpt>
      <trkpt lat="39.896239" lon="116.641804">
        <time>2021-02-21T08:58:11Z</time>
      </trkpt>
      <trkpt lat="39.896237" lon="116.641916">
        <time>2021-02-21T08:58:16Z</time>
      </trkpt>
      <trkpt lat="39.896223" lon="116.642075">
        <time>2021-02-21T08:58:21Z</time>
      </trkpt>
      <trkpt lat="39.896225" lon="116.642122">
        <time>2021-02-21T08:58:26Z</time>
      </trkpt>
      <trkpt lat="39.896228" lon="116.64222">
        <time>2021-02-21T08:58:31Z</time>
      </trkpt>
      <trkpt lat="39.896211" lon="116.642301">
        <time>2021-02-21T08:58:36Z</time>
      </trkpt>
      <trkpt lat="39.896217" lon="116.642439">
        <time>2021-02-21T08:58:41Z</time>
      </trkpt>
      <trkpt lat="39.896229" lon="116.64256">
        <time>2021-02-21T08:58:46Z</time>
      </trkpt>
      <trkpt lat="39.896245" lon="116.642689">
        <time>2021-02-21T08:58:51Z</time>
      </trkpt>
      <trkpt lat="39.8962" lon="116.642878">
        <time>2021-02-21T08:58:56Z</time>
      </trkpt>
      <trkpt lat="39.896191" lon="116.643053">
        <time>2021-02-21T08:59:01Z</time>
      </trkpt>
      <trkpt lat="39.896183" lon="116.643238">
        <time>2021-02-21T08:59:06Z</time>
      </trkpt>
      <trkpt lat="39.896189" lon="116.643395">
        <time>2021-02-21T08:59:11Z</time>
      </trkpt>
      <trkpt lat="39.896206" lon="116.643551">
        <time>2021-02-21T08:59:16Z</time>
      </trkpt>
      <trkpt lat="39.896205" lon="116.643712">
        <time>2021-02-21T08:59:21Z</time>
      </trkpt>
      <trkpt lat="39.896168" lon="116.643875">
        <time>2021-02-21T08:59:26Z</time>
      </trkpt>
      <trkpt lat="39.896145" lon="116.644065">
        <time>2021-02-21T08:59:31Z</time>
      </trkpt>
      <trkpt lat="39.896121" lon="116.644218">
        <time>2021-02-21T08:59:36Z</time>
      </trkpt>
      <trkpt lat="39.896112" lon="116.644372">
        <time>2021-02-21T08:59:41Z</time>
      </trkpt>
      <trkpt lat="39.896113" lon="116.644544">
        <time>2021-02-21T08:59:46Z</time>
      </trkpt>
      <trkpt lat="39.896121" lon="116.644707">
        <time>2021-02-21T08:59:51Z</time>
      </trkpt>
      <trkpt lat="39.896112" lon="116.64485">
        <time>2021-02-21T08:59:56Z</time>
      </trkpt>
      <trkpt lat="39.896105" lon="116.644991">
        <time>2021-02-21T09:00:01Z</time>
      </trkpt>
      <trkpt lat="39.8961" lon="116.645154">
        <time>2021-02-21T09:00:06Z</time>
      </trkpt>
      <trkpt lat="39.896088" lon="116.645327">
        <time>2021-02-21T09:00:11Z</time>
      </trkpt>
      <trkpt lat="39.896093" lon="116.645485">
        <time>2021-02-21T09:00:16Z</time>
      </trkpt>
      <trkpt lat="39.896093" lon="116.645578">
        <time>2021-02-21T09:00:21Z</time>
      </trkpt>
      <trkpt lat="39.896087" lon="116.645653">
        <time>2021-02-21T09:00:26Z</time>
      </trkpt>
      <trkpt lat="39.896081" lon="116.64574">
        <time>2021-02-21T09:00:31Z</time>
      </trkpt>
      <trkpt lat="39.896059" lon="116.64584">
        <time>2021-02-21T09:00:36Z</time>
      </trkpt>
      <trkpt lat="39.896062" lon="116.645982">
        <time>2021-02-21T09:00:41Z</time>
      </trkpt>
      <trkpt lat="39.896057" lon="116.646149">
        <time>2021-02-21T09:00:46Z</time>
      </trkpt>
      <trkpt lat="39.896039" lon="116.646314">
        <time>2021-02-21T09:00:51Z</time>
      </trkpt>
      <trkpt lat="39.896021" lon="116.646467">
        <time>2021-02-21T09:00:56Z</time>
      </trkpt>
      <trkpt lat="39.896008" lon="116.646616">
        <time>2021-02-21T09:01:01Z</time>
      </trkpt>
      <trkpt lat="39.895978" lon="116.646775">
        <time>2021-02-21T09:01:06Z</time>
      </trkpt>
      <trkpt lat="39.895849" lon="116.646771">
        <time>2021-02-21T09:01:11Z</time>
      </trkpt>
      <trkpt lat="39.895732" lon="116.646689">
        <time>2021-02-21T09:01:16Z</time>
      </trkpt>
      <trkpt lat="39.895616" lon="116.64661">
        <time>2021-02-21T09:01:21Z</time>
      </trkpt>
      <trkpt lat="39.895501" lon="116.646571">
        <time>2021-02-21T09:01:26Z</time>
      </trkpt>
      <trkpt lat="39.895373" lon="116.646514">
        <time>2021-02-21T09:01:31Z</time>
      </trkpt>
      <trkpt lat="39.895264" lon="116.64648">
        <time>2021-02-21T09:01:36Z</time>
      </trkpt>
      <trkpt lat="39.895118" lon="116.646425">
        <time>2021-02-21T09:01:41Z</time>
      </trkpt>
      <trkpt lat="39.89492" lon="116.646346">
        <time>2021-02-21T09:01:46Z</time>
      </trkpt>
      <trkpt lat="39.894875" lon="116.64634">
        <time>2021-02-21T09:01:51Z</time>
      </trkpt>
      <trkpt lat="39.894748" lon="116.646295">
        <time>2021-02-21T09:01:56Z</time>
      </trkpt>
      <trkpt lat="39.894643" lon="116.646181">
        <time>2021-02-21T09:02:01Z</time>
      </trkpt>
      <trkpt lat="39.89448" lon="116.646052">
        <time>2021-02-21T09:02:06Z</time>
      </trkpt>
      <trkpt lat="39.894419" lon="116.646003">
        <time>2021-02-21T09:02:11Z</time>
      </trkpt>
      <trkpt lat="39.894319" lon="116.645951">
        <time>2021-02-21T09:02:16Z</time>
      </trkpt>
      <trkpt lat="39.894227" lon="116.645955">
        <time>2021-02-21T09:02:21Z</time>
      </trkpt>
      <trkpt lat="39.894129" lon="116.645942">
        <time>2021-02-21T09:02:26Z</time>
      </trkpt>
      <trkpt lat="39.894075" lon="116.645911">
        <time>2021-02-21T09:02:31Z</time>
      </trkpt>
      <trkpt lat="39.894" lon="116.64587">
        <time>2021-02-21T09:02:36Z</time>
      </trkpt>
      <trkpt lat="39.893958" lon="116.645866">
        <time>2021-02-21T09:02:41Z</time>
      </trkpt>
      <trkpt lat="39.893877" lon="116.645884">
        <time>2021-02-21T09:02:46Z</time>
      </trkpt>
      <trkpt lat="39.89382" lon="116.645966">
        <time>2021-02-21T09:02:51Z</time>
      </trkpt>
      <trkpt lat="39.893788" lon="116.646046">
        <time>2021-02-21T09:02:56Z</time>
      </trkpt>
      <trkpt lat="39.893735" lon="116.646139">
        <time>2021-02-21T09:03:01Z</time>
      </trkpt>
      <trkpt lat="39.893676" lon="116.646202">
        <time>2021-02-21T09:03:06Z</time>
      </trkpt>
      <trkpt lat="39.893606" lon="116.646253">
        <time>2021-02-21T09:03:11Z</time>
      </trkpt>
      <trkpt lat="39.893466" lon="116.646239">
        <time>2021-02-21T09:03:16Z</time>
      </trkpt>
      <trkpt lat="39.89333" lon="116.646243">
        <time>2021-02-21T09:03:21Z</time>
      </trkpt>
      <trkpt lat="39.89325" lon="116.646202">
        <time>2021-02-21T09:03:26Z</time>
      </trkpt>
      <trkpt lat="39.893174" lon="116.646141">
        <time>2021-02-21T09:03:31Z</time>
      </trkpt>
      <trkpt lat="39.893069" lon="116.646066">
        <time>2021-02-21T09:03:36Z</time>
      </trkpt>
      <trkpt lat="39.892934" lon="116.645995">
        <time>2021-02-21T09:03:41Z</time>
      </trkpt>
      <trkpt lat="39.892787" lon="116.645952">
        <time>2021-02-21T09:03:46Z</time>
      </trkpt>
      <trkpt lat="39.892677" lon="116.645902">
        <time>2021-02-21T09:03:51Z</time>
      </trkpt>
      <trkpt lat="39.892569" lon="116.645854">
        <time>2021-02-21T09:03:56Z</time>
      </trkpt>
      <trkpt lat="39.892494" lon="116.645794">
        <time>2021-02-21T09:04:01Z</time>
      </trkpt>
      <trkpt lat="39.892387" lon="116.645741">
        <time>2021-02-21T09:04:06Z</time>
      </trkpt>
      <trkpt lat="39.892264" lon="116.645723">
        <time>2021-02-21T09:04:11Z</time>
      </trkpt>
      <trkpt lat="39.892119" lon="116.645669">
        <time>2021-02-21T09:04:16Z</time>
      </trkpt>
      <trkpt lat="39.892011" lon="116.645671">
        <time>2021-02-21T09:04:21Z</time>
      </trkpt>
      <trkpt lat="39.891871" lon="116.645653">
        <time>2021-02-21T09:04:26Z</time>
      </trkpt>
      <trkpt lat="39.89177" lon="116.64553">
        <time>2021-02-21T09:04:31Z</time>
      </trkpt>
      <trkpt lat="39.891664" lon="116.645426">
        <time>2021-02-21T09:04:36Z</time>
      </trkpt>
      <trkpt lat="39.89151" lon="116.645308">
        <time>2021-02-21T09:04:41Z</time>
      </trkpt>
      <trkpt lat="39.891502" lon="116.645322">
        <time>2021-02-21T09:04:46Z</time>
      </trkpt>
      <trkpt lat="39.891538" lon="116.645409">
        <time>2021-02-21T09:04:51Z</time>
      </trkpt>
      <trkpt lat="39.891617" lon="116.645451">
        <time>2021-02-21T09:04:56Z</time>
      </trkpt>
      <trkpt lat="39.891728" lon="116.64548">
        <time>2021-02-21T09:05:01Z</time>
      </trkpt>
      <trkpt lat="39.891828" lon="116.645528">
        <time>2021-02-21T09:05:06Z</time>
      </trkpt>
      <trkpt lat="39.891941" lon="116.64556">
        <time>2021-02-21T09:05:11Z</time>
      </trkpt>
      <trkpt lat="39.892064" lon="116.645613">
        <time>2021-02-21T09:05:16Z</time>
      </trkpt>
      <trkpt lat="39.892198" lon="116.645646">
        <time>2021-02-21T09:05:21Z</time>
      </trkpt>
      <trkpt lat="39.89232" lon="116.645682">
        <time>2021-02-21T09:05:26Z</time>
      </trkpt>
      <trkpt lat="39.892434" lon="116.645744">
        <time>2021-02-21T09:05:31Z</time>
      </trkpt>
      <trkpt lat="39.892536" lon="116.645787">
        <time>2021-02-21T09:05:36Z</time>
      </trkpt>
      <trkpt lat="39.892632" lon="116.64583">
        <time>2021-02-21T09:05:41Z</time>
      </trkpt>
      <trkpt lat="39.89274" lon="116.645869">
        <time>2021-02-21T09:05:46Z</time>
      </trkpt>
      <trkpt lat="39.892872" lon="116.645912">
        <time>2021-02-21T09:05:51Z</time>
      </trkpt>
      <trkpt lat="39.892971" lon="116.645972">
        <time>2021-02-21T09:05:56Z</time>
      </trkpt>
      <trkpt lat="39.893087" lon="116.646051">
        <time>2021-02-21T09:06:01Z</time>
      </trkpt>
      <trkpt lat="39.893203" lon="116.64612">
        <time>2021-02-21T09:06:06Z</time>
      </trkpt>
      <trkpt lat="39.893322" lon="116.646193">
        <time>2021-02-21T09:06:11Z</time>
      </trkpt>
      <trkpt lat="39.893365" lon="116.646251">
        <time>2021-02-21T09:06:16Z</time>
      </trkpt>
      <trkpt lat="39.893438" lon="116.646269">
        <time>2021-02-21T09:06:21Z</time>
      </trkpt>
      <trkpt lat="39.893564" lon="116.64636">
        <time>2021-02-21T09:06:26Z</time>
      </trkpt>
      <trkpt lat="39.893638" lon="116.646382">
        <time>2021-02-21T09:06:31Z</time>
      </trkpt>
      <trkpt lat="39.893722" lon="116.646228">
        <time>2021-02-21T09:06:36Z</time>
      </trkpt>
      <trkpt lat="39.893773" lon="116.646044">
        <time>2021-02-21T09:06:41Z</time>
      </trkpt>
      <trkpt lat="39.893892" lon="116.645838">
        <time>2021-02-21T09:06:46Z</time>
      </trkpt>
      <trkpt lat="39.893929" lon="116.645802">
        <time>2021-02-21T09:06:51Z</time>
      </trkpt>
      <trkpt lat="39.894061" lon="116.645854">
        <time>2021-02-21T09:06:56Z</time>
      </trkpt>
      <trkpt lat="39.894169" lon="116.64592">
        <time>2021-02-21T09:07:01Z</time>
      </trkpt>
      <trkpt lat="39.894281" lon="116.646012">
        <time>2021-02-21T09:07:06Z</time>
      </trkpt>
      <trkpt lat="39.894377" lon="116.646063">
        <time>2021-02-21T09:07:11Z</time>
      </trkpt>
      <trkpt lat="39.894525" lon="116.646139">
        <time>2021-02-21T09:07:16Z</time>
      </trkpt>
      <trkpt lat="39.894677" lon="116.646215">
        <time>2021-02-21T09:07:21Z</time>
      </trkpt>
      <trkpt lat="39.894741" lon="116.646229">
        <time>2021-02-21T09:07:26Z</time>
      </trkpt>
      <trkpt lat="39.89486" lon="116.646312">
        <time>2021-02-21T09:07:31Z</time>
      </trkpt>
      <trkpt lat="39.894987" lon="116.646395">
        <time>2021-02-21T09:07:36Z</time>
      </trkpt>
      <trkpt lat="39.895119" lon="116.646447">
        <time>2021-02-21T09:07:41Z</time>
      </trkpt>
      <trkpt lat="39.895238" lon="116.646483">
        <time>2021-02-21T09:07:46Z</time>
      </trkpt>
      <trkpt lat="39.895297" lon="116.646513">
        <time>2021-02-21T09:07:51Z</time>
      </trkpt>
      <trkpt lat="39.895363" lon="116.646555">
        <time>2021-02-21T09:07:56Z</time>
      </trkpt>
      <trkpt lat="39.895444" lon="116.64658">
        <time>2021-02-21T09:08:01Z</time>
      </trkpt>
      <trkpt lat="39.895541" lon="116.646615">
        <time>2021-02-21T09:08:06Z</time>
      </trkpt>
      <trkpt lat="39.895623" lon="116.646676">
        <time>2021-02-21T09:08:11Z</time>
      </trkpt>
      <trkpt lat="39.895721" lon="116.646725">
        <time>2021-02-21T09:08:16Z</time>
      </trkpt>
      <trkpt lat="39.895804" lon="116.64679">
        <time>2021-02-21T09:08:21Z</time>
      </trkpt>
      <trkpt lat="39.895951" lon="116.646831">
        <time>2021-02-21T09:08:26Z</time>
      </trkpt>
      <trkpt lat="39.896054" lon="116.646773">
        <time>2021-02-21T09:08:31Z</time>
      </trkpt>
      <trkpt lat="39.896077" lon="116.646596">
        <time>2021-02-21T09:08:36Z</time>
      </trkpt>
      <trkpt lat="39.896066" lon="116.646429">
        <time>2021-02-21T09:08:41Z</time>
      </trkpt>
      <trkpt lat="39.896064" lon="116.646235">
        <time>2021-02-21T09:08:46Z</time>
      </trkpt>
      <trkpt lat="39.896052" lon="116.646041">
        <time>2021-02-21T09:08:51Z</time>
      </trkpt>
      <trkpt lat="39.896057" lon="116.645902">
        <time>2021-02-21T09:08:56Z</time>
      </trkpt>
      <trkpt lat="39.896091" lon="116.645764">
        <time>2021-02-21T09:09:01Z</time>
      </trkpt>
      <trkpt lat="39.89615" lon="116.645624">
        <time>2021-02-21T09:09:06Z</time>
      </trkpt>
      <trkpt lat="39.896159" lon="116.645477">
        <time>2021-02-21T09:09:11Z</time>
      </trkpt>
      <trkpt lat="39.896157" lon="116.645296">
        <time>2021-02-21T09:09:16Z</time>
      </trkpt>
      <trkpt lat="39.896188" lon="116.645119">
        <time>2021-02-21T09:09:21Z</time>
      </trkpt>
      <trkpt lat="39.896186" lon="116.644941">
        <time>2021-02-21T09:09:26Z</time>
      </trkpt>
      <trkpt lat="39.8962" lon="116.644803">
        <time>2021-02-21T09:09:31Z</time>
      </trkpt>
      <trkpt lat="39.896177" lon="116.644629">
        <time>2021-02-21T09:09:36Z</time>
      </trkpt>
      <trkpt lat="39.896163" lon="116.644455">
        <time>2021-02-21T09:09:41Z</time>
      </trkpt>
      <trkpt lat="39.896162" lon="116.644288">
        <time>2021-02-21T09:09:46Z</time>
      </trkpt>
      <trkpt lat="39.896175" lon="116.644119">
        <time>2021-02-21T09:09:51Z</time>
      </trkpt>
      <trkpt lat="39.896165" lon="116.643937">
        <time>2021-02-21T09:09:56Z</time>
      </trkpt>
      <trkpt lat="39.896162" lon="116.643752">
        <time>2021-02-21T09:10:01Z</time>
      </trkpt>
      <trkpt lat="39.896192" lon="116.643603">
        <time>2021-02-21T09:10:06Z</time>
      </trkpt>
      <trkpt lat="39.896201" lon="116.643452">
        <time>2021-02-21T09:10:11Z</time>
      </trkpt>
      <trkpt lat="39.896198" lon="116.643329">
        <time>2021-02-21T09:10:16Z</time>
      </trkpt>
      <trkpt lat="39.896159" lon="116.643199">
        <time>2021-02-21T09:10:21Z</time>
      </trkpt>
      <trkpt lat="39.896169" lon="116.643132">
        <time>2021-02-21T09:10:26Z</time>
      </trkpt>
      <trkpt lat="39.89616" lon="116.643047">
        <time>2021-02-21T09:10:31Z</time>
      </trkpt>
      <trkpt lat="39.896169" lon="116.642951">
        <time>2021-02-21T09:10:36Z</time>
      </trkpt>
      <trkpt lat="39.896171" lon="116.642849">
        <time>2021-02-21T09:10:41Z</time>
      </trkpt>
      <trkpt lat="39.89617" lon="116.642753">
        <time>2021-02-21T09:10:46Z</time>
      </trkpt>
      <trkpt lat="39.896182" lon="116.642564">
        <time>2021-02-21T09:10:51Z</time>
      </trkpt>
      <trkpt lat="39.896186" lon="116.642541">
        <time>2021-02-21T09:10:56Z</time>
      </trkpt>
      <trkpt lat="39.896199" lon="116.642427">
        <time>2021-02-21T09:11:01Z</time>
      </trkpt>
      <trkpt lat="39.896215" lon="116.642298">
        <time>2021-02-21T09:11:06Z</time>
      </trkpt>
      <trkpt lat="39.896218" lon="116.642184">
        <time>2021-02-21T09:11:11Z</time>
      </trkpt>
      <trkpt lat="39.896211" lon="116.642104">
        <time>2021-02-21T09:11:16Z</time>
      </trkpt>
      <trkpt lat="39.896217" lon="116.641999">
        <time>2021-02-21T09:11:21Z</time>
      </trkpt>
      <trkpt lat="39.896205" lon="116.641892">
        <time>2021-02-21T09:11:26Z</time>
      </trkpt>
      <trkpt lat="39.896202" lon="116.641803">
        <time>2021-02-21T09:11:31Z</time>
      </trkpt>
      <trkpt lat="39.896211" lon="116.641639">
        <time>2021-02-21T09:11:36Z</time>
      </trkpt>
      <trkpt lat="39.896219" lon="116.641607">
        <time>2021-02-21T09:11:41Z</time>
      </trkpt>
      <trkpt lat="39.896236" lon="116.641506">
        <time>2021-02-21T09:11:46Z</time>
      </trkpt>
      <trkpt lat="39.896279" lon="116.641403">
        <time>2021-02-21T09:11:51Z</time>
      </trkpt>
      <trkpt lat="39.896256" lon="116.641253">
        <time>2021-02-21T09:11:56Z</time>
      </trkpt>
      <trkpt lat="39.89626" lon="116.641102">
        <time>2021-02-21T09:12:01Z</time>
      </trkpt>
      <trkpt lat="39.896271" lon="116.640953">
        <time>2021-02-21T09:12:06Z</time>
      </trkpt>
      <trkpt lat="39.896261" lon="116.640798">
        <time>2021-02-21T09:12:11Z</time>
      </trkpt>
      <trkpt lat="39.896263" lon="116.64063">
        <time>2021-02-21T09:12:16Z</time>
      </trkpt>
      <trkpt lat="39.89626" lon="116.640437">
        <time>2021-02-21T09:12:21Z</time>
      </trkpt>
      <trkpt lat="39.896245" lon="116.640261">
        <time>2021-02-21T09:12:26Z</time>
      </trkpt>
      <trkpt lat="39.896221" lon="116.640051">
        <time>2021-02-21T09:12:31Z</time>
      </trkpt>
      <trkpt lat="39.896195" lon="116.639873">
        <time>2021-02-21T09:12:36Z</time>
      </trkpt>
      <trkpt lat="39.896163" lon="116.639694">
        <time>2021-02-21T09:12:41Z</time>
      </trkpt>
      <trkpt lat="39.896151" lon="116.639525">
        <time>2021-02-21T09:12:46Z</time>
      </trkpt>
      <trkpt lat="39.896154" lon="116.639363">
        <time>2021-02-21T09:12:51Z</time>
      </trkpt>
      <trkpt lat="39.896143" lon="116.639181">
        <time>2021-02-21T09:12:56Z</time>
      </trkpt>
      <trkpt lat="39.896128" lon="116.639012">
        <time>2021-02-21T09:13:01Z</time>
      </trkpt>
      <trkpt lat="39.89611" lon="116.638868">
        <time>2021-02-21T09:13:06Z</time>
      </trkpt>
      <trkpt lat="39.896114" lon="116.63871">
        <time>2021-02-21T09:13:11Z</time>
      </trkpt>
      <trkpt lat="39.896127" lon="116.638594">
        <time>2021-02-21T09:13:16Z</time>
      </trkpt>
      <trkpt lat="39.89612" lon="116.638494">
        <time>2021-02-21T09:13:21Z</time>
      </trkpt>
      <trkpt lat="39.896146" lon="116.638405">
        <time>2021-02-21T09:13:26Z</time>
      </trkpt>
      <trkpt lat="39.896137" lon="116.638288">
        <time>2021-02-21T09:13:31Z</time>
      </trkpt>
      <trkpt lat="39.896132" lon="116.638126">
        <time>2021-02-21T09:13:36Z</time>
      </trkpt>
      <trkpt lat="39.896127" lon="116.637969">
        <time>2021-02-21T09:13:41Z</time>
      </trkpt>
      <trkpt lat="39.896134" lon="116.637846">
        <time>2021-02-21T09:13:46Z</time>
      </trkpt>
      <trkpt lat="39.896163" lon="116.63772">
        <time>2021-02-21T09:13:51Z</time>
      </trkpt>
      <trkpt lat="39.89613" lon="116.637551">
        <time>2021-02-21T09:13:56Z</time>
      </trkpt>
      <trkpt lat="39.896115" lon="116.637367">
        <time>2021-02-21T09:14:01Z</time>
      </trkpt>
      <trkpt lat="39.896114" lon="116.637195">
        <time>2021-02-21T09:14:06Z</time>
      </trkpt>
      <trkpt lat="39.896104" lon="116.637076">
        <time>2021-02-21T09:14:11Z</time>
      </trkpt>
      <trkpt lat="39.896095" lon="116.636956">
        <time>2021-02-21T09:14:16Z</time>
      </trkpt>
      <trkpt lat="39.896101" lon="116.636854">
        <time>2021-02-21T09:14:21Z</time>
      </trkpt>
      <trkpt lat="39.896089" lon="116.636803">
        <time>2021-02-21T09:14:26Z</time>
      </trkpt>
      <trkpt lat="39.896063" lon="116.636712">
        <time>2021-02-21T09:14:31Z</time>
      </trkpt>
      <trkpt lat="39.896007" lon="116.6366">
        <time>2021-02-21T09:14:36Z</time>
      </trkpt>
      <trkpt lat="39.895928" lon="116.636513">
        <time>2021-02-21T09:14:41Z</time>
      </trkpt>
      <trkpt lat="39.895866" lon="116.636476">
        <time>2021-02-21T09:14:46Z</time>
      </trkpt>
      <trkpt lat="39.895818" lon="116.636365">
        <time>2021-02-21T09:14:51Z</time>
      </trkpt>
      <trkpt lat="39.895894" lon="116.636292">
        <time>2021-02-21T09:14:56Z</time>
      </trkpt>
      <trkpt lat="39.896014" lon="116.636209">
        <time>2021-02-21T09:15:01Z</time>
      </trkpt>
      <trkpt lat="39.896117" lon="116.636126">
        <time>2021-02-21T09:15:06Z</time>
      </trkpt>
      <trkpt lat="39.896215" lon="116.636066">
        <time>2021-02-21T09:15:11Z</time>
      </trkpt>
      <trkpt lat="39.89635" lon="116.635976">
        <time>2021-02-21T09:15:16Z</time>
      </trkpt>
      <trkpt lat="39.896484" lon="116.635898">
        <time>2021-02-21T09:15:21Z</time>
      </trkpt>
      <trkpt lat="39.896615" lon="116.635785">
        <time>2021-02-21T09:15:26Z</time>
      </trkpt>
      <trkpt lat="39.896743" lon="116.635694">
        <time>2021-02-21T09:15:31Z</time>
      </trkpt>
      <trkpt lat="39.89685" lon="116.635633">
        <time>2021-02-21T09:15:36Z</time>
      </trkpt>
      <trkpt lat="39.896969" lon="116.635602">
        <time>2021-02-21T09:15:41Z</time>
      </trkpt>
      <trkpt lat="39.897072" lon="116.635519">
        <time>2021-02-21T09:15:46Z</time>
      </trkpt>
      <trkpt lat="39.897171" lon="116.635466">
        <time>2021-02-21T09:15:51Z</time>
      </trkpt>
      <trkpt lat="39.897242" lon="116.635407">
        <time>2021-02-21T09:15:56Z</time>
      </trkpt>
      <trkpt lat="39.897354" lon="116.635306">
        <time>2021-02-21T09:16:01Z</time>
      </trkpt>
      <trkpt lat="39.897365" lon="116.6353">
        <time>2021-02-21T09:16:06Z</time>
      </trkpt>
      <trkpt lat="39.897436" lon="116.635256">
        <time>2021-02-21T09:16:11Z</time>
      </trkpt>
      <trkpt lat="39.897495" lon="116.635217">
        <time>2021-02-21T09:16:16Z</time>
      </trkpt>
      <trkpt lat="39.897545" lon="116.635209">
        <time>2021-02-21T09:16:21Z</time>
      </trkpt>
      <trkpt lat="39.897642" lon="116.63518">
        <time>2021-02-21T09:16:26Z</time>
      </trkpt>
      <trkpt lat="39.897751" lon="116.635122">
        <time>2021-02-21T09:16:31Z</time>
      </trkpt>
      <trkpt lat="39.897832" lon="116.635036">
        <time>2021-02-21T09:16:36Z</time>
      </trkpt>
      <trkpt lat="39.897951" lon="116.635">
        <time>2021-02-21T09:16:41Z</time>
      </trkpt>
      <trkpt lat="39.89802" lon="116.634913">
        <time>2021-02-21T09:16:46Z</time>
      </trkpt>
      <trkpt lat="39.898083" lon="116.634843">
        <time>2021-02-21T09:16:51Z</time>
      </trkpt>
      <trkpt lat="39.898175" lon="116.634788">
        <time>2021-02-21T09:16:56Z</time>
      </trkpt>
      <trkpt lat="39.898255" lon="116.634751">
        <time>2021-02-21T09:17:01Z</time>
      </trkpt>
      <trkpt lat="39.898338" lon="116.634732">
        <time>2021-02-21T09:17:06Z</time>
      </trkpt>
      <trkpt lat="39.898467" lon="116.634696">
        <time>2021-02-21T09:17:11Z</time>
      </trkpt>
      <trkpt lat="39.898605" lon="116.634628">
        <time>2021-02-21T09:17:16Z</time>
      </trkpt>
      <trkpt lat="39.898727" lon="116.634588">
        <time>2021-02-21T09:17:21Z</time>
      </trkpt>
      <trkpt lat="39.898846" lon="116.634492">
        <time>2021-02-21T09:17:26Z</time>
      </trkpt>
      <trkpt lat="39.898947" lon="116.634401">
        <time>2021-02-21T09:17:31Z</time>
      </trkpt>
      <trkpt lat="39.899044" lon="116.6343">
        <time>2021-02-21T09:17:36Z</time>
      </trkpt>
      <trkpt lat="39.899153" lon="116.634217">
        <time>2021-02-21T09:17:41Z</time>
      </trkpt>
      <trkpt lat="39.899272" lon="116.634158">
        <time>2021-02-21T09:17:46Z</time>
      </trkpt>
      <trkpt lat="39.899374" lon="116.634047">
        <time>2021-02-21T09:17:51Z</time>
      </trkpt>
      <trkpt lat="39.899493" lon="116.633975">
        <time>2021-02-21T09:17:56Z</time>
      </trkpt>
      <trkpt lat="39.899609" lon="116.633936">
        <time>2021-02-21T09:18:01Z</time>
      </trkpt>
      <trkpt lat="39.899712" lon="116.633875">
        <time>2021-02-21T09:18:06Z</time>
      </trkpt>
      <trkpt lat="39.899815" lon="116.633817">
        <time>2021-02-21T09:18:11Z</time>
      </trkpt>
      <trkpt lat="39.899919" lon="116.633775">
        <time>2021-02-21T09:18:16Z</time>
      </trkpt>
      <trkpt lat="39.900048" lon="116.633764">
        <time>2021-02-21T09:18:21Z</time>
      </trkpt>
      <trkpt lat="39.90019" lon="116.633709">
        <time>2021-02-21T09:18:26Z</time>
      </trkpt>
      <trkpt lat="39.900387" lon="116.633553">
        <time>2021-02-21T09:18:31Z</time>
      </trkpt>
      <trkpt lat="39.900412" lon="116.63354">
        <time>2021-02-21T09:18:36Z</time>
      </trkpt>
      <trkpt lat="39.900537" lon="116.633434">
        <time>2021-02-21T09:18:41Z</time>
      </trkpt>
      <trkpt lat="39.90065" lon="116.633316">
        <time>2021-02-21T09:18:46Z</time>
      </trkpt>
      <trkpt lat="39.900757" lon="116.633216">
        <time>2021-02-21T09:18:51Z</time>
      </trkpt>
      <trkpt lat="39.900859" lon="116.633117">
        <time>2021-02-21T09:18:56Z</time>
      </trkpt>
      <trkpt lat="39.900953" lon="116.633048">
        <time>2021-02-21T09:19:01Z</time>
      </trkpt>
      <trkpt lat="39.900961" lon="116.632934">
        <time>2021-02-21T09:19:06Z</time>
      </trkpt>
      <trkpt lat="39.900894" lon="116.632789">
        <time>2021-02-21T09:19:11Z</time>
      </trkpt>
      <trkpt lat="39.900808" lon="116.632677">
        <time>2021-02-21T09:19:16Z</time>
      </trkpt>
      <trkpt lat="39.900721" lon="116.632674">
        <time>2021-02-21T09:19:21Z</time>
      </trkpt>
      <trkpt lat="39.900627" lon="116.632844">
        <time>2021-02-21T09:19:26Z</time>
      </trkpt>
      <trkpt lat="39.900597" lon="116.632881">
        <time>2021-02-21T09:19:31Z</time>
      </trkpt>
      <trkpt lat="39.900526" lon="116.632954">
        <time>2021-02-21T09:19:36Z</time>
      </trkpt>
      <trkpt lat="39.900428" lon="116.633045">
        <time>2021-02-21T09:19:41Z</time>
      </trkpt>
      <trkpt lat="39.900334" lon="116.633133">
        <time>2021-02-21T09:19:46Z</time>
      </trkpt>
      <trkpt lat="39.900237" lon="116.633237">
        <time>2021-02-21T09:19:51Z</time>
      </trkpt>
      <trkpt lat="39.900108" lon="116.633346">
        <time>2021-02-21T09:19:56Z</time>
      </trkpt>
      <trkpt lat="39.900012" lon="116.633447">
        <time>2021-02-21T09:20:01Z</time>
      </trkpt>
      <trkpt lat="39.899901" lon="116.633522">
        <time>2021-02-21T09:20:06Z</time>
      </trkpt>
      <trkpt lat="39.899782" lon="116.633543">
        <time>2021-02-21T09:20:11Z</time>
      </trkpt>
      <trkpt lat="39.8997" lon="116.633585">
        <time>2021-02-21T09:20:16Z</time>
      </trkpt>
      <trkpt lat="39.899511" lon="116.633716">
        <time>2021-02-21T09:20:21Z</time>
      </trkpt>
      <trkpt lat="39.899461" lon="116.633739">
        <time>2021-02-21T09:20:26Z</time>
      </trkpt>
      <trkpt lat="39.899279" lon="116.633822">
        <time>2021-02-21T09:20:31Z</time>
      </trkpt>
      <trkpt lat="39.899256" lon="116.633838">
        <time>2021-02-21T09:20:36Z</time>
      </trkpt>
      <trkpt lat="39.899169" lon="116.633913">
        <time>2021-02-21T09:20:41Z</time>
      </trkpt>
      <trkpt lat="39.899076" lon="116.633974">
        <time>2021-02-21T09:20:46Z</time>
      </trkpt>
      <trkpt lat="39.899011" lon="116.634031">
        <time>2021-02-21T09:20:51Z</time>
      </trkpt>
      <trkpt lat="39.898942" lon="116.634068">
        <time>2021-02-21T09:20:56Z</time>
      </trkpt>
      <trkpt lat="39.898853" lon="116.634115">
        <time>2021-02-21T09:21:01Z</time>
      </trkpt>
      <trkpt lat="39.898779" lon="116.634178">
        <time>2021-02-21T09:21:06Z</time>
      </trkpt>
      <trkpt lat="39.89871" lon="116.63422">
        <time>2021-02-21T09:21:11Z</time>
      </trkpt>
      <trkpt lat="39.898639" lon="116.634272">
        <time>2021-02-21T09:21:16Z</time>
      </trkpt>
      <trkpt lat="39.898539" lon="116.634346">
        <time>2021-02-21T09:21:21Z</time>
      </trkpt>
      <trkpt lat="39.898493" lon="116.634379">
        <time>2021-02-21T09:21:26Z</time>
      </trkpt>
      <trkpt lat="39.89842" lon="116.634437">
        <time>2021-02-21T09:21:31Z</time>
      </trkpt>
      <trkpt lat="39.898346" lon="116.6345">
        <time>2021-02-21T09:21:36Z</time>
      </trkpt>
      <trkpt lat="39.898207" lon="116.634615">
        <time>2021-02-21T09:21:41Z</time>
      </trkpt>
      <trkpt lat="39.89817" lon="116.634643">
        <time>2021-02-21T09:21:46Z</time>
      </trkpt>
      <trkpt lat="39.898088" lon="116.6347">
        <time>2021-02-21T09:21:51Z</time>
      </trkpt>
      <trkpt lat="39.897994" lon="116.634602">
        <time>2021-02-21T09:21:56Z</time>
      </trkpt>
      <trkpt lat="39.89791" lon="116.634422">
        <time>2021-02-21T09:22:01Z</time>
      </trkpt>
      <trkpt lat="39.897851" lon="116.634272">
        <time>2021-02-21T09:22:06Z</time>
      </trkpt>
      <trkpt lat="39.897751" lon="116.634134">
        <time>2021-02-21T09:22:11Z</time>
      </trkpt>
      <trkpt lat="39.897674" lon="116.634002">
        <time>2021-02-21T09:22:16Z</time>
      </trkpt>
      <trkpt lat="39.897584" lon="116.633861">
        <time>2021-02-21T09:22:21Z</time>
      </trkpt>
      <trkpt lat="39.897527" lon="116.633761">
        <time>2021-02-21T09:22:26Z</time>
      </trkpt>
      <trkpt lat="39.897496" lon="116.633681">
        <time>2021-02-21T09:22:31Z</time>
      </trkpt>
      <trkpt lat="39.897503" lon="116.633638">
        <time>2021-02-21T09:22:36Z</time>
      </trkpt>
      <trkpt lat="39.897432" lon="116.633664">
        <time>2021-02-21T09:22:41Z</time>
      </trkpt>
      <trkpt lat="39.897402" lon="116.633685">
        <time>2021-02-21T09:22:46Z</time>
      </trkpt>
      <trkpt lat="39.89738" lon="116.633742">
        <time>2021-02-21T09:22:51Z</time>
      </trkpt>
      <trkpt lat="39.897335" lon="116.633804">
        <time>2021-02-21T09:22:56Z</time>
      </trkpt>
      <trkpt lat="39.897326" lon="116.633894">
        <time>2021-02-21T09:23:01Z</time>
      </trkpt>
      <trkpt lat="39.897345" lon="116.633936">
        <time>2021-02-21T09:23:06Z</time>
      </trkpt>
      <trkpt lat="39.897357" lon="116.634075">
        <time>2021-02-21T09:23:11Z</time>
      </trkpt>
      <trkpt lat="39.897357" lon="116.634075">
        <time>2021-02-21T09:26:11Z</time>
      </trkpt>
    </trkseg>
  </trk>
</gpx>