<?xml version="1.0" encoding="UTF-8"?>
<gpx xmlns="http://www.topografix.com/GPX/1/1" xmlns:gpxtpx="http://www.garmin.com/xmlschemas/TrackPointExtension/v1" xmlns:xsi="http://www.w3.org/2001/XMLSchema-instance" xsi:schemaLocation="http://www.topografix.com/GPX/1/1 http://www.topografix.com/GPX/1/1/gpx.xsd" version="1.1" creator="gpx.py -- https://github.com/tkrajina/gpxpy">
  <trk>
    <name>gpx from keep</name>
    <trkseg>
      <trkpt lat="39.897433" lon="116.633682">
        <time>2021-02-24T11:55:33Z</time>
      </trkpt>
      <trkpt lat="39.897433" lon="116.633682">
        <time>2021-02-24T11:55:38Z</time>
      </trkpt>
      <trkpt lat="39.897522" lon="116.633672">
        <time>2021-02-24T11:55:43Z</time>
      </trkpt>
      <trkpt lat="39.897607" lon="116.633631">
        <time>2021-02-24T11:55:48Z</time>
      </trkpt>
      <trkpt lat="39.897658" lon="116.633683">
        <time>2021-02-24T11:55:53Z</time>
      </trkpt>
      <trkpt lat="39.897706" lon="116.633743">
        <time>2021-02-24T11:55:58Z</time>
      </trkpt>
      <trkpt lat="39.897735" lon="116.63383">
        <time>2021-02-24T11:56:03Z</time>
      </trkpt>
      <trkpt lat="39.897841" lon="116.634052">
        <time>2021-02-24T11:56:08Z</time>
      </trkpt>
      <trkpt lat="39.897863" lon="116.634127">
        <time>2021-02-24T11:56:13Z</time>
      </trkpt>
      <trkpt lat="39.89787" lon="116.634199">
        <time>2021-02-24T11:56:18Z</time>
      </trkpt>
      <trkpt lat="39.897874" lon="116.634302">
        <time>2021-02-24T11:56:23Z</time>
      </trkpt>
      <trkpt lat="39.897876" lon="116.634362">
        <time>2021-02-24T11:56:28Z</time>
      </trkpt>
      <trkpt lat="39.897921" lon="116.634477">
        <time>2021-02-24T11:56:33Z</time>
      </trkpt>
      <trkpt lat="39.897953" lon="116.634593">
        <time>2021-02-24T11:56:38Z</time>
      </trkpt>
      <trkpt lat="39.897953" lon="116.634593">
        <time>2021-02-24T11:56:43Z</time>
      </trkpt>
      <trkpt lat="39.897953" lon="116.634593">
        <time>2021-02-24T11:56:48Z</time>
      </trkpt>
      <trkpt lat="39.897967" lon="116.634759">
        <time>2021-02-24T11:56:53Z</time>
      </trkpt>
      <trkpt lat="39.898032" lon="116.634908">
        <time>2021-02-24T11:56:58Z</time>
      </trkpt>
      <trkpt lat="39.898043" lon="116.63506">
        <time>2021-02-24T11:57:03Z</time>
      </trkpt>
      <trkpt lat="39.897956" lon="116.635171">
        <time>2021-02-24T11:57:08Z</time>
      </trkpt>
      <trkpt lat="39.897855" lon="116.635253">
        <time>2021-02-24T11:57:13Z</time>
      </trkpt>
      <trkpt lat="39.897752" lon="116.635307">
        <time>2021-02-24T11:57:18Z</time>
      </trkpt>
      <trkpt lat="39.897634" lon="116.635372">
        <time>2021-02-24T11:57:23Z</time>
      </trkpt>
      <trkpt lat="39.897547" lon="116.635416">
        <time>2021-02-24T11:57:28Z</time>
      </trkpt>
      <trkpt lat="39.897438" lon="116.63547">
        <time>2021-02-24T11:57:33Z</time>
      </trkpt>
      <trkpt lat="39.897324" lon="116.63553">
        <time>2021-02-24T11:57:38Z</time>
      </trkpt>
      <trkpt lat="39.897238" lon="116.635597">
        <time>2021-02-24T11:57:43Z</time>
      </trkpt>
      <trkpt lat="39.897142" lon="116.635639">
        <time>2021-02-24T11:57:48Z</time>
      </trkpt>
      <trkpt lat="39.897008" lon="116.635706">
        <time>2021-02-24T11:57:53Z</time>
      </trkpt>
      <trkpt lat="39.896942" lon="116.635764">
        <time>2021-02-24T11:57:58Z</time>
      </trkpt>
      <trkpt lat="39.896841" lon="116.635811">
        <time>2021-02-24T11:58:03Z</time>
      </trkpt>
      <trkpt lat="39.89674" lon="116.635898">
        <time>2021-02-24T11:58:08Z</time>
      </trkpt>
      <trkpt lat="39.896636" lon="116.635976">
        <time>2021-02-24T11:58:13Z</time>
      </trkpt>
      <trkpt lat="39.896473" lon="116.636138">
        <time>2021-02-24T11:58:18Z</time>
      </trkpt>
      <trkpt lat="39.896436" lon="116.636141">
        <time>2021-02-24T11:58:23Z</time>
      </trkpt>
      <trkpt lat="39.896344" lon="116.636184">
        <time>2021-02-24T11:58:28Z</time>
      </trkpt>
      <trkpt lat="39.896275" lon="116.636212">
        <time>2021-02-24T11:58:33Z</time>
      </trkpt>
      <trkpt lat="39.89616" lon="116.63627">
        <time>2021-02-24T11:58:38Z</time>
      </trkpt>
      <trkpt lat="39.896133" lon="116.636376">
        <time>2021-02-24T11:58:43Z</time>
      </trkpt>
      <trkpt lat="39.896091" lon="116.636438">
        <time>2021-02-24T11:58:48Z</time>
      </trkpt>
      <trkpt lat="39.896056" lon="116.636466">
        <time>2021-02-24T11:58:53Z</time>
      </trkpt>
      <trkpt lat="39.896051" lon="116.636457">
        <time>2021-02-24T11:58:58Z</time>
      </trkpt>
      <trkpt lat="39.89605" lon="116.636445">
        <time>2021-02-24T11:59:03Z</time>
      </trkpt>
      <trkpt lat="39.896065" lon="116.636437">
        <time>2021-02-24T11:59:08Z</time>
      </trkpt>
      <trkpt lat="39.896067" lon="116.636474">
        <time>2021-02-24T11:59:13Z</time>
      </trkpt>
      <trkpt lat="39.896068" lon="116.636479">
        <time>2021-02-24T11:59:18Z</time>
      </trkpt>
      <trkpt lat="39.896071" lon="116.636479">
        <time>2021-02-24T11:59:23Z</time>
      </trkpt>
      <trkpt lat="39.896082" lon="116.636464">
        <time>2021-02-24T11:59:28Z</time>
      </trkpt>
      <trkpt lat="39.896064" lon="116.636459">
        <time>2021-02-24T11:59:33Z</time>
      </trkpt>
      <trkpt lat="39.895949" lon="116.636652">
        <time>2021-02-24T11:59:38Z</time>
      </trkpt>
      <trkpt lat="39.895983" lon="116.636754">
        <time>2021-02-24T11:59:43Z</time>
      </trkpt>
      <trkpt lat="39.896003" lon="116.636862">
        <time>2021-02-24T11:59:48Z</time>
      </trkpt>
      <trkpt lat="39.896057" lon="116.637014">
        <time>2021-02-24T11:59:53Z</time>
      </trkpt>
      <trkpt lat="39.896072" lon="116.637175">
        <time>2021-02-24T11:59:58Z</time>
      </trkpt>
      <trkpt lat="39.896082" lon="116.637328">
        <time>2021-02-24T12:00:03Z</time>
      </trkpt>
      <trkpt lat="39.896096" lon="116.637481">
        <time>2021-02-24T12:00:08Z</time>
      </trkpt>
      <trkpt lat="39.896104" lon="116.637584">
        <time>2021-02-24T12:00:13Z</time>
      </trkpt>
      <trkpt lat="39.896114" lon="116.637681">
        <time>2021-02-24T12:00:18Z</time>
      </trkpt>
      <trkpt lat="39.896125" lon="116.63781">
        <time>2021-02-24T12:00:23Z</time>
      </trkpt>
      <trkpt lat="39.896115" lon="116.637944">
        <time>2021-02-24T12:00:28Z</time>
      </trkpt>
      <trkpt lat="39.89611" lon="116.638089">
        <time>2021-02-24T12:00:33Z</time>
      </trkpt>
      <trkpt lat="39.896107" lon="116.638224">
        <time>2021-02-24T12:00:38Z</time>
      </trkpt>
      <trkpt lat="39.896122" lon="116.638378">
        <time>2021-02-24T12:00:43Z</time>
      </trkpt>
      <trkpt lat="39.896119" lon="116.638516">
        <time>2021-02-24T12:00:48Z</time>
      </trkpt>
      <trkpt lat="39.896139" lon="116.638665">
        <time>2021-02-24T12:00:53Z</time>
      </trkpt>
      <trkpt lat="39.896136" lon="116.638784">
        <time>2021-02-24T12:00:58Z</time>
      </trkpt>
      <trkpt lat="39.896134" lon="116.638918">
        <time>2021-02-24T12:01:03Z</time>
      </trkpt>
      <trkpt lat="39.896147" lon="116.639067">
        <time>2021-02-24T12:01:08Z</time>
      </trkpt>
      <trkpt lat="39.896137" lon="116.639191">
        <time>2021-02-24T12:01:13Z</time>
      </trkpt>
      <trkpt lat="39.896169" lon="116.639339">
        <time>2021-02-24T12:01:18Z</time>
      </trkpt>
      <trkpt lat="39.896163" lon="116.639485">
        <time>2021-02-24T12:01:23Z</time>
      </trkpt>
      <trkpt lat="39.896186" lon="116.639619">
        <time>2021-02-24T12:01:28Z</time>
      </trkpt>
      <trkpt lat="39.896216" lon="116.639776">
        <time>2021-02-24T12:01:33Z</time>
      </trkpt>
      <trkpt lat="39.896223" lon="116.639915">
        <time>2021-02-24T12:01:38Z</time>
      </trkpt>
      <trkpt lat="39.896226" lon="116.640029">
        <time>2021-02-24T12:01:43Z</time>
      </trkpt>
      <trkpt lat="39.896221" lon="116.640152">
        <time>2021-02-24T12:01:48Z</time>
      </trkpt>
      <trkpt lat="39.896222" lon="116.640315">
        <time>2021-02-24T12:01:53Z</time>
      </trkpt>
      <trkpt lat="39.89621" lon="116.640462">
        <time>2021-02-24T12:01:58Z</time>
      </trkpt>
      <trkpt lat="39.896214" lon="116.640647">
        <time>2021-02-24T12:02:03Z</time>
      </trkpt>
      <trkpt lat="39.896224" lon="116.640799">
        <time>2021-02-24T12:02:08Z</time>
      </trkpt>
      <trkpt lat="39.896216" lon="116.640951">
        <time>2021-02-24T12:02:13Z</time>
      </trkpt>
      <trkpt lat="39.896219" lon="116.641046">
        <time>2021-02-24T12:02:18Z</time>
      </trkpt>
      <trkpt lat="39.896237" lon="116.641159">
        <time>2021-02-24T12:02:23Z</time>
      </trkpt>
      <trkpt lat="39.896213" lon="116.641299">
        <time>2021-02-24T12:02:28Z</time>
      </trkpt>
      <trkpt lat="39.896192" lon="116.641454">
        <time>2021-02-24T12:02:33Z</time>
      </trkpt>
      <trkpt lat="39.896177" lon="116.64158">
        <time>2021-02-24T12:02:38Z</time>
      </trkpt>
      <trkpt lat="39.896174" lon="116.641713">
        <time>2021-02-24T12:02:43Z</time>
      </trkpt>
      <trkpt lat="39.896179" lon="116.641838">
        <time>2021-02-24T12:02:48Z</time>
      </trkpt>
      <trkpt lat="39.896169" lon="116.64198">
        <time>2021-02-24T12:02:53Z</time>
      </trkpt>
      <trkpt lat="39.896176" lon="116.642209">
        <time>2021-02-24T12:02:58Z</time>
      </trkpt>
      <trkpt lat="39.896177" lon="116.642238">
        <time>2021-02-24T12:03:03Z</time>
      </trkpt>
      <trkpt lat="39.896155" lon="116.642378">
        <time>2021-02-24T12:03:08Z</time>
      </trkpt>
      <trkpt lat="39.896179" lon="116.642545">
        <time>2021-02-24T12:03:13Z</time>
      </trkpt>
      <trkpt lat="39.896153" lon="116.64269">
        <time>2021-02-24T12:03:18Z</time>
      </trkpt>
      <trkpt lat="39.896162" lon="116.64284">
        <time>2021-02-24T12:03:23Z</time>
      </trkpt>
      <trkpt lat="39.896167" lon="116.64298">
        <time>2021-02-24T12:03:28Z</time>
      </trkpt>
      <trkpt lat="39.896168" lon="116.643115">
        <time>2021-02-24T12:03:33Z</time>
      </trkpt>
      <trkpt lat="39.896155" lon="116.643247">
        <time>2021-02-24T12:03:38Z</time>
      </trkpt>
      <trkpt lat="39.896148" lon="116.643382">
        <time>2021-02-24T12:03:43Z</time>
      </trkpt>
      <trkpt lat="39.896169" lon="116.643521">
        <time>2021-02-24T12:03:48Z</time>
      </trkpt>
      <trkpt lat="39.896196" lon="116.643651">
        <time>2021-02-24T12:03:53Z</time>
      </trkpt>
      <trkpt lat="39.896198" lon="116.643776">
        <time>2021-02-24T12:03:58Z</time>
      </trkpt>
      <trkpt lat="39.896196" lon="116.643896">
        <time>2021-02-24T12:04:03Z</time>
      </trkpt>
      <trkpt lat="39.896192" lon="116.644029">
        <time>2021-02-24T12:04:08Z</time>
      </trkpt>
      <trkpt lat="39.896187" lon="116.64415">
        <time>2021-02-24T12:04:13Z</time>
      </trkpt>
      <trkpt lat="39.896208" lon="116.64429">
        <time>2021-02-24T12:04:18Z</time>
      </trkpt>
      <trkpt lat="39.8962" lon="116.644379">
        <time>2021-02-24T12:04:23Z</time>
      </trkpt>
      <trkpt lat="39.8962" lon="116.644513">
        <time>2021-02-24T12:04:28Z</time>
      </trkpt>
      <trkpt lat="39.896193" lon="116.644641">
        <time>2021-02-24T12:04:33Z</time>
      </trkpt>
      <trkpt lat="39.896182" lon="116.644713">
        <time>2021-02-24T12:04:38Z</time>
      </trkpt>
      <trkpt lat="39.896158" lon="116.644853">
        <time>2021-02-24T12:04:43Z</time>
      </trkpt>
      <trkpt lat="39.896139" lon="116.645032">
        <time>2021-02-24T12:04:48Z</time>
      </trkpt>
      <trkpt lat="39.89613" lon="116.64517">
        <time>2021-02-24T12:04:53Z</time>
      </trkpt>
      <trkpt lat="39.896129" lon="116.645313">
        <time>2021-02-24T12:04:58Z</time>
      </trkpt>
      <trkpt lat="39.896128" lon="116.645458">
        <time>2021-02-24T12:05:03Z</time>
      </trkpt>
      <trkpt lat="39.8961" lon="116.645617">
        <time>2021-02-24T12:05:08Z</time>
      </trkpt>
      <trkpt lat="39.896094" lon="116.64574">
        <time>2021-02-24T12:05:13Z</time>
      </trkpt>
      <trkpt lat="39.896083" lon="116.645887">
        <time>2021-02-24T12:05:18Z</time>
      </trkpt>
      <trkpt lat="39.896061" lon="116.646013">
        <time>2021-02-24T12:05:23Z</time>
      </trkpt>
      <trkpt lat="39.896032" lon="116.646156">
        <time>2021-02-24T12:05:28Z</time>
      </trkpt>
      <trkpt lat="39.89603" lon="116.646295">
        <time>2021-02-24T12:05:33Z</time>
      </trkpt>
      <trkpt lat="39.895993" lon="116.646445">
        <time>2021-02-24T12:05:38Z</time>
      </trkpt>
      <trkpt lat="39.895999" lon="116.646581">
        <time>2021-02-24T12:05:43Z</time>
      </trkpt>
      <trkpt lat="39.895984" lon="116.646726">
        <time>2021-02-24T12:05:48Z</time>
      </trkpt>
      <trkpt lat="39.895936" lon="116.646848">
        <time>2021-02-24T12:05:53Z</time>
      </trkpt>
      <trkpt lat="39.895841" lon="116.64688">
        <time>2021-02-24T12:05:58Z</time>
      </trkpt>
      <trkpt lat="39.895741" lon="116.646797">
        <time>2021-02-24T12:06:03Z</time>
      </trkpt>
      <trkpt lat="39.895647" lon="116.646754">
        <time>2021-02-24T12:06:08Z</time>
      </trkpt>
      <trkpt lat="39.895544" lon="116.646702">
        <time>2021-02-24T12:06:13Z</time>
      </trkpt>
      <trkpt lat="39.895438" lon="116.646613">
        <time>2021-02-24T12:06:18Z</time>
      </trkpt>
      <trkpt lat="39.895355" lon="116.646555">
        <time>2021-02-24T12:06:23Z</time>
      </trkpt>
      <trkpt lat="39.895266" lon="116.646506">
        <time>2021-02-24T12:06:28Z</time>
      </trkpt>
      <trkpt lat="39.895162" lon="116.64646">
        <time>2021-02-24T12:06:33Z</time>
      </trkpt>
      <trkpt lat="39.895055" lon="116.646421">
        <time>2021-02-24T12:06:38Z</time>
      </trkpt>
      <trkpt lat="39.894924" lon="116.646352">
        <time>2021-02-24T12:06:43Z</time>
      </trkpt>
      <trkpt lat="39.894854" lon="116.646343">
        <time>2021-02-24T12:06:48Z</time>
      </trkpt>
      <trkpt lat="39.894747" lon="116.646307">
        <time>2021-02-24T12:06:53Z</time>
      </trkpt>
      <trkpt lat="39.894668" lon="116.646272">
        <time>2021-02-24T12:06:58Z</time>
      </trkpt>
      <trkpt lat="39.894619" lon="116.646224">
        <time>2021-02-24T12:07:03Z</time>
      </trkpt>
      <trkpt lat="39.894458" lon="116.646142">
        <time>2021-02-24T12:07:08Z</time>
      </trkpt>
      <trkpt lat="39.894406" lon="116.646142">
        <time>2021-02-24T12:07:13Z</time>
      </trkpt>
      <trkpt lat="39.894277" lon="116.646093">
        <time>2021-02-24T12:07:18Z</time>
      </trkpt>
      <trkpt lat="39.894211" lon="116.646012">
        <time>2021-02-24T12:07:23Z</time>
      </trkpt>
      <trkpt lat="39.894108" lon="116.645965">
        <time>2021-02-24T12:07:28Z</time>
      </trkpt>
      <trkpt lat="39.89401" lon="116.645876">
        <time>2021-02-24T12:07:33Z</time>
      </trkpt>
      <trkpt lat="39.893901" lon="116.645914">
        <time>2021-02-24T12:07:38Z</time>
      </trkpt>
      <trkpt lat="39.893841" lon="116.646011">
        <time>2021-02-24T12:07:43Z</time>
      </trkpt>
      <trkpt lat="39.893768" lon="116.646125">
        <time>2021-02-24T12:07:48Z</time>
      </trkpt>
      <trkpt lat="39.893708" lon="116.646251">
        <time>2021-02-24T12:07:53Z</time>
      </trkpt>
      <trkpt lat="39.893608" lon="116.646382">
        <time>2021-02-24T12:07:58Z</time>
      </trkpt>
      <trkpt lat="39.893517" lon="116.64636">
        <time>2021-02-24T12:08:03Z</time>
      </trkpt>
      <trkpt lat="39.893417" lon="116.646288">
        <time>2021-02-24T12:08:08Z</time>
      </trkpt>
      <trkpt lat="39.893334" lon="116.646199">
        <time>2021-02-24T12:08:13Z</time>
      </trkpt>
      <trkpt lat="39.893236" lon="116.646169">
        <time>2021-02-24T12:08:18Z</time>
      </trkpt>
      <trkpt lat="39.893129" lon="116.64612">
        <time>2021-02-24T12:08:23Z</time>
      </trkpt>
      <trkpt lat="39.893028" lon="116.646086">
        <time>2021-02-24T12:08:28Z</time>
      </trkpt>
      <trkpt lat="39.892964" lon="116.646025">
        <time>2021-02-24T12:08:33Z</time>
      </trkpt>
      <trkpt lat="39.892848" lon="116.645974">
        <time>2021-02-24T12:08:38Z</time>
      </trkpt>
      <trkpt lat="39.892731" lon="116.645895">
        <time>2021-02-24T12:08:43Z</time>
      </trkpt>
      <trkpt lat="39.892618" lon="116.645862">
        <time>2021-02-24T12:08:48Z</time>
      </trkpt>
      <trkpt lat="39.892527" lon="116.645793">
        <time>2021-02-24T12:08:53Z</time>
      </trkpt>
      <trkpt lat="39.892439" lon="116.645745">
        <time>2021-02-24T12:08:58Z</time>
      </trkpt>
      <trkpt lat="39.892344" lon="116.64569">
        <time>2021-02-24T12:09:03Z</time>
      </trkpt>
      <trkpt lat="39.892256" lon="116.64562">
        <time>2021-02-24T12:09:08Z</time>
      </trkpt>
      <trkpt lat="39.892148" lon="116.645581">
        <time>2021-02-24T12:09:13Z</time>
      </trkpt>
      <trkpt lat="39.892072" lon="116.645537">
        <time>2021-02-24T12:09:18Z</time>
      </trkpt>
      <trkpt lat="39.89198" lon="116.645495">
        <time>2021-02-24T12:09:23Z</time>
      </trkpt>
      <trkpt lat="39.891851" lon="116.645479">
        <time>2021-02-24T12:09:28Z</time>
      </trkpt>
      <trkpt lat="39.891729" lon="116.64542">
        <time>2021-02-24T12:09:33Z</time>
      </trkpt>
      <trkpt lat="39.891637" lon="116.645351">
        <time>2021-02-24T12:09:38Z</time>
      </trkpt>
      <trkpt lat="39.891531" lon="116.645287">
        <time>2021-02-24T12:09:43Z</time>
      </trkpt>
      <trkpt lat="39.891527" lon="116.645346">
        <time>2021-02-24T12:09:48Z</time>
      </trkpt>
      <trkpt lat="39.891594" lon="116.645403">
        <time>2021-02-24T12:09:53Z</time>
      </trkpt>
      <trkpt lat="39.891661" lon="116.645432">
        <time>2021-02-24T12:09:58Z</time>
      </trkpt>
      <trkpt lat="39.89175" lon="116.645484">
        <time>2021-02-24T12:10:03Z</time>
      </trkpt>
      <trkpt lat="39.891849" lon="116.645535">
        <time>2021-02-24T12:10:08Z</time>
      </trkpt>
      <trkpt lat="39.891953" lon="116.64559">
        <time>2021-02-24T12:10:13Z</time>
      </trkpt>
      <trkpt lat="39.892058" lon="116.64563">
        <time>2021-02-24T12:10:18Z</time>
      </trkpt>
      <trkpt lat="39.892155" lon="116.645702">
        <time>2021-02-24T12:10:23Z</time>
      </trkpt>
      <trkpt lat="39.892251" lon="116.645743">
        <time>2021-02-24T12:10:28Z</time>
      </trkpt>
      <trkpt lat="39.892366" lon="116.645787">
        <time>2021-02-24T12:10:33Z</time>
      </trkpt>
      <trkpt lat="39.892486" lon="116.645849">
        <time>2021-02-24T12:10:38Z</time>
      </trkpt>
      <trkpt lat="39.892583" lon="116.645892">
        <time>2021-02-24T12:10:43Z</time>
      </trkpt>
      <trkpt lat="39.892687" lon="116.645936">
        <time>2021-02-24T12:10:48Z</time>
      </trkpt>
      <trkpt lat="39.892815" lon="116.64598">
        <time>2021-02-24T12:10:53Z</time>
      </trkpt>
      <trkpt lat="39.892941" lon="116.645989">
        <time>2021-02-24T12:10:58Z</time>
      </trkpt>
      <trkpt lat="39.893013" lon="116.646021">
        <time>2021-02-24T12:11:03Z</time>
      </trkpt>
      <trkpt lat="39.893096" lon="116.646062">
        <time>2021-02-24T12:11:08Z</time>
      </trkpt>
      <trkpt lat="39.893176" lon="116.646119">
        <time>2021-02-24T12:11:13Z</time>
      </trkpt>
      <trkpt lat="39.893279" lon="116.64619">
        <time>2021-02-24T12:11:18Z</time>
      </trkpt>
      <trkpt lat="39.893357" lon="116.646225">
        <time>2021-02-24T12:11:23Z</time>
      </trkpt>
      <trkpt lat="39.893544" lon="116.646345">
        <time>2021-02-24T12:11:28Z</time>
      </trkpt>
      <trkpt lat="39.893568" lon="116.646356">
        <time>2021-02-24T12:11:33Z</time>
      </trkpt>
      <trkpt lat="39.893691" lon="116.646373">
        <time>2021-02-24T12:11:38Z</time>
      </trkpt>
      <trkpt lat="39.893761" lon="116.646307">
        <time>2021-02-24T12:11:43Z</time>
      </trkpt>
      <trkpt lat="39.893842" lon="116.64616">
        <time>2021-02-24T12:11:48Z</time>
      </trkpt>
      <trkpt lat="39.893887" lon="116.646115">
        <time>2021-02-24T12:11:53Z</time>
      </trkpt>
      <trkpt lat="39.893943" lon="116.646019">
        <time>2021-02-24T12:11:58Z</time>
      </trkpt>
      <trkpt lat="39.894" lon="116.645954">
        <time>2021-02-24T12:12:03Z</time>
      </trkpt>
      <trkpt lat="39.89409" lon="116.645982">
        <time>2021-02-24T12:12:08Z</time>
      </trkpt>
      <trkpt lat="39.894271" lon="116.646033">
        <time>2021-02-24T12:12:13Z</time>
      </trkpt>
      <trkpt lat="39.894349" lon="116.646062">
        <time>2021-02-24T12:12:18Z</time>
      </trkpt>
      <trkpt lat="39.894443" lon="116.646115">
        <time>2021-02-24T12:12:23Z</time>
      </trkpt>
      <trkpt lat="39.894514" lon="116.646153">
        <time>2021-02-24T12:12:28Z</time>
      </trkpt>
      <trkpt lat="39.894586" lon="116.646192">
        <time>2021-02-24T12:12:33Z</time>
      </trkpt>
      <trkpt lat="39.894685" lon="116.646238">
        <time>2021-02-24T12:12:38Z</time>
      </trkpt>
      <trkpt lat="39.894753" lon="116.646277">
        <time>2021-02-24T12:12:43Z</time>
      </trkpt>
      <trkpt lat="39.894847" lon="116.646327">
        <time>2021-02-24T12:12:48Z</time>
      </trkpt>
      <trkpt lat="39.894965" lon="116.64643">
        <time>2021-02-24T12:12:53Z</time>
      </trkpt>
      <trkpt lat="39.895104" lon="116.646483">
        <time>2021-02-24T12:12:58Z</time>
      </trkpt>
      <trkpt lat="39.895208" lon="116.64654">
        <time>2021-02-24T12:13:03Z</time>
      </trkpt>
      <trkpt lat="39.895322" lon="116.646581">
        <time>2021-02-24T12:13:08Z</time>
      </trkpt>
      <trkpt lat="39.89543" lon="116.646652">
        <time>2021-02-24T12:13:13Z</time>
      </trkpt>
      <trkpt lat="39.895535" lon="116.646698">
        <time>2021-02-24T12:13:18Z</time>
      </trkpt>
      <trkpt lat="39.895624" lon="116.646731">
        <time>2021-02-24T12:13:23Z</time>
      </trkpt>
      <trkpt lat="39.895746" lon="116.646779">
        <time>2021-02-24T12:13:28Z</time>
      </trkpt>
      <trkpt lat="39.895867" lon="116.646845">
        <time>2021-02-24T12:13:33Z</time>
      </trkpt>
      <trkpt lat="39.89598" lon="116.646872">
        <time>2021-02-24T12:13:38Z</time>
      </trkpt>
      <trkpt lat="39.896073" lon="116.646835">
        <time>2021-02-24T12:13:43Z</time>
      </trkpt>
      <trkpt lat="39.896083" lon="116.646699">
        <time>2021-02-24T12:13:48Z</time>
      </trkpt>
      <trkpt lat="39.896064" lon="116.646551">
        <time>2021-02-24T12:13:53Z</time>
      </trkpt>
      <trkpt lat="39.896066" lon="116.64643">
        <time>2021-02-24T12:13:58Z</time>
      </trkpt>
      <trkpt lat="39.896054" lon="116.64629">
        <time>2021-02-24T12:14:03Z</time>
      </trkpt>
      <trkpt lat="39.896069" lon="116.646143">
        <time>2021-02-24T12:14:08Z</time>
      </trkpt>
      <trkpt lat="39.89608" lon="116.645983">
        <time>2021-02-24T12:14:13Z</time>
      </trkpt>
      <trkpt lat="39.896085" lon="116.645852">
        <time>2021-02-24T12:14:18Z</time>
      </trkpt>
      <trkpt lat="39.896093" lon="116.645712">
        <time>2021-02-24T12:14:23Z</time>
      </trkpt>
      <trkpt lat="39.896136" lon="116.645594">
        <time>2021-02-24T12:14:28Z</time>
      </trkpt>
      <trkpt lat="39.896169" lon="116.64551">
        <time>2021-02-24T12:14:33Z</time>
      </trkpt>
      <trkpt lat="39.89617" lon="116.645342">
        <time>2021-02-24T12:14:38Z</time>
      </trkpt>
      <trkpt lat="39.896165" lon="116.645177">
        <time>2021-02-24T12:14:43Z</time>
      </trkpt>
      <trkpt lat="39.896162" lon="116.645032">
        <time>2021-02-24T12:14:48Z</time>
      </trkpt>
      <trkpt lat="39.896179" lon="116.644879">
        <time>2021-02-24T12:14:53Z</time>
      </trkpt>
      <trkpt lat="39.896208" lon="116.644724">
        <time>2021-02-24T12:14:58Z</time>
      </trkpt>
      <trkpt lat="39.896215" lon="116.64458">
        <time>2021-02-24T12:15:03Z</time>
      </trkpt>
      <trkpt lat="39.896202" lon="116.644425">
        <time>2021-02-24T12:15:08Z</time>
      </trkpt>
      <trkpt lat="39.896192" lon="116.644283">
        <time>2021-02-24T12:15:13Z</time>
      </trkpt>
      <trkpt lat="39.896177" lon="116.644142">
        <time>2021-02-24T12:15:18Z</time>
      </trkpt>
      <trkpt lat="39.896153" lon="116.644005">
        <time>2021-02-24T12:15:23Z</time>
      </trkpt>
      <trkpt lat="39.896173" lon="116.643878">
        <time>2021-02-24T12:15:28Z</time>
      </trkpt>
      <trkpt lat="39.896178" lon="116.64375">
        <time>2021-02-24T12:15:33Z</time>
      </trkpt>
      <trkpt lat="39.896194" lon="116.643635">
        <time>2021-02-24T12:15:38Z</time>
      </trkpt>
      <trkpt lat="39.896195" lon="116.643497">
        <time>2021-02-24T12:15:43Z</time>
      </trkpt>
      <trkpt lat="39.896193" lon="116.643355">
        <time>2021-02-24T12:15:48Z</time>
      </trkpt>
      <trkpt lat="39.896185" lon="116.643217">
        <time>2021-02-24T12:15:53Z</time>
      </trkpt>
      <trkpt lat="39.896189" lon="116.643065">
        <time>2021-02-24T12:15:58Z</time>
      </trkpt>
      <trkpt lat="39.896198" lon="116.642929">
        <time>2021-02-24T12:16:03Z</time>
      </trkpt>
      <trkpt lat="39.8962" lon="116.642762">
        <time>2021-02-24T12:16:08Z</time>
      </trkpt>
      <trkpt lat="39.896202" lon="116.642623">
        <time>2021-02-24T12:16:13Z</time>
      </trkpt>
      <trkpt lat="39.896189" lon="116.642488">
        <time>2021-02-24T12:16:18Z</time>
      </trkpt>
      <trkpt lat="39.896214" lon="116.642368">
        <time>2021-02-24T12:16:23Z</time>
      </trkpt>
      <trkpt lat="39.896253" lon="116.642247">
        <time>2021-02-24T12:16:28Z</time>
      </trkpt>
      <trkpt lat="39.896248" lon="116.642096">
        <time>2021-02-24T12:16:33Z</time>
      </trkpt>
      <trkpt lat="39.896262" lon="116.641968">
        <time>2021-02-24T12:16:38Z</time>
      </trkpt>
      <trkpt lat="39.896271" lon="116.641818">
        <time>2021-02-24T12:16:43Z</time>
      </trkpt>
      <trkpt lat="39.896256" lon="116.64164">
        <time>2021-02-24T12:16:48Z</time>
      </trkpt>
      <trkpt lat="39.89627" lon="116.6415">
        <time>2021-02-24T12:16:53Z</time>
      </trkpt>
      <trkpt lat="39.896283" lon="116.641361">
        <time>2021-02-24T12:16:58Z</time>
      </trkpt>
      <trkpt lat="39.896272" lon="116.641198">
        <time>2021-02-24T12:17:03Z</time>
      </trkpt>
      <trkpt lat="39.896259" lon="116.641041">
        <time>2021-02-24T12:17:08Z</time>
      </trkpt>
      <trkpt lat="39.896239" lon="116.640932">
        <time>2021-02-24T12:17:13Z</time>
      </trkpt>
      <trkpt lat="39.896248" lon="116.6408">
        <time>2021-02-24T12:17:18Z</time>
      </trkpt>
      <trkpt lat="39.896251" lon="116.640645">
        <time>2021-02-24T12:17:23Z</time>
      </trkpt>
      <trkpt lat="39.896227" lon="116.640479">
        <time>2021-02-24T12:17:28Z</time>
      </trkpt>
      <trkpt lat="39.896224" lon="116.640281">
        <time>2021-02-24T12:17:33Z</time>
      </trkpt>
      <trkpt lat="39.896249" lon="116.640157">
        <time>2021-02-24T12:17:38Z</time>
      </trkpt>
      <trkpt lat="39.896252" lon="116.639986">
        <time>2021-02-24T12:17:43Z</time>
      </trkpt>
      <trkpt lat="39.896268" lon="116.639818">
        <time>2021-02-24T12:17:48Z</time>
      </trkpt>
      <trkpt lat="39.89626" lon="116.639637">
        <time>2021-02-24T12:17:53Z</time>
      </trkpt>
      <trkpt lat="39.896239" lon="116.639463">
        <time>2021-02-24T12:17:58Z</time>
      </trkpt>
      <trkpt lat="39.896234" lon="116.639307">
        <time>2021-02-24T12:18:03Z</time>
      </trkpt>
      <trkpt lat="39.896228" lon="116.639154">
        <time>2021-02-24T12:18:08Z</time>
      </trkpt>
      <trkpt lat="39.896221" lon="116.639014">
        <time>2021-02-24T12:18:13Z</time>
      </trkpt>
      <trkpt lat="39.896199" lon="116.638858">
        <time>2021-02-24T12:18:18Z</time>
      </trkpt>
      <trkpt lat="39.89621" lon="116.638696">
        <time>2021-02-24T12:18:23Z</time>
      </trkpt>
      <trkpt lat="39.896213" lon="116.638502">
        <time>2021-02-24T12:18:28Z</time>
      </trkpt>
      <trkpt lat="39.896213" lon="116.638334">
        <time>2021-02-24T12:18:33Z</time>
      </trkpt>
      <trkpt lat="39.896203" lon="116.638162">
        <time>2021-02-24T12:18:38Z</time>
      </trkpt>
      <trkpt lat="39.896197" lon="116.638024">
        <time>2021-02-24T12:18:43Z</time>
      </trkpt>
      <trkpt lat="39.896202" lon="116.637888">
        <time>2021-02-24T12:18:48Z</time>
      </trkpt>
      <trkpt lat="39.896189" lon="116.637731">
        <time>2021-02-24T12:18:53Z</time>
      </trkpt>
      <trkpt lat="39.896174" lon="116.637608">
        <time>2021-02-24T12:18:58Z</time>
      </trkpt>
      <trkpt lat="39.896155" lon="116.637444">
        <time>2021-02-24T12:19:03Z</time>
      </trkpt>
      <trkpt lat="39.896162" lon="116.637328">
        <time>2021-02-24T12:19:08Z</time>
      </trkpt>
      <trkpt lat="39.896153" lon="116.637173">
        <time>2021-02-24T12:19:13Z</time>
      </trkpt>
      <trkpt lat="39.896122" lon="116.637038">
        <time>2021-02-24T12:19:18Z</time>
      </trkpt>
      <trkpt lat="39.896111" lon="116.636886">
        <time>2021-02-24T12:19:23Z</time>
      </trkpt>
      <trkpt lat="39.896063" lon="116.636764">
        <time>2021-02-24T12:19:28Z</time>
      </trkpt>
      <trkpt lat="39.895993" lon="116.636677">
        <time>2021-02-24T12:19:33Z</time>
      </trkpt>
      <trkpt lat="39.895994" lon="116.636813">
        <time>2021-02-24T12:19:38Z</time>
      </trkpt>
      <trkpt lat="39.896049" lon="116.636969">
        <time>2021-02-24T12:19:43Z</time>
      </trkpt>
      <trkpt lat="39.896084" lon="116.637113">
        <time>2021-02-24T12:19:48Z</time>
      </trkpt>
      <trkpt lat="39.896123" lon="116.637242">
        <time>2021-02-24T12:19:53Z</time>
      </trkpt>
      <trkpt lat="39.89615" lon="116.637389">
        <time>2021-02-24T12:19:58Z</time>
      </trkpt>
      <trkpt lat="39.896201" lon="116.637525">
        <time>2021-02-24T12:20:03Z</time>
      </trkpt>
      <trkpt lat="39.896181" lon="116.637691">
        <time>2021-02-24T12:20:08Z</time>
      </trkpt>
      <trkpt lat="39.896169" lon="116.637854">
        <time>2021-02-24T12:20:13Z</time>
      </trkpt>
      <trkpt lat="39.896182" lon="116.638005">
        <time>2021-02-24T12:20:18Z</time>
      </trkpt>
      <trkpt lat="39.896159" lon="116.638175">
        <time>2021-02-24T12:20:23Z</time>
      </trkpt>
      <trkpt lat="39.896121" lon="116.638344">
        <time>2021-02-24T12:20:28Z</time>
      </trkpt>
      <trkpt lat="39.896162" lon="116.638522">
        <time>2021-02-24T12:20:33Z</time>
      </trkpt>
      <trkpt lat="39.896185" lon="116.638693">
        <time>2021-02-24T12:20:38Z</time>
      </trkpt>
      <trkpt lat="39.896202" lon="116.638844">
        <time>2021-02-24T12:20:43Z</time>
      </trkpt>
      <trkpt lat="39.896228" lon="116.639002">
        <time>2021-02-24T12:20:48Z</time>
      </trkpt>
      <trkpt lat="39.896251" lon="116.639126">
        <time>2021-02-24T12:20:53Z</time>
      </trkpt>
      <trkpt lat="39.89625" lon="116.639267">
        <time>2021-02-24T12:20:58Z</time>
      </trkpt>
      <trkpt lat="39.896247" lon="116.639409">
        <time>2021-02-24T12:21:03Z</time>
      </trkpt>
      <trkpt lat="39.896245" lon="116.639566">
        <time>2021-02-24T12:21:08Z</time>
      </trkpt>
      <trkpt lat="39.89627" lon="116.639715">
        <time>2021-02-24T12:21:13Z</time>
      </trkpt>
      <trkpt lat="39.896304" lon="116.63986">
        <time>2021-02-24T12:21:18Z</time>
      </trkpt>
      <trkpt lat="39.896278" lon="116.640011">
        <time>2021-02-24T12:21:23Z</time>
      </trkpt>
      <trkpt lat="39.896297" lon="116.640156">
        <time>2021-02-24T12:21:28Z</time>
      </trkpt>
      <trkpt lat="39.896297" lon="116.640311">
        <time>2021-02-24T12:21:33Z</time>
      </trkpt>
      <trkpt lat="39.89629" lon="116.640503">
        <time>2021-02-24T12:21:38Z</time>
      </trkpt>
      <trkpt lat="39.896273" lon="116.640695">
        <time>2021-02-24T12:21:43Z</time>
      </trkpt>
      <trkpt lat="39.896257" lon="116.640867">
        <time>2021-02-24T12:21:48Z</time>
      </trkpt>
      <trkpt lat="39.896271" lon="116.641019">
        <time>2021-02-24T12:21:53Z</time>
      </trkpt>
      <trkpt lat="39.896265" lon="116.641199">
        <time>2021-02-24T12:21:58Z</time>
      </trkpt>
      <trkpt lat="39.896237" lon="116.641367">
        <time>2021-02-24T12:22:03Z</time>
      </trkpt>
      <trkpt lat="39.896236" lon="116.641524">
        <time>2021-02-24T12:22:08Z</time>
      </trkpt>
      <trkpt lat="39.89624" lon="116.64167">
        <time>2021-02-24T12:22:13Z</time>
      </trkpt>
      <trkpt lat="39.896178" lon="116.64183">
        <time>2021-02-24T12:22:18Z</time>
      </trkpt>
      <trkpt lat="39.896179" lon="116.641992">
        <time>2021-02-24T12:22:23Z</time>
      </trkpt>
      <trkpt lat="39.896186" lon="116.642182">
        <time>2021-02-24T12:22:28Z</time>
      </trkpt>
      <trkpt lat="39.896178" lon="116.642312">
        <time>2021-02-24T12:22:33Z</time>
      </trkpt>
      <trkpt lat="39.896166" lon="116.642472">
        <time>2021-02-24T12:22:38Z</time>
      </trkpt>
      <trkpt lat="39.896215" lon="116.642646">
        <time>2021-02-24T12:22:43Z</time>
      </trkpt>
      <trkpt lat="39.896211" lon="116.642791">
        <time>2021-02-24T12:22:48Z</time>
      </trkpt>
      <trkpt lat="39.896184" lon="116.642945">
        <time>2021-02-24T12:22:53Z</time>
      </trkpt>
      <trkpt lat="39.896183" lon="116.643124">
        <time>2021-02-24T12:22:58Z</time>
      </trkpt>
      <trkpt lat="39.896176" lon="116.643268">
        <time>2021-02-24T12:23:03Z</time>
      </trkpt>
      <trkpt lat="39.896183" lon="116.643422">
        <time>2021-02-24T12:23:08Z</time>
      </trkpt>
      <trkpt lat="39.896208" lon="116.643575">
        <time>2021-02-24T12:23:13Z</time>
      </trkpt>
      <trkpt lat="39.896199" lon="116.643736">
        <time>2021-02-24T12:23:18Z</time>
      </trkpt>
      <trkpt lat="39.896205" lon="116.643882">
        <time>2021-02-24T12:23:23Z</time>
      </trkpt>
      <trkpt lat="39.896216" lon="116.644055">
        <time>2021-02-24T12:23:28Z</time>
      </trkpt>
      <trkpt lat="39.896198" lon="116.644211">
        <time>2021-02-24T12:23:33Z</time>
      </trkpt>
      <trkpt lat="39.89618" lon="116.64436">
        <time>2021-02-24T12:23:38Z</time>
      </trkpt>
      <trkpt lat="39.896224" lon="116.644524">
        <time>2021-02-24T12:23:43Z</time>
      </trkpt>
      <trkpt lat="39.896236" lon="116.644652">
        <time>2021-02-24T12:23:48Z</time>
      </trkpt>
      <trkpt lat="39.896245" lon="116.64481">
        <time>2021-02-24T12:23:53Z</time>
      </trkpt>
      <trkpt lat="39.896239" lon="116.644936">
        <time>2021-02-24T12:23:58Z</time>
      </trkpt>
      <trkpt lat="39.896207" lon="116.645096">
        <time>2021-02-24T12:24:03Z</time>
      </trkpt>
      <trkpt lat="39.896177" lon="116.645225">
        <time>2021-02-24T12:24:08Z</time>
      </trkpt>
      <trkpt lat="39.896166" lon="116.645377">
        <time>2021-02-24T12:24:13Z</time>
      </trkpt>
      <trkpt lat="39.896112" lon="116.645538">
        <time>2021-02-24T12:24:18Z</time>
      </trkpt>
      <trkpt lat="39.896093" lon="116.645708">
        <time>2021-02-24T12:24:23Z</time>
      </trkpt>
      <trkpt lat="39.896072" lon="116.645881">
        <time>2021-02-24T12:24:28Z</time>
      </trkpt>
      <trkpt lat="39.896048" lon="116.646054">
        <time>2021-02-24T12:24:33Z</time>
      </trkpt>
      <trkpt lat="39.896047" lon="116.646217">
        <time>2021-02-24T12:24:38Z</time>
      </trkpt>
      <trkpt lat="39.896026" lon="116.646389">
        <time>2021-02-24T12:24:43Z</time>
      </trkpt>
      <trkpt lat="39.896013" lon="116.646532">
        <time>2021-02-24T12:24:48Z</time>
      </trkpt>
      <trkpt lat="39.89601" lon="116.646701">
        <time>2021-02-24T12:24:53Z</time>
      </trkpt>
      <trkpt lat="39.895949" lon="116.646881">
        <time>2021-02-24T12:24:58Z</time>
      </trkpt>
      <trkpt lat="39.895815" lon="116.646855">
        <time>2021-02-24T12:25:03Z</time>
      </trkpt>
      <trkpt lat="39.895692" lon="116.646773">
        <time>2021-02-24T12:25:08Z</time>
      </trkpt>
      <trkpt lat="39.895583" lon="116.646718">
        <time>2021-02-24T12:25:13Z</time>
      </trkpt>
      <trkpt lat="39.895487" lon="116.64666">
        <time>2021-02-24T12:25:18Z</time>
      </trkpt>
      <trkpt lat="39.895388" lon="116.646606">
        <time>2021-02-24T12:25:23Z</time>
      </trkpt>
      <trkpt lat="39.895241" lon="116.646514">
        <time>2021-02-24T12:25:28Z</time>
      </trkpt>
      <trkpt lat="39.895177" lon="116.646492">
        <time>2021-02-24T12:25:33Z</time>
      </trkpt>
      <trkpt lat="39.895064" lon="116.646447">
        <time>2021-02-24T12:25:38Z</time>
      </trkpt>
      <trkpt lat="39.894866" lon="116.646379">
        <time>2021-02-24T12:25:43Z</time>
      </trkpt>
      <trkpt lat="39.894797" lon="116.646339">
        <time>2021-02-24T12:25:48Z</time>
      </trkpt>
      <trkpt lat="39.89468" lon="116.646271">
        <time>2021-02-24T12:25:53Z</time>
      </trkpt>
      <trkpt lat="39.894562" lon="116.646186">
        <time>2021-02-24T12:25:58Z</time>
      </trkpt>
      <trkpt lat="39.894443" lon="116.646144">
        <time>2021-02-24T12:26:03Z</time>
      </trkpt>
      <trkpt lat="39.894328" lon="116.646082">
        <time>2021-02-24T12:26:08Z</time>
      </trkpt>
      <trkpt lat="39.894232" lon="116.646016">
        <time>2021-02-24T12:26:13Z</time>
      </trkpt>
      <trkpt lat="39.894112" lon="116.645995">
        <time>2021-02-24T12:26:18Z</time>
      </trkpt>
      <trkpt lat="39.894042" lon="116.645944">
        <time>2021-02-24T12:26:23Z</time>
      </trkpt>
      <trkpt lat="39.893932" lon="116.645949">
        <time>2021-02-24T12:26:28Z</time>
      </trkpt>
      <trkpt lat="39.893853" lon="116.646072">
        <time>2021-02-24T12:26:33Z</time>
      </trkpt>
      <trkpt lat="39.893752" lon="116.646183">
        <time>2021-02-24T12:26:38Z</time>
      </trkpt>
      <trkpt lat="39.893615" lon="116.646395">
        <time>2021-02-24T12:26:43Z</time>
      </trkpt>
      <trkpt lat="39.89357" lon="116.646423">
        <time>2021-02-24T12:26:48Z</time>
      </trkpt>
      <trkpt lat="39.893414" lon="116.646323">
        <time>2021-02-24T12:26:53Z</time>
      </trkpt>
      <trkpt lat="39.89335" lon="116.646288">
        <time>2021-02-24T12:26:58Z</time>
      </trkpt>
      <trkpt lat="39.893235" lon="116.646238">
        <time>2021-02-24T12:27:03Z</time>
      </trkpt>
      <trkpt lat="39.893131" lon="116.646205">
        <time>2021-02-24T12:27:08Z</time>
      </trkpt>
      <trkpt lat="39.89304" lon="116.646158">
        <time>2021-02-24T12:27:13Z</time>
      </trkpt>
      <trkpt lat="39.892929" lon="116.646063">
        <time>2021-02-24T12:27:18Z</time>
      </trkpt>
      <trkpt lat="39.892809" lon="116.64598">
        <time>2021-02-24T12:27:23Z</time>
      </trkpt>
      <trkpt lat="39.892678" lon="116.645923">
        <time>2021-02-24T12:27:28Z</time>
      </trkpt>
      <trkpt lat="39.892568" lon="116.645892">
        <time>2021-02-24T12:27:33Z</time>
      </trkpt>
      <trkpt lat="39.892449" lon="116.645827">
        <time>2021-02-24T12:27:38Z</time>
      </trkpt>
      <trkpt lat="39.892323" lon="116.645734">
        <time>2021-02-24T12:27:43Z</time>
      </trkpt>
      <trkpt lat="39.892206" lon="116.645683">
        <time>2021-02-24T12:27:48Z</time>
      </trkpt>
      <trkpt lat="39.892083" lon="116.645645">
        <time>2021-02-24T12:27:53Z</time>
      </trkpt>
      <trkpt lat="39.89197" lon="116.645608">
        <time>2021-02-24T12:27:58Z</time>
      </trkpt>
      <trkpt lat="39.891861" lon="116.645535">
        <time>2021-02-24T12:28:03Z</time>
      </trkpt>
      <trkpt lat="39.891745" lon="116.64545">
        <time>2021-02-24T12:28:08Z</time>
      </trkpt>
      <trkpt lat="39.891629" lon="116.645373">
        <time>2021-02-24T12:28:13Z</time>
      </trkpt>
      <trkpt lat="39.891506" lon="116.645344">
        <time>2021-02-24T12:28:18Z</time>
      </trkpt>
      <trkpt lat="39.89155" lon="116.645443">
        <time>2021-02-24T12:28:23Z</time>
      </trkpt>
      <trkpt lat="39.891696" lon="116.645511">
        <time>2021-02-24T12:28:28Z</time>
      </trkpt>
      <trkpt lat="39.891841" lon="116.64556">
        <time>2021-02-24T12:28:33Z</time>
      </trkpt>
      <trkpt lat="39.891962" lon="116.645612">
        <time>2021-02-24T12:28:38Z</time>
      </trkpt>
      <trkpt lat="39.892053" lon="116.645676">
        <time>2021-02-24T12:28:43Z</time>
      </trkpt>
      <trkpt lat="39.892158" lon="116.645742">
        <time>2021-02-24T12:28:48Z</time>
      </trkpt>
      <trkpt lat="39.892293" lon="116.645797">
        <time>2021-02-24T12:28:53Z</time>
      </trkpt>
      <trkpt lat="39.89239" lon="116.645843">
        <time>2021-02-24T12:28:58Z</time>
      </trkpt>
      <trkpt lat="39.892481" lon="116.645903">
        <time>2021-02-24T12:29:03Z</time>
      </trkpt>
      <trkpt lat="39.892594" lon="116.645944">
        <time>2021-02-24T12:29:08Z</time>
      </trkpt>
      <trkpt lat="39.892731" lon="116.645966">
        <time>2021-02-24T12:29:13Z</time>
      </trkpt>
      <trkpt lat="39.892879" lon="116.646043">
        <time>2021-02-24T12:29:18Z</time>
      </trkpt>
      <trkpt lat="39.893004" lon="116.646061">
        <time>2021-02-24T12:29:23Z</time>
      </trkpt>
      <trkpt lat="39.893156" lon="116.646122">
        <time>2021-02-24T12:29:28Z</time>
      </trkpt>
      <trkpt lat="39.893282" lon="116.646201">
        <time>2021-02-24T12:29:33Z</time>
      </trkpt>
      <trkpt lat="39.893399" lon="116.646286">
        <time>2021-02-24T12:29:38Z</time>
      </trkpt>
      <trkpt lat="39.893512" lon="116.646362">
        <time>2021-02-24T12:29:43Z</time>
      </trkpt>
      <trkpt lat="39.893593" lon="116.6464">
        <time>2021-02-24T12:29:48Z</time>
      </trkpt>
      <trkpt lat="39.893745" lon="116.646382">
        <time>2021-02-24T12:29:53Z</time>
      </trkpt>
      <trkpt lat="39.893869" lon="116.646176">
        <time>2021-02-24T12:29:58Z</time>
      </trkpt>
      <trkpt lat="39.893918" lon="116.646075">
        <time>2021-02-24T12:30:03Z</time>
      </trkpt>
      <trkpt lat="39.893991" lon="116.64594">
        <time>2021-02-24T12:30:08Z</time>
      </trkpt>
      <trkpt lat="39.894091" lon="116.645964">
        <time>2021-02-24T12:30:13Z</time>
      </trkpt>
      <trkpt lat="39.894267" lon="116.646059">
        <time>2021-02-24T12:30:18Z</time>
      </trkpt>
      <trkpt lat="39.894311" lon="116.646079">
        <time>2021-02-24T12:30:23Z</time>
      </trkpt>
      <trkpt lat="39.894406" lon="116.646124">
        <time>2021-02-24T12:30:28Z</time>
      </trkpt>
      <trkpt lat="39.894503" lon="116.64618">
        <time>2021-02-24T12:30:33Z</time>
      </trkpt>
      <trkpt lat="39.89468" lon="116.646278">
        <time>2021-02-24T12:30:38Z</time>
      </trkpt>
      <trkpt lat="39.894753" lon="116.646306">
        <time>2021-02-24T12:30:43Z</time>
      </trkpt>
      <trkpt lat="39.894874" lon="116.646362">
        <time>2021-02-24T12:30:48Z</time>
      </trkpt>
      <trkpt lat="39.895024" lon="116.646457">
        <time>2021-02-24T12:30:53Z</time>
      </trkpt>
      <trkpt lat="39.895117" lon="116.64651">
        <time>2021-02-24T12:30:58Z</time>
      </trkpt>
      <trkpt lat="39.895247" lon="116.646583">
        <time>2021-02-24T12:31:03Z</time>
      </trkpt>
      <trkpt lat="39.895421" lon="116.646679">
        <time>2021-02-24T12:31:08Z</time>
      </trkpt>
      <trkpt lat="39.895475" lon="116.64669">
        <time>2021-02-24T12:31:13Z</time>
      </trkpt>
      <trkpt lat="39.895614" lon="116.646745">
        <time>2021-02-24T12:31:18Z</time>
      </trkpt>
      <trkpt lat="39.895759" lon="116.646802">
        <time>2021-02-24T12:31:23Z</time>
      </trkpt>
      <trkpt lat="39.895891" lon="116.646853">
        <time>2021-02-24T12:31:28Z</time>
      </trkpt>
      <trkpt lat="39.895976" lon="116.64687">
        <time>2021-02-24T12:31:33Z</time>
      </trkpt>
      <trkpt lat="39.896038" lon="116.64677">
        <time>2021-02-24T12:31:38Z</time>
      </trkpt>
      <trkpt lat="39.896042" lon="116.646561">
        <time>2021-02-24T12:31:43Z</time>
      </trkpt>
      <trkpt lat="39.896044" lon="116.646353">
        <time>2021-02-24T12:31:48Z</time>
      </trkpt>
      <trkpt lat="39.896026" lon="116.64619">
        <time>2021-02-24T12:31:53Z</time>
      </trkpt>
      <trkpt lat="39.896052" lon="116.646049">
        <time>2021-02-24T12:31:58Z</time>
      </trkpt>
      <trkpt lat="39.896081" lon="116.645911">
        <time>2021-02-24T12:32:03Z</time>
      </trkpt>
      <trkpt lat="39.896109" lon="116.645745">
        <time>2021-02-24T12:32:08Z</time>
      </trkpt>
      <trkpt lat="39.89613" lon="116.645578">
        <time>2021-02-24T12:32:13Z</time>
      </trkpt>
      <trkpt lat="39.89616" lon="116.645453">
        <time>2021-02-24T12:32:18Z</time>
      </trkpt>
      <trkpt lat="39.896158" lon="116.64529">
        <time>2021-02-24T12:32:23Z</time>
      </trkpt>
      <trkpt lat="39.896157" lon="116.645121">
        <time>2021-02-24T12:32:28Z</time>
      </trkpt>
      <trkpt lat="39.896166" lon="116.644958">
        <time>2021-02-24T12:32:33Z</time>
      </trkpt>
      <trkpt lat="39.896191" lon="116.644801">
        <time>2021-02-24T12:32:38Z</time>
      </trkpt>
      <trkpt lat="39.896204" lon="116.644649">
        <time>2021-02-24T12:32:43Z</time>
      </trkpt>
      <trkpt lat="39.896184" lon="116.644465">
        <time>2021-02-24T12:32:48Z</time>
      </trkpt>
      <trkpt lat="39.896177" lon="116.644295">
        <time>2021-02-24T12:32:53Z</time>
      </trkpt>
      <trkpt lat="39.89618" lon="116.644144">
        <time>2021-02-24T12:32:58Z</time>
      </trkpt>
      <trkpt lat="39.89619" lon="116.643995">
        <time>2021-02-24T12:33:03Z</time>
      </trkpt>
      <trkpt lat="39.896209" lon="116.643834">
        <time>2021-02-24T12:33:08Z</time>
      </trkpt>
      <trkpt lat="39.896218" lon="116.643695">
        <time>2021-02-24T12:33:13Z</time>
      </trkpt>
      <trkpt lat="39.89623" lon="116.643563">
        <time>2021-02-24T12:33:18Z</time>
      </trkpt>
      <trkpt lat="39.896234" lon="116.643426">
        <time>2021-02-24T12:33:23Z</time>
      </trkpt>
      <trkpt lat="39.896238" lon="116.643255">
        <time>2021-02-24T12:33:28Z</time>
      </trkpt>
      <trkpt lat="39.896228" lon="116.643064">
        <time>2021-02-24T12:33:33Z</time>
      </trkpt>
      <trkpt lat="39.896221" lon="116.642868">
        <time>2021-02-24T12:33:38Z</time>
      </trkpt>
      <trkpt lat="39.896237" lon="116.642701">
        <time>2021-02-24T12:33:43Z</time>
      </trkpt>
      <trkpt lat="39.896246" lon="116.642564">
        <time>2021-02-24T12:33:48Z</time>
      </trkpt>
      <trkpt lat="39.896234" lon="116.642399">
        <time>2021-02-24T12:33:53Z</time>
      </trkpt>
      <trkpt lat="39.896233" lon="116.642216">
        <time>2021-02-24T12:33:58Z</time>
      </trkpt>
      <trkpt lat="39.896208" lon="116.642029">
        <time>2021-02-24T12:34:03Z</time>
      </trkpt>
      <trkpt lat="39.896234" lon="116.641712">
        <time>2021-02-24T12:34:08Z</time>
      </trkpt>
      <trkpt lat="39.896235" lon="116.641686">
        <time>2021-02-24T12:34:13Z</time>
      </trkpt>
      <trkpt lat="39.896255" lon="116.641523">
        <time>2021-02-24T12:34:18Z</time>
      </trkpt>
      <trkpt lat="39.896249" lon="116.64136">
        <time>2021-02-24T12:34:23Z</time>
      </trkpt>
      <trkpt lat="39.89628" lon="116.64122">
        <time>2021-02-24T12:34:28Z</time>
      </trkpt>
      <trkpt lat="39.896293" lon="116.641073">
        <time>2021-02-24T12:34:33Z</time>
      </trkpt>
      <trkpt lat="39.89629" lon="116.640913">
        <time>2021-02-24T12:34:38Z</time>
      </trkpt>
      <trkpt lat="39.896291" lon="116.640732">
        <time>2021-02-24T12:34:43Z</time>
      </trkpt>
      <trkpt lat="39.896284" lon="116.640543">
        <time>2021-02-24T12:34:48Z</time>
      </trkpt>
      <trkpt lat="39.896272" lon="116.64039">
        <time>2021-02-24T12:34:53Z</time>
      </trkpt>
      <trkpt lat="39.896258" lon="116.640233">
        <time>2021-02-24T12:34:58Z</time>
      </trkpt>
      <trkpt lat="39.896253" lon="116.640094">
        <time>2021-02-24T12:35:03Z</time>
      </trkpt>
      <trkpt lat="39.896238" lon="116.639932">
        <time>2021-02-24T12:35:08Z</time>
      </trkpt>
      <trkpt lat="39.896251" lon="116.639802">
        <time>2021-02-24T12:35:13Z</time>
      </trkpt>
      <trkpt lat="39.896238" lon="116.639604">
        <time>2021-02-24T12:35:18Z</time>
      </trkpt>
      <trkpt lat="39.896214" lon="116.639391">
        <time>2021-02-24T12:35:23Z</time>
      </trkpt>
      <trkpt lat="39.8962" lon="116.639213">
        <time>2021-02-24T12:35:28Z</time>
      </trkpt>
      <trkpt lat="39.8962" lon="116.639045">
        <time>2021-02-24T12:35:33Z</time>
      </trkpt>
      <trkpt lat="39.896202" lon="116.638892">
        <time>2021-02-24T12:35:38Z</time>
      </trkpt>
      <trkpt lat="39.896199" lon="116.638726">
        <time>2021-02-24T12:35:43Z</time>
      </trkpt>
      <trkpt lat="39.896191" lon="116.638561">
        <time>2021-02-24T12:35:48Z</time>
      </trkpt>
      <trkpt lat="39.896175" lon="116.63841">
        <time>2021-02-24T12:35:53Z</time>
      </trkpt>
      <trkpt lat="39.896174" lon="116.638258">
        <time>2021-02-24T12:35:58Z</time>
      </trkpt>
      <trkpt lat="39.896176" lon="116.638077">
        <time>2021-02-24T12:36:03Z</time>
      </trkpt>
      <trkpt lat="39.896167" lon="116.637909">
        <time>2021-02-24T12:36:08Z</time>
      </trkpt>
      <trkpt lat="39.896158" lon="116.637754">
        <time>2021-02-24T12:36:13Z</time>
      </trkpt>
      <trkpt lat="39.896142" lon="116.637591">
        <time>2021-02-24T12:36:18Z</time>
      </trkpt>
      <trkpt lat="39.896139" lon="116.637427">
        <time>2021-02-24T12:36:23Z</time>
      </trkpt>
      <trkpt lat="39.896118" lon="116.637253">
        <time>2021-02-24T12:36:28Z</time>
      </trkpt>
      <trkpt lat="39.89611" lon="116.637073">
        <time>2021-02-24T12:36:33Z</time>
      </trkpt>
      <trkpt lat="39.896102" lon="116.636927">
        <time>2021-02-24T12:36:38Z</time>
      </trkpt>
      <trkpt lat="39.896091" lon="116.636774">
        <time>2021-02-24T12:36:43Z</time>
      </trkpt>
      <trkpt lat="39.896089" lon="116.636681">
        <time>2021-02-24T12:36:48Z</time>
      </trkpt>
      <trkpt lat="39.896021" lon="116.636771">
        <time>2021-02-24T12:36:53Z</time>
      </trkpt>
      <trkpt lat="39.896062" lon="116.636949">
        <time>2021-02-24T12:36:58Z</time>
      </trkpt>
      <trkpt lat="39.896077" lon="116.637134">
        <time>2021-02-24T12:37:03Z</time>
      </trkpt>
      <trkpt lat="39.896127" lon="116.637303">
        <time>2021-02-24T12:37:08Z</time>
      </trkpt>
      <trkpt lat="39.896138" lon="116.637478">
        <time>2021-02-24T12:37:13Z</time>
      </trkpt>
      <trkpt lat="39.89611" lon="116.637637">
        <time>2021-02-24T12:37:18Z</time>
      </trkpt>
      <trkpt lat="39.896134" lon="116.637787">
        <time>2021-02-24T12:37:23Z</time>
      </trkpt>
      <trkpt lat="39.896157" lon="116.63796">
        <time>2021-02-24T12:37:28Z</time>
      </trkpt>
      <trkpt lat="39.896184" lon="116.638125">
        <time>2021-02-24T12:37:33Z</time>
      </trkpt>
      <trkpt lat="39.896197" lon="116.638286">
        <time>2021-02-24T12:37:38Z</time>
      </trkpt>
      <trkpt lat="39.896206" lon="116.638464">
        <time>2021-02-24T12:37:43Z</time>
      </trkpt>
      <trkpt lat="39.896169" lon="116.63861">
        <time>2021-02-24T12:37:48Z</time>
      </trkpt>
      <trkpt lat="39.896169" lon="116.638777">
        <time>2021-02-24T12:37:53Z</time>
      </trkpt>
      <trkpt lat="39.896182" lon="116.638943">
        <time>2021-02-24T12:37:58Z</time>
      </trkpt>
      <trkpt lat="39.896195" lon="116.639118">
        <time>2021-02-24T12:38:03Z</time>
      </trkpt>
      <trkpt lat="39.89621" lon="116.639282">
        <time>2021-02-24T12:38:08Z</time>
      </trkpt>
      <trkpt lat="39.896207" lon="116.63942">
        <time>2021-02-24T12:38:13Z</time>
      </trkpt>
      <trkpt lat="39.896226" lon="116.639579">
        <time>2021-02-24T12:38:18Z</time>
      </trkpt>
      <trkpt lat="39.896236" lon="116.639751">
        <time>2021-02-24T12:38:23Z</time>
      </trkpt>
      <trkpt lat="39.896257" lon="116.639907">
        <time>2021-02-24T12:38:28Z</time>
      </trkpt>
      <trkpt lat="39.896245" lon="116.640086">
        <time>2021-02-24T12:38:33Z</time>
      </trkpt>
      <trkpt lat="39.89625" lon="116.64025">
        <time>2021-02-24T12:38:38Z</time>
      </trkpt>
      <trkpt lat="39.89627" lon="116.640441">
        <time>2021-02-24T12:38:43Z</time>
      </trkpt>
      <trkpt lat="39.89629" lon="116.640617">
        <time>2021-02-24T12:38:48Z</time>
      </trkpt>
      <trkpt lat="39.896275" lon="116.640813">
        <time>2021-02-24T12:38:53Z</time>
      </trkpt>
      <trkpt lat="39.896248" lon="116.640966">
        <time>2021-02-24T12:38:58Z</time>
      </trkpt>
      <trkpt lat="39.896241" lon="116.641124">
        <time>2021-02-24T12:39:03Z</time>
      </trkpt>
      <trkpt lat="39.896256" lon="116.641291">
        <time>2021-02-24T12:39:08Z</time>
      </trkpt>
      <trkpt lat="39.896257" lon="116.641445">
        <time>2021-02-24T12:39:13Z</time>
      </trkpt>
      <trkpt lat="39.896252" lon="116.641599">
        <time>2021-02-24T12:39:18Z</time>
      </trkpt>
      <trkpt lat="39.896253" lon="116.641758">
        <time>2021-02-24T12:39:23Z</time>
      </trkpt>
      <trkpt lat="39.896241" lon="116.641915">
        <time>2021-02-24T12:39:28Z</time>
      </trkpt>
      <trkpt lat="39.896229" lon="116.64206">
        <time>2021-02-24T12:39:33Z</time>
      </trkpt>
      <trkpt lat="39.896225" lon="116.642234">
        <time>2021-02-24T12:39:38Z</time>
      </trkpt>
      <trkpt lat="39.896247" lon="116.64238">
        <time>2021-02-24T12:39:43Z</time>
      </trkpt>
      <trkpt lat="39.896244" lon="116.642555">
        <time>2021-02-24T12:39:48Z</time>
      </trkpt>
      <trkpt lat="39.896217" lon="116.642729">
        <time>2021-02-24T12:39:53Z</time>
      </trkpt>
      <trkpt lat="39.896206" lon="116.642881">
        <time>2021-02-24T12:39:58Z</time>
      </trkpt>
      <trkpt lat="39.896195" lon="116.643053">
        <time>2021-02-24T12:40:03Z</time>
      </trkpt>
      <trkpt lat="39.896185" lon="116.64316">
        <time>2021-02-24T12:40:08Z</time>
      </trkpt>
      <trkpt lat="39.896164" lon="116.643325">
        <time>2021-02-24T12:40:13Z</time>
      </trkpt>
      <trkpt lat="39.896186" lon="116.643497">
        <time>2021-02-24T12:40:18Z</time>
      </trkpt>
      <trkpt lat="39.896226" lon="116.643645">
        <time>2021-02-24T12:40:23Z</time>
      </trkpt>
      <trkpt lat="39.896211" lon="116.643798">
        <time>2021-02-24T12:40:28Z</time>
      </trkpt>
      <trkpt lat="39.896193" lon="116.643959">
        <time>2021-02-24T12:40:33Z</time>
      </trkpt>
      <trkpt lat="39.896197" lon="116.644094">
        <time>2021-02-24T12:40:38Z</time>
      </trkpt>
      <trkpt lat="39.896208" lon="116.644246">
        <time>2021-02-24T12:40:43Z</time>
      </trkpt>
      <trkpt lat="39.896221" lon="116.644408">
        <time>2021-02-24T12:40:48Z</time>
      </trkpt>
      <trkpt lat="39.896218" lon="116.644572">
        <time>2021-02-24T12:40:53Z</time>
      </trkpt>
      <trkpt lat="39.896223" lon="116.644718">
        <time>2021-02-24T12:40:58Z</time>
      </trkpt>
      <trkpt lat="39.896208" lon="116.64488">
        <time>2021-02-24T12:41:03Z</time>
      </trkpt>
      <trkpt lat="39.896194" lon="116.645053">
        <time>2021-02-24T12:41:08Z</time>
      </trkpt>
      <trkpt lat="39.896175" lon="116.645213">
        <time>2021-02-24T12:41:13Z</time>
      </trkpt>
      <trkpt lat="39.89616" lon="116.645374">
        <time>2021-02-24T12:41:18Z</time>
      </trkpt>
      <trkpt lat="39.896144" lon="116.645526">
        <time>2021-02-24T12:41:23Z</time>
      </trkpt>
      <trkpt lat="39.896111" lon="116.645708">
        <time>2021-02-24T12:41:28Z</time>
      </trkpt>
      <trkpt lat="39.896077" lon="116.645859">
        <time>2021-02-24T12:41:33Z</time>
      </trkpt>
      <trkpt lat="39.896075" lon="116.646036">
        <time>2021-02-24T12:41:38Z</time>
      </trkpt>
      <trkpt lat="39.89605" lon="116.64621">
        <time>2021-02-24T12:41:43Z</time>
      </trkpt>
      <trkpt lat="39.896033" lon="116.646386">
        <time>2021-02-24T12:41:48Z</time>
      </trkpt>
      <trkpt lat="39.896033" lon="116.646551">
        <time>2021-02-24T12:41:53Z</time>
      </trkpt>
      <trkpt lat="39.896024" lon="116.646718">
        <time>2021-02-24T12:41:58Z</time>
      </trkpt>
      <trkpt lat="39.895909" lon="116.646847">
        <time>2021-02-24T12:42:03Z</time>
      </trkpt>
      <trkpt lat="39.895783" lon="116.646795">
        <time>2021-02-24T12:42:08Z</time>
      </trkpt>
      <trkpt lat="39.895646" lon="116.646731">
        <time>2021-02-24T12:42:13Z</time>
      </trkpt>
      <trkpt lat="39.895506" lon="116.646687">
        <time>2021-02-24T12:42:18Z</time>
      </trkpt>
      <trkpt lat="39.895377" lon="116.646629">
        <time>2021-02-24T12:42:23Z</time>
      </trkpt>
      <trkpt lat="39.895249" lon="116.646549">
        <time>2021-02-24T12:42:28Z</time>
      </trkpt>
      <trkpt lat="39.895127" lon="116.646476">
        <time>2021-02-24T12:42:33Z</time>
      </trkpt>
      <trkpt lat="39.894914" lon="116.646361">
        <time>2021-02-24T12:42:38Z</time>
      </trkpt>
      <trkpt lat="39.894887" lon="116.646351">
        <time>2021-02-24T12:42:43Z</time>
      </trkpt>
      <trkpt lat="39.89476" lon="116.646294">
        <time>2021-02-24T12:42:48Z</time>
      </trkpt>
      <trkpt lat="39.894639" lon="116.646228">
        <time>2021-02-24T12:42:53Z</time>
      </trkpt>
      <trkpt lat="39.894446" lon="116.646121">
        <time>2021-02-24T12:42:58Z</time>
      </trkpt>
      <trkpt lat="39.894398" lon="116.646099">
        <time>2021-02-24T12:43:03Z</time>
      </trkpt>
      <trkpt lat="39.894288" lon="116.646044">
        <time>2021-02-24T12:43:08Z</time>
      </trkpt>
      <trkpt lat="39.894217" lon="116.646006">
        <time>2021-02-24T12:43:13Z</time>
      </trkpt>
      <trkpt lat="39.894115" lon="116.645933">
        <time>2021-02-24T12:43:18Z</time>
      </trkpt>
      <trkpt lat="39.894009" lon="116.645898">
        <time>2021-02-24T12:43:23Z</time>
      </trkpt>
      <trkpt lat="39.893897" lon="116.645963">
        <time>2021-02-24T12:43:28Z</time>
      </trkpt>
      <trkpt lat="39.893821" lon="116.646104">
        <time>2021-02-24T12:43:33Z</time>
      </trkpt>
      <trkpt lat="39.893739" lon="116.646242">
        <time>2021-02-24T12:43:38Z</time>
      </trkpt>
      <trkpt lat="39.893628" lon="116.646409">
        <time>2021-02-24T12:43:43Z</time>
      </trkpt>
      <trkpt lat="39.893518" lon="116.64638">
        <time>2021-02-24T12:43:48Z</time>
      </trkpt>
      <trkpt lat="39.893398" lon="116.646292">
        <time>2021-02-24T12:43:53Z</time>
      </trkpt>
      <trkpt lat="39.893282" lon="116.646229">
        <time>2021-02-24T12:43:58Z</time>
      </trkpt>
      <trkpt lat="39.893166" lon="116.64617">
        <time>2021-02-24T12:44:03Z</time>
      </trkpt>
      <trkpt lat="39.893032" lon="116.646096">
        <time>2021-02-24T12:44:08Z</time>
      </trkpt>
      <trkpt lat="39.892918" lon="116.646059">
        <time>2021-02-24T12:44:13Z</time>
      </trkpt>
      <trkpt lat="39.892811" lon="116.646034">
        <time>2021-02-24T12:44:18Z</time>
      </trkpt>
      <trkpt lat="39.892712" lon="116.645984">
        <time>2021-02-24T12:44:23Z</time>
      </trkpt>
      <trkpt lat="39.892577" lon="116.645912">
        <time>2021-02-24T12:44:28Z</time>
      </trkpt>
      <trkpt lat="39.89246" lon="116.645814">
        <time>2021-02-24T12:44:33Z</time>
      </trkpt>
      <trkpt lat="39.892338" lon="116.645729">
        <time>2021-02-24T12:44:38Z</time>
      </trkpt>
      <trkpt lat="39.892226" lon="116.645662">
        <time>2021-02-24T12:44:43Z</time>
      </trkpt>
      <trkpt lat="39.892116" lon="116.645623">
        <time>2021-02-24T12:44:48Z</time>
      </trkpt>
      <trkpt lat="39.892009" lon="116.645552">
        <time>2021-02-24T12:44:53Z</time>
      </trkpt>
      <trkpt lat="39.891907" lon="116.645441">
        <time>2021-02-24T12:44:58Z</time>
      </trkpt>
      <trkpt lat="39.891769" lon="116.645386">
        <time>2021-02-24T12:45:03Z</time>
      </trkpt>
      <trkpt lat="39.891627" lon="116.645379">
        <time>2021-02-24T12:45:08Z</time>
      </trkpt>
      <trkpt lat="39.891507" lon="116.645322">
        <time>2021-02-24T12:45:13Z</time>
      </trkpt>
      <trkpt lat="39.891557" lon="116.645422">
        <time>2021-02-24T12:45:18Z</time>
      </trkpt>
      <trkpt lat="39.891684" lon="116.645464">
        <time>2021-02-24T12:45:23Z</time>
      </trkpt>
      <trkpt lat="39.891838" lon="116.645502">
        <time>2021-02-24T12:45:28Z</time>
      </trkpt>
      <trkpt lat="39.891939" lon="116.645538">
        <time>2021-02-24T12:45:33Z</time>
      </trkpt>
      <trkpt lat="39.892067" lon="116.645624">
        <time>2021-02-24T12:45:38Z</time>
      </trkpt>
      <trkpt lat="39.892206" lon="116.64571">
        <time>2021-02-24T12:45:43Z</time>
      </trkpt>
      <trkpt lat="39.892332" lon="116.645759">
        <time>2021-02-24T12:45:48Z</time>
      </trkpt>
      <trkpt lat="39.892457" lon="116.645822">
        <time>2021-02-24T12:45:53Z</time>
      </trkpt>
      <trkpt lat="39.892562" lon="116.645904">
        <time>2021-02-24T12:45:58Z</time>
      </trkpt>
      <trkpt lat="39.892696" lon="116.645987">
        <time>2021-02-24T12:46:03Z</time>
      </trkpt>
      <trkpt lat="39.892818" lon="116.646054">
        <time>2021-02-24T12:46:08Z</time>
      </trkpt>
      <trkpt lat="39.892944" lon="116.646073">
        <time>2021-02-24T12:46:13Z</time>
      </trkpt>
      <trkpt lat="39.893069" lon="116.64611">
        <time>2021-02-24T12:46:18Z</time>
      </trkpt>
      <trkpt lat="39.893192" lon="116.646185">
        <time>2021-02-24T12:46:23Z</time>
      </trkpt>
      <trkpt lat="39.893334" lon="116.646255">
        <time>2021-02-24T12:46:28Z</time>
      </trkpt>
      <trkpt lat="39.893583" lon="116.646336">
        <time>2021-02-24T12:46:33Z</time>
      </trkpt>
      <trkpt lat="39.893611" lon="116.64635">
        <time>2021-02-24T12:46:38Z</time>
      </trkpt>
      <trkpt lat="39.893792" lon="116.646381">
        <time>2021-02-24T12:46:43Z</time>
      </trkpt>
      <trkpt lat="39.893884" lon="116.646245">
        <time>2021-02-24T12:46:48Z</time>
      </trkpt>
      <trkpt lat="39.893919" lon="116.646147">
        <time>2021-02-24T12:46:53Z</time>
      </trkpt>
      <trkpt lat="39.893975" lon="116.645978">
        <time>2021-02-24T12:46:58Z</time>
      </trkpt>
      <trkpt lat="39.894039" lon="116.645942">
        <time>2021-02-24T12:47:03Z</time>
      </trkpt>
      <trkpt lat="39.894268" lon="116.646066">
        <time>2021-02-24T12:47:08Z</time>
      </trkpt>
      <trkpt lat="39.894302" lon="116.646081">
        <time>2021-02-24T12:47:13Z</time>
      </trkpt>
      <trkpt lat="39.8944" lon="116.646123">
        <time>2021-02-24T12:47:18Z</time>
      </trkpt>
      <trkpt lat="39.894519" lon="116.646194">
        <time>2021-02-24T12:47:23Z</time>
      </trkpt>
      <trkpt lat="39.894706" lon="116.646309">
        <time>2021-02-24T12:47:28Z</time>
      </trkpt>
      <trkpt lat="39.894729" lon="116.64632">
        <time>2021-02-24T12:47:33Z</time>
      </trkpt>
      <trkpt lat="39.894863" lon="116.646384">
        <time>2021-02-24T12:47:38Z</time>
      </trkpt>
      <trkpt lat="39.895023" lon="116.646471">
        <time>2021-02-24T12:47:43Z</time>
      </trkpt>
      <trkpt lat="39.895173" lon="116.646522">
        <time>2021-02-24T12:47:48Z</time>
      </trkpt>
      <trkpt lat="39.895312" lon="116.646604">
        <time>2021-02-24T12:47:53Z</time>
      </trkpt>
      <trkpt lat="39.895438" lon="116.646662">
        <time>2021-02-24T12:47:58Z</time>
      </trkpt>
      <trkpt lat="39.895567" lon="116.64671">
        <time>2021-02-24T12:48:03Z</time>
      </trkpt>
      <trkpt lat="39.895669" lon="116.646788">
        <time>2021-02-24T12:48:08Z</time>
      </trkpt>
      <trkpt lat="39.895783" lon="116.646834">
        <time>2021-02-24T12:48:13Z</time>
      </trkpt>
      <trkpt lat="39.895918" lon="116.646874">
        <time>2021-02-24T12:48:18Z</time>
      </trkpt>
      <trkpt lat="39.896033" lon="116.646825">
        <time>2021-02-24T12:48:23Z</time>
      </trkpt>
      <trkpt lat="39.896062" lon="116.646642">
        <time>2021-02-24T12:48:28Z</time>
      </trkpt>
      <trkpt lat="39.896046" lon="116.646446">
        <time>2021-02-24T12:48:33Z</time>
      </trkpt>
      <trkpt lat="39.896054" lon="116.646261">
        <time>2021-02-24T12:48:38Z</time>
      </trkpt>
      <trkpt lat="39.89607" lon="116.646079">
        <time>2021-02-24T12:48:43Z</time>
      </trkpt>
      <trkpt lat="39.896065" lon="116.645891">
        <time>2021-02-24T12:48:48Z</time>
      </trkpt>
      <trkpt lat="39.896085" lon="116.64572">
        <time>2021-02-24T12:48:53Z</time>
      </trkpt>
      <trkpt lat="39.896102" lon="116.645561">
        <time>2021-02-24T12:48:58Z</time>
      </trkpt>
      <trkpt lat="39.896114" lon="116.645408">
        <time>2021-02-24T12:49:03Z</time>
      </trkpt>
      <trkpt lat="39.896149" lon="116.645274">
        <time>2021-02-24T12:49:08Z</time>
      </trkpt>
      <trkpt lat="39.896161" lon="116.645146">
        <time>2021-02-24T12:49:13Z</time>
      </trkpt>
      <trkpt lat="39.896171" lon="116.645009">
        <time>2021-02-24T12:49:18Z</time>
      </trkpt>
      <trkpt lat="39.896189" lon="116.644817">
        <time>2021-02-24T12:49:23Z</time>
      </trkpt>
      <trkpt lat="39.896214" lon="116.644665">
        <time>2021-02-24T12:49:28Z</time>
      </trkpt>
      <trkpt lat="39.896235" lon="116.644502">
        <time>2021-02-24T12:49:33Z</time>
      </trkpt>
      <trkpt lat="39.896234" lon="116.644315">
        <time>2021-02-24T12:49:38Z</time>
      </trkpt>
      <trkpt lat="39.896232" lon="116.644142">
        <time>2021-02-24T12:49:43Z</time>
      </trkpt>
      <trkpt lat="39.896217" lon="116.643993">
        <time>2021-02-24T12:49:48Z</time>
      </trkpt>
      <trkpt lat="39.896211" lon="116.643842">
        <time>2021-02-24T12:49:53Z</time>
      </trkpt>
      <trkpt lat="39.896215" lon="116.643691">
        <time>2021-02-24T12:49:58Z</time>
      </trkpt>
      <trkpt lat="39.896206" lon="116.643534">
        <time>2021-02-24T12:50:03Z</time>
      </trkpt>
      <trkpt lat="39.896185" lon="116.643391">
        <time>2021-02-24T12:50:08Z</time>
      </trkpt>
      <trkpt lat="39.896201" lon="116.643225">
        <time>2021-02-24T12:50:13Z</time>
      </trkpt>
      <trkpt lat="39.896223" lon="116.643117">
        <time>2021-02-24T12:50:18Z</time>
      </trkpt>
      <trkpt lat="39.89623" lon="116.642948">
        <time>2021-02-24T12:50:23Z</time>
      </trkpt>
      <trkpt lat="39.896211" lon="116.642776">
        <time>2021-02-24T12:50:28Z</time>
      </trkpt>
      <trkpt lat="39.896215" lon="116.642618">
        <time>2021-02-24T12:50:33Z</time>
      </trkpt>
      <trkpt lat="39.896212" lon="116.64246">
        <time>2021-02-24T12:50:38Z</time>
      </trkpt>
      <trkpt lat="39.896234" lon="116.642308">
        <time>2021-02-24T12:50:43Z</time>
      </trkpt>
      <trkpt lat="39.896261" lon="116.642161">
        <time>2021-02-24T12:50:48Z</time>
      </trkpt>
      <trkpt lat="39.89628" lon="116.641985">
        <time>2021-02-24T12:50:53Z</time>
      </trkpt>
      <trkpt lat="39.896271" lon="116.641813">
        <time>2021-02-24T12:50:58Z</time>
      </trkpt>
      <trkpt lat="39.896255" lon="116.641657">
        <time>2021-02-24T12:51:03Z</time>
      </trkpt>
      <trkpt lat="39.896245" lon="116.64148">
        <time>2021-02-24T12:51:08Z</time>
      </trkpt>
      <trkpt lat="39.896262" lon="116.641327">
        <time>2021-02-24T12:51:13Z</time>
      </trkpt>
      <trkpt lat="39.896258" lon="116.641174">
        <time>2021-02-24T12:51:18Z</time>
      </trkpt>
      <trkpt lat="39.89627" lon="116.64105">
        <time>2021-02-24T12:51:23Z</time>
      </trkpt>
      <trkpt lat="39.896262" lon="116.640887">
        <time>2021-02-24T12:51:28Z</time>
      </trkpt>
      <trkpt lat="39.896275" lon="116.640732">
        <time>2021-02-24T12:51:33Z</time>
      </trkpt>
      <trkpt lat="39.896263" lon="116.640574">
        <time>2021-02-24T12:51:38Z</time>
      </trkpt>
      <trkpt lat="39.896264" lon="116.640407">
        <time>2021-02-24T12:51:43Z</time>
      </trkpt>
      <trkpt lat="39.896294" lon="116.640253">
        <time>2021-02-24T12:51:48Z</time>
      </trkpt>
      <trkpt lat="39.896293" lon="116.640087">
        <time>2021-02-24T12:51:53Z</time>
      </trkpt>
      <trkpt lat="39.896278" lon="116.639914">
        <time>2021-02-24T12:51:58Z</time>
      </trkpt>
      <trkpt lat="39.896263" lon="116.63976">
        <time>2021-02-24T12:52:03Z</time>
      </trkpt>
      <trkpt lat="39.896257" lon="116.639604">
        <time>2021-02-24T12:52:08Z</time>
      </trkpt>
      <trkpt lat="39.896248" lon="116.639432">
        <time>2021-02-24T12:52:13Z</time>
      </trkpt>
      <trkpt lat="39.896244" lon="116.639264">
        <time>2021-02-24T12:52:18Z</time>
      </trkpt>
      <trkpt lat="39.896245" lon="116.639084">
        <time>2021-02-24T12:52:23Z</time>
      </trkpt>
      <trkpt lat="39.896248" lon="116.638929">
        <time>2021-02-24T12:52:28Z</time>
      </trkpt>
      <trkpt lat="39.896232" lon="116.638767">
        <time>2021-02-24T12:52:33Z</time>
      </trkpt>
      <trkpt lat="39.896209" lon="116.638585">
        <time>2021-02-24T12:52:38Z</time>
      </trkpt>
      <trkpt lat="39.896223" lon="116.638423">
        <time>2021-02-24T12:52:43Z</time>
      </trkpt>
      <trkpt lat="39.896224" lon="116.638282">
        <time>2021-02-24T12:52:48Z</time>
      </trkpt>
      <trkpt lat="39.896206" lon="116.638111">
        <time>2021-02-24T12:52:53Z</time>
      </trkpt>
      <trkpt lat="39.896186" lon="116.637925">
        <time>2021-02-24T12:52:58Z</time>
      </trkpt>
      <trkpt lat="39.896179" lon="116.637748">
        <time>2021-02-24T12:53:03Z</time>
      </trkpt>
      <trkpt lat="39.896178" lon="116.637614">
        <time>2021-02-24T12:53:08Z</time>
      </trkpt>
      <trkpt lat="39.896173" lon="116.63744">
        <time>2021-02-24T12:53:13Z</time>
      </trkpt>
      <trkpt lat="39.896163" lon="116.637269">
        <time>2021-02-24T12:53:18Z</time>
      </trkpt>
      <trkpt lat="39.896145" lon="116.637129">
        <time>2021-02-24T12:53:23Z</time>
      </trkpt>
      <trkpt lat="39.89612" lon="116.636939">
        <time>2021-02-24T12:53:28Z</time>
      </trkpt>
      <trkpt lat="39.896099" lon="116.636793">
        <time>2021-02-24T12:53:33Z</time>
      </trkpt>
      <trkpt lat="39.896038" lon="116.636682">
        <time>2021-02-24T12:53:38Z</time>
      </trkpt>
      <trkpt lat="39.896016" lon="116.636843">
        <time>2021-02-24T12:53:43Z</time>
      </trkpt>
      <trkpt lat="39.896056" lon="116.637023">
        <time>2021-02-24T12:53:48Z</time>
      </trkpt>
      <trkpt lat="39.896084" lon="116.637211">
        <time>2021-02-24T12:53:53Z</time>
      </trkpt>
      <trkpt lat="39.896098" lon="116.637373">
        <time>2021-02-24T12:53:58Z</time>
      </trkpt>
      <trkpt lat="39.896116" lon="116.637532">
        <time>2021-02-24T12:54:03Z</time>
      </trkpt>
      <trkpt lat="39.896125" lon="116.637684">
        <time>2021-02-24T12:54:08Z</time>
      </trkpt>
      <trkpt lat="39.896145" lon="116.637865">
        <time>2021-02-24T12:54:13Z</time>
      </trkpt>
      <trkpt lat="39.896144" lon="116.638022">
        <time>2021-02-24T12:54:18Z</time>
      </trkpt>
      <trkpt lat="39.896156" lon="116.638172">
        <time>2021-02-24T12:54:23Z</time>
      </trkpt>
      <trkpt lat="39.89616" lon="116.638301">
        <time>2021-02-24T12:54:28Z</time>
      </trkpt>
      <trkpt lat="39.89616" lon="116.638471">
        <time>2021-02-24T12:54:33Z</time>
      </trkpt>
      <trkpt lat="39.896167" lon="116.638644">
        <time>2021-02-24T12:54:38Z</time>
      </trkpt>
      <trkpt lat="39.896189" lon="116.638814">
        <time>2021-02-24T12:54:43Z</time>
      </trkpt>
      <trkpt lat="39.896203" lon="116.638971">
        <time>2021-02-24T12:54:48Z</time>
      </trkpt>
      <trkpt lat="39.896213" lon="116.639121">
        <time>2021-02-24T12:54:53Z</time>
      </trkpt>
      <trkpt lat="39.896229" lon="116.639288">
        <time>2021-02-24T12:54:58Z</time>
      </trkpt>
      <trkpt lat="39.896234" lon="116.639445">
        <time>2021-02-24T12:55:03Z</time>
      </trkpt>
      <trkpt lat="39.896225" lon="116.639595">
        <time>2021-02-24T12:55:08Z</time>
      </trkpt>
      <trkpt lat="39.896224" lon="116.639755">
        <time>2021-02-24T12:55:13Z</time>
      </trkpt>
      <trkpt lat="39.896235" lon="116.639924">
        <time>2021-02-24T12:55:18Z</time>
      </trkpt>
      <trkpt lat="39.896249" lon="116.640095">
        <time>2021-02-24T12:55:23Z</time>
      </trkpt>
      <trkpt lat="39.896255" lon="116.640264">
        <time>2021-02-24T12:55:28Z</time>
      </trkpt>
      <trkpt lat="39.896249" lon="116.640458">
        <time>2021-02-24T12:55:33Z</time>
      </trkpt>
      <trkpt lat="39.896242" lon="116.640643">
        <time>2021-02-24T12:55:38Z</time>
      </trkpt>
      <trkpt lat="39.896252" lon="116.640805">
        <time>2021-02-24T12:55:43Z</time>
      </trkpt>
      <trkpt lat="39.896258" lon="116.640981">
        <time>2021-02-24T12:55:48Z</time>
      </trkpt>
      <trkpt lat="39.896252" lon="116.641171">
        <time>2021-02-24T12:55:53Z</time>
      </trkpt>
      <trkpt lat="39.896243" lon="116.641369">
        <time>2021-02-24T12:55:58Z</time>
      </trkpt>
      <trkpt lat="39.896237" lon="116.641528">
        <time>2021-02-24T12:56:03Z</time>
      </trkpt>
      <trkpt lat="39.896235" lon="116.641681">
        <time>2021-02-24T12:56:08Z</time>
      </trkpt>
      <trkpt lat="39.896213" lon="116.641813">
        <time>2021-02-24T12:56:13Z</time>
      </trkpt>
      <trkpt lat="39.896207" lon="116.641986">
        <time>2021-02-24T12:56:18Z</time>
      </trkpt>
      <trkpt lat="39.89619" lon="116.64218">
        <time>2021-02-24T12:56:23Z</time>
      </trkpt>
      <trkpt lat="39.896197" lon="116.642267">
        <time>2021-02-24T12:56:28Z</time>
      </trkpt>
      <trkpt lat="39.8962" lon="116.642384">
        <time>2021-02-24T12:56:33Z</time>
      </trkpt>
      <trkpt lat="39.896203" lon="116.642564">
        <time>2021-02-24T12:56:38Z</time>
      </trkpt>
      <trkpt lat="39.896197" lon="116.642751">
        <time>2021-02-24T12:56:43Z</time>
      </trkpt>
      <trkpt lat="39.896201" lon="116.642932">
        <time>2021-02-24T12:56:48Z</time>
      </trkpt>
      <trkpt lat="39.896197" lon="116.643091">
        <time>2021-02-24T12:56:53Z</time>
      </trkpt>
      <trkpt lat="39.896182" lon="116.64324">
        <time>2021-02-24T12:56:58Z</time>
      </trkpt>
      <trkpt lat="39.896179" lon="116.643394">
        <time>2021-02-24T12:57:03Z</time>
      </trkpt>
      <trkpt lat="39.896178" lon="116.643563">
        <time>2021-02-24T12:57:08Z</time>
      </trkpt>
      <trkpt lat="39.896187" lon="116.643712">
        <time>2021-02-24T12:57:13Z</time>
      </trkpt>
      <trkpt lat="39.896193" lon="116.643852">
        <time>2021-02-24T12:57:18Z</time>
      </trkpt>
      <trkpt lat="39.896198" lon="116.644022">
        <time>2021-02-24T12:57:23Z</time>
      </trkpt>
      <trkpt lat="39.8962" lon="116.644174">
        <time>2021-02-24T12:57:28Z</time>
      </trkpt>
      <trkpt lat="39.896194" lon="116.64431">
        <time>2021-02-24T12:57:33Z</time>
      </trkpt>
      <trkpt lat="39.896203" lon="116.644469">
        <time>2021-02-24T12:57:38Z</time>
      </trkpt>
      <trkpt lat="39.896194" lon="116.644626">
        <time>2021-02-24T12:57:43Z</time>
      </trkpt>
      <trkpt lat="39.896192" lon="116.644784">
        <time>2021-02-24T12:57:48Z</time>
      </trkpt>
      <trkpt lat="39.896186" lon="116.644942">
        <time>2021-02-24T12:57:53Z</time>
      </trkpt>
      <trkpt lat="39.896174" lon="116.6451">
        <time>2021-02-24T12:57:58Z</time>
      </trkpt>
      <trkpt lat="39.896175" lon="116.645275">
        <time>2021-02-24T12:58:03Z</time>
      </trkpt>
      <trkpt lat="39.896166" lon="116.645457">
        <time>2021-02-24T12:58:08Z</time>
      </trkpt>
      <trkpt lat="39.896147" lon="116.645611">
        <time>2021-02-24T12:58:13Z</time>
      </trkpt>
      <trkpt lat="39.896105" lon="116.645795">
        <time>2021-02-24T12:58:18Z</time>
      </trkpt>
      <trkpt lat="39.896069" lon="116.64595">
        <time>2021-02-24T12:58:23Z</time>
      </trkpt>
      <trkpt lat="39.896049" lon="116.646101">
        <time>2021-02-24T12:58:28Z</time>
      </trkpt>
      <trkpt lat="39.896033" lon="116.646277">
        <time>2021-02-24T12:58:33Z</time>
      </trkpt>
      <trkpt lat="39.896017" lon="116.646424">
        <time>2021-02-24T12:58:38Z</time>
      </trkpt>
      <trkpt lat="39.896009" lon="116.646591">
        <time>2021-02-24T12:58:43Z</time>
      </trkpt>
      <trkpt lat="39.895985" lon="116.646773">
        <time>2021-02-24T12:58:48Z</time>
      </trkpt>
      <trkpt lat="39.895867" lon="116.646842">
        <time>2021-02-24T12:58:53Z</time>
      </trkpt>
      <trkpt lat="39.895718" lon="116.64679">
        <time>2021-02-24T12:58:58Z</time>
      </trkpt>
      <trkpt lat="39.895609" lon="116.646697">
        <time>2021-02-24T12:59:03Z</time>
      </trkpt>
      <trkpt lat="39.895492" lon="116.646629">
        <time>2021-02-24T12:59:08Z</time>
      </trkpt>
      <trkpt lat="39.895372" lon="116.646571">
        <time>2021-02-24T12:59:13Z</time>
      </trkpt>
      <trkpt lat="39.895254" lon="116.646505">
        <time>2021-02-24T12:59:18Z</time>
      </trkpt>
      <trkpt lat="39.895145" lon="116.64645">
        <time>2021-02-24T12:59:23Z</time>
      </trkpt>
      <trkpt lat="39.895029" lon="116.646418">
        <time>2021-02-24T12:59:28Z</time>
      </trkpt>
      <trkpt lat="39.894914" lon="116.646357">
        <time>2021-02-24T12:59:33Z</time>
      </trkpt>
      <trkpt lat="39.89483" lon="116.646292">
        <time>2021-02-24T12:59:38Z</time>
      </trkpt>
      <trkpt lat="39.8947" lon="116.646241">
        <time>2021-02-24T12:59:43Z</time>
      </trkpt>
      <trkpt lat="39.89459" lon="116.646211">
        <time>2021-02-24T12:59:48Z</time>
      </trkpt>
      <trkpt lat="39.894448" lon="116.646123">
        <time>2021-02-24T12:59:53Z</time>
      </trkpt>
      <trkpt lat="39.894338" lon="116.646101">
        <time>2021-02-24T12:59:58Z</time>
      </trkpt>
      <trkpt lat="39.894218" lon="116.646015">
        <time>2021-02-24T13:00:03Z</time>
      </trkpt>
      <trkpt lat="39.894129" lon="116.645926">
        <time>2021-02-24T13:00:08Z</time>
      </trkpt>
      <trkpt lat="39.893986" lon="116.645894">
        <time>2021-02-24T13:00:13Z</time>
      </trkpt>
      <trkpt lat="39.893861" lon="116.645984">
        <time>2021-02-24T13:00:18Z</time>
      </trkpt>
      <trkpt lat="39.893788" lon="116.646129">
        <time>2021-02-24T13:00:23Z</time>
      </trkpt>
      <trkpt lat="39.893723" lon="116.646251">
        <time>2021-02-24T13:00:28Z</time>
      </trkpt>
      <trkpt lat="39.893598" lon="116.646383">
        <time>2021-02-24T13:00:33Z</time>
      </trkpt>
      <trkpt lat="39.893518" lon="116.646344">
        <time>2021-02-24T13:00:38Z</time>
      </trkpt>
      <trkpt lat="39.893394" lon="116.646285">
        <time>2021-02-24T13:00:43Z</time>
      </trkpt>
      <trkpt lat="39.893276" lon="116.646249">
        <time>2021-02-24T13:00:48Z</time>
      </trkpt>
      <trkpt lat="39.893166" lon="116.646197">
        <time>2021-02-24T13:00:53Z</time>
      </trkpt>
      <trkpt lat="39.893051" lon="116.646116">
        <time>2021-02-24T13:00:58Z</time>
      </trkpt>
      <trkpt lat="39.892935" lon="116.646042">
        <time>2021-02-24T13:01:03Z</time>
      </trkpt>
      <trkpt lat="39.892822" lon="116.645951">
        <time>2021-02-24T13:01:08Z</time>
      </trkpt>
      <trkpt lat="39.892687" lon="116.645873">
        <time>2021-02-24T13:01:13Z</time>
      </trkpt>
      <trkpt lat="39.892564" lon="116.645797">
        <time>2021-02-24T13:01:18Z</time>
      </trkpt>
      <trkpt lat="39.892444" lon="116.645741">
        <time>2021-02-24T13:01:23Z</time>
      </trkpt>
      <trkpt lat="39.892324" lon="116.645701">
        <time>2021-02-24T13:01:28Z</time>
      </trkpt>
      <trkpt lat="39.892201" lon="116.645653">
        <time>2021-02-24T13:01:33Z</time>
      </trkpt>
      <trkpt lat="39.892082" lon="116.645604">
        <time>2021-02-24T13:01:38Z</time>
      </trkpt>
      <trkpt lat="39.891943" lon="116.645563">
        <time>2021-02-24T13:01:43Z</time>
      </trkpt>
      <trkpt lat="39.891826" lon="116.645471">
        <time>2021-02-24T13:01:48Z</time>
      </trkpt>
      <trkpt lat="39.891681" lon="116.645406">
        <time>2021-02-24T13:01:53Z</time>
      </trkpt>
      <trkpt lat="39.891521" lon="116.645308">
        <time>2021-02-24T13:01:58Z</time>
      </trkpt>
      <trkpt lat="39.89151" lon="116.645366">
        <time>2021-02-24T13:02:03Z</time>
      </trkpt>
      <trkpt lat="39.891605" lon="116.645467">
        <time>2021-02-24T13:02:08Z</time>
      </trkpt>
      <trkpt lat="39.891749" lon="116.64553">
        <time>2021-02-24T13:02:13Z</time>
      </trkpt>
      <trkpt lat="39.891897" lon="116.645575">
        <time>2021-02-24T13:02:18Z</time>
      </trkpt>
      <trkpt lat="39.892033" lon="116.645623">
        <time>2021-02-24T13:02:23Z</time>
      </trkpt>
      <trkpt lat="39.89214" lon="116.645684">
        <time>2021-02-24T13:02:28Z</time>
      </trkpt>
      <trkpt lat="39.892314" lon="116.645753">
        <time>2021-02-24T13:02:33Z</time>
      </trkpt>
      <trkpt lat="39.89245" lon="116.645819">
        <time>2021-02-24T13:02:38Z</time>
      </trkpt>
      <trkpt lat="39.89257" lon="116.64585">
        <time>2021-02-24T13:02:43Z</time>
      </trkpt>
      <trkpt lat="39.892715" lon="116.645914">
        <time>2021-02-24T13:02:48Z</time>
      </trkpt>
      <trkpt lat="39.892843" lon="116.645954">
        <time>2021-02-24T13:02:53Z</time>
      </trkpt>
      <trkpt lat="39.892952" lon="116.646003">
        <time>2021-02-24T13:02:58Z</time>
      </trkpt>
      <trkpt lat="39.893073" lon="116.646046">
        <time>2021-02-24T13:03:03Z</time>
      </trkpt>
      <trkpt lat="39.893167" lon="116.646109">
        <time>2021-02-24T13:03:08Z</time>
      </trkpt>
      <trkpt lat="39.893194" lon="116.646153">
        <time>2021-02-24T13:03:13Z</time>
      </trkpt>
      <trkpt lat="39.893242" lon="116.646197">
        <time>2021-02-24T13:03:18Z</time>
      </trkpt>
      <trkpt lat="39.893391" lon="116.646272">
        <time>2021-02-24T13:03:23Z</time>
      </trkpt>
      <trkpt lat="39.893513" lon="116.64636">
        <time>2021-02-24T13:03:28Z</time>
      </trkpt>
      <trkpt lat="39.893528" lon="116.64637">
        <time>2021-02-24T13:03:33Z</time>
      </trkpt>
      <trkpt lat="39.893614" lon="116.646395">
        <time>2021-02-24T13:03:38Z</time>
      </trkpt>
      <trkpt lat="39.893725" lon="116.64629">
        <time>2021-02-24T13:03:43Z</time>
      </trkpt>
      <trkpt lat="39.893831" lon="116.646153">
        <time>2021-02-24T13:03:48Z</time>
      </trkpt>
      <trkpt lat="39.893929" lon="116.646046">
        <time>2021-02-24T13:03:53Z</time>
      </trkpt>
      <trkpt lat="39.893986" lon="116.645994">
        <time>2021-02-24T13:03:58Z</time>
      </trkpt>
      <trkpt lat="39.894091" lon="116.646022">
        <time>2021-02-24T13:04:03Z</time>
      </trkpt>
      <trkpt lat="39.894249" lon="116.646107">
        <time>2021-02-24T13:04:08Z</time>
      </trkpt>
      <trkpt lat="39.894314" lon="116.646128">
        <time>2021-02-24T13:04:13Z</time>
      </trkpt>
      <trkpt lat="39.894453" lon="116.64615">
        <time>2021-02-24T13:04:18Z</time>
      </trkpt>
      <trkpt lat="39.894595" lon="116.646223">
        <time>2021-02-24T13:04:23Z</time>
      </trkpt>
      <trkpt lat="39.894701" lon="116.646287">
        <time>2021-02-24T13:04:28Z</time>
      </trkpt>
      <trkpt lat="39.894848" lon="116.646351">
        <time>2021-02-24T13:04:33Z</time>
      </trkpt>
      <trkpt lat="39.894975" lon="116.646412">
        <time>2021-02-24T13:04:38Z</time>
      </trkpt>
      <trkpt lat="39.895107" lon="116.646507">
        <time>2021-02-24T13:04:43Z</time>
      </trkpt>
      <trkpt lat="39.895245" lon="116.646569">
        <time>2021-02-24T13:04:48Z</time>
      </trkpt>
      <trkpt lat="39.895445" lon="116.646649">
        <time>2021-02-24T13:04:53Z</time>
      </trkpt>
      <trkpt lat="39.895535" lon="116.646684">
        <time>2021-02-24T13:04:58Z</time>
      </trkpt>
      <trkpt lat="39.895656" lon="116.646781">
        <time>2021-02-24T13:05:03Z</time>
      </trkpt>
      <trkpt lat="39.895787" lon="116.646851">
        <time>2021-02-24T13:05:08Z</time>
      </trkpt>
      <trkpt lat="39.895901" lon="116.646875">
        <time>2021-02-24T13:05:13Z</time>
      </trkpt>
      <trkpt lat="39.896012" lon="116.646839">
        <time>2021-02-24T13:05:18Z</time>
      </trkpt>
      <trkpt lat="39.896074" lon="116.646675">
        <time>2021-02-24T13:05:23Z</time>
      </trkpt>
      <trkpt lat="39.896073" lon="116.64647">
        <time>2021-02-24T13:05:28Z</time>
      </trkpt>
      <trkpt lat="39.896073" lon="116.6463">
        <time>2021-02-24T13:05:33Z</time>
      </trkpt>
      <trkpt lat="39.896057" lon="116.646129">
        <time>2021-02-24T13:05:38Z</time>
      </trkpt>
      <trkpt lat="39.896051" lon="116.645968">
        <time>2021-02-24T13:05:43Z</time>
      </trkpt>
      <trkpt lat="39.896055" lon="116.645804">
        <time>2021-02-24T13:05:48Z</time>
      </trkpt>
      <trkpt lat="39.896095" lon="116.645634">
        <time>2021-02-24T13:05:53Z</time>
      </trkpt>
      <trkpt lat="39.896138" lon="116.645475">
        <time>2021-02-24T13:05:58Z</time>
      </trkpt>
      <trkpt lat="39.896161" lon="116.645306">
        <time>2021-02-24T13:06:03Z</time>
      </trkpt>
      <trkpt lat="39.896183" lon="116.645148">
        <time>2021-02-24T13:06:08Z</time>
      </trkpt>
      <trkpt lat="39.896197" lon="116.644991">
        <time>2021-02-24T13:06:13Z</time>
      </trkpt>
      <trkpt lat="39.896218" lon="116.644809">
        <time>2021-02-24T13:06:18Z</time>
      </trkpt>
      <trkpt lat="39.896242" lon="116.644661">
        <time>2021-02-24T13:06:23Z</time>
      </trkpt>
      <trkpt lat="39.896255" lon="116.644514">
        <time>2021-02-24T13:06:28Z</time>
      </trkpt>
      <trkpt lat="39.896263" lon="116.644347">
        <time>2021-02-24T13:06:33Z</time>
      </trkpt>
      <trkpt lat="39.89626" lon="116.644178">
        <time>2021-02-24T13:06:38Z</time>
      </trkpt>
      <trkpt lat="39.896268" lon="116.644012">
        <time>2021-02-24T13:06:43Z</time>
      </trkpt>
      <trkpt lat="39.896257" lon="116.64394">
        <time>2021-02-24T13:06:48Z</time>
      </trkpt>
      <trkpt lat="39.896252" lon="116.643849">
        <time>2021-02-24T13:06:53Z</time>
      </trkpt>
      <trkpt lat="39.896253" lon="116.643732">
        <time>2021-02-24T13:06:58Z</time>
      </trkpt>
      <trkpt lat="39.896251" lon="116.643561">
        <time>2021-02-24T13:07:03Z</time>
      </trkpt>
      <trkpt lat="39.896238" lon="116.643397">
        <time>2021-02-24T13:07:08Z</time>
      </trkpt>
      <trkpt lat="39.896219" lon="116.643247">
        <time>2021-02-24T13:07:13Z</time>
      </trkpt>
      <trkpt lat="39.896221" lon="116.643083">
        <time>2021-02-24T13:07:18Z</time>
      </trkpt>
      <trkpt lat="39.896223" lon="116.642903">
        <time>2021-02-24T13:07:23Z</time>
      </trkpt>
      <trkpt lat="39.896207" lon="116.64273">
        <time>2021-02-24T13:07:28Z</time>
      </trkpt>
      <trkpt lat="39.89624" lon="116.64259">
        <time>2021-02-24T13:07:33Z</time>
      </trkpt>
      <trkpt lat="39.896254" lon="116.642451">
        <time>2021-02-24T13:07:38Z</time>
      </trkpt>
      <trkpt lat="39.896254" lon="116.642292">
        <time>2021-02-24T13:07:43Z</time>
      </trkpt>
      <trkpt lat="39.896257" lon="116.642106">
        <time>2021-02-24T13:07:48Z</time>
      </trkpt>
      <trkpt lat="39.896247" lon="116.641789">
        <time>2021-02-24T13:07:53Z</time>
      </trkpt>
      <trkpt lat="39.896248" lon="116.641751">
        <time>2021-02-24T13:07:58Z</time>
      </trkpt>
      <trkpt lat="39.896241" lon="116.641561">
        <time>2021-02-24T13:08:03Z</time>
      </trkpt>
      <trkpt lat="39.896256" lon="116.641401">
        <time>2021-02-24T13:08:08Z</time>
      </trkpt>
      <trkpt lat="39.896261" lon="116.641229">
        <time>2021-02-24T13:08:13Z</time>
      </trkpt>
      <trkpt lat="39.896238" lon="116.641055">
        <time>2021-02-24T13:08:18Z</time>
      </trkpt>
      <trkpt lat="39.896245" lon="116.640875">
        <time>2021-02-24T13:08:23Z</time>
      </trkpt>
      <trkpt lat="39.896239" lon="116.640709">
        <time>2021-02-24T13:08:28Z</time>
      </trkpt>
      <trkpt lat="39.896247" lon="116.640521">
        <time>2021-02-24T13:08:33Z</time>
      </trkpt>
      <trkpt lat="39.896244" lon="116.640334">
        <time>2021-02-24T13:08:38Z</time>
      </trkpt>
      <trkpt lat="39.896272" lon="116.640151">
        <time>2021-02-24T13:08:43Z</time>
      </trkpt>
      <trkpt lat="39.89628" lon="116.639981">
        <time>2021-02-24T13:08:48Z</time>
      </trkpt>
      <trkpt lat="39.896306" lon="116.639825">
        <time>2021-02-24T13:08:53Z</time>
      </trkpt>
      <trkpt lat="39.896278" lon="116.639677">
        <time>2021-02-24T13:08:58Z</time>
      </trkpt>
      <trkpt lat="39.896254" lon="116.639506">
        <time>2021-02-24T13:09:03Z</time>
      </trkpt>
      <trkpt lat="39.896237" lon="116.639364">
        <time>2021-02-24T13:09:08Z</time>
      </trkpt>
      <trkpt lat="39.896215" lon="116.63921">
        <time>2021-02-24T13:09:13Z</time>
      </trkpt>
      <trkpt lat="39.896197" lon="116.639093">
        <time>2021-02-24T13:09:18Z</time>
      </trkpt>
      <trkpt lat="39.896197" lon="116.638973">
        <time>2021-02-24T13:09:23Z</time>
      </trkpt>
      <trkpt lat="39.896196" lon="116.63882">
        <time>2021-02-24T13:09:28Z</time>
      </trkpt>
      <trkpt lat="39.896193" lon="116.638629">
        <time>2021-02-24T13:09:33Z</time>
      </trkpt>
      <trkpt lat="39.896187" lon="116.638444">
        <time>2021-02-24T13:09:38Z</time>
      </trkpt>
      <trkpt lat="39.896204" lon="116.638254">
        <time>2021-02-24T13:09:43Z</time>
      </trkpt>
      <trkpt lat="39.896208" lon="116.638113">
        <time>2021-02-24T13:09:48Z</time>
      </trkpt>
      <trkpt lat="39.896201" lon="116.637966">
        <time>2021-02-24T13:09:53Z</time>
      </trkpt>
      <trkpt lat="39.896203" lon="116.637801">
        <time>2021-02-24T13:09:58Z</time>
      </trkpt>
      <trkpt lat="39.896203" lon="116.637624">
        <time>2021-02-24T13:10:03Z</time>
      </trkpt>
      <trkpt lat="39.896187" lon="116.637473">
        <time>2021-02-24T13:10:08Z</time>
      </trkpt>
      <trkpt lat="39.896174" lon="116.637339">
        <time>2021-02-24T13:10:13Z</time>
      </trkpt>
      <trkpt lat="39.896161" lon="116.637177">
        <time>2021-02-24T13:10:18Z</time>
      </trkpt>
      <trkpt lat="39.896134" lon="116.637029">
        <time>2021-02-24T13:10:23Z</time>
      </trkpt>
      <trkpt lat="39.896091" lon="116.636842">
        <time>2021-02-24T13:10:28Z</time>
      </trkpt>
      <trkpt lat="39.896037" lon="116.63671">
        <time>2021-02-24T13:10:33Z</time>
      </trkpt>
      <trkpt lat="39.895979" lon="116.636584">
        <time>2021-02-24T13:10:38Z</time>
      </trkpt>
      <trkpt lat="39.895887" lon="116.636517">
        <time>2021-02-24T13:10:43Z</time>
      </trkpt>
      <trkpt lat="39.895851" lon="116.636442">
        <time>2021-02-24T13:10:48Z</time>
      </trkpt>
      <trkpt lat="39.895943" lon="116.636378">
        <time>2021-02-24T13:10:53Z</time>
      </trkpt>
      <trkpt lat="39.89607" lon="116.636288">
        <time>2021-02-24T13:10:58Z</time>
      </trkpt>
      <trkpt lat="39.896191" lon="116.636212">
        <time>2021-02-24T13:11:03Z</time>
      </trkpt>
      <trkpt lat="39.896321" lon="116.636146">
        <time>2021-02-24T13:11:08Z</time>
      </trkpt>
      <trkpt lat="39.896423" lon="116.636023">
        <time>2021-02-24T13:11:13Z</time>
      </trkpt>
      <trkpt lat="39.896549" lon="116.635943">
        <time>2021-02-24T13:11:18Z</time>
      </trkpt>
      <trkpt lat="39.896689" lon="116.635853">
        <time>2021-02-24T13:11:23Z</time>
      </trkpt>
      <trkpt lat="39.896829" lon="116.635771">
        <time>2021-02-24T13:11:28Z</time>
      </trkpt>
      <trkpt lat="39.896934" lon="116.635713">
        <time>2021-02-24T13:11:33Z</time>
      </trkpt>
      <trkpt lat="39.897032" lon="116.635665">
        <time>2021-02-24T13:11:38Z</time>
      </trkpt>
      <trkpt lat="39.897183" lon="116.635597">
        <time>2021-02-24T13:11:43Z</time>
      </trkpt>
      <trkpt lat="39.89733" lon="116.635456">
        <time>2021-02-24T13:11:48Z</time>
      </trkpt>
      <trkpt lat="39.897528" lon="116.635347">
        <time>2021-02-24T13:11:53Z</time>
      </trkpt>
      <trkpt lat="39.897575" lon="116.635334">
        <time>2021-02-24T13:11:58Z</time>
      </trkpt>
      <trkpt lat="39.897651" lon="116.635287">
        <time>2021-02-24T13:12:03Z</time>
      </trkpt>
      <trkpt lat="39.897722" lon="116.635233">
        <time>2021-02-24T13:12:08Z</time>
      </trkpt>
      <trkpt lat="39.897773" lon="116.635205">
        <time>2021-02-24T13:12:13Z</time>
      </trkpt>
      <trkpt lat="39.897844" lon="116.635135">
        <time>2021-02-24T13:12:18Z</time>
      </trkpt>
      <trkpt lat="39.897899" lon="116.635117">
        <time>2021-02-24T13:12:23Z</time>
      </trkpt>
      <trkpt lat="39.897963" lon="116.635105">
        <time>2021-02-24T13:12:28Z</time>
      </trkpt>
      <trkpt lat="39.898019" lon="116.635053">
        <time>2021-02-24T13:12:33Z</time>
      </trkpt>
      <trkpt lat="39.898082" lon="116.635035">
        <time>2021-02-24T13:12:38Z</time>
      </trkpt>
      <trkpt lat="39.898155" lon="116.634977">
        <time>2021-02-24T13:12:43Z</time>
      </trkpt>
      <trkpt lat="39.898215" lon="116.634911">
        <time>2021-02-24T13:12:48Z</time>
      </trkpt>
      <trkpt lat="39.898189" lon="116.634929">
        <time>2021-02-24T13:12:53Z</time>
      </trkpt>
      <trkpt lat="39.898158" lon="116.634951">
        <time>2021-02-24T13:12:58Z</time>
      </trkpt>
      <trkpt lat="39.898159" lon="116.634951">
        <time>2021-02-24T13:13:03Z</time>
      </trkpt>
      <trkpt lat="39.898157" lon="116.634961">
        <time>2021-02-24T13:13:08Z</time>
      </trkpt>
      <trkpt lat="39.898139" lon="116.634968">
        <time>2021-02-24T13:13:13Z</time>
      </trkpt>
      <trkpt lat="39.898102" lon="116.634909">
        <time>2021-02-24T13:13:18Z</time>
      </trkpt>
      <trkpt lat="39.898067" lon="116.634808">
        <time>2021-02-24T13:13:23Z</time>
      </trkpt>
      <trkpt lat="39.898018" lon="116.634697">
        <time>2021-02-24T13:13:28Z</time>
      </trkpt>
      <trkpt lat="39.897952" lon="116.634517">
        <time>2021-02-24T13:13:33Z</time>
      </trkpt>
      <trkpt lat="39.897891" lon="116.634397">
        <time>2021-02-24T13:13:38Z</time>
      </trkpt>
      <trkpt lat="39.89783" lon="116.634337">
        <time>2021-02-24T13:13:43Z</time>
      </trkpt>
      <trkpt lat="39.897736" lon="116.63423">
        <time>2021-02-24T13:13:48Z</time>
      </trkpt>
      <trkpt lat="39.897699" lon="116.634123">
        <time>2021-02-24T13:13:53Z</time>
      </trkpt>
      <trkpt lat="39.897644" lon="116.63393">
        <time>2021-02-24T13:13:58Z</time>
      </trkpt>
      <trkpt lat="39.897612" lon="116.633774">
        <time>2021-02-24T13:14:03Z</time>
      </trkpt>
      <trkpt lat="39.897542" lon="116.633605">
        <time>2021-02-24T13:14:08Z</time>
      </trkpt>
      <trkpt lat="39.897433" lon="116.633587">
        <time>2021-02-24T13:14:13Z</time>
      </trkpt>
      <trkpt lat="39.897333" lon="116.63371">
        <time>2021-02-24T13:14:18Z</time>
      </trkpt>
      <trkpt lat="39.897314" lon="116.633892">
        <time>2021-02-24T13:14:23Z</time>
      </trkpt>
      <trkpt lat="39.897406" lon="116.634069">
        <time>2021-02-24T13:14:28Z</time>
      </trkpt>
      <trkpt lat="39.897416" lon="116.634222">
        <time>2021-02-24T13:14:33Z</time>
      </trkpt>
      <trkpt lat="39.897416" lon="116.634222">
        <time>2021-02-24T13:17:23Z</time>
      </trkpt>
    </trkseg>
  </trk>
</gpx>