<?xml version="1.0" encoding="UTF-8"?>
<gpx xmlns="http://www.topografix.com/GPX/1/1" xmlns:gpxtpx="http://www.garmin.com/xmlschemas/TrackPointExtension/v1" xmlns:xsi="http://www.w3.org/2001/XMLSchema-instance" xsi:schemaLocation="http://www.topografix.com/GPX/1/1 http://www.topografix.com/GPX/1/1/gpx.xsd" version="1.1" creator="gpx.py -- https://github.com/tkrajina/gpxpy">
  <trk>
    <name>gpx from keep</name>
    <trkseg>
      <trkpt lat="39.89764" lon="116.635319">
        <time>2021-02-26T12:06:50Z</time>
      </trkpt>
      <trkpt lat="39.89764" lon="116.635319">
        <time>2021-02-26T12:06:55Z</time>
      </trkpt>
      <trkpt lat="39.897564" lon="116.635386">
        <time>2021-02-26T12:07:00Z</time>
      </trkpt>
      <trkpt lat="39.897466" lon="116.63544">
        <time>2021-02-26T12:07:05Z</time>
      </trkpt>
      <trkpt lat="39.897374" lon="116.635504">
        <time>2021-02-26T12:07:10Z</time>
      </trkpt>
      <trkpt lat="39.89726" lon="116.635616">
        <time>2021-02-26T12:07:15Z</time>
      </trkpt>
      <trkpt lat="39.897168" lon="116.635704">
        <time>2021-02-26T12:07:20Z</time>
      </trkpt>
      <trkpt lat="39.897061" lon="116.635765">
        <time>2021-02-26T12:07:25Z</time>
      </trkpt>
      <trkpt lat="39.896934" lon="116.635814">
        <time>2021-02-26T12:07:30Z</time>
      </trkpt>
      <trkpt lat="39.896823" lon="116.635894">
        <time>2021-02-26T12:07:35Z</time>
      </trkpt>
      <trkpt lat="39.896732" lon="116.635959">
        <time>2021-02-26T12:07:40Z</time>
      </trkpt>
      <trkpt lat="39.896627" lon="116.636024">
        <time>2021-02-26T12:07:45Z</time>
      </trkpt>
      <trkpt lat="39.896491" lon="116.63611">
        <time>2021-02-26T12:07:50Z</time>
      </trkpt>
      <trkpt lat="39.896413" lon="116.636156">
        <time>2021-02-26T12:07:55Z</time>
      </trkpt>
      <trkpt lat="39.896379" lon="116.636158">
        <time>2021-02-26T12:08:00Z</time>
      </trkpt>
      <trkpt lat="39.896273" lon="116.636177">
        <time>2021-02-26T12:08:05Z</time>
      </trkpt>
      <trkpt lat="39.896197" lon="116.636291">
        <time>2021-02-26T12:08:10Z</time>
      </trkpt>
      <trkpt lat="39.89615" lon="116.636407">
        <time>2021-02-26T12:08:15Z</time>
      </trkpt>
      <trkpt lat="39.89613" lon="116.636446">
        <time>2021-02-26T12:08:20Z</time>
      </trkpt>
      <trkpt lat="39.896122" lon="116.636478">
        <time>2021-02-26T12:08:25Z</time>
      </trkpt>
      <trkpt lat="39.896106" lon="116.636509">
        <time>2021-02-26T12:08:30Z</time>
      </trkpt>
      <trkpt lat="39.896102" lon="116.636479">
        <time>2021-02-26T12:08:35Z</time>
      </trkpt>
      <trkpt lat="39.896124" lon="116.636487">
        <time>2021-02-26T12:08:40Z</time>
      </trkpt>
      <trkpt lat="39.896123" lon="116.636519">
        <time>2021-02-26T12:08:45Z</time>
      </trkpt>
      <trkpt lat="39.896103" lon="116.636561">
        <time>2021-02-26T12:08:50Z</time>
      </trkpt>
      <trkpt lat="39.896058" lon="116.636576">
        <time>2021-02-26T12:08:55Z</time>
      </trkpt>
      <trkpt lat="39.896064" lon="116.636589">
        <time>2021-02-26T12:09:00Z</time>
      </trkpt>
      <trkpt lat="39.896088" lon="116.636511">
        <time>2021-02-26T12:09:05Z</time>
      </trkpt>
      <trkpt lat="39.896089" lon="116.636525">
        <time>2021-02-26T12:09:10Z</time>
      </trkpt>
      <trkpt lat="39.896072" lon="116.636548">
        <time>2021-02-26T12:09:15Z</time>
      </trkpt>
      <trkpt lat="39.896072" lon="116.636525">
        <time>2021-02-26T12:09:20Z</time>
      </trkpt>
      <trkpt lat="39.896039" lon="116.636583">
        <time>2021-02-26T12:09:25Z</time>
      </trkpt>
      <trkpt lat="39.896043" lon="116.63656">
        <time>2021-02-26T12:09:30Z</time>
      </trkpt>
      <trkpt lat="39.896045" lon="116.636565">
        <time>2021-02-26T12:09:35Z</time>
      </trkpt>
      <trkpt lat="39.896032" lon="116.636552">
        <time>2021-02-26T12:09:40Z</time>
      </trkpt>
      <trkpt lat="39.896032" lon="116.636552">
        <time>2021-02-26T12:09:45Z</time>
      </trkpt>
      <trkpt lat="39.896011" lon="116.636591">
        <time>2021-02-26T12:09:50Z</time>
      </trkpt>
      <trkpt lat="39.896011" lon="116.636709">
        <time>2021-02-26T12:09:55Z</time>
      </trkpt>
      <trkpt lat="39.89606" lon="116.636794">
        <time>2021-02-26T12:10:00Z</time>
      </trkpt>
      <trkpt lat="39.896121" lon="116.636924">
        <time>2021-02-26T12:10:05Z</time>
      </trkpt>
      <trkpt lat="39.896158" lon="116.637068">
        <time>2021-02-26T12:10:10Z</time>
      </trkpt>
      <trkpt lat="39.896139" lon="116.637187">
        <time>2021-02-26T12:10:15Z</time>
      </trkpt>
      <trkpt lat="39.896137" lon="116.637313">
        <time>2021-02-26T12:10:20Z</time>
      </trkpt>
      <trkpt lat="39.896168" lon="116.63747">
        <time>2021-02-26T12:10:25Z</time>
      </trkpt>
      <trkpt lat="39.896186" lon="116.637597">
        <time>2021-02-26T12:10:30Z</time>
      </trkpt>
      <trkpt lat="39.896198" lon="116.637749">
        <time>2021-02-26T12:10:35Z</time>
      </trkpt>
      <trkpt lat="39.896206" lon="116.63789">
        <time>2021-02-26T12:10:40Z</time>
      </trkpt>
      <trkpt lat="39.896185" lon="116.638036">
        <time>2021-02-26T12:10:45Z</time>
      </trkpt>
      <trkpt lat="39.896158" lon="116.638196">
        <time>2021-02-26T12:10:50Z</time>
      </trkpt>
      <trkpt lat="39.896188" lon="116.638371">
        <time>2021-02-26T12:10:55Z</time>
      </trkpt>
      <trkpt lat="39.896213" lon="116.63852">
        <time>2021-02-26T12:11:00Z</time>
      </trkpt>
      <trkpt lat="39.896223" lon="116.638661">
        <time>2021-02-26T12:11:05Z</time>
      </trkpt>
      <trkpt lat="39.896228" lon="116.638817">
        <time>2021-02-26T12:11:10Z</time>
      </trkpt>
      <trkpt lat="39.896257" lon="116.638959">
        <time>2021-02-26T12:11:15Z</time>
      </trkpt>
      <trkpt lat="39.896268" lon="116.639087">
        <time>2021-02-26T12:11:20Z</time>
      </trkpt>
      <trkpt lat="39.896299" lon="116.639218">
        <time>2021-02-26T12:11:25Z</time>
      </trkpt>
      <trkpt lat="39.896304" lon="116.639351">
        <time>2021-02-26T12:11:30Z</time>
      </trkpt>
      <trkpt lat="39.89629" lon="116.639507">
        <time>2021-02-26T12:11:35Z</time>
      </trkpt>
      <trkpt lat="39.896288" lon="116.639634">
        <time>2021-02-26T12:11:40Z</time>
      </trkpt>
      <trkpt lat="39.89628" lon="116.639772">
        <time>2021-02-26T12:11:45Z</time>
      </trkpt>
      <trkpt lat="39.896274" lon="116.639914">
        <time>2021-02-26T12:11:50Z</time>
      </trkpt>
      <trkpt lat="39.896296" lon="116.640062">
        <time>2021-02-26T12:11:55Z</time>
      </trkpt>
      <trkpt lat="39.896279" lon="116.640216">
        <time>2021-02-26T12:12:00Z</time>
      </trkpt>
      <trkpt lat="39.896291" lon="116.640388">
        <time>2021-02-26T12:12:05Z</time>
      </trkpt>
      <trkpt lat="39.896286" lon="116.640547">
        <time>2021-02-26T12:12:10Z</time>
      </trkpt>
      <trkpt lat="39.896269" lon="116.640675">
        <time>2021-02-26T12:12:15Z</time>
      </trkpt>
      <trkpt lat="39.896277" lon="116.640855">
        <time>2021-02-26T12:12:20Z</time>
      </trkpt>
      <trkpt lat="39.896275" lon="116.640993">
        <time>2021-02-26T12:12:25Z</time>
      </trkpt>
      <trkpt lat="39.896254" lon="116.641149">
        <time>2021-02-26T12:12:30Z</time>
      </trkpt>
      <trkpt lat="39.896257" lon="116.641294">
        <time>2021-02-26T12:12:35Z</time>
      </trkpt>
      <trkpt lat="39.896236" lon="116.641432">
        <time>2021-02-26T12:12:40Z</time>
      </trkpt>
      <trkpt lat="39.896224" lon="116.641584">
        <time>2021-02-26T12:12:45Z</time>
      </trkpt>
      <trkpt lat="39.896208" lon="116.641718">
        <time>2021-02-26T12:12:50Z</time>
      </trkpt>
      <trkpt lat="39.896227" lon="116.641844">
        <time>2021-02-26T12:12:55Z</time>
      </trkpt>
      <trkpt lat="39.896214" lon="116.642111">
        <time>2021-02-26T12:13:00Z</time>
      </trkpt>
      <trkpt lat="39.896219" lon="116.642144">
        <time>2021-02-26T12:13:05Z</time>
      </trkpt>
      <trkpt lat="39.896255" lon="116.642285">
        <time>2021-02-26T12:13:10Z</time>
      </trkpt>
      <trkpt lat="39.896256" lon="116.642419">
        <time>2021-02-26T12:13:15Z</time>
      </trkpt>
      <trkpt lat="39.896252" lon="116.642574">
        <time>2021-02-26T12:13:20Z</time>
      </trkpt>
      <trkpt lat="39.896242" lon="116.642682">
        <time>2021-02-26T12:13:25Z</time>
      </trkpt>
      <trkpt lat="39.896242" lon="116.642827">
        <time>2021-02-26T12:13:30Z</time>
      </trkpt>
      <trkpt lat="39.896235" lon="116.642942">
        <time>2021-02-26T12:13:35Z</time>
      </trkpt>
      <trkpt lat="39.896226" lon="116.64306">
        <time>2021-02-26T12:13:40Z</time>
      </trkpt>
      <trkpt lat="39.896235" lon="116.643218">
        <time>2021-02-26T12:13:45Z</time>
      </trkpt>
      <trkpt lat="39.896215" lon="116.643373">
        <time>2021-02-26T12:13:50Z</time>
      </trkpt>
      <trkpt lat="39.896204" lon="116.643547">
        <time>2021-02-26T12:13:55Z</time>
      </trkpt>
      <trkpt lat="39.896228" lon="116.643715">
        <time>2021-02-26T12:14:00Z</time>
      </trkpt>
      <trkpt lat="39.89624" lon="116.643849">
        <time>2021-02-26T12:14:05Z</time>
      </trkpt>
      <trkpt lat="39.896245" lon="116.643994">
        <time>2021-02-26T12:14:10Z</time>
      </trkpt>
      <trkpt lat="39.896263" lon="116.644147">
        <time>2021-02-26T12:14:15Z</time>
      </trkpt>
      <trkpt lat="39.896265" lon="116.644289">
        <time>2021-02-26T12:14:20Z</time>
      </trkpt>
      <trkpt lat="39.896268" lon="116.644428">
        <time>2021-02-26T12:14:25Z</time>
      </trkpt>
      <trkpt lat="39.896273" lon="116.644581">
        <time>2021-02-26T12:14:30Z</time>
      </trkpt>
      <trkpt lat="39.896276" lon="116.644724">
        <time>2021-02-26T12:14:35Z</time>
      </trkpt>
      <trkpt lat="39.896269" lon="116.644856">
        <time>2021-02-26T12:14:40Z</time>
      </trkpt>
      <trkpt lat="39.896259" lon="116.645005">
        <time>2021-02-26T12:14:45Z</time>
      </trkpt>
      <trkpt lat="39.896242" lon="116.645139">
        <time>2021-02-26T12:14:50Z</time>
      </trkpt>
      <trkpt lat="39.896211" lon="116.645306">
        <time>2021-02-26T12:14:55Z</time>
      </trkpt>
      <trkpt lat="39.896195" lon="116.645464">
        <time>2021-02-26T12:15:00Z</time>
      </trkpt>
      <trkpt lat="39.896175" lon="116.645625">
        <time>2021-02-26T12:15:05Z</time>
      </trkpt>
      <trkpt lat="39.896136" lon="116.645781">
        <time>2021-02-26T12:15:10Z</time>
      </trkpt>
      <trkpt lat="39.896112" lon="116.645941">
        <time>2021-02-26T12:15:15Z</time>
      </trkpt>
      <trkpt lat="39.896099" lon="116.64609">
        <time>2021-02-26T12:15:20Z</time>
      </trkpt>
      <trkpt lat="39.89608" lon="116.646245">
        <time>2021-02-26T12:15:25Z</time>
      </trkpt>
      <trkpt lat="39.896072" lon="116.646376">
        <time>2021-02-26T12:15:30Z</time>
      </trkpt>
      <trkpt lat="39.896063" lon="116.646487">
        <time>2021-02-26T12:15:35Z</time>
      </trkpt>
      <trkpt lat="39.896047" lon="116.646648">
        <time>2021-02-26T12:15:40Z</time>
      </trkpt>
      <trkpt lat="39.895951" lon="116.646764">
        <time>2021-02-26T12:15:45Z</time>
      </trkpt>
      <trkpt lat="39.895811" lon="116.646779">
        <time>2021-02-26T12:15:50Z</time>
      </trkpt>
      <trkpt lat="39.8957" lon="116.646709">
        <time>2021-02-26T12:15:55Z</time>
      </trkpt>
      <trkpt lat="39.895593" lon="116.646671">
        <time>2021-02-26T12:16:00Z</time>
      </trkpt>
      <trkpt lat="39.895482" lon="116.646614">
        <time>2021-02-26T12:16:05Z</time>
      </trkpt>
      <trkpt lat="39.895393" lon="116.64657">
        <time>2021-02-26T12:16:10Z</time>
      </trkpt>
      <trkpt lat="39.895268" lon="116.646582">
        <time>2021-02-26T12:16:15Z</time>
      </trkpt>
      <trkpt lat="39.895171" lon="116.646503">
        <time>2021-02-26T12:16:20Z</time>
      </trkpt>
      <trkpt lat="39.895073" lon="116.646495">
        <time>2021-02-26T12:16:25Z</time>
      </trkpt>
      <trkpt lat="39.894886" lon="116.646377">
        <time>2021-02-26T12:16:30Z</time>
      </trkpt>
      <trkpt lat="39.894873" lon="116.646377">
        <time>2021-02-26T12:16:35Z</time>
      </trkpt>
      <trkpt lat="39.894785" lon="116.646326">
        <time>2021-02-26T12:16:40Z</time>
      </trkpt>
      <trkpt lat="39.894667" lon="116.646279">
        <time>2021-02-26T12:16:45Z</time>
      </trkpt>
      <trkpt lat="39.894537" lon="116.646241">
        <time>2021-02-26T12:16:50Z</time>
      </trkpt>
      <trkpt lat="39.894425" lon="116.646203">
        <time>2021-02-26T12:16:55Z</time>
      </trkpt>
      <trkpt lat="39.894317" lon="116.646141">
        <time>2021-02-26T12:17:00Z</time>
      </trkpt>
      <trkpt lat="39.894219" lon="116.646064">
        <time>2021-02-26T12:17:05Z</time>
      </trkpt>
      <trkpt lat="39.894073" lon="116.646049">
        <time>2021-02-26T12:17:10Z</time>
      </trkpt>
      <trkpt lat="39.893988" lon="116.646048">
        <time>2021-02-26T12:17:15Z</time>
      </trkpt>
      <trkpt lat="39.893892" lon="116.645974">
        <time>2021-02-26T12:17:20Z</time>
      </trkpt>
      <trkpt lat="39.893853" lon="116.64602">
        <time>2021-02-26T12:17:25Z</time>
      </trkpt>
      <trkpt lat="39.893786" lon="116.646136">
        <time>2021-02-26T12:17:30Z</time>
      </trkpt>
      <trkpt lat="39.893779" lon="116.646195">
        <time>2021-02-26T12:17:35Z</time>
      </trkpt>
      <trkpt lat="39.893737" lon="116.646215">
        <time>2021-02-26T12:17:40Z</time>
      </trkpt>
      <trkpt lat="39.89357" lon="116.646249">
        <time>2021-02-26T12:17:45Z</time>
      </trkpt>
      <trkpt lat="39.893432" lon="116.646228">
        <time>2021-02-26T12:17:50Z</time>
      </trkpt>
      <trkpt lat="39.893317" lon="116.646206">
        <time>2021-02-26T12:17:55Z</time>
      </trkpt>
      <trkpt lat="39.893217" lon="116.646142">
        <time>2021-02-26T12:18:00Z</time>
      </trkpt>
      <trkpt lat="39.893097" lon="116.646077">
        <time>2021-02-26T12:18:05Z</time>
      </trkpt>
      <trkpt lat="39.892971" lon="116.646">
        <time>2021-02-26T12:18:10Z</time>
      </trkpt>
      <trkpt lat="39.892848" lon="116.645949">
        <time>2021-02-26T12:18:15Z</time>
      </trkpt>
      <trkpt lat="39.892728" lon="116.645899">
        <time>2021-02-26T12:18:20Z</time>
      </trkpt>
      <trkpt lat="39.892613" lon="116.645861">
        <time>2021-02-26T12:18:25Z</time>
      </trkpt>
      <trkpt lat="39.892496" lon="116.645815">
        <time>2021-02-26T12:18:30Z</time>
      </trkpt>
      <trkpt lat="39.892372" lon="116.645766">
        <time>2021-02-26T12:18:35Z</time>
      </trkpt>
      <trkpt lat="39.892249" lon="116.645695">
        <time>2021-02-26T12:18:40Z</time>
      </trkpt>
      <trkpt lat="39.892169" lon="116.645649">
        <time>2021-02-26T12:18:45Z</time>
      </trkpt>
      <trkpt lat="39.892088" lon="116.645609">
        <time>2021-02-26T12:18:50Z</time>
      </trkpt>
      <trkpt lat="39.891991" lon="116.645599">
        <time>2021-02-26T12:18:55Z</time>
      </trkpt>
      <trkpt lat="39.891885" lon="116.645542">
        <time>2021-02-26T12:19:00Z</time>
      </trkpt>
      <trkpt lat="39.891789" lon="116.645492">
        <time>2021-02-26T12:19:05Z</time>
      </trkpt>
      <trkpt lat="39.891672" lon="116.645419">
        <time>2021-02-26T12:19:10Z</time>
      </trkpt>
      <trkpt lat="39.89159" lon="116.645325">
        <time>2021-02-26T12:19:15Z</time>
      </trkpt>
      <trkpt lat="39.891576" lon="116.645353">
        <time>2021-02-26T12:19:20Z</time>
      </trkpt>
      <trkpt lat="39.891653" lon="116.645402">
        <time>2021-02-26T12:19:25Z</time>
      </trkpt>
      <trkpt lat="39.891747" lon="116.645454">
        <time>2021-02-26T12:19:30Z</time>
      </trkpt>
      <trkpt lat="39.891836" lon="116.645523">
        <time>2021-02-26T12:19:35Z</time>
      </trkpt>
      <trkpt lat="39.891956" lon="116.645567">
        <time>2021-02-26T12:19:40Z</time>
      </trkpt>
      <trkpt lat="39.892075" lon="116.645615">
        <time>2021-02-26T12:19:45Z</time>
      </trkpt>
      <trkpt lat="39.892194" lon="116.645681">
        <time>2021-02-26T12:19:50Z</time>
      </trkpt>
      <trkpt lat="39.892336" lon="116.645733">
        <time>2021-02-26T12:19:55Z</time>
      </trkpt>
      <trkpt lat="39.892462" lon="116.645784">
        <time>2021-02-26T12:20:00Z</time>
      </trkpt>
      <trkpt lat="39.892575" lon="116.645807">
        <time>2021-02-26T12:20:05Z</time>
      </trkpt>
      <trkpt lat="39.892716" lon="116.645875">
        <time>2021-02-26T12:20:10Z</time>
      </trkpt>
      <trkpt lat="39.892832" lon="116.645916">
        <time>2021-02-26T12:20:15Z</time>
      </trkpt>
      <trkpt lat="39.892978" lon="116.645945">
        <time>2021-02-26T12:20:20Z</time>
      </trkpt>
      <trkpt lat="39.893079" lon="116.645993">
        <time>2021-02-26T12:20:25Z</time>
      </trkpt>
      <trkpt lat="39.89316" lon="116.646056">
        <time>2021-02-26T12:20:30Z</time>
      </trkpt>
      <trkpt lat="39.893239" lon="116.646126">
        <time>2021-02-26T12:20:35Z</time>
      </trkpt>
      <trkpt lat="39.893375" lon="116.646163">
        <time>2021-02-26T12:20:40Z</time>
      </trkpt>
      <trkpt lat="39.893514" lon="116.646263">
        <time>2021-02-26T12:20:45Z</time>
      </trkpt>
      <trkpt lat="39.893612" lon="116.64631">
        <time>2021-02-26T12:20:50Z</time>
      </trkpt>
      <trkpt lat="39.893751" lon="116.646279">
        <time>2021-02-26T12:20:55Z</time>
      </trkpt>
      <trkpt lat="39.893848" lon="116.64615">
        <time>2021-02-26T12:21:00Z</time>
      </trkpt>
      <trkpt lat="39.893929" lon="116.646032">
        <time>2021-02-26T12:21:05Z</time>
      </trkpt>
      <trkpt lat="39.894003" lon="116.645951">
        <time>2021-02-26T12:21:10Z</time>
      </trkpt>
      <trkpt lat="39.894086" lon="116.645887">
        <time>2021-02-26T12:21:15Z</time>
      </trkpt>
      <trkpt lat="39.894139" lon="116.645939">
        <time>2021-02-26T12:21:20Z</time>
      </trkpt>
      <trkpt lat="39.894282" lon="116.646036">
        <time>2021-02-26T12:21:25Z</time>
      </trkpt>
      <trkpt lat="39.894362" lon="116.646069">
        <time>2021-02-26T12:21:30Z</time>
      </trkpt>
      <trkpt lat="39.894464" lon="116.646122">
        <time>2021-02-26T12:21:35Z</time>
      </trkpt>
      <trkpt lat="39.894681" lon="116.646197">
        <time>2021-02-26T12:21:40Z</time>
      </trkpt>
      <trkpt lat="39.894711" lon="116.646209">
        <time>2021-02-26T12:21:45Z</time>
      </trkpt>
      <trkpt lat="39.894847" lon="116.646277">
        <time>2021-02-26T12:21:50Z</time>
      </trkpt>
      <trkpt lat="39.894947" lon="116.646331">
        <time>2021-02-26T12:21:55Z</time>
      </trkpt>
      <trkpt lat="39.895078" lon="116.646376">
        <time>2021-02-26T12:22:00Z</time>
      </trkpt>
      <trkpt lat="39.895159" lon="116.646407">
        <time>2021-02-26T12:22:05Z</time>
      </trkpt>
      <trkpt lat="39.895282" lon="116.646463">
        <time>2021-02-26T12:22:10Z</time>
      </trkpt>
      <trkpt lat="39.895457" lon="116.646529">
        <time>2021-02-26T12:22:15Z</time>
      </trkpt>
      <trkpt lat="39.895544" lon="116.646578">
        <time>2021-02-26T12:22:20Z</time>
      </trkpt>
      <trkpt lat="39.89562" lon="116.646648">
        <time>2021-02-26T12:22:25Z</time>
      </trkpt>
      <trkpt lat="39.895718" lon="116.646711">
        <time>2021-02-26T12:22:30Z</time>
      </trkpt>
      <trkpt lat="39.895814" lon="116.646758">
        <time>2021-02-26T12:22:35Z</time>
      </trkpt>
      <trkpt lat="39.895965" lon="116.646801">
        <time>2021-02-26T12:22:40Z</time>
      </trkpt>
      <trkpt lat="39.896049" lon="116.646787">
        <time>2021-02-26T12:22:45Z</time>
      </trkpt>
      <trkpt lat="39.896063" lon="116.646607">
        <time>2021-02-26T12:22:50Z</time>
      </trkpt>
      <trkpt lat="39.896061" lon="116.646429">
        <time>2021-02-26T12:22:55Z</time>
      </trkpt>
      <trkpt lat="39.896057" lon="116.646265">
        <time>2021-02-26T12:23:00Z</time>
      </trkpt>
      <trkpt lat="39.896077" lon="116.646122">
        <time>2021-02-26T12:23:05Z</time>
      </trkpt>
      <trkpt lat="39.896091" lon="116.645966">
        <time>2021-02-26T12:23:10Z</time>
      </trkpt>
      <trkpt lat="39.896116" lon="116.645837">
        <time>2021-02-26T12:23:15Z</time>
      </trkpt>
      <trkpt lat="39.896121" lon="116.645648">
        <time>2021-02-26T12:23:20Z</time>
      </trkpt>
      <trkpt lat="39.89613" lon="116.645484">
        <time>2021-02-26T12:23:25Z</time>
      </trkpt>
      <trkpt lat="39.896145" lon="116.645342">
        <time>2021-02-26T12:23:30Z</time>
      </trkpt>
      <trkpt lat="39.896156" lon="116.64518">
        <time>2021-02-26T12:23:35Z</time>
      </trkpt>
      <trkpt lat="39.896173" lon="116.645052">
        <time>2021-02-26T12:23:40Z</time>
      </trkpt>
      <trkpt lat="39.896194" lon="116.644922">
        <time>2021-02-26T12:23:45Z</time>
      </trkpt>
      <trkpt lat="39.896206" lon="116.644783">
        <time>2021-02-26T12:23:50Z</time>
      </trkpt>
      <trkpt lat="39.896212" lon="116.644659">
        <time>2021-02-26T12:23:55Z</time>
      </trkpt>
      <trkpt lat="39.896192" lon="116.644506">
        <time>2021-02-26T12:24:00Z</time>
      </trkpt>
      <trkpt lat="39.896213" lon="116.644377">
        <time>2021-02-26T12:24:05Z</time>
      </trkpt>
      <trkpt lat="39.896218" lon="116.644219">
        <time>2021-02-26T12:24:10Z</time>
      </trkpt>
      <trkpt lat="39.896213" lon="116.644034">
        <time>2021-02-26T12:24:15Z</time>
      </trkpt>
      <trkpt lat="39.896194" lon="116.643867">
        <time>2021-02-26T12:24:20Z</time>
      </trkpt>
      <trkpt lat="39.896205" lon="116.643729">
        <time>2021-02-26T12:24:25Z</time>
      </trkpt>
      <trkpt lat="39.896208" lon="116.643616">
        <time>2021-02-26T12:24:30Z</time>
      </trkpt>
      <trkpt lat="39.896214" lon="116.643498">
        <time>2021-02-26T12:24:35Z</time>
      </trkpt>
      <trkpt lat="39.896207" lon="116.643342">
        <time>2021-02-26T12:24:40Z</time>
      </trkpt>
      <trkpt lat="39.896192" lon="116.643187">
        <time>2021-02-26T12:24:45Z</time>
      </trkpt>
      <trkpt lat="39.896187" lon="116.643023">
        <time>2021-02-26T12:24:50Z</time>
      </trkpt>
      <trkpt lat="39.896191" lon="116.642842">
        <time>2021-02-26T12:24:55Z</time>
      </trkpt>
      <trkpt lat="39.896183" lon="116.642603">
        <time>2021-02-26T12:25:00Z</time>
      </trkpt>
      <trkpt lat="39.896197" lon="116.642548">
        <time>2021-02-26T12:25:05Z</time>
      </trkpt>
      <trkpt lat="39.896223" lon="116.642418">
        <time>2021-02-26T12:25:10Z</time>
      </trkpt>
      <trkpt lat="39.896226" lon="116.642283">
        <time>2021-02-26T12:25:15Z</time>
      </trkpt>
      <trkpt lat="39.896233" lon="116.642126">
        <time>2021-02-26T12:25:20Z</time>
      </trkpt>
      <trkpt lat="39.896223" lon="116.641973">
        <time>2021-02-26T12:25:25Z</time>
      </trkpt>
      <trkpt lat="39.896219" lon="116.641818">
        <time>2021-02-26T12:25:30Z</time>
      </trkpt>
      <trkpt lat="39.896219" lon="116.641617">
        <time>2021-02-26T12:25:35Z</time>
      </trkpt>
      <trkpt lat="39.896227" lon="116.641499">
        <time>2021-02-26T12:25:40Z</time>
      </trkpt>
      <trkpt lat="39.896241" lon="116.641367">
        <time>2021-02-26T12:25:45Z</time>
      </trkpt>
      <trkpt lat="39.896228" lon="116.641208">
        <time>2021-02-26T12:25:50Z</time>
      </trkpt>
      <trkpt lat="39.896219" lon="116.641093">
        <time>2021-02-26T12:25:55Z</time>
      </trkpt>
      <trkpt lat="39.89624" lon="116.640965">
        <time>2021-02-26T12:26:00Z</time>
      </trkpt>
      <trkpt lat="39.896258" lon="116.640827">
        <time>2021-02-26T12:26:05Z</time>
      </trkpt>
      <trkpt lat="39.89628" lon="116.640694">
        <time>2021-02-26T12:26:10Z</time>
      </trkpt>
      <trkpt lat="39.896273" lon="116.640544">
        <time>2021-02-26T12:26:15Z</time>
      </trkpt>
      <trkpt lat="39.896273" lon="116.640439">
        <time>2021-02-26T12:26:20Z</time>
      </trkpt>
      <trkpt lat="39.896259" lon="116.640307">
        <time>2021-02-26T12:26:25Z</time>
      </trkpt>
      <trkpt lat="39.896256" lon="116.64011">
        <time>2021-02-26T12:26:30Z</time>
      </trkpt>
      <trkpt lat="39.896242" lon="116.639914">
        <time>2021-02-26T12:26:35Z</time>
      </trkpt>
      <trkpt lat="39.896234" lon="116.63975">
        <time>2021-02-26T12:26:40Z</time>
      </trkpt>
      <trkpt lat="39.896241" lon="116.639602">
        <time>2021-02-26T12:26:45Z</time>
      </trkpt>
      <trkpt lat="39.896236" lon="116.639435">
        <time>2021-02-26T12:26:50Z</time>
      </trkpt>
      <trkpt lat="39.896214" lon="116.639261">
        <time>2021-02-26T12:26:55Z</time>
      </trkpt>
      <trkpt lat="39.896176" lon="116.639109">
        <time>2021-02-26T12:27:00Z</time>
      </trkpt>
      <trkpt lat="39.896161" lon="116.638933">
        <time>2021-02-26T12:27:05Z</time>
      </trkpt>
      <trkpt lat="39.896156" lon="116.638801">
        <time>2021-02-26T12:27:10Z</time>
      </trkpt>
      <trkpt lat="39.89618" lon="116.638682">
        <time>2021-02-26T12:27:15Z</time>
      </trkpt>
      <trkpt lat="39.89618" lon="116.638553">
        <time>2021-02-26T12:27:20Z</time>
      </trkpt>
      <trkpt lat="39.896175" lon="116.638405">
        <time>2021-02-26T12:27:25Z</time>
      </trkpt>
      <trkpt lat="39.896157" lon="116.638237">
        <time>2021-02-26T12:27:30Z</time>
      </trkpt>
      <trkpt lat="39.896146" lon="116.638067">
        <time>2021-02-26T12:27:35Z</time>
      </trkpt>
      <trkpt lat="39.896144" lon="116.637897">
        <time>2021-02-26T12:27:40Z</time>
      </trkpt>
      <trkpt lat="39.896153" lon="116.637791">
        <time>2021-02-26T12:27:45Z</time>
      </trkpt>
      <trkpt lat="39.896129" lon="116.637637">
        <time>2021-02-26T12:27:50Z</time>
      </trkpt>
      <trkpt lat="39.896113" lon="116.637479">
        <time>2021-02-26T12:27:55Z</time>
      </trkpt>
      <trkpt lat="39.896107" lon="116.637347">
        <time>2021-02-26T12:28:00Z</time>
      </trkpt>
      <trkpt lat="39.896128" lon="116.637198">
        <time>2021-02-26T12:28:05Z</time>
      </trkpt>
      <trkpt lat="39.896176" lon="116.637121">
        <time>2021-02-26T12:28:10Z</time>
      </trkpt>
      <trkpt lat="39.896126" lon="116.636953">
        <time>2021-02-26T12:28:15Z</time>
      </trkpt>
      <trkpt lat="39.896082" lon="116.636843">
        <time>2021-02-26T12:28:20Z</time>
      </trkpt>
      <trkpt lat="39.896022" lon="116.636735">
        <time>2021-02-26T12:28:25Z</time>
      </trkpt>
      <trkpt lat="39.89598" lon="116.636827">
        <time>2021-02-26T12:28:30Z</time>
      </trkpt>
      <trkpt lat="39.896016" lon="116.636971">
        <time>2021-02-26T12:28:35Z</time>
      </trkpt>
      <trkpt lat="39.896041" lon="116.637125">
        <time>2021-02-26T12:28:40Z</time>
      </trkpt>
      <trkpt lat="39.896091" lon="116.637272">
        <time>2021-02-26T12:28:45Z</time>
      </trkpt>
      <trkpt lat="39.896128" lon="116.637453">
        <time>2021-02-26T12:28:50Z</time>
      </trkpt>
      <trkpt lat="39.896161" lon="116.637625">
        <time>2021-02-26T12:28:55Z</time>
      </trkpt>
      <trkpt lat="39.896167" lon="116.637795">
        <time>2021-02-26T12:29:00Z</time>
      </trkpt>
      <trkpt lat="39.89616" lon="116.637946">
        <time>2021-02-26T12:29:05Z</time>
      </trkpt>
      <trkpt lat="39.896135" lon="116.638106">
        <time>2021-02-26T12:29:10Z</time>
      </trkpt>
      <trkpt lat="39.89617" lon="116.638277">
        <time>2021-02-26T12:29:15Z</time>
      </trkpt>
      <trkpt lat="39.896195" lon="116.638444">
        <time>2021-02-26T12:29:20Z</time>
      </trkpt>
      <trkpt lat="39.896211" lon="116.638605">
        <time>2021-02-26T12:29:25Z</time>
      </trkpt>
      <trkpt lat="39.896212" lon="116.638762">
        <time>2021-02-26T12:29:30Z</time>
      </trkpt>
      <trkpt lat="39.896184" lon="116.638918">
        <time>2021-02-26T12:29:35Z</time>
      </trkpt>
      <trkpt lat="39.896213" lon="116.639069">
        <time>2021-02-26T12:29:40Z</time>
      </trkpt>
      <trkpt lat="39.896259" lon="116.639239">
        <time>2021-02-26T12:29:45Z</time>
      </trkpt>
      <trkpt lat="39.896303" lon="116.639385">
        <time>2021-02-26T12:29:50Z</time>
      </trkpt>
      <trkpt lat="39.896289" lon="116.639533">
        <time>2021-02-26T12:29:55Z</time>
      </trkpt>
      <trkpt lat="39.896278" lon="116.639665">
        <time>2021-02-26T12:30:00Z</time>
      </trkpt>
      <trkpt lat="39.896269" lon="116.63981">
        <time>2021-02-26T12:30:05Z</time>
      </trkpt>
      <trkpt lat="39.896285" lon="116.639943">
        <time>2021-02-26T12:30:10Z</time>
      </trkpt>
      <trkpt lat="39.896324" lon="116.640097">
        <time>2021-02-26T12:30:15Z</time>
      </trkpt>
      <trkpt lat="39.896323" lon="116.640269">
        <time>2021-02-26T12:30:20Z</time>
      </trkpt>
      <trkpt lat="39.896327" lon="116.64044">
        <time>2021-02-26T12:30:25Z</time>
      </trkpt>
      <trkpt lat="39.89629" lon="116.640638">
        <time>2021-02-26T12:30:30Z</time>
      </trkpt>
      <trkpt lat="39.896292" lon="116.640855">
        <time>2021-02-26T12:30:35Z</time>
      </trkpt>
      <trkpt lat="39.896297" lon="116.64102">
        <time>2021-02-26T12:30:40Z</time>
      </trkpt>
      <trkpt lat="39.896277" lon="116.641167">
        <time>2021-02-26T12:30:45Z</time>
      </trkpt>
      <trkpt lat="39.896286" lon="116.641332">
        <time>2021-02-26T12:30:50Z</time>
      </trkpt>
      <trkpt lat="39.896261" lon="116.641513">
        <time>2021-02-26T12:30:55Z</time>
      </trkpt>
      <trkpt lat="39.896234" lon="116.64169">
        <time>2021-02-26T12:31:00Z</time>
      </trkpt>
      <trkpt lat="39.896222" lon="116.641868">
        <time>2021-02-26T12:31:05Z</time>
      </trkpt>
      <trkpt lat="39.896233" lon="116.642058">
        <time>2021-02-26T12:31:10Z</time>
      </trkpt>
      <trkpt lat="39.896248" lon="116.642186">
        <time>2021-02-26T12:31:15Z</time>
      </trkpt>
      <trkpt lat="39.89624" lon="116.642361">
        <time>2021-02-26T12:31:20Z</time>
      </trkpt>
      <trkpt lat="39.896231" lon="116.642551">
        <time>2021-02-26T12:31:25Z</time>
      </trkpt>
      <trkpt lat="39.89623" lon="116.642733">
        <time>2021-02-26T12:31:30Z</time>
      </trkpt>
      <trkpt lat="39.896233" lon="116.642876">
        <time>2021-02-26T12:31:35Z</time>
      </trkpt>
      <trkpt lat="39.896207" lon="116.64304">
        <time>2021-02-26T12:31:40Z</time>
      </trkpt>
      <trkpt lat="39.896191" lon="116.643196">
        <time>2021-02-26T12:31:45Z</time>
      </trkpt>
      <trkpt lat="39.896193" lon="116.643375">
        <time>2021-02-26T12:31:50Z</time>
      </trkpt>
      <trkpt lat="39.896179" lon="116.643523">
        <time>2021-02-26T12:31:55Z</time>
      </trkpt>
      <trkpt lat="39.896204" lon="116.643664">
        <time>2021-02-26T12:32:00Z</time>
      </trkpt>
      <trkpt lat="39.896232" lon="116.643812">
        <time>2021-02-26T12:32:05Z</time>
      </trkpt>
      <trkpt lat="39.896242" lon="116.64395">
        <time>2021-02-26T12:32:10Z</time>
      </trkpt>
      <trkpt lat="39.896225" lon="116.64409">
        <time>2021-02-26T12:32:15Z</time>
      </trkpt>
      <trkpt lat="39.896252" lon="116.644214">
        <time>2021-02-26T12:32:20Z</time>
      </trkpt>
      <trkpt lat="39.896264" lon="116.644372">
        <time>2021-02-26T12:32:25Z</time>
      </trkpt>
      <trkpt lat="39.896294" lon="116.644505">
        <time>2021-02-26T12:32:30Z</time>
      </trkpt>
      <trkpt lat="39.896312" lon="116.644653">
        <time>2021-02-26T12:32:35Z</time>
      </trkpt>
      <trkpt lat="39.896282" lon="116.644802">
        <time>2021-02-26T12:32:40Z</time>
      </trkpt>
      <trkpt lat="39.896269" lon="116.644968">
        <time>2021-02-26T12:32:45Z</time>
      </trkpt>
      <trkpt lat="39.896278" lon="116.645109">
        <time>2021-02-26T12:32:50Z</time>
      </trkpt>
      <trkpt lat="39.89628" lon="116.645255">
        <time>2021-02-26T12:32:55Z</time>
      </trkpt>
      <trkpt lat="39.896262" lon="116.645415">
        <time>2021-02-26T12:33:00Z</time>
      </trkpt>
      <trkpt lat="39.896237" lon="116.64558">
        <time>2021-02-26T12:33:05Z</time>
      </trkpt>
      <trkpt lat="39.896183" lon="116.645757">
        <time>2021-02-26T12:33:10Z</time>
      </trkpt>
      <trkpt lat="39.896144" lon="116.64595">
        <time>2021-02-26T12:33:15Z</time>
      </trkpt>
      <trkpt lat="39.896111" lon="116.646113">
        <time>2021-02-26T12:33:20Z</time>
      </trkpt>
      <trkpt lat="39.896074" lon="116.646279">
        <time>2021-02-26T12:33:25Z</time>
      </trkpt>
      <trkpt lat="39.896077" lon="116.64647">
        <time>2021-02-26T12:33:30Z</time>
      </trkpt>
      <trkpt lat="39.896069" lon="116.646649">
        <time>2021-02-26T12:33:35Z</time>
      </trkpt>
      <trkpt lat="39.896036" lon="116.646854">
        <time>2021-02-26T12:33:40Z</time>
      </trkpt>
      <trkpt lat="39.895902" lon="116.646866">
        <time>2021-02-26T12:33:45Z</time>
      </trkpt>
      <trkpt lat="39.895745" lon="116.646818">
        <time>2021-02-26T12:33:50Z</time>
      </trkpt>
      <trkpt lat="39.895622" lon="116.646755">
        <time>2021-02-26T12:33:55Z</time>
      </trkpt>
      <trkpt lat="39.895535" lon="116.646663">
        <time>2021-02-26T12:34:00Z</time>
      </trkpt>
      <trkpt lat="39.895427" lon="116.646595">
        <time>2021-02-26T12:34:05Z</time>
      </trkpt>
      <trkpt lat="39.895297" lon="116.646568">
        <time>2021-02-26T12:34:10Z</time>
      </trkpt>
      <trkpt lat="39.895225" lon="116.646534">
        <time>2021-02-26T12:34:15Z</time>
      </trkpt>
      <trkpt lat="39.895115" lon="116.646526">
        <time>2021-02-26T12:34:20Z</time>
      </trkpt>
      <trkpt lat="39.894869" lon="116.646384">
        <time>2021-02-26T12:34:25Z</time>
      </trkpt>
      <trkpt lat="39.894849" lon="116.646376">
        <time>2021-02-26T12:34:30Z</time>
      </trkpt>
      <trkpt lat="39.894732" lon="116.646351">
        <time>2021-02-26T12:34:35Z</time>
      </trkpt>
      <trkpt lat="39.894582" lon="116.64632">
        <time>2021-02-26T12:34:40Z</time>
      </trkpt>
      <trkpt lat="39.894412" lon="116.64625">
        <time>2021-02-26T12:34:45Z</time>
      </trkpt>
      <trkpt lat="39.894367" lon="116.646221">
        <time>2021-02-26T12:34:50Z</time>
      </trkpt>
      <trkpt lat="39.894285" lon="116.646166">
        <time>2021-02-26T12:34:55Z</time>
      </trkpt>
      <trkpt lat="39.894078" lon="116.646041">
        <time>2021-02-26T12:35:00Z</time>
      </trkpt>
      <trkpt lat="39.894037" lon="116.646009">
        <time>2021-02-26T12:35:05Z</time>
      </trkpt>
      <trkpt lat="39.893932" lon="116.645951">
        <time>2021-02-26T12:35:10Z</time>
      </trkpt>
      <trkpt lat="39.89381" lon="116.646105">
        <time>2021-02-26T12:35:15Z</time>
      </trkpt>
      <trkpt lat="39.8938" lon="116.646135">
        <time>2021-02-26T12:35:20Z</time>
      </trkpt>
      <trkpt lat="39.893742" lon="116.646262">
        <time>2021-02-26T12:35:25Z</time>
      </trkpt>
      <trkpt lat="39.893724" lon="116.646293">
        <time>2021-02-26T12:35:30Z</time>
      </trkpt>
      <trkpt lat="39.89359" lon="116.646366">
        <time>2021-02-26T12:35:35Z</time>
      </trkpt>
      <trkpt lat="39.893525" lon="116.64631">
        <time>2021-02-26T12:35:40Z</time>
      </trkpt>
      <trkpt lat="39.893435" lon="116.646263">
        <time>2021-02-26T12:35:45Z</time>
      </trkpt>
      <trkpt lat="39.893306" lon="116.646221">
        <time>2021-02-26T12:35:50Z</time>
      </trkpt>
      <trkpt lat="39.893203" lon="116.646173">
        <time>2021-02-26T12:35:55Z</time>
      </trkpt>
      <trkpt lat="39.893106" lon="116.646164">
        <time>2021-02-26T12:36:00Z</time>
      </trkpt>
      <trkpt lat="39.892893" lon="116.646101">
        <time>2021-02-26T12:36:05Z</time>
      </trkpt>
      <trkpt lat="39.892811" lon="116.646046">
        <time>2021-02-26T12:36:10Z</time>
      </trkpt>
      <trkpt lat="39.892694" lon="116.645968">
        <time>2021-02-26T12:36:15Z</time>
      </trkpt>
      <trkpt lat="39.892566" lon="116.645895">
        <time>2021-02-26T12:36:20Z</time>
      </trkpt>
      <trkpt lat="39.892417" lon="116.645853">
        <time>2021-02-26T12:36:25Z</time>
      </trkpt>
      <trkpt lat="39.89229" lon="116.645803">
        <time>2021-02-26T12:36:30Z</time>
      </trkpt>
      <trkpt lat="39.892176" lon="116.64575">
        <time>2021-02-26T12:36:35Z</time>
      </trkpt>
      <trkpt lat="39.892075" lon="116.645702">
        <time>2021-02-26T12:36:40Z</time>
      </trkpt>
      <trkpt lat="39.891967" lon="116.645652">
        <time>2021-02-26T12:36:45Z</time>
      </trkpt>
      <trkpt lat="39.891867" lon="116.645621">
        <time>2021-02-26T12:36:50Z</time>
      </trkpt>
      <trkpt lat="39.891743" lon="116.645568">
        <time>2021-02-26T12:36:55Z</time>
      </trkpt>
      <trkpt lat="39.891624" lon="116.645472">
        <time>2021-02-26T12:37:00Z</time>
      </trkpt>
      <trkpt lat="39.891531" lon="116.645385">
        <time>2021-02-26T12:37:05Z</time>
      </trkpt>
      <trkpt lat="39.89152" lon="116.645442">
        <time>2021-02-26T12:37:10Z</time>
      </trkpt>
      <trkpt lat="39.891646" lon="116.645474">
        <time>2021-02-26T12:37:15Z</time>
      </trkpt>
      <trkpt lat="39.891756" lon="116.645511">
        <time>2021-02-26T12:37:20Z</time>
      </trkpt>
      <trkpt lat="39.891817" lon="116.645562">
        <time>2021-02-26T12:37:25Z</time>
      </trkpt>
      <trkpt lat="39.891966" lon="116.645582">
        <time>2021-02-26T12:37:30Z</time>
      </trkpt>
      <trkpt lat="39.892108" lon="116.645624">
        <time>2021-02-26T12:37:35Z</time>
      </trkpt>
      <trkpt lat="39.892234" lon="116.645665">
        <time>2021-02-26T12:37:40Z</time>
      </trkpt>
      <trkpt lat="39.892363" lon="116.645716">
        <time>2021-02-26T12:37:45Z</time>
      </trkpt>
      <trkpt lat="39.892489" lon="116.645757">
        <time>2021-02-26T12:37:50Z</time>
      </trkpt>
      <trkpt lat="39.892617" lon="116.64585">
        <time>2021-02-26T12:37:55Z</time>
      </trkpt>
      <trkpt lat="39.892752" lon="116.645913">
        <time>2021-02-26T12:38:00Z</time>
      </trkpt>
      <trkpt lat="39.892846" lon="116.645958">
        <time>2021-02-26T12:38:05Z</time>
      </trkpt>
      <trkpt lat="39.892938" lon="116.645968">
        <time>2021-02-26T12:38:10Z</time>
      </trkpt>
      <trkpt lat="39.893038" lon="116.646027">
        <time>2021-02-26T12:38:15Z</time>
      </trkpt>
      <trkpt lat="39.893175" lon="116.6461">
        <time>2021-02-26T12:38:20Z</time>
      </trkpt>
      <trkpt lat="39.893291" lon="116.646136">
        <time>2021-02-26T12:38:25Z</time>
      </trkpt>
      <trkpt lat="39.89344" lon="116.646208">
        <time>2021-02-26T12:38:30Z</time>
      </trkpt>
      <trkpt lat="39.893591" lon="116.646343">
        <time>2021-02-26T12:38:35Z</time>
      </trkpt>
      <trkpt lat="39.893604" lon="116.646355">
        <time>2021-02-26T12:38:40Z</time>
      </trkpt>
      <trkpt lat="39.89372" lon="116.646346">
        <time>2021-02-26T12:38:45Z</time>
      </trkpt>
      <trkpt lat="39.893862" lon="116.646174">
        <time>2021-02-26T12:38:50Z</time>
      </trkpt>
      <trkpt lat="39.893906" lon="116.646158">
        <time>2021-02-26T12:38:55Z</time>
      </trkpt>
      <trkpt lat="39.89397" lon="116.646045">
        <time>2021-02-26T12:39:00Z</time>
      </trkpt>
      <trkpt lat="39.894041" lon="116.645932">
        <time>2021-02-26T12:39:05Z</time>
      </trkpt>
      <trkpt lat="39.894148" lon="116.645953">
        <time>2021-02-26T12:39:10Z</time>
      </trkpt>
      <trkpt lat="39.894294" lon="116.645976">
        <time>2021-02-26T12:39:15Z</time>
      </trkpt>
      <trkpt lat="39.894418" lon="116.646035">
        <time>2021-02-26T12:39:20Z</time>
      </trkpt>
      <trkpt lat="39.894519" lon="116.646114">
        <time>2021-02-26T12:39:25Z</time>
      </trkpt>
      <trkpt lat="39.894673" lon="116.64623">
        <time>2021-02-26T12:39:30Z</time>
      </trkpt>
      <trkpt lat="39.894703" lon="116.64624">
        <time>2021-02-26T12:39:35Z</time>
      </trkpt>
      <trkpt lat="39.894857" lon="116.646287">
        <time>2021-02-26T12:39:40Z</time>
      </trkpt>
      <trkpt lat="39.894989" lon="116.646352">
        <time>2021-02-26T12:39:45Z</time>
      </trkpt>
      <trkpt lat="39.895129" lon="116.646422">
        <time>2021-02-26T12:39:50Z</time>
      </trkpt>
      <trkpt lat="39.895226" lon="116.646482">
        <time>2021-02-26T12:39:55Z</time>
      </trkpt>
      <trkpt lat="39.895336" lon="116.646576">
        <time>2021-02-26T12:40:00Z</time>
      </trkpt>
      <trkpt lat="39.895431" lon="116.646667">
        <time>2021-02-26T12:40:05Z</time>
      </trkpt>
      <trkpt lat="39.895526" lon="116.646659">
        <time>2021-02-26T12:40:10Z</time>
      </trkpt>
      <trkpt lat="39.89567" lon="116.646691">
        <time>2021-02-26T12:40:15Z</time>
      </trkpt>
      <trkpt lat="39.895812" lon="116.64674">
        <time>2021-02-26T12:40:20Z</time>
      </trkpt>
      <trkpt lat="39.895895" lon="116.646798">
        <time>2021-02-26T12:40:25Z</time>
      </trkpt>
      <trkpt lat="39.895994" lon="116.646785">
        <time>2021-02-26T12:40:30Z</time>
      </trkpt>
      <trkpt lat="39.896067" lon="116.646653">
        <time>2021-02-26T12:40:35Z</time>
      </trkpt>
      <trkpt lat="39.896051" lon="116.646486">
        <time>2021-02-26T12:40:40Z</time>
      </trkpt>
      <trkpt lat="39.896023" lon="116.646311">
        <time>2021-02-26T12:40:45Z</time>
      </trkpt>
      <trkpt lat="39.896085" lon="116.64615">
        <time>2021-02-26T12:40:50Z</time>
      </trkpt>
      <trkpt lat="39.89607" lon="116.645965">
        <time>2021-02-26T12:40:55Z</time>
      </trkpt>
      <trkpt lat="39.896069" lon="116.645818">
        <time>2021-02-26T12:41:00Z</time>
      </trkpt>
      <trkpt lat="39.89609" lon="116.645695">
        <time>2021-02-26T12:41:05Z</time>
      </trkpt>
      <trkpt lat="39.89612" lon="116.64554">
        <time>2021-02-26T12:41:10Z</time>
      </trkpt>
      <trkpt lat="39.896151" lon="116.645381">
        <time>2021-02-26T12:41:15Z</time>
      </trkpt>
      <trkpt lat="39.896175" lon="116.645234">
        <time>2021-02-26T12:41:20Z</time>
      </trkpt>
      <trkpt lat="39.89617" lon="116.645052">
        <time>2021-02-26T12:41:25Z</time>
      </trkpt>
      <trkpt lat="39.896199" lon="116.644885">
        <time>2021-02-26T12:41:30Z</time>
      </trkpt>
      <trkpt lat="39.896225" lon="116.644739">
        <time>2021-02-26T12:41:35Z</time>
      </trkpt>
      <trkpt lat="39.896226" lon="116.644591">
        <time>2021-02-26T12:41:40Z</time>
      </trkpt>
      <trkpt lat="39.896214" lon="116.644409">
        <time>2021-02-26T12:41:45Z</time>
      </trkpt>
      <trkpt lat="39.896238" lon="116.644239">
        <time>2021-02-26T12:41:50Z</time>
      </trkpt>
      <trkpt lat="39.896234" lon="116.644057">
        <time>2021-02-26T12:41:55Z</time>
      </trkpt>
      <trkpt lat="39.896245" lon="116.643893">
        <time>2021-02-26T12:42:00Z</time>
      </trkpt>
      <trkpt lat="39.896218" lon="116.643732">
        <time>2021-02-26T12:42:05Z</time>
      </trkpt>
      <trkpt lat="39.896223" lon="116.643559">
        <time>2021-02-26T12:42:10Z</time>
      </trkpt>
      <trkpt lat="39.896199" lon="116.643374">
        <time>2021-02-26T12:42:15Z</time>
      </trkpt>
      <trkpt lat="39.896193" lon="116.643221">
        <time>2021-02-26T12:42:20Z</time>
      </trkpt>
      <trkpt lat="39.896173" lon="116.643067">
        <time>2021-02-26T12:42:25Z</time>
      </trkpt>
      <trkpt lat="39.896201" lon="116.642928">
        <time>2021-02-26T12:42:30Z</time>
      </trkpt>
      <trkpt lat="39.896207" lon="116.642776">
        <time>2021-02-26T12:42:35Z</time>
      </trkpt>
      <trkpt lat="39.896195" lon="116.642588">
        <time>2021-02-26T12:42:40Z</time>
      </trkpt>
      <trkpt lat="39.896191" lon="116.64239">
        <time>2021-02-26T12:42:45Z</time>
      </trkpt>
      <trkpt lat="39.896214" lon="116.642247">
        <time>2021-02-26T12:42:50Z</time>
      </trkpt>
      <trkpt lat="39.896222" lon="116.642102">
        <time>2021-02-26T12:42:55Z</time>
      </trkpt>
      <trkpt lat="39.896206" lon="116.641952">
        <time>2021-02-26T12:43:00Z</time>
      </trkpt>
      <trkpt lat="39.896205" lon="116.641799">
        <time>2021-02-26T12:43:05Z</time>
      </trkpt>
      <trkpt lat="39.896188" lon="116.641568">
        <time>2021-02-26T12:43:10Z</time>
      </trkpt>
      <trkpt lat="39.896195" lon="116.641501">
        <time>2021-02-26T12:43:15Z</time>
      </trkpt>
      <trkpt lat="39.896219" lon="116.641313">
        <time>2021-02-26T12:43:20Z</time>
      </trkpt>
      <trkpt lat="39.896243" lon="116.641167">
        <time>2021-02-26T12:43:25Z</time>
      </trkpt>
      <trkpt lat="39.896257" lon="116.641033">
        <time>2021-02-26T12:43:30Z</time>
      </trkpt>
      <trkpt lat="39.896259" lon="116.640892">
        <time>2021-02-26T12:43:35Z</time>
      </trkpt>
      <trkpt lat="39.896275" lon="116.640765">
        <time>2021-02-26T12:43:40Z</time>
      </trkpt>
      <trkpt lat="39.896264" lon="116.640586">
        <time>2021-02-26T12:43:45Z</time>
      </trkpt>
      <trkpt lat="39.896241" lon="116.640413">
        <time>2021-02-26T12:43:50Z</time>
      </trkpt>
      <trkpt lat="39.89627" lon="116.64034">
        <time>2021-02-26T12:43:55Z</time>
      </trkpt>
      <trkpt lat="39.896299" lon="116.640238">
        <time>2021-02-26T12:44:00Z</time>
      </trkpt>
      <trkpt lat="39.896316" lon="116.640095">
        <time>2021-02-26T12:44:05Z</time>
      </trkpt>
      <trkpt lat="39.896303" lon="116.639916">
        <time>2021-02-26T12:44:10Z</time>
      </trkpt>
      <trkpt lat="39.896297" lon="116.639752">
        <time>2021-02-26T12:44:15Z</time>
      </trkpt>
      <trkpt lat="39.896269" lon="116.639581">
        <time>2021-02-26T12:44:20Z</time>
      </trkpt>
      <trkpt lat="39.896235" lon="116.639388">
        <time>2021-02-26T12:44:25Z</time>
      </trkpt>
      <trkpt lat="39.896221" lon="116.639211">
        <time>2021-02-26T12:44:30Z</time>
      </trkpt>
      <trkpt lat="39.896193" lon="116.639034">
        <time>2021-02-26T12:44:35Z</time>
      </trkpt>
      <trkpt lat="39.896177" lon="116.638854">
        <time>2021-02-26T12:44:40Z</time>
      </trkpt>
      <trkpt lat="39.896171" lon="116.63869">
        <time>2021-02-26T12:44:45Z</time>
      </trkpt>
      <trkpt lat="39.896168" lon="116.638493">
        <time>2021-02-26T12:44:50Z</time>
      </trkpt>
      <trkpt lat="39.896162" lon="116.638341">
        <time>2021-02-26T12:44:55Z</time>
      </trkpt>
      <trkpt lat="39.896179" lon="116.638201">
        <time>2021-02-26T12:45:00Z</time>
      </trkpt>
      <trkpt lat="39.896191" lon="116.638006">
        <time>2021-02-26T12:45:05Z</time>
      </trkpt>
      <trkpt lat="39.896142" lon="116.637821">
        <time>2021-02-26T12:45:10Z</time>
      </trkpt>
      <trkpt lat="39.896112" lon="116.637646">
        <time>2021-02-26T12:45:15Z</time>
      </trkpt>
      <trkpt lat="39.896119" lon="116.637487">
        <time>2021-02-26T12:45:20Z</time>
      </trkpt>
      <trkpt lat="39.896114" lon="116.637333">
        <time>2021-02-26T12:45:25Z</time>
      </trkpt>
      <trkpt lat="39.896102" lon="116.637186">
        <time>2021-02-26T12:45:30Z</time>
      </trkpt>
      <trkpt lat="39.896169" lon="116.63708">
        <time>2021-02-26T12:45:35Z</time>
      </trkpt>
      <trkpt lat="39.896124" lon="116.636904">
        <time>2021-02-26T12:45:40Z</time>
      </trkpt>
      <trkpt lat="39.896079" lon="116.636751">
        <time>2021-02-26T12:45:45Z</time>
      </trkpt>
      <trkpt lat="39.89605" lon="116.636673">
        <time>2021-02-26T12:45:50Z</time>
      </trkpt>
      <trkpt lat="39.896001" lon="116.636762">
        <time>2021-02-26T12:45:55Z</time>
      </trkpt>
      <trkpt lat="39.89605" lon="116.636921">
        <time>2021-02-26T12:46:00Z</time>
      </trkpt>
      <trkpt lat="39.896082" lon="116.637104">
        <time>2021-02-26T12:46:05Z</time>
      </trkpt>
      <trkpt lat="39.896124" lon="116.637263">
        <time>2021-02-26T12:46:10Z</time>
      </trkpt>
      <trkpt lat="39.89612" lon="116.637423">
        <time>2021-02-26T12:46:15Z</time>
      </trkpt>
      <trkpt lat="39.89613" lon="116.637556">
        <time>2021-02-26T12:46:20Z</time>
      </trkpt>
      <trkpt lat="39.89613" lon="116.637709">
        <time>2021-02-26T12:46:25Z</time>
      </trkpt>
      <trkpt lat="39.896137" lon="116.637886">
        <time>2021-02-26T12:46:30Z</time>
      </trkpt>
      <trkpt lat="39.896157" lon="116.638075">
        <time>2021-02-26T12:46:35Z</time>
      </trkpt>
      <trkpt lat="39.896162" lon="116.638227">
        <time>2021-02-26T12:46:40Z</time>
      </trkpt>
      <trkpt lat="39.896155" lon="116.638393">
        <time>2021-02-26T12:46:45Z</time>
      </trkpt>
      <trkpt lat="39.896162" lon="116.638556">
        <time>2021-02-26T12:46:50Z</time>
      </trkpt>
      <trkpt lat="39.896154" lon="116.638723">
        <time>2021-02-26T12:46:55Z</time>
      </trkpt>
      <trkpt lat="39.896173" lon="116.638916">
        <time>2021-02-26T12:47:00Z</time>
      </trkpt>
      <trkpt lat="39.896205" lon="116.639083">
        <time>2021-02-26T12:47:05Z</time>
      </trkpt>
      <trkpt lat="39.896239" lon="116.639246">
        <time>2021-02-26T12:47:10Z</time>
      </trkpt>
      <trkpt lat="39.896225" lon="116.639398">
        <time>2021-02-26T12:47:15Z</time>
      </trkpt>
      <trkpt lat="39.896225" lon="116.639507">
        <time>2021-02-26T12:47:20Z</time>
      </trkpt>
      <trkpt lat="39.896238" lon="116.639633">
        <time>2021-02-26T12:47:25Z</time>
      </trkpt>
      <trkpt lat="39.89624" lon="116.639788">
        <time>2021-02-26T12:47:30Z</time>
      </trkpt>
      <trkpt lat="39.896259" lon="116.639937">
        <time>2021-02-26T12:47:35Z</time>
      </trkpt>
      <trkpt lat="39.896279" lon="116.640098">
        <time>2021-02-26T12:47:40Z</time>
      </trkpt>
      <trkpt lat="39.896293" lon="116.640247">
        <time>2021-02-26T12:47:45Z</time>
      </trkpt>
      <trkpt lat="39.896279" lon="116.640418">
        <time>2021-02-26T12:47:50Z</time>
      </trkpt>
      <trkpt lat="39.89628" lon="116.640616">
        <time>2021-02-26T12:47:55Z</time>
      </trkpt>
      <trkpt lat="39.896287" lon="116.640842">
        <time>2021-02-26T12:48:00Z</time>
      </trkpt>
      <trkpt lat="39.896292" lon="116.641014">
        <time>2021-02-26T12:48:05Z</time>
      </trkpt>
      <trkpt lat="39.896269" lon="116.641159">
        <time>2021-02-26T12:48:10Z</time>
      </trkpt>
      <trkpt lat="39.896281" lon="116.641329">
        <time>2021-02-26T12:48:15Z</time>
      </trkpt>
      <trkpt lat="39.896279" lon="116.641519">
        <time>2021-02-26T12:48:20Z</time>
      </trkpt>
      <trkpt lat="39.89627" lon="116.641678">
        <time>2021-02-26T12:48:25Z</time>
      </trkpt>
      <trkpt lat="39.896259" lon="116.64185">
        <time>2021-02-26T12:48:30Z</time>
      </trkpt>
      <trkpt lat="39.896237" lon="116.642035">
        <time>2021-02-26T12:48:35Z</time>
      </trkpt>
      <trkpt lat="39.896241" lon="116.642206">
        <time>2021-02-26T12:48:40Z</time>
      </trkpt>
      <trkpt lat="39.896239" lon="116.642406">
        <time>2021-02-26T12:48:45Z</time>
      </trkpt>
      <trkpt lat="39.896236" lon="116.642578">
        <time>2021-02-26T12:48:50Z</time>
      </trkpt>
      <trkpt lat="39.896224" lon="116.642726">
        <time>2021-02-26T12:48:55Z</time>
      </trkpt>
      <trkpt lat="39.896255" lon="116.642871">
        <time>2021-02-26T12:49:00Z</time>
      </trkpt>
      <trkpt lat="39.896245" lon="116.643043">
        <time>2021-02-26T12:49:05Z</time>
      </trkpt>
      <trkpt lat="39.896214" lon="116.643186">
        <time>2021-02-26T12:49:10Z</time>
      </trkpt>
      <trkpt lat="39.896199" lon="116.643351">
        <time>2021-02-26T12:49:15Z</time>
      </trkpt>
      <trkpt lat="39.896216" lon="116.643532">
        <time>2021-02-26T12:49:20Z</time>
      </trkpt>
      <trkpt lat="39.896236" lon="116.643704">
        <time>2021-02-26T12:49:25Z</time>
      </trkpt>
      <trkpt lat="39.896234" lon="116.643858">
        <time>2021-02-26T12:49:30Z</time>
      </trkpt>
      <trkpt lat="39.896237" lon="116.644019">
        <time>2021-02-26T12:49:35Z</time>
      </trkpt>
      <trkpt lat="39.89625" lon="116.644171">
        <time>2021-02-26T12:49:40Z</time>
      </trkpt>
      <trkpt lat="39.896247" lon="116.644312">
        <time>2021-02-26T12:49:45Z</time>
      </trkpt>
      <trkpt lat="39.896198" lon="116.644429">
        <time>2021-02-26T12:49:50Z</time>
      </trkpt>
      <trkpt lat="39.8962" lon="116.644598">
        <time>2021-02-26T12:49:55Z</time>
      </trkpt>
      <trkpt lat="39.896206" lon="116.644775">
        <time>2021-02-26T12:50:00Z</time>
      </trkpt>
      <trkpt lat="39.896198" lon="116.644969">
        <time>2021-02-26T12:50:05Z</time>
      </trkpt>
      <trkpt lat="39.896202" lon="116.645157">
        <time>2021-02-26T12:50:10Z</time>
      </trkpt>
      <trkpt lat="39.896204" lon="116.645305">
        <time>2021-02-26T12:50:15Z</time>
      </trkpt>
      <trkpt lat="39.896177" lon="116.645487">
        <time>2021-02-26T12:50:20Z</time>
      </trkpt>
      <trkpt lat="39.896142" lon="116.645667">
        <time>2021-02-26T12:50:25Z</time>
      </trkpt>
      <trkpt lat="39.896107" lon="116.645836">
        <time>2021-02-26T12:50:30Z</time>
      </trkpt>
      <trkpt lat="39.896074" lon="116.646021">
        <time>2021-02-26T12:50:35Z</time>
      </trkpt>
      <trkpt lat="39.896054" lon="116.646199">
        <time>2021-02-26T12:50:40Z</time>
      </trkpt>
      <trkpt lat="39.896034" lon="116.646381">
        <time>2021-02-26T12:50:45Z</time>
      </trkpt>
      <trkpt lat="39.896038" lon="116.646579">
        <time>2021-02-26T12:50:50Z</time>
      </trkpt>
      <trkpt lat="39.89602" lon="116.646752">
        <time>2021-02-26T12:50:55Z</time>
      </trkpt>
      <trkpt lat="39.895942" lon="116.646881">
        <time>2021-02-26T12:51:00Z</time>
      </trkpt>
      <trkpt lat="39.895789" lon="116.646833">
        <time>2021-02-26T12:51:05Z</time>
      </trkpt>
      <trkpt lat="39.895657" lon="116.64676">
        <time>2021-02-26T12:51:10Z</time>
      </trkpt>
      <trkpt lat="39.895558" lon="116.646703">
        <time>2021-02-26T12:51:15Z</time>
      </trkpt>
      <trkpt lat="39.895433" lon="116.646637">
        <time>2021-02-26T12:51:20Z</time>
      </trkpt>
      <trkpt lat="39.89532" lon="116.64659">
        <time>2021-02-26T12:51:25Z</time>
      </trkpt>
      <trkpt lat="39.895176" lon="116.646508">
        <time>2021-02-26T12:51:30Z</time>
      </trkpt>
      <trkpt lat="39.895054" lon="116.646493">
        <time>2021-02-26T12:51:35Z</time>
      </trkpt>
      <trkpt lat="39.894937" lon="116.646445">
        <time>2021-02-26T12:51:40Z</time>
      </trkpt>
      <trkpt lat="39.894803" lon="116.646383">
        <time>2021-02-26T12:51:45Z</time>
      </trkpt>
      <trkpt lat="39.894688" lon="116.646343">
        <time>2021-02-26T12:51:50Z</time>
      </trkpt>
      <trkpt lat="39.894564" lon="116.646305">
        <time>2021-02-26T12:51:55Z</time>
      </trkpt>
      <trkpt lat="39.894413" lon="116.646247">
        <time>2021-02-26T12:52:00Z</time>
      </trkpt>
      <trkpt lat="39.894345" lon="116.646175">
        <time>2021-02-26T12:52:05Z</time>
      </trkpt>
      <trkpt lat="39.894245" lon="116.646112">
        <time>2021-02-26T12:52:10Z</time>
      </trkpt>
      <trkpt lat="39.894087" lon="116.646039">
        <time>2021-02-26T12:52:15Z</time>
      </trkpt>
      <trkpt lat="39.894019" lon="116.646016">
        <time>2021-02-26T12:52:20Z</time>
      </trkpt>
      <trkpt lat="39.893899" lon="116.64601">
        <time>2021-02-26T12:52:25Z</time>
      </trkpt>
      <trkpt lat="39.893815" lon="116.646113">
        <time>2021-02-26T12:52:30Z</time>
      </trkpt>
      <trkpt lat="39.893752" lon="116.646247">
        <time>2021-02-26T12:52:35Z</time>
      </trkpt>
      <trkpt lat="39.893604" lon="116.646389">
        <time>2021-02-26T12:52:40Z</time>
      </trkpt>
      <trkpt lat="39.893581" lon="116.646386">
        <time>2021-02-26T12:52:45Z</time>
      </trkpt>
      <trkpt lat="39.893419" lon="116.646337">
        <time>2021-02-26T12:52:50Z</time>
      </trkpt>
      <trkpt lat="39.893198" lon="116.646254">
        <time>2021-02-26T12:52:55Z</time>
      </trkpt>
      <trkpt lat="39.893174" lon="116.646251">
        <time>2021-02-26T12:53:00Z</time>
      </trkpt>
      <trkpt lat="39.892975" lon="116.646169">
        <time>2021-02-26T12:53:05Z</time>
      </trkpt>
      <trkpt lat="39.892902" lon="116.646114">
        <time>2021-02-26T12:53:10Z</time>
      </trkpt>
      <trkpt lat="39.892811" lon="116.646052">
        <time>2021-02-26T12:53:15Z</time>
      </trkpt>
      <trkpt lat="39.892722" lon="116.645998">
        <time>2021-02-26T12:53:20Z</time>
      </trkpt>
      <trkpt lat="39.892576" lon="116.645921">
        <time>2021-02-26T12:53:25Z</time>
      </trkpt>
      <trkpt lat="39.892424" lon="116.645875">
        <time>2021-02-26T12:53:30Z</time>
      </trkpt>
      <trkpt lat="39.892293" lon="116.645812">
        <time>2021-02-26T12:53:35Z</time>
      </trkpt>
      <trkpt lat="39.892182" lon="116.645732">
        <time>2021-02-26T12:53:40Z</time>
      </trkpt>
      <trkpt lat="39.892052" lon="116.645663">
        <time>2021-02-26T12:53:45Z</time>
      </trkpt>
      <trkpt lat="39.891939" lon="116.6456">
        <time>2021-02-26T12:53:50Z</time>
      </trkpt>
      <trkpt lat="39.891822" lon="116.645547">
        <time>2021-02-26T12:53:55Z</time>
      </trkpt>
      <trkpt lat="39.891684" lon="116.645487">
        <time>2021-02-26T12:54:00Z</time>
      </trkpt>
      <trkpt lat="39.891573" lon="116.645387">
        <time>2021-02-26T12:54:05Z</time>
      </trkpt>
      <trkpt lat="39.891505" lon="116.645381">
        <time>2021-02-26T12:54:10Z</time>
      </trkpt>
      <trkpt lat="39.891542" lon="116.645429">
        <time>2021-02-26T12:54:15Z</time>
      </trkpt>
      <trkpt lat="39.891603" lon="116.645497">
        <time>2021-02-26T12:54:20Z</time>
      </trkpt>
      <trkpt lat="39.89175" lon="116.645538">
        <time>2021-02-26T12:54:25Z</time>
      </trkpt>
      <trkpt lat="39.891901" lon="116.645566">
        <time>2021-02-26T12:54:30Z</time>
      </trkpt>
      <trkpt lat="39.892021" lon="116.645634">
        <time>2021-02-26T12:54:35Z</time>
      </trkpt>
      <trkpt lat="39.89213" lon="116.645676">
        <time>2021-02-26T12:54:40Z</time>
      </trkpt>
      <trkpt lat="39.892215" lon="116.645736">
        <time>2021-02-26T12:54:45Z</time>
      </trkpt>
      <trkpt lat="39.892278" lon="116.645798">
        <time>2021-02-26T12:54:50Z</time>
      </trkpt>
      <trkpt lat="39.89243" lon="116.645837">
        <time>2021-02-26T12:54:55Z</time>
      </trkpt>
      <trkpt lat="39.892617" lon="116.645896">
        <time>2021-02-26T12:55:00Z</time>
      </trkpt>
      <trkpt lat="39.892724" lon="116.645955">
        <time>2021-02-26T12:55:05Z</time>
      </trkpt>
      <trkpt lat="39.892811" lon="116.645997">
        <time>2021-02-26T12:55:10Z</time>
      </trkpt>
      <trkpt lat="39.89292" lon="116.646048">
        <time>2021-02-26T12:55:15Z</time>
      </trkpt>
      <trkpt lat="39.893029" lon="116.646095">
        <time>2021-02-26T12:55:20Z</time>
      </trkpt>
      <trkpt lat="39.893141" lon="116.646146">
        <time>2021-02-26T12:55:25Z</time>
      </trkpt>
      <trkpt lat="39.893231" lon="116.646183">
        <time>2021-02-26T12:55:30Z</time>
      </trkpt>
      <trkpt lat="39.893364" lon="116.646249">
        <time>2021-02-26T12:55:35Z</time>
      </trkpt>
      <trkpt lat="39.893558" lon="116.646344">
        <time>2021-02-26T12:55:40Z</time>
      </trkpt>
      <trkpt lat="39.893632" lon="116.646342">
        <time>2021-02-26T12:55:45Z</time>
      </trkpt>
      <trkpt lat="39.893832" lon="116.646121">
        <time>2021-02-26T12:55:50Z</time>
      </trkpt>
      <trkpt lat="39.893864" lon="116.646071">
        <time>2021-02-26T12:55:55Z</time>
      </trkpt>
      <trkpt lat="39.89394" lon="116.645958">
        <time>2021-02-26T12:56:00Z</time>
      </trkpt>
      <trkpt lat="39.894032" lon="116.645911">
        <time>2021-02-26T12:56:05Z</time>
      </trkpt>
      <trkpt lat="39.894117" lon="116.645974">
        <time>2021-02-26T12:56:10Z</time>
      </trkpt>
      <trkpt lat="39.894276" lon="116.646042">
        <time>2021-02-26T12:56:15Z</time>
      </trkpt>
      <trkpt lat="39.894328" lon="116.646064">
        <time>2021-02-26T12:56:20Z</time>
      </trkpt>
      <trkpt lat="39.894446" lon="116.64613">
        <time>2021-02-26T12:56:25Z</time>
      </trkpt>
      <trkpt lat="39.89455" lon="116.646201">
        <time>2021-02-26T12:56:30Z</time>
      </trkpt>
      <trkpt lat="39.8947" lon="116.646275">
        <time>2021-02-26T12:56:35Z</time>
      </trkpt>
      <trkpt lat="39.894836" lon="116.646351">
        <time>2021-02-26T12:56:40Z</time>
      </trkpt>
      <trkpt lat="39.894932" lon="116.646378">
        <time>2021-02-26T12:56:45Z</time>
      </trkpt>
      <trkpt lat="39.895013" lon="116.646411">
        <time>2021-02-26T12:56:50Z</time>
      </trkpt>
      <trkpt lat="39.895099" lon="116.646456">
        <time>2021-02-26T12:56:55Z</time>
      </trkpt>
      <trkpt lat="39.895184" lon="116.646508">
        <time>2021-02-26T12:57:00Z</time>
      </trkpt>
      <trkpt lat="39.895306" lon="116.646561">
        <time>2021-02-26T12:57:05Z</time>
      </trkpt>
      <trkpt lat="39.895459" lon="116.646599">
        <time>2021-02-26T12:57:10Z</time>
      </trkpt>
      <trkpt lat="39.895569" lon="116.646643">
        <time>2021-02-26T12:57:15Z</time>
      </trkpt>
      <trkpt lat="39.895647" lon="116.646695">
        <time>2021-02-26T12:57:20Z</time>
      </trkpt>
      <trkpt lat="39.895712" lon="116.646754">
        <time>2021-02-26T12:57:25Z</time>
      </trkpt>
      <trkpt lat="39.895871" lon="116.646778">
        <time>2021-02-26T12:57:30Z</time>
      </trkpt>
      <trkpt lat="39.89597" lon="116.646776">
        <time>2021-02-26T12:57:35Z</time>
      </trkpt>
      <trkpt lat="39.896043" lon="116.646618">
        <time>2021-02-26T12:57:40Z</time>
      </trkpt>
      <trkpt lat="39.896013" lon="116.646426">
        <time>2021-02-26T12:57:45Z</time>
      </trkpt>
      <trkpt lat="39.896022" lon="116.646274">
        <time>2021-02-26T12:57:50Z</time>
      </trkpt>
      <trkpt lat="39.896029" lon="116.646067">
        <time>2021-02-26T12:57:55Z</time>
      </trkpt>
      <trkpt lat="39.896049" lon="116.64591">
        <time>2021-02-26T12:58:00Z</time>
      </trkpt>
      <trkpt lat="39.896084" lon="116.64575">
        <time>2021-02-26T12:58:05Z</time>
      </trkpt>
      <trkpt lat="39.896083" lon="116.645624">
        <time>2021-02-26T12:58:10Z</time>
      </trkpt>
      <trkpt lat="39.896102" lon="116.645562">
        <time>2021-02-26T12:58:15Z</time>
      </trkpt>
      <trkpt lat="39.896136" lon="116.645466">
        <time>2021-02-26T12:58:20Z</time>
      </trkpt>
      <trkpt lat="39.896171" lon="116.645359">
        <time>2021-02-26T12:58:25Z</time>
      </trkpt>
      <trkpt lat="39.896201" lon="116.645203">
        <time>2021-02-26T12:58:30Z</time>
      </trkpt>
      <trkpt lat="39.89618" lon="116.645027">
        <time>2021-02-26T12:58:35Z</time>
      </trkpt>
      <trkpt lat="39.896191" lon="116.644958">
        <time>2021-02-26T12:58:40Z</time>
      </trkpt>
      <trkpt lat="39.896204" lon="116.644791">
        <time>2021-02-26T12:58:45Z</time>
      </trkpt>
      <trkpt lat="39.896231" lon="116.644633">
        <time>2021-02-26T12:58:50Z</time>
      </trkpt>
      <trkpt lat="39.896226" lon="116.644464">
        <time>2021-02-26T12:58:55Z</time>
      </trkpt>
      <trkpt lat="39.896226" lon="116.644317">
        <time>2021-02-26T12:59:00Z</time>
      </trkpt>
      <trkpt lat="39.896231" lon="116.644154">
        <time>2021-02-26T12:59:05Z</time>
      </trkpt>
      <trkpt lat="39.896221" lon="116.643985">
        <time>2021-02-26T12:59:10Z</time>
      </trkpt>
      <trkpt lat="39.896191" lon="116.643802">
        <time>2021-02-26T12:59:15Z</time>
      </trkpt>
      <trkpt lat="39.896199" lon="116.643651">
        <time>2021-02-26T12:59:20Z</time>
      </trkpt>
      <trkpt lat="39.896193" lon="116.643493">
        <time>2021-02-26T12:59:25Z</time>
      </trkpt>
      <trkpt lat="39.896169" lon="116.643345">
        <time>2021-02-26T12:59:30Z</time>
      </trkpt>
      <trkpt lat="39.896156" lon="116.643209">
        <time>2021-02-26T12:59:35Z</time>
      </trkpt>
      <trkpt lat="39.896174" lon="116.64307">
        <time>2021-02-26T12:59:40Z</time>
      </trkpt>
      <trkpt lat="39.896186" lon="116.642937">
        <time>2021-02-26T12:59:45Z</time>
      </trkpt>
      <trkpt lat="39.896197" lon="116.642786">
        <time>2021-02-26T12:59:50Z</time>
      </trkpt>
      <trkpt lat="39.896197" lon="116.642653">
        <time>2021-02-26T12:59:55Z</time>
      </trkpt>
      <trkpt lat="39.896223" lon="116.642526">
        <time>2021-02-26T13:00:00Z</time>
      </trkpt>
      <trkpt lat="39.896222" lon="116.642376">
        <time>2021-02-26T13:00:05Z</time>
      </trkpt>
      <trkpt lat="39.896221" lon="116.642226">
        <time>2021-02-26T13:00:10Z</time>
      </trkpt>
      <trkpt lat="39.896229" lon="116.642078">
        <time>2021-02-26T13:00:15Z</time>
      </trkpt>
      <trkpt lat="39.896221" lon="116.641917">
        <time>2021-02-26T13:00:20Z</time>
      </trkpt>
      <trkpt lat="39.896192" lon="116.641783">
        <time>2021-02-26T13:00:25Z</time>
      </trkpt>
      <trkpt lat="39.896188" lon="116.641552">
        <time>2021-02-26T13:00:30Z</time>
      </trkpt>
      <trkpt lat="39.896186" lon="116.641449">
        <time>2021-02-26T13:00:35Z</time>
      </trkpt>
      <trkpt lat="39.896201" lon="116.641298">
        <time>2021-02-26T13:00:40Z</time>
      </trkpt>
      <trkpt lat="39.896195" lon="116.64114">
        <time>2021-02-26T13:00:45Z</time>
      </trkpt>
      <trkpt lat="39.896203" lon="116.641027">
        <time>2021-02-26T13:00:50Z</time>
      </trkpt>
      <trkpt lat="39.896204" lon="116.640895">
        <time>2021-02-26T13:00:55Z</time>
      </trkpt>
      <trkpt lat="39.896214" lon="116.640768">
        <time>2021-02-26T13:01:00Z</time>
      </trkpt>
      <trkpt lat="39.896213" lon="116.640623">
        <time>2021-02-26T13:01:05Z</time>
      </trkpt>
      <trkpt lat="39.896216" lon="116.64047">
        <time>2021-02-26T13:01:10Z</time>
      </trkpt>
      <trkpt lat="39.896209" lon="116.640261">
        <time>2021-02-26T13:01:15Z</time>
      </trkpt>
      <trkpt lat="39.896232" lon="116.640013">
        <time>2021-02-26T13:01:20Z</time>
      </trkpt>
      <trkpt lat="39.896235" lon="116.639808">
        <time>2021-02-26T13:01:25Z</time>
      </trkpt>
      <trkpt lat="39.896242" lon="116.63964">
        <time>2021-02-26T13:01:30Z</time>
      </trkpt>
      <trkpt lat="39.896239" lon="116.639497">
        <time>2021-02-26T13:01:35Z</time>
      </trkpt>
      <trkpt lat="39.896241" lon="116.639344">
        <time>2021-02-26T13:01:40Z</time>
      </trkpt>
      <trkpt lat="39.896221" lon="116.63914">
        <time>2021-02-26T13:01:45Z</time>
      </trkpt>
      <trkpt lat="39.896208" lon="116.638955">
        <time>2021-02-26T13:01:50Z</time>
      </trkpt>
      <trkpt lat="39.896173" lon="116.638747">
        <time>2021-02-26T13:01:55Z</time>
      </trkpt>
      <trkpt lat="39.896173" lon="116.638581">
        <time>2021-02-26T13:02:00Z</time>
      </trkpt>
      <trkpt lat="39.896157" lon="116.638425">
        <time>2021-02-26T13:02:05Z</time>
      </trkpt>
      <trkpt lat="39.896139" lon="116.638249">
        <time>2021-02-26T13:02:10Z</time>
      </trkpt>
      <trkpt lat="39.896155" lon="116.638076">
        <time>2021-02-26T13:02:15Z</time>
      </trkpt>
      <trkpt lat="39.896155" lon="116.637881">
        <time>2021-02-26T13:02:20Z</time>
      </trkpt>
      <trkpt lat="39.896161" lon="116.637724">
        <time>2021-02-26T13:02:25Z</time>
      </trkpt>
      <trkpt lat="39.896147" lon="116.637541">
        <time>2021-02-26T13:02:30Z</time>
      </trkpt>
      <trkpt lat="39.896108" lon="116.637351">
        <time>2021-02-26T13:02:35Z</time>
      </trkpt>
      <trkpt lat="39.896118" lon="116.637211">
        <time>2021-02-26T13:02:40Z</time>
      </trkpt>
      <trkpt lat="39.896144" lon="116.637095">
        <time>2021-02-26T13:02:45Z</time>
      </trkpt>
      <trkpt lat="39.896123" lon="116.636967">
        <time>2021-02-26T13:02:50Z</time>
      </trkpt>
      <trkpt lat="39.896075" lon="116.636844">
        <time>2021-02-26T13:02:55Z</time>
      </trkpt>
      <trkpt lat="39.896069" lon="116.63677">
        <time>2021-02-26T13:03:00Z</time>
      </trkpt>
      <trkpt lat="39.895999" lon="116.636719">
        <time>2021-02-26T13:03:05Z</time>
      </trkpt>
      <trkpt lat="39.895908" lon="116.636672">
        <time>2021-02-26T13:03:10Z</time>
      </trkpt>
      <trkpt lat="39.895928" lon="116.636513">
        <time>2021-02-26T13:03:15Z</time>
      </trkpt>
      <trkpt lat="39.896046" lon="116.636397">
        <time>2021-02-26T13:03:20Z</time>
      </trkpt>
      <trkpt lat="39.896144" lon="116.636278">
        <time>2021-02-26T13:03:25Z</time>
      </trkpt>
      <trkpt lat="39.896221" lon="116.636172">
        <time>2021-02-26T13:03:30Z</time>
      </trkpt>
      <trkpt lat="39.896321" lon="116.636078">
        <time>2021-02-26T13:03:35Z</time>
      </trkpt>
      <trkpt lat="39.896445" lon="116.636005">
        <time>2021-02-26T13:03:40Z</time>
      </trkpt>
      <trkpt lat="39.896585" lon="116.635901">
        <time>2021-02-26T13:03:45Z</time>
      </trkpt>
      <trkpt lat="39.896729" lon="116.635804">
        <time>2021-02-26T13:03:50Z</time>
      </trkpt>
      <trkpt lat="39.896948" lon="116.63569">
        <time>2021-02-26T13:03:55Z</time>
      </trkpt>
      <trkpt lat="39.896999" lon="116.635677">
        <time>2021-02-26T13:04:00Z</time>
      </trkpt>
      <trkpt lat="39.897122" lon="116.635596">
        <time>2021-02-26T13:04:05Z</time>
      </trkpt>
      <trkpt lat="39.897238" lon="116.635517">
        <time>2021-02-26T13:04:10Z</time>
      </trkpt>
      <trkpt lat="39.897352" lon="116.635464">
        <time>2021-02-26T13:04:15Z</time>
      </trkpt>
      <trkpt lat="39.897526" lon="116.635349">
        <time>2021-02-26T13:04:20Z</time>
      </trkpt>
      <trkpt lat="39.897558" lon="116.635332">
        <time>2021-02-26T13:04:25Z</time>
      </trkpt>
      <trkpt lat="39.897637" lon="116.635258">
        <time>2021-02-26T13:04:30Z</time>
      </trkpt>
      <trkpt lat="39.897671" lon="116.6352">
        <time>2021-02-26T13:04:35Z</time>
      </trkpt>
      <trkpt lat="39.897749" lon="116.635152">
        <time>2021-02-26T13:04:40Z</time>
      </trkpt>
      <trkpt lat="39.897833" lon="116.635117">
        <time>2021-02-26T13:04:45Z</time>
      </trkpt>
      <trkpt lat="39.897936" lon="116.63507">
        <time>2021-02-26T13:04:50Z</time>
      </trkpt>
      <trkpt lat="39.898034" lon="116.635018">
        <time>2021-02-26T13:04:55Z</time>
      </trkpt>
      <trkpt lat="39.898128" lon="116.634968">
        <time>2021-02-26T13:05:00Z</time>
      </trkpt>
      <trkpt lat="39.898234" lon="116.634917">
        <time>2021-02-26T13:05:05Z</time>
      </trkpt>
      <trkpt lat="39.898332" lon="116.634846">
        <time>2021-02-26T13:05:10Z</time>
      </trkpt>
      <trkpt lat="39.89845" lon="116.634777">
        <time>2021-02-26T13:05:15Z</time>
      </trkpt>
      <trkpt lat="39.898553" lon="116.634695">
        <time>2021-02-26T13:05:20Z</time>
      </trkpt>
      <trkpt lat="39.898663" lon="116.634635">
        <time>2021-02-26T13:05:25Z</time>
      </trkpt>
      <trkpt lat="39.898763" lon="116.6346">
        <time>2021-02-26T13:05:30Z</time>
      </trkpt>
      <trkpt lat="39.898871" lon="116.634546">
        <time>2021-02-26T13:05:35Z</time>
      </trkpt>
      <trkpt lat="39.898973" lon="116.634461">
        <time>2021-02-26T13:05:40Z</time>
      </trkpt>
      <trkpt lat="39.899094" lon="116.634405">
        <time>2021-02-26T13:05:45Z</time>
      </trkpt>
      <trkpt lat="39.899203" lon="116.634348">
        <time>2021-02-26T13:05:50Z</time>
      </trkpt>
      <trkpt lat="39.899317" lon="116.634232">
        <time>2021-02-26T13:05:55Z</time>
      </trkpt>
      <trkpt lat="39.899437" lon="116.634134">
        <time>2021-02-26T13:06:00Z</time>
      </trkpt>
      <trkpt lat="39.899527" lon="116.634084">
        <time>2021-02-26T13:06:05Z</time>
      </trkpt>
      <trkpt lat="39.899622" lon="116.634011">
        <time>2021-02-26T13:06:10Z</time>
      </trkpt>
      <trkpt lat="39.899801" lon="116.633885">
        <time>2021-02-26T13:06:15Z</time>
      </trkpt>
      <trkpt lat="39.899824" lon="116.633866">
        <time>2021-02-26T13:06:20Z</time>
      </trkpt>
      <trkpt lat="39.899927" lon="116.633816">
        <time>2021-02-26T13:06:25Z</time>
      </trkpt>
      <trkpt lat="39.900044" lon="116.633795">
        <time>2021-02-26T13:06:30Z</time>
      </trkpt>
      <trkpt lat="39.900157" lon="116.633699">
        <time>2021-02-26T13:06:35Z</time>
      </trkpt>
      <trkpt lat="39.900384" lon="116.633537">
        <time>2021-02-26T13:06:40Z</time>
      </trkpt>
      <trkpt lat="39.900407" lon="116.633531">
        <time>2021-02-26T13:06:45Z</time>
      </trkpt>
      <trkpt lat="39.900528" lon="116.633497">
        <time>2021-02-26T13:06:50Z</time>
      </trkpt>
      <trkpt lat="39.900629" lon="116.633457">
        <time>2021-02-26T13:06:55Z</time>
      </trkpt>
      <trkpt lat="39.900717" lon="116.633369">
        <time>2021-02-26T13:07:00Z</time>
      </trkpt>
      <trkpt lat="39.900808" lon="116.633263">
        <time>2021-02-26T13:07:05Z</time>
      </trkpt>
      <trkpt lat="39.90091" lon="116.633186">
        <time>2021-02-26T13:07:10Z</time>
      </trkpt>
      <trkpt lat="39.901016" lon="116.633099">
        <time>2021-02-26T13:07:15Z</time>
      </trkpt>
      <trkpt lat="39.901039" lon="116.633046">
        <time>2021-02-26T13:07:20Z</time>
      </trkpt>
      <trkpt lat="39.900967" lon="116.632995">
        <time>2021-02-26T13:07:25Z</time>
      </trkpt>
      <trkpt lat="39.900911" lon="116.632884">
        <time>2021-02-26T13:07:30Z</time>
      </trkpt>
      <trkpt lat="39.900777" lon="116.632885">
        <time>2021-02-26T13:07:35Z</time>
      </trkpt>
      <trkpt lat="39.900647" lon="116.632995">
        <time>2021-02-26T13:07:40Z</time>
      </trkpt>
      <trkpt lat="39.900523" lon="116.633111">
        <time>2021-02-26T13:07:45Z</time>
      </trkpt>
      <trkpt lat="39.900406" lon="116.633195">
        <time>2021-02-26T13:07:50Z</time>
      </trkpt>
      <trkpt lat="39.900315" lon="116.633279">
        <time>2021-02-26T13:07:55Z</time>
      </trkpt>
      <trkpt lat="39.900222" lon="116.633287">
        <time>2021-02-26T13:08:00Z</time>
      </trkpt>
      <trkpt lat="39.900104" lon="116.633408">
        <time>2021-02-26T13:08:05Z</time>
      </trkpt>
      <trkpt lat="39.900009" lon="116.633554">
        <time>2021-02-26T13:08:10Z</time>
      </trkpt>
      <trkpt lat="39.899898" lon="116.633613">
        <time>2021-02-26T13:08:15Z</time>
      </trkpt>
      <trkpt lat="39.899781" lon="116.633679">
        <time>2021-02-26T13:08:20Z</time>
      </trkpt>
      <trkpt lat="39.899675" lon="116.633812">
        <time>2021-02-26T13:08:25Z</time>
      </trkpt>
      <trkpt lat="39.899498" lon="116.633919">
        <time>2021-02-26T13:08:30Z</time>
      </trkpt>
      <trkpt lat="39.899459" lon="116.633943">
        <time>2021-02-26T13:08:35Z</time>
      </trkpt>
      <trkpt lat="39.899342" lon="116.633977">
        <time>2021-02-26T13:08:40Z</time>
      </trkpt>
      <trkpt lat="39.899147" lon="116.634069">
        <time>2021-02-26T13:08:45Z</time>
      </trkpt>
      <trkpt lat="39.899126" lon="116.634073">
        <time>2021-02-26T13:08:50Z</time>
      </trkpt>
      <trkpt lat="39.899019" lon="116.634116">
        <time>2021-02-26T13:08:55Z</time>
      </trkpt>
      <trkpt lat="39.898907" lon="116.634184">
        <time>2021-02-26T13:09:00Z</time>
      </trkpt>
      <trkpt lat="39.898791" lon="116.634252">
        <time>2021-02-26T13:09:05Z</time>
      </trkpt>
      <trkpt lat="39.898693" lon="116.63432">
        <time>2021-02-26T13:09:10Z</time>
      </trkpt>
      <trkpt lat="39.898579" lon="116.634402">
        <time>2021-02-26T13:09:15Z</time>
      </trkpt>
      <trkpt lat="39.898464" lon="116.634484">
        <time>2021-02-26T13:09:20Z</time>
      </trkpt>
      <trkpt lat="39.898367" lon="116.634564">
        <time>2021-02-26T13:09:25Z</time>
      </trkpt>
      <trkpt lat="39.898267" lon="116.634636">
        <time>2021-02-26T13:09:30Z</time>
      </trkpt>
      <trkpt lat="39.898166" lon="116.634732">
        <time>2021-02-26T13:09:35Z</time>
      </trkpt>
      <trkpt lat="39.898063" lon="116.6348">
        <time>2021-02-26T13:09:40Z</time>
      </trkpt>
      <trkpt lat="39.898014" lon="116.634624">
        <time>2021-02-26T13:09:45Z</time>
      </trkpt>
      <trkpt lat="39.89799" lon="116.634425">
        <time>2021-02-26T13:09:50Z</time>
      </trkpt>
      <trkpt lat="39.89789" lon="116.634256">
        <time>2021-02-26T13:09:55Z</time>
      </trkpt>
      <trkpt lat="39.897758" lon="116.634101">
        <time>2021-02-26T13:10:00Z</time>
      </trkpt>
      <trkpt lat="39.897646" lon="116.63393">
        <time>2021-02-26T13:10:05Z</time>
      </trkpt>
      <trkpt lat="39.897599" lon="116.633728">
        <time>2021-02-26T13:10:10Z</time>
      </trkpt>
      <trkpt lat="39.897499" lon="116.633646">
        <time>2021-02-26T13:10:15Z</time>
      </trkpt>
      <trkpt lat="39.897452" lon="116.633683">
        <time>2021-02-26T13:10:20Z</time>
      </trkpt>
      <trkpt lat="39.897312" lon="116.633784">
        <time>2021-02-26T13:10:25Z</time>
      </trkpt>
      <trkpt lat="39.897243" lon="116.633697">
        <time>2021-02-26T13:10:30Z</time>
      </trkpt>
      <trkpt lat="39.897196" lon="116.633559">
        <time>2021-02-26T13:10:35Z</time>
      </trkpt>
      <trkpt lat="39.89715" lon="116.633417">
        <time>2021-02-26T13:10:40Z</time>
      </trkpt>
      <trkpt lat="39.897188" lon="116.63324">
        <time>2021-02-26T13:10:45Z</time>
      </trkpt>
      <trkpt lat="39.897198" lon="116.633223">
        <time>2021-02-26T13:10:50Z</time>
      </trkpt>
      <trkpt lat="39.897139" lon="116.633063">
        <time>2021-02-26T13:10:55Z</time>
      </trkpt>
      <trkpt lat="39.897037" lon="116.632934">
        <time>2021-02-26T13:11:00Z</time>
      </trkpt>
      <trkpt lat="39.896913" lon="116.632963">
        <time>2021-02-26T13:11:05Z</time>
      </trkpt>
      <trkpt lat="39.896844" lon="116.633074">
        <time>2021-02-26T13:11:10Z</time>
      </trkpt>
      <trkpt lat="39.89687" lon="116.633216">
        <time>2021-02-26T13:11:15Z</time>
      </trkpt>
      <trkpt lat="39.89691" lon="116.633357">
        <time>2021-02-26T13:11:20Z</time>
      </trkpt>
      <trkpt lat="39.896961" lon="116.633529">
        <time>2021-02-26T13:11:25Z</time>
      </trkpt>
      <trkpt lat="39.897047" lon="116.633644">
        <time>2021-02-26T13:11:30Z</time>
      </trkpt>
      <trkpt lat="39.897115" lon="116.633775">
        <time>2021-02-26T13:11:35Z</time>
      </trkpt>
      <trkpt lat="39.897203" lon="116.63393">
        <time>2021-02-26T13:11:40Z</time>
      </trkpt>
      <trkpt lat="39.897259" lon="116.634047">
        <time>2021-02-26T13:11:45Z</time>
      </trkpt>
      <trkpt lat="39.897345" lon="116.634167">
        <time>2021-02-26T13:11:50Z</time>
      </trkpt>
      <trkpt lat="39.897461" lon="116.634195">
        <time>2021-02-26T13:11:55Z</time>
      </trkpt>
      <trkpt lat="39.897554" lon="116.634226">
        <time>2021-02-26T13:12:00Z</time>
      </trkpt>
      <trkpt lat="39.897539" lon="116.634207">
        <time>2021-02-26T13:13:23Z</time>
      </trkpt>
    </trkseg>
  </trk>
</gpx>