<?xml version="1.0" encoding="UTF-8"?>
<gpx xmlns="http://www.topografix.com/GPX/1/1" xmlns:gpxtpx="http://www.garmin.com/xmlschemas/TrackPointExtension/v1" xmlns:xsi="http://www.w3.org/2001/XMLSchema-instance" xsi:schemaLocation="http://www.topografix.com/GPX/1/1 http://www.topografix.com/GPX/1/1/gpx.xsd" version="1.1" creator="gpx.py -- https://github.com/tkrajina/gpxpy">
  <trk>
    <name>gpx from keep</name>
    <trkseg>
      <trkpt lat="39.897908" lon="116.634718">
        <time>2021-03-07T11:16:18Z</time>
      </trkpt>
      <trkpt lat="39.897908" lon="116.634718">
        <time>2021-03-07T11:16:23Z</time>
      </trkpt>
      <trkpt lat="39.897918" lon="116.634767">
        <time>2021-03-07T11:16:28Z</time>
      </trkpt>
      <trkpt lat="39.89794" lon="116.634844">
        <time>2021-03-07T11:16:33Z</time>
      </trkpt>
      <trkpt lat="39.897944" lon="116.634841">
        <time>2021-03-07T11:16:38Z</time>
      </trkpt>
      <trkpt lat="39.897941" lon="116.634836">
        <time>2021-03-07T11:16:43Z</time>
      </trkpt>
      <trkpt lat="39.897971" lon="116.634844">
        <time>2021-03-07T11:16:48Z</time>
      </trkpt>
      <trkpt lat="39.89798" lon="116.634864">
        <time>2021-03-07T11:16:53Z</time>
      </trkpt>
      <trkpt lat="39.897972" lon="116.634855">
        <time>2021-03-07T11:16:58Z</time>
      </trkpt>
      <trkpt lat="39.89797" lon="116.634786">
        <time>2021-03-07T11:17:03Z</time>
      </trkpt>
      <trkpt lat="39.897967" lon="116.634753">
        <time>2021-03-07T11:17:08Z</time>
      </trkpt>
      <trkpt lat="39.897984" lon="116.634802">
        <time>2021-03-07T11:17:13Z</time>
      </trkpt>
      <trkpt lat="39.898028" lon="116.634893">
        <time>2021-03-07T11:17:18Z</time>
      </trkpt>
      <trkpt lat="39.898118" lon="116.635016">
        <time>2021-03-07T11:17:23Z</time>
      </trkpt>
      <trkpt lat="39.898173" lon="116.635125">
        <time>2021-03-07T11:17:28Z</time>
      </trkpt>
      <trkpt lat="39.8981" lon="116.635157">
        <time>2021-03-07T11:17:33Z</time>
      </trkpt>
      <trkpt lat="39.898006" lon="116.635154">
        <time>2021-03-07T11:17:38Z</time>
      </trkpt>
      <trkpt lat="39.897914" lon="116.635218">
        <time>2021-03-07T11:17:43Z</time>
      </trkpt>
      <trkpt lat="39.897801" lon="116.635343">
        <time>2021-03-07T11:17:48Z</time>
      </trkpt>
      <trkpt lat="39.897707" lon="116.635336">
        <time>2021-03-07T11:17:53Z</time>
      </trkpt>
      <trkpt lat="39.897572" lon="116.635375">
        <time>2021-03-07T11:17:58Z</time>
      </trkpt>
      <trkpt lat="39.897437" lon="116.635452">
        <time>2021-03-07T11:18:03Z</time>
      </trkpt>
      <trkpt lat="39.897345" lon="116.635565">
        <time>2021-03-07T11:18:08Z</time>
      </trkpt>
      <trkpt lat="39.897275" lon="116.635593">
        <time>2021-03-07T11:18:13Z</time>
      </trkpt>
      <trkpt lat="39.897177" lon="116.635649">
        <time>2021-03-07T11:18:18Z</time>
      </trkpt>
      <trkpt lat="39.897002" lon="116.635707">
        <time>2021-03-07T11:18:23Z</time>
      </trkpt>
      <trkpt lat="39.896974" lon="116.635729">
        <time>2021-03-07T11:18:28Z</time>
      </trkpt>
      <trkpt lat="39.896864" lon="116.635813">
        <time>2021-03-07T11:18:33Z</time>
      </trkpt>
      <trkpt lat="39.896768" lon="116.635911">
        <time>2021-03-07T11:18:38Z</time>
      </trkpt>
      <trkpt lat="39.896668" lon="116.635997">
        <time>2021-03-07T11:18:43Z</time>
      </trkpt>
      <trkpt lat="39.896492" lon="116.636114">
        <time>2021-03-07T11:18:48Z</time>
      </trkpt>
      <trkpt lat="39.896439" lon="116.636135">
        <time>2021-03-07T11:18:53Z</time>
      </trkpt>
      <trkpt lat="39.896348" lon="116.636197">
        <time>2021-03-07T11:18:58Z</time>
      </trkpt>
      <trkpt lat="39.896291" lon="116.636179">
        <time>2021-03-07T11:19:03Z</time>
      </trkpt>
      <trkpt lat="39.896176" lon="116.636168">
        <time>2021-03-07T11:19:08Z</time>
      </trkpt>
      <trkpt lat="39.896119" lon="116.636258">
        <time>2021-03-07T11:19:13Z</time>
      </trkpt>
      <trkpt lat="39.89609" lon="116.636359">
        <time>2021-03-07T11:19:18Z</time>
      </trkpt>
      <trkpt lat="39.89607" lon="116.636426">
        <time>2021-03-07T11:19:23Z</time>
      </trkpt>
      <trkpt lat="39.896068" lon="116.636459">
        <time>2021-03-07T11:19:28Z</time>
      </trkpt>
      <trkpt lat="39.896068" lon="116.636459">
        <time>2021-03-07T11:19:33Z</time>
      </trkpt>
      <trkpt lat="39.896076" lon="116.636524">
        <time>2021-03-07T11:19:38Z</time>
      </trkpt>
      <trkpt lat="39.896072" lon="116.636519">
        <time>2021-03-07T11:19:43Z</time>
      </trkpt>
      <trkpt lat="39.896057" lon="116.636518">
        <time>2021-03-07T11:19:48Z</time>
      </trkpt>
      <trkpt lat="39.896057" lon="116.636516">
        <time>2021-03-07T11:19:53Z</time>
      </trkpt>
      <trkpt lat="39.896056" lon="116.636504">
        <time>2021-03-07T11:19:58Z</time>
      </trkpt>
      <trkpt lat="39.896053" lon="116.636519">
        <time>2021-03-07T11:20:03Z</time>
      </trkpt>
      <trkpt lat="39.89604" lon="116.636529">
        <time>2021-03-07T11:20:08Z</time>
      </trkpt>
      <trkpt lat="39.896043" lon="116.636552">
        <time>2021-03-07T11:20:13Z</time>
      </trkpt>
      <trkpt lat="39.896018" lon="116.636612">
        <time>2021-03-07T11:20:18Z</time>
      </trkpt>
      <trkpt lat="39.895961" lon="116.636658">
        <time>2021-03-07T11:20:23Z</time>
      </trkpt>
      <trkpt lat="39.89598" lon="116.63678">
        <time>2021-03-07T11:20:28Z</time>
      </trkpt>
      <trkpt lat="39.896009" lon="116.636886">
        <time>2021-03-07T11:20:33Z</time>
      </trkpt>
      <trkpt lat="39.896066" lon="116.637007">
        <time>2021-03-07T11:20:38Z</time>
      </trkpt>
      <trkpt lat="39.896103" lon="116.637131">
        <time>2021-03-07T11:20:43Z</time>
      </trkpt>
      <trkpt lat="39.896111" lon="116.637273">
        <time>2021-03-07T11:20:48Z</time>
      </trkpt>
      <trkpt lat="39.896156" lon="116.63743">
        <time>2021-03-07T11:20:53Z</time>
      </trkpt>
      <trkpt lat="39.896167" lon="116.637574">
        <time>2021-03-07T11:20:58Z</time>
      </trkpt>
      <trkpt lat="39.896165" lon="116.63772">
        <time>2021-03-07T11:21:03Z</time>
      </trkpt>
      <trkpt lat="39.896147" lon="116.637863">
        <time>2021-03-07T11:21:08Z</time>
      </trkpt>
      <trkpt lat="39.896173" lon="116.637997">
        <time>2021-03-07T11:21:13Z</time>
      </trkpt>
      <trkpt lat="39.896173" lon="116.638092">
        <time>2021-03-07T11:21:18Z</time>
      </trkpt>
      <trkpt lat="39.896183" lon="116.638162">
        <time>2021-03-07T11:21:23Z</time>
      </trkpt>
      <trkpt lat="39.896194" lon="116.638274">
        <time>2021-03-07T11:21:28Z</time>
      </trkpt>
      <trkpt lat="39.896178" lon="116.638375">
        <time>2021-03-07T11:21:33Z</time>
      </trkpt>
      <trkpt lat="39.89618" lon="116.638545">
        <time>2021-03-07T11:21:38Z</time>
      </trkpt>
      <trkpt lat="39.896189" lon="116.63871">
        <time>2021-03-07T11:21:43Z</time>
      </trkpt>
      <trkpt lat="39.896194" lon="116.638861">
        <time>2021-03-07T11:21:48Z</time>
      </trkpt>
      <trkpt lat="39.896209" lon="116.638996">
        <time>2021-03-07T11:21:53Z</time>
      </trkpt>
      <trkpt lat="39.896219" lon="116.639128">
        <time>2021-03-07T11:21:58Z</time>
      </trkpt>
      <trkpt lat="39.896239" lon="116.639274">
        <time>2021-03-07T11:22:03Z</time>
      </trkpt>
      <trkpt lat="39.896254" lon="116.63939">
        <time>2021-03-07T11:22:08Z</time>
      </trkpt>
      <trkpt lat="39.896248" lon="116.639511">
        <time>2021-03-07T11:22:13Z</time>
      </trkpt>
      <trkpt lat="39.896193" lon="116.639573">
        <time>2021-03-07T11:22:18Z</time>
      </trkpt>
      <trkpt lat="39.896193" lon="116.639573">
        <time>2021-03-07T11:22:23Z</time>
      </trkpt>
      <trkpt lat="39.896291" lon="116.6395">
        <time>2021-03-07T11:22:28Z</time>
      </trkpt>
      <trkpt lat="39.896283" lon="116.639527">
        <time>2021-03-07T11:22:33Z</time>
      </trkpt>
      <trkpt lat="39.896281" lon="116.639672">
        <time>2021-03-07T11:22:38Z</time>
      </trkpt>
      <trkpt lat="39.896276" lon="116.639837">
        <time>2021-03-07T11:22:43Z</time>
      </trkpt>
      <trkpt lat="39.896273" lon="116.639974">
        <time>2021-03-07T11:22:48Z</time>
      </trkpt>
      <trkpt lat="39.896276" lon="116.640092">
        <time>2021-03-07T11:22:53Z</time>
      </trkpt>
      <trkpt lat="39.896273" lon="116.640212">
        <time>2021-03-07T11:22:58Z</time>
      </trkpt>
      <trkpt lat="39.896272" lon="116.640345">
        <time>2021-03-07T11:23:03Z</time>
      </trkpt>
      <trkpt lat="39.896258" lon="116.6405">
        <time>2021-03-07T11:23:08Z</time>
      </trkpt>
      <trkpt lat="39.896258" lon="116.640679">
        <time>2021-03-07T11:23:13Z</time>
      </trkpt>
      <trkpt lat="39.896265" lon="116.640838">
        <time>2021-03-07T11:23:18Z</time>
      </trkpt>
      <trkpt lat="39.896251" lon="116.640987">
        <time>2021-03-07T11:23:23Z</time>
      </trkpt>
      <trkpt lat="39.896271" lon="116.641116">
        <time>2021-03-07T11:23:28Z</time>
      </trkpt>
      <trkpt lat="39.896277" lon="116.641256">
        <time>2021-03-07T11:23:33Z</time>
      </trkpt>
      <trkpt lat="39.89626" lon="116.641395">
        <time>2021-03-07T11:23:38Z</time>
      </trkpt>
      <trkpt lat="39.896247" lon="116.641497">
        <time>2021-03-07T11:23:43Z</time>
      </trkpt>
      <trkpt lat="39.896261" lon="116.641616">
        <time>2021-03-07T11:23:48Z</time>
      </trkpt>
      <trkpt lat="39.896294" lon="116.641769">
        <time>2021-03-07T11:23:53Z</time>
      </trkpt>
      <trkpt lat="39.896262" lon="116.641912">
        <time>2021-03-07T11:23:58Z</time>
      </trkpt>
      <trkpt lat="39.896253" lon="116.642053">
        <time>2021-03-07T11:24:03Z</time>
      </trkpt>
      <trkpt lat="39.896256" lon="116.642195">
        <time>2021-03-07T11:24:08Z</time>
      </trkpt>
      <trkpt lat="39.896254" lon="116.64232">
        <time>2021-03-07T11:24:13Z</time>
      </trkpt>
      <trkpt lat="39.896245" lon="116.642477">
        <time>2021-03-07T11:24:18Z</time>
      </trkpt>
      <trkpt lat="39.896238" lon="116.642633">
        <time>2021-03-07T11:24:23Z</time>
      </trkpt>
      <trkpt lat="39.896214" lon="116.642762">
        <time>2021-03-07T11:24:28Z</time>
      </trkpt>
      <trkpt lat="39.896194" lon="116.642879">
        <time>2021-03-07T11:24:33Z</time>
      </trkpt>
      <trkpt lat="39.896205" lon="116.643013">
        <time>2021-03-07T11:24:38Z</time>
      </trkpt>
      <trkpt lat="39.896224" lon="116.643146">
        <time>2021-03-07T11:24:43Z</time>
      </trkpt>
      <trkpt lat="39.896202" lon="116.643265">
        <time>2021-03-07T11:24:48Z</time>
      </trkpt>
      <trkpt lat="39.896187" lon="116.643402">
        <time>2021-03-07T11:24:53Z</time>
      </trkpt>
      <trkpt lat="39.896195" lon="116.643535">
        <time>2021-03-07T11:24:58Z</time>
      </trkpt>
      <trkpt lat="39.896223" lon="116.64365">
        <time>2021-03-07T11:25:03Z</time>
      </trkpt>
      <trkpt lat="39.896213" lon="116.643754">
        <time>2021-03-07T11:25:08Z</time>
      </trkpt>
      <trkpt lat="39.896235" lon="116.643896">
        <time>2021-03-07T11:25:13Z</time>
      </trkpt>
      <trkpt lat="39.896237" lon="116.644047">
        <time>2021-03-07T11:25:18Z</time>
      </trkpt>
      <trkpt lat="39.896233" lon="116.644198">
        <time>2021-03-07T11:25:23Z</time>
      </trkpt>
      <trkpt lat="39.89623" lon="116.644333">
        <time>2021-03-07T11:25:28Z</time>
      </trkpt>
      <trkpt lat="39.896218" lon="116.644472">
        <time>2021-03-07T11:25:33Z</time>
      </trkpt>
      <trkpt lat="39.896248" lon="116.644578">
        <time>2021-03-07T11:25:38Z</time>
      </trkpt>
      <trkpt lat="39.896245" lon="116.644694">
        <time>2021-03-07T11:25:43Z</time>
      </trkpt>
      <trkpt lat="39.89623" lon="116.644828">
        <time>2021-03-07T11:25:48Z</time>
      </trkpt>
      <trkpt lat="39.896232" lon="116.644974">
        <time>2021-03-07T11:25:53Z</time>
      </trkpt>
      <trkpt lat="39.896212" lon="116.645123">
        <time>2021-03-07T11:25:58Z</time>
      </trkpt>
      <trkpt lat="39.896186" lon="116.645261">
        <time>2021-03-07T11:26:03Z</time>
      </trkpt>
      <trkpt lat="39.896172" lon="116.645384">
        <time>2021-03-07T11:26:08Z</time>
      </trkpt>
      <trkpt lat="39.896157" lon="116.645531">
        <time>2021-03-07T11:26:13Z</time>
      </trkpt>
      <trkpt lat="39.896146" lon="116.645619">
        <time>2021-03-07T11:26:18Z</time>
      </trkpt>
      <trkpt lat="39.89612" lon="116.645745">
        <time>2021-03-07T11:26:23Z</time>
      </trkpt>
      <trkpt lat="39.896091" lon="116.645888">
        <time>2021-03-07T11:26:28Z</time>
      </trkpt>
      <trkpt lat="39.89608" lon="116.646048">
        <time>2021-03-07T11:26:33Z</time>
      </trkpt>
      <trkpt lat="39.896062" lon="116.646207">
        <time>2021-03-07T11:26:38Z</time>
      </trkpt>
      <trkpt lat="39.89605" lon="116.646321">
        <time>2021-03-07T11:26:43Z</time>
      </trkpt>
      <trkpt lat="39.896043" lon="116.646451">
        <time>2021-03-07T11:26:48Z</time>
      </trkpt>
      <trkpt lat="39.896043" lon="116.646585">
        <time>2021-03-07T11:26:53Z</time>
      </trkpt>
      <trkpt lat="39.896035" lon="116.646724">
        <time>2021-03-07T11:26:58Z</time>
      </trkpt>
      <trkpt lat="39.895992" lon="116.64685">
        <time>2021-03-07T11:27:03Z</time>
      </trkpt>
      <trkpt lat="39.895884" lon="116.646875">
        <time>2021-03-07T11:27:08Z</time>
      </trkpt>
      <trkpt lat="39.895759" lon="116.646812">
        <time>2021-03-07T11:27:13Z</time>
      </trkpt>
      <trkpt lat="39.89565" lon="116.646741">
        <time>2021-03-07T11:27:18Z</time>
      </trkpt>
      <trkpt lat="39.895551" lon="116.646681">
        <time>2021-03-07T11:27:23Z</time>
      </trkpt>
      <trkpt lat="39.895439" lon="116.646651">
        <time>2021-03-07T11:27:28Z</time>
      </trkpt>
      <trkpt lat="39.895332" lon="116.646626">
        <time>2021-03-07T11:27:33Z</time>
      </trkpt>
      <trkpt lat="39.895234" lon="116.646592">
        <time>2021-03-07T11:27:38Z</time>
      </trkpt>
      <trkpt lat="39.895149" lon="116.646542">
        <time>2021-03-07T11:27:43Z</time>
      </trkpt>
      <trkpt lat="39.895117" lon="116.646496">
        <time>2021-03-07T11:27:48Z</time>
      </trkpt>
      <trkpt lat="39.895064" lon="116.646422">
        <time>2021-03-07T11:27:53Z</time>
      </trkpt>
      <trkpt lat="39.894905" lon="116.646361">
        <time>2021-03-07T11:27:58Z</time>
      </trkpt>
      <trkpt lat="39.894834" lon="116.646343">
        <time>2021-03-07T11:28:03Z</time>
      </trkpt>
      <trkpt lat="39.894716" lon="116.646332">
        <time>2021-03-07T11:28:08Z</time>
      </trkpt>
      <trkpt lat="39.894607" lon="116.646356">
        <time>2021-03-07T11:28:13Z</time>
      </trkpt>
      <trkpt lat="39.894501" lon="116.646337">
        <time>2021-03-07T11:28:18Z</time>
      </trkpt>
      <trkpt lat="39.894407" lon="116.646247">
        <time>2021-03-07T11:28:23Z</time>
      </trkpt>
      <trkpt lat="39.894323" lon="116.646201">
        <time>2021-03-07T11:28:28Z</time>
      </trkpt>
      <trkpt lat="39.894244" lon="116.646113">
        <time>2021-03-07T11:28:33Z</time>
      </trkpt>
      <trkpt lat="39.894103" lon="116.646005">
        <time>2021-03-07T11:28:38Z</time>
      </trkpt>
      <trkpt lat="39.894037" lon="116.645997">
        <time>2021-03-07T11:28:43Z</time>
      </trkpt>
      <trkpt lat="39.893957" lon="116.645971">
        <time>2021-03-07T11:28:48Z</time>
      </trkpt>
      <trkpt lat="39.893877" lon="116.645995">
        <time>2021-03-07T11:28:53Z</time>
      </trkpt>
      <trkpt lat="39.893804" lon="116.646131">
        <time>2021-03-07T11:28:58Z</time>
      </trkpt>
      <trkpt lat="39.893751" lon="116.646267">
        <time>2021-03-07T11:29:03Z</time>
      </trkpt>
      <trkpt lat="39.893681" lon="116.646262">
        <time>2021-03-07T11:29:08Z</time>
      </trkpt>
      <trkpt lat="39.893619" lon="116.64627">
        <time>2021-03-07T11:29:13Z</time>
      </trkpt>
      <trkpt lat="39.893416" lon="116.646312">
        <time>2021-03-07T11:29:18Z</time>
      </trkpt>
      <trkpt lat="39.893392" lon="116.646309">
        <time>2021-03-07T11:29:23Z</time>
      </trkpt>
      <trkpt lat="39.893221" lon="116.646254">
        <time>2021-03-07T11:29:28Z</time>
      </trkpt>
      <trkpt lat="39.893184" lon="116.646251">
        <time>2021-03-07T11:29:33Z</time>
      </trkpt>
      <trkpt lat="39.893104" lon="116.64621">
        <time>2021-03-07T11:29:38Z</time>
      </trkpt>
      <trkpt lat="39.89298" lon="116.646157">
        <time>2021-03-07T11:29:43Z</time>
      </trkpt>
      <trkpt lat="39.892908" lon="116.646102">
        <time>2021-03-07T11:29:48Z</time>
      </trkpt>
      <trkpt lat="39.892815" lon="116.646035">
        <time>2021-03-07T11:29:53Z</time>
      </trkpt>
      <trkpt lat="39.892728" lon="116.645961">
        <time>2021-03-07T11:29:58Z</time>
      </trkpt>
      <trkpt lat="39.892634" lon="116.645921">
        <time>2021-03-07T11:30:03Z</time>
      </trkpt>
      <trkpt lat="39.89255" lon="116.645848">
        <time>2021-03-07T11:30:08Z</time>
      </trkpt>
      <trkpt lat="39.89245" lon="116.645834">
        <time>2021-03-07T11:30:13Z</time>
      </trkpt>
      <trkpt lat="39.892347" lon="116.645828">
        <time>2021-03-07T11:30:18Z</time>
      </trkpt>
      <trkpt lat="39.892256" lon="116.645765">
        <time>2021-03-07T11:30:23Z</time>
      </trkpt>
      <trkpt lat="39.892171" lon="116.645699">
        <time>2021-03-07T11:30:28Z</time>
      </trkpt>
      <trkpt lat="39.89207" lon="116.64566">
        <time>2021-03-07T11:30:33Z</time>
      </trkpt>
      <trkpt lat="39.891967" lon="116.645607">
        <time>2021-03-07T11:30:38Z</time>
      </trkpt>
      <trkpt lat="39.89185" lon="116.645625">
        <time>2021-03-07T11:30:43Z</time>
      </trkpt>
      <trkpt lat="39.891757" lon="116.645555">
        <time>2021-03-07T11:30:48Z</time>
      </trkpt>
      <trkpt lat="39.891681" lon="116.645463">
        <time>2021-03-07T11:30:53Z</time>
      </trkpt>
      <trkpt lat="39.891593" lon="116.645368">
        <time>2021-03-07T11:30:58Z</time>
      </trkpt>
      <trkpt lat="39.89151" lon="116.645382">
        <time>2021-03-07T11:31:03Z</time>
      </trkpt>
      <trkpt lat="39.891545" lon="116.645455">
        <time>2021-03-07T11:31:08Z</time>
      </trkpt>
      <trkpt lat="39.891612" lon="116.645512">
        <time>2021-03-07T11:31:13Z</time>
      </trkpt>
      <trkpt lat="39.891754" lon="116.645547">
        <time>2021-03-07T11:31:18Z</time>
      </trkpt>
      <trkpt lat="39.891892" lon="116.645553">
        <time>2021-03-07T11:31:23Z</time>
      </trkpt>
      <trkpt lat="39.892014" lon="116.645587">
        <time>2021-03-07T11:31:28Z</time>
      </trkpt>
      <trkpt lat="39.892145" lon="116.645629">
        <time>2021-03-07T11:31:33Z</time>
      </trkpt>
      <trkpt lat="39.892256" lon="116.64568">
        <time>2021-03-07T11:31:38Z</time>
      </trkpt>
      <trkpt lat="39.892347" lon="116.645712">
        <time>2021-03-07T11:31:43Z</time>
      </trkpt>
      <trkpt lat="39.892413" lon="116.64577">
        <time>2021-03-07T11:31:48Z</time>
      </trkpt>
      <trkpt lat="39.89249" lon="116.645819">
        <time>2021-03-07T11:31:53Z</time>
      </trkpt>
      <trkpt lat="39.892606" lon="116.645861">
        <time>2021-03-07T11:31:58Z</time>
      </trkpt>
      <trkpt lat="39.892709" lon="116.645903">
        <time>2021-03-07T11:32:03Z</time>
      </trkpt>
      <trkpt lat="39.892825" lon="116.645912">
        <time>2021-03-07T11:32:08Z</time>
      </trkpt>
      <trkpt lat="39.892931" lon="116.645928">
        <time>2021-03-07T11:32:13Z</time>
      </trkpt>
      <trkpt lat="39.893032" lon="116.645981">
        <time>2021-03-07T11:32:18Z</time>
      </trkpt>
      <trkpt lat="39.893119" lon="116.646064">
        <time>2021-03-07T11:32:23Z</time>
      </trkpt>
      <trkpt lat="39.893205" lon="116.646132">
        <time>2021-03-07T11:32:28Z</time>
      </trkpt>
      <trkpt lat="39.893305" lon="116.646157">
        <time>2021-03-07T11:32:33Z</time>
      </trkpt>
      <trkpt lat="39.893409" lon="116.646209">
        <time>2021-03-07T11:32:38Z</time>
      </trkpt>
      <trkpt lat="39.893542" lon="116.646358">
        <time>2021-03-07T11:32:43Z</time>
      </trkpt>
      <trkpt lat="39.893561" lon="116.646374">
        <time>2021-03-07T11:32:48Z</time>
      </trkpt>
      <trkpt lat="39.893667" lon="116.646373">
        <time>2021-03-07T11:32:53Z</time>
      </trkpt>
      <trkpt lat="39.893744" lon="116.646235">
        <time>2021-03-07T11:32:58Z</time>
      </trkpt>
      <trkpt lat="39.89382" lon="116.646122">
        <time>2021-03-07T11:33:03Z</time>
      </trkpt>
      <trkpt lat="39.893859" lon="116.646008">
        <time>2021-03-07T11:33:08Z</time>
      </trkpt>
      <trkpt lat="39.893922" lon="116.645894">
        <time>2021-03-07T11:33:13Z</time>
      </trkpt>
      <trkpt lat="39.894032" lon="116.645929">
        <time>2021-03-07T11:33:18Z</time>
      </trkpt>
      <trkpt lat="39.894132" lon="116.646017">
        <time>2021-03-07T11:33:23Z</time>
      </trkpt>
      <trkpt lat="39.894267" lon="116.646072">
        <time>2021-03-07T11:33:28Z</time>
      </trkpt>
      <trkpt lat="39.894331" lon="116.646128">
        <time>2021-03-07T11:33:33Z</time>
      </trkpt>
      <trkpt lat="39.894422" lon="116.646176">
        <time>2021-03-07T11:33:38Z</time>
      </trkpt>
      <trkpt lat="39.894517" lon="116.646214">
        <time>2021-03-07T11:33:43Z</time>
      </trkpt>
      <trkpt lat="39.894692" lon="116.646296">
        <time>2021-03-07T11:33:48Z</time>
      </trkpt>
      <trkpt lat="39.894737" lon="116.646317">
        <time>2021-03-07T11:33:53Z</time>
      </trkpt>
      <trkpt lat="39.894846" lon="116.646333">
        <time>2021-03-07T11:33:58Z</time>
      </trkpt>
      <trkpt lat="39.894935" lon="116.646367">
        <time>2021-03-07T11:34:03Z</time>
      </trkpt>
      <trkpt lat="39.895032" lon="116.646427">
        <time>2021-03-07T11:34:08Z</time>
      </trkpt>
      <trkpt lat="39.895147" lon="116.646465">
        <time>2021-03-07T11:34:13Z</time>
      </trkpt>
      <trkpt lat="39.895243" lon="116.646502">
        <time>2021-03-07T11:34:18Z</time>
      </trkpt>
      <trkpt lat="39.89532" lon="116.646549">
        <time>2021-03-07T11:34:23Z</time>
      </trkpt>
      <trkpt lat="39.895454" lon="116.646578">
        <time>2021-03-07T11:34:28Z</time>
      </trkpt>
      <trkpt lat="39.895516" lon="116.646594">
        <time>2021-03-07T11:34:33Z</time>
      </trkpt>
      <trkpt lat="39.895597" lon="116.64668">
        <time>2021-03-07T11:34:38Z</time>
      </trkpt>
      <trkpt lat="39.895686" lon="116.646742">
        <time>2021-03-07T11:34:43Z</time>
      </trkpt>
      <trkpt lat="39.895789" lon="116.646776">
        <time>2021-03-07T11:34:48Z</time>
      </trkpt>
      <trkpt lat="39.895909" lon="116.646807">
        <time>2021-03-07T11:34:53Z</time>
      </trkpt>
      <trkpt lat="39.896016" lon="116.646819">
        <time>2021-03-07T11:34:58Z</time>
      </trkpt>
      <trkpt lat="39.896074" lon="116.646705">
        <time>2021-03-07T11:35:03Z</time>
      </trkpt>
      <trkpt lat="39.896066" lon="116.646552">
        <time>2021-03-07T11:35:08Z</time>
      </trkpt>
      <trkpt lat="39.89604" lon="116.6464">
        <time>2021-03-07T11:35:13Z</time>
      </trkpt>
      <trkpt lat="39.896016" lon="116.646243">
        <time>2021-03-07T11:35:18Z</time>
      </trkpt>
      <trkpt lat="39.896002" lon="116.6461">
        <time>2021-03-07T11:35:23Z</time>
      </trkpt>
      <trkpt lat="39.89604" lon="116.645975">
        <time>2021-03-07T11:35:28Z</time>
      </trkpt>
      <trkpt lat="39.89604" lon="116.645826">
        <time>2021-03-07T11:35:33Z</time>
      </trkpt>
      <trkpt lat="39.89604" lon="116.645683">
        <time>2021-03-07T11:35:38Z</time>
      </trkpt>
      <trkpt lat="39.896062" lon="116.645559">
        <time>2021-03-07T11:35:43Z</time>
      </trkpt>
      <trkpt lat="39.896082" lon="116.645432">
        <time>2021-03-07T11:35:48Z</time>
      </trkpt>
      <trkpt lat="39.896118" lon="116.645339">
        <time>2021-03-07T11:35:53Z</time>
      </trkpt>
      <trkpt lat="39.896139" lon="116.645223">
        <time>2021-03-07T11:35:58Z</time>
      </trkpt>
      <trkpt lat="39.896133" lon="116.645082">
        <time>2021-03-07T11:36:03Z</time>
      </trkpt>
      <trkpt lat="39.896135" lon="116.644945">
        <time>2021-03-07T11:36:08Z</time>
      </trkpt>
      <trkpt lat="39.896142" lon="116.644809">
        <time>2021-03-07T11:36:13Z</time>
      </trkpt>
      <trkpt lat="39.89616" lon="116.644681">
        <time>2021-03-07T11:36:18Z</time>
      </trkpt>
      <trkpt lat="39.896173" lon="116.644561">
        <time>2021-03-07T11:36:23Z</time>
      </trkpt>
      <trkpt lat="39.896165" lon="116.644431">
        <time>2021-03-07T11:36:28Z</time>
      </trkpt>
      <trkpt lat="39.896162" lon="116.644283">
        <time>2021-03-07T11:36:33Z</time>
      </trkpt>
      <trkpt lat="39.896136" lon="116.644143">
        <time>2021-03-07T11:36:38Z</time>
      </trkpt>
      <trkpt lat="39.896143" lon="116.644015">
        <time>2021-03-07T11:36:43Z</time>
      </trkpt>
      <trkpt lat="39.896139" lon="116.643892">
        <time>2021-03-07T11:36:48Z</time>
      </trkpt>
      <trkpt lat="39.896144" lon="116.643759">
        <time>2021-03-07T11:36:53Z</time>
      </trkpt>
      <trkpt lat="39.896137" lon="116.643617">
        <time>2021-03-07T11:36:58Z</time>
      </trkpt>
      <trkpt lat="39.896152" lon="116.643497">
        <time>2021-03-07T11:37:03Z</time>
      </trkpt>
      <trkpt lat="39.896154" lon="116.643354">
        <time>2021-03-07T11:37:08Z</time>
      </trkpt>
      <trkpt lat="39.89616" lon="116.643225">
        <time>2021-03-07T11:37:13Z</time>
      </trkpt>
      <trkpt lat="39.896175" lon="116.643075">
        <time>2021-03-07T11:37:18Z</time>
      </trkpt>
      <trkpt lat="39.896163" lon="116.642931">
        <time>2021-03-07T11:37:23Z</time>
      </trkpt>
      <trkpt lat="39.896173" lon="116.642804">
        <time>2021-03-07T11:37:28Z</time>
      </trkpt>
      <trkpt lat="39.896177" lon="116.642696">
        <time>2021-03-07T11:37:33Z</time>
      </trkpt>
      <trkpt lat="39.896152" lon="116.642476">
        <time>2021-03-07T11:37:38Z</time>
      </trkpt>
      <trkpt lat="39.896153" lon="116.642445">
        <time>2021-03-07T11:37:43Z</time>
      </trkpt>
      <trkpt lat="39.896145" lon="116.642294">
        <time>2021-03-07T11:37:48Z</time>
      </trkpt>
      <trkpt lat="39.896154" lon="116.642187">
        <time>2021-03-07T11:37:53Z</time>
      </trkpt>
      <trkpt lat="39.89614" lon="116.642057">
        <time>2021-03-07T11:37:58Z</time>
      </trkpt>
      <trkpt lat="39.896158" lon="116.641944">
        <time>2021-03-07T11:38:03Z</time>
      </trkpt>
      <trkpt lat="39.896168" lon="116.641817">
        <time>2021-03-07T11:38:08Z</time>
      </trkpt>
      <trkpt lat="39.896176" lon="116.641675">
        <time>2021-03-07T11:38:13Z</time>
      </trkpt>
      <trkpt lat="39.896182" lon="116.641535">
        <time>2021-03-07T11:38:18Z</time>
      </trkpt>
      <trkpt lat="39.896201" lon="116.641424">
        <time>2021-03-07T11:38:23Z</time>
      </trkpt>
      <trkpt lat="39.896211" lon="116.641301">
        <time>2021-03-07T11:38:28Z</time>
      </trkpt>
      <trkpt lat="39.896208" lon="116.641149">
        <time>2021-03-07T11:38:33Z</time>
      </trkpt>
      <trkpt lat="39.896184" lon="116.641018">
        <time>2021-03-07T11:38:38Z</time>
      </trkpt>
      <trkpt lat="39.896166" lon="116.640863">
        <time>2021-03-07T11:38:43Z</time>
      </trkpt>
      <trkpt lat="39.896177" lon="116.640737">
        <time>2021-03-07T11:38:48Z</time>
      </trkpt>
      <trkpt lat="39.896197" lon="116.640599">
        <time>2021-03-07T11:38:53Z</time>
      </trkpt>
      <trkpt lat="39.896206" lon="116.640447">
        <time>2021-03-07T11:38:58Z</time>
      </trkpt>
      <trkpt lat="39.896224" lon="116.640322">
        <time>2021-03-07T11:39:03Z</time>
      </trkpt>
      <trkpt lat="39.896238" lon="116.6402">
        <time>2021-03-07T11:39:08Z</time>
      </trkpt>
      <trkpt lat="39.896196" lon="116.640053">
        <time>2021-03-07T11:39:13Z</time>
      </trkpt>
      <trkpt lat="39.896201" lon="116.63992">
        <time>2021-03-07T11:39:18Z</time>
      </trkpt>
      <trkpt lat="39.896181" lon="116.639773">
        <time>2021-03-07T11:39:23Z</time>
      </trkpt>
      <trkpt lat="39.896207" lon="116.639643">
        <time>2021-03-07T11:39:28Z</time>
      </trkpt>
      <trkpt lat="39.896195" lon="116.639496">
        <time>2021-03-07T11:39:33Z</time>
      </trkpt>
      <trkpt lat="39.896199" lon="116.639347">
        <time>2021-03-07T11:39:38Z</time>
      </trkpt>
      <trkpt lat="39.896199" lon="116.639214">
        <time>2021-03-07T11:39:43Z</time>
      </trkpt>
      <trkpt lat="39.896174" lon="116.63904">
        <time>2021-03-07T11:39:48Z</time>
      </trkpt>
      <trkpt lat="39.896148" lon="116.638883">
        <time>2021-03-07T11:39:53Z</time>
      </trkpt>
      <trkpt lat="39.896123" lon="116.63875">
        <time>2021-03-07T11:39:58Z</time>
      </trkpt>
      <trkpt lat="39.896117" lon="116.638618">
        <time>2021-03-07T11:40:03Z</time>
      </trkpt>
      <trkpt lat="39.89611" lon="116.638467">
        <time>2021-03-07T11:40:08Z</time>
      </trkpt>
      <trkpt lat="39.896113" lon="116.638328">
        <time>2021-03-07T11:40:13Z</time>
      </trkpt>
      <trkpt lat="39.896083" lon="116.638176">
        <time>2021-03-07T11:40:18Z</time>
      </trkpt>
      <trkpt lat="39.896075" lon="116.638064">
        <time>2021-03-07T11:40:23Z</time>
      </trkpt>
      <trkpt lat="39.896077" lon="116.637928">
        <time>2021-03-07T11:40:28Z</time>
      </trkpt>
      <trkpt lat="39.896089" lon="116.637789">
        <time>2021-03-07T11:40:33Z</time>
      </trkpt>
      <trkpt lat="39.896078" lon="116.637632">
        <time>2021-03-07T11:40:38Z</time>
      </trkpt>
      <trkpt lat="39.89608" lon="116.637488">
        <time>2021-03-07T11:40:43Z</time>
      </trkpt>
      <trkpt lat="39.896094" lon="116.63736">
        <time>2021-03-07T11:40:48Z</time>
      </trkpt>
      <trkpt lat="39.896083" lon="116.637212">
        <time>2021-03-07T11:40:53Z</time>
      </trkpt>
      <trkpt lat="39.896102" lon="116.637092">
        <time>2021-03-07T11:40:58Z</time>
      </trkpt>
      <trkpt lat="39.896063" lon="116.636933">
        <time>2021-03-07T11:41:03Z</time>
      </trkpt>
      <trkpt lat="39.896031" lon="116.636788">
        <time>2021-03-07T11:41:08Z</time>
      </trkpt>
      <trkpt lat="39.895998" lon="116.636683">
        <time>2021-03-07T11:41:13Z</time>
      </trkpt>
      <trkpt lat="39.895961" lon="116.636744">
        <time>2021-03-07T11:41:18Z</time>
      </trkpt>
      <trkpt lat="39.896045" lon="116.636893">
        <time>2021-03-07T11:41:23Z</time>
      </trkpt>
      <trkpt lat="39.896042" lon="116.637042">
        <time>2021-03-07T11:41:28Z</time>
      </trkpt>
      <trkpt lat="39.896057" lon="116.637184">
        <time>2021-03-07T11:41:33Z</time>
      </trkpt>
      <trkpt lat="39.896098" lon="116.637331">
        <time>2021-03-07T11:41:38Z</time>
      </trkpt>
      <trkpt lat="39.896123" lon="116.637476">
        <time>2021-03-07T11:41:43Z</time>
      </trkpt>
      <trkpt lat="39.896132" lon="116.637606">
        <time>2021-03-07T11:41:48Z</time>
      </trkpt>
      <trkpt lat="39.896136" lon="116.637739">
        <time>2021-03-07T11:41:53Z</time>
      </trkpt>
      <trkpt lat="39.896139" lon="116.637882">
        <time>2021-03-07T11:41:58Z</time>
      </trkpt>
      <trkpt lat="39.896151" lon="116.63802">
        <time>2021-03-07T11:42:03Z</time>
      </trkpt>
      <trkpt lat="39.896157" lon="116.638176">
        <time>2021-03-07T11:42:08Z</time>
      </trkpt>
      <trkpt lat="39.896169" lon="116.638327">
        <time>2021-03-07T11:42:13Z</time>
      </trkpt>
      <trkpt lat="39.896202" lon="116.638475">
        <time>2021-03-07T11:42:18Z</time>
      </trkpt>
      <trkpt lat="39.896196" lon="116.638608">
        <time>2021-03-07T11:42:23Z</time>
      </trkpt>
      <trkpt lat="39.896218" lon="116.63876">
        <time>2021-03-07T11:42:28Z</time>
      </trkpt>
      <trkpt lat="39.896235" lon="116.638886">
        <time>2021-03-07T11:42:33Z</time>
      </trkpt>
      <trkpt lat="39.896211" lon="116.638995">
        <time>2021-03-07T11:42:38Z</time>
      </trkpt>
      <trkpt lat="39.896229" lon="116.639112">
        <time>2021-03-07T11:42:43Z</time>
      </trkpt>
      <trkpt lat="39.896243" lon="116.639246">
        <time>2021-03-07T11:42:48Z</time>
      </trkpt>
      <trkpt lat="39.89624" lon="116.639384">
        <time>2021-03-07T11:42:53Z</time>
      </trkpt>
      <trkpt lat="39.89624" lon="116.639505">
        <time>2021-03-07T11:42:58Z</time>
      </trkpt>
      <trkpt lat="39.896231" lon="116.639646">
        <time>2021-03-07T11:43:03Z</time>
      </trkpt>
      <trkpt lat="39.896222" lon="116.639741">
        <time>2021-03-07T11:43:08Z</time>
      </trkpt>
      <trkpt lat="39.896227" lon="116.639861">
        <time>2021-03-07T11:43:13Z</time>
      </trkpt>
      <trkpt lat="39.896226" lon="116.639992">
        <time>2021-03-07T11:43:18Z</time>
      </trkpt>
      <trkpt lat="39.896221" lon="116.640126">
        <time>2021-03-07T11:43:23Z</time>
      </trkpt>
      <trkpt lat="39.89624" lon="116.640288">
        <time>2021-03-07T11:43:28Z</time>
      </trkpt>
      <trkpt lat="39.896252" lon="116.640445">
        <time>2021-03-07T11:43:33Z</time>
      </trkpt>
      <trkpt lat="39.896287" lon="116.640651">
        <time>2021-03-07T11:43:38Z</time>
      </trkpt>
      <trkpt lat="39.896276" lon="116.640791">
        <time>2021-03-07T11:43:43Z</time>
      </trkpt>
      <trkpt lat="39.896267" lon="116.640952">
        <time>2021-03-07T11:43:48Z</time>
      </trkpt>
      <trkpt lat="39.896296" lon="116.641066">
        <time>2021-03-07T11:43:53Z</time>
      </trkpt>
      <trkpt lat="39.896293" lon="116.641208">
        <time>2021-03-07T11:43:58Z</time>
      </trkpt>
      <trkpt lat="39.896289" lon="116.641332">
        <time>2021-03-07T11:44:03Z</time>
      </trkpt>
      <trkpt lat="39.896269" lon="116.64144">
        <time>2021-03-07T11:44:08Z</time>
      </trkpt>
      <trkpt lat="39.896266" lon="116.641566">
        <time>2021-03-07T11:44:13Z</time>
      </trkpt>
      <trkpt lat="39.89627" lon="116.641714">
        <time>2021-03-07T11:44:18Z</time>
      </trkpt>
      <trkpt lat="39.896263" lon="116.641838">
        <time>2021-03-07T11:44:23Z</time>
      </trkpt>
      <trkpt lat="39.896235" lon="116.642025">
        <time>2021-03-07T11:44:28Z</time>
      </trkpt>
      <trkpt lat="39.896223" lon="116.642093">
        <time>2021-03-07T11:44:33Z</time>
      </trkpt>
      <trkpt lat="39.896204" lon="116.642228">
        <time>2021-03-07T11:44:38Z</time>
      </trkpt>
      <trkpt lat="39.896207" lon="116.642375">
        <time>2021-03-07T11:44:43Z</time>
      </trkpt>
      <trkpt lat="39.896198" lon="116.642508">
        <time>2021-03-07T11:44:48Z</time>
      </trkpt>
      <trkpt lat="39.896186" lon="116.642632">
        <time>2021-03-07T11:44:53Z</time>
      </trkpt>
      <trkpt lat="39.896187" lon="116.642867">
        <time>2021-03-07T11:44:58Z</time>
      </trkpt>
      <trkpt lat="39.896199" lon="116.642926">
        <time>2021-03-07T11:45:03Z</time>
      </trkpt>
      <trkpt lat="39.896197" lon="116.643047">
        <time>2021-03-07T11:45:08Z</time>
      </trkpt>
      <trkpt lat="39.896205" lon="116.643193">
        <time>2021-03-07T11:45:13Z</time>
      </trkpt>
      <trkpt lat="39.896202" lon="116.643338">
        <time>2021-03-07T11:45:18Z</time>
      </trkpt>
      <trkpt lat="39.896199" lon="116.643487">
        <time>2021-03-07T11:45:23Z</time>
      </trkpt>
      <trkpt lat="39.896194" lon="116.643617">
        <time>2021-03-07T11:45:28Z</time>
      </trkpt>
      <trkpt lat="39.896193" lon="116.643735">
        <time>2021-03-07T11:45:33Z</time>
      </trkpt>
      <trkpt lat="39.896195" lon="116.643855">
        <time>2021-03-07T11:45:38Z</time>
      </trkpt>
      <trkpt lat="39.896208" lon="116.643994">
        <time>2021-03-07T11:45:43Z</time>
      </trkpt>
      <trkpt lat="39.896199" lon="116.644118">
        <time>2021-03-07T11:45:48Z</time>
      </trkpt>
      <trkpt lat="39.896205" lon="116.644267">
        <time>2021-03-07T11:45:53Z</time>
      </trkpt>
      <trkpt lat="39.896215" lon="116.644421">
        <time>2021-03-07T11:45:58Z</time>
      </trkpt>
      <trkpt lat="39.896223" lon="116.644562">
        <time>2021-03-07T11:46:03Z</time>
      </trkpt>
      <trkpt lat="39.896223" lon="116.644688">
        <time>2021-03-07T11:46:08Z</time>
      </trkpt>
      <trkpt lat="39.89621" lon="116.644843">
        <time>2021-03-07T11:46:13Z</time>
      </trkpt>
      <trkpt lat="39.896203" lon="116.645007">
        <time>2021-03-07T11:46:18Z</time>
      </trkpt>
      <trkpt lat="39.896206" lon="116.645178">
        <time>2021-03-07T11:46:23Z</time>
      </trkpt>
      <trkpt lat="39.896215" lon="116.645326">
        <time>2021-03-07T11:46:28Z</time>
      </trkpt>
      <trkpt lat="39.896202" lon="116.645463">
        <time>2021-03-07T11:46:33Z</time>
      </trkpt>
      <trkpt lat="39.89617" lon="116.645584">
        <time>2021-03-07T11:46:38Z</time>
      </trkpt>
      <trkpt lat="39.896133" lon="116.645719">
        <time>2021-03-07T11:46:43Z</time>
      </trkpt>
      <trkpt lat="39.89611" lon="116.645869">
        <time>2021-03-07T11:46:48Z</time>
      </trkpt>
      <trkpt lat="39.896091" lon="116.646038">
        <time>2021-03-07T11:46:53Z</time>
      </trkpt>
      <trkpt lat="39.896064" lon="116.646188">
        <time>2021-03-07T11:46:58Z</time>
      </trkpt>
      <trkpt lat="39.89606" lon="116.64635">
        <time>2021-03-07T11:47:03Z</time>
      </trkpt>
      <trkpt lat="39.89604" lon="116.646506">
        <time>2021-03-07T11:47:08Z</time>
      </trkpt>
      <trkpt lat="39.896043" lon="116.646661">
        <time>2021-03-07T11:47:13Z</time>
      </trkpt>
      <trkpt lat="39.895981" lon="116.646747">
        <time>2021-03-07T11:47:18Z</time>
      </trkpt>
      <trkpt lat="39.895887" lon="116.646831">
        <time>2021-03-07T11:47:23Z</time>
      </trkpt>
      <trkpt lat="39.89575" lon="116.646823">
        <time>2021-03-07T11:47:28Z</time>
      </trkpt>
      <trkpt lat="39.895641" lon="116.646773">
        <time>2021-03-07T11:47:33Z</time>
      </trkpt>
      <trkpt lat="39.895536" lon="116.646724">
        <time>2021-03-07T11:47:38Z</time>
      </trkpt>
      <trkpt lat="39.895445" lon="116.646645">
        <time>2021-03-07T11:47:43Z</time>
      </trkpt>
      <trkpt lat="39.89534" lon="116.646585">
        <time>2021-03-07T11:47:48Z</time>
      </trkpt>
      <trkpt lat="39.895225" lon="116.646541">
        <time>2021-03-07T11:47:53Z</time>
      </trkpt>
      <trkpt lat="39.895155" lon="116.646501">
        <time>2021-03-07T11:47:58Z</time>
      </trkpt>
      <trkpt lat="39.895047" lon="116.64645">
        <time>2021-03-07T11:48:03Z</time>
      </trkpt>
      <trkpt lat="39.894937" lon="116.646429">
        <time>2021-03-07T11:48:08Z</time>
      </trkpt>
      <trkpt lat="39.894752" lon="116.64638">
        <time>2021-03-07T11:48:13Z</time>
      </trkpt>
      <trkpt lat="39.894729" lon="116.646373">
        <time>2021-03-07T11:48:18Z</time>
      </trkpt>
      <trkpt lat="39.894597" lon="116.6464">
        <time>2021-03-07T11:48:23Z</time>
      </trkpt>
      <trkpt lat="39.894398" lon="116.646314">
        <time>2021-03-07T11:48:28Z</time>
      </trkpt>
      <trkpt lat="39.894318" lon="116.6463">
        <time>2021-03-07T11:48:33Z</time>
      </trkpt>
      <trkpt lat="39.894263" lon="116.646262">
        <time>2021-03-07T11:48:38Z</time>
      </trkpt>
      <trkpt lat="39.894151" lon="116.646171">
        <time>2021-03-07T11:48:43Z</time>
      </trkpt>
      <trkpt lat="39.894079" lon="116.646068">
        <time>2021-03-07T11:48:48Z</time>
      </trkpt>
      <trkpt lat="39.893998" lon="116.645961">
        <time>2021-03-07T11:48:53Z</time>
      </trkpt>
      <trkpt lat="39.893893" lon="116.645967">
        <time>2021-03-07T11:48:58Z</time>
      </trkpt>
      <trkpt lat="39.893815" lon="116.646084">
        <time>2021-03-07T11:49:03Z</time>
      </trkpt>
      <trkpt lat="39.893749" lon="116.646177">
        <time>2021-03-07T11:49:08Z</time>
      </trkpt>
      <trkpt lat="39.893688" lon="116.646274">
        <time>2021-03-07T11:49:13Z</time>
      </trkpt>
      <trkpt lat="39.893638" lon="116.646278">
        <time>2021-03-07T11:49:18Z</time>
      </trkpt>
      <trkpt lat="39.893546" lon="116.646268">
        <time>2021-03-07T11:49:23Z</time>
      </trkpt>
      <trkpt lat="39.893446" lon="116.646236">
        <time>2021-03-07T11:49:28Z</time>
      </trkpt>
      <trkpt lat="39.893347" lon="116.646229">
        <time>2021-03-07T11:49:33Z</time>
      </trkpt>
      <trkpt lat="39.893235" lon="116.646187">
        <time>2021-03-07T11:49:38Z</time>
      </trkpt>
      <trkpt lat="39.893135" lon="116.646165">
        <time>2021-03-07T11:49:43Z</time>
      </trkpt>
      <trkpt lat="39.893017" lon="116.64613">
        <time>2021-03-07T11:49:48Z</time>
      </trkpt>
      <trkpt lat="39.892913" lon="116.646059">
        <time>2021-03-07T11:49:53Z</time>
      </trkpt>
      <trkpt lat="39.892789" lon="116.646028">
        <time>2021-03-07T11:49:58Z</time>
      </trkpt>
      <trkpt lat="39.892697" lon="116.645943">
        <time>2021-03-07T11:50:03Z</time>
      </trkpt>
      <trkpt lat="39.892597" lon="116.645893">
        <time>2021-03-07T11:50:08Z</time>
      </trkpt>
      <trkpt lat="39.892482" lon="116.645856">
        <time>2021-03-07T11:50:13Z</time>
      </trkpt>
      <trkpt lat="39.892367" lon="116.645827">
        <time>2021-03-07T11:50:18Z</time>
      </trkpt>
      <trkpt lat="39.892263" lon="116.645781">
        <time>2021-03-07T11:50:23Z</time>
      </trkpt>
      <trkpt lat="39.892157" lon="116.645723">
        <time>2021-03-07T11:50:28Z</time>
      </trkpt>
      <trkpt lat="39.892054" lon="116.645655">
        <time>2021-03-07T11:50:33Z</time>
      </trkpt>
      <trkpt lat="39.89197" lon="116.645625">
        <time>2021-03-07T11:50:38Z</time>
      </trkpt>
      <trkpt lat="39.891854" lon="116.645581">
        <time>2021-03-07T11:50:43Z</time>
      </trkpt>
      <trkpt lat="39.89175" lon="116.64553">
        <time>2021-03-07T11:50:48Z</time>
      </trkpt>
      <trkpt lat="39.891633" lon="116.645445">
        <time>2021-03-07T11:50:53Z</time>
      </trkpt>
      <trkpt lat="39.891571" lon="116.645361">
        <time>2021-03-07T11:50:58Z</time>
      </trkpt>
      <trkpt lat="39.891516" lon="116.645337">
        <time>2021-03-07T11:51:03Z</time>
      </trkpt>
      <trkpt lat="39.891529" lon="116.645396">
        <time>2021-03-07T11:51:08Z</time>
      </trkpt>
      <trkpt lat="39.891614" lon="116.645405">
        <time>2021-03-07T11:51:13Z</time>
      </trkpt>
      <trkpt lat="39.891661" lon="116.645443">
        <time>2021-03-07T11:51:18Z</time>
      </trkpt>
      <trkpt lat="39.89173" lon="116.645483">
        <time>2021-03-07T11:51:23Z</time>
      </trkpt>
      <trkpt lat="39.891814" lon="116.645538">
        <time>2021-03-07T11:51:28Z</time>
      </trkpt>
      <trkpt lat="39.891895" lon="116.645572">
        <time>2021-03-07T11:51:33Z</time>
      </trkpt>
      <trkpt lat="39.891973" lon="116.645628">
        <time>2021-03-07T11:51:38Z</time>
      </trkpt>
      <trkpt lat="39.892115" lon="116.645685">
        <time>2021-03-07T11:51:43Z</time>
      </trkpt>
      <trkpt lat="39.892245" lon="116.645737">
        <time>2021-03-07T11:51:48Z</time>
      </trkpt>
      <trkpt lat="39.892364" lon="116.645776">
        <time>2021-03-07T11:51:53Z</time>
      </trkpt>
      <trkpt lat="39.892463" lon="116.645806">
        <time>2021-03-07T11:51:58Z</time>
      </trkpt>
      <trkpt lat="39.892587" lon="116.645866">
        <time>2021-03-07T11:52:03Z</time>
      </trkpt>
      <trkpt lat="39.892707" lon="116.645914">
        <time>2021-03-07T11:52:08Z</time>
      </trkpt>
      <trkpt lat="39.892837" lon="116.645912">
        <time>2021-03-07T11:52:13Z</time>
      </trkpt>
      <trkpt lat="39.892935" lon="116.645928">
        <time>2021-03-07T11:52:18Z</time>
      </trkpt>
      <trkpt lat="39.893028" lon="116.645994">
        <time>2021-03-07T11:52:23Z</time>
      </trkpt>
      <trkpt lat="39.893084" lon="116.646043">
        <time>2021-03-07T11:52:28Z</time>
      </trkpt>
      <trkpt lat="39.893161" lon="116.64608">
        <time>2021-03-07T11:52:33Z</time>
      </trkpt>
      <trkpt lat="39.893239" lon="116.6461">
        <time>2021-03-07T11:52:38Z</time>
      </trkpt>
      <trkpt lat="39.893292" lon="116.646118">
        <time>2021-03-07T11:52:43Z</time>
      </trkpt>
      <trkpt lat="39.893355" lon="116.646169">
        <time>2021-03-07T11:52:48Z</time>
      </trkpt>
      <trkpt lat="39.893436" lon="116.646245">
        <time>2021-03-07T11:52:53Z</time>
      </trkpt>
      <trkpt lat="39.893562" lon="116.646344">
        <time>2021-03-07T11:52:58Z</time>
      </trkpt>
      <trkpt lat="39.893599" lon="116.646351">
        <time>2021-03-07T11:53:03Z</time>
      </trkpt>
      <trkpt lat="39.893695" lon="116.64629">
        <time>2021-03-07T11:53:08Z</time>
      </trkpt>
      <trkpt lat="39.893809" lon="116.646107">
        <time>2021-03-07T11:53:13Z</time>
      </trkpt>
      <trkpt lat="39.893853" lon="116.646002">
        <time>2021-03-07T11:53:18Z</time>
      </trkpt>
      <trkpt lat="39.893923" lon="116.645919">
        <time>2021-03-07T11:53:23Z</time>
      </trkpt>
      <trkpt lat="39.894013" lon="116.645859">
        <time>2021-03-07T11:53:28Z</time>
      </trkpt>
      <trkpt lat="39.894129" lon="116.645932">
        <time>2021-03-07T11:53:33Z</time>
      </trkpt>
      <trkpt lat="39.894283" lon="116.646">
        <time>2021-03-07T11:53:38Z</time>
      </trkpt>
      <trkpt lat="39.894344" lon="116.646036">
        <time>2021-03-07T11:53:43Z</time>
      </trkpt>
      <trkpt lat="39.894446" lon="116.646112">
        <time>2021-03-07T11:53:48Z</time>
      </trkpt>
      <trkpt lat="39.894544" lon="116.646149">
        <time>2021-03-07T11:53:53Z</time>
      </trkpt>
      <trkpt lat="39.89468" lon="116.646231">
        <time>2021-03-07T11:53:58Z</time>
      </trkpt>
      <trkpt lat="39.894769" lon="116.646288">
        <time>2021-03-07T11:54:03Z</time>
      </trkpt>
      <trkpt lat="39.894884" lon="116.646338">
        <time>2021-03-07T11:54:08Z</time>
      </trkpt>
      <trkpt lat="39.894986" lon="116.646395">
        <time>2021-03-07T11:54:13Z</time>
      </trkpt>
      <trkpt lat="39.895095" lon="116.646427">
        <time>2021-03-07T11:54:18Z</time>
      </trkpt>
      <trkpt lat="39.895197" lon="116.64646">
        <time>2021-03-07T11:54:23Z</time>
      </trkpt>
      <trkpt lat="39.895301" lon="116.646493">
        <time>2021-03-07T11:54:28Z</time>
      </trkpt>
      <trkpt lat="39.895448" lon="116.646524">
        <time>2021-03-07T11:54:33Z</time>
      </trkpt>
      <trkpt lat="39.89549" lon="116.646546">
        <time>2021-03-07T11:54:38Z</time>
      </trkpt>
      <trkpt lat="39.895596" lon="116.646608">
        <time>2021-03-07T11:54:43Z</time>
      </trkpt>
      <trkpt lat="39.895704" lon="116.646697">
        <time>2021-03-07T11:54:48Z</time>
      </trkpt>
      <trkpt lat="39.895833" lon="116.646742">
        <time>2021-03-07T11:54:53Z</time>
      </trkpt>
      <trkpt lat="39.895932" lon="116.646781">
        <time>2021-03-07T11:54:58Z</time>
      </trkpt>
      <trkpt lat="39.89603" lon="116.646753">
        <time>2021-03-07T11:55:03Z</time>
      </trkpt>
      <trkpt lat="39.896052" lon="116.646583">
        <time>2021-03-07T11:55:08Z</time>
      </trkpt>
      <trkpt lat="39.896046" lon="116.646409">
        <time>2021-03-07T11:55:13Z</time>
      </trkpt>
      <trkpt lat="39.896022" lon="116.646252">
        <time>2021-03-07T11:55:18Z</time>
      </trkpt>
      <trkpt lat="39.896037" lon="116.6461">
        <time>2021-03-07T11:55:23Z</time>
      </trkpt>
      <trkpt lat="39.896031" lon="116.645932">
        <time>2021-03-07T11:55:28Z</time>
      </trkpt>
      <trkpt lat="39.896055" lon="116.645832">
        <time>2021-03-07T11:55:33Z</time>
      </trkpt>
      <trkpt lat="39.896089" lon="116.645705">
        <time>2021-03-07T11:55:38Z</time>
      </trkpt>
      <trkpt lat="39.896099" lon="116.645538">
        <time>2021-03-07T11:55:43Z</time>
      </trkpt>
      <trkpt lat="39.896111" lon="116.645395">
        <time>2021-03-07T11:55:48Z</time>
      </trkpt>
      <trkpt lat="39.89613" lon="116.645284">
        <time>2021-03-07T11:55:53Z</time>
      </trkpt>
      <trkpt lat="39.896137" lon="116.645141">
        <time>2021-03-07T11:55:58Z</time>
      </trkpt>
      <trkpt lat="39.89615" lon="116.645038">
        <time>2021-03-07T11:56:03Z</time>
      </trkpt>
      <trkpt lat="39.89614" lon="116.644935">
        <time>2021-03-07T11:56:08Z</time>
      </trkpt>
      <trkpt lat="39.896155" lon="116.644795">
        <time>2021-03-07T11:56:13Z</time>
      </trkpt>
      <trkpt lat="39.896186" lon="116.644689">
        <time>2021-03-07T11:56:18Z</time>
      </trkpt>
      <trkpt lat="39.896198" lon="116.644548">
        <time>2021-03-07T11:56:23Z</time>
      </trkpt>
      <trkpt lat="39.896202" lon="116.644402">
        <time>2021-03-07T11:56:28Z</time>
      </trkpt>
      <trkpt lat="39.896184" lon="116.644224">
        <time>2021-03-07T11:56:33Z</time>
      </trkpt>
      <trkpt lat="39.896181" lon="116.644069">
        <time>2021-03-07T11:56:38Z</time>
      </trkpt>
      <trkpt lat="39.896184" lon="116.643914">
        <time>2021-03-07T11:56:43Z</time>
      </trkpt>
      <trkpt lat="39.896172" lon="116.643786">
        <time>2021-03-07T11:56:48Z</time>
      </trkpt>
      <trkpt lat="39.896173" lon="116.643642">
        <time>2021-03-07T11:56:53Z</time>
      </trkpt>
      <trkpt lat="39.896157" lon="116.643502">
        <time>2021-03-07T11:56:58Z</time>
      </trkpt>
      <trkpt lat="39.896179" lon="116.643387">
        <time>2021-03-07T11:57:03Z</time>
      </trkpt>
      <trkpt lat="39.896179" lon="116.643243">
        <time>2021-03-07T11:57:08Z</time>
      </trkpt>
      <trkpt lat="39.896192" lon="116.643136">
        <time>2021-03-07T11:57:13Z</time>
      </trkpt>
      <trkpt lat="39.896198" lon="116.643005">
        <time>2021-03-07T11:57:18Z</time>
      </trkpt>
      <trkpt lat="39.896187" lon="116.642859">
        <time>2021-03-07T11:57:23Z</time>
      </trkpt>
      <trkpt lat="39.896206" lon="116.642726">
        <time>2021-03-07T11:57:28Z</time>
      </trkpt>
      <trkpt lat="39.896214" lon="116.642573">
        <time>2021-03-07T11:57:33Z</time>
      </trkpt>
      <trkpt lat="39.896203" lon="116.64242">
        <time>2021-03-07T11:57:38Z</time>
      </trkpt>
      <trkpt lat="39.896207" lon="116.642274">
        <time>2021-03-07T11:57:43Z</time>
      </trkpt>
      <trkpt lat="39.896204" lon="116.642145">
        <time>2021-03-07T11:57:48Z</time>
      </trkpt>
      <trkpt lat="39.896198" lon="116.641998">
        <time>2021-03-07T11:57:53Z</time>
      </trkpt>
      <trkpt lat="39.896212" lon="116.641871">
        <time>2021-03-07T11:57:58Z</time>
      </trkpt>
      <trkpt lat="39.8962" lon="116.641605">
        <time>2021-03-07T11:58:03Z</time>
      </trkpt>
      <trkpt lat="39.896203" lon="116.641578">
        <time>2021-03-07T11:58:08Z</time>
      </trkpt>
      <trkpt lat="39.896209" lon="116.641435">
        <time>2021-03-07T11:58:13Z</time>
      </trkpt>
      <trkpt lat="39.896224" lon="116.641286">
        <time>2021-03-07T11:58:18Z</time>
      </trkpt>
      <trkpt lat="39.896232" lon="116.641162">
        <time>2021-03-07T11:58:23Z</time>
      </trkpt>
      <trkpt lat="39.896229" lon="116.641017">
        <time>2021-03-07T11:58:28Z</time>
      </trkpt>
      <trkpt lat="39.896245" lon="116.6409">
        <time>2021-03-07T11:58:33Z</time>
      </trkpt>
      <trkpt lat="39.896238" lon="116.640742">
        <time>2021-03-07T11:58:38Z</time>
      </trkpt>
      <trkpt lat="39.896246" lon="116.640597">
        <time>2021-03-07T11:58:43Z</time>
      </trkpt>
      <trkpt lat="39.896252" lon="116.640455">
        <time>2021-03-07T11:58:48Z</time>
      </trkpt>
      <trkpt lat="39.89624" lon="116.640327">
        <time>2021-03-07T11:58:53Z</time>
      </trkpt>
      <trkpt lat="39.896198" lon="116.640171">
        <time>2021-03-07T11:58:58Z</time>
      </trkpt>
      <trkpt lat="39.896211" lon="116.640037">
        <time>2021-03-07T11:59:03Z</time>
      </trkpt>
      <trkpt lat="39.896204" lon="116.639874">
        <time>2021-03-07T11:59:08Z</time>
      </trkpt>
      <trkpt lat="39.896184" lon="116.639727">
        <time>2021-03-07T11:59:13Z</time>
      </trkpt>
      <trkpt lat="39.896186" lon="116.639571">
        <time>2021-03-07T11:59:18Z</time>
      </trkpt>
      <trkpt lat="39.896168" lon="116.639429">
        <time>2021-03-07T11:59:23Z</time>
      </trkpt>
      <trkpt lat="39.896161" lon="116.639271">
        <time>2021-03-07T11:59:28Z</time>
      </trkpt>
      <trkpt lat="39.896162" lon="116.639124">
        <time>2021-03-07T11:59:33Z</time>
      </trkpt>
      <trkpt lat="39.896177" lon="116.638991">
        <time>2021-03-07T11:59:38Z</time>
      </trkpt>
      <trkpt lat="39.896151" lon="116.638835">
        <time>2021-03-07T11:59:43Z</time>
      </trkpt>
      <trkpt lat="39.896143" lon="116.638706">
        <time>2021-03-07T11:59:48Z</time>
      </trkpt>
      <trkpt lat="39.89614" lon="116.638553">
        <time>2021-03-07T11:59:53Z</time>
      </trkpt>
      <trkpt lat="39.896107" lon="116.638412">
        <time>2021-03-07T11:59:58Z</time>
      </trkpt>
      <trkpt lat="39.896112" lon="116.638265">
        <time>2021-03-07T12:00:03Z</time>
      </trkpt>
      <trkpt lat="39.896106" lon="116.638178">
        <time>2021-03-07T12:00:08Z</time>
      </trkpt>
      <trkpt lat="39.896091" lon="116.638089">
        <time>2021-03-07T12:00:13Z</time>
      </trkpt>
      <trkpt lat="39.896072" lon="116.637988">
        <time>2021-03-07T12:00:18Z</time>
      </trkpt>
      <trkpt lat="39.896059" lon="116.637879">
        <time>2021-03-07T12:00:23Z</time>
      </trkpt>
      <trkpt lat="39.896049" lon="116.637784">
        <time>2021-03-07T12:00:28Z</time>
      </trkpt>
      <trkpt lat="39.896042" lon="116.637689">
        <time>2021-03-07T12:00:33Z</time>
      </trkpt>
      <trkpt lat="39.896062" lon="116.637585">
        <time>2021-03-07T12:00:38Z</time>
      </trkpt>
      <trkpt lat="39.896081" lon="116.637492">
        <time>2021-03-07T12:00:43Z</time>
      </trkpt>
      <trkpt lat="39.896105" lon="116.637423">
        <time>2021-03-07T12:00:48Z</time>
      </trkpt>
      <trkpt lat="39.896155" lon="116.637356">
        <time>2021-03-07T12:00:53Z</time>
      </trkpt>
      <trkpt lat="39.896149" lon="116.637265">
        <time>2021-03-07T12:00:58Z</time>
      </trkpt>
      <trkpt lat="39.896151" lon="116.63719">
        <time>2021-03-07T12:01:03Z</time>
      </trkpt>
      <trkpt lat="39.896159" lon="116.637108">
        <time>2021-03-07T12:01:08Z</time>
      </trkpt>
      <trkpt lat="39.896148" lon="116.637011">
        <time>2021-03-07T12:01:13Z</time>
      </trkpt>
      <trkpt lat="39.896142" lon="116.636911">
        <time>2021-03-07T12:01:18Z</time>
      </trkpt>
      <trkpt lat="39.896111" lon="116.636786">
        <time>2021-03-07T12:01:23Z</time>
      </trkpt>
      <trkpt lat="39.896076" lon="116.63669">
        <time>2021-03-07T12:01:28Z</time>
      </trkpt>
      <trkpt lat="39.896039" lon="116.636773">
        <time>2021-03-07T12:01:33Z</time>
      </trkpt>
      <trkpt lat="39.89609" lon="116.636935">
        <time>2021-03-07T12:01:38Z</time>
      </trkpt>
      <trkpt lat="39.896115" lon="116.637088">
        <time>2021-03-07T12:01:43Z</time>
      </trkpt>
      <trkpt lat="39.896127" lon="116.637236">
        <time>2021-03-07T12:01:48Z</time>
      </trkpt>
      <trkpt lat="39.896138" lon="116.637375">
        <time>2021-03-07T12:01:53Z</time>
      </trkpt>
      <trkpt lat="39.896141" lon="116.637493">
        <time>2021-03-07T12:01:58Z</time>
      </trkpt>
      <trkpt lat="39.89616" lon="116.637629">
        <time>2021-03-07T12:02:03Z</time>
      </trkpt>
      <trkpt lat="39.896174" lon="116.637782">
        <time>2021-03-07T12:02:08Z</time>
      </trkpt>
      <trkpt lat="39.896167" lon="116.637919">
        <time>2021-03-07T12:02:13Z</time>
      </trkpt>
      <trkpt lat="39.896176" lon="116.638073">
        <time>2021-03-07T12:02:18Z</time>
      </trkpt>
      <trkpt lat="39.896197" lon="116.638229">
        <time>2021-03-07T12:02:23Z</time>
      </trkpt>
      <trkpt lat="39.896234" lon="116.638405">
        <time>2021-03-07T12:02:28Z</time>
      </trkpt>
      <trkpt lat="39.896209" lon="116.638553">
        <time>2021-03-07T12:02:33Z</time>
      </trkpt>
      <trkpt lat="39.896203" lon="116.638678">
        <time>2021-03-07T12:02:38Z</time>
      </trkpt>
      <trkpt lat="39.896238" lon="116.638819">
        <time>2021-03-07T12:02:43Z</time>
      </trkpt>
      <trkpt lat="39.896269" lon="116.638962">
        <time>2021-03-07T12:02:48Z</time>
      </trkpt>
      <trkpt lat="39.896273" lon="116.639115">
        <time>2021-03-07T12:02:53Z</time>
      </trkpt>
      <trkpt lat="39.896255" lon="116.639272">
        <time>2021-03-07T12:02:58Z</time>
      </trkpt>
      <trkpt lat="39.896267" lon="116.639446">
        <time>2021-03-07T12:03:03Z</time>
      </trkpt>
      <trkpt lat="39.896245" lon="116.639573">
        <time>2021-03-07T12:03:08Z</time>
      </trkpt>
      <trkpt lat="39.896245" lon="116.63971">
        <time>2021-03-07T12:03:13Z</time>
      </trkpt>
      <trkpt lat="39.896264" lon="116.639835">
        <time>2021-03-07T12:03:18Z</time>
      </trkpt>
      <trkpt lat="39.896276" lon="116.639829">
        <time>2021-03-07T12:03:23Z</time>
      </trkpt>
      <trkpt lat="39.896285" lon="116.639914">
        <time>2021-03-07T12:03:28Z</time>
      </trkpt>
      <trkpt lat="39.896291" lon="116.640039">
        <time>2021-03-07T12:03:33Z</time>
      </trkpt>
      <trkpt lat="39.896277" lon="116.640207">
        <time>2021-03-07T12:03:38Z</time>
      </trkpt>
      <trkpt lat="39.896275" lon="116.640371">
        <time>2021-03-07T12:03:43Z</time>
      </trkpt>
      <trkpt lat="39.896281" lon="116.640518">
        <time>2021-03-07T12:03:48Z</time>
      </trkpt>
      <trkpt lat="39.896285" lon="116.640689">
        <time>2021-03-07T12:03:53Z</time>
      </trkpt>
      <trkpt lat="39.896275" lon="116.640856">
        <time>2021-03-07T12:03:58Z</time>
      </trkpt>
      <trkpt lat="39.89626" lon="116.641017">
        <time>2021-03-07T12:04:03Z</time>
      </trkpt>
      <trkpt lat="39.896264" lon="116.641193">
        <time>2021-03-07T12:04:08Z</time>
      </trkpt>
      <trkpt lat="39.896257" lon="116.641366">
        <time>2021-03-07T12:04:13Z</time>
      </trkpt>
      <trkpt lat="39.896228" lon="116.641495">
        <time>2021-03-07T12:04:18Z</time>
      </trkpt>
      <trkpt lat="39.896251" lon="116.641651">
        <time>2021-03-07T12:04:23Z</time>
      </trkpt>
      <trkpt lat="39.896259" lon="116.641811">
        <time>2021-03-07T12:04:28Z</time>
      </trkpt>
      <trkpt lat="39.896261" lon="116.641946">
        <time>2021-03-07T12:04:33Z</time>
      </trkpt>
      <trkpt lat="39.896244" lon="116.642092">
        <time>2021-03-07T12:04:38Z</time>
      </trkpt>
      <trkpt lat="39.896252" lon="116.642229">
        <time>2021-03-07T12:04:43Z</time>
      </trkpt>
      <trkpt lat="39.896244" lon="116.642374">
        <time>2021-03-07T12:04:48Z</time>
      </trkpt>
      <trkpt lat="39.896248" lon="116.642541">
        <time>2021-03-07T12:04:53Z</time>
      </trkpt>
      <trkpt lat="39.896244" lon="116.642683">
        <time>2021-03-07T12:04:58Z</time>
      </trkpt>
      <trkpt lat="39.896211" lon="116.642829">
        <time>2021-03-07T12:05:03Z</time>
      </trkpt>
      <trkpt lat="39.896211" lon="116.642966">
        <time>2021-03-07T12:05:08Z</time>
      </trkpt>
      <trkpt lat="39.896216" lon="116.643102">
        <time>2021-03-07T12:05:13Z</time>
      </trkpt>
      <trkpt lat="39.896193" lon="116.643239">
        <time>2021-03-07T12:05:18Z</time>
      </trkpt>
      <trkpt lat="39.896155" lon="116.643384">
        <time>2021-03-07T12:05:23Z</time>
      </trkpt>
      <trkpt lat="39.896152" lon="116.643518">
        <time>2021-03-07T12:05:28Z</time>
      </trkpt>
      <trkpt lat="39.896173" lon="116.643634">
        <time>2021-03-07T12:05:33Z</time>
      </trkpt>
      <trkpt lat="39.896198" lon="116.643798">
        <time>2021-03-07T12:05:38Z</time>
      </trkpt>
      <trkpt lat="39.896213" lon="116.643947">
        <time>2021-03-07T12:05:43Z</time>
      </trkpt>
      <trkpt lat="39.896209" lon="116.644074">
        <time>2021-03-07T12:05:48Z</time>
      </trkpt>
      <trkpt lat="39.896187" lon="116.644191">
        <time>2021-03-07T12:05:53Z</time>
      </trkpt>
      <trkpt lat="39.896194" lon="116.644351">
        <time>2021-03-07T12:05:58Z</time>
      </trkpt>
      <trkpt lat="39.896178" lon="116.644504">
        <time>2021-03-07T12:06:03Z</time>
      </trkpt>
      <trkpt lat="39.896183" lon="116.644621">
        <time>2021-03-07T12:06:08Z</time>
      </trkpt>
      <trkpt lat="39.89621" lon="116.644756">
        <time>2021-03-07T12:06:13Z</time>
      </trkpt>
      <trkpt lat="39.896199" lon="116.644888">
        <time>2021-03-07T12:06:18Z</time>
      </trkpt>
      <trkpt lat="39.89618" lon="116.645014">
        <time>2021-03-07T12:06:23Z</time>
      </trkpt>
      <trkpt lat="39.896146" lon="116.645164">
        <time>2021-03-07T12:06:28Z</time>
      </trkpt>
      <trkpt lat="39.89615" lon="116.645317">
        <time>2021-03-07T12:06:33Z</time>
      </trkpt>
      <trkpt lat="39.896179" lon="116.645497">
        <time>2021-03-07T12:06:38Z</time>
      </trkpt>
      <trkpt lat="39.89619" lon="116.645665">
        <time>2021-03-07T12:06:43Z</time>
      </trkpt>
      <trkpt lat="39.896148" lon="116.64579">
        <time>2021-03-07T12:06:48Z</time>
      </trkpt>
      <trkpt lat="39.89611" lon="116.645925">
        <time>2021-03-07T12:06:53Z</time>
      </trkpt>
      <trkpt lat="39.896095" lon="116.646069">
        <time>2021-03-07T12:06:58Z</time>
      </trkpt>
      <trkpt lat="39.896073" lon="116.646178">
        <time>2021-03-07T12:07:03Z</time>
      </trkpt>
      <trkpt lat="39.896047" lon="116.646307">
        <time>2021-03-07T12:07:08Z</time>
      </trkpt>
      <trkpt lat="39.896048" lon="116.646464">
        <time>2021-03-07T12:07:13Z</time>
      </trkpt>
      <trkpt lat="39.896059" lon="116.646635">
        <time>2021-03-07T12:07:18Z</time>
      </trkpt>
      <trkpt lat="39.896057" lon="116.646788">
        <time>2021-03-07T12:07:23Z</time>
      </trkpt>
      <trkpt lat="39.895959" lon="116.646883">
        <time>2021-03-07T12:07:28Z</time>
      </trkpt>
      <trkpt lat="39.895821" lon="116.646861">
        <time>2021-03-07T12:07:33Z</time>
      </trkpt>
      <trkpt lat="39.895701" lon="116.646791">
        <time>2021-03-07T12:07:38Z</time>
      </trkpt>
      <trkpt lat="39.895599" lon="116.64673">
        <time>2021-03-07T12:07:43Z</time>
      </trkpt>
      <trkpt lat="39.89549" lon="116.646657">
        <time>2021-03-07T12:07:48Z</time>
      </trkpt>
      <trkpt lat="39.895385" lon="116.646577">
        <time>2021-03-07T12:07:53Z</time>
      </trkpt>
      <trkpt lat="39.895291" lon="116.646529">
        <time>2021-03-07T12:07:58Z</time>
      </trkpt>
      <trkpt lat="39.895197" lon="116.646486">
        <time>2021-03-07T12:08:03Z</time>
      </trkpt>
      <trkpt lat="39.895113" lon="116.646396">
        <time>2021-03-07T12:08:08Z</time>
      </trkpt>
      <trkpt lat="39.894918" lon="116.646352">
        <time>2021-03-07T12:08:13Z</time>
      </trkpt>
      <trkpt lat="39.894871" lon="116.646335">
        <time>2021-03-07T12:08:18Z</time>
      </trkpt>
      <trkpt lat="39.89474" lon="116.646311">
        <time>2021-03-07T12:08:23Z</time>
      </trkpt>
      <trkpt lat="39.894632" lon="116.646293">
        <time>2021-03-07T12:08:28Z</time>
      </trkpt>
      <trkpt lat="39.89444" lon="116.646195">
        <time>2021-03-07T12:08:33Z</time>
      </trkpt>
      <trkpt lat="39.894384" lon="116.646182">
        <time>2021-03-07T12:08:38Z</time>
      </trkpt>
      <trkpt lat="39.894273" lon="116.646145">
        <time>2021-03-07T12:08:43Z</time>
      </trkpt>
      <trkpt lat="39.894062" lon="116.646128">
        <time>2021-03-07T12:08:48Z</time>
      </trkpt>
      <trkpt lat="39.894026" lon="116.646109">
        <time>2021-03-07T12:08:53Z</time>
      </trkpt>
      <trkpt lat="39.89395" lon="116.64608">
        <time>2021-03-07T12:08:58Z</time>
      </trkpt>
      <trkpt lat="39.893851" lon="116.646083">
        <time>2021-03-07T12:09:03Z</time>
      </trkpt>
      <trkpt lat="39.893788" lon="116.646191">
        <time>2021-03-07T12:09:08Z</time>
      </trkpt>
      <trkpt lat="39.89372" lon="116.646314">
        <time>2021-03-07T12:09:13Z</time>
      </trkpt>
      <trkpt lat="39.89364" lon="116.646423">
        <time>2021-03-07T12:09:18Z</time>
      </trkpt>
      <trkpt lat="39.893589" lon="116.646453">
        <time>2021-03-07T12:09:23Z</time>
      </trkpt>
      <trkpt lat="39.893498" lon="116.646413">
        <time>2021-03-07T12:09:28Z</time>
      </trkpt>
      <trkpt lat="39.893407" lon="116.646347">
        <time>2021-03-07T12:09:33Z</time>
      </trkpt>
      <trkpt lat="39.893299" lon="116.646259">
        <time>2021-03-07T12:09:38Z</time>
      </trkpt>
      <trkpt lat="39.893182" lon="116.646193">
        <time>2021-03-07T12:09:43Z</time>
      </trkpt>
      <trkpt lat="39.893075" lon="116.646133">
        <time>2021-03-07T12:09:48Z</time>
      </trkpt>
      <trkpt lat="39.892919" lon="116.646086">
        <time>2021-03-07T12:09:53Z</time>
      </trkpt>
      <trkpt lat="39.892842" lon="116.646058">
        <time>2021-03-07T12:09:58Z</time>
      </trkpt>
      <trkpt lat="39.892731" lon="116.646">
        <time>2021-03-07T12:10:03Z</time>
      </trkpt>
      <trkpt lat="39.892625" lon="116.645911">
        <time>2021-03-07T12:10:08Z</time>
      </trkpt>
      <trkpt lat="39.892515" lon="116.645852">
        <time>2021-03-07T12:10:13Z</time>
      </trkpt>
      <trkpt lat="39.892409" lon="116.645816">
        <time>2021-03-07T12:10:18Z</time>
      </trkpt>
      <trkpt lat="39.892298" lon="116.645788">
        <time>2021-03-07T12:10:23Z</time>
      </trkpt>
      <trkpt lat="39.892194" lon="116.645741">
        <time>2021-03-07T12:10:28Z</time>
      </trkpt>
      <trkpt lat="39.892073" lon="116.645691">
        <time>2021-03-07T12:10:33Z</time>
      </trkpt>
      <trkpt lat="39.891965" lon="116.645637">
        <time>2021-03-07T12:10:38Z</time>
      </trkpt>
      <trkpt lat="39.891853" lon="116.645595">
        <time>2021-03-07T12:10:43Z</time>
      </trkpt>
      <trkpt lat="39.891737" lon="116.64554">
        <time>2021-03-07T12:10:48Z</time>
      </trkpt>
      <trkpt lat="39.891659" lon="116.645462">
        <time>2021-03-07T12:10:53Z</time>
      </trkpt>
      <trkpt lat="39.891575" lon="116.645381">
        <time>2021-03-07T12:10:58Z</time>
      </trkpt>
      <trkpt lat="39.891514" lon="116.645426">
        <time>2021-03-07T12:11:03Z</time>
      </trkpt>
      <trkpt lat="39.891599" lon="116.645471">
        <time>2021-03-07T12:11:08Z</time>
      </trkpt>
      <trkpt lat="39.891704" lon="116.645469">
        <time>2021-03-07T12:11:13Z</time>
      </trkpt>
      <trkpt lat="39.891797" lon="116.645473">
        <time>2021-03-07T12:11:18Z</time>
      </trkpt>
      <trkpt lat="39.891878" lon="116.645497">
        <time>2021-03-07T12:11:23Z</time>
      </trkpt>
      <trkpt lat="39.891951" lon="116.645524">
        <time>2021-03-07T12:11:28Z</time>
      </trkpt>
      <trkpt lat="39.891992" lon="116.645547">
        <time>2021-03-07T12:11:33Z</time>
      </trkpt>
      <trkpt lat="39.892054" lon="116.645591">
        <time>2021-03-07T12:11:38Z</time>
      </trkpt>
      <trkpt lat="39.892142" lon="116.645598">
        <time>2021-03-07T12:11:43Z</time>
      </trkpt>
      <trkpt lat="39.892217" lon="116.64562">
        <time>2021-03-07T12:11:48Z</time>
      </trkpt>
      <trkpt lat="39.892293" lon="116.645665">
        <time>2021-03-07T12:11:53Z</time>
      </trkpt>
      <trkpt lat="39.892362" lon="116.645704">
        <time>2021-03-07T12:11:58Z</time>
      </trkpt>
      <trkpt lat="39.892408" lon="116.645754">
        <time>2021-03-07T12:12:03Z</time>
      </trkpt>
      <trkpt lat="39.892481" lon="116.64579">
        <time>2021-03-07T12:12:08Z</time>
      </trkpt>
      <trkpt lat="39.892567" lon="116.645847">
        <time>2021-03-07T12:12:13Z</time>
      </trkpt>
      <trkpt lat="39.892673" lon="116.645887">
        <time>2021-03-07T12:12:18Z</time>
      </trkpt>
      <trkpt lat="39.892782" lon="116.645944">
        <time>2021-03-07T12:12:23Z</time>
      </trkpt>
      <trkpt lat="39.892913" lon="116.645987">
        <time>2021-03-07T12:12:28Z</time>
      </trkpt>
      <trkpt lat="39.893051" lon="116.645997">
        <time>2021-03-07T12:12:33Z</time>
      </trkpt>
      <trkpt lat="39.89318" lon="116.646052">
        <time>2021-03-07T12:12:38Z</time>
      </trkpt>
      <trkpt lat="39.893292" lon="116.646127">
        <time>2021-03-07T12:12:43Z</time>
      </trkpt>
      <trkpt lat="39.89338" lon="116.646151">
        <time>2021-03-07T12:12:48Z</time>
      </trkpt>
      <trkpt lat="39.893465" lon="116.646199">
        <time>2021-03-07T12:12:53Z</time>
      </trkpt>
      <trkpt lat="39.89357" lon="116.646291">
        <time>2021-03-07T12:12:58Z</time>
      </trkpt>
      <trkpt lat="39.893691" lon="116.646353">
        <time>2021-03-07T12:13:03Z</time>
      </trkpt>
      <trkpt lat="39.893768" lon="116.64626">
        <time>2021-03-07T12:13:08Z</time>
      </trkpt>
      <trkpt lat="39.893832" lon="116.646136">
        <time>2021-03-07T12:13:13Z</time>
      </trkpt>
      <trkpt lat="39.893916" lon="116.646044">
        <time>2021-03-07T12:13:18Z</time>
      </trkpt>
      <trkpt lat="39.893989" lon="116.645934">
        <time>2021-03-07T12:13:23Z</time>
      </trkpt>
      <trkpt lat="39.89407" lon="116.645948">
        <time>2021-03-07T12:13:28Z</time>
      </trkpt>
      <trkpt lat="39.894285" lon="116.646051">
        <time>2021-03-07T12:13:33Z</time>
      </trkpt>
      <trkpt lat="39.894312" lon="116.646055">
        <time>2021-03-07T12:13:38Z</time>
      </trkpt>
      <trkpt lat="39.894417" lon="116.646107">
        <time>2021-03-07T12:13:43Z</time>
      </trkpt>
      <trkpt lat="39.894474" lon="116.646172">
        <time>2021-03-07T12:13:48Z</time>
      </trkpt>
      <trkpt lat="39.894567" lon="116.646214">
        <time>2021-03-07T12:13:53Z</time>
      </trkpt>
      <trkpt lat="39.894699" lon="116.646288">
        <time>2021-03-07T12:13:58Z</time>
      </trkpt>
      <trkpt lat="39.894792" lon="116.646327">
        <time>2021-03-07T12:14:03Z</time>
      </trkpt>
      <trkpt lat="39.894892" lon="116.646394">
        <time>2021-03-07T12:14:08Z</time>
      </trkpt>
      <trkpt lat="39.895017" lon="116.646468">
        <time>2021-03-07T12:14:13Z</time>
      </trkpt>
      <trkpt lat="39.89515" lon="116.646513">
        <time>2021-03-07T12:14:18Z</time>
      </trkpt>
      <trkpt lat="39.89527" lon="116.646533">
        <time>2021-03-07T12:14:23Z</time>
      </trkpt>
      <trkpt lat="39.895444" lon="116.646598">
        <time>2021-03-07T12:14:28Z</time>
      </trkpt>
      <trkpt lat="39.895464" lon="116.646606">
        <time>2021-03-07T12:14:33Z</time>
      </trkpt>
      <trkpt lat="39.895581" lon="116.646647">
        <time>2021-03-07T12:14:38Z</time>
      </trkpt>
      <trkpt lat="39.895701" lon="116.646719">
        <time>2021-03-07T12:14:43Z</time>
      </trkpt>
      <trkpt lat="39.895825" lon="116.646788">
        <time>2021-03-07T12:14:48Z</time>
      </trkpt>
      <trkpt lat="39.895946" lon="116.646792">
        <time>2021-03-07T12:14:53Z</time>
      </trkpt>
      <trkpt lat="39.896033" lon="116.646689">
        <time>2021-03-07T12:14:58Z</time>
      </trkpt>
      <trkpt lat="39.896022" lon="116.646528">
        <time>2021-03-07T12:15:03Z</time>
      </trkpt>
      <trkpt lat="39.896047" lon="116.646389">
        <time>2021-03-07T12:15:08Z</time>
      </trkpt>
      <trkpt lat="39.896024" lon="116.646222">
        <time>2021-03-07T12:15:13Z</time>
      </trkpt>
      <trkpt lat="39.896032" lon="116.646061">
        <time>2021-03-07T12:15:18Z</time>
      </trkpt>
      <trkpt lat="39.89606" lon="116.645918">
        <time>2021-03-07T12:15:23Z</time>
      </trkpt>
      <trkpt lat="39.896084" lon="116.645789">
        <time>2021-03-07T12:15:28Z</time>
      </trkpt>
      <trkpt lat="39.8961" lon="116.645684">
        <time>2021-03-07T12:15:33Z</time>
      </trkpt>
      <trkpt lat="39.896122" lon="116.645541">
        <time>2021-03-07T12:15:38Z</time>
      </trkpt>
      <trkpt lat="39.896125" lon="116.645404">
        <time>2021-03-07T12:15:43Z</time>
      </trkpt>
      <trkpt lat="39.896135" lon="116.645263">
        <time>2021-03-07T12:15:48Z</time>
      </trkpt>
      <trkpt lat="39.896141" lon="116.645121">
        <time>2021-03-07T12:15:53Z</time>
      </trkpt>
      <trkpt lat="39.896155" lon="116.644969">
        <time>2021-03-07T12:15:58Z</time>
      </trkpt>
      <trkpt lat="39.896164" lon="116.644816">
        <time>2021-03-07T12:16:03Z</time>
      </trkpt>
      <trkpt lat="39.896221" lon="116.644706">
        <time>2021-03-07T12:16:08Z</time>
      </trkpt>
      <trkpt lat="39.896266" lon="116.644597">
        <time>2021-03-07T12:16:13Z</time>
      </trkpt>
      <trkpt lat="39.896255" lon="116.644438">
        <time>2021-03-07T12:16:18Z</time>
      </trkpt>
      <trkpt lat="39.896233" lon="116.644277">
        <time>2021-03-07T12:16:23Z</time>
      </trkpt>
      <trkpt lat="39.896228" lon="116.644135">
        <time>2021-03-07T12:16:28Z</time>
      </trkpt>
      <trkpt lat="39.896217" lon="116.643984">
        <time>2021-03-07T12:16:33Z</time>
      </trkpt>
      <trkpt lat="39.896229" lon="116.643843">
        <time>2021-03-07T12:16:38Z</time>
      </trkpt>
      <trkpt lat="39.896236" lon="116.643694">
        <time>2021-03-07T12:16:43Z</time>
      </trkpt>
      <trkpt lat="39.896209" lon="116.64355">
        <time>2021-03-07T12:16:48Z</time>
      </trkpt>
      <trkpt lat="39.896193" lon="116.643399">
        <time>2021-03-07T12:16:53Z</time>
      </trkpt>
      <trkpt lat="39.896183" lon="116.643264">
        <time>2021-03-07T12:16:58Z</time>
      </trkpt>
      <trkpt lat="39.896176" lon="116.643103">
        <time>2021-03-07T12:17:03Z</time>
      </trkpt>
      <trkpt lat="39.896198" lon="116.642983">
        <time>2021-03-07T12:17:08Z</time>
      </trkpt>
      <trkpt lat="39.896219" lon="116.642843">
        <time>2021-03-07T12:17:13Z</time>
      </trkpt>
      <trkpt lat="39.896227" lon="116.642683">
        <time>2021-03-07T12:17:18Z</time>
      </trkpt>
      <trkpt lat="39.8962" lon="116.642516">
        <time>2021-03-07T12:17:23Z</time>
      </trkpt>
      <trkpt lat="39.896201" lon="116.642367">
        <time>2021-03-07T12:17:28Z</time>
      </trkpt>
      <trkpt lat="39.896202" lon="116.642212">
        <time>2021-03-07T12:17:33Z</time>
      </trkpt>
      <trkpt lat="39.896195" lon="116.642053">
        <time>2021-03-07T12:17:38Z</time>
      </trkpt>
      <trkpt lat="39.896195" lon="116.641918">
        <time>2021-03-07T12:17:43Z</time>
      </trkpt>
      <trkpt lat="39.896187" lon="116.641793">
        <time>2021-03-07T12:17:48Z</time>
      </trkpt>
      <trkpt lat="39.896205" lon="116.641603">
        <time>2021-03-07T12:17:53Z</time>
      </trkpt>
      <trkpt lat="39.896198" lon="116.641543">
        <time>2021-03-07T12:17:58Z</time>
      </trkpt>
      <trkpt lat="39.896209" lon="116.641395">
        <time>2021-03-07T12:18:03Z</time>
      </trkpt>
      <trkpt lat="39.896208" lon="116.641237">
        <time>2021-03-07T12:18:08Z</time>
      </trkpt>
      <trkpt lat="39.896191" lon="116.641076">
        <time>2021-03-07T12:18:13Z</time>
      </trkpt>
      <trkpt lat="39.896194" lon="116.640957">
        <time>2021-03-07T12:18:18Z</time>
      </trkpt>
      <trkpt lat="39.896213" lon="116.640833">
        <time>2021-03-07T12:18:23Z</time>
      </trkpt>
      <trkpt lat="39.896209" lon="116.640686">
        <time>2021-03-07T12:18:28Z</time>
      </trkpt>
      <trkpt lat="39.896223" lon="116.640538">
        <time>2021-03-07T12:18:33Z</time>
      </trkpt>
      <trkpt lat="39.896219" lon="116.640377">
        <time>2021-03-07T12:18:38Z</time>
      </trkpt>
      <trkpt lat="39.896208" lon="116.640237">
        <time>2021-03-07T12:18:43Z</time>
      </trkpt>
      <trkpt lat="39.896195" lon="116.640096">
        <time>2021-03-07T12:18:48Z</time>
      </trkpt>
      <trkpt lat="39.896216" lon="116.639945">
        <time>2021-03-07T12:18:53Z</time>
      </trkpt>
      <trkpt lat="39.896189" lon="116.639795">
        <time>2021-03-07T12:18:58Z</time>
      </trkpt>
      <trkpt lat="39.896185" lon="116.639653">
        <time>2021-03-07T12:19:03Z</time>
      </trkpt>
      <trkpt lat="39.896168" lon="116.639497">
        <time>2021-03-07T12:19:08Z</time>
      </trkpt>
      <trkpt lat="39.896159" lon="116.639378">
        <time>2021-03-07T12:19:13Z</time>
      </trkpt>
      <trkpt lat="39.896161" lon="116.639229">
        <time>2021-03-07T12:19:18Z</time>
      </trkpt>
      <trkpt lat="39.896142" lon="116.639085">
        <time>2021-03-07T12:19:23Z</time>
      </trkpt>
      <trkpt lat="39.89611" lon="116.638944">
        <time>2021-03-07T12:19:28Z</time>
      </trkpt>
      <trkpt lat="39.896098" lon="116.638844">
        <time>2021-03-07T12:19:33Z</time>
      </trkpt>
      <trkpt lat="39.896071" lon="116.63873">
        <time>2021-03-07T12:19:38Z</time>
      </trkpt>
      <trkpt lat="39.896073" lon="116.638605">
        <time>2021-03-07T12:19:43Z</time>
      </trkpt>
      <trkpt lat="39.896067" lon="116.638489">
        <time>2021-03-07T12:19:48Z</time>
      </trkpt>
      <trkpt lat="39.896073" lon="116.638363">
        <time>2021-03-07T12:19:53Z</time>
      </trkpt>
      <trkpt lat="39.896079" lon="116.638232">
        <time>2021-03-07T12:19:58Z</time>
      </trkpt>
      <trkpt lat="39.896082" lon="116.638083">
        <time>2021-03-07T12:20:03Z</time>
      </trkpt>
      <trkpt lat="39.896091" lon="116.637898">
        <time>2021-03-07T12:20:08Z</time>
      </trkpt>
      <trkpt lat="39.89613" lon="116.637723">
        <time>2021-03-07T12:20:13Z</time>
      </trkpt>
      <trkpt lat="39.89613" lon="116.637555">
        <time>2021-03-07T12:20:18Z</time>
      </trkpt>
      <trkpt lat="39.896126" lon="116.637414">
        <time>2021-03-07T12:20:23Z</time>
      </trkpt>
      <trkpt lat="39.896102" lon="116.637263">
        <time>2021-03-07T12:20:28Z</time>
      </trkpt>
      <trkpt lat="39.896101" lon="116.637128">
        <time>2021-03-07T12:20:33Z</time>
      </trkpt>
      <trkpt lat="39.896069" lon="116.63698">
        <time>2021-03-07T12:20:38Z</time>
      </trkpt>
      <trkpt lat="39.896053" lon="116.636849">
        <time>2021-03-07T12:20:43Z</time>
      </trkpt>
      <trkpt lat="39.895997" lon="116.636722">
        <time>2021-03-07T12:20:48Z</time>
      </trkpt>
      <trkpt lat="39.895941" lon="116.636628">
        <time>2021-03-07T12:20:53Z</time>
      </trkpt>
      <trkpt lat="39.895853" lon="116.636523">
        <time>2021-03-07T12:20:58Z</time>
      </trkpt>
      <trkpt lat="39.895867" lon="116.636414">
        <time>2021-03-07T12:21:03Z</time>
      </trkpt>
      <trkpt lat="39.895985" lon="116.636332">
        <time>2021-03-07T12:21:08Z</time>
      </trkpt>
      <trkpt lat="39.896106" lon="116.636229">
        <time>2021-03-07T12:21:13Z</time>
      </trkpt>
      <trkpt lat="39.896208" lon="116.636117">
        <time>2021-03-07T12:21:18Z</time>
      </trkpt>
      <trkpt lat="39.896281" lon="116.636001">
        <time>2021-03-07T12:21:23Z</time>
      </trkpt>
      <trkpt lat="39.896385" lon="116.635927">
        <time>2021-03-07T12:21:28Z</time>
      </trkpt>
      <trkpt lat="39.896505" lon="116.635887">
        <time>2021-03-07T12:21:33Z</time>
      </trkpt>
      <trkpt lat="39.896619" lon="116.635847">
        <time>2021-03-07T12:21:38Z</time>
      </trkpt>
      <trkpt lat="39.896722" lon="116.635771">
        <time>2021-03-07T12:21:43Z</time>
      </trkpt>
      <trkpt lat="39.896826" lon="116.635686">
        <time>2021-03-07T12:21:48Z</time>
      </trkpt>
      <trkpt lat="39.896905" lon="116.63564">
        <time>2021-03-07T12:21:53Z</time>
      </trkpt>
      <trkpt lat="39.896974" lon="116.635651">
        <time>2021-03-07T12:21:58Z</time>
      </trkpt>
      <trkpt lat="39.897037" lon="116.635634">
        <time>2021-03-07T12:22:03Z</time>
      </trkpt>
      <trkpt lat="39.897071" lon="116.635615">
        <time>2021-03-07T12:22:08Z</time>
      </trkpt>
      <trkpt lat="39.897129" lon="116.635602">
        <time>2021-03-07T12:22:13Z</time>
      </trkpt>
      <trkpt lat="39.897198" lon="116.635551">
        <time>2021-03-07T12:22:18Z</time>
      </trkpt>
      <trkpt lat="39.897276" lon="116.635474">
        <time>2021-03-07T12:22:23Z</time>
      </trkpt>
      <trkpt lat="39.897335" lon="116.635424">
        <time>2021-03-07T12:22:28Z</time>
      </trkpt>
      <trkpt lat="39.897412" lon="116.635382">
        <time>2021-03-07T12:22:33Z</time>
      </trkpt>
      <trkpt lat="39.897522" lon="116.635326">
        <time>2021-03-07T12:22:38Z</time>
      </trkpt>
      <trkpt lat="39.897554" lon="116.635298">
        <time>2021-03-07T12:22:43Z</time>
      </trkpt>
      <trkpt lat="39.897618" lon="116.635246">
        <time>2021-03-07T12:22:48Z</time>
      </trkpt>
      <trkpt lat="39.897689" lon="116.635205">
        <time>2021-03-07T12:22:53Z</time>
      </trkpt>
      <trkpt lat="39.897769" lon="116.635146">
        <time>2021-03-07T12:22:58Z</time>
      </trkpt>
      <trkpt lat="39.897827" lon="116.635088">
        <time>2021-03-07T12:23:03Z</time>
      </trkpt>
      <trkpt lat="39.8979" lon="116.63506">
        <time>2021-03-07T12:23:08Z</time>
      </trkpt>
      <trkpt lat="39.897977" lon="116.635016">
        <time>2021-03-07T12:23:13Z</time>
      </trkpt>
      <trkpt lat="39.898043" lon="116.634958">
        <time>2021-03-07T12:23:18Z</time>
      </trkpt>
      <trkpt lat="39.898111" lon="116.634907">
        <time>2021-03-07T12:23:23Z</time>
      </trkpt>
      <trkpt lat="39.898165" lon="116.634868">
        <time>2021-03-07T12:23:28Z</time>
      </trkpt>
      <trkpt lat="39.898165" lon="116.634868">
        <time>2021-03-07T12:23:33Z</time>
      </trkpt>
      <trkpt lat="39.898101" lon="116.63491">
        <time>2021-03-07T12:23:38Z</time>
      </trkpt>
      <trkpt lat="39.898059" lon="116.634811">
        <time>2021-03-07T12:23:43Z</time>
      </trkpt>
      <trkpt lat="39.898015" lon="116.634711">
        <time>2021-03-07T12:23:48Z</time>
      </trkpt>
      <trkpt lat="39.897991" lon="116.634623">
        <time>2021-03-07T12:23:53Z</time>
      </trkpt>
      <trkpt lat="39.897977" lon="116.634547">
        <time>2021-03-07T12:23:58Z</time>
      </trkpt>
      <trkpt lat="39.897929" lon="116.634465">
        <time>2021-03-07T12:24:03Z</time>
      </trkpt>
      <trkpt lat="39.897892" lon="116.634391">
        <time>2021-03-07T12:24:08Z</time>
      </trkpt>
      <trkpt lat="39.897858" lon="116.63435">
        <time>2021-03-07T12:24:13Z</time>
      </trkpt>
      <trkpt lat="39.897818" lon="116.634282">
        <time>2021-03-07T12:24:18Z</time>
      </trkpt>
      <trkpt lat="39.897775" lon="116.634241">
        <time>2021-03-07T12:24:23Z</time>
      </trkpt>
      <trkpt lat="39.897724" lon="116.634105">
        <time>2021-03-07T12:24:28Z</time>
      </trkpt>
      <trkpt lat="39.897711" lon="116.63407">
        <time>2021-03-07T12:24:33Z</time>
      </trkpt>
      <trkpt lat="39.89769" lon="116.633988">
        <time>2021-03-07T12:24:38Z</time>
      </trkpt>
      <trkpt lat="39.897651" lon="116.633925">
        <time>2021-03-07T12:24:43Z</time>
      </trkpt>
      <trkpt lat="39.897626" lon="116.63382">
        <time>2021-03-07T12:24:48Z</time>
      </trkpt>
      <trkpt lat="39.89762" lon="116.633751">
        <time>2021-03-07T12:24:53Z</time>
      </trkpt>
      <trkpt lat="39.897595" lon="116.633702">
        <time>2021-03-07T12:24:58Z</time>
      </trkpt>
      <trkpt lat="39.897567" lon="116.633728">
        <time>2021-03-07T12:25:03Z</time>
      </trkpt>
      <trkpt lat="39.897513" lon="116.633728">
        <time>2021-03-07T12:25:08Z</time>
      </trkpt>
      <trkpt lat="39.897449" lon="116.633734">
        <time>2021-03-07T12:25:13Z</time>
      </trkpt>
      <trkpt lat="39.897404" lon="116.633805">
        <time>2021-03-07T12:25:18Z</time>
      </trkpt>
      <trkpt lat="39.897395" lon="116.633865">
        <time>2021-03-07T12:25:23Z</time>
      </trkpt>
      <trkpt lat="39.897406" lon="116.633907">
        <time>2021-03-07T12:25:28Z</time>
      </trkpt>
      <trkpt lat="39.897429" lon="116.634021">
        <time>2021-03-07T12:25:33Z</time>
      </trkpt>
      <trkpt lat="39.897429" lon="116.634021">
        <time>2021-03-07T12:28:02Z</time>
      </trkpt>
    </trkseg>
  </trk>
</gpx>