<?xml version="1.0" encoding="UTF-8"?>
<gpx xmlns="http://www.topografix.com/GPX/1/1" xmlns:gpxtpx="http://www.garmin.com/xmlschemas/TrackPointExtension/v1" xmlns:xsi="http://www.w3.org/2001/XMLSchema-instance" xsi:schemaLocation="http://www.topografix.com/GPX/1/1 http://www.topografix.com/GPX/1/1/gpx.xsd" version="1.1" creator="gpx.py -- https://github.com/tkrajina/gpxpy">
  <trk>
    <name>gpx from keep</name>
    <trkseg>
      <trkpt lat="39.897782" lon="116.633887">
        <time>2021-03-16T11:59:53Z</time>
      </trkpt>
      <trkpt lat="39.897782" lon="116.633887">
        <time>2021-03-16T11:59:58Z</time>
      </trkpt>
      <trkpt lat="39.897795" lon="116.633926">
        <time>2021-03-16T12:00:03Z</time>
      </trkpt>
      <trkpt lat="39.897822" lon="116.633957">
        <time>2021-03-16T12:00:08Z</time>
      </trkpt>
      <trkpt lat="39.897832" lon="116.633996">
        <time>2021-03-16T12:00:13Z</time>
      </trkpt>
      <trkpt lat="39.89784" lon="116.634086">
        <time>2021-03-16T12:00:18Z</time>
      </trkpt>
      <trkpt lat="39.897871" lon="116.6342">
        <time>2021-03-16T12:00:23Z</time>
      </trkpt>
      <trkpt lat="39.897912" lon="116.634326">
        <time>2021-03-16T12:00:28Z</time>
      </trkpt>
      <trkpt lat="39.897985" lon="116.634464">
        <time>2021-03-16T12:00:33Z</time>
      </trkpt>
      <trkpt lat="39.898027" lon="116.634565">
        <time>2021-03-16T12:00:38Z</time>
      </trkpt>
      <trkpt lat="39.898097" lon="116.63466">
        <time>2021-03-16T12:00:43Z</time>
      </trkpt>
      <trkpt lat="39.898085" lon="116.63467">
        <time>2021-03-16T12:00:48Z</time>
      </trkpt>
      <trkpt lat="39.898085" lon="116.63467">
        <time>2021-03-16T12:00:53Z</time>
      </trkpt>
      <trkpt lat="39.89809" lon="116.634643">
        <time>2021-03-16T12:00:58Z</time>
      </trkpt>
      <trkpt lat="39.89809" lon="116.634643">
        <time>2021-03-16T12:01:03Z</time>
      </trkpt>
      <trkpt lat="39.898084" lon="116.634648">
        <time>2021-03-16T12:01:08Z</time>
      </trkpt>
      <trkpt lat="39.898083" lon="116.634675">
        <time>2021-03-16T12:01:13Z</time>
      </trkpt>
      <trkpt lat="39.898103" lon="116.634783">
        <time>2021-03-16T12:01:18Z</time>
      </trkpt>
      <trkpt lat="39.898116" lon="116.634971">
        <time>2021-03-16T12:01:23Z</time>
      </trkpt>
      <trkpt lat="39.898065" lon="116.635069">
        <time>2021-03-16T12:01:28Z</time>
      </trkpt>
      <trkpt lat="39.897968" lon="116.635139">
        <time>2021-03-16T12:01:33Z</time>
      </trkpt>
      <trkpt lat="39.897861" lon="116.635214">
        <time>2021-03-16T12:01:38Z</time>
      </trkpt>
      <trkpt lat="39.897749" lon="116.635269">
        <time>2021-03-16T12:01:43Z</time>
      </trkpt>
      <trkpt lat="39.897661" lon="116.635363">
        <time>2021-03-16T12:01:48Z</time>
      </trkpt>
      <trkpt lat="39.897554" lon="116.635411">
        <time>2021-03-16T12:01:53Z</time>
      </trkpt>
      <trkpt lat="39.897441" lon="116.635508">
        <time>2021-03-16T12:01:58Z</time>
      </trkpt>
      <trkpt lat="39.897354" lon="116.635535">
        <time>2021-03-16T12:02:03Z</time>
      </trkpt>
      <trkpt lat="39.897226" lon="116.635603">
        <time>2021-03-16T12:02:08Z</time>
      </trkpt>
      <trkpt lat="39.897092" lon="116.635686">
        <time>2021-03-16T12:02:13Z</time>
      </trkpt>
      <trkpt lat="39.896962" lon="116.635755">
        <time>2021-03-16T12:02:18Z</time>
      </trkpt>
      <trkpt lat="39.896826" lon="116.635862">
        <time>2021-03-16T12:02:23Z</time>
      </trkpt>
      <trkpt lat="39.896726" lon="116.635934">
        <time>2021-03-16T12:02:28Z</time>
      </trkpt>
      <trkpt lat="39.896609" lon="116.636007">
        <time>2021-03-16T12:02:33Z</time>
      </trkpt>
      <trkpt lat="39.896482" lon="116.63614">
        <time>2021-03-16T12:02:38Z</time>
      </trkpt>
      <trkpt lat="39.896392" lon="116.63618">
        <time>2021-03-16T12:02:43Z</time>
      </trkpt>
      <trkpt lat="39.896275" lon="116.63616">
        <time>2021-03-16T12:02:48Z</time>
      </trkpt>
      <trkpt lat="39.896172" lon="116.636231">
        <time>2021-03-16T12:02:53Z</time>
      </trkpt>
      <trkpt lat="39.896157" lon="116.636312">
        <time>2021-03-16T12:02:58Z</time>
      </trkpt>
      <trkpt lat="39.896135" lon="116.6364">
        <time>2021-03-16T12:03:03Z</time>
      </trkpt>
      <trkpt lat="39.896118" lon="116.636439">
        <time>2021-03-16T12:03:08Z</time>
      </trkpt>
      <trkpt lat="39.896122" lon="116.636456">
        <time>2021-03-16T12:03:13Z</time>
      </trkpt>
      <trkpt lat="39.89612" lon="116.636476">
        <time>2021-03-16T12:03:18Z</time>
      </trkpt>
      <trkpt lat="39.89612" lon="116.636493">
        <time>2021-03-16T12:03:23Z</time>
      </trkpt>
      <trkpt lat="39.896113" lon="116.63646">
        <time>2021-03-16T12:03:28Z</time>
      </trkpt>
      <trkpt lat="39.896136" lon="116.636456">
        <time>2021-03-16T12:03:33Z</time>
      </trkpt>
      <trkpt lat="39.896136" lon="116.636456">
        <time>2021-03-16T12:03:38Z</time>
      </trkpt>
      <trkpt lat="39.896134" lon="116.636464">
        <time>2021-03-16T12:03:43Z</time>
      </trkpt>
      <trkpt lat="39.896114" lon="116.636483">
        <time>2021-03-16T12:03:48Z</time>
      </trkpt>
      <trkpt lat="39.896002" lon="116.636638">
        <time>2021-03-16T12:03:53Z</time>
      </trkpt>
      <trkpt lat="39.896055" lon="116.636803">
        <time>2021-03-16T12:03:58Z</time>
      </trkpt>
      <trkpt lat="39.896112" lon="116.636928">
        <time>2021-03-16T12:04:03Z</time>
      </trkpt>
      <trkpt lat="39.896154" lon="116.637061">
        <time>2021-03-16T12:04:08Z</time>
      </trkpt>
      <trkpt lat="39.896159" lon="116.637205">
        <time>2021-03-16T12:04:13Z</time>
      </trkpt>
      <trkpt lat="39.896161" lon="116.63733">
        <time>2021-03-16T12:04:18Z</time>
      </trkpt>
      <trkpt lat="39.896178" lon="116.637463">
        <time>2021-03-16T12:04:23Z</time>
      </trkpt>
      <trkpt lat="39.896195" lon="116.63761">
        <time>2021-03-16T12:04:28Z</time>
      </trkpt>
      <trkpt lat="39.896201" lon="116.637757">
        <time>2021-03-16T12:04:33Z</time>
      </trkpt>
      <trkpt lat="39.896192" lon="116.637902">
        <time>2021-03-16T12:04:38Z</time>
      </trkpt>
      <trkpt lat="39.896198" lon="116.638044">
        <time>2021-03-16T12:04:43Z</time>
      </trkpt>
      <trkpt lat="39.896204" lon="116.638185">
        <time>2021-03-16T12:04:48Z</time>
      </trkpt>
      <trkpt lat="39.896216" lon="116.638327">
        <time>2021-03-16T12:04:53Z</time>
      </trkpt>
      <trkpt lat="39.896221" lon="116.638473">
        <time>2021-03-16T12:04:58Z</time>
      </trkpt>
      <trkpt lat="39.896223" lon="116.638612">
        <time>2021-03-16T12:05:03Z</time>
      </trkpt>
      <trkpt lat="39.896225" lon="116.638772">
        <time>2021-03-16T12:05:08Z</time>
      </trkpt>
      <trkpt lat="39.896234" lon="116.638925">
        <time>2021-03-16T12:05:13Z</time>
      </trkpt>
      <trkpt lat="39.896236" lon="116.639074">
        <time>2021-03-16T12:05:18Z</time>
      </trkpt>
      <trkpt lat="39.896249" lon="116.639211">
        <time>2021-03-16T12:05:23Z</time>
      </trkpt>
      <trkpt lat="39.896271" lon="116.63936">
        <time>2021-03-16T12:05:28Z</time>
      </trkpt>
      <trkpt lat="39.896286" lon="116.639528">
        <time>2021-03-16T12:05:33Z</time>
      </trkpt>
      <trkpt lat="39.896281" lon="116.639666">
        <time>2021-03-16T12:05:38Z</time>
      </trkpt>
      <trkpt lat="39.896289" lon="116.639808">
        <time>2021-03-16T12:05:43Z</time>
      </trkpt>
      <trkpt lat="39.896296" lon="116.639938">
        <time>2021-03-16T12:05:48Z</time>
      </trkpt>
      <trkpt lat="39.896289" lon="116.640068">
        <time>2021-03-16T12:05:53Z</time>
      </trkpt>
      <trkpt lat="39.8963" lon="116.640213">
        <time>2021-03-16T12:05:58Z</time>
      </trkpt>
      <trkpt lat="39.896312" lon="116.640371">
        <time>2021-03-16T12:06:03Z</time>
      </trkpt>
      <trkpt lat="39.896293" lon="116.640548">
        <time>2021-03-16T12:06:08Z</time>
      </trkpt>
      <trkpt lat="39.896294" lon="116.64073">
        <time>2021-03-16T12:06:13Z</time>
      </trkpt>
      <trkpt lat="39.896307" lon="116.640923">
        <time>2021-03-16T12:06:18Z</time>
      </trkpt>
      <trkpt lat="39.896297" lon="116.641085">
        <time>2021-03-16T12:06:23Z</time>
      </trkpt>
      <trkpt lat="39.896281" lon="116.641181">
        <time>2021-03-16T12:06:28Z</time>
      </trkpt>
      <trkpt lat="39.896285" lon="116.641327">
        <time>2021-03-16T12:06:33Z</time>
      </trkpt>
      <trkpt lat="39.896275" lon="116.64145">
        <time>2021-03-16T12:06:38Z</time>
      </trkpt>
      <trkpt lat="39.89628" lon="116.641603">
        <time>2021-03-16T12:06:43Z</time>
      </trkpt>
      <trkpt lat="39.896279" lon="116.641745">
        <time>2021-03-16T12:06:48Z</time>
      </trkpt>
      <trkpt lat="39.896258" lon="116.641894">
        <time>2021-03-16T12:06:53Z</time>
      </trkpt>
      <trkpt lat="39.896223" lon="116.642112">
        <time>2021-03-16T12:06:58Z</time>
      </trkpt>
      <trkpt lat="39.896234" lon="116.642176">
        <time>2021-03-16T12:07:03Z</time>
      </trkpt>
      <trkpt lat="39.896238" lon="116.642328">
        <time>2021-03-16T12:07:08Z</time>
      </trkpt>
      <trkpt lat="39.896241" lon="116.642477">
        <time>2021-03-16T12:07:13Z</time>
      </trkpt>
      <trkpt lat="39.896232" lon="116.642625">
        <time>2021-03-16T12:07:18Z</time>
      </trkpt>
      <trkpt lat="39.896203" lon="116.64275">
        <time>2021-03-16T12:07:23Z</time>
      </trkpt>
      <trkpt lat="39.896187" lon="116.642907">
        <time>2021-03-16T12:07:28Z</time>
      </trkpt>
      <trkpt lat="39.896197" lon="116.643073">
        <time>2021-03-16T12:07:33Z</time>
      </trkpt>
      <trkpt lat="39.896183" lon="116.643225">
        <time>2021-03-16T12:07:38Z</time>
      </trkpt>
      <trkpt lat="39.896192" lon="116.64338">
        <time>2021-03-16T12:07:43Z</time>
      </trkpt>
      <trkpt lat="39.8962" lon="116.643481">
        <time>2021-03-16T12:07:48Z</time>
      </trkpt>
      <trkpt lat="39.896218" lon="116.643592">
        <time>2021-03-16T12:07:53Z</time>
      </trkpt>
      <trkpt lat="39.896241" lon="116.643739">
        <time>2021-03-16T12:07:58Z</time>
      </trkpt>
      <trkpt lat="39.89623" lon="116.643872">
        <time>2021-03-16T12:08:03Z</time>
      </trkpt>
      <trkpt lat="39.896244" lon="116.644018">
        <time>2021-03-16T12:08:08Z</time>
      </trkpt>
      <trkpt lat="39.896253" lon="116.644162">
        <time>2021-03-16T12:08:13Z</time>
      </trkpt>
      <trkpt lat="39.896242" lon="116.644295">
        <time>2021-03-16T12:08:18Z</time>
      </trkpt>
      <trkpt lat="39.896238" lon="116.644444">
        <time>2021-03-16T12:08:23Z</time>
      </trkpt>
      <trkpt lat="39.896231" lon="116.644557">
        <time>2021-03-16T12:08:28Z</time>
      </trkpt>
      <trkpt lat="39.896244" lon="116.644696">
        <time>2021-03-16T12:08:33Z</time>
      </trkpt>
      <trkpt lat="39.896222" lon="116.644828">
        <time>2021-03-16T12:08:38Z</time>
      </trkpt>
      <trkpt lat="39.896238" lon="116.644996">
        <time>2021-03-16T12:08:43Z</time>
      </trkpt>
      <trkpt lat="39.896217" lon="116.645151">
        <time>2021-03-16T12:08:48Z</time>
      </trkpt>
      <trkpt lat="39.896229" lon="116.645312">
        <time>2021-03-16T12:08:53Z</time>
      </trkpt>
      <trkpt lat="39.896233" lon="116.645475">
        <time>2021-03-16T12:08:58Z</time>
      </trkpt>
      <trkpt lat="39.896196" lon="116.645608">
        <time>2021-03-16T12:09:03Z</time>
      </trkpt>
      <trkpt lat="39.896157" lon="116.645743">
        <time>2021-03-16T12:09:08Z</time>
      </trkpt>
      <trkpt lat="39.896136" lon="116.645899">
        <time>2021-03-16T12:09:13Z</time>
      </trkpt>
      <trkpt lat="39.89611" lon="116.646051">
        <time>2021-03-16T12:09:18Z</time>
      </trkpt>
      <trkpt lat="39.896083" lon="116.64619">
        <time>2021-03-16T12:09:23Z</time>
      </trkpt>
      <trkpt lat="39.896068" lon="116.646331">
        <time>2021-03-16T12:09:28Z</time>
      </trkpt>
      <trkpt lat="39.896063" lon="116.646487">
        <time>2021-03-16T12:09:33Z</time>
      </trkpt>
      <trkpt lat="39.896057" lon="116.64663">
        <time>2021-03-16T12:09:38Z</time>
      </trkpt>
      <trkpt lat="39.896042" lon="116.646765">
        <time>2021-03-16T12:09:43Z</time>
      </trkpt>
      <trkpt lat="39.895927" lon="116.646846">
        <time>2021-03-16T12:09:48Z</time>
      </trkpt>
      <trkpt lat="39.8958" lon="116.646797">
        <time>2021-03-16T12:09:53Z</time>
      </trkpt>
      <trkpt lat="39.895686" lon="116.64673">
        <time>2021-03-16T12:09:58Z</time>
      </trkpt>
      <trkpt lat="39.895587" lon="116.646669">
        <time>2021-03-16T12:10:03Z</time>
      </trkpt>
      <trkpt lat="39.895483" lon="116.646615">
        <time>2021-03-16T12:10:08Z</time>
      </trkpt>
      <trkpt lat="39.895375" lon="116.646563">
        <time>2021-03-16T12:10:13Z</time>
      </trkpt>
      <trkpt lat="39.895276" lon="116.646515">
        <time>2021-03-16T12:10:18Z</time>
      </trkpt>
      <trkpt lat="39.895167" lon="116.646451">
        <time>2021-03-16T12:10:23Z</time>
      </trkpt>
      <trkpt lat="39.895078" lon="116.646403">
        <time>2021-03-16T12:10:28Z</time>
      </trkpt>
      <trkpt lat="39.89491" lon="116.646364">
        <time>2021-03-16T12:10:33Z</time>
      </trkpt>
      <trkpt lat="39.894844" lon="116.64637">
        <time>2021-03-16T12:10:38Z</time>
      </trkpt>
      <trkpt lat="39.89474" lon="116.646329">
        <time>2021-03-16T12:10:43Z</time>
      </trkpt>
      <trkpt lat="39.894624" lon="116.64628">
        <time>2021-03-16T12:10:48Z</time>
      </trkpt>
      <trkpt lat="39.894436" lon="116.64621">
        <time>2021-03-16T12:10:53Z</time>
      </trkpt>
      <trkpt lat="39.894417" lon="116.646203">
        <time>2021-03-16T12:10:58Z</time>
      </trkpt>
      <trkpt lat="39.894312" lon="116.646146">
        <time>2021-03-16T12:11:03Z</time>
      </trkpt>
      <trkpt lat="39.894207" lon="116.646076">
        <time>2021-03-16T12:11:08Z</time>
      </trkpt>
      <trkpt lat="39.894096" lon="116.646013">
        <time>2021-03-16T12:11:13Z</time>
      </trkpt>
      <trkpt lat="39.893993" lon="116.645949">
        <time>2021-03-16T12:11:18Z</time>
      </trkpt>
      <trkpt lat="39.893892" lon="116.645935">
        <time>2021-03-16T12:11:23Z</time>
      </trkpt>
      <trkpt lat="39.893816" lon="116.646048">
        <time>2021-03-16T12:11:28Z</time>
      </trkpt>
      <trkpt lat="39.893764" lon="116.646168">
        <time>2021-03-16T12:11:33Z</time>
      </trkpt>
      <trkpt lat="39.893717" lon="116.646291">
        <time>2021-03-16T12:11:38Z</time>
      </trkpt>
      <trkpt lat="39.893636" lon="116.646423">
        <time>2021-03-16T12:11:43Z</time>
      </trkpt>
      <trkpt lat="39.893536" lon="116.646388">
        <time>2021-03-16T12:11:48Z</time>
      </trkpt>
      <trkpt lat="39.893422" lon="116.646313">
        <time>2021-03-16T12:11:53Z</time>
      </trkpt>
      <trkpt lat="39.893313" lon="116.646241">
        <time>2021-03-16T12:11:58Z</time>
      </trkpt>
      <trkpt lat="39.893184" lon="116.646224">
        <time>2021-03-16T12:12:03Z</time>
      </trkpt>
      <trkpt lat="39.892969" lon="116.646137">
        <time>2021-03-16T12:12:08Z</time>
      </trkpt>
      <trkpt lat="39.892928" lon="116.646098">
        <time>2021-03-16T12:12:13Z</time>
      </trkpt>
      <trkpt lat="39.892844" lon="116.646036">
        <time>2021-03-16T12:12:18Z</time>
      </trkpt>
      <trkpt lat="39.892742" lon="116.645966">
        <time>2021-03-16T12:12:23Z</time>
      </trkpt>
      <trkpt lat="39.892652" lon="116.645902">
        <time>2021-03-16T12:12:28Z</time>
      </trkpt>
      <trkpt lat="39.892543" lon="116.645832">
        <time>2021-03-16T12:12:33Z</time>
      </trkpt>
      <trkpt lat="39.89243" lon="116.64578">
        <time>2021-03-16T12:12:38Z</time>
      </trkpt>
      <trkpt lat="39.892243" lon="116.645737">
        <time>2021-03-16T12:12:43Z</time>
      </trkpt>
      <trkpt lat="39.892205" lon="116.645718">
        <time>2021-03-16T12:12:48Z</time>
      </trkpt>
      <trkpt lat="39.892105" lon="116.64565">
        <time>2021-03-16T12:12:53Z</time>
      </trkpt>
      <trkpt lat="39.892008" lon="116.645578">
        <time>2021-03-16T12:12:58Z</time>
      </trkpt>
      <trkpt lat="39.89189" lon="116.645543">
        <time>2021-03-16T12:13:03Z</time>
      </trkpt>
      <trkpt lat="39.89179" lon="116.645487">
        <time>2021-03-16T12:13:08Z</time>
      </trkpt>
      <trkpt lat="39.891676" lon="116.645431">
        <time>2021-03-16T12:13:13Z</time>
      </trkpt>
      <trkpt lat="39.891573" lon="116.645373">
        <time>2021-03-16T12:13:18Z</time>
      </trkpt>
      <trkpt lat="39.891504" lon="116.645415">
        <time>2021-03-16T12:13:23Z</time>
      </trkpt>
      <trkpt lat="39.891571" lon="116.645448">
        <time>2021-03-16T12:13:28Z</time>
      </trkpt>
      <trkpt lat="39.89166" lon="116.645471">
        <time>2021-03-16T12:13:33Z</time>
      </trkpt>
      <trkpt lat="39.891722" lon="116.645507">
        <time>2021-03-16T12:13:38Z</time>
      </trkpt>
      <trkpt lat="39.891823" lon="116.645539">
        <time>2021-03-16T12:13:43Z</time>
      </trkpt>
      <trkpt lat="39.891955" lon="116.645573">
        <time>2021-03-16T12:13:48Z</time>
      </trkpt>
      <trkpt lat="39.892055" lon="116.645626">
        <time>2021-03-16T12:13:53Z</time>
      </trkpt>
      <trkpt lat="39.892186" lon="116.645665">
        <time>2021-03-16T12:13:58Z</time>
      </trkpt>
      <trkpt lat="39.892292" lon="116.645698">
        <time>2021-03-16T12:14:03Z</time>
      </trkpt>
      <trkpt lat="39.892379" lon="116.64575">
        <time>2021-03-16T12:14:08Z</time>
      </trkpt>
      <trkpt lat="39.892454" lon="116.645793">
        <time>2021-03-16T12:14:13Z</time>
      </trkpt>
      <trkpt lat="39.892544" lon="116.645833">
        <time>2021-03-16T12:14:18Z</time>
      </trkpt>
      <trkpt lat="39.892654" lon="116.64589">
        <time>2021-03-16T12:14:23Z</time>
      </trkpt>
      <trkpt lat="39.892754" lon="116.645928">
        <time>2021-03-16T12:14:28Z</time>
      </trkpt>
      <trkpt lat="39.892852" lon="116.645961">
        <time>2021-03-16T12:14:33Z</time>
      </trkpt>
      <trkpt lat="39.892961" lon="116.646002">
        <time>2021-03-16T12:14:38Z</time>
      </trkpt>
      <trkpt lat="39.893053" lon="116.64607">
        <time>2021-03-16T12:14:43Z</time>
      </trkpt>
      <trkpt lat="39.893165" lon="116.646124">
        <time>2021-03-16T12:14:48Z</time>
      </trkpt>
      <trkpt lat="39.893277" lon="116.64616">
        <time>2021-03-16T12:14:53Z</time>
      </trkpt>
      <trkpt lat="39.893362" lon="116.646204">
        <time>2021-03-16T12:14:58Z</time>
      </trkpt>
      <trkpt lat="39.893449" lon="116.646254">
        <time>2021-03-16T12:15:03Z</time>
      </trkpt>
      <trkpt lat="39.893563" lon="116.646345">
        <time>2021-03-16T12:15:08Z</time>
      </trkpt>
      <trkpt lat="39.89362" lon="116.646377">
        <time>2021-03-16T12:15:13Z</time>
      </trkpt>
      <trkpt lat="39.893727" lon="116.646318">
        <time>2021-03-16T12:15:18Z</time>
      </trkpt>
      <trkpt lat="39.893826" lon="116.646068">
        <time>2021-03-16T12:15:23Z</time>
      </trkpt>
      <trkpt lat="39.893838" lon="116.646041">
        <time>2021-03-16T12:15:28Z</time>
      </trkpt>
      <trkpt lat="39.893913" lon="116.645919">
        <time>2021-03-16T12:15:33Z</time>
      </trkpt>
      <trkpt lat="39.894" lon="116.645891">
        <time>2021-03-16T12:15:38Z</time>
      </trkpt>
      <trkpt lat="39.894124" lon="116.64596">
        <time>2021-03-16T12:15:43Z</time>
      </trkpt>
      <trkpt lat="39.894284" lon="116.646022">
        <time>2021-03-16T12:15:48Z</time>
      </trkpt>
      <trkpt lat="39.894375" lon="116.646058">
        <time>2021-03-16T12:15:53Z</time>
      </trkpt>
      <trkpt lat="39.894483" lon="116.646125">
        <time>2021-03-16T12:15:58Z</time>
      </trkpt>
      <trkpt lat="39.894564" lon="116.646184">
        <time>2021-03-16T12:16:03Z</time>
      </trkpt>
      <trkpt lat="39.894689" lon="116.646237">
        <time>2021-03-16T12:16:08Z</time>
      </trkpt>
      <trkpt lat="39.894808" lon="116.646277">
        <time>2021-03-16T12:16:13Z</time>
      </trkpt>
      <trkpt lat="39.894899" lon="116.646349">
        <time>2021-03-16T12:16:18Z</time>
      </trkpt>
      <trkpt lat="39.895004" lon="116.646391">
        <time>2021-03-16T12:16:23Z</time>
      </trkpt>
      <trkpt lat="39.895113" lon="116.646436">
        <time>2021-03-16T12:16:28Z</time>
      </trkpt>
      <trkpt lat="39.895217" lon="116.646494">
        <time>2021-03-16T12:16:33Z</time>
      </trkpt>
      <trkpt lat="39.895323" lon="116.646545">
        <time>2021-03-16T12:16:38Z</time>
      </trkpt>
      <trkpt lat="39.895443" lon="116.646602">
        <time>2021-03-16T12:16:43Z</time>
      </trkpt>
      <trkpt lat="39.89552" lon="116.646617">
        <time>2021-03-16T12:16:48Z</time>
      </trkpt>
      <trkpt lat="39.895621" lon="116.646644">
        <time>2021-03-16T12:16:53Z</time>
      </trkpt>
      <trkpt lat="39.895723" lon="116.646695">
        <time>2021-03-16T12:16:58Z</time>
      </trkpt>
      <trkpt lat="39.89583" lon="116.646744">
        <time>2021-03-16T12:17:03Z</time>
      </trkpt>
      <trkpt lat="39.895931" lon="116.646804">
        <time>2021-03-16T12:17:08Z</time>
      </trkpt>
      <trkpt lat="39.896043" lon="116.646825">
        <time>2021-03-16T12:17:13Z</time>
      </trkpt>
      <trkpt lat="39.896096" lon="116.646791">
        <time>2021-03-16T12:17:18Z</time>
      </trkpt>
      <trkpt lat="39.896064" lon="116.646603">
        <time>2021-03-16T12:17:23Z</time>
      </trkpt>
      <trkpt lat="39.896044" lon="116.646426">
        <time>2021-03-16T12:17:28Z</time>
      </trkpt>
      <trkpt lat="39.896042" lon="116.64626">
        <time>2021-03-16T12:17:33Z</time>
      </trkpt>
      <trkpt lat="39.896049" lon="116.646088">
        <time>2021-03-16T12:17:38Z</time>
      </trkpt>
      <trkpt lat="39.896048" lon="116.645916">
        <time>2021-03-16T12:17:43Z</time>
      </trkpt>
      <trkpt lat="39.89606" lon="116.645737">
        <time>2021-03-16T12:17:48Z</time>
      </trkpt>
      <trkpt lat="39.896074" lon="116.645582">
        <time>2021-03-16T12:17:53Z</time>
      </trkpt>
      <trkpt lat="39.896122" lon="116.645472">
        <time>2021-03-16T12:17:58Z</time>
      </trkpt>
      <trkpt lat="39.896135" lon="116.645374">
        <time>2021-03-16T12:18:03Z</time>
      </trkpt>
      <trkpt lat="39.896165" lon="116.645214">
        <time>2021-03-16T12:18:08Z</time>
      </trkpt>
      <trkpt lat="39.896166" lon="116.645102">
        <time>2021-03-16T12:18:13Z</time>
      </trkpt>
      <trkpt lat="39.896179" lon="116.644963">
        <time>2021-03-16T12:18:18Z</time>
      </trkpt>
      <trkpt lat="39.896198" lon="116.644832">
        <time>2021-03-16T12:18:23Z</time>
      </trkpt>
      <trkpt lat="39.896203" lon="116.644709">
        <time>2021-03-16T12:18:28Z</time>
      </trkpt>
      <trkpt lat="39.896205" lon="116.644576">
        <time>2021-03-16T12:18:33Z</time>
      </trkpt>
      <trkpt lat="39.896206" lon="116.644451">
        <time>2021-03-16T12:18:38Z</time>
      </trkpt>
      <trkpt lat="39.896201" lon="116.644311">
        <time>2021-03-16T12:18:43Z</time>
      </trkpt>
      <trkpt lat="39.896206" lon="116.644175">
        <time>2021-03-16T12:18:48Z</time>
      </trkpt>
      <trkpt lat="39.896207" lon="116.644054">
        <time>2021-03-16T12:18:53Z</time>
      </trkpt>
      <trkpt lat="39.896194" lon="116.643924">
        <time>2021-03-16T12:18:58Z</time>
      </trkpt>
      <trkpt lat="39.896168" lon="116.643792">
        <time>2021-03-16T12:19:03Z</time>
      </trkpt>
      <trkpt lat="39.896172" lon="116.643653">
        <time>2021-03-16T12:19:08Z</time>
      </trkpt>
      <trkpt lat="39.896168" lon="116.643533">
        <time>2021-03-16T12:19:13Z</time>
      </trkpt>
      <trkpt lat="39.89617" lon="116.6434">
        <time>2021-03-16T12:19:18Z</time>
      </trkpt>
      <trkpt lat="39.896165" lon="116.643256">
        <time>2021-03-16T12:19:23Z</time>
      </trkpt>
      <trkpt lat="39.896177" lon="116.643125">
        <time>2021-03-16T12:19:28Z</time>
      </trkpt>
      <trkpt lat="39.896197" lon="116.642984">
        <time>2021-03-16T12:19:33Z</time>
      </trkpt>
      <trkpt lat="39.896198" lon="116.642812">
        <time>2021-03-16T12:19:38Z</time>
      </trkpt>
      <trkpt lat="39.896181" lon="116.642559">
        <time>2021-03-16T12:19:43Z</time>
      </trkpt>
      <trkpt lat="39.896194" lon="116.642506">
        <time>2021-03-16T12:19:48Z</time>
      </trkpt>
      <trkpt lat="39.896171" lon="116.642338">
        <time>2021-03-16T12:19:53Z</time>
      </trkpt>
      <trkpt lat="39.896171" lon="116.642178">
        <time>2021-03-16T12:19:58Z</time>
      </trkpt>
      <trkpt lat="39.89616" lon="116.642027">
        <time>2021-03-16T12:20:03Z</time>
      </trkpt>
      <trkpt lat="39.896153" lon="116.641895">
        <time>2021-03-16T12:20:08Z</time>
      </trkpt>
      <trkpt lat="39.89617" lon="116.64176">
        <time>2021-03-16T12:20:13Z</time>
      </trkpt>
      <trkpt lat="39.896175" lon="116.641549">
        <time>2021-03-16T12:20:18Z</time>
      </trkpt>
      <trkpt lat="39.896169" lon="116.641449">
        <time>2021-03-16T12:20:23Z</time>
      </trkpt>
      <trkpt lat="39.896185" lon="116.641304">
        <time>2021-03-16T12:20:28Z</time>
      </trkpt>
      <trkpt lat="39.896196" lon="116.641146">
        <time>2021-03-16T12:20:33Z</time>
      </trkpt>
      <trkpt lat="39.896206" lon="116.641022">
        <time>2021-03-16T12:20:38Z</time>
      </trkpt>
      <trkpt lat="39.896213" lon="116.640881">
        <time>2021-03-16T12:20:43Z</time>
      </trkpt>
      <trkpt lat="39.89622" lon="116.640743">
        <time>2021-03-16T12:20:48Z</time>
      </trkpt>
      <trkpt lat="39.896238" lon="116.640614">
        <time>2021-03-16T12:20:53Z</time>
      </trkpt>
      <trkpt lat="39.896233" lon="116.640461">
        <time>2021-03-16T12:20:58Z</time>
      </trkpt>
      <trkpt lat="39.896239" lon="116.640302">
        <time>2021-03-16T12:21:03Z</time>
      </trkpt>
      <trkpt lat="39.896233" lon="116.640136">
        <time>2021-03-16T12:21:08Z</time>
      </trkpt>
      <trkpt lat="39.896227" lon="116.639966">
        <time>2021-03-16T12:21:13Z</time>
      </trkpt>
      <trkpt lat="39.896221" lon="116.639833">
        <time>2021-03-16T12:21:18Z</time>
      </trkpt>
      <trkpt lat="39.89623" lon="116.639714">
        <time>2021-03-16T12:21:23Z</time>
      </trkpt>
      <trkpt lat="39.896213" lon="116.639549">
        <time>2021-03-16T12:21:28Z</time>
      </trkpt>
      <trkpt lat="39.896196" lon="116.639399">
        <time>2021-03-16T12:21:33Z</time>
      </trkpt>
      <trkpt lat="39.896187" lon="116.639245">
        <time>2021-03-16T12:21:38Z</time>
      </trkpt>
      <trkpt lat="39.896166" lon="116.63909">
        <time>2021-03-16T12:21:43Z</time>
      </trkpt>
      <trkpt lat="39.896144" lon="116.638958">
        <time>2021-03-16T12:21:48Z</time>
      </trkpt>
      <trkpt lat="39.896112" lon="116.638793">
        <time>2021-03-16T12:21:53Z</time>
      </trkpt>
      <trkpt lat="39.896082" lon="116.638631">
        <time>2021-03-16T12:21:58Z</time>
      </trkpt>
      <trkpt lat="39.896058" lon="116.638461">
        <time>2021-03-16T12:22:03Z</time>
      </trkpt>
      <trkpt lat="39.896025" lon="116.638293">
        <time>2021-03-16T12:22:08Z</time>
      </trkpt>
      <trkpt lat="39.896006" lon="116.638146">
        <time>2021-03-16T12:22:13Z</time>
      </trkpt>
      <trkpt lat="39.896004" lon="116.637999">
        <time>2021-03-16T12:22:18Z</time>
      </trkpt>
      <trkpt lat="39.896011" lon="116.637882">
        <time>2021-03-16T12:22:23Z</time>
      </trkpt>
      <trkpt lat="39.896055" lon="116.637797">
        <time>2021-03-16T12:22:28Z</time>
      </trkpt>
      <trkpt lat="39.896087" lon="116.637696">
        <time>2021-03-16T12:22:33Z</time>
      </trkpt>
      <trkpt lat="39.896104" lon="116.63756">
        <time>2021-03-16T12:22:38Z</time>
      </trkpt>
      <trkpt lat="39.896094" lon="116.637404">
        <time>2021-03-16T12:22:43Z</time>
      </trkpt>
      <trkpt lat="39.896082" lon="116.637253">
        <time>2021-03-16T12:22:48Z</time>
      </trkpt>
      <trkpt lat="39.89607" lon="116.637132">
        <time>2021-03-16T12:22:53Z</time>
      </trkpt>
      <trkpt lat="39.896047" lon="116.636982">
        <time>2021-03-16T12:22:58Z</time>
      </trkpt>
      <trkpt lat="39.896037" lon="116.636845">
        <time>2021-03-16T12:23:03Z</time>
      </trkpt>
      <trkpt lat="39.896023" lon="116.636766">
        <time>2021-03-16T12:23:08Z</time>
      </trkpt>
      <trkpt lat="39.895978" lon="116.636698">
        <time>2021-03-16T12:23:13Z</time>
      </trkpt>
      <trkpt lat="39.895997" lon="116.63679">
        <time>2021-03-16T12:23:18Z</time>
      </trkpt>
      <trkpt lat="39.896081" lon="116.636927">
        <time>2021-03-16T12:23:23Z</time>
      </trkpt>
      <trkpt lat="39.89612" lon="116.637074">
        <time>2021-03-16T12:23:28Z</time>
      </trkpt>
      <trkpt lat="39.896149" lon="116.637217">
        <time>2021-03-16T12:23:33Z</time>
      </trkpt>
      <trkpt lat="39.89619" lon="116.637387">
        <time>2021-03-16T12:23:38Z</time>
      </trkpt>
      <trkpt lat="39.896213" lon="116.637534">
        <time>2021-03-16T12:23:43Z</time>
      </trkpt>
      <trkpt lat="39.896222" lon="116.637701">
        <time>2021-03-16T12:23:48Z</time>
      </trkpt>
      <trkpt lat="39.896218" lon="116.637839">
        <time>2021-03-16T12:23:53Z</time>
      </trkpt>
      <trkpt lat="39.896209" lon="116.637979">
        <time>2021-03-16T12:23:58Z</time>
      </trkpt>
      <trkpt lat="39.896213" lon="116.638102">
        <time>2021-03-16T12:24:03Z</time>
      </trkpt>
      <trkpt lat="39.896232" lon="116.638255">
        <time>2021-03-16T12:24:08Z</time>
      </trkpt>
      <trkpt lat="39.896255" lon="116.638429">
        <time>2021-03-16T12:24:13Z</time>
      </trkpt>
      <trkpt lat="39.896243" lon="116.638589">
        <time>2021-03-16T12:24:18Z</time>
      </trkpt>
      <trkpt lat="39.896247" lon="116.638752">
        <time>2021-03-16T12:24:23Z</time>
      </trkpt>
      <trkpt lat="39.896244" lon="116.638902">
        <time>2021-03-16T12:24:28Z</time>
      </trkpt>
      <trkpt lat="39.89624" lon="116.639008">
        <time>2021-03-16T12:24:33Z</time>
      </trkpt>
      <trkpt lat="39.896241" lon="116.639121">
        <time>2021-03-16T12:24:38Z</time>
      </trkpt>
      <trkpt lat="39.896237" lon="116.639254">
        <time>2021-03-16T12:24:43Z</time>
      </trkpt>
      <trkpt lat="39.896238" lon="116.639407">
        <time>2021-03-16T12:24:48Z</time>
      </trkpt>
      <trkpt lat="39.896225" lon="116.639554">
        <time>2021-03-16T12:24:53Z</time>
      </trkpt>
      <trkpt lat="39.896233" lon="116.639721">
        <time>2021-03-16T12:24:58Z</time>
      </trkpt>
      <trkpt lat="39.896258" lon="116.63988">
        <time>2021-03-16T12:25:03Z</time>
      </trkpt>
      <trkpt lat="39.896275" lon="116.640017">
        <time>2021-03-16T12:25:08Z</time>
      </trkpt>
      <trkpt lat="39.896255" lon="116.640159">
        <time>2021-03-16T12:25:13Z</time>
      </trkpt>
      <trkpt lat="39.896283" lon="116.640326">
        <time>2021-03-16T12:25:18Z</time>
      </trkpt>
      <trkpt lat="39.896286" lon="116.64052">
        <time>2021-03-16T12:25:23Z</time>
      </trkpt>
      <trkpt lat="39.896272" lon="116.640727">
        <time>2021-03-16T12:25:28Z</time>
      </trkpt>
      <trkpt lat="39.896267" lon="116.640908">
        <time>2021-03-16T12:25:33Z</time>
      </trkpt>
      <trkpt lat="39.896296" lon="116.641064">
        <time>2021-03-16T12:25:38Z</time>
      </trkpt>
      <trkpt lat="39.896291" lon="116.641222">
        <time>2021-03-16T12:25:43Z</time>
      </trkpt>
      <trkpt lat="39.896253" lon="116.641378">
        <time>2021-03-16T12:25:48Z</time>
      </trkpt>
      <trkpt lat="39.896247" lon="116.641544">
        <time>2021-03-16T12:25:53Z</time>
      </trkpt>
      <trkpt lat="39.896257" lon="116.64166">
        <time>2021-03-16T12:25:58Z</time>
      </trkpt>
      <trkpt lat="39.896254" lon="116.641749">
        <time>2021-03-16T12:26:03Z</time>
      </trkpt>
      <trkpt lat="39.89626" lon="116.641878">
        <time>2021-03-16T12:26:08Z</time>
      </trkpt>
      <trkpt lat="39.896251" lon="116.642">
        <time>2021-03-16T12:26:13Z</time>
      </trkpt>
      <trkpt lat="39.896217" lon="116.642105">
        <time>2021-03-16T12:26:18Z</time>
      </trkpt>
      <trkpt lat="39.896203" lon="116.642258">
        <time>2021-03-16T12:26:23Z</time>
      </trkpt>
      <trkpt lat="39.896213" lon="116.642434">
        <time>2021-03-16T12:26:28Z</time>
      </trkpt>
      <trkpt lat="39.896212" lon="116.6426">
        <time>2021-03-16T12:26:33Z</time>
      </trkpt>
      <trkpt lat="39.896244" lon="116.642756">
        <time>2021-03-16T12:26:38Z</time>
      </trkpt>
      <trkpt lat="39.896225" lon="116.642893">
        <time>2021-03-16T12:26:43Z</time>
      </trkpt>
      <trkpt lat="39.896192" lon="116.643051">
        <time>2021-03-16T12:26:48Z</time>
      </trkpt>
      <trkpt lat="39.896174" lon="116.643206">
        <time>2021-03-16T12:26:53Z</time>
      </trkpt>
      <trkpt lat="39.896181" lon="116.64337">
        <time>2021-03-16T12:26:58Z</time>
      </trkpt>
      <trkpt lat="39.896212" lon="116.643534">
        <time>2021-03-16T12:27:03Z</time>
      </trkpt>
      <trkpt lat="39.896231" lon="116.643701">
        <time>2021-03-16T12:27:08Z</time>
      </trkpt>
      <trkpt lat="39.896223" lon="116.643872">
        <time>2021-03-16T12:27:13Z</time>
      </trkpt>
      <trkpt lat="39.89623" lon="116.644049">
        <time>2021-03-16T12:27:18Z</time>
      </trkpt>
      <trkpt lat="39.896216" lon="116.644211">
        <time>2021-03-16T12:27:23Z</time>
      </trkpt>
      <trkpt lat="39.8962" lon="116.644352">
        <time>2021-03-16T12:27:28Z</time>
      </trkpt>
      <trkpt lat="39.89619" lon="116.644506">
        <time>2021-03-16T12:27:33Z</time>
      </trkpt>
      <trkpt lat="39.896188" lon="116.644654">
        <time>2021-03-16T12:27:38Z</time>
      </trkpt>
      <trkpt lat="39.896208" lon="116.644785">
        <time>2021-03-16T12:27:43Z</time>
      </trkpt>
      <trkpt lat="39.896217" lon="116.644997">
        <time>2021-03-16T12:27:48Z</time>
      </trkpt>
      <trkpt lat="39.896206" lon="116.64515">
        <time>2021-03-16T12:27:53Z</time>
      </trkpt>
      <trkpt lat="39.896218" lon="116.645295">
        <time>2021-03-16T12:27:58Z</time>
      </trkpt>
      <trkpt lat="39.896209" lon="116.645427">
        <time>2021-03-16T12:28:03Z</time>
      </trkpt>
      <trkpt lat="39.896169" lon="116.645539">
        <time>2021-03-16T12:28:08Z</time>
      </trkpt>
      <trkpt lat="39.896162" lon="116.64568">
        <time>2021-03-16T12:28:13Z</time>
      </trkpt>
      <trkpt lat="39.896144" lon="116.6458">
        <time>2021-03-16T12:28:18Z</time>
      </trkpt>
      <trkpt lat="39.896123" lon="116.645946">
        <time>2021-03-16T12:28:23Z</time>
      </trkpt>
      <trkpt lat="39.8961" lon="116.6461">
        <time>2021-03-16T12:28:28Z</time>
      </trkpt>
      <trkpt lat="39.896077" lon="116.646247">
        <time>2021-03-16T12:28:33Z</time>
      </trkpt>
      <trkpt lat="39.896068" lon="116.646411">
        <time>2021-03-16T12:28:38Z</time>
      </trkpt>
      <trkpt lat="39.896076" lon="116.646598">
        <time>2021-03-16T12:28:43Z</time>
      </trkpt>
      <trkpt lat="39.896069" lon="116.64678">
        <time>2021-03-16T12:28:48Z</time>
      </trkpt>
      <trkpt lat="39.895945" lon="116.646882">
        <time>2021-03-16T12:28:53Z</time>
      </trkpt>
      <trkpt lat="39.895797" lon="116.646823">
        <time>2021-03-16T12:28:58Z</time>
      </trkpt>
      <trkpt lat="39.895674" lon="116.646767">
        <time>2021-03-16T12:29:03Z</time>
      </trkpt>
      <trkpt lat="39.89555" lon="116.646702">
        <time>2021-03-16T12:29:08Z</time>
      </trkpt>
      <trkpt lat="39.895462" lon="116.646646">
        <time>2021-03-16T12:29:13Z</time>
      </trkpt>
      <trkpt lat="39.895361" lon="116.64659">
        <time>2021-03-16T12:29:18Z</time>
      </trkpt>
      <trkpt lat="39.895237" lon="116.646526">
        <time>2021-03-16T12:29:23Z</time>
      </trkpt>
      <trkpt lat="39.8951" lon="116.646476">
        <time>2021-03-16T12:29:28Z</time>
      </trkpt>
      <trkpt lat="39.894984" lon="116.646443">
        <time>2021-03-16T12:29:33Z</time>
      </trkpt>
      <trkpt lat="39.894807" lon="116.646385">
        <time>2021-03-16T12:29:38Z</time>
      </trkpt>
      <trkpt lat="39.894738" lon="116.646355">
        <time>2021-03-16T12:29:43Z</time>
      </trkpt>
      <trkpt lat="39.894608" lon="116.646315">
        <time>2021-03-16T12:29:48Z</time>
      </trkpt>
      <trkpt lat="39.894412" lon="116.64624">
        <time>2021-03-16T12:29:53Z</time>
      </trkpt>
      <trkpt lat="39.894394" lon="116.646229">
        <time>2021-03-16T12:29:58Z</time>
      </trkpt>
      <trkpt lat="39.894291" lon="116.646169">
        <time>2021-03-16T12:30:03Z</time>
      </trkpt>
      <trkpt lat="39.894088" lon="116.646052">
        <time>2021-03-16T12:30:08Z</time>
      </trkpt>
      <trkpt lat="39.894068" lon="116.646036">
        <time>2021-03-16T12:30:13Z</time>
      </trkpt>
      <trkpt lat="39.893958" lon="116.645978">
        <time>2021-03-16T12:30:18Z</time>
      </trkpt>
      <trkpt lat="39.893851" lon="116.646003">
        <time>2021-03-16T12:30:23Z</time>
      </trkpt>
      <trkpt lat="39.893794" lon="116.646133">
        <time>2021-03-16T12:30:28Z</time>
      </trkpt>
      <trkpt lat="39.89374" lon="116.646259">
        <time>2021-03-16T12:30:33Z</time>
      </trkpt>
      <trkpt lat="39.893622" lon="116.646393">
        <time>2021-03-16T12:30:38Z</time>
      </trkpt>
      <trkpt lat="39.893552" lon="116.646392">
        <time>2021-03-16T12:30:43Z</time>
      </trkpt>
      <trkpt lat="39.893427" lon="116.646332">
        <time>2021-03-16T12:30:48Z</time>
      </trkpt>
      <trkpt lat="39.893206" lon="116.646252">
        <time>2021-03-16T12:30:53Z</time>
      </trkpt>
      <trkpt lat="39.893183" lon="116.646249">
        <time>2021-03-16T12:30:58Z</time>
      </trkpt>
      <trkpt lat="39.892989" lon="116.646172">
        <time>2021-03-16T12:31:03Z</time>
      </trkpt>
      <trkpt lat="39.892898" lon="116.64612">
        <time>2021-03-16T12:31:08Z</time>
      </trkpt>
      <trkpt lat="39.892833" lon="116.646076">
        <time>2021-03-16T12:31:13Z</time>
      </trkpt>
      <trkpt lat="39.892714" lon="116.646014">
        <time>2021-03-16T12:31:18Z</time>
      </trkpt>
      <trkpt lat="39.892607" lon="116.64593">
        <time>2021-03-16T12:31:23Z</time>
      </trkpt>
      <trkpt lat="39.892478" lon="116.645881">
        <time>2021-03-16T12:31:28Z</time>
      </trkpt>
      <trkpt lat="39.892355" lon="116.645807">
        <time>2021-03-16T12:31:33Z</time>
      </trkpt>
      <trkpt lat="39.892236" lon="116.645741">
        <time>2021-03-16T12:31:38Z</time>
      </trkpt>
      <trkpt lat="39.89209" lon="116.645698">
        <time>2021-03-16T12:31:43Z</time>
      </trkpt>
      <trkpt lat="39.891952" lon="116.645631">
        <time>2021-03-16T12:31:48Z</time>
      </trkpt>
      <trkpt lat="39.891833" lon="116.645549">
        <time>2021-03-16T12:31:53Z</time>
      </trkpt>
      <trkpt lat="39.891707" lon="116.645489">
        <time>2021-03-16T12:31:58Z</time>
      </trkpt>
      <trkpt lat="39.891598" lon="116.645411">
        <time>2021-03-16T12:32:03Z</time>
      </trkpt>
      <trkpt lat="39.891509" lon="116.645407">
        <time>2021-03-16T12:32:08Z</time>
      </trkpt>
      <trkpt lat="39.89157" lon="116.645432">
        <time>2021-03-16T12:32:13Z</time>
      </trkpt>
      <trkpt lat="39.891607" lon="116.645444">
        <time>2021-03-16T12:32:18Z</time>
      </trkpt>
      <trkpt lat="39.891682" lon="116.64547">
        <time>2021-03-16T12:32:23Z</time>
      </trkpt>
      <trkpt lat="39.891769" lon="116.645501">
        <time>2021-03-16T12:32:28Z</time>
      </trkpt>
      <trkpt lat="39.891837" lon="116.645522">
        <time>2021-03-16T12:32:33Z</time>
      </trkpt>
      <trkpt lat="39.891905" lon="116.645526">
        <time>2021-03-16T12:32:38Z</time>
      </trkpt>
      <trkpt lat="39.891996" lon="116.645585">
        <time>2021-03-16T12:32:43Z</time>
      </trkpt>
      <trkpt lat="39.892115" lon="116.645636">
        <time>2021-03-16T12:32:48Z</time>
      </trkpt>
      <trkpt lat="39.89222" lon="116.645684">
        <time>2021-03-16T12:32:53Z</time>
      </trkpt>
      <trkpt lat="39.892353" lon="116.645734">
        <time>2021-03-16T12:32:58Z</time>
      </trkpt>
      <trkpt lat="39.89248" lon="116.645771">
        <time>2021-03-16T12:33:03Z</time>
      </trkpt>
      <trkpt lat="39.892599" lon="116.64584">
        <time>2021-03-16T12:33:08Z</time>
      </trkpt>
      <trkpt lat="39.892716" lon="116.6459">
        <time>2021-03-16T12:33:13Z</time>
      </trkpt>
      <trkpt lat="39.892815" lon="116.645954">
        <time>2021-03-16T12:33:18Z</time>
      </trkpt>
      <trkpt lat="39.892922" lon="116.646003">
        <time>2021-03-16T12:33:23Z</time>
      </trkpt>
      <trkpt lat="39.893039" lon="116.64604">
        <time>2021-03-16T12:33:28Z</time>
      </trkpt>
      <trkpt lat="39.893153" lon="116.646084">
        <time>2021-03-16T12:33:33Z</time>
      </trkpt>
      <trkpt lat="39.893228" lon="116.646166">
        <time>2021-03-16T12:33:38Z</time>
      </trkpt>
      <trkpt lat="39.89336" lon="116.646234">
        <time>2021-03-16T12:33:43Z</time>
      </trkpt>
      <trkpt lat="39.893542" lon="116.646355">
        <time>2021-03-16T12:33:48Z</time>
      </trkpt>
      <trkpt lat="39.893559" lon="116.646379">
        <time>2021-03-16T12:33:53Z</time>
      </trkpt>
      <trkpt lat="39.893668" lon="116.646422">
        <time>2021-03-16T12:33:58Z</time>
      </trkpt>
      <trkpt lat="39.893785" lon="116.646322">
        <time>2021-03-16T12:34:03Z</time>
      </trkpt>
      <trkpt lat="39.893873" lon="116.646202">
        <time>2021-03-16T12:34:08Z</time>
      </trkpt>
      <trkpt lat="39.893945" lon="116.646056">
        <time>2021-03-16T12:34:13Z</time>
      </trkpt>
      <trkpt lat="39.894046" lon="116.645981">
        <time>2021-03-16T12:34:18Z</time>
      </trkpt>
      <trkpt lat="39.894154" lon="116.646">
        <time>2021-03-16T12:34:23Z</time>
      </trkpt>
      <trkpt lat="39.894284" lon="116.64604">
        <time>2021-03-16T12:34:28Z</time>
      </trkpt>
      <trkpt lat="39.894398" lon="116.646086">
        <time>2021-03-16T12:34:33Z</time>
      </trkpt>
      <trkpt lat="39.894511" lon="116.646131">
        <time>2021-03-16T12:34:38Z</time>
      </trkpt>
      <trkpt lat="39.894683" lon="116.646209">
        <time>2021-03-16T12:34:43Z</time>
      </trkpt>
      <trkpt lat="39.894748" lon="116.646252">
        <time>2021-03-16T12:34:48Z</time>
      </trkpt>
      <trkpt lat="39.89486" lon="116.646324">
        <time>2021-03-16T12:34:53Z</time>
      </trkpt>
      <trkpt lat="39.894973" lon="116.646371">
        <time>2021-03-16T12:34:58Z</time>
      </trkpt>
      <trkpt lat="39.8951" lon="116.646433">
        <time>2021-03-16T12:35:03Z</time>
      </trkpt>
      <trkpt lat="39.895235" lon="116.646483">
        <time>2021-03-16T12:35:08Z</time>
      </trkpt>
      <trkpt lat="39.895455" lon="116.646539">
        <time>2021-03-16T12:35:13Z</time>
      </trkpt>
      <trkpt lat="39.89551" lon="116.646557">
        <time>2021-03-16T12:35:18Z</time>
      </trkpt>
      <trkpt lat="39.89564" lon="116.646615">
        <time>2021-03-16T12:35:23Z</time>
      </trkpt>
      <trkpt lat="39.895761" lon="116.646677">
        <time>2021-03-16T12:35:28Z</time>
      </trkpt>
      <trkpt lat="39.895899" lon="116.646739">
        <time>2021-03-16T12:35:33Z</time>
      </trkpt>
      <trkpt lat="39.896029" lon="116.646795">
        <time>2021-03-16T12:35:38Z</time>
      </trkpt>
      <trkpt lat="39.896138" lon="116.646762">
        <time>2021-03-16T12:35:43Z</time>
      </trkpt>
      <trkpt lat="39.896141" lon="116.646618">
        <time>2021-03-16T12:35:48Z</time>
      </trkpt>
      <trkpt lat="39.896097" lon="116.646429">
        <time>2021-03-16T12:35:53Z</time>
      </trkpt>
      <trkpt lat="39.896088" lon="116.646277">
        <time>2021-03-16T12:35:58Z</time>
      </trkpt>
      <trkpt lat="39.896088" lon="116.646113">
        <time>2021-03-16T12:36:03Z</time>
      </trkpt>
      <trkpt lat="39.896088" lon="116.645945">
        <time>2021-03-16T12:36:08Z</time>
      </trkpt>
      <trkpt lat="39.896093" lon="116.645777">
        <time>2021-03-16T12:36:13Z</time>
      </trkpt>
      <trkpt lat="39.896096" lon="116.645608">
        <time>2021-03-16T12:36:18Z</time>
      </trkpt>
      <trkpt lat="39.896094" lon="116.64544">
        <time>2021-03-16T12:36:23Z</time>
      </trkpt>
      <trkpt lat="39.896131" lon="116.645316">
        <time>2021-03-16T12:36:28Z</time>
      </trkpt>
      <trkpt lat="39.896142" lon="116.645236">
        <time>2021-03-16T12:36:33Z</time>
      </trkpt>
      <trkpt lat="39.896142" lon="116.645166">
        <time>2021-03-16T12:36:38Z</time>
      </trkpt>
      <trkpt lat="39.896171" lon="116.645074">
        <time>2021-03-16T12:36:43Z</time>
      </trkpt>
      <trkpt lat="39.896174" lon="116.644926">
        <time>2021-03-16T12:36:48Z</time>
      </trkpt>
      <trkpt lat="39.896166" lon="116.644822">
        <time>2021-03-16T12:36:53Z</time>
      </trkpt>
      <trkpt lat="39.896226" lon="116.644781">
        <time>2021-03-16T12:36:58Z</time>
      </trkpt>
      <trkpt lat="39.896209" lon="116.64457">
        <time>2021-03-16T12:37:03Z</time>
      </trkpt>
      <trkpt lat="39.896185" lon="116.644483">
        <time>2021-03-16T12:37:08Z</time>
      </trkpt>
      <trkpt lat="39.896173" lon="116.644394">
        <time>2021-03-16T12:37:13Z</time>
      </trkpt>
      <trkpt lat="39.896202" lon="116.644365">
        <time>2021-03-16T12:37:18Z</time>
      </trkpt>
      <trkpt lat="39.896199" lon="116.644235">
        <time>2021-03-16T12:37:23Z</time>
      </trkpt>
      <trkpt lat="39.896194" lon="116.644103">
        <time>2021-03-16T12:37:28Z</time>
      </trkpt>
      <trkpt lat="39.896198" lon="116.643968">
        <time>2021-03-16T12:37:33Z</time>
      </trkpt>
      <trkpt lat="39.896197" lon="116.643844">
        <time>2021-03-16T12:37:38Z</time>
      </trkpt>
      <trkpt lat="39.896224" lon="116.643707">
        <time>2021-03-16T12:37:43Z</time>
      </trkpt>
      <trkpt lat="39.896206" lon="116.643556">
        <time>2021-03-16T12:37:48Z</time>
      </trkpt>
      <trkpt lat="39.896198" lon="116.643416">
        <time>2021-03-16T12:37:53Z</time>
      </trkpt>
      <trkpt lat="39.896194" lon="116.643265">
        <time>2021-03-16T12:37:58Z</time>
      </trkpt>
      <trkpt lat="39.896183" lon="116.643088">
        <time>2021-03-16T12:38:03Z</time>
      </trkpt>
      <trkpt lat="39.896167" lon="116.642925">
        <time>2021-03-16T12:38:08Z</time>
      </trkpt>
      <trkpt lat="39.896178" lon="116.642737">
        <time>2021-03-16T12:38:13Z</time>
      </trkpt>
      <trkpt lat="39.896169" lon="116.642532">
        <time>2021-03-16T12:38:18Z</time>
      </trkpt>
      <trkpt lat="39.896166" lon="116.642409">
        <time>2021-03-16T12:38:23Z</time>
      </trkpt>
      <trkpt lat="39.896175" lon="116.642268">
        <time>2021-03-16T12:38:28Z</time>
      </trkpt>
      <trkpt lat="39.896198" lon="116.6421">
        <time>2021-03-16T12:38:33Z</time>
      </trkpt>
      <trkpt lat="39.896218" lon="116.64193">
        <time>2021-03-16T12:38:38Z</time>
      </trkpt>
      <trkpt lat="39.896204" lon="116.641759">
        <time>2021-03-16T12:38:43Z</time>
      </trkpt>
      <trkpt lat="39.896198" lon="116.641578">
        <time>2021-03-16T12:38:48Z</time>
      </trkpt>
      <trkpt lat="39.896205" lon="116.641458">
        <time>2021-03-16T12:38:53Z</time>
      </trkpt>
      <trkpt lat="39.896205" lon="116.641295">
        <time>2021-03-16T12:38:58Z</time>
      </trkpt>
      <trkpt lat="39.896208" lon="116.641152">
        <time>2021-03-16T12:39:03Z</time>
      </trkpt>
      <trkpt lat="39.896208" lon="116.640998">
        <time>2021-03-16T12:39:08Z</time>
      </trkpt>
      <trkpt lat="39.896202" lon="116.64083">
        <time>2021-03-16T12:39:13Z</time>
      </trkpt>
      <trkpt lat="39.8962" lon="116.64067">
        <time>2021-03-16T12:39:18Z</time>
      </trkpt>
      <trkpt lat="39.896199" lon="116.640521">
        <time>2021-03-16T12:39:23Z</time>
      </trkpt>
      <trkpt lat="39.896212" lon="116.640366">
        <time>2021-03-16T12:39:28Z</time>
      </trkpt>
      <trkpt lat="39.896224" lon="116.640198">
        <time>2021-03-16T12:39:33Z</time>
      </trkpt>
      <trkpt lat="39.896235" lon="116.640042">
        <time>2021-03-16T12:39:38Z</time>
      </trkpt>
      <trkpt lat="39.896242" lon="116.639889">
        <time>2021-03-16T12:39:43Z</time>
      </trkpt>
      <trkpt lat="39.896237" lon="116.639739">
        <time>2021-03-16T12:39:48Z</time>
      </trkpt>
      <trkpt lat="39.896219" lon="116.639566">
        <time>2021-03-16T12:39:53Z</time>
      </trkpt>
      <trkpt lat="39.896202" lon="116.639392">
        <time>2021-03-16T12:39:58Z</time>
      </trkpt>
      <trkpt lat="39.89622" lon="116.639252">
        <time>2021-03-16T12:40:03Z</time>
      </trkpt>
      <trkpt lat="39.896167" lon="116.639078">
        <time>2021-03-16T12:40:08Z</time>
      </trkpt>
      <trkpt lat="39.896123" lon="116.638945">
        <time>2021-03-16T12:40:13Z</time>
      </trkpt>
      <trkpt lat="39.8961" lon="116.638864">
        <time>2021-03-16T12:40:18Z</time>
      </trkpt>
      <trkpt lat="39.896089" lon="116.638776">
        <time>2021-03-16T12:40:23Z</time>
      </trkpt>
      <trkpt lat="39.896082" lon="116.638665">
        <time>2021-03-16T12:40:28Z</time>
      </trkpt>
      <trkpt lat="39.896055" lon="116.638546">
        <time>2021-03-16T12:40:33Z</time>
      </trkpt>
      <trkpt lat="39.896045" lon="116.638398">
        <time>2021-03-16T12:40:38Z</time>
      </trkpt>
      <trkpt lat="39.896085" lon="116.638267">
        <time>2021-03-16T12:40:43Z</time>
      </trkpt>
      <trkpt lat="39.896127" lon="116.638112">
        <time>2021-03-16T12:40:48Z</time>
      </trkpt>
      <trkpt lat="39.896125" lon="116.637959">
        <time>2021-03-16T12:40:53Z</time>
      </trkpt>
      <trkpt lat="39.89613" lon="116.637811">
        <time>2021-03-16T12:40:58Z</time>
      </trkpt>
      <trkpt lat="39.896132" lon="116.637628">
        <time>2021-03-16T12:41:03Z</time>
      </trkpt>
      <trkpt lat="39.896114" lon="116.637462">
        <time>2021-03-16T12:41:08Z</time>
      </trkpt>
      <trkpt lat="39.896103" lon="116.637283">
        <time>2021-03-16T12:41:13Z</time>
      </trkpt>
      <trkpt lat="39.896075" lon="116.637113">
        <time>2021-03-16T12:41:18Z</time>
      </trkpt>
      <trkpt lat="39.896055" lon="116.636919">
        <time>2021-03-16T12:41:23Z</time>
      </trkpt>
      <trkpt lat="39.896039" lon="116.636767">
        <time>2021-03-16T12:41:28Z</time>
      </trkpt>
      <trkpt lat="39.895971" lon="116.636693">
        <time>2021-03-16T12:41:33Z</time>
      </trkpt>
      <trkpt lat="39.89606" lon="116.636853">
        <time>2021-03-16T12:41:38Z</time>
      </trkpt>
      <trkpt lat="39.896131" lon="116.637038">
        <time>2021-03-16T12:41:43Z</time>
      </trkpt>
      <trkpt lat="39.896159" lon="116.637227">
        <time>2021-03-16T12:41:48Z</time>
      </trkpt>
      <trkpt lat="39.896169" lon="116.637397">
        <time>2021-03-16T12:41:53Z</time>
      </trkpt>
      <trkpt lat="39.896173" lon="116.637556">
        <time>2021-03-16T12:41:58Z</time>
      </trkpt>
      <trkpt lat="39.896159" lon="116.637696">
        <time>2021-03-16T12:42:03Z</time>
      </trkpt>
      <trkpt lat="39.896157" lon="116.637846">
        <time>2021-03-16T12:42:08Z</time>
      </trkpt>
      <trkpt lat="39.896168" lon="116.637944">
        <time>2021-03-16T12:42:13Z</time>
      </trkpt>
      <trkpt lat="39.896161" lon="116.638039">
        <time>2021-03-16T12:42:18Z</time>
      </trkpt>
      <trkpt lat="39.896153" lon="116.638138">
        <time>2021-03-16T12:42:23Z</time>
      </trkpt>
      <trkpt lat="39.896156" lon="116.638236">
        <time>2021-03-16T12:42:28Z</time>
      </trkpt>
      <trkpt lat="39.896167" lon="116.638332">
        <time>2021-03-16T12:42:33Z</time>
      </trkpt>
      <trkpt lat="39.896173" lon="116.638433">
        <time>2021-03-16T12:42:38Z</time>
      </trkpt>
      <trkpt lat="39.896165" lon="116.638525">
        <time>2021-03-16T12:42:43Z</time>
      </trkpt>
      <trkpt lat="39.896175" lon="116.638665">
        <time>2021-03-16T12:42:48Z</time>
      </trkpt>
      <trkpt lat="39.896201" lon="116.6388">
        <time>2021-03-16T12:42:53Z</time>
      </trkpt>
      <trkpt lat="39.896191" lon="116.63894">
        <time>2021-03-16T12:42:58Z</time>
      </trkpt>
      <trkpt lat="39.896201" lon="116.639104">
        <time>2021-03-16T12:43:03Z</time>
      </trkpt>
      <trkpt lat="39.89624" lon="116.639272">
        <time>2021-03-16T12:43:08Z</time>
      </trkpt>
      <trkpt lat="39.896259" lon="116.639417">
        <time>2021-03-16T12:43:13Z</time>
      </trkpt>
      <trkpt lat="39.896275" lon="116.639555">
        <time>2021-03-16T12:43:18Z</time>
      </trkpt>
      <trkpt lat="39.896282" lon="116.639694">
        <time>2021-03-16T12:43:23Z</time>
      </trkpt>
      <trkpt lat="39.896288" lon="116.639839">
        <time>2021-03-16T12:43:28Z</time>
      </trkpt>
      <trkpt lat="39.896295" lon="116.639993">
        <time>2021-03-16T12:43:33Z</time>
      </trkpt>
      <trkpt lat="39.896298" lon="116.640177">
        <time>2021-03-16T12:43:38Z</time>
      </trkpt>
      <trkpt lat="39.896301" lon="116.640361">
        <time>2021-03-16T12:43:43Z</time>
      </trkpt>
      <trkpt lat="39.896308" lon="116.640548">
        <time>2021-03-16T12:43:48Z</time>
      </trkpt>
      <trkpt lat="39.896295" lon="116.640716">
        <time>2021-03-16T12:43:53Z</time>
      </trkpt>
      <trkpt lat="39.896278" lon="116.640877">
        <time>2021-03-16T12:43:58Z</time>
      </trkpt>
      <trkpt lat="39.896266" lon="116.64104">
        <time>2021-03-16T12:44:03Z</time>
      </trkpt>
      <trkpt lat="39.896255" lon="116.641197">
        <time>2021-03-16T12:44:08Z</time>
      </trkpt>
      <trkpt lat="39.89626" lon="116.641391">
        <time>2021-03-16T12:44:13Z</time>
      </trkpt>
      <trkpt lat="39.896249" lon="116.641565">
        <time>2021-03-16T12:44:18Z</time>
      </trkpt>
      <trkpt lat="39.89623" lon="116.641715">
        <time>2021-03-16T12:44:23Z</time>
      </trkpt>
      <trkpt lat="39.896224" lon="116.641928">
        <time>2021-03-16T12:44:28Z</time>
      </trkpt>
      <trkpt lat="39.896218" lon="116.642117">
        <time>2021-03-16T12:44:33Z</time>
      </trkpt>
      <trkpt lat="39.896242" lon="116.642333">
        <time>2021-03-16T12:44:38Z</time>
      </trkpt>
      <trkpt lat="39.896215" lon="116.642492">
        <time>2021-03-16T12:44:43Z</time>
      </trkpt>
      <trkpt lat="39.896185" lon="116.64264">
        <time>2021-03-16T12:44:48Z</time>
      </trkpt>
      <trkpt lat="39.896193" lon="116.642822">
        <time>2021-03-16T12:44:53Z</time>
      </trkpt>
      <trkpt lat="39.89619" lon="116.642863">
        <time>2021-03-16T12:44:58Z</time>
      </trkpt>
      <trkpt lat="39.896177" lon="116.642927">
        <time>2021-03-16T12:45:03Z</time>
      </trkpt>
      <trkpt lat="39.896177" lon="116.643024">
        <time>2021-03-16T12:45:08Z</time>
      </trkpt>
      <trkpt lat="39.896191" lon="116.643143">
        <time>2021-03-16T12:45:13Z</time>
      </trkpt>
      <trkpt lat="39.896185" lon="116.643283">
        <time>2021-03-16T12:45:18Z</time>
      </trkpt>
      <trkpt lat="39.896164" lon="116.643457">
        <time>2021-03-16T12:45:23Z</time>
      </trkpt>
      <trkpt lat="39.896199" lon="116.643618">
        <time>2021-03-16T12:45:28Z</time>
      </trkpt>
      <trkpt lat="39.89621" lon="116.643785">
        <time>2021-03-16T12:45:33Z</time>
      </trkpt>
      <trkpt lat="39.896215" lon="116.643942">
        <time>2021-03-16T12:45:38Z</time>
      </trkpt>
      <trkpt lat="39.896225" lon="116.644073">
        <time>2021-03-16T12:45:43Z</time>
      </trkpt>
      <trkpt lat="39.896232" lon="116.64416">
        <time>2021-03-16T12:45:48Z</time>
      </trkpt>
      <trkpt lat="39.896226" lon="116.64424">
        <time>2021-03-16T12:45:53Z</time>
      </trkpt>
      <trkpt lat="39.896216" lon="116.644345">
        <time>2021-03-16T12:45:58Z</time>
      </trkpt>
      <trkpt lat="39.896215" lon="116.644443">
        <time>2021-03-16T12:46:03Z</time>
      </trkpt>
      <trkpt lat="39.896212" lon="116.644544">
        <time>2021-03-16T12:46:08Z</time>
      </trkpt>
      <trkpt lat="39.896202" lon="116.644645">
        <time>2021-03-16T12:46:13Z</time>
      </trkpt>
      <trkpt lat="39.896179" lon="116.644758">
        <time>2021-03-16T12:46:18Z</time>
      </trkpt>
      <trkpt lat="39.896202" lon="116.644899">
        <time>2021-03-16T12:46:23Z</time>
      </trkpt>
      <trkpt lat="39.896195" lon="116.645043">
        <time>2021-03-16T12:46:28Z</time>
      </trkpt>
      <trkpt lat="39.896196" lon="116.645202">
        <time>2021-03-16T12:46:33Z</time>
      </trkpt>
      <trkpt lat="39.896181" lon="116.645381">
        <time>2021-03-16T12:46:38Z</time>
      </trkpt>
      <trkpt lat="39.89619" lon="116.645553">
        <time>2021-03-16T12:46:43Z</time>
      </trkpt>
      <trkpt lat="39.896173" lon="116.645721">
        <time>2021-03-16T12:46:48Z</time>
      </trkpt>
      <trkpt lat="39.896159" lon="116.645908">
        <time>2021-03-16T12:46:53Z</time>
      </trkpt>
      <trkpt lat="39.896154" lon="116.646078">
        <time>2021-03-16T12:46:58Z</time>
      </trkpt>
      <trkpt lat="39.89614" lon="116.646175">
        <time>2021-03-16T12:47:03Z</time>
      </trkpt>
      <trkpt lat="39.896141" lon="116.646276">
        <time>2021-03-16T12:47:08Z</time>
      </trkpt>
      <trkpt lat="39.896143" lon="116.646363">
        <time>2021-03-16T12:47:13Z</time>
      </trkpt>
      <trkpt lat="39.896116" lon="116.646458">
        <time>2021-03-16T12:47:18Z</time>
      </trkpt>
      <trkpt lat="39.896092" lon="116.64656">
        <time>2021-03-16T12:47:23Z</time>
      </trkpt>
      <trkpt lat="39.896083" lon="116.646654">
        <time>2021-03-16T12:47:28Z</time>
      </trkpt>
      <trkpt lat="39.896056" lon="116.646743">
        <time>2021-03-16T12:47:33Z</time>
      </trkpt>
      <trkpt lat="39.895932" lon="116.646799">
        <time>2021-03-16T12:47:38Z</time>
      </trkpt>
      <trkpt lat="39.895773" lon="116.646754">
        <time>2021-03-16T12:47:43Z</time>
      </trkpt>
      <trkpt lat="39.895626" lon="116.646697">
        <time>2021-03-16T12:47:48Z</time>
      </trkpt>
      <trkpt lat="39.895478" lon="116.64664">
        <time>2021-03-16T12:47:53Z</time>
      </trkpt>
      <trkpt lat="39.895354" lon="116.6466">
        <time>2021-03-16T12:47:58Z</time>
      </trkpt>
      <trkpt lat="39.895254" lon="116.646558">
        <time>2021-03-16T12:48:03Z</time>
      </trkpt>
      <trkpt lat="39.895094" lon="116.646493">
        <time>2021-03-16T12:48:08Z</time>
      </trkpt>
      <trkpt lat="39.894886" lon="116.646379">
        <time>2021-03-16T12:48:13Z</time>
      </trkpt>
      <trkpt lat="39.894836" lon="116.646365">
        <time>2021-03-16T12:48:18Z</time>
      </trkpt>
      <trkpt lat="39.894699" lon="116.646324">
        <time>2021-03-16T12:48:23Z</time>
      </trkpt>
      <trkpt lat="39.894422" lon="116.646244">
        <time>2021-03-16T12:48:28Z</time>
      </trkpt>
      <trkpt lat="39.894398" lon="116.646234">
        <time>2021-03-16T12:48:33Z</time>
      </trkpt>
      <trkpt lat="39.894258" lon="116.64616">
        <time>2021-03-16T12:48:38Z</time>
      </trkpt>
      <trkpt lat="39.894099" lon="116.645983">
        <time>2021-03-16T12:48:43Z</time>
      </trkpt>
      <trkpt lat="39.894003" lon="116.64595">
        <time>2021-03-16T12:48:48Z</time>
      </trkpt>
      <trkpt lat="39.893848" lon="116.64597">
        <time>2021-03-16T12:48:53Z</time>
      </trkpt>
      <trkpt lat="39.893759" lon="116.646121">
        <time>2021-03-16T12:48:58Z</time>
      </trkpt>
      <trkpt lat="39.893695" lon="116.646263">
        <time>2021-03-16T12:49:03Z</time>
      </trkpt>
      <trkpt lat="39.893613" lon="116.646411">
        <time>2021-03-16T12:49:08Z</time>
      </trkpt>
      <trkpt lat="39.89342" lon="116.646306">
        <time>2021-03-16T12:49:13Z</time>
      </trkpt>
      <trkpt lat="39.893354" lon="116.64626">
        <time>2021-03-16T12:49:18Z</time>
      </trkpt>
      <trkpt lat="39.893283" lon="116.64621">
        <time>2021-03-16T12:49:23Z</time>
      </trkpt>
      <trkpt lat="39.893221" lon="116.64619">
        <time>2021-03-16T12:49:28Z</time>
      </trkpt>
      <trkpt lat="39.89316" lon="116.646151">
        <time>2021-03-16T12:49:33Z</time>
      </trkpt>
      <trkpt lat="39.89307" lon="116.646121">
        <time>2021-03-16T12:49:38Z</time>
      </trkpt>
      <trkpt lat="39.893004" lon="116.646088">
        <time>2021-03-16T12:49:43Z</time>
      </trkpt>
      <trkpt lat="39.89292" lon="116.646056">
        <time>2021-03-16T12:49:48Z</time>
      </trkpt>
      <trkpt lat="39.892835" lon="116.646006">
        <time>2021-03-16T12:49:53Z</time>
      </trkpt>
      <trkpt lat="39.892738" lon="116.645928">
        <time>2021-03-16T12:49:58Z</time>
      </trkpt>
      <trkpt lat="39.892601" lon="116.645903">
        <time>2021-03-16T12:50:03Z</time>
      </trkpt>
      <trkpt lat="39.89247" lon="116.645845">
        <time>2021-03-16T12:50:08Z</time>
      </trkpt>
      <trkpt lat="39.892335" lon="116.645794">
        <time>2021-03-16T12:50:13Z</time>
      </trkpt>
      <trkpt lat="39.892231" lon="116.64572">
        <time>2021-03-16T12:50:18Z</time>
      </trkpt>
      <trkpt lat="39.892102" lon="116.645661">
        <time>2021-03-16T12:50:23Z</time>
      </trkpt>
      <trkpt lat="39.891977" lon="116.645619">
        <time>2021-03-16T12:50:28Z</time>
      </trkpt>
      <trkpt lat="39.891865" lon="116.645533">
        <time>2021-03-16T12:50:33Z</time>
      </trkpt>
      <trkpt lat="39.891725" lon="116.645501">
        <time>2021-03-16T12:50:38Z</time>
      </trkpt>
      <trkpt lat="39.891604" lon="116.645438">
        <time>2021-03-16T12:50:43Z</time>
      </trkpt>
      <trkpt lat="39.891519" lon="116.645378">
        <time>2021-03-16T12:50:48Z</time>
      </trkpt>
      <trkpt lat="39.891535" lon="116.645454">
        <time>2021-03-16T12:50:53Z</time>
      </trkpt>
      <trkpt lat="39.891685" lon="116.645491">
        <time>2021-03-16T12:50:58Z</time>
      </trkpt>
      <trkpt lat="39.891835" lon="116.645533">
        <time>2021-03-16T12:51:03Z</time>
      </trkpt>
      <trkpt lat="39.891973" lon="116.645571">
        <time>2021-03-16T12:51:08Z</time>
      </trkpt>
      <trkpt lat="39.892117" lon="116.64559">
        <time>2021-03-16T12:51:13Z</time>
      </trkpt>
      <trkpt lat="39.892235" lon="116.645655">
        <time>2021-03-16T12:51:18Z</time>
      </trkpt>
      <trkpt lat="39.892354" lon="116.645746">
        <time>2021-03-16T12:51:23Z</time>
      </trkpt>
      <trkpt lat="39.892495" lon="116.645807">
        <time>2021-03-16T12:51:28Z</time>
      </trkpt>
      <trkpt lat="39.892639" lon="116.645861">
        <time>2021-03-16T12:51:33Z</time>
      </trkpt>
      <trkpt lat="39.892747" lon="116.645906">
        <time>2021-03-16T12:51:38Z</time>
      </trkpt>
      <trkpt lat="39.892898" lon="116.645948">
        <time>2021-03-16T12:51:43Z</time>
      </trkpt>
      <trkpt lat="39.893049" lon="116.646014">
        <time>2021-03-16T12:51:48Z</time>
      </trkpt>
      <trkpt lat="39.893207" lon="116.646065">
        <time>2021-03-16T12:51:53Z</time>
      </trkpt>
      <trkpt lat="39.89332" lon="116.646171">
        <time>2021-03-16T12:51:58Z</time>
      </trkpt>
      <trkpt lat="39.893452" lon="116.646231">
        <time>2021-03-16T12:52:03Z</time>
      </trkpt>
      <trkpt lat="39.893589" lon="116.646325">
        <time>2021-03-16T12:52:08Z</time>
      </trkpt>
      <trkpt lat="39.893664" lon="116.64639">
        <time>2021-03-16T12:52:13Z</time>
      </trkpt>
      <trkpt lat="39.893717" lon="116.646388">
        <time>2021-03-16T12:52:18Z</time>
      </trkpt>
      <trkpt lat="39.893769" lon="116.646344">
        <time>2021-03-16T12:52:23Z</time>
      </trkpt>
      <trkpt lat="39.893848" lon="116.646191">
        <time>2021-03-16T12:52:28Z</time>
      </trkpt>
      <trkpt lat="39.893858" lon="116.646174">
        <time>2021-03-16T12:52:33Z</time>
      </trkpt>
      <trkpt lat="39.893884" lon="116.646072">
        <time>2021-03-16T12:52:38Z</time>
      </trkpt>
      <trkpt lat="39.893936" lon="116.645999">
        <time>2021-03-16T12:52:43Z</time>
      </trkpt>
      <trkpt lat="39.893982" lon="116.645934">
        <time>2021-03-16T12:52:48Z</time>
      </trkpt>
      <trkpt lat="39.894036" lon="116.645885">
        <time>2021-03-16T12:52:53Z</time>
      </trkpt>
      <trkpt lat="39.894099" lon="116.645899">
        <time>2021-03-16T12:52:58Z</time>
      </trkpt>
      <trkpt lat="39.894188" lon="116.64594">
        <time>2021-03-16T12:53:03Z</time>
      </trkpt>
      <trkpt lat="39.894295" lon="116.646004">
        <time>2021-03-16T12:53:08Z</time>
      </trkpt>
      <trkpt lat="39.894374" lon="116.646049">
        <time>2021-03-16T12:53:13Z</time>
      </trkpt>
      <trkpt lat="39.894492" lon="116.646099">
        <time>2021-03-16T12:53:18Z</time>
      </trkpt>
      <trkpt lat="39.89467" lon="116.646181">
        <time>2021-03-16T12:53:23Z</time>
      </trkpt>
      <trkpt lat="39.894742" lon="116.64623">
        <time>2021-03-16T12:53:28Z</time>
      </trkpt>
      <trkpt lat="39.894868" lon="116.646295">
        <time>2021-03-16T12:53:33Z</time>
      </trkpt>
      <trkpt lat="39.894995" lon="116.646355">
        <time>2021-03-16T12:53:38Z</time>
      </trkpt>
      <trkpt lat="39.895117" lon="116.646404">
        <time>2021-03-16T12:53:43Z</time>
      </trkpt>
      <trkpt lat="39.895234" lon="116.646481">
        <time>2021-03-16T12:53:48Z</time>
      </trkpt>
      <trkpt lat="39.895343" lon="116.64654">
        <time>2021-03-16T12:53:53Z</time>
      </trkpt>
      <trkpt lat="39.895439" lon="116.646623">
        <time>2021-03-16T12:53:58Z</time>
      </trkpt>
      <trkpt lat="39.895454" lon="116.646624">
        <time>2021-03-16T12:54:03Z</time>
      </trkpt>
      <trkpt lat="39.895525" lon="116.646629">
        <time>2021-03-16T12:54:08Z</time>
      </trkpt>
      <trkpt lat="39.895619" lon="116.646653">
        <time>2021-03-16T12:54:13Z</time>
      </trkpt>
      <trkpt lat="39.895717" lon="116.646677">
        <time>2021-03-16T12:54:18Z</time>
      </trkpt>
      <trkpt lat="39.895825" lon="116.64676">
        <time>2021-03-16T12:54:23Z</time>
      </trkpt>
      <trkpt lat="39.895946" lon="116.646765">
        <time>2021-03-16T12:54:28Z</time>
      </trkpt>
      <trkpt lat="39.896038" lon="116.646695">
        <time>2021-03-16T12:54:33Z</time>
      </trkpt>
      <trkpt lat="39.896051" lon="116.646542">
        <time>2021-03-16T12:54:38Z</time>
      </trkpt>
      <trkpt lat="39.896037" lon="116.646383">
        <time>2021-03-16T12:54:43Z</time>
      </trkpt>
      <trkpt lat="39.896025" lon="116.646221">
        <time>2021-03-16T12:54:48Z</time>
      </trkpt>
      <trkpt lat="39.896034" lon="116.646043">
        <time>2021-03-16T12:54:53Z</time>
      </trkpt>
      <trkpt lat="39.896038" lon="116.645855">
        <time>2021-03-16T12:54:58Z</time>
      </trkpt>
      <trkpt lat="39.896049" lon="116.645675">
        <time>2021-03-16T12:55:03Z</time>
      </trkpt>
      <trkpt lat="39.896077" lon="116.645554">
        <time>2021-03-16T12:55:08Z</time>
      </trkpt>
      <trkpt lat="39.896125" lon="116.645533">
        <time>2021-03-16T12:55:13Z</time>
      </trkpt>
      <trkpt lat="39.896133" lon="116.645461">
        <time>2021-03-16T12:55:18Z</time>
      </trkpt>
      <trkpt lat="39.896133" lon="116.645375">
        <time>2021-03-16T12:55:23Z</time>
      </trkpt>
      <trkpt lat="39.896137" lon="116.645297">
        <time>2021-03-16T12:55:28Z</time>
      </trkpt>
      <trkpt lat="39.896124" lon="116.645232">
        <time>2021-03-16T12:55:33Z</time>
      </trkpt>
      <trkpt lat="39.896145" lon="116.64506">
        <time>2021-03-16T12:55:38Z</time>
      </trkpt>
      <trkpt lat="39.896145" lon="116.644911">
        <time>2021-03-16T12:55:43Z</time>
      </trkpt>
      <trkpt lat="39.89613" lon="116.644759">
        <time>2021-03-16T12:55:48Z</time>
      </trkpt>
      <trkpt lat="39.896112" lon="116.644596">
        <time>2021-03-16T12:55:53Z</time>
      </trkpt>
      <trkpt lat="39.896126" lon="116.644419">
        <time>2021-03-16T12:55:58Z</time>
      </trkpt>
      <trkpt lat="39.896129" lon="116.644249">
        <time>2021-03-16T12:56:03Z</time>
      </trkpt>
      <trkpt lat="39.896148" lon="116.644083">
        <time>2021-03-16T12:56:08Z</time>
      </trkpt>
      <trkpt lat="39.896165" lon="116.643912">
        <time>2021-03-16T12:56:13Z</time>
      </trkpt>
      <trkpt lat="39.896217" lon="116.643765">
        <time>2021-03-16T12:56:18Z</time>
      </trkpt>
      <trkpt lat="39.896253" lon="116.64362">
        <time>2021-03-16T12:56:23Z</time>
      </trkpt>
      <trkpt lat="39.896243" lon="116.64345">
        <time>2021-03-16T12:56:28Z</time>
      </trkpt>
      <trkpt lat="39.896218" lon="116.64329">
        <time>2021-03-16T12:56:33Z</time>
      </trkpt>
      <trkpt lat="39.89622" lon="116.643151">
        <time>2021-03-16T12:56:38Z</time>
      </trkpt>
      <trkpt lat="39.896216" lon="116.643082">
        <time>2021-03-16T12:56:43Z</time>
      </trkpt>
      <trkpt lat="39.896207" lon="116.64301">
        <time>2021-03-16T12:56:48Z</time>
      </trkpt>
      <trkpt lat="39.896213" lon="116.64289">
        <time>2021-03-16T12:56:53Z</time>
      </trkpt>
      <trkpt lat="39.896217" lon="116.642797">
        <time>2021-03-16T12:56:58Z</time>
      </trkpt>
      <trkpt lat="39.896221" lon="116.642699">
        <time>2021-03-16T12:57:03Z</time>
      </trkpt>
      <trkpt lat="39.896219" lon="116.642566">
        <time>2021-03-16T12:57:08Z</time>
      </trkpt>
      <trkpt lat="39.896229" lon="116.642404">
        <time>2021-03-16T12:57:13Z</time>
      </trkpt>
      <trkpt lat="39.896224" lon="116.642258">
        <time>2021-03-16T12:57:18Z</time>
      </trkpt>
      <trkpt lat="39.896234" lon="116.64211">
        <time>2021-03-16T12:57:23Z</time>
      </trkpt>
      <trkpt lat="39.896233" lon="116.641945">
        <time>2021-03-16T12:57:28Z</time>
      </trkpt>
      <trkpt lat="39.896214" lon="116.641761">
        <time>2021-03-16T12:57:33Z</time>
      </trkpt>
      <trkpt lat="39.896199" lon="116.641583">
        <time>2021-03-16T12:57:38Z</time>
      </trkpt>
      <trkpt lat="39.896226" lon="116.641449">
        <time>2021-03-16T12:57:43Z</time>
      </trkpt>
      <trkpt lat="39.896232" lon="116.641258">
        <time>2021-03-16T12:57:48Z</time>
      </trkpt>
      <trkpt lat="39.896233" lon="116.641062">
        <time>2021-03-16T12:57:53Z</time>
      </trkpt>
      <trkpt lat="39.896235" lon="116.640874">
        <time>2021-03-16T12:57:58Z</time>
      </trkpt>
      <trkpt lat="39.896219" lon="116.64072">
        <time>2021-03-16T12:58:03Z</time>
      </trkpt>
      <trkpt lat="39.896218" lon="116.640573">
        <time>2021-03-16T12:58:08Z</time>
      </trkpt>
      <trkpt lat="39.896242" lon="116.640431">
        <time>2021-03-16T12:58:13Z</time>
      </trkpt>
      <trkpt lat="39.896223" lon="116.640251">
        <time>2021-03-16T12:58:18Z</time>
      </trkpt>
      <trkpt lat="39.896216" lon="116.640059">
        <time>2021-03-16T12:58:23Z</time>
      </trkpt>
      <trkpt lat="39.896201" lon="116.639878">
        <time>2021-03-16T12:58:28Z</time>
      </trkpt>
      <trkpt lat="39.896202" lon="116.639731">
        <time>2021-03-16T12:58:33Z</time>
      </trkpt>
      <trkpt lat="39.896218" lon="116.639568">
        <time>2021-03-16T12:58:38Z</time>
      </trkpt>
      <trkpt lat="39.896217" lon="116.639389">
        <time>2021-03-16T12:58:43Z</time>
      </trkpt>
      <trkpt lat="39.896195" lon="116.639224">
        <time>2021-03-16T12:58:48Z</time>
      </trkpt>
      <trkpt lat="39.896164" lon="116.639062">
        <time>2021-03-16T12:58:53Z</time>
      </trkpt>
      <trkpt lat="39.896118" lon="116.638888">
        <time>2021-03-16T12:58:58Z</time>
      </trkpt>
      <trkpt lat="39.896085" lon="116.638712">
        <time>2021-03-16T12:59:03Z</time>
      </trkpt>
      <trkpt lat="39.896062" lon="116.638522">
        <time>2021-03-16T12:59:08Z</time>
      </trkpt>
      <trkpt lat="39.896057" lon="116.638415">
        <time>2021-03-16T12:59:13Z</time>
      </trkpt>
      <trkpt lat="39.896094" lon="116.638326">
        <time>2021-03-16T12:59:18Z</time>
      </trkpt>
      <trkpt lat="39.896112" lon="116.63825">
        <time>2021-03-16T12:59:23Z</time>
      </trkpt>
      <trkpt lat="39.896126" lon="116.638149">
        <time>2021-03-16T12:59:28Z</time>
      </trkpt>
      <trkpt lat="39.896125" lon="116.638037">
        <time>2021-03-16T12:59:33Z</time>
      </trkpt>
      <trkpt lat="39.89613" lon="116.637946">
        <time>2021-03-16T12:59:38Z</time>
      </trkpt>
      <trkpt lat="39.896133" lon="116.637855">
        <time>2021-03-16T12:59:43Z</time>
      </trkpt>
      <trkpt lat="39.896138" lon="116.637754">
        <time>2021-03-16T12:59:48Z</time>
      </trkpt>
      <trkpt lat="39.896126" lon="116.637659">
        <time>2021-03-16T12:59:53Z</time>
      </trkpt>
      <trkpt lat="39.896112" lon="116.637578">
        <time>2021-03-16T12:59:58Z</time>
      </trkpt>
      <trkpt lat="39.896132" lon="116.637471">
        <time>2021-03-16T13:00:03Z</time>
      </trkpt>
      <trkpt lat="39.896136" lon="116.637364">
        <time>2021-03-16T13:00:08Z</time>
      </trkpt>
      <trkpt lat="39.896149" lon="116.637265">
        <time>2021-03-16T13:00:13Z</time>
      </trkpt>
      <trkpt lat="39.896129" lon="116.637203">
        <time>2021-03-16T13:00:18Z</time>
      </trkpt>
      <trkpt lat="39.896136" lon="116.63711">
        <time>2021-03-16T13:00:23Z</time>
      </trkpt>
      <trkpt lat="39.896154" lon="116.637021">
        <time>2021-03-16T13:00:28Z</time>
      </trkpt>
      <trkpt lat="39.896129" lon="116.636905">
        <time>2021-03-16T13:00:33Z</time>
      </trkpt>
      <trkpt lat="39.896081" lon="116.63677">
        <time>2021-03-16T13:00:38Z</time>
      </trkpt>
      <trkpt lat="39.895977" lon="116.636671">
        <time>2021-03-16T13:00:43Z</time>
      </trkpt>
      <trkpt lat="39.895864" lon="116.636595">
        <time>2021-03-16T13:00:48Z</time>
      </trkpt>
      <trkpt lat="39.895854" lon="116.636445">
        <time>2021-03-16T13:00:53Z</time>
      </trkpt>
      <trkpt lat="39.896024" lon="116.63633">
        <time>2021-03-16T13:00:58Z</time>
      </trkpt>
      <trkpt lat="39.896185" lon="116.636214">
        <time>2021-03-16T13:01:03Z</time>
      </trkpt>
      <trkpt lat="39.896326" lon="116.636151">
        <time>2021-03-16T13:01:08Z</time>
      </trkpt>
      <trkpt lat="39.896446" lon="116.636052">
        <time>2021-03-16T13:01:13Z</time>
      </trkpt>
      <trkpt lat="39.896577" lon="116.635943">
        <time>2021-03-16T13:01:18Z</time>
      </trkpt>
      <trkpt lat="39.896788" lon="116.63579">
        <time>2021-03-16T13:01:23Z</time>
      </trkpt>
      <trkpt lat="39.896965" lon="116.635655">
        <time>2021-03-16T13:01:28Z</time>
      </trkpt>
      <trkpt lat="39.89699" lon="116.635641">
        <time>2021-03-16T13:01:33Z</time>
      </trkpt>
      <trkpt lat="39.897066" lon="116.635645">
        <time>2021-03-16T13:01:38Z</time>
      </trkpt>
      <trkpt lat="39.897182" lon="116.635587">
        <time>2021-03-16T13:01:43Z</time>
      </trkpt>
      <trkpt lat="39.897273" lon="116.635561">
        <time>2021-03-16T13:01:48Z</time>
      </trkpt>
      <trkpt lat="39.897355" lon="116.63552">
        <time>2021-03-16T13:01:53Z</time>
      </trkpt>
      <trkpt lat="39.897546" lon="116.63542">
        <time>2021-03-16T13:01:58Z</time>
      </trkpt>
      <trkpt lat="39.897564" lon="116.635409">
        <time>2021-03-16T13:02:03Z</time>
      </trkpt>
      <trkpt lat="39.897635" lon="116.635359">
        <time>2021-03-16T13:02:08Z</time>
      </trkpt>
      <trkpt lat="39.897701" lon="116.6353">
        <time>2021-03-16T13:02:13Z</time>
      </trkpt>
      <trkpt lat="39.89777" lon="116.635249">
        <time>2021-03-16T13:02:18Z</time>
      </trkpt>
      <trkpt lat="39.897837" lon="116.635239">
        <time>2021-03-16T13:02:23Z</time>
      </trkpt>
      <trkpt lat="39.897912" lon="116.635197">
        <time>2021-03-16T13:02:28Z</time>
      </trkpt>
      <trkpt lat="39.897978" lon="116.635134">
        <time>2021-03-16T13:02:33Z</time>
      </trkpt>
      <trkpt lat="39.898049" lon="116.635076">
        <time>2021-03-16T13:02:38Z</time>
      </trkpt>
      <trkpt lat="39.898121" lon="116.635036">
        <time>2021-03-16T13:02:43Z</time>
      </trkpt>
      <trkpt lat="39.89819" lon="116.634993">
        <time>2021-03-16T13:02:48Z</time>
      </trkpt>
      <trkpt lat="39.898258" lon="116.634938">
        <time>2021-03-16T13:02:53Z</time>
      </trkpt>
      <trkpt lat="39.898321" lon="116.634879">
        <time>2021-03-16T13:02:58Z</time>
      </trkpt>
      <trkpt lat="39.8984" lon="116.634796">
        <time>2021-03-16T13:03:03Z</time>
      </trkpt>
      <trkpt lat="39.898498" lon="116.63473">
        <time>2021-03-16T13:03:08Z</time>
      </trkpt>
      <trkpt lat="39.89863" lon="116.634667">
        <time>2021-03-16T13:03:13Z</time>
      </trkpt>
      <trkpt lat="39.898768" lon="116.634585">
        <time>2021-03-16T13:03:18Z</time>
      </trkpt>
      <trkpt lat="39.898896" lon="116.634505">
        <time>2021-03-16T13:03:23Z</time>
      </trkpt>
      <trkpt lat="39.899012" lon="116.634458">
        <time>2021-03-16T13:03:28Z</time>
      </trkpt>
      <trkpt lat="39.899124" lon="116.634418">
        <time>2021-03-16T13:03:33Z</time>
      </trkpt>
      <trkpt lat="39.89924" lon="116.634329">
        <time>2021-03-16T13:03:38Z</time>
      </trkpt>
      <trkpt lat="39.899362" lon="116.634229">
        <time>2021-03-16T13:03:43Z</time>
      </trkpt>
      <trkpt lat="39.899481" lon="116.634143">
        <time>2021-03-16T13:03:48Z</time>
      </trkpt>
      <trkpt lat="39.899595" lon="116.634062">
        <time>2021-03-16T13:03:53Z</time>
      </trkpt>
      <trkpt lat="39.899797" lon="116.633942">
        <time>2021-03-16T13:03:58Z</time>
      </trkpt>
      <trkpt lat="39.899819" lon="116.633941">
        <time>2021-03-16T13:04:03Z</time>
      </trkpt>
      <trkpt lat="39.89994" lon="116.633914">
        <time>2021-03-16T13:04:08Z</time>
      </trkpt>
      <trkpt lat="39.900057" lon="116.633822">
        <time>2021-03-16T13:04:13Z</time>
      </trkpt>
      <trkpt lat="39.900175" lon="116.633736">
        <time>2021-03-16T13:04:18Z</time>
      </trkpt>
      <trkpt lat="39.900287" lon="116.633635">
        <time>2021-03-16T13:04:23Z</time>
      </trkpt>
      <trkpt lat="39.900409" lon="116.633576">
        <time>2021-03-16T13:04:28Z</time>
      </trkpt>
      <trkpt lat="39.900522" lon="116.633506">
        <time>2021-03-16T13:04:33Z</time>
      </trkpt>
      <trkpt lat="39.900641" lon="116.633391">
        <time>2021-03-16T13:04:38Z</time>
      </trkpt>
      <trkpt lat="39.900751" lon="116.633343">
        <time>2021-03-16T13:04:43Z</time>
      </trkpt>
      <trkpt lat="39.900869" lon="116.633307">
        <time>2021-03-16T13:04:48Z</time>
      </trkpt>
      <trkpt lat="39.900958" lon="116.633193">
        <time>2021-03-16T13:04:53Z</time>
      </trkpt>
      <trkpt lat="39.901027" lon="116.633124">
        <time>2021-03-16T13:04:58Z</time>
      </trkpt>
      <trkpt lat="39.900953" lon="116.633035">
        <time>2021-03-16T13:05:03Z</time>
      </trkpt>
      <trkpt lat="39.900868" lon="116.63288">
        <time>2021-03-16T13:05:08Z</time>
      </trkpt>
      <trkpt lat="39.90079" lon="116.632793">
        <time>2021-03-16T13:05:13Z</time>
      </trkpt>
      <trkpt lat="39.900649" lon="116.632877">
        <time>2021-03-16T13:05:18Z</time>
      </trkpt>
      <trkpt lat="39.900504" lon="116.633016">
        <time>2021-03-16T13:05:23Z</time>
      </trkpt>
      <trkpt lat="39.900384" lon="116.633129">
        <time>2021-03-16T13:05:28Z</time>
      </trkpt>
      <trkpt lat="39.900228" lon="116.633217">
        <time>2021-03-16T13:05:33Z</time>
      </trkpt>
      <trkpt lat="39.9001" lon="116.633329">
        <time>2021-03-16T13:05:38Z</time>
      </trkpt>
      <trkpt lat="39.899971" lon="116.633466">
        <time>2021-03-16T13:05:43Z</time>
      </trkpt>
      <trkpt lat="39.89983" lon="116.63354">
        <time>2021-03-16T13:05:48Z</time>
      </trkpt>
      <trkpt lat="39.89971" lon="116.633635">
        <time>2021-03-16T13:05:53Z</time>
      </trkpt>
      <trkpt lat="39.899501" lon="116.633756">
        <time>2021-03-16T13:05:58Z</time>
      </trkpt>
      <trkpt lat="39.899458" lon="116.633778">
        <time>2021-03-16T13:06:03Z</time>
      </trkpt>
      <trkpt lat="39.899322" lon="116.633867">
        <time>2021-03-16T13:06:08Z</time>
      </trkpt>
      <trkpt lat="39.899185" lon="116.633955">
        <time>2021-03-16T13:06:13Z</time>
      </trkpt>
      <trkpt lat="39.89904" lon="116.634054">
        <time>2021-03-16T13:06:18Z</time>
      </trkpt>
      <trkpt lat="39.898895" lon="116.634097">
        <time>2021-03-16T13:06:23Z</time>
      </trkpt>
      <trkpt lat="39.898769" lon="116.634204">
        <time>2021-03-16T13:06:28Z</time>
      </trkpt>
      <trkpt lat="39.89852" lon="116.634352">
        <time>2021-03-16T13:06:33Z</time>
      </trkpt>
      <trkpt lat="39.89849" lon="116.634378">
        <time>2021-03-16T13:06:38Z</time>
      </trkpt>
      <trkpt lat="39.898356" lon="116.634482">
        <time>2021-03-16T13:06:43Z</time>
      </trkpt>
      <trkpt lat="39.898137" lon="116.63466">
        <time>2021-03-16T13:06:48Z</time>
      </trkpt>
      <trkpt lat="39.898116" lon="116.634679">
        <time>2021-03-16T13:06:53Z</time>
      </trkpt>
      <trkpt lat="39.898006" lon="116.634644">
        <time>2021-03-16T13:06:58Z</time>
      </trkpt>
      <trkpt lat="39.897954" lon="116.634498">
        <time>2021-03-16T13:07:03Z</time>
      </trkpt>
      <trkpt lat="39.897903" lon="116.634366">
        <time>2021-03-16T13:07:08Z</time>
      </trkpt>
      <trkpt lat="39.897848" lon="116.634274">
        <time>2021-03-16T13:07:13Z</time>
      </trkpt>
      <trkpt lat="39.897782" lon="116.634123">
        <time>2021-03-16T13:07:18Z</time>
      </trkpt>
      <trkpt lat="39.897749" lon="116.63407">
        <time>2021-03-16T13:07:23Z</time>
      </trkpt>
      <trkpt lat="39.897681" lon="116.63397">
        <time>2021-03-16T13:07:28Z</time>
      </trkpt>
      <trkpt lat="39.897633" lon="116.633886">
        <time>2021-03-16T13:07:33Z</time>
      </trkpt>
      <trkpt lat="39.897579" lon="116.633779">
        <time>2021-03-16T13:07:38Z</time>
      </trkpt>
      <trkpt lat="39.897518" lon="116.633754">
        <time>2021-03-16T13:07:43Z</time>
      </trkpt>
      <trkpt lat="39.897453" lon="116.633722">
        <time>2021-03-16T13:07:48Z</time>
      </trkpt>
      <trkpt lat="39.897374" lon="116.633725">
        <time>2021-03-16T13:07:53Z</time>
      </trkpt>
      <trkpt lat="39.897333" lon="116.633779">
        <time>2021-03-16T13:07:58Z</time>
      </trkpt>
      <trkpt lat="39.897329" lon="116.633859">
        <time>2021-03-16T13:08:03Z</time>
      </trkpt>
      <trkpt lat="39.897342" lon="116.633957">
        <time>2021-03-16T13:08:08Z</time>
      </trkpt>
      <trkpt lat="39.897405" lon="116.634039">
        <time>2021-03-16T13:08:13Z</time>
      </trkpt>
      <trkpt lat="39.897456" lon="116.634157">
        <time>2021-03-16T13:08:18Z</time>
      </trkpt>
      <trkpt lat="39.897431" lon="116.634256">
        <time>2021-03-16T13:08:23Z</time>
      </trkpt>
      <trkpt lat="39.897431" lon="116.634256">
        <time>2021-03-16T13:11:23Z</time>
      </trkpt>
    </trkseg>
  </trk>
</gpx>