<?xml version="1.0" encoding="UTF-8"?>
<gpx xmlns="http://www.topografix.com/GPX/1/1" xmlns:gpxtpx="http://www.garmin.com/xmlschemas/TrackPointExtension/v1" xmlns:xsi="http://www.w3.org/2001/XMLSchema-instance" xsi:schemaLocation="http://www.topografix.com/GPX/1/1 http://www.topografix.com/GPX/1/1/gpx.xsd" version="1.1" creator="gpx.py -- https://github.com/tkrajina/gpxpy">
  <trk>
    <name>gpx from keep</name>
    <trkseg>
      <trkpt lat="39.897759" lon="116.635321">
        <time>2021-03-20T11:31:44Z</time>
      </trkpt>
      <trkpt lat="39.897759" lon="116.635321">
        <time>2021-03-20T11:31:49Z</time>
      </trkpt>
      <trkpt lat="39.897732" lon="116.635322">
        <time>2021-03-20T11:31:54Z</time>
      </trkpt>
      <trkpt lat="39.897693" lon="116.635331">
        <time>2021-03-20T11:31:59Z</time>
      </trkpt>
      <trkpt lat="39.897627" lon="116.635336">
        <time>2021-03-20T11:32:04Z</time>
      </trkpt>
      <trkpt lat="39.897512" lon="116.635404">
        <time>2021-03-20T11:32:09Z</time>
      </trkpt>
      <trkpt lat="39.897397" lon="116.635497">
        <time>2021-03-20T11:32:14Z</time>
      </trkpt>
      <trkpt lat="39.897309" lon="116.635552">
        <time>2021-03-20T11:32:19Z</time>
      </trkpt>
      <trkpt lat="39.897217" lon="116.635604">
        <time>2021-03-20T11:32:24Z</time>
      </trkpt>
      <trkpt lat="39.897113" lon="116.635697">
        <time>2021-03-20T11:32:29Z</time>
      </trkpt>
      <trkpt lat="39.896987" lon="116.6358">
        <time>2021-03-20T11:32:34Z</time>
      </trkpt>
      <trkpt lat="39.896854" lon="116.635878">
        <time>2021-03-20T11:32:39Z</time>
      </trkpt>
      <trkpt lat="39.89673" lon="116.635973">
        <time>2021-03-20T11:32:44Z</time>
      </trkpt>
      <trkpt lat="39.896611" lon="116.636054">
        <time>2021-03-20T11:32:49Z</time>
      </trkpt>
      <trkpt lat="39.896498" lon="116.63613">
        <time>2021-03-20T11:32:54Z</time>
      </trkpt>
      <trkpt lat="39.896462" lon="116.636124">
        <time>2021-03-20T11:32:59Z</time>
      </trkpt>
      <trkpt lat="39.896331" lon="116.636133">
        <time>2021-03-20T11:33:04Z</time>
      </trkpt>
      <trkpt lat="39.896225" lon="116.636211">
        <time>2021-03-20T11:33:09Z</time>
      </trkpt>
      <trkpt lat="39.896192" lon="116.636298">
        <time>2021-03-20T11:33:14Z</time>
      </trkpt>
      <trkpt lat="39.896145" lon="116.636394">
        <time>2021-03-20T11:33:19Z</time>
      </trkpt>
      <trkpt lat="39.896145" lon="116.636394">
        <time>2021-03-20T11:33:24Z</time>
      </trkpt>
      <trkpt lat="39.896099" lon="116.636447">
        <time>2021-03-20T11:33:29Z</time>
      </trkpt>
      <trkpt lat="39.896115" lon="116.636515">
        <time>2021-03-20T11:33:34Z</time>
      </trkpt>
      <trkpt lat="39.896116" lon="116.636507">
        <time>2021-03-20T11:33:39Z</time>
      </trkpt>
      <trkpt lat="39.89611" lon="116.636488">
        <time>2021-03-20T11:33:44Z</time>
      </trkpt>
      <trkpt lat="39.896101" lon="116.636501">
        <time>2021-03-20T11:33:49Z</time>
      </trkpt>
      <trkpt lat="39.896084" lon="116.636496">
        <time>2021-03-20T11:33:54Z</time>
      </trkpt>
      <trkpt lat="39.89609" lon="116.636489">
        <time>2021-03-20T11:33:59Z</time>
      </trkpt>
      <trkpt lat="39.896098" lon="116.636481">
        <time>2021-03-20T11:34:04Z</time>
      </trkpt>
      <trkpt lat="39.896082" lon="116.636504">
        <time>2021-03-20T11:34:09Z</time>
      </trkpt>
      <trkpt lat="39.896089" lon="116.63648">
        <time>2021-03-20T11:34:14Z</time>
      </trkpt>
      <trkpt lat="39.896095" lon="116.636468">
        <time>2021-03-20T11:34:19Z</time>
      </trkpt>
      <trkpt lat="39.896031" lon="116.636627">
        <time>2021-03-20T11:34:24Z</time>
      </trkpt>
      <trkpt lat="39.896022" lon="116.63663">
        <time>2021-03-20T11:34:29Z</time>
      </trkpt>
      <trkpt lat="39.896025" lon="116.636734">
        <time>2021-03-20T11:34:34Z</time>
      </trkpt>
      <trkpt lat="39.896124" lon="116.636868">
        <time>2021-03-20T11:34:39Z</time>
      </trkpt>
      <trkpt lat="39.896169" lon="116.637036">
        <time>2021-03-20T11:34:44Z</time>
      </trkpt>
      <trkpt lat="39.896187" lon="116.637189">
        <time>2021-03-20T11:34:49Z</time>
      </trkpt>
      <trkpt lat="39.896204" lon="116.637359">
        <time>2021-03-20T11:34:54Z</time>
      </trkpt>
      <trkpt lat="39.896211" lon="116.637513">
        <time>2021-03-20T11:34:59Z</time>
      </trkpt>
      <trkpt lat="39.896204" lon="116.637688">
        <time>2021-03-20T11:35:04Z</time>
      </trkpt>
      <trkpt lat="39.896206" lon="116.637865">
        <time>2021-03-20T11:35:09Z</time>
      </trkpt>
      <trkpt lat="39.896216" lon="116.637986">
        <time>2021-03-20T11:35:14Z</time>
      </trkpt>
      <trkpt lat="39.896213" lon="116.638155">
        <time>2021-03-20T11:35:19Z</time>
      </trkpt>
      <trkpt lat="39.896195" lon="116.638305">
        <time>2021-03-20T11:35:24Z</time>
      </trkpt>
      <trkpt lat="39.8962" lon="116.638463">
        <time>2021-03-20T11:35:29Z</time>
      </trkpt>
      <trkpt lat="39.896225" lon="116.638635">
        <time>2021-03-20T11:35:34Z</time>
      </trkpt>
      <trkpt lat="39.896239" lon="116.638777">
        <time>2021-03-20T11:35:39Z</time>
      </trkpt>
      <trkpt lat="39.896251" lon="116.638944">
        <time>2021-03-20T11:35:44Z</time>
      </trkpt>
      <trkpt lat="39.896281" lon="116.639101">
        <time>2021-03-20T11:35:49Z</time>
      </trkpt>
      <trkpt lat="39.896275" lon="116.639247">
        <time>2021-03-20T11:35:54Z</time>
      </trkpt>
      <trkpt lat="39.896277" lon="116.639402">
        <time>2021-03-20T11:35:59Z</time>
      </trkpt>
      <trkpt lat="39.896259" lon="116.639529">
        <time>2021-03-20T11:36:04Z</time>
      </trkpt>
      <trkpt lat="39.896189" lon="116.639546">
        <time>2021-03-20T11:36:09Z</time>
      </trkpt>
      <trkpt lat="39.896177" lon="116.639527">
        <time>2021-03-20T11:36:14Z</time>
      </trkpt>
      <trkpt lat="39.896173" lon="116.639495">
        <time>2021-03-20T11:36:19Z</time>
      </trkpt>
      <trkpt lat="39.896173" lon="116.639495">
        <time>2021-03-20T11:36:24Z</time>
      </trkpt>
      <trkpt lat="39.896141" lon="116.639537">
        <time>2021-03-20T11:36:29Z</time>
      </trkpt>
      <trkpt lat="39.896151" lon="116.639514">
        <time>2021-03-20T11:36:34Z</time>
      </trkpt>
      <trkpt lat="39.89616" lon="116.639511">
        <time>2021-03-20T11:36:39Z</time>
      </trkpt>
      <trkpt lat="39.896254" lon="116.639513">
        <time>2021-03-20T11:36:44Z</time>
      </trkpt>
      <trkpt lat="39.896272" lon="116.639669">
        <time>2021-03-20T11:36:49Z</time>
      </trkpt>
      <trkpt lat="39.896305" lon="116.639827">
        <time>2021-03-20T11:36:54Z</time>
      </trkpt>
      <trkpt lat="39.896313" lon="116.639992">
        <time>2021-03-20T11:36:59Z</time>
      </trkpt>
      <trkpt lat="39.896306" lon="116.64013">
        <time>2021-03-20T11:37:04Z</time>
      </trkpt>
      <trkpt lat="39.896316" lon="116.640264">
        <time>2021-03-20T11:37:09Z</time>
      </trkpt>
      <trkpt lat="39.896307" lon="116.640411">
        <time>2021-03-20T11:37:14Z</time>
      </trkpt>
      <trkpt lat="39.896293" lon="116.640598">
        <time>2021-03-20T11:37:19Z</time>
      </trkpt>
      <trkpt lat="39.896281" lon="116.64079">
        <time>2021-03-20T11:37:24Z</time>
      </trkpt>
      <trkpt lat="39.896288" lon="116.640976">
        <time>2021-03-20T11:37:29Z</time>
      </trkpt>
      <trkpt lat="39.896303" lon="116.64113">
        <time>2021-03-20T11:37:34Z</time>
      </trkpt>
      <trkpt lat="39.89632" lon="116.641285">
        <time>2021-03-20T11:37:39Z</time>
      </trkpt>
      <trkpt lat="39.896319" lon="116.641434">
        <time>2021-03-20T11:37:44Z</time>
      </trkpt>
      <trkpt lat="39.89633" lon="116.641571">
        <time>2021-03-20T11:37:49Z</time>
      </trkpt>
      <trkpt lat="39.896298" lon="116.641724">
        <time>2021-03-20T11:37:54Z</time>
      </trkpt>
      <trkpt lat="39.896276" lon="116.641871">
        <time>2021-03-20T11:37:59Z</time>
      </trkpt>
      <trkpt lat="39.896274" lon="116.642029">
        <time>2021-03-20T11:38:04Z</time>
      </trkpt>
      <trkpt lat="39.89626" lon="116.642168">
        <time>2021-03-20T11:38:09Z</time>
      </trkpt>
      <trkpt lat="39.896271" lon="116.642325">
        <time>2021-03-20T11:38:14Z</time>
      </trkpt>
      <trkpt lat="39.896273" lon="116.642496">
        <time>2021-03-20T11:38:19Z</time>
      </trkpt>
      <trkpt lat="39.896263" lon="116.642647">
        <time>2021-03-20T11:38:24Z</time>
      </trkpt>
      <trkpt lat="39.896229" lon="116.642773">
        <time>2021-03-20T11:38:29Z</time>
      </trkpt>
      <trkpt lat="39.896222" lon="116.642943">
        <time>2021-03-20T11:38:34Z</time>
      </trkpt>
      <trkpt lat="39.896213" lon="116.643124">
        <time>2021-03-20T11:38:39Z</time>
      </trkpt>
      <trkpt lat="39.896232" lon="116.643302">
        <time>2021-03-20T11:38:44Z</time>
      </trkpt>
      <trkpt lat="39.896248" lon="116.64347">
        <time>2021-03-20T11:38:49Z</time>
      </trkpt>
      <trkpt lat="39.896239" lon="116.643611">
        <time>2021-03-20T11:38:54Z</time>
      </trkpt>
      <trkpt lat="39.896228" lon="116.643765">
        <time>2021-03-20T11:38:59Z</time>
      </trkpt>
      <trkpt lat="39.896209" lon="116.643918">
        <time>2021-03-20T11:39:04Z</time>
      </trkpt>
      <trkpt lat="39.896219" lon="116.6441">
        <time>2021-03-20T11:39:09Z</time>
      </trkpt>
      <trkpt lat="39.896234" lon="116.644269">
        <time>2021-03-20T11:39:14Z</time>
      </trkpt>
      <trkpt lat="39.896239" lon="116.644449">
        <time>2021-03-20T11:39:19Z</time>
      </trkpt>
      <trkpt lat="39.896257" lon="116.644601">
        <time>2021-03-20T11:39:24Z</time>
      </trkpt>
      <trkpt lat="39.896264" lon="116.64472">
        <time>2021-03-20T11:39:29Z</time>
      </trkpt>
      <trkpt lat="39.896273" lon="116.644851">
        <time>2021-03-20T11:39:34Z</time>
      </trkpt>
      <trkpt lat="39.896269" lon="116.644992">
        <time>2021-03-20T11:39:39Z</time>
      </trkpt>
      <trkpt lat="39.896253" lon="116.645187">
        <time>2021-03-20T11:39:44Z</time>
      </trkpt>
      <trkpt lat="39.896259" lon="116.645406">
        <time>2021-03-20T11:39:49Z</time>
      </trkpt>
      <trkpt lat="39.896245" lon="116.645616">
        <time>2021-03-20T11:39:54Z</time>
      </trkpt>
      <trkpt lat="39.896192" lon="116.645732">
        <time>2021-03-20T11:39:59Z</time>
      </trkpt>
      <trkpt lat="39.896128" lon="116.645828">
        <time>2021-03-20T11:40:04Z</time>
      </trkpt>
      <trkpt lat="39.896111" lon="116.645974">
        <time>2021-03-20T11:40:09Z</time>
      </trkpt>
      <trkpt lat="39.896098" lon="116.646171">
        <time>2021-03-20T11:40:14Z</time>
      </trkpt>
      <trkpt lat="39.896082" lon="116.646308">
        <time>2021-03-20T11:40:19Z</time>
      </trkpt>
      <trkpt lat="39.896071" lon="116.646469">
        <time>2021-03-20T11:40:24Z</time>
      </trkpt>
      <trkpt lat="39.896063" lon="116.646634">
        <time>2021-03-20T11:40:29Z</time>
      </trkpt>
      <trkpt lat="39.896027" lon="116.64681">
        <time>2021-03-20T11:40:34Z</time>
      </trkpt>
      <trkpt lat="39.895863" lon="116.646835">
        <time>2021-03-20T11:40:39Z</time>
      </trkpt>
      <trkpt lat="39.895696" lon="116.646766">
        <time>2021-03-20T11:40:44Z</time>
      </trkpt>
      <trkpt lat="39.895549" lon="116.646702">
        <time>2021-03-20T11:40:49Z</time>
      </trkpt>
      <trkpt lat="39.89541" lon="116.646644">
        <time>2021-03-20T11:40:54Z</time>
      </trkpt>
      <trkpt lat="39.895291" lon="116.646577">
        <time>2021-03-20T11:40:59Z</time>
      </trkpt>
      <trkpt lat="39.895163" lon="116.646519">
        <time>2021-03-20T11:41:04Z</time>
      </trkpt>
      <trkpt lat="39.89505" lon="116.646424">
        <time>2021-03-20T11:41:09Z</time>
      </trkpt>
      <trkpt lat="39.894906" lon="116.646351">
        <time>2021-03-20T11:41:14Z</time>
      </trkpt>
      <trkpt lat="39.894806" lon="116.646319">
        <time>2021-03-20T11:41:19Z</time>
      </trkpt>
      <trkpt lat="39.894689" lon="116.646259">
        <time>2021-03-20T11:41:24Z</time>
      </trkpt>
      <trkpt lat="39.894541" lon="116.646231">
        <time>2021-03-20T11:41:29Z</time>
      </trkpt>
      <trkpt lat="39.894411" lon="116.646209">
        <time>2021-03-20T11:41:34Z</time>
      </trkpt>
      <trkpt lat="39.894299" lon="116.646169">
        <time>2021-03-20T11:41:39Z</time>
      </trkpt>
      <trkpt lat="39.894199" lon="116.646102">
        <time>2021-03-20T11:41:44Z</time>
      </trkpt>
      <trkpt lat="39.894086" lon="116.645997">
        <time>2021-03-20T11:41:49Z</time>
      </trkpt>
      <trkpt lat="39.893992" lon="116.645944">
        <time>2021-03-20T11:41:54Z</time>
      </trkpt>
      <trkpt lat="39.893864" lon="116.645992">
        <time>2021-03-20T11:41:59Z</time>
      </trkpt>
      <trkpt lat="39.893798" lon="116.646145">
        <time>2021-03-20T11:42:04Z</time>
      </trkpt>
      <trkpt lat="39.893768" lon="116.64628">
        <time>2021-03-20T11:42:09Z</time>
      </trkpt>
      <trkpt lat="39.893597" lon="116.646375">
        <time>2021-03-20T11:42:14Z</time>
      </trkpt>
      <trkpt lat="39.893572" lon="116.646374">
        <time>2021-03-20T11:42:19Z</time>
      </trkpt>
      <trkpt lat="39.89342" lon="116.646332">
        <time>2021-03-20T11:42:24Z</time>
      </trkpt>
      <trkpt lat="39.893331" lon="116.646277">
        <time>2021-03-20T11:42:29Z</time>
      </trkpt>
      <trkpt lat="39.893191" lon="116.646233">
        <time>2021-03-20T11:42:34Z</time>
      </trkpt>
      <trkpt lat="39.893068" lon="116.646174">
        <time>2021-03-20T11:42:39Z</time>
      </trkpt>
      <trkpt lat="39.89297" lon="116.646094">
        <time>2021-03-20T11:42:44Z</time>
      </trkpt>
      <trkpt lat="39.892872" lon="116.646023">
        <time>2021-03-20T11:42:49Z</time>
      </trkpt>
      <trkpt lat="39.892748" lon="116.64597">
        <time>2021-03-20T11:42:54Z</time>
      </trkpt>
      <trkpt lat="39.89263" lon="116.645892">
        <time>2021-03-20T11:42:59Z</time>
      </trkpt>
      <trkpt lat="39.892503" lon="116.645849">
        <time>2021-03-20T11:43:04Z</time>
      </trkpt>
      <trkpt lat="39.892373" lon="116.645811">
        <time>2021-03-20T11:43:09Z</time>
      </trkpt>
      <trkpt lat="39.892248" lon="116.645737">
        <time>2021-03-20T11:43:14Z</time>
      </trkpt>
      <trkpt lat="39.892121" lon="116.645673">
        <time>2021-03-20T11:43:19Z</time>
      </trkpt>
      <trkpt lat="39.891988" lon="116.645617">
        <time>2021-03-20T11:43:24Z</time>
      </trkpt>
      <trkpt lat="39.891861" lon="116.645565">
        <time>2021-03-20T11:43:29Z</time>
      </trkpt>
      <trkpt lat="39.891713" lon="116.645538">
        <time>2021-03-20T11:43:34Z</time>
      </trkpt>
      <trkpt lat="39.891604" lon="116.645444">
        <time>2021-03-20T11:43:39Z</time>
      </trkpt>
      <trkpt lat="39.89148" lon="116.645373">
        <time>2021-03-20T11:43:44Z</time>
      </trkpt>
      <trkpt lat="39.891461" lon="116.645439">
        <time>2021-03-20T11:43:49Z</time>
      </trkpt>
      <trkpt lat="39.89156" lon="116.645471">
        <time>2021-03-20T11:43:54Z</time>
      </trkpt>
      <trkpt lat="39.891722" lon="116.645506">
        <time>2021-03-20T11:43:59Z</time>
      </trkpt>
      <trkpt lat="39.891855" lon="116.645539">
        <time>2021-03-20T11:44:04Z</time>
      </trkpt>
      <trkpt lat="39.891988" lon="116.645564">
        <time>2021-03-20T11:44:09Z</time>
      </trkpt>
      <trkpt lat="39.892125" lon="116.645617">
        <time>2021-03-20T11:44:14Z</time>
      </trkpt>
      <trkpt lat="39.892313" lon="116.645672">
        <time>2021-03-20T11:44:19Z</time>
      </trkpt>
      <trkpt lat="39.892387" lon="116.645697">
        <time>2021-03-20T11:44:24Z</time>
      </trkpt>
      <trkpt lat="39.892485" lon="116.645754">
        <time>2021-03-20T11:44:29Z</time>
      </trkpt>
      <trkpt lat="39.892605" lon="116.645806">
        <time>2021-03-20T11:44:34Z</time>
      </trkpt>
      <trkpt lat="39.892714" lon="116.64587">
        <time>2021-03-20T11:44:39Z</time>
      </trkpt>
      <trkpt lat="39.892847" lon="116.645926">
        <time>2021-03-20T11:44:44Z</time>
      </trkpt>
      <trkpt lat="39.892951" lon="116.645958">
        <time>2021-03-20T11:44:49Z</time>
      </trkpt>
      <trkpt lat="39.893061" lon="116.646046">
        <time>2021-03-20T11:44:54Z</time>
      </trkpt>
      <trkpt lat="39.893176" lon="116.646079">
        <time>2021-03-20T11:44:59Z</time>
      </trkpt>
      <trkpt lat="39.893306" lon="116.646124">
        <time>2021-03-20T11:45:04Z</time>
      </trkpt>
      <trkpt lat="39.893396" lon="116.646186">
        <time>2021-03-20T11:45:09Z</time>
      </trkpt>
      <trkpt lat="39.893596" lon="116.646327">
        <time>2021-03-20T11:45:14Z</time>
      </trkpt>
      <trkpt lat="39.893652" lon="116.646354">
        <time>2021-03-20T11:45:19Z</time>
      </trkpt>
      <trkpt lat="39.893772" lon="116.646289">
        <time>2021-03-20T11:45:24Z</time>
      </trkpt>
      <trkpt lat="39.893826" lon="116.646126">
        <time>2021-03-20T11:45:29Z</time>
      </trkpt>
      <trkpt lat="39.893872" lon="116.645981">
        <time>2021-03-20T11:45:34Z</time>
      </trkpt>
      <trkpt lat="39.89394" lon="116.645895">
        <time>2021-03-20T11:45:39Z</time>
      </trkpt>
      <trkpt lat="39.894041" lon="116.645904">
        <time>2021-03-20T11:45:44Z</time>
      </trkpt>
      <trkpt lat="39.894172" lon="116.645945">
        <time>2021-03-20T11:45:49Z</time>
      </trkpt>
      <trkpt lat="39.894289" lon="116.646008">
        <time>2021-03-20T11:45:54Z</time>
      </trkpt>
      <trkpt lat="39.89442" lon="116.646096">
        <time>2021-03-20T11:45:59Z</time>
      </trkpt>
      <trkpt lat="39.894669" lon="116.646179">
        <time>2021-03-20T11:46:04Z</time>
      </trkpt>
      <trkpt lat="39.894695" lon="116.646191">
        <time>2021-03-20T11:46:09Z</time>
      </trkpt>
      <trkpt lat="39.894813" lon="116.646249">
        <time>2021-03-20T11:46:14Z</time>
      </trkpt>
      <trkpt lat="39.894923" lon="116.64631">
        <time>2021-03-20T11:46:19Z</time>
      </trkpt>
      <trkpt lat="39.895045" lon="116.646362">
        <time>2021-03-20T11:46:24Z</time>
      </trkpt>
      <trkpt lat="39.895184" lon="116.646426">
        <time>2021-03-20T11:46:29Z</time>
      </trkpt>
      <trkpt lat="39.8953" lon="116.64649">
        <time>2021-03-20T11:46:34Z</time>
      </trkpt>
      <trkpt lat="39.895453" lon="116.646542">
        <time>2021-03-20T11:46:39Z</time>
      </trkpt>
      <trkpt lat="39.895561" lon="116.646579">
        <time>2021-03-20T11:46:44Z</time>
      </trkpt>
      <trkpt lat="39.895673" lon="116.646641">
        <time>2021-03-20T11:46:49Z</time>
      </trkpt>
      <trkpt lat="39.895801" lon="116.646702">
        <time>2021-03-20T11:46:54Z</time>
      </trkpt>
      <trkpt lat="39.895923" lon="116.646786">
        <time>2021-03-20T11:46:59Z</time>
      </trkpt>
      <trkpt lat="39.896051" lon="116.64675">
        <time>2021-03-20T11:47:04Z</time>
      </trkpt>
      <trkpt lat="39.896067" lon="116.646587">
        <time>2021-03-20T11:47:09Z</time>
      </trkpt>
      <trkpt lat="39.896037" lon="116.646423">
        <time>2021-03-20T11:47:14Z</time>
      </trkpt>
      <trkpt lat="39.896039" lon="116.646275">
        <time>2021-03-20T11:47:19Z</time>
      </trkpt>
      <trkpt lat="39.896051" lon="116.646123">
        <time>2021-03-20T11:47:24Z</time>
      </trkpt>
      <trkpt lat="39.896057" lon="116.645966">
        <time>2021-03-20T11:47:29Z</time>
      </trkpt>
      <trkpt lat="39.896061" lon="116.645788">
        <time>2021-03-20T11:47:34Z</time>
      </trkpt>
      <trkpt lat="39.896076" lon="116.645615">
        <time>2021-03-20T11:47:39Z</time>
      </trkpt>
      <trkpt lat="39.896102" lon="116.64546">
        <time>2021-03-20T11:47:44Z</time>
      </trkpt>
      <trkpt lat="39.896125" lon="116.645325">
        <time>2021-03-20T11:47:49Z</time>
      </trkpt>
      <trkpt lat="39.896128" lon="116.645163">
        <time>2021-03-20T11:47:54Z</time>
      </trkpt>
      <trkpt lat="39.896142" lon="116.645001">
        <time>2021-03-20T11:47:59Z</time>
      </trkpt>
      <trkpt lat="39.896162" lon="116.644843">
        <time>2021-03-20T11:48:04Z</time>
      </trkpt>
      <trkpt lat="39.896188" lon="116.644682">
        <time>2021-03-20T11:48:09Z</time>
      </trkpt>
      <trkpt lat="39.896204" lon="116.644532">
        <time>2021-03-20T11:48:14Z</time>
      </trkpt>
      <trkpt lat="39.89621" lon="116.644387">
        <time>2021-03-20T11:48:19Z</time>
      </trkpt>
      <trkpt lat="39.896208" lon="116.644225">
        <time>2021-03-20T11:48:24Z</time>
      </trkpt>
      <trkpt lat="39.896218" lon="116.644075">
        <time>2021-03-20T11:48:29Z</time>
      </trkpt>
      <trkpt lat="39.896218" lon="116.643938">
        <time>2021-03-20T11:48:34Z</time>
      </trkpt>
      <trkpt lat="39.896225" lon="116.643819">
        <time>2021-03-20T11:48:39Z</time>
      </trkpt>
      <trkpt lat="39.896235" lon="116.643678">
        <time>2021-03-20T11:48:44Z</time>
      </trkpt>
      <trkpt lat="39.896225" lon="116.643513">
        <time>2021-03-20T11:48:49Z</time>
      </trkpt>
      <trkpt lat="39.896202" lon="116.643355">
        <time>2021-03-20T11:48:54Z</time>
      </trkpt>
      <trkpt lat="39.896186" lon="116.643196">
        <time>2021-03-20T11:48:59Z</time>
      </trkpt>
      <trkpt lat="39.896182" lon="116.64304">
        <time>2021-03-20T11:49:04Z</time>
      </trkpt>
      <trkpt lat="39.896173" lon="116.642916">
        <time>2021-03-20T11:49:09Z</time>
      </trkpt>
      <trkpt lat="39.896177" lon="116.642788">
        <time>2021-03-20T11:49:14Z</time>
      </trkpt>
      <trkpt lat="39.896176" lon="116.642555">
        <time>2021-03-20T11:49:19Z</time>
      </trkpt>
      <trkpt lat="39.896185" lon="116.642459">
        <time>2021-03-20T11:49:24Z</time>
      </trkpt>
      <trkpt lat="39.896203" lon="116.642306">
        <time>2021-03-20T11:49:29Z</time>
      </trkpt>
      <trkpt lat="39.896206" lon="116.642149">
        <time>2021-03-20T11:49:34Z</time>
      </trkpt>
      <trkpt lat="39.896222" lon="116.641979">
        <time>2021-03-20T11:49:39Z</time>
      </trkpt>
      <trkpt lat="39.896219" lon="116.641836">
        <time>2021-03-20T11:49:44Z</time>
      </trkpt>
      <trkpt lat="39.896211" lon="116.641628">
        <time>2021-03-20T11:49:49Z</time>
      </trkpt>
      <trkpt lat="39.896198" lon="116.641531">
        <time>2021-03-20T11:49:54Z</time>
      </trkpt>
      <trkpt lat="39.89619" lon="116.641378">
        <time>2021-03-20T11:49:59Z</time>
      </trkpt>
      <trkpt lat="39.896198" lon="116.641221">
        <time>2021-03-20T11:50:04Z</time>
      </trkpt>
      <trkpt lat="39.896222" lon="116.641059">
        <time>2021-03-20T11:50:09Z</time>
      </trkpt>
      <trkpt lat="39.896216" lon="116.640894">
        <time>2021-03-20T11:50:14Z</time>
      </trkpt>
      <trkpt lat="39.896212" lon="116.640746">
        <time>2021-03-20T11:50:19Z</time>
      </trkpt>
      <trkpt lat="39.896202" lon="116.640595">
        <time>2021-03-20T11:50:24Z</time>
      </trkpt>
      <trkpt lat="39.896205" lon="116.640446">
        <time>2021-03-20T11:50:29Z</time>
      </trkpt>
      <trkpt lat="39.896219" lon="116.640251">
        <time>2021-03-20T11:50:34Z</time>
      </trkpt>
      <trkpt lat="39.896216" lon="116.640073">
        <time>2021-03-20T11:50:39Z</time>
      </trkpt>
      <trkpt lat="39.896201" lon="116.639913">
        <time>2021-03-20T11:50:44Z</time>
      </trkpt>
      <trkpt lat="39.896185" lon="116.63976">
        <time>2021-03-20T11:50:49Z</time>
      </trkpt>
      <trkpt lat="39.896191" lon="116.63962">
        <time>2021-03-20T11:50:54Z</time>
      </trkpt>
      <trkpt lat="39.89618" lon="116.639457">
        <time>2021-03-20T11:50:59Z</time>
      </trkpt>
      <trkpt lat="39.896157" lon="116.639276">
        <time>2021-03-20T11:51:04Z</time>
      </trkpt>
      <trkpt lat="39.896143" lon="116.639122">
        <time>2021-03-20T11:51:09Z</time>
      </trkpt>
      <trkpt lat="39.896133" lon="116.638974">
        <time>2021-03-20T11:51:14Z</time>
      </trkpt>
      <trkpt lat="39.896068" lon="116.63882">
        <time>2021-03-20T11:51:19Z</time>
      </trkpt>
      <trkpt lat="39.896029" lon="116.638675">
        <time>2021-03-20T11:51:24Z</time>
      </trkpt>
      <trkpt lat="39.895986" lon="116.638534">
        <time>2021-03-20T11:51:29Z</time>
      </trkpt>
      <trkpt lat="39.895975" lon="116.638396">
        <time>2021-03-20T11:51:34Z</time>
      </trkpt>
      <trkpt lat="39.895973" lon="116.638226">
        <time>2021-03-20T11:51:39Z</time>
      </trkpt>
      <trkpt lat="39.89592" lon="116.638057">
        <time>2021-03-20T11:51:44Z</time>
      </trkpt>
      <trkpt lat="39.895937" lon="116.637889">
        <time>2021-03-20T11:51:49Z</time>
      </trkpt>
      <trkpt lat="39.896021" lon="116.63774">
        <time>2021-03-20T11:51:54Z</time>
      </trkpt>
      <trkpt lat="39.896077" lon="116.637576">
        <time>2021-03-20T11:51:59Z</time>
      </trkpt>
      <trkpt lat="39.896107" lon="116.637429">
        <time>2021-03-20T11:52:04Z</time>
      </trkpt>
      <trkpt lat="39.896107" lon="116.637262">
        <time>2021-03-20T11:52:09Z</time>
      </trkpt>
      <trkpt lat="39.896126" lon="116.637129">
        <time>2021-03-20T11:52:14Z</time>
      </trkpt>
      <trkpt lat="39.8961" lon="116.636956">
        <time>2021-03-20T11:52:19Z</time>
      </trkpt>
      <trkpt lat="39.896035" lon="116.636787">
        <time>2021-03-20T11:52:24Z</time>
      </trkpt>
      <trkpt lat="39.89596" lon="116.636708">
        <time>2021-03-20T11:52:29Z</time>
      </trkpt>
      <trkpt lat="39.896014" lon="116.636849">
        <time>2021-03-20T11:52:34Z</time>
      </trkpt>
      <trkpt lat="39.896076" lon="116.637015">
        <time>2021-03-20T11:52:39Z</time>
      </trkpt>
      <trkpt lat="39.896115" lon="116.637193">
        <time>2021-03-20T11:52:44Z</time>
      </trkpt>
      <trkpt lat="39.896163" lon="116.637373">
        <time>2021-03-20T11:52:49Z</time>
      </trkpt>
      <trkpt lat="39.896204" lon="116.637561">
        <time>2021-03-20T11:52:54Z</time>
      </trkpt>
      <trkpt lat="39.896214" lon="116.637747">
        <time>2021-03-20T11:52:59Z</time>
      </trkpt>
      <trkpt lat="39.896188" lon="116.637911">
        <time>2021-03-20T11:53:04Z</time>
      </trkpt>
      <trkpt lat="39.896186" lon="116.638083">
        <time>2021-03-20T11:53:09Z</time>
      </trkpt>
      <trkpt lat="39.896195" lon="116.638186">
        <time>2021-03-20T11:53:14Z</time>
      </trkpt>
      <trkpt lat="39.896185" lon="116.63828">
        <time>2021-03-20T11:53:19Z</time>
      </trkpt>
      <trkpt lat="39.896199" lon="116.638438">
        <time>2021-03-20T11:53:24Z</time>
      </trkpt>
      <trkpt lat="39.896228" lon="116.638606">
        <time>2021-03-20T11:53:29Z</time>
      </trkpt>
      <trkpt lat="39.896256" lon="116.638774">
        <time>2021-03-20T11:53:34Z</time>
      </trkpt>
      <trkpt lat="39.896282" lon="116.638926">
        <time>2021-03-20T11:53:39Z</time>
      </trkpt>
      <trkpt lat="39.896279" lon="116.639077">
        <time>2021-03-20T11:53:44Z</time>
      </trkpt>
      <trkpt lat="39.896261" lon="116.639209">
        <time>2021-03-20T11:53:49Z</time>
      </trkpt>
      <trkpt lat="39.896226" lon="116.639329">
        <time>2021-03-20T11:53:54Z</time>
      </trkpt>
      <trkpt lat="39.896202" lon="116.639476">
        <time>2021-03-20T11:53:59Z</time>
      </trkpt>
      <trkpt lat="39.896212" lon="116.639638">
        <time>2021-03-20T11:54:04Z</time>
      </trkpt>
      <trkpt lat="39.896228" lon="116.639797">
        <time>2021-03-20T11:54:09Z</time>
      </trkpt>
      <trkpt lat="39.896248" lon="116.639962">
        <time>2021-03-20T11:54:14Z</time>
      </trkpt>
      <trkpt lat="39.896263" lon="116.640119">
        <time>2021-03-20T11:54:19Z</time>
      </trkpt>
      <trkpt lat="39.89628" lon="116.640296">
        <time>2021-03-20T11:54:24Z</time>
      </trkpt>
      <trkpt lat="39.896288" lon="116.640485">
        <time>2021-03-20T11:54:29Z</time>
      </trkpt>
      <trkpt lat="39.89625" lon="116.640649">
        <time>2021-03-20T11:54:34Z</time>
      </trkpt>
      <trkpt lat="39.896244" lon="116.640824">
        <time>2021-03-20T11:54:39Z</time>
      </trkpt>
      <trkpt lat="39.896278" lon="116.641017">
        <time>2021-03-20T11:54:44Z</time>
      </trkpt>
      <trkpt lat="39.896275" lon="116.641197">
        <time>2021-03-20T11:54:49Z</time>
      </trkpt>
      <trkpt lat="39.896259" lon="116.641361">
        <time>2021-03-20T11:54:54Z</time>
      </trkpt>
      <trkpt lat="39.896237" lon="116.641506">
        <time>2021-03-20T11:54:59Z</time>
      </trkpt>
      <trkpt lat="39.896224" lon="116.641651">
        <time>2021-03-20T11:55:04Z</time>
      </trkpt>
      <trkpt lat="39.89621" lon="116.641783">
        <time>2021-03-20T11:55:09Z</time>
      </trkpt>
      <trkpt lat="39.896201" lon="116.64193">
        <time>2021-03-20T11:55:14Z</time>
      </trkpt>
      <trkpt lat="39.896207" lon="116.64214">
        <time>2021-03-20T11:55:19Z</time>
      </trkpt>
      <trkpt lat="39.896212" lon="116.642236">
        <time>2021-03-20T11:55:24Z</time>
      </trkpt>
      <trkpt lat="39.896233" lon="116.64241">
        <time>2021-03-20T11:55:29Z</time>
      </trkpt>
      <trkpt lat="39.89624" lon="116.642574">
        <time>2021-03-20T11:55:34Z</time>
      </trkpt>
      <trkpt lat="39.896239" lon="116.642718">
        <time>2021-03-20T11:55:39Z</time>
      </trkpt>
      <trkpt lat="39.896221" lon="116.642836">
        <time>2021-03-20T11:55:44Z</time>
      </trkpt>
      <trkpt lat="39.896234" lon="116.642994">
        <time>2021-03-20T11:55:49Z</time>
      </trkpt>
      <trkpt lat="39.896216" lon="116.64315">
        <time>2021-03-20T11:55:54Z</time>
      </trkpt>
      <trkpt lat="39.896219" lon="116.643336">
        <time>2021-03-20T11:55:59Z</time>
      </trkpt>
      <trkpt lat="39.896255" lon="116.643532">
        <time>2021-03-20T11:56:04Z</time>
      </trkpt>
      <trkpt lat="39.896255" lon="116.643701">
        <time>2021-03-20T11:56:09Z</time>
      </trkpt>
      <trkpt lat="39.896251" lon="116.643862">
        <time>2021-03-20T11:56:14Z</time>
      </trkpt>
      <trkpt lat="39.896255" lon="116.644017">
        <time>2021-03-20T11:56:19Z</time>
      </trkpt>
      <trkpt lat="39.896268" lon="116.644174">
        <time>2021-03-20T11:56:24Z</time>
      </trkpt>
      <trkpt lat="39.896256" lon="116.644314">
        <time>2021-03-20T11:56:29Z</time>
      </trkpt>
      <trkpt lat="39.896259" lon="116.644462">
        <time>2021-03-20T11:56:34Z</time>
      </trkpt>
      <trkpt lat="39.896275" lon="116.644616">
        <time>2021-03-20T11:56:39Z</time>
      </trkpt>
      <trkpt lat="39.896298" lon="116.644735">
        <time>2021-03-20T11:56:44Z</time>
      </trkpt>
      <trkpt lat="39.8963" lon="116.644868">
        <time>2021-03-20T11:56:49Z</time>
      </trkpt>
      <trkpt lat="39.896273" lon="116.644948">
        <time>2021-03-20T11:56:54Z</time>
      </trkpt>
      <trkpt lat="39.896244" lon="116.64507">
        <time>2021-03-20T11:56:59Z</time>
      </trkpt>
      <trkpt lat="39.896234" lon="116.645217">
        <time>2021-03-20T11:57:04Z</time>
      </trkpt>
      <trkpt lat="39.896222" lon="116.645394">
        <time>2021-03-20T11:57:09Z</time>
      </trkpt>
      <trkpt lat="39.896203" lon="116.645577">
        <time>2021-03-20T11:57:14Z</time>
      </trkpt>
      <trkpt lat="39.896152" lon="116.645749">
        <time>2021-03-20T11:57:19Z</time>
      </trkpt>
      <trkpt lat="39.896106" lon="116.645901">
        <time>2021-03-20T11:57:24Z</time>
      </trkpt>
      <trkpt lat="39.896088" lon="116.646073">
        <time>2021-03-20T11:57:29Z</time>
      </trkpt>
      <trkpt lat="39.896076" lon="116.646253">
        <time>2021-03-20T11:57:34Z</time>
      </trkpt>
      <trkpt lat="39.896064" lon="116.646434">
        <time>2021-03-20T11:57:39Z</time>
      </trkpt>
      <trkpt lat="39.896039" lon="116.646582">
        <time>2021-03-20T11:57:44Z</time>
      </trkpt>
      <trkpt lat="39.89603" lon="116.64676">
        <time>2021-03-20T11:57:49Z</time>
      </trkpt>
      <trkpt lat="39.895906" lon="116.646848">
        <time>2021-03-20T11:57:54Z</time>
      </trkpt>
      <trkpt lat="39.895752" lon="116.646786">
        <time>2021-03-20T11:57:59Z</time>
      </trkpt>
      <trkpt lat="39.89564" lon="116.646711">
        <time>2021-03-20T11:58:04Z</time>
      </trkpt>
      <trkpt lat="39.895542" lon="116.646636">
        <time>2021-03-20T11:58:09Z</time>
      </trkpt>
      <trkpt lat="39.895423" lon="116.646584">
        <time>2021-03-20T11:58:14Z</time>
      </trkpt>
      <trkpt lat="39.895268" lon="116.64654">
        <time>2021-03-20T11:58:19Z</time>
      </trkpt>
      <trkpt lat="39.895144" lon="116.646478">
        <time>2021-03-20T11:58:24Z</time>
      </trkpt>
      <trkpt lat="39.89491" lon="116.646364">
        <time>2021-03-20T11:58:29Z</time>
      </trkpt>
      <trkpt lat="39.89488" lon="116.646354">
        <time>2021-03-20T11:58:34Z</time>
      </trkpt>
      <trkpt lat="39.894744" lon="116.64632">
        <time>2021-03-20T11:58:39Z</time>
      </trkpt>
      <trkpt lat="39.894629" lon="116.646236">
        <time>2021-03-20T11:58:44Z</time>
      </trkpt>
      <trkpt lat="39.894457" lon="116.646145">
        <time>2021-03-20T11:58:49Z</time>
      </trkpt>
      <trkpt lat="39.894392" lon="116.646116">
        <time>2021-03-20T11:58:54Z</time>
      </trkpt>
      <trkpt lat="39.894268" lon="116.646061">
        <time>2021-03-20T11:58:59Z</time>
      </trkpt>
      <trkpt lat="39.894096" lon="116.646027">
        <time>2021-03-20T11:59:04Z</time>
      </trkpt>
      <trkpt lat="39.893991" lon="116.645972">
        <time>2021-03-20T11:59:09Z</time>
      </trkpt>
      <trkpt lat="39.893873" lon="116.645942">
        <time>2021-03-20T11:59:14Z</time>
      </trkpt>
      <trkpt lat="39.893803" lon="116.64609">
        <time>2021-03-20T11:59:19Z</time>
      </trkpt>
      <trkpt lat="39.893751" lon="116.646232">
        <time>2021-03-20T11:59:24Z</time>
      </trkpt>
      <trkpt lat="39.893615" lon="116.646397">
        <time>2021-03-20T11:59:29Z</time>
      </trkpt>
      <trkpt lat="39.893551" lon="116.646398">
        <time>2021-03-20T11:59:34Z</time>
      </trkpt>
      <trkpt lat="39.893401" lon="116.646358">
        <time>2021-03-20T11:59:39Z</time>
      </trkpt>
      <trkpt lat="39.893294" lon="116.646256">
        <time>2021-03-20T11:59:44Z</time>
      </trkpt>
      <trkpt lat="39.893147" lon="116.646184">
        <time>2021-03-20T11:59:49Z</time>
      </trkpt>
      <trkpt lat="39.892928" lon="116.646087">
        <time>2021-03-20T11:59:54Z</time>
      </trkpt>
      <trkpt lat="39.892899" lon="116.64608">
        <time>2021-03-20T11:59:59Z</time>
      </trkpt>
      <trkpt lat="39.892751" lon="116.646053">
        <time>2021-03-20T12:00:04Z</time>
      </trkpt>
      <trkpt lat="39.892627" lon="116.645978">
        <time>2021-03-20T12:00:09Z</time>
      </trkpt>
      <trkpt lat="39.892516" lon="116.645916">
        <time>2021-03-20T12:00:14Z</time>
      </trkpt>
      <trkpt lat="39.892444" lon="116.645886">
        <time>2021-03-20T12:00:19Z</time>
      </trkpt>
      <trkpt lat="39.892348" lon="116.645843">
        <time>2021-03-20T12:00:24Z</time>
      </trkpt>
      <trkpt lat="39.892229" lon="116.645772">
        <time>2021-03-20T12:00:29Z</time>
      </trkpt>
      <trkpt lat="39.8921" lon="116.645707">
        <time>2021-03-20T12:00:34Z</time>
      </trkpt>
      <trkpt lat="39.891965" lon="116.645652">
        <time>2021-03-20T12:00:39Z</time>
      </trkpt>
      <trkpt lat="39.891836" lon="116.645614">
        <time>2021-03-20T12:00:44Z</time>
      </trkpt>
      <trkpt lat="39.891703" lon="116.645549">
        <time>2021-03-20T12:00:49Z</time>
      </trkpt>
      <trkpt lat="39.891614" lon="116.645455">
        <time>2021-03-20T12:00:54Z</time>
      </trkpt>
      <trkpt lat="39.891542" lon="116.645367">
        <time>2021-03-20T12:00:59Z</time>
      </trkpt>
      <trkpt lat="39.891537" lon="116.645406">
        <time>2021-03-20T12:01:04Z</time>
      </trkpt>
      <trkpt lat="39.891642" lon="116.64548">
        <time>2021-03-20T12:01:09Z</time>
      </trkpt>
      <trkpt lat="39.891779" lon="116.645526">
        <time>2021-03-20T12:01:14Z</time>
      </trkpt>
      <trkpt lat="39.891937" lon="116.645571">
        <time>2021-03-20T12:01:19Z</time>
      </trkpt>
      <trkpt lat="39.892081" lon="116.645601">
        <time>2021-03-20T12:01:24Z</time>
      </trkpt>
      <trkpt lat="39.892196" lon="116.645677">
        <time>2021-03-20T12:01:29Z</time>
      </trkpt>
      <trkpt lat="39.892282" lon="116.64573">
        <time>2021-03-20T12:01:34Z</time>
      </trkpt>
      <trkpt lat="39.892432" lon="116.645765">
        <time>2021-03-20T12:01:39Z</time>
      </trkpt>
      <trkpt lat="39.892555" lon="116.645843">
        <time>2021-03-20T12:01:44Z</time>
      </trkpt>
      <trkpt lat="39.892664" lon="116.645895">
        <time>2021-03-20T12:01:49Z</time>
      </trkpt>
      <trkpt lat="39.892802" lon="116.645949">
        <time>2021-03-20T12:01:54Z</time>
      </trkpt>
      <trkpt lat="39.892936" lon="116.645968">
        <time>2021-03-20T12:01:59Z</time>
      </trkpt>
      <trkpt lat="39.893056" lon="116.646029">
        <time>2021-03-20T12:02:04Z</time>
      </trkpt>
      <trkpt lat="39.893184" lon="116.646112">
        <time>2021-03-20T12:02:09Z</time>
      </trkpt>
      <trkpt lat="39.893301" lon="116.646195">
        <time>2021-03-20T12:02:14Z</time>
      </trkpt>
      <trkpt lat="39.893409" lon="116.646239">
        <time>2021-03-20T12:02:19Z</time>
      </trkpt>
      <trkpt lat="39.893567" lon="116.64634">
        <time>2021-03-20T12:02:24Z</time>
      </trkpt>
      <trkpt lat="39.893614" lon="116.646378">
        <time>2021-03-20T12:02:29Z</time>
      </trkpt>
      <trkpt lat="39.893737" lon="116.646348">
        <time>2021-03-20T12:02:34Z</time>
      </trkpt>
      <trkpt lat="39.893826" lon="116.646145">
        <time>2021-03-20T12:02:39Z</time>
      </trkpt>
      <trkpt lat="39.893879" lon="116.646064">
        <time>2021-03-20T12:02:44Z</time>
      </trkpt>
      <trkpt lat="39.893946" lon="116.645913">
        <time>2021-03-20T12:02:49Z</time>
      </trkpt>
      <trkpt lat="39.894027" lon="116.645891">
        <time>2021-03-20T12:02:54Z</time>
      </trkpt>
      <trkpt lat="39.894273" lon="116.646029">
        <time>2021-03-20T12:02:59Z</time>
      </trkpt>
      <trkpt lat="39.894299" lon="116.646042">
        <time>2021-03-20T12:03:04Z</time>
      </trkpt>
      <trkpt lat="39.894439" lon="116.646091">
        <time>2021-03-20T12:03:09Z</time>
      </trkpt>
      <trkpt lat="39.894513" lon="116.646173">
        <time>2021-03-20T12:03:14Z</time>
      </trkpt>
      <trkpt lat="39.894695" lon="116.646302">
        <time>2021-03-20T12:03:19Z</time>
      </trkpt>
      <trkpt lat="39.894718" lon="116.646309">
        <time>2021-03-20T12:03:24Z</time>
      </trkpt>
      <trkpt lat="39.894863" lon="116.646354">
        <time>2021-03-20T12:03:29Z</time>
      </trkpt>
      <trkpt lat="39.894995" lon="116.646406">
        <time>2021-03-20T12:03:34Z</time>
      </trkpt>
      <trkpt lat="39.895136" lon="116.646445">
        <time>2021-03-20T12:03:39Z</time>
      </trkpt>
      <trkpt lat="39.895275" lon="116.646485">
        <time>2021-03-20T12:03:44Z</time>
      </trkpt>
      <trkpt lat="39.895457" lon="116.646564">
        <time>2021-03-20T12:03:49Z</time>
      </trkpt>
      <trkpt lat="39.8955" lon="116.646593">
        <time>2021-03-20T12:03:54Z</time>
      </trkpt>
      <trkpt lat="39.895648" lon="116.646655">
        <time>2021-03-20T12:03:59Z</time>
      </trkpt>
      <trkpt lat="39.895771" lon="116.646705">
        <time>2021-03-20T12:04:04Z</time>
      </trkpt>
      <trkpt lat="39.895898" lon="116.646769">
        <time>2021-03-20T12:04:09Z</time>
      </trkpt>
      <trkpt lat="39.896008" lon="116.646805">
        <time>2021-03-20T12:04:14Z</time>
      </trkpt>
      <trkpt lat="39.89608" lon="116.646727">
        <time>2021-03-20T12:04:19Z</time>
      </trkpt>
      <trkpt lat="39.896066" lon="116.646556">
        <time>2021-03-20T12:04:24Z</time>
      </trkpt>
      <trkpt lat="39.896041" lon="116.646378">
        <time>2021-03-20T12:04:29Z</time>
      </trkpt>
      <trkpt lat="39.896035" lon="116.646188">
        <time>2021-03-20T12:04:34Z</time>
      </trkpt>
      <trkpt lat="39.896054" lon="116.646013">
        <time>2021-03-20T12:04:39Z</time>
      </trkpt>
      <trkpt lat="39.896065" lon="116.645843">
        <time>2021-03-20T12:04:44Z</time>
      </trkpt>
      <trkpt lat="39.896071" lon="116.645663">
        <time>2021-03-20T12:04:49Z</time>
      </trkpt>
      <trkpt lat="39.896088" lon="116.645502">
        <time>2021-03-20T12:04:54Z</time>
      </trkpt>
      <trkpt lat="39.896126" lon="116.645362">
        <time>2021-03-20T12:04:59Z</time>
      </trkpt>
      <trkpt lat="39.896133" lon="116.645203">
        <time>2021-03-20T12:05:04Z</time>
      </trkpt>
      <trkpt lat="39.896139" lon="116.645024">
        <time>2021-03-20T12:05:09Z</time>
      </trkpt>
      <trkpt lat="39.89616" lon="116.644861">
        <time>2021-03-20T12:05:14Z</time>
      </trkpt>
      <trkpt lat="39.896156" lon="116.644714">
        <time>2021-03-20T12:05:19Z</time>
      </trkpt>
      <trkpt lat="39.896161" lon="116.644604">
        <time>2021-03-20T12:05:24Z</time>
      </trkpt>
      <trkpt lat="39.896153" lon="116.644438">
        <time>2021-03-20T12:05:29Z</time>
      </trkpt>
      <trkpt lat="39.896154" lon="116.644271">
        <time>2021-03-20T12:05:34Z</time>
      </trkpt>
      <trkpt lat="39.896135" lon="116.64411">
        <time>2021-03-20T12:05:39Z</time>
      </trkpt>
      <trkpt lat="39.89614" lon="116.643949">
        <time>2021-03-20T12:05:44Z</time>
      </trkpt>
      <trkpt lat="39.896144" lon="116.643786">
        <time>2021-03-20T12:05:49Z</time>
      </trkpt>
      <trkpt lat="39.896145" lon="116.643625">
        <time>2021-03-20T12:05:54Z</time>
      </trkpt>
      <trkpt lat="39.896156" lon="116.643484">
        <time>2021-03-20T12:05:59Z</time>
      </trkpt>
      <trkpt lat="39.896168" lon="116.643363">
        <time>2021-03-20T12:06:04Z</time>
      </trkpt>
      <trkpt lat="39.896163" lon="116.643272">
        <time>2021-03-20T12:06:09Z</time>
      </trkpt>
      <trkpt lat="39.896187" lon="116.643158">
        <time>2021-03-20T12:06:14Z</time>
      </trkpt>
      <trkpt lat="39.896192" lon="116.643018">
        <time>2021-03-20T12:06:19Z</time>
      </trkpt>
      <trkpt lat="39.896196" lon="116.642882">
        <time>2021-03-20T12:06:24Z</time>
      </trkpt>
      <trkpt lat="39.896185" lon="116.642595">
        <time>2021-03-20T12:06:29Z</time>
      </trkpt>
      <trkpt lat="39.896187" lon="116.642553">
        <time>2021-03-20T12:06:34Z</time>
      </trkpt>
      <trkpt lat="39.896178" lon="116.642361">
        <time>2021-03-20T12:06:39Z</time>
      </trkpt>
      <trkpt lat="39.896168" lon="116.642191">
        <time>2021-03-20T12:06:44Z</time>
      </trkpt>
      <trkpt lat="39.896171" lon="116.642042">
        <time>2021-03-20T12:06:49Z</time>
      </trkpt>
      <trkpt lat="39.896166" lon="116.641878">
        <time>2021-03-20T12:06:54Z</time>
      </trkpt>
      <trkpt lat="39.896163" lon="116.641714">
        <time>2021-03-20T12:06:59Z</time>
      </trkpt>
      <trkpt lat="39.896174" lon="116.641524">
        <time>2021-03-20T12:07:04Z</time>
      </trkpt>
      <trkpt lat="39.896185" lon="116.641427">
        <time>2021-03-20T12:07:09Z</time>
      </trkpt>
      <trkpt lat="39.8962" lon="116.641304">
        <time>2021-03-20T12:07:14Z</time>
      </trkpt>
      <trkpt lat="39.89621" lon="116.641196">
        <time>2021-03-20T12:07:19Z</time>
      </trkpt>
      <trkpt lat="39.896202" lon="116.641037">
        <time>2021-03-20T12:07:24Z</time>
      </trkpt>
      <trkpt lat="39.896207" lon="116.640897">
        <time>2021-03-20T12:07:29Z</time>
      </trkpt>
      <trkpt lat="39.896203" lon="116.64076">
        <time>2021-03-20T12:07:34Z</time>
      </trkpt>
      <trkpt lat="39.896207" lon="116.640614">
        <time>2021-03-20T12:07:39Z</time>
      </trkpt>
      <trkpt lat="39.89621" lon="116.640477">
        <time>2021-03-20T12:07:44Z</time>
      </trkpt>
      <trkpt lat="39.896229" lon="116.640357">
        <time>2021-03-20T12:07:49Z</time>
      </trkpt>
      <trkpt lat="39.896232" lon="116.640193">
        <time>2021-03-20T12:07:54Z</time>
      </trkpt>
      <trkpt lat="39.896207" lon="116.639993">
        <time>2021-03-20T12:07:59Z</time>
      </trkpt>
      <trkpt lat="39.896209" lon="116.639838">
        <time>2021-03-20T12:08:04Z</time>
      </trkpt>
      <trkpt lat="39.896215" lon="116.639675">
        <time>2021-03-20T12:08:09Z</time>
      </trkpt>
      <trkpt lat="39.896212" lon="116.639527">
        <time>2021-03-20T12:08:14Z</time>
      </trkpt>
      <trkpt lat="39.896214" lon="116.639352">
        <time>2021-03-20T12:08:19Z</time>
      </trkpt>
      <trkpt lat="39.896205" lon="116.639181">
        <time>2021-03-20T12:08:24Z</time>
      </trkpt>
      <trkpt lat="39.896201" lon="116.639016">
        <time>2021-03-20T12:08:29Z</time>
      </trkpt>
      <trkpt lat="39.89616" lon="116.638837">
        <time>2021-03-20T12:08:34Z</time>
      </trkpt>
      <trkpt lat="39.89615" lon="116.638695">
        <time>2021-03-20T12:08:39Z</time>
      </trkpt>
      <trkpt lat="39.896108" lon="116.638518">
        <time>2021-03-20T12:08:44Z</time>
      </trkpt>
      <trkpt lat="39.896077" lon="116.638405">
        <time>2021-03-20T12:08:49Z</time>
      </trkpt>
      <trkpt lat="39.89607" lon="116.638302">
        <time>2021-03-20T12:08:54Z</time>
      </trkpt>
      <trkpt lat="39.896063" lon="116.638216">
        <time>2021-03-20T12:08:59Z</time>
      </trkpt>
      <trkpt lat="39.896079" lon="116.638108">
        <time>2021-03-20T12:09:04Z</time>
      </trkpt>
      <trkpt lat="39.896097" lon="116.637987">
        <time>2021-03-20T12:09:09Z</time>
      </trkpt>
      <trkpt lat="39.89611" lon="116.637843">
        <time>2021-03-20T12:09:14Z</time>
      </trkpt>
      <trkpt lat="39.896115" lon="116.637679">
        <time>2021-03-20T12:09:19Z</time>
      </trkpt>
      <trkpt lat="39.89612" lon="116.637515">
        <time>2021-03-20T12:09:24Z</time>
      </trkpt>
      <trkpt lat="39.89611" lon="116.637342">
        <time>2021-03-20T12:09:29Z</time>
      </trkpt>
      <trkpt lat="39.89611" lon="116.637194">
        <time>2021-03-20T12:09:34Z</time>
      </trkpt>
      <trkpt lat="39.8961" lon="116.637046">
        <time>2021-03-20T12:09:39Z</time>
      </trkpt>
      <trkpt lat="39.89608" lon="116.63689">
        <time>2021-03-20T12:09:44Z</time>
      </trkpt>
      <trkpt lat="39.896052" lon="116.636752">
        <time>2021-03-20T12:09:49Z</time>
      </trkpt>
      <trkpt lat="39.895998" lon="116.636664">
        <time>2021-03-20T12:09:54Z</time>
      </trkpt>
      <trkpt lat="39.895994" lon="116.636822">
        <time>2021-03-20T12:09:59Z</time>
      </trkpt>
      <trkpt lat="39.896046" lon="116.636998">
        <time>2021-03-20T12:10:04Z</time>
      </trkpt>
      <trkpt lat="39.896081" lon="116.637173">
        <time>2021-03-20T12:10:09Z</time>
      </trkpt>
      <trkpt lat="39.896133" lon="116.637357">
        <time>2021-03-20T12:10:14Z</time>
      </trkpt>
      <trkpt lat="39.896157" lon="116.637541">
        <time>2021-03-20T12:10:19Z</time>
      </trkpt>
      <trkpt lat="39.896178" lon="116.637727">
        <time>2021-03-20T12:10:24Z</time>
      </trkpt>
      <trkpt lat="39.896194" lon="116.637904">
        <time>2021-03-20T12:10:29Z</time>
      </trkpt>
      <trkpt lat="39.896184" lon="116.638066">
        <time>2021-03-20T12:10:34Z</time>
      </trkpt>
      <trkpt lat="39.896202" lon="116.638245">
        <time>2021-03-20T12:10:39Z</time>
      </trkpt>
      <trkpt lat="39.896195" lon="116.638427">
        <time>2021-03-20T12:10:44Z</time>
      </trkpt>
      <trkpt lat="39.896194" lon="116.6386">
        <time>2021-03-20T12:10:49Z</time>
      </trkpt>
      <trkpt lat="39.896205" lon="116.63878">
        <time>2021-03-20T12:10:54Z</time>
      </trkpt>
      <trkpt lat="39.896215" lon="116.638943">
        <time>2021-03-20T12:10:59Z</time>
      </trkpt>
      <trkpt lat="39.896227" lon="116.63912">
        <time>2021-03-20T12:11:04Z</time>
      </trkpt>
      <trkpt lat="39.896233" lon="116.639276">
        <time>2021-03-20T12:11:09Z</time>
      </trkpt>
      <trkpt lat="39.896241" lon="116.639449">
        <time>2021-03-20T12:11:14Z</time>
      </trkpt>
      <trkpt lat="39.896243" lon="116.639622">
        <time>2021-03-20T12:11:19Z</time>
      </trkpt>
      <trkpt lat="39.896241" lon="116.639789">
        <time>2021-03-20T12:11:24Z</time>
      </trkpt>
      <trkpt lat="39.896224" lon="116.63992">
        <time>2021-03-20T12:11:29Z</time>
      </trkpt>
      <trkpt lat="39.896243" lon="116.640019">
        <time>2021-03-20T12:11:34Z</time>
      </trkpt>
      <trkpt lat="39.896269" lon="116.640123">
        <time>2021-03-20T12:11:39Z</time>
      </trkpt>
      <trkpt lat="39.896277" lon="116.640294">
        <time>2021-03-20T12:11:44Z</time>
      </trkpt>
      <trkpt lat="39.896277" lon="116.640462">
        <time>2021-03-20T12:11:49Z</time>
      </trkpt>
      <trkpt lat="39.89627" lon="116.640634">
        <time>2021-03-20T12:11:54Z</time>
      </trkpt>
      <trkpt lat="39.896262" lon="116.640825">
        <time>2021-03-20T12:11:59Z</time>
      </trkpt>
      <trkpt lat="39.89628" lon="116.641">
        <time>2021-03-20T12:12:04Z</time>
      </trkpt>
      <trkpt lat="39.896289" lon="116.641169">
        <time>2021-03-20T12:12:09Z</time>
      </trkpt>
      <trkpt lat="39.896257" lon="116.641321">
        <time>2021-03-20T12:12:14Z</time>
      </trkpt>
      <trkpt lat="39.896231" lon="116.641472">
        <time>2021-03-20T12:12:19Z</time>
      </trkpt>
      <trkpt lat="39.89624" lon="116.641613">
        <time>2021-03-20T12:12:24Z</time>
      </trkpt>
      <trkpt lat="39.896252" lon="116.641785">
        <time>2021-03-20T12:12:29Z</time>
      </trkpt>
      <trkpt lat="39.896252" lon="116.641943">
        <time>2021-03-20T12:12:34Z</time>
      </trkpt>
      <trkpt lat="39.896224" lon="116.642118">
        <time>2021-03-20T12:12:39Z</time>
      </trkpt>
      <trkpt lat="39.896183" lon="116.642282">
        <time>2021-03-20T12:12:44Z</time>
      </trkpt>
      <trkpt lat="39.896182" lon="116.642478">
        <time>2021-03-20T12:12:49Z</time>
      </trkpt>
      <trkpt lat="39.896185" lon="116.642641">
        <time>2021-03-20T12:12:54Z</time>
      </trkpt>
      <trkpt lat="39.896183" lon="116.642923">
        <time>2021-03-20T12:12:59Z</time>
      </trkpt>
      <trkpt lat="39.896194" lon="116.642995">
        <time>2021-03-20T12:13:04Z</time>
      </trkpt>
      <trkpt lat="39.896188" lon="116.643155">
        <time>2021-03-20T12:13:09Z</time>
      </trkpt>
      <trkpt lat="39.89618" lon="116.643276">
        <time>2021-03-20T12:13:14Z</time>
      </trkpt>
      <trkpt lat="39.896168" lon="116.643356">
        <time>2021-03-20T12:13:19Z</time>
      </trkpt>
      <trkpt lat="39.896175" lon="116.643461">
        <time>2021-03-20T12:13:24Z</time>
      </trkpt>
      <trkpt lat="39.89618" lon="116.643563">
        <time>2021-03-20T12:13:29Z</time>
      </trkpt>
      <trkpt lat="39.896182" lon="116.643671">
        <time>2021-03-20T12:13:34Z</time>
      </trkpt>
      <trkpt lat="39.896193" lon="116.643776">
        <time>2021-03-20T12:13:39Z</time>
      </trkpt>
      <trkpt lat="39.896196" lon="116.643883">
        <time>2021-03-20T12:13:44Z</time>
      </trkpt>
      <trkpt lat="39.896209" lon="116.644022">
        <time>2021-03-20T12:13:49Z</time>
      </trkpt>
      <trkpt lat="39.896228" lon="116.64418">
        <time>2021-03-20T12:13:54Z</time>
      </trkpt>
      <trkpt lat="39.896229" lon="116.644344">
        <time>2021-03-20T12:13:59Z</time>
      </trkpt>
      <trkpt lat="39.89624" lon="116.644507">
        <time>2021-03-20T12:14:04Z</time>
      </trkpt>
      <trkpt lat="39.896264" lon="116.644659">
        <time>2021-03-20T12:14:09Z</time>
      </trkpt>
      <trkpt lat="39.896253" lon="116.644826">
        <time>2021-03-20T12:14:14Z</time>
      </trkpt>
      <trkpt lat="39.896237" lon="116.644984">
        <time>2021-03-20T12:14:19Z</time>
      </trkpt>
      <trkpt lat="39.896213" lon="116.645145">
        <time>2021-03-20T12:14:24Z</time>
      </trkpt>
      <trkpt lat="39.896211" lon="116.645304">
        <time>2021-03-20T12:14:29Z</time>
      </trkpt>
      <trkpt lat="39.896216" lon="116.64547">
        <time>2021-03-20T12:14:34Z</time>
      </trkpt>
      <trkpt lat="39.896178" lon="116.64565">
        <time>2021-03-20T12:14:39Z</time>
      </trkpt>
      <trkpt lat="39.896141" lon="116.645838">
        <time>2021-03-20T12:14:44Z</time>
      </trkpt>
      <trkpt lat="39.896098" lon="116.646002">
        <time>2021-03-20T12:14:49Z</time>
      </trkpt>
      <trkpt lat="39.896079" lon="116.646146">
        <time>2021-03-20T12:14:54Z</time>
      </trkpt>
      <trkpt lat="39.896107" lon="116.646342">
        <time>2021-03-20T12:14:59Z</time>
      </trkpt>
      <trkpt lat="39.8961" lon="116.646519">
        <time>2021-03-20T12:15:04Z</time>
      </trkpt>
      <trkpt lat="39.896073" lon="116.646694">
        <time>2021-03-20T12:15:09Z</time>
      </trkpt>
      <trkpt lat="39.895978" lon="116.646839">
        <time>2021-03-20T12:15:14Z</time>
      </trkpt>
      <trkpt lat="39.895809" lon="116.646828">
        <time>2021-03-20T12:15:19Z</time>
      </trkpt>
      <trkpt lat="39.895708" lon="116.646791">
        <time>2021-03-20T12:15:24Z</time>
      </trkpt>
      <trkpt lat="39.895602" lon="116.646733">
        <time>2021-03-20T12:15:29Z</time>
      </trkpt>
      <trkpt lat="39.895465" lon="116.646668">
        <time>2021-03-20T12:15:34Z</time>
      </trkpt>
      <trkpt lat="39.895346" lon="116.646611">
        <time>2021-03-20T12:15:39Z</time>
      </trkpt>
      <trkpt lat="39.895222" lon="116.646557">
        <time>2021-03-20T12:15:44Z</time>
      </trkpt>
      <trkpt lat="39.895093" lon="116.646496">
        <time>2021-03-20T12:15:49Z</time>
      </trkpt>
      <trkpt lat="39.894959" lon="116.646442">
        <time>2021-03-20T12:15:54Z</time>
      </trkpt>
      <trkpt lat="39.894833" lon="116.646383">
        <time>2021-03-20T12:15:59Z</time>
      </trkpt>
      <trkpt lat="39.894739" lon="116.646318">
        <time>2021-03-20T12:16:04Z</time>
      </trkpt>
      <trkpt lat="39.89462" lon="116.64624">
        <time>2021-03-20T12:16:09Z</time>
      </trkpt>
      <trkpt lat="39.894433" lon="116.646187">
        <time>2021-03-20T12:16:14Z</time>
      </trkpt>
      <trkpt lat="39.894362" lon="116.646145">
        <time>2021-03-20T12:16:19Z</time>
      </trkpt>
      <trkpt lat="39.894223" lon="116.646095">
        <time>2021-03-20T12:16:24Z</time>
      </trkpt>
      <trkpt lat="39.894072" lon="116.646059">
        <time>2021-03-20T12:16:29Z</time>
      </trkpt>
      <trkpt lat="39.893974" lon="116.646016">
        <time>2021-03-20T12:16:34Z</time>
      </trkpt>
      <trkpt lat="39.893857" lon="116.645992">
        <time>2021-03-20T12:16:39Z</time>
      </trkpt>
      <trkpt lat="39.893781" lon="116.646101">
        <time>2021-03-20T12:16:44Z</time>
      </trkpt>
      <trkpt lat="39.893734" lon="116.646289">
        <time>2021-03-20T12:16:49Z</time>
      </trkpt>
      <trkpt lat="39.893638" lon="116.646437">
        <time>2021-03-20T12:16:54Z</time>
      </trkpt>
      <trkpt lat="39.893549" lon="116.64646">
        <time>2021-03-20T12:16:59Z</time>
      </trkpt>
      <trkpt lat="39.893419" lon="116.646387">
        <time>2021-03-20T12:17:04Z</time>
      </trkpt>
      <trkpt lat="39.893246" lon="116.646261">
        <time>2021-03-20T12:17:09Z</time>
      </trkpt>
      <trkpt lat="39.893199" lon="116.646233">
        <time>2021-03-20T12:17:14Z</time>
      </trkpt>
      <trkpt lat="39.893124" lon="116.64618">
        <time>2021-03-20T12:17:19Z</time>
      </trkpt>
      <trkpt lat="39.893054" lon="116.646155">
        <time>2021-03-20T12:17:24Z</time>
      </trkpt>
      <trkpt lat="39.892961" lon="116.646134">
        <time>2021-03-20T12:17:29Z</time>
      </trkpt>
      <trkpt lat="39.892903" lon="116.646086">
        <time>2021-03-20T12:17:34Z</time>
      </trkpt>
      <trkpt lat="39.892844" lon="116.646064">
        <time>2021-03-20T12:17:39Z</time>
      </trkpt>
      <trkpt lat="39.892757" lon="116.646039">
        <time>2021-03-20T12:17:44Z</time>
      </trkpt>
      <trkpt lat="39.892678" lon="116.645993">
        <time>2021-03-20T12:17:49Z</time>
      </trkpt>
      <trkpt lat="39.892577" lon="116.645953">
        <time>2021-03-20T12:17:54Z</time>
      </trkpt>
      <trkpt lat="39.892467" lon="116.645909">
        <time>2021-03-20T12:17:59Z</time>
      </trkpt>
      <trkpt lat="39.892343" lon="116.645857">
        <time>2021-03-20T12:18:04Z</time>
      </trkpt>
      <trkpt lat="39.892216" lon="116.645774">
        <time>2021-03-20T12:18:09Z</time>
      </trkpt>
      <trkpt lat="39.892088" lon="116.645714">
        <time>2021-03-20T12:18:14Z</time>
      </trkpt>
      <trkpt lat="39.891977" lon="116.645631">
        <time>2021-03-20T12:18:19Z</time>
      </trkpt>
      <trkpt lat="39.891832" lon="116.645575">
        <time>2021-03-20T12:18:24Z</time>
      </trkpt>
      <trkpt lat="39.891703" lon="116.645512">
        <time>2021-03-20T12:18:29Z</time>
      </trkpt>
      <trkpt lat="39.891617" lon="116.645427">
        <time>2021-03-20T12:18:34Z</time>
      </trkpt>
      <trkpt lat="39.891568" lon="116.645365">
        <time>2021-03-20T12:18:39Z</time>
      </trkpt>
      <trkpt lat="39.891511" lon="116.645338">
        <time>2021-03-20T12:18:44Z</time>
      </trkpt>
      <trkpt lat="39.891567" lon="116.645415">
        <time>2021-03-20T12:18:49Z</time>
      </trkpt>
      <trkpt lat="39.891662" lon="116.645483">
        <time>2021-03-20T12:18:54Z</time>
      </trkpt>
      <trkpt lat="39.891784" lon="116.645523">
        <time>2021-03-20T12:18:59Z</time>
      </trkpt>
      <trkpt lat="39.89194" lon="116.645554">
        <time>2021-03-20T12:19:04Z</time>
      </trkpt>
      <trkpt lat="39.89209" lon="116.64559">
        <time>2021-03-20T12:19:09Z</time>
      </trkpt>
      <trkpt lat="39.892236" lon="116.645636">
        <time>2021-03-20T12:19:14Z</time>
      </trkpt>
      <trkpt lat="39.892324" lon="116.645691">
        <time>2021-03-20T12:19:19Z</time>
      </trkpt>
      <trkpt lat="39.892447" lon="116.645769">
        <time>2021-03-20T12:19:24Z</time>
      </trkpt>
      <trkpt lat="39.892589" lon="116.64583">
        <time>2021-03-20T12:19:29Z</time>
      </trkpt>
      <trkpt lat="39.892687" lon="116.645893">
        <time>2021-03-20T12:19:34Z</time>
      </trkpt>
      <trkpt lat="39.892828" lon="116.645951">
        <time>2021-03-20T12:19:39Z</time>
      </trkpt>
      <trkpt lat="39.892956" lon="116.646001">
        <time>2021-03-20T12:19:44Z</time>
      </trkpt>
      <trkpt lat="39.893102" lon="116.646042">
        <time>2021-03-20T12:19:49Z</time>
      </trkpt>
      <trkpt lat="39.893236" lon="116.646094">
        <time>2021-03-20T12:19:54Z</time>
      </trkpt>
      <trkpt lat="39.89335" lon="116.646184">
        <time>2021-03-20T12:19:59Z</time>
      </trkpt>
      <trkpt lat="39.893526" lon="116.646374">
        <time>2021-03-20T12:20:04Z</time>
      </trkpt>
      <trkpt lat="39.893539" lon="116.646403">
        <time>2021-03-20T12:20:09Z</time>
      </trkpt>
      <trkpt lat="39.893637" lon="116.646419">
        <time>2021-03-20T12:20:14Z</time>
      </trkpt>
      <trkpt lat="39.893728" lon="116.646304">
        <time>2021-03-20T12:20:19Z</time>
      </trkpt>
      <trkpt lat="39.893827" lon="116.646158">
        <time>2021-03-20T12:20:24Z</time>
      </trkpt>
      <trkpt lat="39.893888" lon="116.646048">
        <time>2021-03-20T12:20:29Z</time>
      </trkpt>
      <trkpt lat="39.89397" lon="116.645952">
        <time>2021-03-20T12:20:34Z</time>
      </trkpt>
      <trkpt lat="39.89407" lon="116.645948">
        <time>2021-03-20T12:20:39Z</time>
      </trkpt>
      <trkpt lat="39.894284" lon="116.646039">
        <time>2021-03-20T12:20:44Z</time>
      </trkpt>
      <trkpt lat="39.894331" lon="116.646066">
        <time>2021-03-20T12:20:49Z</time>
      </trkpt>
      <trkpt lat="39.894447" lon="116.646122">
        <time>2021-03-20T12:20:54Z</time>
      </trkpt>
      <trkpt lat="39.894562" lon="116.646182">
        <time>2021-03-20T12:20:59Z</time>
      </trkpt>
      <trkpt lat="39.894693" lon="116.646285">
        <time>2021-03-20T12:21:04Z</time>
      </trkpt>
      <trkpt lat="39.894798" lon="116.646334">
        <time>2021-03-20T12:21:09Z</time>
      </trkpt>
      <trkpt lat="39.894942" lon="116.646386">
        <time>2021-03-20T12:21:14Z</time>
      </trkpt>
      <trkpt lat="39.895083" lon="116.646444">
        <time>2021-03-20T12:21:19Z</time>
      </trkpt>
      <trkpt lat="39.895211" lon="116.646496">
        <time>2021-03-20T12:21:24Z</time>
      </trkpt>
      <trkpt lat="39.895328" lon="116.646538">
        <time>2021-03-20T12:21:29Z</time>
      </trkpt>
      <trkpt lat="39.895455" lon="116.646593">
        <time>2021-03-20T12:21:34Z</time>
      </trkpt>
      <trkpt lat="39.895586" lon="116.646627">
        <time>2021-03-20T12:21:39Z</time>
      </trkpt>
      <trkpt lat="39.895715" lon="116.64668">
        <time>2021-03-20T12:21:44Z</time>
      </trkpt>
      <trkpt lat="39.895833" lon="116.646747">
        <time>2021-03-20T12:21:49Z</time>
      </trkpt>
      <trkpt lat="39.895956" lon="116.646774">
        <time>2021-03-20T12:21:54Z</time>
      </trkpt>
      <trkpt lat="39.896052" lon="116.646735">
        <time>2021-03-20T12:21:59Z</time>
      </trkpt>
      <trkpt lat="39.896051" lon="116.646602">
        <time>2021-03-20T12:22:04Z</time>
      </trkpt>
      <trkpt lat="39.896025" lon="116.646466">
        <time>2021-03-20T12:22:09Z</time>
      </trkpt>
      <trkpt lat="39.896013" lon="116.646339">
        <time>2021-03-20T12:22:14Z</time>
      </trkpt>
      <trkpt lat="39.896014" lon="116.646224">
        <time>2021-03-20T12:22:19Z</time>
      </trkpt>
      <trkpt lat="39.896035" lon="116.646122">
        <time>2021-03-20T12:22:24Z</time>
      </trkpt>
      <trkpt lat="39.896064" lon="116.645992">
        <time>2021-03-20T12:22:29Z</time>
      </trkpt>
      <trkpt lat="39.896081" lon="116.645826">
        <time>2021-03-20T12:22:34Z</time>
      </trkpt>
      <trkpt lat="39.896107" lon="116.645659">
        <time>2021-03-20T12:22:39Z</time>
      </trkpt>
      <trkpt lat="39.896127" lon="116.645491">
        <time>2021-03-20T12:22:44Z</time>
      </trkpt>
      <trkpt lat="39.896116" lon="116.645323">
        <time>2021-03-20T12:22:49Z</time>
      </trkpt>
      <trkpt lat="39.896065" lon="116.645167">
        <time>2021-03-20T12:22:54Z</time>
      </trkpt>
      <trkpt lat="39.896054" lon="116.644964">
        <time>2021-03-20T12:22:59Z</time>
      </trkpt>
      <trkpt lat="39.89608" lon="116.64476">
        <time>2021-03-20T12:23:04Z</time>
      </trkpt>
      <trkpt lat="39.896078" lon="116.64458">
        <time>2021-03-20T12:23:09Z</time>
      </trkpt>
      <trkpt lat="39.896089" lon="116.644411">
        <time>2021-03-20T12:23:14Z</time>
      </trkpt>
      <trkpt lat="39.896092" lon="116.644257">
        <time>2021-03-20T12:23:19Z</time>
      </trkpt>
      <trkpt lat="39.896117" lon="116.644111">
        <time>2021-03-20T12:23:24Z</time>
      </trkpt>
      <trkpt lat="39.896099" lon="116.643935">
        <time>2021-03-20T12:23:29Z</time>
      </trkpt>
      <trkpt lat="39.896095" lon="116.643775">
        <time>2021-03-20T12:23:34Z</time>
      </trkpt>
      <trkpt lat="39.896143" lon="116.643671">
        <time>2021-03-20T12:23:39Z</time>
      </trkpt>
      <trkpt lat="39.89619" lon="116.643555">
        <time>2021-03-20T12:23:44Z</time>
      </trkpt>
      <trkpt lat="39.896193" lon="116.643407">
        <time>2021-03-20T12:23:49Z</time>
      </trkpt>
      <trkpt lat="39.896165" lon="116.643237">
        <time>2021-03-20T12:23:54Z</time>
      </trkpt>
      <trkpt lat="39.896164" lon="116.643067">
        <time>2021-03-20T12:23:59Z</time>
      </trkpt>
      <trkpt lat="39.896171" lon="116.642927">
        <time>2021-03-20T12:24:04Z</time>
      </trkpt>
      <trkpt lat="39.896171" lon="116.642819">
        <time>2021-03-20T12:24:09Z</time>
      </trkpt>
      <trkpt lat="39.896156" lon="116.642724">
        <time>2021-03-20T12:24:14Z</time>
      </trkpt>
      <trkpt lat="39.896177" lon="116.642554">
        <time>2021-03-20T12:24:19Z</time>
      </trkpt>
      <trkpt lat="39.896194" lon="116.64246">
        <time>2021-03-20T12:24:24Z</time>
      </trkpt>
      <trkpt lat="39.896191" lon="116.642299">
        <time>2021-03-20T12:24:29Z</time>
      </trkpt>
      <trkpt lat="39.896187" lon="116.642148">
        <time>2021-03-20T12:24:34Z</time>
      </trkpt>
      <trkpt lat="39.896175" lon="116.64198">
        <time>2021-03-20T12:24:39Z</time>
      </trkpt>
      <trkpt lat="39.896165" lon="116.641788">
        <time>2021-03-20T12:24:44Z</time>
      </trkpt>
      <trkpt lat="39.896154" lon="116.641512">
        <time>2021-03-20T12:24:49Z</time>
      </trkpt>
      <trkpt lat="39.896152" lon="116.641433">
        <time>2021-03-20T12:24:54Z</time>
      </trkpt>
      <trkpt lat="39.89616" lon="116.641267">
        <time>2021-03-20T12:24:59Z</time>
      </trkpt>
      <trkpt lat="39.89617" lon="116.641103">
        <time>2021-03-20T12:25:04Z</time>
      </trkpt>
      <trkpt lat="39.896195" lon="116.640969">
        <time>2021-03-20T12:25:09Z</time>
      </trkpt>
      <trkpt lat="39.896207" lon="116.640824">
        <time>2021-03-20T12:25:14Z</time>
      </trkpt>
      <trkpt lat="39.896184" lon="116.640638">
        <time>2021-03-20T12:25:19Z</time>
      </trkpt>
      <trkpt lat="39.896177" lon="116.640451">
        <time>2021-03-20T12:25:24Z</time>
      </trkpt>
      <trkpt lat="39.896195" lon="116.640267">
        <time>2021-03-20T12:25:29Z</time>
      </trkpt>
      <trkpt lat="39.896188" lon="116.640069">
        <time>2021-03-20T12:25:34Z</time>
      </trkpt>
      <trkpt lat="39.896197" lon="116.639882">
        <time>2021-03-20T12:25:39Z</time>
      </trkpt>
      <trkpt lat="39.896191" lon="116.639703">
        <time>2021-03-20T12:25:44Z</time>
      </trkpt>
      <trkpt lat="39.896177" lon="116.639535">
        <time>2021-03-20T12:25:49Z</time>
      </trkpt>
      <trkpt lat="39.896179" lon="116.639388">
        <time>2021-03-20T12:25:54Z</time>
      </trkpt>
      <trkpt lat="39.896154" lon="116.639206">
        <time>2021-03-20T12:25:59Z</time>
      </trkpt>
      <trkpt lat="39.896131" lon="116.639033">
        <time>2021-03-20T12:26:04Z</time>
      </trkpt>
      <trkpt lat="39.896128" lon="116.638857">
        <time>2021-03-20T12:26:09Z</time>
      </trkpt>
      <trkpt lat="39.89615" lon="116.638716">
        <time>2021-03-20T12:26:14Z</time>
      </trkpt>
      <trkpt lat="39.896113" lon="116.638536">
        <time>2021-03-20T12:26:19Z</time>
      </trkpt>
      <trkpt lat="39.896069" lon="116.638358">
        <time>2021-03-20T12:26:24Z</time>
      </trkpt>
      <trkpt lat="39.896046" lon="116.638205">
        <time>2021-03-20T12:26:29Z</time>
      </trkpt>
      <trkpt lat="39.896041" lon="116.638039">
        <time>2021-03-20T12:26:34Z</time>
      </trkpt>
      <trkpt lat="39.896024" lon="116.637884">
        <time>2021-03-20T12:26:39Z</time>
      </trkpt>
      <trkpt lat="39.896026" lon="116.637776">
        <time>2021-03-20T12:26:44Z</time>
      </trkpt>
      <trkpt lat="39.896018" lon="116.63766">
        <time>2021-03-20T12:26:49Z</time>
      </trkpt>
      <trkpt lat="39.896047" lon="116.637554">
        <time>2021-03-20T12:26:54Z</time>
      </trkpt>
      <trkpt lat="39.896071" lon="116.637441">
        <time>2021-03-20T12:26:59Z</time>
      </trkpt>
      <trkpt lat="39.89608" lon="116.637342">
        <time>2021-03-20T12:27:04Z</time>
      </trkpt>
      <trkpt lat="39.896097" lon="116.637223">
        <time>2021-03-20T12:27:09Z</time>
      </trkpt>
      <trkpt lat="39.896085" lon="116.637063">
        <time>2021-03-20T12:27:14Z</time>
      </trkpt>
      <trkpt lat="39.896066" lon="116.63689">
        <time>2021-03-20T12:27:19Z</time>
      </trkpt>
      <trkpt lat="39.896047" lon="116.636741">
        <time>2021-03-20T12:27:24Z</time>
      </trkpt>
      <trkpt lat="39.895961" lon="116.636621">
        <time>2021-03-20T12:27:29Z</time>
      </trkpt>
      <trkpt lat="39.895831" lon="116.636545">
        <time>2021-03-20T12:27:34Z</time>
      </trkpt>
      <trkpt lat="39.895838" lon="116.636402">
        <time>2021-03-20T12:27:39Z</time>
      </trkpt>
      <trkpt lat="39.895987" lon="116.636293">
        <time>2021-03-20T12:27:44Z</time>
      </trkpt>
      <trkpt lat="39.89613" lon="116.636208">
        <time>2021-03-20T12:27:49Z</time>
      </trkpt>
      <trkpt lat="39.89624" lon="116.636101">
        <time>2021-03-20T12:27:54Z</time>
      </trkpt>
      <trkpt lat="39.896358" lon="116.636027">
        <time>2021-03-20T12:27:59Z</time>
      </trkpt>
      <trkpt lat="39.896485" lon="116.635916">
        <time>2021-03-20T12:28:04Z</time>
      </trkpt>
      <trkpt lat="39.896622" lon="116.635813">
        <time>2021-03-20T12:28:09Z</time>
      </trkpt>
      <trkpt lat="39.896765" lon="116.635755">
        <time>2021-03-20T12:28:14Z</time>
      </trkpt>
      <trkpt lat="39.896957" lon="116.635671">
        <time>2021-03-20T12:28:19Z</time>
      </trkpt>
      <trkpt lat="39.897035" lon="116.635664">
        <time>2021-03-20T12:28:24Z</time>
      </trkpt>
      <trkpt lat="39.897148" lon="116.635597">
        <time>2021-03-20T12:28:29Z</time>
      </trkpt>
      <trkpt lat="39.897207" lon="116.635522">
        <time>2021-03-20T12:28:34Z</time>
      </trkpt>
      <trkpt lat="39.89727" lon="116.635461">
        <time>2021-03-20T12:28:39Z</time>
      </trkpt>
      <trkpt lat="39.897339" lon="116.635401">
        <time>2021-03-20T12:28:44Z</time>
      </trkpt>
      <trkpt lat="39.897457" lon="116.635273">
        <time>2021-03-20T12:28:49Z</time>
      </trkpt>
      <trkpt lat="39.89748" lon="116.635243">
        <time>2021-03-20T12:28:54Z</time>
      </trkpt>
      <trkpt lat="39.897577" lon="116.635182">
        <time>2021-03-20T12:28:59Z</time>
      </trkpt>
      <trkpt lat="39.897687" lon="116.635117">
        <time>2021-03-20T12:29:04Z</time>
      </trkpt>
      <trkpt lat="39.897793" lon="116.635044">
        <time>2021-03-20T12:29:09Z</time>
      </trkpt>
      <trkpt lat="39.897892" lon="116.634945">
        <time>2021-03-20T12:29:14Z</time>
      </trkpt>
      <trkpt lat="39.898008" lon="116.63487">
        <time>2021-03-20T12:29:19Z</time>
      </trkpt>
      <trkpt lat="39.898127" lon="116.634787">
        <time>2021-03-20T12:29:24Z</time>
      </trkpt>
      <trkpt lat="39.898241" lon="116.634749">
        <time>2021-03-20T12:29:29Z</time>
      </trkpt>
      <trkpt lat="39.898349" lon="116.634707">
        <time>2021-03-20T12:29:34Z</time>
      </trkpt>
      <trkpt lat="39.898463" lon="116.63466">
        <time>2021-03-20T12:29:39Z</time>
      </trkpt>
      <trkpt lat="39.898583" lon="116.634563">
        <time>2021-03-20T12:29:44Z</time>
      </trkpt>
      <trkpt lat="39.898701" lon="116.634481">
        <time>2021-03-20T12:29:49Z</time>
      </trkpt>
      <trkpt lat="39.898819" lon="116.634422">
        <time>2021-03-20T12:29:54Z</time>
      </trkpt>
      <trkpt lat="39.898933" lon="116.634372">
        <time>2021-03-20T12:29:59Z</time>
      </trkpt>
      <trkpt lat="39.899049" lon="116.634274">
        <time>2021-03-20T12:30:04Z</time>
      </trkpt>
      <trkpt lat="39.899168" lon="116.634177">
        <time>2021-03-20T12:30:09Z</time>
      </trkpt>
      <trkpt lat="39.89927" lon="116.63409">
        <time>2021-03-20T12:30:14Z</time>
      </trkpt>
      <trkpt lat="39.899341" lon="116.634062">
        <time>2021-03-20T12:30:19Z</time>
      </trkpt>
      <trkpt lat="39.899433" lon="116.634073">
        <time>2021-03-20T12:30:24Z</time>
      </trkpt>
      <trkpt lat="39.899556" lon="116.633999">
        <time>2021-03-20T12:30:29Z</time>
      </trkpt>
      <trkpt lat="39.899675" lon="116.633929">
        <time>2021-03-20T12:30:34Z</time>
      </trkpt>
      <trkpt lat="39.899796" lon="116.633871">
        <time>2021-03-20T12:30:39Z</time>
      </trkpt>
      <trkpt lat="39.89988" lon="116.633838">
        <time>2021-03-20T12:30:44Z</time>
      </trkpt>
      <trkpt lat="39.899998" lon="116.633728">
        <time>2021-03-20T12:30:49Z</time>
      </trkpt>
      <trkpt lat="39.900116" lon="116.633608">
        <time>2021-03-20T12:30:54Z</time>
      </trkpt>
      <trkpt lat="39.900319" lon="116.633482">
        <time>2021-03-20T12:30:59Z</time>
      </trkpt>
      <trkpt lat="39.90034" lon="116.633468">
        <time>2021-03-20T12:31:04Z</time>
      </trkpt>
      <trkpt lat="39.900433" lon="116.633409">
        <time>2021-03-20T12:31:09Z</time>
      </trkpt>
      <trkpt lat="39.900552" lon="116.633299">
        <time>2021-03-20T12:31:14Z</time>
      </trkpt>
      <trkpt lat="39.900672" lon="116.633208">
        <time>2021-03-20T12:31:19Z</time>
      </trkpt>
      <trkpt lat="39.900785" lon="116.633134">
        <time>2021-03-20T12:31:24Z</time>
      </trkpt>
      <trkpt lat="39.900902" lon="116.633054">
        <time>2021-03-20T12:31:29Z</time>
      </trkpt>
      <trkpt lat="39.900996" lon="116.633161">
        <time>2021-03-20T12:31:34Z</time>
      </trkpt>
      <trkpt lat="39.901027" lon="116.633259">
        <time>2021-03-20T12:31:39Z</time>
      </trkpt>
      <trkpt lat="39.900943" lon="116.633198">
        <time>2021-03-20T12:31:44Z</time>
      </trkpt>
      <trkpt lat="39.900934" lon="116.633185">
        <time>2021-03-20T12:31:49Z</time>
      </trkpt>
      <trkpt lat="39.900958" lon="116.633195">
        <time>2021-03-20T12:31:54Z</time>
      </trkpt>
      <trkpt lat="39.900969" lon="116.633193">
        <time>2021-03-20T12:31:59Z</time>
      </trkpt>
      <trkpt lat="39.900957" lon="116.6332">
        <time>2021-03-20T12:32:04Z</time>
      </trkpt>
      <trkpt lat="39.900944" lon="116.633194">
        <time>2021-03-20T12:32:09Z</time>
      </trkpt>
      <trkpt lat="39.900919" lon="116.633161">
        <time>2021-03-20T12:32:14Z</time>
      </trkpt>
      <trkpt lat="39.90088" lon="116.633048">
        <time>2021-03-20T12:32:19Z</time>
      </trkpt>
      <trkpt lat="39.900801" lon="116.632868">
        <time>2021-03-20T12:32:24Z</time>
      </trkpt>
      <trkpt lat="39.900757" lon="116.632809">
        <time>2021-03-20T12:32:29Z</time>
      </trkpt>
      <trkpt lat="39.90064" lon="116.632853">
        <time>2021-03-20T12:32:34Z</time>
      </trkpt>
      <trkpt lat="39.900496" lon="116.632997">
        <time>2021-03-20T12:32:39Z</time>
      </trkpt>
      <trkpt lat="39.900372" lon="116.633126">
        <time>2021-03-20T12:32:44Z</time>
      </trkpt>
      <trkpt lat="39.900229" lon="116.633234">
        <time>2021-03-20T12:32:49Z</time>
      </trkpt>
      <trkpt lat="39.900098" lon="116.63334">
        <time>2021-03-20T12:32:54Z</time>
      </trkpt>
      <trkpt lat="39.899972" lon="116.633438">
        <time>2021-03-20T12:32:59Z</time>
      </trkpt>
      <trkpt lat="39.899865" lon="116.633538">
        <time>2021-03-20T12:33:04Z</time>
      </trkpt>
      <trkpt lat="39.899765" lon="116.633616">
        <time>2021-03-20T12:33:09Z</time>
      </trkpt>
      <trkpt lat="39.899639" lon="116.633703">
        <time>2021-03-20T12:33:14Z</time>
      </trkpt>
      <trkpt lat="39.899468" lon="116.633859">
        <time>2021-03-20T12:33:19Z</time>
      </trkpt>
      <trkpt lat="39.899358" lon="116.633942">
        <time>2021-03-20T12:33:24Z</time>
      </trkpt>
      <trkpt lat="39.89918" lon="116.634001">
        <time>2021-03-20T12:33:29Z</time>
      </trkpt>
      <trkpt lat="39.899122" lon="116.634046">
        <time>2021-03-20T12:33:34Z</time>
      </trkpt>
      <trkpt lat="39.899007" lon="116.634122">
        <time>2021-03-20T12:33:39Z</time>
      </trkpt>
      <trkpt lat="39.898898" lon="116.634185">
        <time>2021-03-20T12:33:44Z</time>
      </trkpt>
      <trkpt lat="39.898778" lon="116.634292">
        <time>2021-03-20T12:33:49Z</time>
      </trkpt>
      <trkpt lat="39.898655" lon="116.634382">
        <time>2021-03-20T12:33:54Z</time>
      </trkpt>
      <trkpt lat="39.898514" lon="116.634438">
        <time>2021-03-20T12:33:59Z</time>
      </trkpt>
      <trkpt lat="39.898385" lon="116.634539">
        <time>2021-03-20T12:34:04Z</time>
      </trkpt>
      <trkpt lat="39.89826" lon="116.634652">
        <time>2021-03-20T12:34:09Z</time>
      </trkpt>
      <trkpt lat="39.898136" lon="116.634729">
        <time>2021-03-20T12:34:14Z</time>
      </trkpt>
      <trkpt lat="39.89801" lon="116.634674">
        <time>2021-03-20T12:34:19Z</time>
      </trkpt>
      <trkpt lat="39.897934" lon="116.634489">
        <time>2021-03-20T12:34:24Z</time>
      </trkpt>
      <trkpt lat="39.897885" lon="116.634344">
        <time>2021-03-20T12:34:29Z</time>
      </trkpt>
      <trkpt lat="39.897781" lon="116.634165">
        <time>2021-03-20T12:34:34Z</time>
      </trkpt>
      <trkpt lat="39.897654" lon="116.633985">
        <time>2021-03-20T12:34:39Z</time>
      </trkpt>
      <trkpt lat="39.897588" lon="116.633898">
        <time>2021-03-20T12:34:44Z</time>
      </trkpt>
      <trkpt lat="39.897505" lon="116.633809">
        <time>2021-03-20T12:34:49Z</time>
      </trkpt>
      <trkpt lat="39.897372" lon="116.63383">
        <time>2021-03-20T12:34:54Z</time>
      </trkpt>
      <trkpt lat="39.897235" lon="116.633828">
        <time>2021-03-20T12:34:59Z</time>
      </trkpt>
      <trkpt lat="39.897184" lon="116.633639">
        <time>2021-03-20T12:35:04Z</time>
      </trkpt>
      <trkpt lat="39.897076" lon="116.633543">
        <time>2021-03-20T12:35:09Z</time>
      </trkpt>
      <trkpt lat="39.89698" lon="116.633719">
        <time>2021-03-20T12:35:14Z</time>
      </trkpt>
      <trkpt lat="39.897091" lon="116.633922">
        <time>2021-03-20T12:35:19Z</time>
      </trkpt>
      <trkpt lat="39.897221" lon="116.634083">
        <time>2021-03-20T12:35:24Z</time>
      </trkpt>
      <trkpt lat="39.897288" lon="116.634162">
        <time>2021-03-20T12:35:29Z</time>
      </trkpt>
      <trkpt lat="39.89735" lon="116.634221">
        <time>2021-03-20T12:35:34Z</time>
      </trkpt>
      <trkpt lat="39.897398" lon="116.634255">
        <time>2021-03-20T12:35:39Z</time>
      </trkpt>
      <trkpt lat="39.897398" lon="116.634255">
        <time>2021-03-20T12:37:07Z</time>
      </trkpt>
    </trkseg>
  </trk>
</gpx>