<?xml version="1.0" encoding="UTF-8"?>
<gpx xmlns="http://www.topografix.com/GPX/1/1" xmlns:gpxtpx="http://www.garmin.com/xmlschemas/TrackPointExtension/v1" xmlns:xsi="http://www.w3.org/2001/XMLSchema-instance" xsi:schemaLocation="http://www.topografix.com/GPX/1/1 http://www.topografix.com/GPX/1/1/gpx.xsd" version="1.1" creator="gpx.py -- https://github.com/tkrajina/gpxpy">
  <trk>
    <name>gpx from keep</name>
    <trkseg>
      <trkpt lat="39.897475" lon="116.633979">
        <time>2021-04-29T12:44:07Z</time>
      </trkpt>
      <trkpt lat="39.897475" lon="116.633979">
        <time>2021-04-29T12:44:12Z</time>
      </trkpt>
      <trkpt lat="39.897616" lon="116.633903">
        <time>2021-04-29T12:44:17Z</time>
      </trkpt>
      <trkpt lat="39.897643" lon="116.633923">
        <time>2021-04-29T12:44:22Z</time>
      </trkpt>
      <trkpt lat="39.897721" lon="116.633914">
        <time>2021-04-29T12:44:27Z</time>
      </trkpt>
      <trkpt lat="39.897773" lon="116.633985">
        <time>2021-04-29T12:44:32Z</time>
      </trkpt>
      <trkpt lat="39.89783" lon="116.634156">
        <time>2021-04-29T12:44:37Z</time>
      </trkpt>
      <trkpt lat="39.897844" lon="116.634199">
        <time>2021-04-29T12:44:42Z</time>
      </trkpt>
      <trkpt lat="39.897791" lon="116.634178">
        <time>2021-04-29T12:44:47Z</time>
      </trkpt>
      <trkpt lat="39.897844" lon="116.634221">
        <time>2021-04-29T12:44:52Z</time>
      </trkpt>
      <trkpt lat="39.8979" lon="116.63434">
        <time>2021-04-29T12:44:57Z</time>
      </trkpt>
      <trkpt lat="39.897952" lon="116.634453">
        <time>2021-04-29T12:45:02Z</time>
      </trkpt>
      <trkpt lat="39.898011" lon="116.63458">
        <time>2021-04-29T12:45:07Z</time>
      </trkpt>
      <trkpt lat="39.898031" lon="116.634651">
        <time>2021-04-29T12:45:12Z</time>
      </trkpt>
      <trkpt lat="39.89797" lon="116.634683">
        <time>2021-04-29T12:45:17Z</time>
      </trkpt>
      <trkpt lat="39.897974" lon="116.634725">
        <time>2021-04-29T12:45:22Z</time>
      </trkpt>
      <trkpt lat="39.897978" lon="116.634774">
        <time>2021-04-29T12:45:27Z</time>
      </trkpt>
      <trkpt lat="39.898001" lon="116.634794">
        <time>2021-04-29T12:45:32Z</time>
      </trkpt>
      <trkpt lat="39.898001" lon="116.634794">
        <time>2021-04-29T12:45:37Z</time>
      </trkpt>
      <trkpt lat="39.897994" lon="116.634878">
        <time>2021-04-29T12:45:42Z</time>
      </trkpt>
      <trkpt lat="39.898103" lon="116.635038">
        <time>2021-04-29T12:45:47Z</time>
      </trkpt>
      <trkpt lat="39.898106" lon="116.63512">
        <time>2021-04-29T12:45:52Z</time>
      </trkpt>
      <trkpt lat="39.897985" lon="116.635175">
        <time>2021-04-29T12:45:57Z</time>
      </trkpt>
      <trkpt lat="39.897851" lon="116.635246">
        <time>2021-04-29T12:46:02Z</time>
      </trkpt>
      <trkpt lat="39.897721" lon="116.635338">
        <time>2021-04-29T12:46:07Z</time>
      </trkpt>
      <trkpt lat="39.897595" lon="116.635438">
        <time>2021-04-29T12:46:12Z</time>
      </trkpt>
      <trkpt lat="39.897484" lon="116.635532">
        <time>2021-04-29T12:46:17Z</time>
      </trkpt>
      <trkpt lat="39.897371" lon="116.635541">
        <time>2021-04-29T12:46:22Z</time>
      </trkpt>
      <trkpt lat="39.897301" lon="116.635567">
        <time>2021-04-29T12:46:27Z</time>
      </trkpt>
      <trkpt lat="39.897181" lon="116.635663">
        <time>2021-04-29T12:46:32Z</time>
      </trkpt>
      <trkpt lat="39.897069" lon="116.635671">
        <time>2021-04-29T12:46:37Z</time>
      </trkpt>
      <trkpt lat="39.896986" lon="116.635729">
        <time>2021-04-29T12:46:42Z</time>
      </trkpt>
      <trkpt lat="39.896879" lon="116.635826">
        <time>2021-04-29T12:46:47Z</time>
      </trkpt>
      <trkpt lat="39.896783" lon="116.635903">
        <time>2021-04-29T12:46:52Z</time>
      </trkpt>
      <trkpt lat="39.896617" lon="116.636029">
        <time>2021-04-29T12:46:57Z</time>
      </trkpt>
      <trkpt lat="39.896559" lon="116.63605">
        <time>2021-04-29T12:47:02Z</time>
      </trkpt>
      <trkpt lat="39.896459" lon="116.636121">
        <time>2021-04-29T12:47:07Z</time>
      </trkpt>
      <trkpt lat="39.896383" lon="116.636213">
        <time>2021-04-29T12:47:12Z</time>
      </trkpt>
      <trkpt lat="39.896322" lon="116.63624">
        <time>2021-04-29T12:47:17Z</time>
      </trkpt>
      <trkpt lat="39.896238" lon="116.636294">
        <time>2021-04-29T12:47:22Z</time>
      </trkpt>
      <trkpt lat="39.896201" lon="116.636397">
        <time>2021-04-29T12:47:27Z</time>
      </trkpt>
      <trkpt lat="39.896154" lon="116.63646">
        <time>2021-04-29T12:47:32Z</time>
      </trkpt>
      <trkpt lat="39.896122" lon="116.636497">
        <time>2021-04-29T12:47:37Z</time>
      </trkpt>
      <trkpt lat="39.896085" lon="116.636518">
        <time>2021-04-29T12:47:42Z</time>
      </trkpt>
      <trkpt lat="39.896089" lon="116.63654">
        <time>2021-04-29T12:47:47Z</time>
      </trkpt>
      <trkpt lat="39.896093" lon="116.636528">
        <time>2021-04-29T12:47:52Z</time>
      </trkpt>
      <trkpt lat="39.89612" lon="116.636483">
        <time>2021-04-29T12:47:57Z</time>
      </trkpt>
      <trkpt lat="39.896104" lon="116.636487">
        <time>2021-04-29T12:48:02Z</time>
      </trkpt>
      <trkpt lat="39.896099" lon="116.636505">
        <time>2021-04-29T12:48:07Z</time>
      </trkpt>
      <trkpt lat="39.896099" lon="116.636505">
        <time>2021-04-29T12:48:12Z</time>
      </trkpt>
      <trkpt lat="39.896078" lon="116.636534">
        <time>2021-04-29T12:48:17Z</time>
      </trkpt>
      <trkpt lat="39.895998" lon="116.636637">
        <time>2021-04-29T12:48:22Z</time>
      </trkpt>
      <trkpt lat="39.896037" lon="116.636771">
        <time>2021-04-29T12:48:27Z</time>
      </trkpt>
      <trkpt lat="39.89609" lon="116.636939">
        <time>2021-04-29T12:48:32Z</time>
      </trkpt>
      <trkpt lat="39.89612" lon="116.637135">
        <time>2021-04-29T12:48:37Z</time>
      </trkpt>
      <trkpt lat="39.896127" lon="116.637269">
        <time>2021-04-29T12:48:42Z</time>
      </trkpt>
      <trkpt lat="39.896148" lon="116.637427">
        <time>2021-04-29T12:48:47Z</time>
      </trkpt>
      <trkpt lat="39.896164" lon="116.637586">
        <time>2021-04-29T12:48:52Z</time>
      </trkpt>
      <trkpt lat="39.896153" lon="116.637732">
        <time>2021-04-29T12:48:57Z</time>
      </trkpt>
      <trkpt lat="39.896157" lon="116.637892">
        <time>2021-04-29T12:49:02Z</time>
      </trkpt>
      <trkpt lat="39.896162" lon="116.638042">
        <time>2021-04-29T12:49:07Z</time>
      </trkpt>
      <trkpt lat="39.896166" lon="116.638196">
        <time>2021-04-29T12:49:12Z</time>
      </trkpt>
      <trkpt lat="39.896179" lon="116.638333">
        <time>2021-04-29T12:49:17Z</time>
      </trkpt>
      <trkpt lat="39.89619" lon="116.638462">
        <time>2021-04-29T12:49:22Z</time>
      </trkpt>
      <trkpt lat="39.896188" lon="116.63862">
        <time>2021-04-29T12:49:27Z</time>
      </trkpt>
      <trkpt lat="39.896214" lon="116.638781">
        <time>2021-04-29T12:49:32Z</time>
      </trkpt>
      <trkpt lat="39.896225" lon="116.638923">
        <time>2021-04-29T12:49:37Z</time>
      </trkpt>
      <trkpt lat="39.896231" lon="116.639064">
        <time>2021-04-29T12:49:42Z</time>
      </trkpt>
      <trkpt lat="39.896228" lon="116.639199">
        <time>2021-04-29T12:49:47Z</time>
      </trkpt>
      <trkpt lat="39.896217" lon="116.639353">
        <time>2021-04-29T12:49:52Z</time>
      </trkpt>
      <trkpt lat="39.896207" lon="116.639507">
        <time>2021-04-29T12:49:57Z</time>
      </trkpt>
      <trkpt lat="39.89622" lon="116.639697">
        <time>2021-04-29T12:50:02Z</time>
      </trkpt>
      <trkpt lat="39.896223" lon="116.639827">
        <time>2021-04-29T12:50:07Z</time>
      </trkpt>
      <trkpt lat="39.896223" lon="116.639989">
        <time>2021-04-29T12:50:12Z</time>
      </trkpt>
      <trkpt lat="39.896229" lon="116.640158">
        <time>2021-04-29T12:50:17Z</time>
      </trkpt>
      <trkpt lat="39.896239" lon="116.640313">
        <time>2021-04-29T12:50:22Z</time>
      </trkpt>
      <trkpt lat="39.896243" lon="116.640456">
        <time>2021-04-29T12:50:27Z</time>
      </trkpt>
      <trkpt lat="39.896232" lon="116.64062">
        <time>2021-04-29T12:50:32Z</time>
      </trkpt>
      <trkpt lat="39.896237" lon="116.640805">
        <time>2021-04-29T12:50:37Z</time>
      </trkpt>
      <trkpt lat="39.896238" lon="116.640967">
        <time>2021-04-29T12:50:42Z</time>
      </trkpt>
      <trkpt lat="39.896237" lon="116.641123">
        <time>2021-04-29T12:50:47Z</time>
      </trkpt>
      <trkpt lat="39.89625" lon="116.641293">
        <time>2021-04-29T12:50:52Z</time>
      </trkpt>
      <trkpt lat="39.896223" lon="116.641416">
        <time>2021-04-29T12:50:57Z</time>
      </trkpt>
      <trkpt lat="39.896206" lon="116.641551">
        <time>2021-04-29T12:51:02Z</time>
      </trkpt>
      <trkpt lat="39.896199" lon="116.641689">
        <time>2021-04-29T12:51:07Z</time>
      </trkpt>
      <trkpt lat="39.896186" lon="116.641827">
        <time>2021-04-29T12:51:12Z</time>
      </trkpt>
      <trkpt lat="39.89617" lon="116.641983">
        <time>2021-04-29T12:51:17Z</time>
      </trkpt>
      <trkpt lat="39.896164" lon="116.64225">
        <time>2021-04-29T12:51:22Z</time>
      </trkpt>
      <trkpt lat="39.896163" lon="116.642319">
        <time>2021-04-29T12:51:27Z</time>
      </trkpt>
      <trkpt lat="39.896165" lon="116.642494">
        <time>2021-04-29T12:51:32Z</time>
      </trkpt>
      <trkpt lat="39.89618" lon="116.642658">
        <time>2021-04-29T12:51:37Z</time>
      </trkpt>
      <trkpt lat="39.89618" lon="116.642772">
        <time>2021-04-29T12:51:42Z</time>
      </trkpt>
      <trkpt lat="39.896171" lon="116.642937">
        <time>2021-04-29T12:51:47Z</time>
      </trkpt>
      <trkpt lat="39.896207" lon="116.643092">
        <time>2021-04-29T12:51:52Z</time>
      </trkpt>
      <trkpt lat="39.896162" lon="116.643347">
        <time>2021-04-29T12:51:57Z</time>
      </trkpt>
      <trkpt lat="39.896159" lon="116.643374">
        <time>2021-04-29T12:52:02Z</time>
      </trkpt>
      <trkpt lat="39.896169" lon="116.64352">
        <time>2021-04-29T12:52:07Z</time>
      </trkpt>
      <trkpt lat="39.896163" lon="116.643657">
        <time>2021-04-29T12:52:12Z</time>
      </trkpt>
      <trkpt lat="39.896168" lon="116.643733">
        <time>2021-04-29T12:52:17Z</time>
      </trkpt>
      <trkpt lat="39.896176" lon="116.643881">
        <time>2021-04-29T12:52:22Z</time>
      </trkpt>
      <trkpt lat="39.896172" lon="116.644038">
        <time>2021-04-29T12:52:27Z</time>
      </trkpt>
      <trkpt lat="39.896161" lon="116.644198">
        <time>2021-04-29T12:52:32Z</time>
      </trkpt>
      <trkpt lat="39.896159" lon="116.644349">
        <time>2021-04-29T12:52:37Z</time>
      </trkpt>
      <trkpt lat="39.896178" lon="116.644536">
        <time>2021-04-29T12:52:42Z</time>
      </trkpt>
      <trkpt lat="39.896186" lon="116.644652">
        <time>2021-04-29T12:52:47Z</time>
      </trkpt>
      <trkpt lat="39.896174" lon="116.644795">
        <time>2021-04-29T12:52:52Z</time>
      </trkpt>
      <trkpt lat="39.896168" lon="116.644972">
        <time>2021-04-29T12:52:57Z</time>
      </trkpt>
      <trkpt lat="39.896159" lon="116.645129">
        <time>2021-04-29T12:53:02Z</time>
      </trkpt>
      <trkpt lat="39.896172" lon="116.64528">
        <time>2021-04-29T12:53:07Z</time>
      </trkpt>
      <trkpt lat="39.89613" lon="116.645428">
        <time>2021-04-29T12:53:12Z</time>
      </trkpt>
      <trkpt lat="39.896107" lon="116.64558">
        <time>2021-04-29T12:53:17Z</time>
      </trkpt>
      <trkpt lat="39.896072" lon="116.64576">
        <time>2021-04-29T12:53:22Z</time>
      </trkpt>
      <trkpt lat="39.896058" lon="116.645926">
        <time>2021-04-29T12:53:27Z</time>
      </trkpt>
      <trkpt lat="39.896063" lon="116.646105">
        <time>2021-04-29T12:53:32Z</time>
      </trkpt>
      <trkpt lat="39.896049" lon="116.646276">
        <time>2021-04-29T12:53:37Z</time>
      </trkpt>
      <trkpt lat="39.896025" lon="116.646424">
        <time>2021-04-29T12:53:42Z</time>
      </trkpt>
      <trkpt lat="39.896021" lon="116.64659">
        <time>2021-04-29T12:53:47Z</time>
      </trkpt>
      <trkpt lat="39.896021" lon="116.646765">
        <time>2021-04-29T12:53:52Z</time>
      </trkpt>
      <trkpt lat="39.895967" lon="116.646886">
        <time>2021-04-29T12:53:57Z</time>
      </trkpt>
      <trkpt lat="39.895946" lon="116.646986">
        <time>2021-04-29T12:54:02Z</time>
      </trkpt>
      <trkpt lat="39.895978" lon="116.647092">
        <time>2021-04-29T12:54:07Z</time>
      </trkpt>
      <trkpt lat="39.895983" lon="116.647242">
        <time>2021-04-29T12:54:12Z</time>
      </trkpt>
      <trkpt lat="39.895988" lon="116.647397">
        <time>2021-04-29T12:54:17Z</time>
      </trkpt>
      <trkpt lat="39.895991" lon="116.647544">
        <time>2021-04-29T12:54:22Z</time>
      </trkpt>
      <trkpt lat="39.895985" lon="116.647711">
        <time>2021-04-29T12:54:27Z</time>
      </trkpt>
      <trkpt lat="39.895991" lon="116.647889">
        <time>2021-04-29T12:54:32Z</time>
      </trkpt>
      <trkpt lat="39.895979" lon="116.648034">
        <time>2021-04-29T12:54:37Z</time>
      </trkpt>
      <trkpt lat="39.895944" lon="116.648176">
        <time>2021-04-29T12:54:42Z</time>
      </trkpt>
      <trkpt lat="39.895885" lon="116.648306">
        <time>2021-04-29T12:54:47Z</time>
      </trkpt>
      <trkpt lat="39.895848" lon="116.64846">
        <time>2021-04-29T12:54:52Z</time>
      </trkpt>
      <trkpt lat="39.895784" lon="116.648611">
        <time>2021-04-29T12:54:57Z</time>
      </trkpt>
      <trkpt lat="39.895718" lon="116.648762">
        <time>2021-04-29T12:55:02Z</time>
      </trkpt>
      <trkpt lat="39.895656" lon="116.648913">
        <time>2021-04-29T12:55:07Z</time>
      </trkpt>
      <trkpt lat="39.89562" lon="116.649031">
        <time>2021-04-29T12:55:12Z</time>
      </trkpt>
      <trkpt lat="39.895557" lon="116.649132">
        <time>2021-04-29T12:55:17Z</time>
      </trkpt>
      <trkpt lat="39.895431" lon="116.649102">
        <time>2021-04-29T12:55:22Z</time>
      </trkpt>
      <trkpt lat="39.895318" lon="116.649001">
        <time>2021-04-29T12:55:27Z</time>
      </trkpt>
      <trkpt lat="39.895208" lon="116.648954">
        <time>2021-04-29T12:55:32Z</time>
      </trkpt>
      <trkpt lat="39.895089" lon="116.648906">
        <time>2021-04-29T12:55:37Z</time>
      </trkpt>
      <trkpt lat="39.894972" lon="116.648847">
        <time>2021-04-29T12:55:42Z</time>
      </trkpt>
      <trkpt lat="39.894847" lon="116.648809">
        <time>2021-04-29T12:55:47Z</time>
      </trkpt>
      <trkpt lat="39.894754" lon="116.648744">
        <time>2021-04-29T12:55:52Z</time>
      </trkpt>
      <trkpt lat="39.894672" lon="116.648659">
        <time>2021-04-29T12:55:57Z</time>
      </trkpt>
      <trkpt lat="39.894573" lon="116.64858">
        <time>2021-04-29T12:56:02Z</time>
      </trkpt>
      <trkpt lat="39.894461" lon="116.648535">
        <time>2021-04-29T12:56:07Z</time>
      </trkpt>
      <trkpt lat="39.894341" lon="116.648493">
        <time>2021-04-29T12:56:12Z</time>
      </trkpt>
      <trkpt lat="39.894233" lon="116.64845">
        <time>2021-04-29T12:56:17Z</time>
      </trkpt>
      <trkpt lat="39.894128" lon="116.648389">
        <time>2021-04-29T12:56:22Z</time>
      </trkpt>
      <trkpt lat="39.89401" lon="116.648357">
        <time>2021-04-29T12:56:27Z</time>
      </trkpt>
      <trkpt lat="39.893898" lon="116.648304">
        <time>2021-04-29T12:56:32Z</time>
      </trkpt>
      <trkpt lat="39.893741" lon="116.648227">
        <time>2021-04-29T12:56:37Z</time>
      </trkpt>
      <trkpt lat="39.89365" lon="116.648176">
        <time>2021-04-29T12:56:42Z</time>
      </trkpt>
      <trkpt lat="39.893528" lon="116.64811">
        <time>2021-04-29T12:56:47Z</time>
      </trkpt>
      <trkpt lat="39.893418" lon="116.648088">
        <time>2021-04-29T12:56:52Z</time>
      </trkpt>
      <trkpt lat="39.893311" lon="116.648057">
        <time>2021-04-29T12:56:57Z</time>
      </trkpt>
      <trkpt lat="39.893197" lon="116.648043">
        <time>2021-04-29T12:57:02Z</time>
      </trkpt>
      <trkpt lat="39.893066" lon="116.648036">
        <time>2021-04-29T12:57:07Z</time>
      </trkpt>
      <trkpt lat="39.892954" lon="116.648034">
        <time>2021-04-29T12:57:12Z</time>
      </trkpt>
      <trkpt lat="39.892846" lon="116.648014">
        <time>2021-04-29T12:57:17Z</time>
      </trkpt>
      <trkpt lat="39.892722" lon="116.648001">
        <time>2021-04-29T12:57:22Z</time>
      </trkpt>
      <trkpt lat="39.892619" lon="116.647987">
        <time>2021-04-29T12:57:27Z</time>
      </trkpt>
      <trkpt lat="39.892586" lon="116.647913">
        <time>2021-04-29T12:57:32Z</time>
      </trkpt>
      <trkpt lat="39.892598" lon="116.64775">
        <time>2021-04-29T12:57:37Z</time>
      </trkpt>
      <trkpt lat="39.892584" lon="116.647551">
        <time>2021-04-29T12:57:42Z</time>
      </trkpt>
      <trkpt lat="39.892579" lon="116.647367">
        <time>2021-04-29T12:57:47Z</time>
      </trkpt>
      <trkpt lat="39.892601" lon="116.647199">
        <time>2021-04-29T12:57:52Z</time>
      </trkpt>
      <trkpt lat="39.892599" lon="116.647026">
        <time>2021-04-29T12:57:57Z</time>
      </trkpt>
      <trkpt lat="39.892598" lon="116.646856">
        <time>2021-04-29T12:58:02Z</time>
      </trkpt>
      <trkpt lat="39.892589" lon="116.646677">
        <time>2021-04-29T12:58:07Z</time>
      </trkpt>
      <trkpt lat="39.892637" lon="116.646517">
        <time>2021-04-29T12:58:12Z</time>
      </trkpt>
      <trkpt lat="39.892621" lon="116.646342">
        <time>2021-04-29T12:58:17Z</time>
      </trkpt>
      <trkpt lat="39.892623" lon="116.6462">
        <time>2021-04-29T12:58:22Z</time>
      </trkpt>
      <trkpt lat="39.892634" lon="116.646052">
        <time>2021-04-29T12:58:27Z</time>
      </trkpt>
      <trkpt lat="39.892639" lon="116.645918">
        <time>2021-04-29T12:58:32Z</time>
      </trkpt>
      <trkpt lat="39.892559" lon="116.645849">
        <time>2021-04-29T12:58:37Z</time>
      </trkpt>
      <trkpt lat="39.892448" lon="116.645787">
        <time>2021-04-29T12:58:42Z</time>
      </trkpt>
      <trkpt lat="39.89234" lon="116.645725">
        <time>2021-04-29T12:58:47Z</time>
      </trkpt>
      <trkpt lat="39.89224" lon="116.645653">
        <time>2021-04-29T12:58:52Z</time>
      </trkpt>
      <trkpt lat="39.892145" lon="116.645598">
        <time>2021-04-29T12:58:57Z</time>
      </trkpt>
      <trkpt lat="39.892037" lon="116.645549">
        <time>2021-04-29T12:59:02Z</time>
      </trkpt>
      <trkpt lat="39.891941" lon="116.64551">
        <time>2021-04-29T12:59:07Z</time>
      </trkpt>
      <trkpt lat="39.891872" lon="116.645484">
        <time>2021-04-29T12:59:12Z</time>
      </trkpt>
      <trkpt lat="39.891789" lon="116.645469">
        <time>2021-04-29T12:59:17Z</time>
      </trkpt>
      <trkpt lat="39.891689" lon="116.645416">
        <time>2021-04-29T12:59:22Z</time>
      </trkpt>
      <trkpt lat="39.891585" lon="116.645374">
        <time>2021-04-29T12:59:27Z</time>
      </trkpt>
      <trkpt lat="39.891612" lon="116.645399">
        <time>2021-04-29T12:59:32Z</time>
      </trkpt>
      <trkpt lat="39.891729" lon="116.645468">
        <time>2021-04-29T12:59:37Z</time>
      </trkpt>
      <trkpt lat="39.891848" lon="116.645498">
        <time>2021-04-29T12:59:42Z</time>
      </trkpt>
      <trkpt lat="39.891987" lon="116.645543">
        <time>2021-04-29T12:59:47Z</time>
      </trkpt>
      <trkpt lat="39.892106" lon="116.645601">
        <time>2021-04-29T12:59:52Z</time>
      </trkpt>
      <trkpt lat="39.892208" lon="116.645656">
        <time>2021-04-29T12:59:57Z</time>
      </trkpt>
      <trkpt lat="39.892311" lon="116.645742">
        <time>2021-04-29T13:00:02Z</time>
      </trkpt>
      <trkpt lat="39.892433" lon="116.645826">
        <time>2021-04-29T13:00:07Z</time>
      </trkpt>
      <trkpt lat="39.892546" lon="116.645874">
        <time>2021-04-29T13:00:12Z</time>
      </trkpt>
      <trkpt lat="39.892657" lon="116.645959">
        <time>2021-04-29T13:00:17Z</time>
      </trkpt>
      <trkpt lat="39.892737" lon="116.646053">
        <time>2021-04-29T13:00:22Z</time>
      </trkpt>
      <trkpt lat="39.892719" lon="116.646257">
        <time>2021-04-29T13:00:27Z</time>
      </trkpt>
      <trkpt lat="39.892705" lon="116.64638">
        <time>2021-04-29T13:00:32Z</time>
      </trkpt>
      <trkpt lat="39.892666" lon="116.646537">
        <time>2021-04-29T13:00:37Z</time>
      </trkpt>
      <trkpt lat="39.892623" lon="116.646689">
        <time>2021-04-29T13:00:42Z</time>
      </trkpt>
      <trkpt lat="39.892589" lon="116.646849">
        <time>2021-04-29T13:00:47Z</time>
      </trkpt>
      <trkpt lat="39.892568" lon="116.647005">
        <time>2021-04-29T13:00:52Z</time>
      </trkpt>
      <trkpt lat="39.892544" lon="116.647155">
        <time>2021-04-29T13:00:57Z</time>
      </trkpt>
      <trkpt lat="39.892541" lon="116.647318">
        <time>2021-04-29T13:01:02Z</time>
      </trkpt>
      <trkpt lat="39.892527" lon="116.647539">
        <time>2021-04-29T13:01:07Z</time>
      </trkpt>
      <trkpt lat="39.892517" lon="116.647641">
        <time>2021-04-29T13:01:12Z</time>
      </trkpt>
      <trkpt lat="39.892516" lon="116.64786">
        <time>2021-04-29T13:01:17Z</time>
      </trkpt>
      <trkpt lat="39.892534" lon="116.647924">
        <time>2021-04-29T13:01:22Z</time>
      </trkpt>
      <trkpt lat="39.892583" lon="116.64804">
        <time>2021-04-29T13:01:27Z</time>
      </trkpt>
      <trkpt lat="39.892703" lon="116.648012">
        <time>2021-04-29T13:01:32Z</time>
      </trkpt>
      <trkpt lat="39.892818" lon="116.648029">
        <time>2021-04-29T13:01:37Z</time>
      </trkpt>
      <trkpt lat="39.89294" lon="116.648055">
        <time>2021-04-29T13:01:42Z</time>
      </trkpt>
      <trkpt lat="39.893066" lon="116.648073">
        <time>2021-04-29T13:01:47Z</time>
      </trkpt>
      <trkpt lat="39.893188" lon="116.648081">
        <time>2021-04-29T13:01:52Z</time>
      </trkpt>
      <trkpt lat="39.893315" lon="116.648065">
        <time>2021-04-29T13:01:57Z</time>
      </trkpt>
      <trkpt lat="39.893436" lon="116.648077">
        <time>2021-04-29T13:02:02Z</time>
      </trkpt>
      <trkpt lat="39.893561" lon="116.648123">
        <time>2021-04-29T13:02:07Z</time>
      </trkpt>
      <trkpt lat="39.893681" lon="116.648193">
        <time>2021-04-29T13:02:12Z</time>
      </trkpt>
      <trkpt lat="39.893806" lon="116.648222">
        <time>2021-04-29T13:02:17Z</time>
      </trkpt>
      <trkpt lat="39.893924" lon="116.64824">
        <time>2021-04-29T13:02:22Z</time>
      </trkpt>
      <trkpt lat="39.894029" lon="116.648269">
        <time>2021-04-29T13:02:27Z</time>
      </trkpt>
      <trkpt lat="39.894076" lon="116.648301">
        <time>2021-04-29T13:02:32Z</time>
      </trkpt>
      <trkpt lat="39.89414" lon="116.648376">
        <time>2021-04-29T13:02:37Z</time>
      </trkpt>
      <trkpt lat="39.894319" lon="116.648499">
        <time>2021-04-29T13:02:42Z</time>
      </trkpt>
      <trkpt lat="39.894461" lon="116.648583">
        <time>2021-04-29T13:02:47Z</time>
      </trkpt>
      <trkpt lat="39.894543" lon="116.64859">
        <time>2021-04-29T13:02:52Z</time>
      </trkpt>
      <trkpt lat="39.894652" lon="116.648638">
        <time>2021-04-29T13:02:57Z</time>
      </trkpt>
      <trkpt lat="39.894779" lon="116.64876">
        <time>2021-04-29T13:03:02Z</time>
      </trkpt>
      <trkpt lat="39.894914" lon="116.648822">
        <time>2021-04-29T13:03:07Z</time>
      </trkpt>
      <trkpt lat="39.895055" lon="116.648933">
        <time>2021-04-29T13:03:12Z</time>
      </trkpt>
      <trkpt lat="39.895118" lon="116.648978">
        <time>2021-04-29T13:03:17Z</time>
      </trkpt>
      <trkpt lat="39.895233" lon="116.649064">
        <time>2021-04-29T13:03:22Z</time>
      </trkpt>
      <trkpt lat="39.895327" lon="116.649149">
        <time>2021-04-29T13:03:27Z</time>
      </trkpt>
      <trkpt lat="39.895431" lon="116.649179">
        <time>2021-04-29T13:03:32Z</time>
      </trkpt>
      <trkpt lat="39.89556" lon="116.649219">
        <time>2021-04-29T13:03:37Z</time>
      </trkpt>
      <trkpt lat="39.895659" lon="116.649115">
        <time>2021-04-29T13:03:42Z</time>
      </trkpt>
      <trkpt lat="39.895698" lon="116.648904">
        <time>2021-04-29T13:03:47Z</time>
      </trkpt>
      <trkpt lat="39.895737" lon="116.648741">
        <time>2021-04-29T13:03:52Z</time>
      </trkpt>
      <trkpt lat="39.895791" lon="116.648612">
        <time>2021-04-29T13:03:57Z</time>
      </trkpt>
      <trkpt lat="39.895825" lon="116.648476">
        <time>2021-04-29T13:04:02Z</time>
      </trkpt>
      <trkpt lat="39.895852" lon="116.648345">
        <time>2021-04-29T13:04:07Z</time>
      </trkpt>
      <trkpt lat="39.895899" lon="116.648193">
        <time>2021-04-29T13:04:12Z</time>
      </trkpt>
      <trkpt lat="39.895956" lon="116.648047">
        <time>2021-04-29T13:04:17Z</time>
      </trkpt>
      <trkpt lat="39.895989" lon="116.647908">
        <time>2021-04-29T13:04:22Z</time>
      </trkpt>
      <trkpt lat="39.895993" lon="116.647767">
        <time>2021-04-29T13:04:27Z</time>
      </trkpt>
      <trkpt lat="39.895981" lon="116.647611">
        <time>2021-04-29T13:04:32Z</time>
      </trkpt>
      <trkpt lat="39.895988" lon="116.647465">
        <time>2021-04-29T13:04:37Z</time>
      </trkpt>
      <trkpt lat="39.895988" lon="116.647321">
        <time>2021-04-29T13:04:42Z</time>
      </trkpt>
      <trkpt lat="39.895997" lon="116.647168">
        <time>2021-04-29T13:04:47Z</time>
      </trkpt>
      <trkpt lat="39.896018" lon="116.647014">
        <time>2021-04-29T13:04:52Z</time>
      </trkpt>
      <trkpt lat="39.896039" lon="116.64687">
        <time>2021-04-29T13:04:57Z</time>
      </trkpt>
      <trkpt lat="39.896031" lon="116.646725">
        <time>2021-04-29T13:05:02Z</time>
      </trkpt>
      <trkpt lat="39.896037" lon="116.646565">
        <time>2021-04-29T13:05:07Z</time>
      </trkpt>
      <trkpt lat="39.896049" lon="116.64638">
        <time>2021-04-29T13:05:12Z</time>
      </trkpt>
      <trkpt lat="39.896075" lon="116.646216">
        <time>2021-04-29T13:05:17Z</time>
      </trkpt>
      <trkpt lat="39.896079" lon="116.646069">
        <time>2021-04-29T13:05:22Z</time>
      </trkpt>
      <trkpt lat="39.896082" lon="116.645915">
        <time>2021-04-29T13:05:27Z</time>
      </trkpt>
      <trkpt lat="39.896087" lon="116.645765">
        <time>2021-04-29T13:05:32Z</time>
      </trkpt>
      <trkpt lat="39.8961" lon="116.645586">
        <time>2021-04-29T13:05:37Z</time>
      </trkpt>
      <trkpt lat="39.896136" lon="116.645441">
        <time>2021-04-29T13:05:42Z</time>
      </trkpt>
      <trkpt lat="39.896162" lon="116.645284">
        <time>2021-04-29T13:05:47Z</time>
      </trkpt>
      <trkpt lat="39.896175" lon="116.64514">
        <time>2021-04-29T13:05:52Z</time>
      </trkpt>
      <trkpt lat="39.896183" lon="116.645005">
        <time>2021-04-29T13:05:57Z</time>
      </trkpt>
      <trkpt lat="39.896187" lon="116.644929">
        <time>2021-04-29T13:06:02Z</time>
      </trkpt>
      <trkpt lat="39.896202" lon="116.644839">
        <time>2021-04-29T13:06:07Z</time>
      </trkpt>
      <trkpt lat="39.896212" lon="116.644726">
        <time>2021-04-29T13:06:12Z</time>
      </trkpt>
      <trkpt lat="39.896231" lon="116.644608">
        <time>2021-04-29T13:06:17Z</time>
      </trkpt>
      <trkpt lat="39.896238" lon="116.644483">
        <time>2021-04-29T13:06:22Z</time>
      </trkpt>
      <trkpt lat="39.89624" lon="116.644335">
        <time>2021-04-29T13:06:27Z</time>
      </trkpt>
      <trkpt lat="39.896209" lon="116.644164">
        <time>2021-04-29T13:06:32Z</time>
      </trkpt>
      <trkpt lat="39.896182" lon="116.643999">
        <time>2021-04-29T13:06:37Z</time>
      </trkpt>
      <trkpt lat="39.896169" lon="116.643837">
        <time>2021-04-29T13:06:42Z</time>
      </trkpt>
      <trkpt lat="39.896184" lon="116.643678">
        <time>2021-04-29T13:06:47Z</time>
      </trkpt>
      <trkpt lat="39.896193" lon="116.643514">
        <time>2021-04-29T13:06:52Z</time>
      </trkpt>
      <trkpt lat="39.896204" lon="116.643368">
        <time>2021-04-29T13:06:57Z</time>
      </trkpt>
      <trkpt lat="39.896205" lon="116.643196">
        <time>2021-04-29T13:07:02Z</time>
      </trkpt>
      <trkpt lat="39.896208" lon="116.643082">
        <time>2021-04-29T13:07:07Z</time>
      </trkpt>
      <trkpt lat="39.896198" lon="116.642949">
        <time>2021-04-29T13:07:12Z</time>
      </trkpt>
      <trkpt lat="39.89621" lon="116.642793">
        <time>2021-04-29T13:07:17Z</time>
      </trkpt>
      <trkpt lat="39.896214" lon="116.642679">
        <time>2021-04-29T13:07:22Z</time>
      </trkpt>
      <trkpt lat="39.896209" lon="116.642589">
        <time>2021-04-29T13:07:27Z</time>
      </trkpt>
      <trkpt lat="39.896222" lon="116.64247">
        <time>2021-04-29T13:07:32Z</time>
      </trkpt>
      <trkpt lat="39.896236" lon="116.642349">
        <time>2021-04-29T13:07:37Z</time>
      </trkpt>
      <trkpt lat="39.896244" lon="116.642203">
        <time>2021-04-29T13:07:42Z</time>
      </trkpt>
      <trkpt lat="39.896253" lon="116.642033">
        <time>2021-04-29T13:07:47Z</time>
      </trkpt>
      <trkpt lat="39.896247" lon="116.64178">
        <time>2021-04-29T13:07:52Z</time>
      </trkpt>
      <trkpt lat="39.896251" lon="116.641719">
        <time>2021-04-29T13:07:57Z</time>
      </trkpt>
      <trkpt lat="39.896248" lon="116.641569">
        <time>2021-04-29T13:08:02Z</time>
      </trkpt>
      <trkpt lat="39.896255" lon="116.641424">
        <time>2021-04-29T13:08:07Z</time>
      </trkpt>
      <trkpt lat="39.896247" lon="116.641299">
        <time>2021-04-29T13:08:12Z</time>
      </trkpt>
      <trkpt lat="39.896238" lon="116.641152">
        <time>2021-04-29T13:08:17Z</time>
      </trkpt>
      <trkpt lat="39.896246" lon="116.640994">
        <time>2021-04-29T13:08:22Z</time>
      </trkpt>
      <trkpt lat="39.896267" lon="116.640846">
        <time>2021-04-29T13:08:27Z</time>
      </trkpt>
      <trkpt lat="39.896259" lon="116.640694">
        <time>2021-04-29T13:08:32Z</time>
      </trkpt>
      <trkpt lat="39.896261" lon="116.640538">
        <time>2021-04-29T13:08:37Z</time>
      </trkpt>
      <trkpt lat="39.89628" lon="116.640387">
        <time>2021-04-29T13:08:42Z</time>
      </trkpt>
      <trkpt lat="39.896363" lon="116.640301">
        <time>2021-04-29T13:08:47Z</time>
      </trkpt>
      <trkpt lat="39.896347" lon="116.640268">
        <time>2021-04-29T13:08:52Z</time>
      </trkpt>
      <trkpt lat="39.896406" lon="116.640289">
        <time>2021-04-29T13:08:57Z</time>
      </trkpt>
      <trkpt lat="39.896679" lon="116.640441">
        <time>2021-04-29T13:09:02Z</time>
      </trkpt>
      <trkpt lat="39.896801" lon="116.640511">
        <time>2021-04-29T13:09:07Z</time>
      </trkpt>
      <trkpt lat="39.896931" lon="116.640552">
        <time>2021-04-29T13:09:12Z</time>
      </trkpt>
      <trkpt lat="39.89704" lon="116.640636">
        <time>2021-04-29T13:09:17Z</time>
      </trkpt>
      <trkpt lat="39.897138" lon="116.640761">
        <time>2021-04-29T13:09:22Z</time>
      </trkpt>
      <trkpt lat="39.897235" lon="116.640798">
        <time>2021-04-29T13:09:27Z</time>
      </trkpt>
      <trkpt lat="39.897375" lon="116.640863">
        <time>2021-04-29T13:09:32Z</time>
      </trkpt>
      <trkpt lat="39.897489" lon="116.640907">
        <time>2021-04-29T13:09:37Z</time>
      </trkpt>
      <trkpt lat="39.897559" lon="116.64098">
        <time>2021-04-29T13:09:42Z</time>
      </trkpt>
      <trkpt lat="39.897683" lon="116.64104">
        <time>2021-04-29T13:09:47Z</time>
      </trkpt>
      <trkpt lat="39.897792" lon="116.641114">
        <time>2021-04-29T13:09:52Z</time>
      </trkpt>
      <trkpt lat="39.897864" lon="116.641182">
        <time>2021-04-29T13:09:57Z</time>
      </trkpt>
      <trkpt lat="39.898009" lon="116.641263">
        <time>2021-04-29T13:10:02Z</time>
      </trkpt>
      <trkpt lat="39.898127" lon="116.641318">
        <time>2021-04-29T13:10:07Z</time>
      </trkpt>
      <trkpt lat="39.898232" lon="116.641382">
        <time>2021-04-29T13:10:12Z</time>
      </trkpt>
      <trkpt lat="39.898389" lon="116.641457">
        <time>2021-04-29T13:10:17Z</time>
      </trkpt>
      <trkpt lat="39.898357" lon="116.641665">
        <time>2021-04-29T13:10:22Z</time>
      </trkpt>
      <trkpt lat="39.89832" lon="116.64186">
        <time>2021-04-29T13:10:27Z</time>
      </trkpt>
      <trkpt lat="39.898299" lon="116.642022">
        <time>2021-04-29T13:10:32Z</time>
      </trkpt>
      <trkpt lat="39.898283" lon="116.642193">
        <time>2021-04-29T13:10:37Z</time>
      </trkpt>
      <trkpt lat="39.898286" lon="116.642352">
        <time>2021-04-29T13:10:42Z</time>
      </trkpt>
      <trkpt lat="39.898301" lon="116.642483">
        <time>2021-04-29T13:10:47Z</time>
      </trkpt>
      <trkpt lat="39.898288" lon="116.642604">
        <time>2021-04-29T13:10:52Z</time>
      </trkpt>
      <trkpt lat="39.898294" lon="116.642752">
        <time>2021-04-29T13:10:57Z</time>
      </trkpt>
      <trkpt lat="39.898288" lon="116.642862">
        <time>2021-04-29T13:11:02Z</time>
      </trkpt>
      <trkpt lat="39.898283" lon="116.643021">
        <time>2021-04-29T13:11:07Z</time>
      </trkpt>
      <trkpt lat="39.898272" lon="116.643196">
        <time>2021-04-29T13:11:12Z</time>
      </trkpt>
      <trkpt lat="39.898277" lon="116.643369">
        <time>2021-04-29T13:11:17Z</time>
      </trkpt>
      <trkpt lat="39.898272" lon="116.643522">
        <time>2021-04-29T13:11:22Z</time>
      </trkpt>
      <trkpt lat="39.898251" lon="116.643678">
        <time>2021-04-29T13:11:27Z</time>
      </trkpt>
      <trkpt lat="39.898278" lon="116.643836">
        <time>2021-04-29T13:11:32Z</time>
      </trkpt>
      <trkpt lat="39.898316" lon="116.643987">
        <time>2021-04-29T13:11:37Z</time>
      </trkpt>
      <trkpt lat="39.898326" lon="116.644153">
        <time>2021-04-29T13:11:42Z</time>
      </trkpt>
      <trkpt lat="39.898342" lon="116.644299">
        <time>2021-04-29T13:11:47Z</time>
      </trkpt>
      <trkpt lat="39.898356" lon="116.64446">
        <time>2021-04-29T13:11:52Z</time>
      </trkpt>
      <trkpt lat="39.898375" lon="116.644609">
        <time>2021-04-29T13:11:57Z</time>
      </trkpt>
      <trkpt lat="39.898386" lon="116.644776">
        <time>2021-04-29T13:12:02Z</time>
      </trkpt>
      <trkpt lat="39.89841" lon="116.645051">
        <time>2021-04-29T13:12:07Z</time>
      </trkpt>
      <trkpt lat="39.898435" lon="116.645127">
        <time>2021-04-29T13:12:12Z</time>
      </trkpt>
      <trkpt lat="39.898444" lon="116.645288">
        <time>2021-04-29T13:12:17Z</time>
      </trkpt>
      <trkpt lat="39.898465" lon="116.64545">
        <time>2021-04-29T13:12:22Z</time>
      </trkpt>
      <trkpt lat="39.898501" lon="116.6456">
        <time>2021-04-29T13:12:27Z</time>
      </trkpt>
      <trkpt lat="39.898549" lon="116.645761">
        <time>2021-04-29T13:12:32Z</time>
      </trkpt>
      <trkpt lat="39.898587" lon="116.645915">
        <time>2021-04-29T13:12:37Z</time>
      </trkpt>
      <trkpt lat="39.89864" lon="116.646041">
        <time>2021-04-29T13:12:42Z</time>
      </trkpt>
      <trkpt lat="39.89868" lon="116.646166">
        <time>2021-04-29T13:12:47Z</time>
      </trkpt>
      <trkpt lat="39.898692" lon="116.646289">
        <time>2021-04-29T13:12:52Z</time>
      </trkpt>
      <trkpt lat="39.898725" lon="116.646408">
        <time>2021-04-29T13:12:57Z</time>
      </trkpt>
      <trkpt lat="39.898758" lon="116.646515">
        <time>2021-04-29T13:13:02Z</time>
      </trkpt>
      <trkpt lat="39.898763" lon="116.646598">
        <time>2021-04-29T13:13:07Z</time>
      </trkpt>
      <trkpt lat="39.898808" lon="116.646721">
        <time>2021-04-29T13:13:12Z</time>
      </trkpt>
      <trkpt lat="39.898821" lon="116.646852">
        <time>2021-04-29T13:13:17Z</time>
      </trkpt>
      <trkpt lat="39.898822" lon="116.647019">
        <time>2021-04-29T13:13:22Z</time>
      </trkpt>
      <trkpt lat="39.898865" lon="116.647205">
        <time>2021-04-29T13:13:27Z</time>
      </trkpt>
      <trkpt lat="39.898912" lon="116.647398">
        <time>2021-04-29T13:13:32Z</time>
      </trkpt>
      <trkpt lat="39.898937" lon="116.647572">
        <time>2021-04-29T13:13:37Z</time>
      </trkpt>
      <trkpt lat="39.899004" lon="116.647763">
        <time>2021-04-29T13:13:42Z</time>
      </trkpt>
      <trkpt lat="39.899043" lon="116.647956">
        <time>2021-04-29T13:13:47Z</time>
      </trkpt>
      <trkpt lat="39.899064" lon="116.64816">
        <time>2021-04-29T13:13:52Z</time>
      </trkpt>
      <trkpt lat="39.899078" lon="116.648316">
        <time>2021-04-29T13:13:57Z</time>
      </trkpt>
      <trkpt lat="39.899122" lon="116.648423">
        <time>2021-04-29T13:14:02Z</time>
      </trkpt>
      <trkpt lat="39.899103" lon="116.648546">
        <time>2021-04-29T13:14:07Z</time>
      </trkpt>
      <trkpt lat="39.899055" lon="116.648658">
        <time>2021-04-29T13:14:12Z</time>
      </trkpt>
      <trkpt lat="39.899041" lon="116.6488">
        <time>2021-04-29T13:14:17Z</time>
      </trkpt>
      <trkpt lat="39.899024" lon="116.648962">
        <time>2021-04-29T13:14:22Z</time>
      </trkpt>
      <trkpt lat="39.899043" lon="116.649087">
        <time>2021-04-29T13:14:27Z</time>
      </trkpt>
      <trkpt lat="39.899051" lon="116.649168">
        <time>2021-04-29T13:14:32Z</time>
      </trkpt>
      <trkpt lat="39.899062" lon="116.649219">
        <time>2021-04-29T13:14:37Z</time>
      </trkpt>
      <trkpt lat="39.899065" lon="116.649423">
        <time>2021-04-29T13:14:42Z</time>
      </trkpt>
      <trkpt lat="39.899058" lon="116.649476">
        <time>2021-04-29T13:14:47Z</time>
      </trkpt>
      <trkpt lat="39.899033" lon="116.64962">
        <time>2021-04-29T13:14:52Z</time>
      </trkpt>
      <trkpt lat="39.899091" lon="116.649821">
        <time>2021-04-29T13:14:57Z</time>
      </trkpt>
      <trkpt lat="39.899146" lon="116.649998">
        <time>2021-04-29T13:15:02Z</time>
      </trkpt>
      <trkpt lat="39.899161" lon="116.650132">
        <time>2021-04-29T13:15:07Z</time>
      </trkpt>
      <trkpt lat="39.899125" lon="116.650292">
        <time>2021-04-29T13:15:12Z</time>
      </trkpt>
      <trkpt lat="39.899107" lon="116.65049">
        <time>2021-04-29T13:15:17Z</time>
      </trkpt>
      <trkpt lat="39.899058" lon="116.650681">
        <time>2021-04-29T13:15:22Z</time>
      </trkpt>
      <trkpt lat="39.898998" lon="116.650837">
        <time>2021-04-29T13:15:27Z</time>
      </trkpt>
      <trkpt lat="39.899023" lon="116.651033">
        <time>2021-04-29T13:15:32Z</time>
      </trkpt>
      <trkpt lat="39.899033" lon="116.651217">
        <time>2021-04-29T13:15:37Z</time>
      </trkpt>
      <trkpt lat="39.898997" lon="116.65149">
        <time>2021-04-29T13:15:42Z</time>
      </trkpt>
      <trkpt lat="39.899004" lon="116.651495">
        <time>2021-04-29T13:15:47Z</time>
      </trkpt>
      <trkpt lat="39.899112" lon="116.651389">
        <time>2021-04-29T13:15:52Z</time>
      </trkpt>
      <trkpt lat="39.899089" lon="116.651253">
        <time>2021-04-29T13:15:57Z</time>
      </trkpt>
      <trkpt lat="39.899024" lon="116.651083">
        <time>2021-04-29T13:16:02Z</time>
      </trkpt>
      <trkpt lat="39.899032" lon="116.650888">
        <time>2021-04-29T13:16:07Z</time>
      </trkpt>
      <trkpt lat="39.898996" lon="116.650743">
        <time>2021-04-29T13:16:12Z</time>
      </trkpt>
      <trkpt lat="39.898979" lon="116.650584">
        <time>2021-04-29T13:16:17Z</time>
      </trkpt>
      <trkpt lat="39.898972" lon="116.650424">
        <time>2021-04-29T13:16:22Z</time>
      </trkpt>
      <trkpt lat="39.898992" lon="116.650254">
        <time>2021-04-29T13:16:27Z</time>
      </trkpt>
      <trkpt lat="39.89902" lon="116.650071">
        <time>2021-04-29T13:16:32Z</time>
      </trkpt>
      <trkpt lat="39.898978" lon="116.649927">
        <time>2021-04-29T13:16:37Z</time>
      </trkpt>
      <trkpt lat="39.898986" lon="116.649769">
        <time>2021-04-29T13:16:42Z</time>
      </trkpt>
      <trkpt lat="39.89903" lon="116.649663">
        <time>2021-04-29T13:16:47Z</time>
      </trkpt>
      <trkpt lat="39.899039" lon="116.649516">
        <time>2021-04-29T13:16:52Z</time>
      </trkpt>
      <trkpt lat="39.899028" lon="116.649451">
        <time>2021-04-29T13:16:57Z</time>
      </trkpt>
      <trkpt lat="39.899033" lon="116.649342">
        <time>2021-04-29T13:17:02Z</time>
      </trkpt>
      <trkpt lat="39.899037" lon="116.649105">
        <time>2021-04-29T13:17:07Z</time>
      </trkpt>
      <trkpt lat="39.899031" lon="116.649074">
        <time>2021-04-29T13:17:12Z</time>
      </trkpt>
      <trkpt lat="39.899017" lon="116.648908">
        <time>2021-04-29T13:17:17Z</time>
      </trkpt>
      <trkpt lat="39.899025" lon="116.648756">
        <time>2021-04-29T13:17:22Z</time>
      </trkpt>
      <trkpt lat="39.898999" lon="116.648618">
        <time>2021-04-29T13:17:27Z</time>
      </trkpt>
      <trkpt lat="39.898951" lon="116.648444">
        <time>2021-04-29T13:17:32Z</time>
      </trkpt>
      <trkpt lat="39.898929" lon="116.648333">
        <time>2021-04-29T13:17:37Z</time>
      </trkpt>
      <trkpt lat="39.898985" lon="116.64815">
        <time>2021-04-29T13:17:42Z</time>
      </trkpt>
      <trkpt lat="39.898986" lon="116.648104">
        <time>2021-04-29T13:17:47Z</time>
      </trkpt>
      <trkpt lat="39.899004" lon="116.647985">
        <time>2021-04-29T13:17:52Z</time>
      </trkpt>
      <trkpt lat="39.899024" lon="116.647823">
        <time>2021-04-29T13:17:57Z</time>
      </trkpt>
      <trkpt lat="39.899021" lon="116.647669">
        <time>2021-04-29T13:18:02Z</time>
      </trkpt>
      <trkpt lat="39.89898" lon="116.647501">
        <time>2021-04-29T13:18:07Z</time>
      </trkpt>
      <trkpt lat="39.899023" lon="116.647325">
        <time>2021-04-29T13:18:12Z</time>
      </trkpt>
      <trkpt lat="39.899028" lon="116.647154">
        <time>2021-04-29T13:18:17Z</time>
      </trkpt>
      <trkpt lat="39.898965" lon="116.647016">
        <time>2021-04-29T13:18:22Z</time>
      </trkpt>
      <trkpt lat="39.898928" lon="116.646858">
        <time>2021-04-29T13:18:27Z</time>
      </trkpt>
      <trkpt lat="39.898889" lon="116.646765">
        <time>2021-04-29T13:18:32Z</time>
      </trkpt>
      <trkpt lat="39.898864" lon="116.646706">
        <time>2021-04-29T13:18:37Z</time>
      </trkpt>
      <trkpt lat="39.898835" lon="116.646594">
        <time>2021-04-29T13:18:42Z</time>
      </trkpt>
      <trkpt lat="39.89879" lon="116.646459">
        <time>2021-04-29T13:18:47Z</time>
      </trkpt>
      <trkpt lat="39.898753" lon="116.646308">
        <time>2021-04-29T13:18:52Z</time>
      </trkpt>
      <trkpt lat="39.898728" lon="116.646145">
        <time>2021-04-29T13:18:57Z</time>
      </trkpt>
      <trkpt lat="39.898682" lon="116.645957">
        <time>2021-04-29T13:19:02Z</time>
      </trkpt>
      <trkpt lat="39.898612" lon="116.64578">
        <time>2021-04-29T13:19:07Z</time>
      </trkpt>
      <trkpt lat="39.898547" lon="116.645606">
        <time>2021-04-29T13:19:12Z</time>
      </trkpt>
      <trkpt lat="39.898516" lon="116.645432">
        <time>2021-04-29T13:19:17Z</time>
      </trkpt>
      <trkpt lat="39.898507" lon="116.645281">
        <time>2021-04-29T13:19:22Z</time>
      </trkpt>
      <trkpt lat="39.898479" lon="116.645123">
        <time>2021-04-29T13:19:27Z</time>
      </trkpt>
      <trkpt lat="39.898442" lon="116.644964">
        <time>2021-04-29T13:19:32Z</time>
      </trkpt>
      <trkpt lat="39.898407" lon="116.644809">
        <time>2021-04-29T13:19:37Z</time>
      </trkpt>
      <trkpt lat="39.898387" lon="116.644641">
        <time>2021-04-29T13:19:42Z</time>
      </trkpt>
      <trkpt lat="39.898376" lon="116.644482">
        <time>2021-04-29T13:19:47Z</time>
      </trkpt>
      <trkpt lat="39.898328" lon="116.644326">
        <time>2021-04-29T13:19:52Z</time>
      </trkpt>
      <trkpt lat="39.898302" lon="116.644146">
        <time>2021-04-29T13:19:57Z</time>
      </trkpt>
      <trkpt lat="39.898305" lon="116.643981">
        <time>2021-04-29T13:20:02Z</time>
      </trkpt>
      <trkpt lat="39.898302" lon="116.643839">
        <time>2021-04-29T13:20:07Z</time>
      </trkpt>
      <trkpt lat="39.898298" lon="116.643781">
        <time>2021-04-29T13:20:12Z</time>
      </trkpt>
      <trkpt lat="39.8983" lon="116.643682">
        <time>2021-04-29T13:20:17Z</time>
      </trkpt>
      <trkpt lat="39.898315" lon="116.64357">
        <time>2021-04-29T13:20:22Z</time>
      </trkpt>
      <trkpt lat="39.898322" lon="116.643424">
        <time>2021-04-29T13:20:27Z</time>
      </trkpt>
      <trkpt lat="39.898311" lon="116.64327">
        <time>2021-04-29T13:20:32Z</time>
      </trkpt>
      <trkpt lat="39.898338" lon="116.64311">
        <time>2021-04-29T13:20:37Z</time>
      </trkpt>
      <trkpt lat="39.898323" lon="116.642937">
        <time>2021-04-29T13:20:42Z</time>
      </trkpt>
      <trkpt lat="39.898298" lon="116.642781">
        <time>2021-04-29T13:20:47Z</time>
      </trkpt>
      <trkpt lat="39.898307" lon="116.642612">
        <time>2021-04-29T13:20:52Z</time>
      </trkpt>
      <trkpt lat="39.898325" lon="116.642448">
        <time>2021-04-29T13:20:57Z</time>
      </trkpt>
      <trkpt lat="39.898325" lon="116.642286">
        <time>2021-04-29T13:21:02Z</time>
      </trkpt>
      <trkpt lat="39.898322" lon="116.642115">
        <time>2021-04-29T13:21:07Z</time>
      </trkpt>
      <trkpt lat="39.898346" lon="116.641929">
        <time>2021-04-29T13:21:12Z</time>
      </trkpt>
      <trkpt lat="39.89837" lon="116.641754">
        <time>2021-04-29T13:21:17Z</time>
      </trkpt>
      <trkpt lat="39.898412" lon="116.641601">
        <time>2021-04-29T13:21:22Z</time>
      </trkpt>
      <trkpt lat="39.898455" lon="116.641441">
        <time>2021-04-29T13:21:27Z</time>
      </trkpt>
      <trkpt lat="39.898381" lon="116.641303">
        <time>2021-04-29T13:21:32Z</time>
      </trkpt>
      <trkpt lat="39.898245" lon="116.641256">
        <time>2021-04-29T13:21:37Z</time>
      </trkpt>
      <trkpt lat="39.898125" lon="116.641199">
        <time>2021-04-29T13:21:42Z</time>
      </trkpt>
      <trkpt lat="39.898006" lon="116.641149">
        <time>2021-04-29T13:21:47Z</time>
      </trkpt>
      <trkpt lat="39.897869" lon="116.641122">
        <time>2021-04-29T13:21:52Z</time>
      </trkpt>
      <trkpt lat="39.897741" lon="116.641057">
        <time>2021-04-29T13:21:57Z</time>
      </trkpt>
      <trkpt lat="39.897632" lon="116.641015">
        <time>2021-04-29T13:22:02Z</time>
      </trkpt>
      <trkpt lat="39.897589" lon="116.640977">
        <time>2021-04-29T13:22:07Z</time>
      </trkpt>
      <trkpt lat="39.897526" lon="116.640955">
        <time>2021-04-29T13:22:12Z</time>
      </trkpt>
      <trkpt lat="39.897483" lon="116.640929">
        <time>2021-04-29T13:22:17Z</time>
      </trkpt>
      <trkpt lat="39.897431" lon="116.640896">
        <time>2021-04-29T13:22:22Z</time>
      </trkpt>
      <trkpt lat="39.897323" lon="116.640858">
        <time>2021-04-29T13:22:27Z</time>
      </trkpt>
      <trkpt lat="39.89718" lon="116.640784">
        <time>2021-04-29T13:22:32Z</time>
      </trkpt>
      <trkpt lat="39.897051" lon="116.640733">
        <time>2021-04-29T13:22:37Z</time>
      </trkpt>
      <trkpt lat="39.896939" lon="116.640669">
        <time>2021-04-29T13:22:42Z</time>
      </trkpt>
      <trkpt lat="39.896831" lon="116.640618">
        <time>2021-04-29T13:22:47Z</time>
      </trkpt>
      <trkpt lat="39.896714" lon="116.640559">
        <time>2021-04-29T13:22:52Z</time>
      </trkpt>
      <trkpt lat="39.896564" lon="116.640456">
        <time>2021-04-29T13:22:57Z</time>
      </trkpt>
      <trkpt lat="39.896497" lon="116.640424">
        <time>2021-04-29T13:23:02Z</time>
      </trkpt>
      <trkpt lat="39.896372" lon="116.640384">
        <time>2021-04-29T13:23:07Z</time>
      </trkpt>
      <trkpt lat="39.896259" lon="116.64014">
        <time>2021-04-29T13:23:12Z</time>
      </trkpt>
      <trkpt lat="39.896263" lon="116.640106">
        <time>2021-04-29T13:23:17Z</time>
      </trkpt>
      <trkpt lat="39.896266" lon="116.639928">
        <time>2021-04-29T13:23:22Z</time>
      </trkpt>
      <trkpt lat="39.896273" lon="116.639775">
        <time>2021-04-29T13:23:27Z</time>
      </trkpt>
      <trkpt lat="39.896292" lon="116.639656">
        <time>2021-04-29T13:23:32Z</time>
      </trkpt>
      <trkpt lat="39.896283" lon="116.639534">
        <time>2021-04-29T13:23:37Z</time>
      </trkpt>
      <trkpt lat="39.896283" lon="116.639437">
        <time>2021-04-29T13:23:42Z</time>
      </trkpt>
      <trkpt lat="39.896263" lon="116.639314">
        <time>2021-04-29T13:23:47Z</time>
      </trkpt>
      <trkpt lat="39.896263" lon="116.639209">
        <time>2021-04-29T13:23:52Z</time>
      </trkpt>
      <trkpt lat="39.896272" lon="116.639071">
        <time>2021-04-29T13:23:57Z</time>
      </trkpt>
      <trkpt lat="39.896279" lon="116.638932">
        <time>2021-04-29T13:24:02Z</time>
      </trkpt>
      <trkpt lat="39.896254" lon="116.63874">
        <time>2021-04-29T13:24:07Z</time>
      </trkpt>
      <trkpt lat="39.896229" lon="116.638562">
        <time>2021-04-29T13:24:12Z</time>
      </trkpt>
      <trkpt lat="39.896245" lon="116.638423">
        <time>2021-04-29T13:24:17Z</time>
      </trkpt>
      <trkpt lat="39.896232" lon="116.638266">
        <time>2021-04-29T13:24:22Z</time>
      </trkpt>
      <trkpt lat="39.896215" lon="116.638108">
        <time>2021-04-29T13:24:27Z</time>
      </trkpt>
      <trkpt lat="39.896185" lon="116.637921">
        <time>2021-04-29T13:24:32Z</time>
      </trkpt>
      <trkpt lat="39.896186" lon="116.637772">
        <time>2021-04-29T13:24:37Z</time>
      </trkpt>
      <trkpt lat="39.896177" lon="116.637578">
        <time>2021-04-29T13:24:42Z</time>
      </trkpt>
      <trkpt lat="39.896165" lon="116.637386">
        <time>2021-04-29T13:24:47Z</time>
      </trkpt>
      <trkpt lat="39.896147" lon="116.637255">
        <time>2021-04-29T13:24:52Z</time>
      </trkpt>
      <trkpt lat="39.89613" lon="116.637148">
        <time>2021-04-29T13:24:57Z</time>
      </trkpt>
      <trkpt lat="39.896129" lon="116.637056">
        <time>2021-04-29T13:25:02Z</time>
      </trkpt>
      <trkpt lat="39.896113" lon="116.636947">
        <time>2021-04-29T13:25:07Z</time>
      </trkpt>
      <trkpt lat="39.896099" lon="116.636836">
        <time>2021-04-29T13:25:12Z</time>
      </trkpt>
      <trkpt lat="39.896065" lon="116.636755">
        <time>2021-04-29T13:25:17Z</time>
      </trkpt>
      <trkpt lat="39.896013" lon="116.636694">
        <time>2021-04-29T13:25:22Z</time>
      </trkpt>
      <trkpt lat="39.896052" lon="116.636834">
        <time>2021-04-29T13:25:27Z</time>
      </trkpt>
      <trkpt lat="39.896098" lon="116.636991">
        <time>2021-04-29T13:25:32Z</time>
      </trkpt>
      <trkpt lat="39.896123" lon="116.637151">
        <time>2021-04-29T13:25:37Z</time>
      </trkpt>
      <trkpt lat="39.896113" lon="116.637334">
        <time>2021-04-29T13:25:42Z</time>
      </trkpt>
      <trkpt lat="39.896112" lon="116.637517">
        <time>2021-04-29T13:25:47Z</time>
      </trkpt>
      <trkpt lat="39.896125" lon="116.637703">
        <time>2021-04-29T13:25:52Z</time>
      </trkpt>
      <trkpt lat="39.896162" lon="116.637878">
        <time>2021-04-29T13:25:57Z</time>
      </trkpt>
      <trkpt lat="39.896171" lon="116.638038">
        <time>2021-04-29T13:26:02Z</time>
      </trkpt>
      <trkpt lat="39.896149" lon="116.638206">
        <time>2021-04-29T13:26:07Z</time>
      </trkpt>
      <trkpt lat="39.896152" lon="116.638347">
        <time>2021-04-29T13:26:12Z</time>
      </trkpt>
      <trkpt lat="39.896164" lon="116.638456">
        <time>2021-04-29T13:26:17Z</time>
      </trkpt>
      <trkpt lat="39.896167" lon="116.638549">
        <time>2021-04-29T13:26:22Z</time>
      </trkpt>
      <trkpt lat="39.896145" lon="116.638663">
        <time>2021-04-29T13:26:27Z</time>
      </trkpt>
      <trkpt lat="39.896145" lon="116.638824">
        <time>2021-04-29T13:26:32Z</time>
      </trkpt>
      <trkpt lat="39.896168" lon="116.638981">
        <time>2021-04-29T13:26:37Z</time>
      </trkpt>
      <trkpt lat="39.896196" lon="116.639152">
        <time>2021-04-29T13:26:42Z</time>
      </trkpt>
      <trkpt lat="39.896214" lon="116.639338">
        <time>2021-04-29T13:26:47Z</time>
      </trkpt>
      <trkpt lat="39.896244" lon="116.639596">
        <time>2021-04-29T13:26:52Z</time>
      </trkpt>
      <trkpt lat="39.896242" lon="116.639714">
        <time>2021-04-29T13:26:57Z</time>
      </trkpt>
      <trkpt lat="39.896232" lon="116.639892">
        <time>2021-04-29T13:27:02Z</time>
      </trkpt>
      <trkpt lat="39.896221" lon="116.640097">
        <time>2021-04-29T13:27:07Z</time>
      </trkpt>
      <trkpt lat="39.896218" lon="116.640283">
        <time>2021-04-29T13:27:12Z</time>
      </trkpt>
      <trkpt lat="39.896226" lon="116.640486">
        <time>2021-04-29T13:27:17Z</time>
      </trkpt>
      <trkpt lat="39.896242" lon="116.640775">
        <time>2021-04-29T13:27:22Z</time>
      </trkpt>
      <trkpt lat="39.896249" lon="116.64083">
        <time>2021-04-29T13:27:27Z</time>
      </trkpt>
      <trkpt lat="39.896236" lon="116.640935">
        <time>2021-04-29T13:27:32Z</time>
      </trkpt>
      <trkpt lat="39.896216" lon="116.641027">
        <time>2021-04-29T13:27:37Z</time>
      </trkpt>
      <trkpt lat="39.896213" lon="116.641157">
        <time>2021-04-29T13:27:42Z</time>
      </trkpt>
      <trkpt lat="39.896209" lon="116.641302">
        <time>2021-04-29T13:27:47Z</time>
      </trkpt>
      <trkpt lat="39.896205" lon="116.641441">
        <time>2021-04-29T13:27:52Z</time>
      </trkpt>
      <trkpt lat="39.896204" lon="116.641618">
        <time>2021-04-29T13:27:57Z</time>
      </trkpt>
      <trkpt lat="39.896216" lon="116.641785">
        <time>2021-04-29T13:28:02Z</time>
      </trkpt>
      <trkpt lat="39.896198" lon="116.641949">
        <time>2021-04-29T13:28:07Z</time>
      </trkpt>
      <trkpt lat="39.896176" lon="116.642201">
        <time>2021-04-29T13:28:12Z</time>
      </trkpt>
      <trkpt lat="39.896173" lon="116.642269">
        <time>2021-04-29T13:28:17Z</time>
      </trkpt>
      <trkpt lat="39.896177" lon="116.642445">
        <time>2021-04-29T13:28:22Z</time>
      </trkpt>
      <trkpt lat="39.896186" lon="116.642632">
        <time>2021-04-29T13:28:27Z</time>
      </trkpt>
      <trkpt lat="39.89618" lon="116.642892">
        <time>2021-04-29T13:28:32Z</time>
      </trkpt>
      <trkpt lat="39.896169" lon="116.642943">
        <time>2021-04-29T13:28:37Z</time>
      </trkpt>
      <trkpt lat="39.896169" lon="116.643018">
        <time>2021-04-29T13:28:42Z</time>
      </trkpt>
      <trkpt lat="39.896153" lon="116.643349">
        <time>2021-04-29T13:28:47Z</time>
      </trkpt>
      <trkpt lat="39.896158" lon="116.643461">
        <time>2021-04-29T13:28:52Z</time>
      </trkpt>
      <trkpt lat="39.896173" lon="116.643638">
        <time>2021-04-29T13:28:57Z</time>
      </trkpt>
      <trkpt lat="39.896168" lon="116.643843">
        <time>2021-04-29T13:29:02Z</time>
      </trkpt>
      <trkpt lat="39.896163" lon="116.643981">
        <time>2021-04-29T13:29:07Z</time>
      </trkpt>
      <trkpt lat="39.896172" lon="116.644144">
        <time>2021-04-29T13:29:12Z</time>
      </trkpt>
      <trkpt lat="39.896182" lon="116.644301">
        <time>2021-04-29T13:29:17Z</time>
      </trkpt>
      <trkpt lat="39.896157" lon="116.64458">
        <time>2021-04-29T13:29:22Z</time>
      </trkpt>
      <trkpt lat="39.896158" lon="116.644652">
        <time>2021-04-29T13:29:27Z</time>
      </trkpt>
      <trkpt lat="39.896154" lon="116.6448">
        <time>2021-04-29T13:29:32Z</time>
      </trkpt>
      <trkpt lat="39.89614" lon="116.644912">
        <time>2021-04-29T13:29:37Z</time>
      </trkpt>
      <trkpt lat="39.896142" lon="116.645028">
        <time>2021-04-29T13:29:42Z</time>
      </trkpt>
      <trkpt lat="39.896136" lon="116.645115">
        <time>2021-04-29T13:29:47Z</time>
      </trkpt>
      <trkpt lat="39.896141" lon="116.645254">
        <time>2021-04-29T13:29:52Z</time>
      </trkpt>
      <trkpt lat="39.89615" lon="116.645356">
        <time>2021-04-29T13:29:57Z</time>
      </trkpt>
      <trkpt lat="39.896114" lon="116.645481">
        <time>2021-04-29T13:30:02Z</time>
      </trkpt>
      <trkpt lat="39.896075" lon="116.645641">
        <time>2021-04-29T13:30:07Z</time>
      </trkpt>
      <trkpt lat="39.896047" lon="116.645819">
        <time>2021-04-29T13:30:12Z</time>
      </trkpt>
      <trkpt lat="39.89604" lon="116.646009">
        <time>2021-04-29T13:30:17Z</time>
      </trkpt>
      <trkpt lat="39.896039" lon="116.646184">
        <time>2021-04-29T13:30:22Z</time>
      </trkpt>
      <trkpt lat="39.896012" lon="116.646368">
        <time>2021-04-29T13:30:27Z</time>
      </trkpt>
      <trkpt lat="39.896001" lon="116.646524">
        <time>2021-04-29T13:30:32Z</time>
      </trkpt>
      <trkpt lat="39.895992" lon="116.646693">
        <time>2021-04-29T13:30:37Z</time>
      </trkpt>
      <trkpt lat="39.895978" lon="116.646867">
        <time>2021-04-29T13:30:42Z</time>
      </trkpt>
      <trkpt lat="39.895959" lon="116.647031">
        <time>2021-04-29T13:30:47Z</time>
      </trkpt>
      <trkpt lat="39.895924" lon="116.647046">
        <time>2021-04-29T13:30:52Z</time>
      </trkpt>
      <trkpt lat="39.895924" lon="116.647046">
        <time>2021-04-29T13:30:57Z</time>
      </trkpt>
      <trkpt lat="39.895924" lon="116.647046">
        <time>2021-04-29T13:31:02Z</time>
      </trkpt>
      <trkpt lat="39.895914" lon="116.64703">
        <time>2021-04-29T13:31:07Z</time>
      </trkpt>
      <trkpt lat="39.895904" lon="116.647019">
        <time>2021-04-29T13:31:12Z</time>
      </trkpt>
      <trkpt lat="39.895941" lon="116.647026">
        <time>2021-04-29T13:31:17Z</time>
      </trkpt>
      <trkpt lat="39.895955" lon="116.647139">
        <time>2021-04-29T13:31:22Z</time>
      </trkpt>
      <trkpt lat="39.895831" lon="116.647212">
        <time>2021-04-29T13:31:27Z</time>
      </trkpt>
      <trkpt lat="39.89574" lon="116.64734">
        <time>2021-04-29T13:31:32Z</time>
      </trkpt>
      <trkpt lat="39.895707" lon="116.647533">
        <time>2021-04-29T13:31:37Z</time>
      </trkpt>
      <trkpt lat="39.895666" lon="116.647702">
        <time>2021-04-29T13:31:42Z</time>
      </trkpt>
      <trkpt lat="39.895664" lon="116.647974">
        <time>2021-04-29T13:31:47Z</time>
      </trkpt>
      <trkpt lat="39.895655" lon="116.64803">
        <time>2021-04-29T13:31:52Z</time>
      </trkpt>
      <trkpt lat="39.89565" lon="116.648171">
        <time>2021-04-29T13:31:57Z</time>
      </trkpt>
      <trkpt lat="39.895667" lon="116.648331">
        <time>2021-04-29T13:32:02Z</time>
      </trkpt>
      <trkpt lat="39.89566" lon="116.648482">
        <time>2021-04-29T13:32:07Z</time>
      </trkpt>
      <trkpt lat="39.895736" lon="116.648523">
        <time>2021-04-29T13:32:12Z</time>
      </trkpt>
      <trkpt lat="39.895833" lon="116.648443">
        <time>2021-04-29T13:32:17Z</time>
      </trkpt>
      <trkpt lat="39.89591" lon="116.648277">
        <time>2021-04-29T13:32:22Z</time>
      </trkpt>
      <trkpt lat="39.895949" lon="116.64808">
        <time>2021-04-29T13:32:27Z</time>
      </trkpt>
      <trkpt lat="39.89595" lon="116.647884">
        <time>2021-04-29T13:32:32Z</time>
      </trkpt>
      <trkpt lat="39.895927" lon="116.64768">
        <time>2021-04-29T13:32:37Z</time>
      </trkpt>
      <trkpt lat="39.895997" lon="116.647529">
        <time>2021-04-29T13:32:42Z</time>
      </trkpt>
      <trkpt lat="39.896026" lon="116.647367">
        <time>2021-04-29T13:32:47Z</time>
      </trkpt>
      <trkpt lat="39.896001" lon="116.647196">
        <time>2021-04-29T13:32:52Z</time>
      </trkpt>
      <trkpt lat="39.895866" lon="116.647142">
        <time>2021-04-29T13:32:57Z</time>
      </trkpt>
      <trkpt lat="39.895763" lon="116.647303">
        <time>2021-04-29T13:33:02Z</time>
      </trkpt>
      <trkpt lat="39.8957" lon="116.647467">
        <time>2021-04-29T13:33:07Z</time>
      </trkpt>
      <trkpt lat="39.895662" lon="116.647619">
        <time>2021-04-29T13:33:12Z</time>
      </trkpt>
      <trkpt lat="39.895662" lon="116.647802">
        <time>2021-04-29T13:33:17Z</time>
      </trkpt>
      <trkpt lat="39.895655" lon="116.647996">
        <time>2021-04-29T13:33:22Z</time>
      </trkpt>
      <trkpt lat="39.895654" lon="116.648167">
        <time>2021-04-29T13:33:27Z</time>
      </trkpt>
      <trkpt lat="39.895658" lon="116.648344">
        <time>2021-04-29T13:33:32Z</time>
      </trkpt>
      <trkpt lat="39.895655" lon="116.648499">
        <time>2021-04-29T13:33:37Z</time>
      </trkpt>
      <trkpt lat="39.895782" lon="116.648515">
        <time>2021-04-29T13:33:42Z</time>
      </trkpt>
      <trkpt lat="39.895848" lon="116.648352">
        <time>2021-04-29T13:33:47Z</time>
      </trkpt>
      <trkpt lat="39.895896" lon="116.648143">
        <time>2021-04-29T13:33:52Z</time>
      </trkpt>
      <trkpt lat="39.895919" lon="116.647936">
        <time>2021-04-29T13:33:57Z</time>
      </trkpt>
      <trkpt lat="39.89591" lon="116.647764">
        <time>2021-04-29T13:34:02Z</time>
      </trkpt>
      <trkpt lat="39.895936" lon="116.647646">
        <time>2021-04-29T13:34:07Z</time>
      </trkpt>
      <trkpt lat="39.895979" lon="116.647499">
        <time>2021-04-29T13:34:12Z</time>
      </trkpt>
      <trkpt lat="39.895969" lon="116.647327">
        <time>2021-04-29T13:34:17Z</time>
      </trkpt>
      <trkpt lat="39.895962" lon="116.647168">
        <time>2021-04-29T13:34:22Z</time>
      </trkpt>
      <trkpt lat="39.89583" lon="116.647139">
        <time>2021-04-29T13:34:27Z</time>
      </trkpt>
      <trkpt lat="39.895745" lon="116.647306">
        <time>2021-04-29T13:34:32Z</time>
      </trkpt>
      <trkpt lat="39.895671" lon="116.647483">
        <time>2021-04-29T13:34:37Z</time>
      </trkpt>
      <trkpt lat="39.89565" lon="116.647672">
        <time>2021-04-29T13:34:42Z</time>
      </trkpt>
      <trkpt lat="39.895646" lon="116.64793">
        <time>2021-04-29T13:34:47Z</time>
      </trkpt>
      <trkpt lat="39.895643" lon="116.647983">
        <time>2021-04-29T13:34:52Z</time>
      </trkpt>
      <trkpt lat="39.895631" lon="116.648165">
        <time>2021-04-29T13:34:57Z</time>
      </trkpt>
      <trkpt lat="39.895645" lon="116.648348">
        <time>2021-04-29T13:35:02Z</time>
      </trkpt>
      <trkpt lat="39.895667" lon="116.648501">
        <time>2021-04-29T13:35:07Z</time>
      </trkpt>
      <trkpt lat="39.895808" lon="116.648459">
        <time>2021-04-29T13:35:12Z</time>
      </trkpt>
      <trkpt lat="39.895876" lon="116.648299">
        <time>2021-04-29T13:35:17Z</time>
      </trkpt>
      <trkpt lat="39.895904" lon="116.648114">
        <time>2021-04-29T13:35:22Z</time>
      </trkpt>
      <trkpt lat="39.895935" lon="116.64796">
        <time>2021-04-29T13:35:27Z</time>
      </trkpt>
      <trkpt lat="39.895928" lon="116.647813">
        <time>2021-04-29T13:35:32Z</time>
      </trkpt>
      <trkpt lat="39.895955" lon="116.647673">
        <time>2021-04-29T13:35:37Z</time>
      </trkpt>
      <trkpt lat="39.895997" lon="116.647527">
        <time>2021-04-29T13:35:42Z</time>
      </trkpt>
      <trkpt lat="39.895982" lon="116.647334">
        <time>2021-04-29T13:35:47Z</time>
      </trkpt>
      <trkpt lat="39.895949" lon="116.647151">
        <time>2021-04-29T13:35:52Z</time>
      </trkpt>
      <trkpt lat="39.895828" lon="116.647142">
        <time>2021-04-29T13:35:57Z</time>
      </trkpt>
      <trkpt lat="39.895739" lon="116.647303">
        <time>2021-04-29T13:36:02Z</time>
      </trkpt>
      <trkpt lat="39.895666" lon="116.64748">
        <time>2021-04-29T13:36:07Z</time>
      </trkpt>
      <trkpt lat="39.89563" lon="116.647658">
        <time>2021-04-29T13:36:12Z</time>
      </trkpt>
      <trkpt lat="39.895639" lon="116.647913">
        <time>2021-04-29T13:36:17Z</time>
      </trkpt>
      <trkpt lat="39.895649" lon="116.648007">
        <time>2021-04-29T13:36:22Z</time>
      </trkpt>
      <trkpt lat="39.895649" lon="116.648157">
        <time>2021-04-29T13:36:27Z</time>
      </trkpt>
      <trkpt lat="39.895653" lon="116.648305">
        <time>2021-04-29T13:36:32Z</time>
      </trkpt>
      <trkpt lat="39.895653" lon="116.648455">
        <time>2021-04-29T13:36:37Z</time>
      </trkpt>
      <trkpt lat="39.895764" lon="116.648495">
        <time>2021-04-29T13:36:42Z</time>
      </trkpt>
      <trkpt lat="39.895859" lon="116.648336">
        <time>2021-04-29T13:36:47Z</time>
      </trkpt>
      <trkpt lat="39.895906" lon="116.648139">
        <time>2021-04-29T13:36:52Z</time>
      </trkpt>
      <trkpt lat="39.895953" lon="116.647989">
        <time>2021-04-29T13:36:57Z</time>
      </trkpt>
      <trkpt lat="39.895968" lon="116.647817">
        <time>2021-04-29T13:37:02Z</time>
      </trkpt>
      <trkpt lat="39.895973" lon="116.647648">
        <time>2021-04-29T13:37:07Z</time>
      </trkpt>
      <trkpt lat="39.895976" lon="116.647455">
        <time>2021-04-29T13:37:12Z</time>
      </trkpt>
      <trkpt lat="39.895964" lon="116.647271">
        <time>2021-04-29T13:37:17Z</time>
      </trkpt>
      <trkpt lat="39.895871" lon="116.647162">
        <time>2021-04-29T13:37:22Z</time>
      </trkpt>
      <trkpt lat="39.89576" lon="116.647314">
        <time>2021-04-29T13:37:27Z</time>
      </trkpt>
      <trkpt lat="39.895724" lon="116.647495">
        <time>2021-04-29T13:37:32Z</time>
      </trkpt>
      <trkpt lat="39.895675" lon="116.647652">
        <time>2021-04-29T13:37:37Z</time>
      </trkpt>
      <trkpt lat="39.895667" lon="116.647967">
        <time>2021-04-29T13:37:42Z</time>
      </trkpt>
      <trkpt lat="39.895666" lon="116.648">
        <time>2021-04-29T13:37:47Z</time>
      </trkpt>
      <trkpt lat="39.89569" lon="116.648152">
        <time>2021-04-29T13:37:52Z</time>
      </trkpt>
      <trkpt lat="39.895683" lon="116.648253">
        <time>2021-04-29T13:37:57Z</time>
      </trkpt>
      <trkpt lat="39.895687" lon="116.648326">
        <time>2021-04-29T13:38:02Z</time>
      </trkpt>
      <trkpt lat="39.895677" lon="116.648425">
        <time>2021-04-29T13:38:07Z</time>
      </trkpt>
      <trkpt lat="39.895697" lon="116.64851">
        <time>2021-04-29T13:38:12Z</time>
      </trkpt>
      <trkpt lat="39.895774" lon="116.648512">
        <time>2021-04-29T13:38:17Z</time>
      </trkpt>
      <trkpt lat="39.895838" lon="116.648407">
        <time>2021-04-29T13:38:22Z</time>
      </trkpt>
      <trkpt lat="39.895887" lon="116.648278">
        <time>2021-04-29T13:38:27Z</time>
      </trkpt>
      <trkpt lat="39.895912" lon="116.648123">
        <time>2021-04-29T13:38:32Z</time>
      </trkpt>
      <trkpt lat="39.89592" lon="116.647937">
        <time>2021-04-29T13:38:37Z</time>
      </trkpt>
      <trkpt lat="39.895906" lon="116.647724">
        <time>2021-04-29T13:38:42Z</time>
      </trkpt>
      <trkpt lat="39.895912" lon="116.647539">
        <time>2021-04-29T13:38:47Z</time>
      </trkpt>
      <trkpt lat="39.895943" lon="116.647368">
        <time>2021-04-29T13:38:52Z</time>
      </trkpt>
      <trkpt lat="39.895943" lon="116.647197">
        <time>2021-04-29T13:38:57Z</time>
      </trkpt>
      <trkpt lat="39.895875" lon="116.647107">
        <time>2021-04-29T13:39:02Z</time>
      </trkpt>
      <trkpt lat="39.895776" lon="116.647247">
        <time>2021-04-29T13:39:07Z</time>
      </trkpt>
      <trkpt lat="39.895732" lon="116.647447">
        <time>2021-04-29T13:39:12Z</time>
      </trkpt>
      <trkpt lat="39.895679" lon="116.64761">
        <time>2021-04-29T13:39:17Z</time>
      </trkpt>
      <trkpt lat="39.895671" lon="116.647786">
        <time>2021-04-29T13:39:22Z</time>
      </trkpt>
      <trkpt lat="39.895661" lon="116.64797">
        <time>2021-04-29T13:39:27Z</time>
      </trkpt>
      <trkpt lat="39.895655" lon="116.648134">
        <time>2021-04-29T13:39:32Z</time>
      </trkpt>
      <trkpt lat="39.895637" lon="116.648268">
        <time>2021-04-29T13:39:37Z</time>
      </trkpt>
      <trkpt lat="39.895646" lon="116.648443">
        <time>2021-04-29T13:39:42Z</time>
      </trkpt>
      <trkpt lat="39.895723" lon="116.648529">
        <time>2021-04-29T13:39:47Z</time>
      </trkpt>
      <trkpt lat="39.895818" lon="116.648431">
        <time>2021-04-29T13:39:52Z</time>
      </trkpt>
      <trkpt lat="39.895862" lon="116.648218">
        <time>2021-04-29T13:39:57Z</time>
      </trkpt>
      <trkpt lat="39.895884" lon="116.648076">
        <time>2021-04-29T13:40:02Z</time>
      </trkpt>
      <trkpt lat="39.895927" lon="116.647981">
        <time>2021-04-29T13:40:07Z</time>
      </trkpt>
      <trkpt lat="39.895947" lon="116.647893">
        <time>2021-04-29T13:40:12Z</time>
      </trkpt>
      <trkpt lat="39.895965" lon="116.647794">
        <time>2021-04-29T13:40:17Z</time>
      </trkpt>
      <trkpt lat="39.89598" lon="116.647677">
        <time>2021-04-29T13:40:22Z</time>
      </trkpt>
      <trkpt lat="39.895959" lon="116.647528">
        <time>2021-04-29T13:40:27Z</time>
      </trkpt>
      <trkpt lat="39.895937" lon="116.647352">
        <time>2021-04-29T13:40:32Z</time>
      </trkpt>
      <trkpt lat="39.895914" lon="116.647128">
        <time>2021-04-29T13:40:37Z</time>
      </trkpt>
      <trkpt lat="39.895916" lon="116.646921">
        <time>2021-04-29T13:40:42Z</time>
      </trkpt>
      <trkpt lat="39.895969" lon="116.646799">
        <time>2021-04-29T13:40:47Z</time>
      </trkpt>
      <trkpt lat="39.895995" lon="116.646639">
        <time>2021-04-29T13:40:52Z</time>
      </trkpt>
      <trkpt lat="39.896016" lon="116.646459">
        <time>2021-04-29T13:40:57Z</time>
      </trkpt>
      <trkpt lat="39.896017" lon="116.646287">
        <time>2021-04-29T13:41:02Z</time>
      </trkpt>
      <trkpt lat="39.896043" lon="116.646157">
        <time>2021-04-29T13:41:07Z</time>
      </trkpt>
      <trkpt lat="39.896048" lon="116.646063">
        <time>2021-04-29T13:41:12Z</time>
      </trkpt>
      <trkpt lat="39.896055" lon="116.64595">
        <time>2021-04-29T13:41:17Z</time>
      </trkpt>
      <trkpt lat="39.896081" lon="116.645867">
        <time>2021-04-29T13:41:22Z</time>
      </trkpt>
      <trkpt lat="39.896107" lon="116.645779">
        <time>2021-04-29T13:41:27Z</time>
      </trkpt>
      <trkpt lat="39.896118" lon="116.645671">
        <time>2021-04-29T13:41:32Z</time>
      </trkpt>
      <trkpt lat="39.896155" lon="116.645562">
        <time>2021-04-29T13:41:37Z</time>
      </trkpt>
      <trkpt lat="39.896177" lon="116.645443">
        <time>2021-04-29T13:41:42Z</time>
      </trkpt>
      <trkpt lat="39.896199" lon="116.645313">
        <time>2021-04-29T13:41:47Z</time>
      </trkpt>
      <trkpt lat="39.896198" lon="116.645149">
        <time>2021-04-29T13:41:52Z</time>
      </trkpt>
      <trkpt lat="39.896202" lon="116.644972">
        <time>2021-04-29T13:41:57Z</time>
      </trkpt>
      <trkpt lat="39.89621" lon="116.644783">
        <time>2021-04-29T13:42:02Z</time>
      </trkpt>
      <trkpt lat="39.896213" lon="116.644607">
        <time>2021-04-29T13:42:07Z</time>
      </trkpt>
      <trkpt lat="39.896214" lon="116.644429">
        <time>2021-04-29T13:42:12Z</time>
      </trkpt>
      <trkpt lat="39.896221" lon="116.644275">
        <time>2021-04-29T13:42:17Z</time>
      </trkpt>
      <trkpt lat="39.896221" lon="116.644113">
        <time>2021-04-29T13:42:22Z</time>
      </trkpt>
      <trkpt lat="39.896219" lon="116.643955">
        <time>2021-04-29T13:42:27Z</time>
      </trkpt>
      <trkpt lat="39.896198" lon="116.643732">
        <time>2021-04-29T13:42:32Z</time>
      </trkpt>
      <trkpt lat="39.896197" lon="116.643623">
        <time>2021-04-29T13:42:37Z</time>
      </trkpt>
      <trkpt lat="39.896175" lon="116.643473">
        <time>2021-04-29T13:42:42Z</time>
      </trkpt>
      <trkpt lat="39.896151" lon="116.643314">
        <time>2021-04-29T13:42:47Z</time>
      </trkpt>
      <trkpt lat="39.896178" lon="116.643109">
        <time>2021-04-29T13:42:52Z</time>
      </trkpt>
      <trkpt lat="39.896197" lon="116.642985">
        <time>2021-04-29T13:42:57Z</time>
      </trkpt>
      <trkpt lat="39.896207" lon="116.642827">
        <time>2021-04-29T13:43:02Z</time>
      </trkpt>
      <trkpt lat="39.896195" lon="116.642672">
        <time>2021-04-29T13:43:07Z</time>
      </trkpt>
      <trkpt lat="39.896203" lon="116.642533">
        <time>2021-04-29T13:43:12Z</time>
      </trkpt>
      <trkpt lat="39.896229" lon="116.642389">
        <time>2021-04-29T13:43:17Z</time>
      </trkpt>
      <trkpt lat="39.896227" lon="116.642298">
        <time>2021-04-29T13:43:22Z</time>
      </trkpt>
      <trkpt lat="39.896221" lon="116.642224">
        <time>2021-04-29T13:43:27Z</time>
      </trkpt>
      <trkpt lat="39.896243" lon="116.64213">
        <time>2021-04-29T13:43:32Z</time>
      </trkpt>
      <trkpt lat="39.896248" lon="116.642029">
        <time>2021-04-29T13:43:37Z</time>
      </trkpt>
      <trkpt lat="39.896224" lon="116.641894">
        <time>2021-04-29T13:43:42Z</time>
      </trkpt>
      <trkpt lat="39.896245" lon="116.641759">
        <time>2021-04-29T13:43:47Z</time>
      </trkpt>
      <trkpt lat="39.896245" lon="116.641629">
        <time>2021-04-29T13:43:52Z</time>
      </trkpt>
      <trkpt lat="39.896228" lon="116.641447">
        <time>2021-04-29T13:43:57Z</time>
      </trkpt>
      <trkpt lat="39.896206" lon="116.641266">
        <time>2021-04-29T13:44:02Z</time>
      </trkpt>
      <trkpt lat="39.896237" lon="116.641086">
        <time>2021-04-29T13:44:07Z</time>
      </trkpt>
      <trkpt lat="39.89627" lon="116.640913">
        <time>2021-04-29T13:44:12Z</time>
      </trkpt>
      <trkpt lat="39.896285" lon="116.640734">
        <time>2021-04-29T13:44:17Z</time>
      </trkpt>
      <trkpt lat="39.896294" lon="116.640555">
        <time>2021-04-29T13:44:22Z</time>
      </trkpt>
      <trkpt lat="39.896309" lon="116.640419">
        <time>2021-04-29T13:44:27Z</time>
      </trkpt>
      <trkpt lat="39.896325" lon="116.640215">
        <time>2021-04-29T13:44:32Z</time>
      </trkpt>
      <trkpt lat="39.896334" lon="116.640118">
        <time>2021-04-29T13:44:37Z</time>
      </trkpt>
      <trkpt lat="39.896314" lon="116.639919">
        <time>2021-04-29T13:44:42Z</time>
      </trkpt>
      <trkpt lat="39.896275" lon="116.639712">
        <time>2021-04-29T13:44:47Z</time>
      </trkpt>
      <trkpt lat="39.896231" lon="116.639481">
        <time>2021-04-29T13:44:52Z</time>
      </trkpt>
      <trkpt lat="39.896219" lon="116.639301">
        <time>2021-04-29T13:44:57Z</time>
      </trkpt>
      <trkpt lat="39.896229" lon="116.63913">
        <time>2021-04-29T13:45:02Z</time>
      </trkpt>
      <trkpt lat="39.89623" lon="116.638978">
        <time>2021-04-29T13:45:07Z</time>
      </trkpt>
      <trkpt lat="39.896216" lon="116.638832">
        <time>2021-04-29T13:45:12Z</time>
      </trkpt>
      <trkpt lat="39.896211" lon="116.638651">
        <time>2021-04-29T13:45:17Z</time>
      </trkpt>
      <trkpt lat="39.896189" lon="116.63853">
        <time>2021-04-29T13:45:22Z</time>
      </trkpt>
      <trkpt lat="39.896167" lon="116.638426">
        <time>2021-04-29T13:45:27Z</time>
      </trkpt>
      <trkpt lat="39.896152" lon="116.638392">
        <time>2021-04-29T13:45:32Z</time>
      </trkpt>
      <trkpt lat="39.896161" lon="116.638308">
        <time>2021-04-29T13:45:37Z</time>
      </trkpt>
      <trkpt lat="39.896158" lon="116.638192">
        <time>2021-04-29T13:45:42Z</time>
      </trkpt>
      <trkpt lat="39.896166" lon="116.638084">
        <time>2021-04-29T13:45:47Z</time>
      </trkpt>
      <trkpt lat="39.896172" lon="116.638019">
        <time>2021-04-29T13:45:52Z</time>
      </trkpt>
      <trkpt lat="39.896147" lon="116.6379">
        <time>2021-04-29T13:45:57Z</time>
      </trkpt>
      <trkpt lat="39.896169" lon="116.637758">
        <time>2021-04-29T13:46:02Z</time>
      </trkpt>
      <trkpt lat="39.896174" lon="116.637606">
        <time>2021-04-29T13:46:07Z</time>
      </trkpt>
      <trkpt lat="39.896162" lon="116.637423">
        <time>2021-04-29T13:46:12Z</time>
      </trkpt>
      <trkpt lat="39.896147" lon="116.637243">
        <time>2021-04-29T13:46:17Z</time>
      </trkpt>
      <trkpt lat="39.896119" lon="116.637077">
        <time>2021-04-29T13:46:22Z</time>
      </trkpt>
      <trkpt lat="39.896094" lon="116.636907">
        <time>2021-04-29T13:46:27Z</time>
      </trkpt>
      <trkpt lat="39.896068" lon="116.636734">
        <time>2021-04-29T13:46:32Z</time>
      </trkpt>
      <trkpt lat="39.896018" lon="116.63662">
        <time>2021-04-29T13:46:37Z</time>
      </trkpt>
      <trkpt lat="39.8959" lon="116.636531">
        <time>2021-04-29T13:46:42Z</time>
      </trkpt>
      <trkpt lat="39.895877" lon="116.636415">
        <time>2021-04-29T13:46:47Z</time>
      </trkpt>
      <trkpt lat="39.896044" lon="116.636364">
        <time>2021-04-29T13:46:52Z</time>
      </trkpt>
      <trkpt lat="39.8962" lon="116.636294">
        <time>2021-04-29T13:46:57Z</time>
      </trkpt>
      <trkpt lat="39.896315" lon="116.636195">
        <time>2021-04-29T13:47:02Z</time>
      </trkpt>
      <trkpt lat="39.896425" lon="116.636091">
        <time>2021-04-29T13:47:07Z</time>
      </trkpt>
      <trkpt lat="39.896545" lon="116.635954">
        <time>2021-04-29T13:47:12Z</time>
      </trkpt>
      <trkpt lat="39.896702" lon="116.635895">
        <time>2021-04-29T13:47:17Z</time>
      </trkpt>
      <trkpt lat="39.896842" lon="116.635778">
        <time>2021-04-29T13:47:22Z</time>
      </trkpt>
      <trkpt lat="39.896988" lon="116.635767">
        <time>2021-04-29T13:47:27Z</time>
      </trkpt>
      <trkpt lat="39.897122" lon="116.635769">
        <time>2021-04-29T13:47:32Z</time>
      </trkpt>
      <trkpt lat="39.897238" lon="116.635721">
        <time>2021-04-29T13:47:37Z</time>
      </trkpt>
      <trkpt lat="39.897339" lon="116.635606">
        <time>2021-04-29T13:47:42Z</time>
      </trkpt>
      <trkpt lat="39.897465" lon="116.635419">
        <time>2021-04-29T13:47:47Z</time>
      </trkpt>
      <trkpt lat="39.897554" lon="116.635369">
        <time>2021-04-29T13:47:52Z</time>
      </trkpt>
      <trkpt lat="39.89758" lon="116.635372">
        <time>2021-04-29T13:47:57Z</time>
      </trkpt>
      <trkpt lat="39.897651" lon="116.635379">
        <time>2021-04-29T13:48:02Z</time>
      </trkpt>
      <trkpt lat="39.897717" lon="116.63538">
        <time>2021-04-29T13:48:07Z</time>
      </trkpt>
      <trkpt lat="39.897775" lon="116.635326">
        <time>2021-04-29T13:48:12Z</time>
      </trkpt>
      <trkpt lat="39.897837" lon="116.635245">
        <time>2021-04-29T13:48:17Z</time>
      </trkpt>
      <trkpt lat="39.897895" lon="116.635173">
        <time>2021-04-29T13:48:22Z</time>
      </trkpt>
      <trkpt lat="39.897961" lon="116.635139">
        <time>2021-04-29T13:48:27Z</time>
      </trkpt>
      <trkpt lat="39.898023" lon="116.635099">
        <time>2021-04-29T13:48:32Z</time>
      </trkpt>
      <trkpt lat="39.898126" lon="116.635047">
        <time>2021-04-29T13:48:37Z</time>
      </trkpt>
      <trkpt lat="39.898247" lon="116.634922">
        <time>2021-04-29T13:48:42Z</time>
      </trkpt>
      <trkpt lat="39.898345" lon="116.634857">
        <time>2021-04-29T13:48:47Z</time>
      </trkpt>
      <trkpt lat="39.898474" lon="116.634787">
        <time>2021-04-29T13:48:52Z</time>
      </trkpt>
      <trkpt lat="39.898601" lon="116.634712">
        <time>2021-04-29T13:48:57Z</time>
      </trkpt>
      <trkpt lat="39.898714" lon="116.634627">
        <time>2021-04-29T13:49:02Z</time>
      </trkpt>
      <trkpt lat="39.89883" lon="116.63457">
        <time>2021-04-29T13:49:07Z</time>
      </trkpt>
      <trkpt lat="39.89894" lon="116.634508">
        <time>2021-04-29T13:49:12Z</time>
      </trkpt>
      <trkpt lat="39.899057" lon="116.634452">
        <time>2021-04-29T13:49:17Z</time>
      </trkpt>
      <trkpt lat="39.899167" lon="116.634388">
        <time>2021-04-29T13:49:22Z</time>
      </trkpt>
      <trkpt lat="39.899266" lon="116.634315">
        <time>2021-04-29T13:49:27Z</time>
      </trkpt>
      <trkpt lat="39.899356" lon="116.634223">
        <time>2021-04-29T13:49:32Z</time>
      </trkpt>
      <trkpt lat="39.89942" lon="116.634217">
        <time>2021-04-29T13:49:37Z</time>
      </trkpt>
      <trkpt lat="39.899487" lon="116.634179">
        <time>2021-04-29T13:49:42Z</time>
      </trkpt>
      <trkpt lat="39.899579" lon="116.634144">
        <time>2021-04-29T13:49:47Z</time>
      </trkpt>
      <trkpt lat="39.899681" lon="116.634116">
        <time>2021-04-29T13:49:52Z</time>
      </trkpt>
      <trkpt lat="39.899801" lon="116.634022">
        <time>2021-04-29T13:49:57Z</time>
      </trkpt>
      <trkpt lat="39.899916" lon="116.633943">
        <time>2021-04-29T13:50:02Z</time>
      </trkpt>
      <trkpt lat="39.900003" lon="116.633873">
        <time>2021-04-29T13:50:07Z</time>
      </trkpt>
      <trkpt lat="39.90008" lon="116.633819">
        <time>2021-04-29T13:50:12Z</time>
      </trkpt>
      <trkpt lat="39.900136" lon="116.633768">
        <time>2021-04-29T13:50:17Z</time>
      </trkpt>
      <trkpt lat="39.900222" lon="116.633741">
        <time>2021-04-29T13:50:22Z</time>
      </trkpt>
      <trkpt lat="39.900282" lon="116.633675">
        <time>2021-04-29T13:50:27Z</time>
      </trkpt>
      <trkpt lat="39.900406" lon="116.633574">
        <time>2021-04-29T13:50:32Z</time>
      </trkpt>
      <trkpt lat="39.900493" lon="116.63354">
        <time>2021-04-29T13:50:37Z</time>
      </trkpt>
      <trkpt lat="39.900613" lon="116.633464">
        <time>2021-04-29T13:50:42Z</time>
      </trkpt>
      <trkpt lat="39.900738" lon="116.633372">
        <time>2021-04-29T13:50:47Z</time>
      </trkpt>
      <trkpt lat="39.900849" lon="116.633266">
        <time>2021-04-29T13:50:52Z</time>
      </trkpt>
      <trkpt lat="39.90096" lon="116.633173">
        <time>2021-04-29T13:50:57Z</time>
      </trkpt>
      <trkpt lat="39.90103" lon="116.633152">
        <time>2021-04-29T13:51:02Z</time>
      </trkpt>
      <trkpt lat="39.901017" lon="116.633148">
        <time>2021-04-29T13:51:07Z</time>
      </trkpt>
      <trkpt lat="39.901016" lon="116.633169">
        <time>2021-04-29T13:51:12Z</time>
      </trkpt>
      <trkpt lat="39.901008" lon="116.633165">
        <time>2021-04-29T13:51:17Z</time>
      </trkpt>
      <trkpt lat="39.900875" lon="116.632926">
        <time>2021-04-29T13:51:22Z</time>
      </trkpt>
      <trkpt lat="39.900788" lon="116.632778">
        <time>2021-04-29T13:51:27Z</time>
      </trkpt>
      <trkpt lat="39.900572" lon="116.632856">
        <time>2021-04-29T13:51:32Z</time>
      </trkpt>
      <trkpt lat="39.900532" lon="116.632898">
        <time>2021-04-29T13:51:37Z</time>
      </trkpt>
      <trkpt lat="39.900437" lon="116.633016">
        <time>2021-04-29T13:51:42Z</time>
      </trkpt>
      <trkpt lat="39.900342" lon="116.633132">
        <time>2021-04-29T13:51:47Z</time>
      </trkpt>
      <trkpt lat="39.90028" lon="116.633211">
        <time>2021-04-29T13:51:52Z</time>
      </trkpt>
      <trkpt lat="39.900214" lon="116.633277">
        <time>2021-04-29T13:51:57Z</time>
      </trkpt>
      <trkpt lat="39.900157" lon="116.633308">
        <time>2021-04-29T13:52:02Z</time>
      </trkpt>
      <trkpt lat="39.900094" lon="116.633345">
        <time>2021-04-29T13:52:07Z</time>
      </trkpt>
      <trkpt lat="39.900001" lon="116.633384">
        <time>2021-04-29T13:52:12Z</time>
      </trkpt>
      <trkpt lat="39.89991" lon="116.63342">
        <time>2021-04-29T13:52:17Z</time>
      </trkpt>
      <trkpt lat="39.899788" lon="116.633497">
        <time>2021-04-29T13:52:22Z</time>
      </trkpt>
      <trkpt lat="39.899684" lon="116.633584">
        <time>2021-04-29T13:52:27Z</time>
      </trkpt>
      <trkpt lat="39.899504" lon="116.633697">
        <time>2021-04-29T13:52:32Z</time>
      </trkpt>
      <trkpt lat="39.899486" lon="116.63371">
        <time>2021-04-29T13:52:37Z</time>
      </trkpt>
      <trkpt lat="39.899404" lon="116.633797">
        <time>2021-04-29T13:52:42Z</time>
      </trkpt>
      <trkpt lat="39.899333" lon="116.633851">
        <time>2021-04-29T13:52:47Z</time>
      </trkpt>
      <trkpt lat="39.899225" lon="116.6339">
        <time>2021-04-29T13:52:52Z</time>
      </trkpt>
      <trkpt lat="39.899168" lon="116.633934">
        <time>2021-04-29T13:52:57Z</time>
      </trkpt>
      <trkpt lat="39.899082" lon="116.633947">
        <time>2021-04-29T13:53:02Z</time>
      </trkpt>
      <trkpt lat="39.898905" lon="116.634045">
        <time>2021-04-29T13:53:07Z</time>
      </trkpt>
      <trkpt lat="39.898873" lon="116.634072">
        <time>2021-04-29T13:53:12Z</time>
      </trkpt>
      <trkpt lat="39.898808" lon="116.634124">
        <time>2021-04-29T13:53:17Z</time>
      </trkpt>
      <trkpt lat="39.898738" lon="116.634153">
        <time>2021-04-29T13:53:22Z</time>
      </trkpt>
      <trkpt lat="39.898676" lon="116.634191">
        <time>2021-04-29T13:53:27Z</time>
      </trkpt>
      <trkpt lat="39.898616" lon="116.634211">
        <time>2021-04-29T13:53:32Z</time>
      </trkpt>
      <trkpt lat="39.898492" lon="116.634302">
        <time>2021-04-29T13:53:37Z</time>
      </trkpt>
      <trkpt lat="39.898476" lon="116.634316">
        <time>2021-04-29T13:53:42Z</time>
      </trkpt>
      <trkpt lat="39.898385" lon="116.63439">
        <time>2021-04-29T13:53:47Z</time>
      </trkpt>
      <trkpt lat="39.898285" lon="116.634435">
        <time>2021-04-29T13:53:52Z</time>
      </trkpt>
      <trkpt lat="39.898179" lon="116.634482">
        <time>2021-04-29T13:53:57Z</time>
      </trkpt>
      <trkpt lat="39.898054" lon="116.634595">
        <time>2021-04-29T13:54:02Z</time>
      </trkpt>
      <trkpt lat="39.897978" lon="116.634481">
        <time>2021-04-29T13:54:07Z</time>
      </trkpt>
      <trkpt lat="39.897921" lon="116.634385">
        <time>2021-04-29T13:54:12Z</time>
      </trkpt>
      <trkpt lat="39.897876" lon="116.634286">
        <time>2021-04-29T13:54:17Z</time>
      </trkpt>
      <trkpt lat="39.89785" lon="116.634181">
        <time>2021-04-29T13:54:22Z</time>
      </trkpt>
      <trkpt lat="39.897774" lon="116.634086">
        <time>2021-04-29T13:54:27Z</time>
      </trkpt>
      <trkpt lat="39.897697" lon="116.63402">
        <time>2021-04-29T13:54:32Z</time>
      </trkpt>
      <trkpt lat="39.897647" lon="116.633942">
        <time>2021-04-29T13:54:37Z</time>
      </trkpt>
      <trkpt lat="39.89764" lon="116.633834">
        <time>2021-04-29T13:54:42Z</time>
      </trkpt>
      <trkpt lat="39.897599" lon="116.633755">
        <time>2021-04-29T13:54:47Z</time>
      </trkpt>
      <trkpt lat="39.897566" lon="116.633709">
        <time>2021-04-29T13:54:52Z</time>
      </trkpt>
      <trkpt lat="39.897511" lon="116.633669">
        <time>2021-04-29T13:54:57Z</time>
      </trkpt>
      <trkpt lat="39.897439" lon="116.633675">
        <time>2021-04-29T13:55:02Z</time>
      </trkpt>
      <trkpt lat="39.897382" lon="116.633692">
        <time>2021-04-29T13:55:07Z</time>
      </trkpt>
      <trkpt lat="39.897328" lon="116.633774">
        <time>2021-04-29T13:55:12Z</time>
      </trkpt>
      <trkpt lat="39.897333" lon="116.63391">
        <time>2021-04-29T13:55:17Z</time>
      </trkpt>
      <trkpt lat="39.897373" lon="116.633984">
        <time>2021-04-29T13:55:22Z</time>
      </trkpt>
      <trkpt lat="39.897348" lon="116.634127">
        <time>2021-04-29T13:58:11Z</time>
      </trkpt>
    </trkseg>
  </trk>
</gpx>