<?xml version="1.0" encoding="UTF-8"?>
<gpx xmlns="http://www.topografix.com/GPX/1/1" xmlns:gpxtpx="http://www.garmin.com/xmlschemas/TrackPointExtension/v1" xmlns:xsi="http://www.w3.org/2001/XMLSchema-instance" xsi:schemaLocation="http://www.topografix.com/GPX/1/1 http://www.topografix.com/GPX/1/1/gpx.xsd" version="1.1" creator="gpx.py -- https://github.com/tkrajina/gpxpy">
  <trk>
    <name>gpx from keep</name>
    <trkseg>
      <trkpt lat="39.89726" lon="116.635423">
        <time>2021-05-11T12:08:51Z</time>
      </trkpt>
      <trkpt lat="39.89726" lon="116.635423">
        <time>2021-05-11T12:08:56Z</time>
      </trkpt>
      <trkpt lat="39.897199" lon="116.63553">
        <time>2021-05-11T12:09:01Z</time>
      </trkpt>
      <trkpt lat="39.897084" lon="116.635546">
        <time>2021-05-11T12:09:06Z</time>
      </trkpt>
      <trkpt lat="39.896942" lon="116.635647">
        <time>2021-05-11T12:09:11Z</time>
      </trkpt>
      <trkpt lat="39.896591" lon="116.635864">
        <time>2021-05-11T12:09:16Z</time>
      </trkpt>
      <trkpt lat="39.896657" lon="116.635891">
        <time>2021-05-11T12:09:21Z</time>
      </trkpt>
      <trkpt lat="39.896556" lon="116.635972">
        <time>2021-05-11T12:09:26Z</time>
      </trkpt>
      <trkpt lat="39.896431" lon="116.636072">
        <time>2021-05-11T12:09:31Z</time>
      </trkpt>
      <trkpt lat="39.896346" lon="116.63612">
        <time>2021-05-11T12:09:36Z</time>
      </trkpt>
      <trkpt lat="39.896256" lon="116.636136">
        <time>2021-05-11T12:09:41Z</time>
      </trkpt>
      <trkpt lat="39.896144" lon="116.636222">
        <time>2021-05-11T12:09:46Z</time>
      </trkpt>
      <trkpt lat="39.896119" lon="116.636291">
        <time>2021-05-11T12:09:51Z</time>
      </trkpt>
      <trkpt lat="39.896089" lon="116.636361">
        <time>2021-05-11T12:09:56Z</time>
      </trkpt>
      <trkpt lat="39.89606" lon="116.636408">
        <time>2021-05-11T12:10:01Z</time>
      </trkpt>
      <trkpt lat="39.896045" lon="116.636464">
        <time>2021-05-11T12:10:06Z</time>
      </trkpt>
      <trkpt lat="39.896045" lon="116.636499">
        <time>2021-05-11T12:10:11Z</time>
      </trkpt>
      <trkpt lat="39.896047" lon="116.636524">
        <time>2021-05-11T12:10:16Z</time>
      </trkpt>
      <trkpt lat="39.896083" lon="116.636507">
        <time>2021-05-11T12:10:21Z</time>
      </trkpt>
      <trkpt lat="39.896107" lon="116.636471">
        <time>2021-05-11T12:10:26Z</time>
      </trkpt>
      <trkpt lat="39.89611" lon="116.636472">
        <time>2021-05-11T12:10:31Z</time>
      </trkpt>
      <trkpt lat="39.89613" lon="116.63646">
        <time>2021-05-11T12:10:36Z</time>
      </trkpt>
      <trkpt lat="39.896118" lon="116.636458">
        <time>2021-05-11T12:10:41Z</time>
      </trkpt>
      <trkpt lat="39.896117" lon="116.636495">
        <time>2021-05-11T12:10:46Z</time>
      </trkpt>
      <trkpt lat="39.896093" lon="116.636538">
        <time>2021-05-11T12:10:51Z</time>
      </trkpt>
      <trkpt lat="39.89607" lon="116.636553">
        <time>2021-05-11T12:10:56Z</time>
      </trkpt>
      <trkpt lat="39.896022" lon="116.636668">
        <time>2021-05-11T12:11:01Z</time>
      </trkpt>
      <trkpt lat="39.895967" lon="116.636725">
        <time>2021-05-11T12:11:06Z</time>
      </trkpt>
      <trkpt lat="39.895937" lon="116.63673">
        <time>2021-05-11T12:11:11Z</time>
      </trkpt>
      <trkpt lat="39.895951" lon="116.636752">
        <time>2021-05-11T12:11:16Z</time>
      </trkpt>
      <trkpt lat="39.896025" lon="116.636877">
        <time>2021-05-11T12:11:21Z</time>
      </trkpt>
      <trkpt lat="39.896068" lon="116.637046">
        <time>2021-05-11T12:11:26Z</time>
      </trkpt>
      <trkpt lat="39.896101" lon="116.637228">
        <time>2021-05-11T12:11:31Z</time>
      </trkpt>
      <trkpt lat="39.896135" lon="116.637386">
        <time>2021-05-11T12:11:36Z</time>
      </trkpt>
      <trkpt lat="39.896133" lon="116.637541">
        <time>2021-05-11T12:11:41Z</time>
      </trkpt>
      <trkpt lat="39.896141" lon="116.637721">
        <time>2021-05-11T12:11:46Z</time>
      </trkpt>
      <trkpt lat="39.89617" lon="116.637885">
        <time>2021-05-11T12:11:51Z</time>
      </trkpt>
      <trkpt lat="39.896209" lon="116.638042">
        <time>2021-05-11T12:11:56Z</time>
      </trkpt>
      <trkpt lat="39.89624" lon="116.638189">
        <time>2021-05-11T12:12:01Z</time>
      </trkpt>
      <trkpt lat="39.89626" lon="116.638338">
        <time>2021-05-11T12:12:06Z</time>
      </trkpt>
      <trkpt lat="39.896242" lon="116.638505">
        <time>2021-05-11T12:12:11Z</time>
      </trkpt>
      <trkpt lat="39.896275" lon="116.6387">
        <time>2021-05-11T12:12:16Z</time>
      </trkpt>
      <trkpt lat="39.896269" lon="116.638868">
        <time>2021-05-11T12:12:21Z</time>
      </trkpt>
      <trkpt lat="39.896253" lon="116.639007">
        <time>2021-05-11T12:12:26Z</time>
      </trkpt>
      <trkpt lat="39.896236" lon="116.639157">
        <time>2021-05-11T12:12:31Z</time>
      </trkpt>
      <trkpt lat="39.896224" lon="116.639352">
        <time>2021-05-11T12:12:36Z</time>
      </trkpt>
      <trkpt lat="39.896247" lon="116.639586">
        <time>2021-05-11T12:12:41Z</time>
      </trkpt>
      <trkpt lat="39.896266" lon="116.63974">
        <time>2021-05-11T12:12:46Z</time>
      </trkpt>
      <trkpt lat="39.896259" lon="116.639899">
        <time>2021-05-11T12:12:51Z</time>
      </trkpt>
      <trkpt lat="39.896259" lon="116.640065">
        <time>2021-05-11T12:12:56Z</time>
      </trkpt>
      <trkpt lat="39.896263" lon="116.640267">
        <time>2021-05-11T12:13:01Z</time>
      </trkpt>
      <trkpt lat="39.896226" lon="116.640496">
        <time>2021-05-11T12:13:06Z</time>
      </trkpt>
      <trkpt lat="39.896263" lon="116.64079">
        <time>2021-05-11T12:13:11Z</time>
      </trkpt>
      <trkpt lat="39.896269" lon="116.640853">
        <time>2021-05-11T12:13:16Z</time>
      </trkpt>
      <trkpt lat="39.896264" lon="116.640981">
        <time>2021-05-11T12:13:21Z</time>
      </trkpt>
      <trkpt lat="39.896238" lon="116.641148">
        <time>2021-05-11T12:13:26Z</time>
      </trkpt>
      <trkpt lat="39.896224" lon="116.64134">
        <time>2021-05-11T12:13:31Z</time>
      </trkpt>
      <trkpt lat="39.896239" lon="116.641502">
        <time>2021-05-11T12:13:36Z</time>
      </trkpt>
      <trkpt lat="39.896257" lon="116.641672">
        <time>2021-05-11T12:13:41Z</time>
      </trkpt>
      <trkpt lat="39.89625" lon="116.641821">
        <time>2021-05-11T12:13:46Z</time>
      </trkpt>
      <trkpt lat="39.896227" lon="116.642067">
        <time>2021-05-11T12:13:51Z</time>
      </trkpt>
      <trkpt lat="39.896228" lon="116.642102">
        <time>2021-05-11T12:13:56Z</time>
      </trkpt>
      <trkpt lat="39.896233" lon="116.642296">
        <time>2021-05-11T12:14:01Z</time>
      </trkpt>
      <trkpt lat="39.896231" lon="116.642488">
        <time>2021-05-11T12:14:06Z</time>
      </trkpt>
      <trkpt lat="39.896228" lon="116.642623">
        <time>2021-05-11T12:14:11Z</time>
      </trkpt>
      <trkpt lat="39.896209" lon="116.642751">
        <time>2021-05-11T12:14:16Z</time>
      </trkpt>
      <trkpt lat="39.896208" lon="116.642921">
        <time>2021-05-11T12:14:21Z</time>
      </trkpt>
      <trkpt lat="39.896185" lon="116.643093">
        <time>2021-05-11T12:14:26Z</time>
      </trkpt>
      <trkpt lat="39.896151" lon="116.643365">
        <time>2021-05-11T12:14:31Z</time>
      </trkpt>
      <trkpt lat="39.896149" lon="116.643412">
        <time>2021-05-11T12:14:36Z</time>
      </trkpt>
      <trkpt lat="39.896173" lon="116.643554">
        <time>2021-05-11T12:14:41Z</time>
      </trkpt>
      <trkpt lat="39.896182" lon="116.643735">
        <time>2021-05-11T12:14:46Z</time>
      </trkpt>
      <trkpt lat="39.896199" lon="116.64389">
        <time>2021-05-11T12:14:51Z</time>
      </trkpt>
      <trkpt lat="39.896186" lon="116.644007">
        <time>2021-05-11T12:14:56Z</time>
      </trkpt>
      <trkpt lat="39.896188" lon="116.644176">
        <time>2021-05-11T12:15:01Z</time>
      </trkpt>
      <trkpt lat="39.896204" lon="116.644443">
        <time>2021-05-11T12:15:06Z</time>
      </trkpt>
      <trkpt lat="39.896195" lon="116.644505">
        <time>2021-05-11T12:15:11Z</time>
      </trkpt>
      <trkpt lat="39.896176" lon="116.644684">
        <time>2021-05-11T12:15:16Z</time>
      </trkpt>
      <trkpt lat="39.896166" lon="116.644857">
        <time>2021-05-11T12:15:21Z</time>
      </trkpt>
      <trkpt lat="39.896157" lon="116.645031">
        <time>2021-05-11T12:15:26Z</time>
      </trkpt>
      <trkpt lat="39.896178" lon="116.645229">
        <time>2021-05-11T12:15:31Z</time>
      </trkpt>
      <trkpt lat="39.896178" lon="116.645257">
        <time>2021-05-11T12:15:36Z</time>
      </trkpt>
      <trkpt lat="39.89616" lon="116.645447">
        <time>2021-05-11T12:15:41Z</time>
      </trkpt>
      <trkpt lat="39.896108" lon="116.645619">
        <time>2021-05-11T12:15:46Z</time>
      </trkpt>
      <trkpt lat="39.896076" lon="116.645811">
        <time>2021-05-11T12:15:51Z</time>
      </trkpt>
      <trkpt lat="39.896053" lon="116.646009">
        <time>2021-05-11T12:15:56Z</time>
      </trkpt>
      <trkpt lat="39.896024" lon="116.646186">
        <time>2021-05-11T12:16:01Z</time>
      </trkpt>
      <trkpt lat="39.896011" lon="116.646356">
        <time>2021-05-11T12:16:06Z</time>
      </trkpt>
      <trkpt lat="39.896007" lon="116.646503">
        <time>2021-05-11T12:16:11Z</time>
      </trkpt>
      <trkpt lat="39.895996" lon="116.646647">
        <time>2021-05-11T12:16:16Z</time>
      </trkpt>
      <trkpt lat="39.89601" lon="116.646843">
        <time>2021-05-11T12:16:21Z</time>
      </trkpt>
      <trkpt lat="39.89601" lon="116.647017">
        <time>2021-05-11T12:16:26Z</time>
      </trkpt>
      <trkpt lat="39.895988" lon="116.6472">
        <time>2021-05-11T12:16:31Z</time>
      </trkpt>
      <trkpt lat="39.895972" lon="116.647391">
        <time>2021-05-11T12:16:36Z</time>
      </trkpt>
      <trkpt lat="39.895968" lon="116.64757">
        <time>2021-05-11T12:16:41Z</time>
      </trkpt>
      <trkpt lat="39.895954" lon="116.647738">
        <time>2021-05-11T12:16:46Z</time>
      </trkpt>
      <trkpt lat="39.895935" lon="116.647894">
        <time>2021-05-11T12:16:51Z</time>
      </trkpt>
      <trkpt lat="39.895928" lon="116.648047">
        <time>2021-05-11T12:16:56Z</time>
      </trkpt>
      <trkpt lat="39.895892" lon="116.648205">
        <time>2021-05-11T12:17:01Z</time>
      </trkpt>
      <trkpt lat="39.895839" lon="116.648332">
        <time>2021-05-11T12:17:06Z</time>
      </trkpt>
      <trkpt lat="39.895801" lon="116.648449">
        <time>2021-05-11T12:17:11Z</time>
      </trkpt>
      <trkpt lat="39.895762" lon="116.648639">
        <time>2021-05-11T12:17:16Z</time>
      </trkpt>
      <trkpt lat="39.895699" lon="116.648852">
        <time>2021-05-11T12:17:21Z</time>
      </trkpt>
      <trkpt lat="39.89564" lon="116.649069">
        <time>2021-05-11T12:17:26Z</time>
      </trkpt>
      <trkpt lat="39.895569" lon="116.649214">
        <time>2021-05-11T12:17:31Z</time>
      </trkpt>
      <trkpt lat="39.895464" lon="116.649204">
        <time>2021-05-11T12:17:36Z</time>
      </trkpt>
      <trkpt lat="39.895428" lon="116.649115">
        <time>2021-05-11T12:17:41Z</time>
      </trkpt>
      <trkpt lat="39.895192" lon="116.649049">
        <time>2021-05-11T12:17:46Z</time>
      </trkpt>
      <trkpt lat="39.895135" lon="116.648975">
        <time>2021-05-11T12:17:51Z</time>
      </trkpt>
      <trkpt lat="39.895137" lon="116.648838">
        <time>2021-05-11T12:17:56Z</time>
      </trkpt>
      <trkpt lat="39.895107" lon="116.648735">
        <time>2021-05-11T12:18:01Z</time>
      </trkpt>
      <trkpt lat="39.895058" lon="116.648666">
        <time>2021-05-11T12:18:06Z</time>
      </trkpt>
      <trkpt lat="39.8949" lon="116.648619">
        <time>2021-05-11T12:18:11Z</time>
      </trkpt>
      <trkpt lat="39.894666" lon="116.648605">
        <time>2021-05-11T12:18:16Z</time>
      </trkpt>
      <trkpt lat="39.894505" lon="116.648561">
        <time>2021-05-11T12:18:21Z</time>
      </trkpt>
      <trkpt lat="39.894383" lon="116.6485">
        <time>2021-05-11T12:18:26Z</time>
      </trkpt>
      <trkpt lat="39.894246" lon="116.648449">
        <time>2021-05-11T12:18:31Z</time>
      </trkpt>
      <trkpt lat="39.89411" lon="116.648404">
        <time>2021-05-11T12:18:36Z</time>
      </trkpt>
      <trkpt lat="39.894009" lon="116.648356">
        <time>2021-05-11T12:18:41Z</time>
      </trkpt>
      <trkpt lat="39.893916" lon="116.648276">
        <time>2021-05-11T12:18:46Z</time>
      </trkpt>
      <trkpt lat="39.893702" lon="116.648183">
        <time>2021-05-11T12:18:51Z</time>
      </trkpt>
      <trkpt lat="39.893661" lon="116.64815">
        <time>2021-05-11T12:18:56Z</time>
      </trkpt>
      <trkpt lat="39.893523" lon="116.64808">
        <time>2021-05-11T12:19:01Z</time>
      </trkpt>
      <trkpt lat="39.893383" lon="116.64804">
        <time>2021-05-11T12:19:06Z</time>
      </trkpt>
      <trkpt lat="39.893246" lon="116.648041">
        <time>2021-05-11T12:19:11Z</time>
      </trkpt>
      <trkpt lat="39.893105" lon="116.648039">
        <time>2021-05-11T12:19:16Z</time>
      </trkpt>
      <trkpt lat="39.892951" lon="116.648036">
        <time>2021-05-11T12:19:21Z</time>
      </trkpt>
      <trkpt lat="39.892845" lon="116.648023">
        <time>2021-05-11T12:19:26Z</time>
      </trkpt>
      <trkpt lat="39.892745" lon="116.648027">
        <time>2021-05-11T12:19:31Z</time>
      </trkpt>
      <trkpt lat="39.892645" lon="116.648017">
        <time>2021-05-11T12:19:36Z</time>
      </trkpt>
      <trkpt lat="39.89262" lon="116.647936">
        <time>2021-05-11T12:19:41Z</time>
      </trkpt>
      <trkpt lat="39.89265" lon="116.647756">
        <time>2021-05-11T12:19:46Z</time>
      </trkpt>
      <trkpt lat="39.892641" lon="116.647539">
        <time>2021-05-11T12:19:51Z</time>
      </trkpt>
      <trkpt lat="39.892635" lon="116.647322">
        <time>2021-05-11T12:19:56Z</time>
      </trkpt>
      <trkpt lat="39.892654" lon="116.647174">
        <time>2021-05-11T12:20:01Z</time>
      </trkpt>
      <trkpt lat="39.892674" lon="116.647004">
        <time>2021-05-11T12:20:06Z</time>
      </trkpt>
      <trkpt lat="39.892694" lon="116.646822">
        <time>2021-05-11T12:20:11Z</time>
      </trkpt>
      <trkpt lat="39.892731" lon="116.646653">
        <time>2021-05-11T12:20:16Z</time>
      </trkpt>
      <trkpt lat="39.892726" lon="116.646439">
        <time>2021-05-11T12:20:21Z</time>
      </trkpt>
      <trkpt lat="39.892708" lon="116.646245">
        <time>2021-05-11T12:20:26Z</time>
      </trkpt>
      <trkpt lat="39.892696" lon="116.646061">
        <time>2021-05-11T12:20:31Z</time>
      </trkpt>
      <trkpt lat="39.89263" lon="116.645892">
        <time>2021-05-11T12:20:36Z</time>
      </trkpt>
      <trkpt lat="39.892475" lon="116.645799">
        <time>2021-05-11T12:20:41Z</time>
      </trkpt>
      <trkpt lat="39.892239" lon="116.645695">
        <time>2021-05-11T12:20:46Z</time>
      </trkpt>
      <trkpt lat="39.892188" lon="116.645659">
        <time>2021-05-11T12:20:51Z</time>
      </trkpt>
      <trkpt lat="39.892051" lon="116.645579">
        <time>2021-05-11T12:20:56Z</time>
      </trkpt>
      <trkpt lat="39.891933" lon="116.645489">
        <time>2021-05-11T12:21:01Z</time>
      </trkpt>
      <trkpt lat="39.89184" lon="116.645434">
        <time>2021-05-11T12:21:06Z</time>
      </trkpt>
      <trkpt lat="39.891692" lon="116.645401">
        <time>2021-05-11T12:21:11Z</time>
      </trkpt>
      <trkpt lat="39.891496" lon="116.645339">
        <time>2021-05-11T12:21:16Z</time>
      </trkpt>
      <trkpt lat="39.891487" lon="116.645341">
        <time>2021-05-11T12:21:21Z</time>
      </trkpt>
      <trkpt lat="39.891552" lon="116.645379">
        <time>2021-05-11T12:21:26Z</time>
      </trkpt>
      <trkpt lat="39.891683" lon="116.645433">
        <time>2021-05-11T12:21:31Z</time>
      </trkpt>
      <trkpt lat="39.891787" lon="116.645484">
        <time>2021-05-11T12:21:36Z</time>
      </trkpt>
      <trkpt lat="39.891902" lon="116.645531">
        <time>2021-05-11T12:21:41Z</time>
      </trkpt>
      <trkpt lat="39.89203" lon="116.645593">
        <time>2021-05-11T12:21:46Z</time>
      </trkpt>
      <trkpt lat="39.892141" lon="116.645659">
        <time>2021-05-11T12:21:51Z</time>
      </trkpt>
      <trkpt lat="39.892268" lon="116.645763">
        <time>2021-05-11T12:21:56Z</time>
      </trkpt>
      <trkpt lat="39.892381" lon="116.645815">
        <time>2021-05-11T12:22:01Z</time>
      </trkpt>
      <trkpt lat="39.892522" lon="116.645882">
        <time>2021-05-11T12:22:06Z</time>
      </trkpt>
      <trkpt lat="39.892578" lon="116.646018">
        <time>2021-05-11T12:22:11Z</time>
      </trkpt>
      <trkpt lat="39.892609" lon="116.646222">
        <time>2021-05-11T12:22:16Z</time>
      </trkpt>
      <trkpt lat="39.892636" lon="116.646434">
        <time>2021-05-11T12:22:21Z</time>
      </trkpt>
      <trkpt lat="39.892642" lon="116.64661">
        <time>2021-05-11T12:22:26Z</time>
      </trkpt>
      <trkpt lat="39.892648" lon="116.646756">
        <time>2021-05-11T12:22:31Z</time>
      </trkpt>
      <trkpt lat="39.892641" lon="116.646929">
        <time>2021-05-11T12:22:36Z</time>
      </trkpt>
      <trkpt lat="39.892643" lon="116.647076">
        <time>2021-05-11T12:22:41Z</time>
      </trkpt>
      <trkpt lat="39.892627" lon="116.647267">
        <time>2021-05-11T12:22:46Z</time>
      </trkpt>
      <trkpt lat="39.892605" lon="116.647471">
        <time>2021-05-11T12:22:51Z</time>
      </trkpt>
      <trkpt lat="39.89258" lon="116.647649">
        <time>2021-05-11T12:22:56Z</time>
      </trkpt>
      <trkpt lat="39.892554" lon="116.647827">
        <time>2021-05-11T12:23:01Z</time>
      </trkpt>
      <trkpt lat="39.892578" lon="116.647971">
        <time>2021-05-11T12:23:06Z</time>
      </trkpt>
      <trkpt lat="39.892591" lon="116.648019">
        <time>2021-05-11T12:23:11Z</time>
      </trkpt>
      <trkpt lat="39.892645" lon="116.648032">
        <time>2021-05-11T12:23:16Z</time>
      </trkpt>
      <trkpt lat="39.892755" lon="116.64804">
        <time>2021-05-11T12:23:21Z</time>
      </trkpt>
      <trkpt lat="39.892871" lon="116.648021">
        <time>2021-05-11T12:23:26Z</time>
      </trkpt>
      <trkpt lat="39.892978" lon="116.648011">
        <time>2021-05-11T12:23:31Z</time>
      </trkpt>
      <trkpt lat="39.893114" lon="116.648045">
        <time>2021-05-11T12:23:36Z</time>
      </trkpt>
      <trkpt lat="39.893291" lon="116.648024">
        <time>2021-05-11T12:23:41Z</time>
      </trkpt>
      <trkpt lat="39.893426" lon="116.648032">
        <time>2021-05-11T12:23:46Z</time>
      </trkpt>
      <trkpt lat="39.893518" lon="116.648047">
        <time>2021-05-11T12:23:51Z</time>
      </trkpt>
      <trkpt lat="39.893639" lon="116.648142">
        <time>2021-05-11T12:23:56Z</time>
      </trkpt>
      <trkpt lat="39.893758" lon="116.648229">
        <time>2021-05-11T12:24:01Z</time>
      </trkpt>
      <trkpt lat="39.893859" lon="116.6483">
        <time>2021-05-11T12:24:06Z</time>
      </trkpt>
      <trkpt lat="39.893929" lon="116.648386">
        <time>2021-05-11T12:24:11Z</time>
      </trkpt>
      <trkpt lat="39.894066" lon="116.648425">
        <time>2021-05-11T12:24:16Z</time>
      </trkpt>
      <trkpt lat="39.89418" lon="116.648485">
        <time>2021-05-11T12:24:21Z</time>
      </trkpt>
      <trkpt lat="39.894248" lon="116.648558">
        <time>2021-05-11T12:24:26Z</time>
      </trkpt>
      <trkpt lat="39.894362" lon="116.648584">
        <time>2021-05-11T12:24:31Z</time>
      </trkpt>
      <trkpt lat="39.894497" lon="116.648652">
        <time>2021-05-11T12:24:36Z</time>
      </trkpt>
      <trkpt lat="39.894677" lon="116.648732">
        <time>2021-05-11T12:24:41Z</time>
      </trkpt>
      <trkpt lat="39.894812" lon="116.648776">
        <time>2021-05-11T12:24:46Z</time>
      </trkpt>
      <trkpt lat="39.895085" lon="116.64892">
        <time>2021-05-11T12:24:51Z</time>
      </trkpt>
      <trkpt lat="39.895184" lon="116.64897">
        <time>2021-05-11T12:24:56Z</time>
      </trkpt>
      <trkpt lat="39.895271" lon="116.649057">
        <time>2021-05-11T12:25:01Z</time>
      </trkpt>
      <trkpt lat="39.895411" lon="116.649087">
        <time>2021-05-11T12:25:06Z</time>
      </trkpt>
      <trkpt lat="39.895587" lon="116.649094">
        <time>2021-05-11T12:25:11Z</time>
      </trkpt>
      <trkpt lat="39.895685" lon="116.648994">
        <time>2021-05-11T12:25:16Z</time>
      </trkpt>
      <trkpt lat="39.89571" lon="116.648801">
        <time>2021-05-11T12:25:21Z</time>
      </trkpt>
      <trkpt lat="39.895722" lon="116.648643">
        <time>2021-05-11T12:25:26Z</time>
      </trkpt>
      <trkpt lat="39.895742" lon="116.648549">
        <time>2021-05-11T12:25:31Z</time>
      </trkpt>
      <trkpt lat="39.895785" lon="116.64846">
        <time>2021-05-11T12:25:36Z</time>
      </trkpt>
      <trkpt lat="39.895868" lon="116.648386">
        <time>2021-05-11T12:25:41Z</time>
      </trkpt>
      <trkpt lat="39.895921" lon="116.648252">
        <time>2021-05-11T12:25:46Z</time>
      </trkpt>
      <trkpt lat="39.89597" lon="116.648096">
        <time>2021-05-11T12:25:51Z</time>
      </trkpt>
      <trkpt lat="39.89597" lon="116.647911">
        <time>2021-05-11T12:25:56Z</time>
      </trkpt>
      <trkpt lat="39.89596" lon="116.647713">
        <time>2021-05-11T12:26:01Z</time>
      </trkpt>
      <trkpt lat="39.895976" lon="116.647516">
        <time>2021-05-11T12:26:06Z</time>
      </trkpt>
      <trkpt lat="39.895993" lon="116.64735">
        <time>2021-05-11T12:26:11Z</time>
      </trkpt>
      <trkpt lat="39.89599" lon="116.647176">
        <time>2021-05-11T12:26:16Z</time>
      </trkpt>
      <trkpt lat="39.895991" lon="116.646999">
        <time>2021-05-11T12:26:21Z</time>
      </trkpt>
      <trkpt lat="39.896003" lon="116.64678">
        <time>2021-05-11T12:26:26Z</time>
      </trkpt>
      <trkpt lat="39.896007" lon="116.646587">
        <time>2021-05-11T12:26:31Z</time>
      </trkpt>
      <trkpt lat="39.896019" lon="116.646413">
        <time>2021-05-11T12:26:36Z</time>
      </trkpt>
      <trkpt lat="39.896033" lon="116.646215">
        <time>2021-05-11T12:26:41Z</time>
      </trkpt>
      <trkpt lat="39.896047" lon="116.64603">
        <time>2021-05-11T12:26:46Z</time>
      </trkpt>
      <trkpt lat="39.896079" lon="116.645929">
        <time>2021-05-11T12:26:51Z</time>
      </trkpt>
      <trkpt lat="39.896076" lon="116.64573">
        <time>2021-05-11T12:26:56Z</time>
      </trkpt>
      <trkpt lat="39.896102" lon="116.645566">
        <time>2021-05-11T12:27:01Z</time>
      </trkpt>
      <trkpt lat="39.89616" lon="116.645417">
        <time>2021-05-11T12:27:06Z</time>
      </trkpt>
      <trkpt lat="39.896151" lon="116.645263">
        <time>2021-05-11T12:27:11Z</time>
      </trkpt>
      <trkpt lat="39.896145" lon="116.645082">
        <time>2021-05-11T12:27:16Z</time>
      </trkpt>
      <trkpt lat="39.89616" lon="116.644883">
        <time>2021-05-11T12:27:21Z</time>
      </trkpt>
      <trkpt lat="39.89616" lon="116.644718">
        <time>2021-05-11T12:27:26Z</time>
      </trkpt>
      <trkpt lat="39.896174" lon="116.644565">
        <time>2021-05-11T12:27:31Z</time>
      </trkpt>
      <trkpt lat="39.896151" lon="116.644354">
        <time>2021-05-11T12:27:36Z</time>
      </trkpt>
      <trkpt lat="39.896167" lon="116.644175">
        <time>2021-05-11T12:27:41Z</time>
      </trkpt>
      <trkpt lat="39.896177" lon="116.644016">
        <time>2021-05-11T12:27:46Z</time>
      </trkpt>
      <trkpt lat="39.896202" lon="116.643917">
        <time>2021-05-11T12:27:51Z</time>
      </trkpt>
      <trkpt lat="39.896237" lon="116.643668">
        <time>2021-05-11T12:27:56Z</time>
      </trkpt>
      <trkpt lat="39.896229" lon="116.643582">
        <time>2021-05-11T12:28:01Z</time>
      </trkpt>
      <trkpt lat="39.896186" lon="116.643359">
        <time>2021-05-11T12:28:06Z</time>
      </trkpt>
      <trkpt lat="39.896145" lon="116.643099">
        <time>2021-05-11T12:28:11Z</time>
      </trkpt>
      <trkpt lat="39.896145" lon="116.643023">
        <time>2021-05-11T12:28:16Z</time>
      </trkpt>
      <trkpt lat="39.896154" lon="116.643018">
        <time>2021-05-11T12:28:21Z</time>
      </trkpt>
      <trkpt lat="39.896185" lon="116.642932">
        <time>2021-05-11T12:28:26Z</time>
      </trkpt>
      <trkpt lat="39.896232" lon="116.642809">
        <time>2021-05-11T12:28:31Z</time>
      </trkpt>
      <trkpt lat="39.896266" lon="116.642654">
        <time>2021-05-11T12:28:36Z</time>
      </trkpt>
      <trkpt lat="39.896256" lon="116.642454">
        <time>2021-05-11T12:28:41Z</time>
      </trkpt>
      <trkpt lat="39.896208" lon="116.642206">
        <time>2021-05-11T12:28:46Z</time>
      </trkpt>
      <trkpt lat="39.896243" lon="116.642032">
        <time>2021-05-11T12:28:51Z</time>
      </trkpt>
      <trkpt lat="39.896267" lon="116.641862">
        <time>2021-05-11T12:28:56Z</time>
      </trkpt>
      <trkpt lat="39.896295" lon="116.6417">
        <time>2021-05-11T12:29:01Z</time>
      </trkpt>
      <trkpt lat="39.896281" lon="116.641551">
        <time>2021-05-11T12:29:06Z</time>
      </trkpt>
      <trkpt lat="39.896255" lon="116.641407">
        <time>2021-05-11T12:29:11Z</time>
      </trkpt>
      <trkpt lat="39.896271" lon="116.641228">
        <time>2021-05-11T12:29:16Z</time>
      </trkpt>
      <trkpt lat="39.896249" lon="116.640999">
        <time>2021-05-11T12:29:21Z</time>
      </trkpt>
      <trkpt lat="39.896247" lon="116.640803">
        <time>2021-05-11T12:29:26Z</time>
      </trkpt>
      <trkpt lat="39.896245" lon="116.640631">
        <time>2021-05-11T12:29:31Z</time>
      </trkpt>
      <trkpt lat="39.896258" lon="116.640474">
        <time>2021-05-11T12:29:36Z</time>
      </trkpt>
      <trkpt lat="39.896392" lon="116.640389">
        <time>2021-05-11T12:29:41Z</time>
      </trkpt>
      <trkpt lat="39.89642" lon="116.64042">
        <time>2021-05-11T12:29:46Z</time>
      </trkpt>
      <trkpt lat="39.896561" lon="116.640493">
        <time>2021-05-11T12:29:51Z</time>
      </trkpt>
      <trkpt lat="39.896736" lon="116.640548">
        <time>2021-05-11T12:29:56Z</time>
      </trkpt>
      <trkpt lat="39.896889" lon="116.640608">
        <time>2021-05-11T12:30:01Z</time>
      </trkpt>
      <trkpt lat="39.897013" lon="116.64065">
        <time>2021-05-11T12:30:06Z</time>
      </trkpt>
      <trkpt lat="39.897133" lon="116.640773">
        <time>2021-05-11T12:30:11Z</time>
      </trkpt>
      <trkpt lat="39.897216" lon="116.640859">
        <time>2021-05-11T12:30:16Z</time>
      </trkpt>
      <trkpt lat="39.897302" lon="116.640845">
        <time>2021-05-11T12:30:21Z</time>
      </trkpt>
      <trkpt lat="39.897438" lon="116.640933">
        <time>2021-05-11T12:30:26Z</time>
      </trkpt>
      <trkpt lat="39.897519" lon="116.640968">
        <time>2021-05-11T12:30:31Z</time>
      </trkpt>
      <trkpt lat="39.897649" lon="116.641023">
        <time>2021-05-11T12:30:36Z</time>
      </trkpt>
      <trkpt lat="39.897782" lon="116.641059">
        <time>2021-05-11T12:30:41Z</time>
      </trkpt>
      <trkpt lat="39.89791" lon="116.64113">
        <time>2021-05-11T12:30:46Z</time>
      </trkpt>
      <trkpt lat="39.89805" lon="116.641266">
        <time>2021-05-11T12:30:51Z</time>
      </trkpt>
      <trkpt lat="39.898245" lon="116.641329">
        <time>2021-05-11T12:30:56Z</time>
      </trkpt>
      <trkpt lat="39.898311" lon="116.641403">
        <time>2021-05-11T12:31:01Z</time>
      </trkpt>
      <trkpt lat="39.89831" lon="116.641608">
        <time>2021-05-11T12:31:06Z</time>
      </trkpt>
      <trkpt lat="39.898287" lon="116.641818">
        <time>2021-05-11T12:31:11Z</time>
      </trkpt>
      <trkpt lat="39.898272" lon="116.642015">
        <time>2021-05-11T12:31:16Z</time>
      </trkpt>
      <trkpt lat="39.898261" lon="116.642168">
        <time>2021-05-11T12:31:21Z</time>
      </trkpt>
      <trkpt lat="39.898301" lon="116.642372">
        <time>2021-05-11T12:31:26Z</time>
      </trkpt>
      <trkpt lat="39.898323" lon="116.642588">
        <time>2021-05-11T12:31:31Z</time>
      </trkpt>
      <trkpt lat="39.89832" lon="116.642808">
        <time>2021-05-11T12:31:36Z</time>
      </trkpt>
      <trkpt lat="39.898311" lon="116.643015">
        <time>2021-05-11T12:31:41Z</time>
      </trkpt>
      <trkpt lat="39.898273" lon="116.643201">
        <time>2021-05-11T12:31:46Z</time>
      </trkpt>
      <trkpt lat="39.89825" lon="116.643413">
        <time>2021-05-11T12:31:51Z</time>
      </trkpt>
      <trkpt lat="39.898226" lon="116.643577">
        <time>2021-05-11T12:31:56Z</time>
      </trkpt>
      <trkpt lat="39.898233" lon="116.643714">
        <time>2021-05-11T12:32:01Z</time>
      </trkpt>
      <trkpt lat="39.898259" lon="116.643785">
        <time>2021-05-11T12:32:06Z</time>
      </trkpt>
      <trkpt lat="39.898275" lon="116.643879">
        <time>2021-05-11T12:32:11Z</time>
      </trkpt>
      <trkpt lat="39.89828" lon="116.644022">
        <time>2021-05-11T12:32:16Z</time>
      </trkpt>
      <trkpt lat="39.898266" lon="116.64417">
        <time>2021-05-11T12:32:21Z</time>
      </trkpt>
      <trkpt lat="39.898297" lon="116.644348">
        <time>2021-05-11T12:32:26Z</time>
      </trkpt>
      <trkpt lat="39.898328" lon="116.644559">
        <time>2021-05-11T12:32:31Z</time>
      </trkpt>
      <trkpt lat="39.898349" lon="116.644736">
        <time>2021-05-11T12:32:36Z</time>
      </trkpt>
      <trkpt lat="39.898442" lon="116.645075">
        <time>2021-05-11T12:32:41Z</time>
      </trkpt>
      <trkpt lat="39.89845" lon="116.64511">
        <time>2021-05-11T12:32:46Z</time>
      </trkpt>
      <trkpt lat="39.89849" lon="116.645313">
        <time>2021-05-11T12:32:51Z</time>
      </trkpt>
      <trkpt lat="39.898549" lon="116.645495">
        <time>2021-05-11T12:32:56Z</time>
      </trkpt>
      <trkpt lat="39.898584" lon="116.645699">
        <time>2021-05-11T12:33:01Z</time>
      </trkpt>
      <trkpt lat="39.898633" lon="116.645893">
        <time>2021-05-11T12:33:06Z</time>
      </trkpt>
      <trkpt lat="39.898703" lon="116.646075">
        <time>2021-05-11T12:33:11Z</time>
      </trkpt>
      <trkpt lat="39.898755" lon="116.646208">
        <time>2021-05-11T12:33:16Z</time>
      </trkpt>
      <trkpt lat="39.898755" lon="116.646317">
        <time>2021-05-11T12:33:21Z</time>
      </trkpt>
      <trkpt lat="39.898793" lon="116.646474">
        <time>2021-05-11T12:33:26Z</time>
      </trkpt>
      <trkpt lat="39.898835" lon="116.646667">
        <time>2021-05-11T12:33:31Z</time>
      </trkpt>
      <trkpt lat="39.898826" lon="116.64682">
        <time>2021-05-11T12:33:36Z</time>
      </trkpt>
      <trkpt lat="39.898854" lon="116.647026">
        <time>2021-05-11T12:33:41Z</time>
      </trkpt>
      <trkpt lat="39.898913" lon="116.647221">
        <time>2021-05-11T12:33:46Z</time>
      </trkpt>
      <trkpt lat="39.898948" lon="116.647458">
        <time>2021-05-11T12:33:51Z</time>
      </trkpt>
      <trkpt lat="39.899045" lon="116.647739">
        <time>2021-05-11T12:33:56Z</time>
      </trkpt>
      <trkpt lat="39.899098" lon="116.647986">
        <time>2021-05-11T12:34:01Z</time>
      </trkpt>
      <trkpt lat="39.899097" lon="116.648212">
        <time>2021-05-11T12:34:06Z</time>
      </trkpt>
      <trkpt lat="39.899082" lon="116.648403">
        <time>2021-05-11T12:34:11Z</time>
      </trkpt>
      <trkpt lat="39.899049" lon="116.648553">
        <time>2021-05-11T12:34:16Z</time>
      </trkpt>
      <trkpt lat="39.899065" lon="116.648805">
        <time>2021-05-11T12:34:21Z</time>
      </trkpt>
      <trkpt lat="39.899063" lon="116.648949">
        <time>2021-05-11T12:34:26Z</time>
      </trkpt>
      <trkpt lat="39.899057" lon="116.649075">
        <time>2021-05-11T12:34:31Z</time>
      </trkpt>
      <trkpt lat="39.899058" lon="116.64923">
        <time>2021-05-11T12:34:36Z</time>
      </trkpt>
      <trkpt lat="39.899096" lon="116.649461">
        <time>2021-05-11T12:34:41Z</time>
      </trkpt>
      <trkpt lat="39.899075" lon="116.649622">
        <time>2021-05-11T12:34:46Z</time>
      </trkpt>
      <trkpt lat="39.899085" lon="116.649804">
        <time>2021-05-11T12:34:51Z</time>
      </trkpt>
      <trkpt lat="39.899133" lon="116.650003">
        <time>2021-05-11T12:34:56Z</time>
      </trkpt>
      <trkpt lat="39.899155" lon="116.650194">
        <time>2021-05-11T12:35:01Z</time>
      </trkpt>
      <trkpt lat="39.899149" lon="116.650353">
        <time>2021-05-11T12:35:06Z</time>
      </trkpt>
      <trkpt lat="39.899133" lon="116.650426">
        <time>2021-05-11T12:35:11Z</time>
      </trkpt>
      <trkpt lat="39.899114" lon="116.650505">
        <time>2021-05-11T12:35:16Z</time>
      </trkpt>
      <trkpt lat="39.899104" lon="116.650571">
        <time>2021-05-11T12:35:21Z</time>
      </trkpt>
      <trkpt lat="39.899117" lon="116.650702">
        <time>2021-05-11T12:35:26Z</time>
      </trkpt>
      <trkpt lat="39.899115" lon="116.650845">
        <time>2021-05-11T12:35:31Z</time>
      </trkpt>
      <trkpt lat="39.899095" lon="116.650981">
        <time>2021-05-11T12:35:36Z</time>
      </trkpt>
      <trkpt lat="39.899095" lon="116.651182">
        <time>2021-05-11T12:35:41Z</time>
      </trkpt>
      <trkpt lat="39.899068" lon="116.651344">
        <time>2021-05-11T12:35:46Z</time>
      </trkpt>
      <trkpt lat="39.899053" lon="116.651453">
        <time>2021-05-11T12:35:51Z</time>
      </trkpt>
      <trkpt lat="39.899088" lon="116.651392">
        <time>2021-05-11T12:35:56Z</time>
      </trkpt>
      <trkpt lat="39.899155" lon="116.651274">
        <time>2021-05-11T12:36:01Z</time>
      </trkpt>
      <trkpt lat="39.89914" lon="116.651074">
        <time>2021-05-11T12:36:06Z</time>
      </trkpt>
      <trkpt lat="39.899119" lon="116.65088">
        <time>2021-05-11T12:36:11Z</time>
      </trkpt>
      <trkpt lat="39.899093" lon="116.650696">
        <time>2021-05-11T12:36:16Z</time>
      </trkpt>
      <trkpt lat="39.899031" lon="116.650472">
        <time>2021-05-11T12:36:21Z</time>
      </trkpt>
      <trkpt lat="39.899013" lon="116.650262">
        <time>2021-05-11T12:36:26Z</time>
      </trkpt>
      <trkpt lat="39.899067" lon="116.650094">
        <time>2021-05-11T12:36:31Z</time>
      </trkpt>
      <trkpt lat="39.899078" lon="116.649925">
        <time>2021-05-11T12:36:36Z</time>
      </trkpt>
      <trkpt lat="39.899133" lon="116.649763">
        <time>2021-05-11T12:36:41Z</time>
      </trkpt>
      <trkpt lat="39.899089" lon="116.649477">
        <time>2021-05-11T12:36:46Z</time>
      </trkpt>
      <trkpt lat="39.899068" lon="116.649393">
        <time>2021-05-11T12:36:51Z</time>
      </trkpt>
      <trkpt lat="39.899034" lon="116.649174">
        <time>2021-05-11T12:36:56Z</time>
      </trkpt>
      <trkpt lat="39.899025" lon="116.648978">
        <time>2021-05-11T12:37:01Z</time>
      </trkpt>
      <trkpt lat="39.899024" lon="116.648802">
        <time>2021-05-11T12:37:06Z</time>
      </trkpt>
      <trkpt lat="39.899004" lon="116.648616">
        <time>2021-05-11T12:37:11Z</time>
      </trkpt>
      <trkpt lat="39.899015" lon="116.648414">
        <time>2021-05-11T12:37:16Z</time>
      </trkpt>
      <trkpt lat="39.899099" lon="116.648225">
        <time>2021-05-11T12:37:21Z</time>
      </trkpt>
      <trkpt lat="39.899069" lon="116.647964">
        <time>2021-05-11T12:37:26Z</time>
      </trkpt>
      <trkpt lat="39.899015" lon="116.647803">
        <time>2021-05-11T12:37:31Z</time>
      </trkpt>
      <trkpt lat="39.899052" lon="116.647784">
        <time>2021-05-11T12:37:36Z</time>
      </trkpt>
      <trkpt lat="39.899125" lon="116.647702">
        <time>2021-05-11T12:37:41Z</time>
      </trkpt>
      <trkpt lat="39.89915" lon="116.647547">
        <time>2021-05-11T12:37:46Z</time>
      </trkpt>
      <trkpt lat="39.899097" lon="116.647375">
        <time>2021-05-11T12:37:51Z</time>
      </trkpt>
      <trkpt lat="39.899016" lon="116.64716">
        <time>2021-05-11T12:37:56Z</time>
      </trkpt>
      <trkpt lat="39.898944" lon="116.646967">
        <time>2021-05-11T12:38:01Z</time>
      </trkpt>
      <trkpt lat="39.898881" lon="116.646796">
        <time>2021-05-11T12:38:06Z</time>
      </trkpt>
      <trkpt lat="39.898814" lon="116.646635">
        <time>2021-05-11T12:38:11Z</time>
      </trkpt>
      <trkpt lat="39.898791" lon="116.646566">
        <time>2021-05-11T12:38:16Z</time>
      </trkpt>
      <trkpt lat="39.898761" lon="116.646476">
        <time>2021-05-11T12:38:21Z</time>
      </trkpt>
      <trkpt lat="39.898754" lon="116.646351">
        <time>2021-05-11T12:38:26Z</time>
      </trkpt>
      <trkpt lat="39.89875" lon="116.64622">
        <time>2021-05-11T12:38:31Z</time>
      </trkpt>
      <trkpt lat="39.898729" lon="116.646081">
        <time>2021-05-11T12:38:36Z</time>
      </trkpt>
      <trkpt lat="39.898654" lon="116.645902">
        <time>2021-05-11T12:38:41Z</time>
      </trkpt>
      <trkpt lat="39.89858" lon="116.645729">
        <time>2021-05-11T12:38:46Z</time>
      </trkpt>
      <trkpt lat="39.898501" lon="116.645551">
        <time>2021-05-11T12:38:51Z</time>
      </trkpt>
      <trkpt lat="39.898465" lon="116.645367">
        <time>2021-05-11T12:38:56Z</time>
      </trkpt>
      <trkpt lat="39.898446" lon="116.64519">
        <time>2021-05-11T12:39:01Z</time>
      </trkpt>
      <trkpt lat="39.898403" lon="116.645019">
        <time>2021-05-11T12:39:06Z</time>
      </trkpt>
      <trkpt lat="39.89836" lon="116.644844">
        <time>2021-05-11T12:39:11Z</time>
      </trkpt>
      <trkpt lat="39.898327" lon="116.644653">
        <time>2021-05-11T12:39:16Z</time>
      </trkpt>
      <trkpt lat="39.898333" lon="116.644483">
        <time>2021-05-11T12:39:21Z</time>
      </trkpt>
      <trkpt lat="39.898369" lon="116.644366">
        <time>2021-05-11T12:39:26Z</time>
      </trkpt>
      <trkpt lat="39.898378" lon="116.644281">
        <time>2021-05-11T12:39:31Z</time>
      </trkpt>
      <trkpt lat="39.898329" lon="116.644141">
        <time>2021-05-11T12:39:36Z</time>
      </trkpt>
      <trkpt lat="39.898358" lon="116.643929">
        <time>2021-05-11T12:39:41Z</time>
      </trkpt>
      <trkpt lat="39.898342" lon="116.643709">
        <time>2021-05-11T12:39:46Z</time>
      </trkpt>
      <trkpt lat="39.898338" lon="116.643467">
        <time>2021-05-11T12:39:51Z</time>
      </trkpt>
      <trkpt lat="39.898376" lon="116.643297">
        <time>2021-05-11T12:39:56Z</time>
      </trkpt>
      <trkpt lat="39.898379" lon="116.643116">
        <time>2021-05-11T12:40:01Z</time>
      </trkpt>
      <trkpt lat="39.898356" lon="116.64306">
        <time>2021-05-11T12:40:06Z</time>
      </trkpt>
      <trkpt lat="39.89836" lon="116.642941">
        <time>2021-05-11T12:40:11Z</time>
      </trkpt>
      <trkpt lat="39.898313" lon="116.642706">
        <time>2021-05-11T12:40:16Z</time>
      </trkpt>
      <trkpt lat="39.898285" lon="116.642472">
        <time>2021-05-11T12:40:21Z</time>
      </trkpt>
      <trkpt lat="39.89829" lon="116.642307">
        <time>2021-05-11T12:40:26Z</time>
      </trkpt>
      <trkpt lat="39.898366" lon="116.642116">
        <time>2021-05-11T12:40:31Z</time>
      </trkpt>
      <trkpt lat="39.898394" lon="116.642016">
        <time>2021-05-11T12:40:36Z</time>
      </trkpt>
      <trkpt lat="39.8984" lon="116.641836">
        <time>2021-05-11T12:40:41Z</time>
      </trkpt>
      <trkpt lat="39.898382" lon="116.641655">
        <time>2021-05-11T12:40:46Z</time>
      </trkpt>
      <trkpt lat="39.898393" lon="116.641512">
        <time>2021-05-11T12:40:51Z</time>
      </trkpt>
      <trkpt lat="39.898379" lon="116.641379">
        <time>2021-05-11T12:40:56Z</time>
      </trkpt>
      <trkpt lat="39.898296" lon="116.641301">
        <time>2021-05-11T12:41:01Z</time>
      </trkpt>
      <trkpt lat="39.898194" lon="116.641293">
        <time>2021-05-11T12:41:06Z</time>
      </trkpt>
      <trkpt lat="39.898171" lon="116.641272">
        <time>2021-05-11T12:41:11Z</time>
      </trkpt>
      <trkpt lat="39.898136" lon="116.641229">
        <time>2021-05-11T12:41:16Z</time>
      </trkpt>
      <trkpt lat="39.898047" lon="116.641202">
        <time>2021-05-11T12:41:21Z</time>
      </trkpt>
      <trkpt lat="39.897918" lon="116.641159">
        <time>2021-05-11T12:41:26Z</time>
      </trkpt>
      <trkpt lat="39.897835" lon="116.641073">
        <time>2021-05-11T12:41:31Z</time>
      </trkpt>
      <trkpt lat="39.897661" lon="116.641025">
        <time>2021-05-11T12:41:36Z</time>
      </trkpt>
      <trkpt lat="39.897519" lon="116.640998">
        <time>2021-05-11T12:41:41Z</time>
      </trkpt>
      <trkpt lat="39.897421" lon="116.640941">
        <time>2021-05-11T12:41:46Z</time>
      </trkpt>
      <trkpt lat="39.897299" lon="116.640863">
        <time>2021-05-11T12:41:51Z</time>
      </trkpt>
      <trkpt lat="39.897065" lon="116.640751">
        <time>2021-05-11T12:41:56Z</time>
      </trkpt>
      <trkpt lat="39.896962" lon="116.640715">
        <time>2021-05-11T12:42:01Z</time>
      </trkpt>
      <trkpt lat="39.896813" lon="116.640616">
        <time>2021-05-11T12:42:06Z</time>
      </trkpt>
      <trkpt lat="39.896709" lon="116.640555">
        <time>2021-05-11T12:42:11Z</time>
      </trkpt>
      <trkpt lat="39.896567" lon="116.640461">
        <time>2021-05-11T12:42:16Z</time>
      </trkpt>
      <trkpt lat="39.896501" lon="116.640384">
        <time>2021-05-11T12:42:21Z</time>
      </trkpt>
      <trkpt lat="39.896421" lon="116.640338">
        <time>2021-05-11T12:42:26Z</time>
      </trkpt>
      <trkpt lat="39.896358" lon="116.640323">
        <time>2021-05-11T12:42:31Z</time>
      </trkpt>
      <trkpt lat="39.896286" lon="116.640168">
        <time>2021-05-11T12:42:36Z</time>
      </trkpt>
      <trkpt lat="39.896305" lon="116.639995">
        <time>2021-05-11T12:42:41Z</time>
      </trkpt>
      <trkpt lat="39.896318" lon="116.639854">
        <time>2021-05-11T12:42:46Z</time>
      </trkpt>
      <trkpt lat="39.896352" lon="116.639764">
        <time>2021-05-11T12:42:51Z</time>
      </trkpt>
      <trkpt lat="39.896246" lon="116.639508">
        <time>2021-05-11T12:42:56Z</time>
      </trkpt>
      <trkpt lat="39.896182" lon="116.639288">
        <time>2021-05-11T12:43:01Z</time>
      </trkpt>
      <trkpt lat="39.896179" lon="116.639154">
        <time>2021-05-11T12:43:06Z</time>
      </trkpt>
      <trkpt lat="39.896193" lon="116.638968">
        <time>2021-05-11T12:43:11Z</time>
      </trkpt>
      <trkpt lat="39.896176" lon="116.638808">
        <time>2021-05-11T12:43:16Z</time>
      </trkpt>
      <trkpt lat="39.896137" lon="116.638593">
        <time>2021-05-11T12:43:21Z</time>
      </trkpt>
      <trkpt lat="39.896135" lon="116.638413">
        <time>2021-05-11T12:43:26Z</time>
      </trkpt>
      <trkpt lat="39.896131" lon="116.638218">
        <time>2021-05-11T12:43:31Z</time>
      </trkpt>
      <trkpt lat="39.896124" lon="116.638033">
        <time>2021-05-11T12:43:36Z</time>
      </trkpt>
      <trkpt lat="39.896131" lon="116.637853">
        <time>2021-05-11T12:43:41Z</time>
      </trkpt>
      <trkpt lat="39.896119" lon="116.63768">
        <time>2021-05-11T12:43:46Z</time>
      </trkpt>
      <trkpt lat="39.896122" lon="116.637519">
        <time>2021-05-11T12:43:51Z</time>
      </trkpt>
      <trkpt lat="39.896139" lon="116.637371">
        <time>2021-05-11T12:43:56Z</time>
      </trkpt>
      <trkpt lat="39.896112" lon="116.637202">
        <time>2021-05-11T12:44:01Z</time>
      </trkpt>
      <trkpt lat="39.896094" lon="116.637041">
        <time>2021-05-11T12:44:06Z</time>
      </trkpt>
      <trkpt lat="39.896033" lon="116.6368">
        <time>2021-05-11T12:44:11Z</time>
      </trkpt>
      <trkpt lat="39.896014" lon="116.636726">
        <time>2021-05-11T12:44:16Z</time>
      </trkpt>
      <trkpt lat="39.896017" lon="116.636702">
        <time>2021-05-11T12:44:21Z</time>
      </trkpt>
      <trkpt lat="39.89611" lon="116.636862">
        <time>2021-05-11T12:44:26Z</time>
      </trkpt>
      <trkpt lat="39.896161" lon="116.637225">
        <time>2021-05-11T12:44:31Z</time>
      </trkpt>
      <trkpt lat="39.896166" lon="116.637268">
        <time>2021-05-11T12:44:36Z</time>
      </trkpt>
      <trkpt lat="39.896194" lon="116.63748">
        <time>2021-05-11T12:44:41Z</time>
      </trkpt>
      <trkpt lat="39.896204" lon="116.637644">
        <time>2021-05-11T12:44:46Z</time>
      </trkpt>
      <trkpt lat="39.896212" lon="116.637766">
        <time>2021-05-11T12:44:51Z</time>
      </trkpt>
      <trkpt lat="39.896223" lon="116.637966">
        <time>2021-05-11T12:44:56Z</time>
      </trkpt>
      <trkpt lat="39.896219" lon="116.638178">
        <time>2021-05-11T12:45:01Z</time>
      </trkpt>
      <trkpt lat="39.896211" lon="116.638355">
        <time>2021-05-11T12:45:06Z</time>
      </trkpt>
      <trkpt lat="39.896207" lon="116.638512">
        <time>2021-05-11T12:45:11Z</time>
      </trkpt>
      <trkpt lat="39.896242" lon="116.638701">
        <time>2021-05-11T12:45:16Z</time>
      </trkpt>
      <trkpt lat="39.896251" lon="116.638835">
        <time>2021-05-11T12:45:21Z</time>
      </trkpt>
      <trkpt lat="39.896236" lon="116.638989">
        <time>2021-05-11T12:45:26Z</time>
      </trkpt>
      <trkpt lat="39.896238" lon="116.639179">
        <time>2021-05-11T12:45:31Z</time>
      </trkpt>
      <trkpt lat="39.896239" lon="116.639327">
        <time>2021-05-11T12:45:36Z</time>
      </trkpt>
      <trkpt lat="39.896226" lon="116.639507">
        <time>2021-05-11T12:45:41Z</time>
      </trkpt>
      <trkpt lat="39.896219" lon="116.63967">
        <time>2021-05-11T12:45:46Z</time>
      </trkpt>
      <trkpt lat="39.896217" lon="116.639802">
        <time>2021-05-11T12:45:51Z</time>
      </trkpt>
      <trkpt lat="39.896257" lon="116.639963">
        <time>2021-05-11T12:45:56Z</time>
      </trkpt>
      <trkpt lat="39.896264" lon="116.640129">
        <time>2021-05-11T12:46:01Z</time>
      </trkpt>
      <trkpt lat="39.89627" lon="116.640285">
        <time>2021-05-11T12:46:06Z</time>
      </trkpt>
      <trkpt lat="39.896284" lon="116.640453">
        <time>2021-05-11T12:46:11Z</time>
      </trkpt>
      <trkpt lat="39.896268" lon="116.640768">
        <time>2021-05-11T12:46:16Z</time>
      </trkpt>
      <trkpt lat="39.896271" lon="116.64081">
        <time>2021-05-11T12:46:21Z</time>
      </trkpt>
      <trkpt lat="39.896303" lon="116.641007">
        <time>2021-05-11T12:46:26Z</time>
      </trkpt>
      <trkpt lat="39.896263" lon="116.641199">
        <time>2021-05-11T12:46:31Z</time>
      </trkpt>
      <trkpt lat="39.896258" lon="116.641349">
        <time>2021-05-11T12:46:36Z</time>
      </trkpt>
      <trkpt lat="39.896258" lon="116.641475">
        <time>2021-05-11T12:46:41Z</time>
      </trkpt>
      <trkpt lat="39.896254" lon="116.64159">
        <time>2021-05-11T12:46:46Z</time>
      </trkpt>
      <trkpt lat="39.896235" lon="116.641749">
        <time>2021-05-11T12:46:51Z</time>
      </trkpt>
      <trkpt lat="39.89623" lon="116.642071">
        <time>2021-05-11T12:46:56Z</time>
      </trkpt>
      <trkpt lat="39.89623" lon="116.642108">
        <time>2021-05-11T12:47:01Z</time>
      </trkpt>
      <trkpt lat="39.896216" lon="116.642299">
        <time>2021-05-11T12:47:06Z</time>
      </trkpt>
      <trkpt lat="39.89621" lon="116.642498">
        <time>2021-05-11T12:47:11Z</time>
      </trkpt>
      <trkpt lat="39.896216" lon="116.642668">
        <time>2021-05-11T12:47:16Z</time>
      </trkpt>
      <trkpt lat="39.89621" lon="116.642848">
        <time>2021-05-11T12:47:21Z</time>
      </trkpt>
      <trkpt lat="39.896173" lon="116.643038">
        <time>2021-05-11T12:47:26Z</time>
      </trkpt>
      <trkpt lat="39.896147" lon="116.643218">
        <time>2021-05-11T12:47:31Z</time>
      </trkpt>
      <trkpt lat="39.89615" lon="116.643401">
        <time>2021-05-11T12:47:36Z</time>
      </trkpt>
      <trkpt lat="39.896182" lon="116.643561">
        <time>2021-05-11T12:47:41Z</time>
      </trkpt>
      <trkpt lat="39.896207" lon="116.643726">
        <time>2021-05-11T12:47:46Z</time>
      </trkpt>
      <trkpt lat="39.896205" lon="116.64391">
        <time>2021-05-11T12:47:51Z</time>
      </trkpt>
      <trkpt lat="39.896205" lon="116.644069">
        <time>2021-05-11T12:47:56Z</time>
      </trkpt>
      <trkpt lat="39.896176" lon="116.644273">
        <time>2021-05-11T12:48:01Z</time>
      </trkpt>
      <trkpt lat="39.896166" lon="116.644578">
        <time>2021-05-11T12:48:06Z</time>
      </trkpt>
      <trkpt lat="39.896176" lon="116.64467">
        <time>2021-05-11T12:48:11Z</time>
      </trkpt>
      <trkpt lat="39.896179" lon="116.644896">
        <time>2021-05-11T12:48:16Z</time>
      </trkpt>
      <trkpt lat="39.896165" lon="116.645094">
        <time>2021-05-11T12:48:21Z</time>
      </trkpt>
      <trkpt lat="39.896142" lon="116.645276">
        <time>2021-05-11T12:48:26Z</time>
      </trkpt>
      <trkpt lat="39.896134" lon="116.645459">
        <time>2021-05-11T12:48:31Z</time>
      </trkpt>
      <trkpt lat="39.896095" lon="116.64562">
        <time>2021-05-11T12:48:36Z</time>
      </trkpt>
      <trkpt lat="39.896049" lon="116.645793">
        <time>2021-05-11T12:48:41Z</time>
      </trkpt>
      <trkpt lat="39.896035" lon="116.645986">
        <time>2021-05-11T12:48:46Z</time>
      </trkpt>
      <trkpt lat="39.896038" lon="116.646166">
        <time>2021-05-11T12:48:51Z</time>
      </trkpt>
      <trkpt lat="39.896037" lon="116.646281">
        <time>2021-05-11T12:48:56Z</time>
      </trkpt>
      <trkpt lat="39.896041" lon="116.646374">
        <time>2021-05-11T12:49:01Z</time>
      </trkpt>
      <trkpt lat="39.896043" lon="116.646452">
        <time>2021-05-11T12:49:06Z</time>
      </trkpt>
      <trkpt lat="39.896033" lon="116.64659">
        <time>2021-05-11T12:49:11Z</time>
      </trkpt>
      <trkpt lat="39.896028" lon="116.646691">
        <time>2021-05-11T12:49:16Z</time>
      </trkpt>
      <trkpt lat="39.896007" lon="116.646825">
        <time>2021-05-11T12:49:21Z</time>
      </trkpt>
      <trkpt lat="39.896029" lon="116.647003">
        <time>2021-05-11T12:49:26Z</time>
      </trkpt>
      <trkpt lat="39.896" lon="116.647178">
        <time>2021-05-11T12:49:31Z</time>
      </trkpt>
      <trkpt lat="39.895979" lon="116.647327">
        <time>2021-05-11T12:49:36Z</time>
      </trkpt>
      <trkpt lat="39.895958" lon="116.647445">
        <time>2021-05-11T12:49:41Z</time>
      </trkpt>
      <trkpt lat="39.895965" lon="116.647636">
        <time>2021-05-11T12:49:46Z</time>
      </trkpt>
      <trkpt lat="39.895969" lon="116.647853">
        <time>2021-05-11T12:49:51Z</time>
      </trkpt>
      <trkpt lat="39.895963" lon="116.648022">
        <time>2021-05-11T12:49:56Z</time>
      </trkpt>
      <trkpt lat="39.895939" lon="116.648112">
        <time>2021-05-11T12:50:01Z</time>
      </trkpt>
      <trkpt lat="39.895921" lon="116.648221">
        <time>2021-05-11T12:50:06Z</time>
      </trkpt>
      <trkpt lat="39.895874" lon="116.648343">
        <time>2021-05-11T12:50:11Z</time>
      </trkpt>
      <trkpt lat="39.895824" lon="116.648491">
        <time>2021-05-11T12:50:16Z</time>
      </trkpt>
      <trkpt lat="39.895771" lon="116.648655">
        <time>2021-05-11T12:50:21Z</time>
      </trkpt>
      <trkpt lat="39.895724" lon="116.648793">
        <time>2021-05-11T12:50:26Z</time>
      </trkpt>
      <trkpt lat="39.895655" lon="116.648923">
        <time>2021-05-11T12:50:31Z</time>
      </trkpt>
      <trkpt lat="39.895595" lon="116.649038">
        <time>2021-05-11T12:50:36Z</time>
      </trkpt>
      <trkpt lat="39.895498" lon="116.649147">
        <time>2021-05-11T12:50:41Z</time>
      </trkpt>
      <trkpt lat="39.895326" lon="116.649118">
        <time>2021-05-11T12:50:46Z</time>
      </trkpt>
      <trkpt lat="39.895171" lon="116.649072">
        <time>2021-05-11T12:50:51Z</time>
      </trkpt>
      <trkpt lat="39.895042" lon="116.649017">
        <time>2021-05-11T12:50:56Z</time>
      </trkpt>
      <trkpt lat="39.894966" lon="116.648952">
        <time>2021-05-11T12:51:01Z</time>
      </trkpt>
      <trkpt lat="39.894842" lon="116.648871">
        <time>2021-05-11T12:51:06Z</time>
      </trkpt>
      <trkpt lat="39.894727" lon="116.648787">
        <time>2021-05-11T12:51:11Z</time>
      </trkpt>
      <trkpt lat="39.894578" lon="116.648717">
        <time>2021-05-11T12:51:16Z</time>
      </trkpt>
      <trkpt lat="39.894456" lon="116.648675">
        <time>2021-05-11T12:51:21Z</time>
      </trkpt>
      <trkpt lat="39.894371" lon="116.64858">
        <time>2021-05-11T12:51:26Z</time>
      </trkpt>
      <trkpt lat="39.89434" lon="116.648493">
        <time>2021-05-11T12:51:31Z</time>
      </trkpt>
      <trkpt lat="39.894222" lon="116.648432">
        <time>2021-05-11T12:51:36Z</time>
      </trkpt>
      <trkpt lat="39.894087" lon="116.648334">
        <time>2021-05-11T12:51:41Z</time>
      </trkpt>
      <trkpt lat="39.893939" lon="116.648298">
        <time>2021-05-11T12:51:46Z</time>
      </trkpt>
      <trkpt lat="39.893741" lon="116.648233">
        <time>2021-05-11T12:51:51Z</time>
      </trkpt>
      <trkpt lat="39.893719" lon="116.648217">
        <time>2021-05-11T12:51:56Z</time>
      </trkpt>
      <trkpt lat="39.893603" lon="116.648162">
        <time>2021-05-11T12:52:01Z</time>
      </trkpt>
      <trkpt lat="39.893495" lon="116.648099">
        <time>2021-05-11T12:52:06Z</time>
      </trkpt>
      <trkpt lat="39.893417" lon="116.648076">
        <time>2021-05-11T12:52:11Z</time>
      </trkpt>
      <trkpt lat="39.893345" lon="116.648073">
        <time>2021-05-11T12:52:16Z</time>
      </trkpt>
      <trkpt lat="39.893299" lon="116.648049">
        <time>2021-05-11T12:52:21Z</time>
      </trkpt>
      <trkpt lat="39.893221" lon="116.648031">
        <time>2021-05-11T12:52:26Z</time>
      </trkpt>
      <trkpt lat="39.893121" lon="116.648008">
        <time>2021-05-11T12:52:31Z</time>
      </trkpt>
      <trkpt lat="39.89297" lon="116.648023">
        <time>2021-05-11T12:52:36Z</time>
      </trkpt>
      <trkpt lat="39.892868" lon="116.648025">
        <time>2021-05-11T12:52:41Z</time>
      </trkpt>
      <trkpt lat="39.892714" lon="116.648033">
        <time>2021-05-11T12:52:46Z</time>
      </trkpt>
      <trkpt lat="39.89259" lon="116.648034">
        <time>2021-05-11T12:52:51Z</time>
      </trkpt>
      <trkpt lat="39.892555" lon="116.647916">
        <time>2021-05-11T12:52:56Z</time>
      </trkpt>
      <trkpt lat="39.892599" lon="116.647774">
        <time>2021-05-11T12:53:01Z</time>
      </trkpt>
      <trkpt lat="39.892607" lon="116.647614">
        <time>2021-05-11T12:53:06Z</time>
      </trkpt>
      <trkpt lat="39.892615" lon="116.647471">
        <time>2021-05-11T12:53:11Z</time>
      </trkpt>
      <trkpt lat="39.892615" lon="116.647284">
        <time>2021-05-11T12:53:16Z</time>
      </trkpt>
      <trkpt lat="39.8926" lon="116.647078">
        <time>2021-05-11T12:53:21Z</time>
      </trkpt>
      <trkpt lat="39.892596" lon="116.646899">
        <time>2021-05-11T12:53:26Z</time>
      </trkpt>
      <trkpt lat="39.892591" lon="116.646725">
        <time>2021-05-11T12:53:31Z</time>
      </trkpt>
      <trkpt lat="39.892587" lon="116.646556">
        <time>2021-05-11T12:53:36Z</time>
      </trkpt>
      <trkpt lat="39.892604" lon="116.646422">
        <time>2021-05-11T12:53:41Z</time>
      </trkpt>
      <trkpt lat="39.89267" lon="116.646336">
        <time>2021-05-11T12:53:46Z</time>
      </trkpt>
      <trkpt lat="39.892689" lon="116.646174">
        <time>2021-05-11T12:53:51Z</time>
      </trkpt>
      <trkpt lat="39.892604" lon="116.64599">
        <time>2021-05-11T12:53:56Z</time>
      </trkpt>
      <trkpt lat="39.892403" lon="116.645873">
        <time>2021-05-11T12:54:01Z</time>
      </trkpt>
      <trkpt lat="39.892239" lon="116.6458">
        <time>2021-05-11T12:54:06Z</time>
      </trkpt>
      <trkpt lat="39.89213" lon="116.645717">
        <time>2021-05-11T12:54:11Z</time>
      </trkpt>
      <trkpt lat="39.892023" lon="116.645667">
        <time>2021-05-11T12:54:16Z</time>
      </trkpt>
      <trkpt lat="39.891899" lon="116.645626">
        <time>2021-05-11T12:54:21Z</time>
      </trkpt>
      <trkpt lat="39.891815" lon="116.645597">
        <time>2021-05-11T12:54:26Z</time>
      </trkpt>
      <trkpt lat="39.89177" lon="116.64555">
        <time>2021-05-11T12:54:31Z</time>
      </trkpt>
      <trkpt lat="39.891735" lon="116.645494">
        <time>2021-05-11T12:54:36Z</time>
      </trkpt>
      <trkpt lat="39.891638" lon="116.645438">
        <time>2021-05-11T12:54:41Z</time>
      </trkpt>
      <trkpt lat="39.891543" lon="116.645406">
        <time>2021-05-11T12:54:46Z</time>
      </trkpt>
      <trkpt lat="39.891543" lon="116.645393">
        <time>2021-05-11T12:54:51Z</time>
      </trkpt>
      <trkpt lat="39.891656" lon="116.645418">
        <time>2021-05-11T12:54:56Z</time>
      </trkpt>
      <trkpt lat="39.891761" lon="116.645474">
        <time>2021-05-11T12:55:01Z</time>
      </trkpt>
      <trkpt lat="39.891841" lon="116.645535">
        <time>2021-05-11T12:55:06Z</time>
      </trkpt>
      <trkpt lat="39.89193" lon="116.645594">
        <time>2021-05-11T12:55:11Z</time>
      </trkpt>
      <trkpt lat="39.892052" lon="116.645664">
        <time>2021-05-11T12:55:16Z</time>
      </trkpt>
      <trkpt lat="39.892189" lon="116.645693">
        <time>2021-05-11T12:55:21Z</time>
      </trkpt>
      <trkpt lat="39.892293" lon="116.645758">
        <time>2021-05-11T12:55:26Z</time>
      </trkpt>
      <trkpt lat="39.892439" lon="116.645814">
        <time>2021-05-11T12:55:31Z</time>
      </trkpt>
      <trkpt lat="39.892575" lon="116.645887">
        <time>2021-05-11T12:55:36Z</time>
      </trkpt>
      <trkpt lat="39.8926" lon="116.645994">
        <time>2021-05-11T12:55:41Z</time>
      </trkpt>
      <trkpt lat="39.892612" lon="116.646238">
        <time>2021-05-11T12:55:46Z</time>
      </trkpt>
      <trkpt lat="39.892607" lon="116.646314">
        <time>2021-05-11T12:55:51Z</time>
      </trkpt>
      <trkpt lat="39.892617" lon="116.646471">
        <time>2021-05-11T12:55:56Z</time>
      </trkpt>
      <trkpt lat="39.892643" lon="116.646626">
        <time>2021-05-11T12:56:01Z</time>
      </trkpt>
      <trkpt lat="39.892638" lon="116.646787">
        <time>2021-05-11T12:56:06Z</time>
      </trkpt>
      <trkpt lat="39.892625" lon="116.646985">
        <time>2021-05-11T12:56:11Z</time>
      </trkpt>
      <trkpt lat="39.892586" lon="116.647299">
        <time>2021-05-11T12:56:16Z</time>
      </trkpt>
      <trkpt lat="39.89258" lon="116.647411">
        <time>2021-05-11T12:56:21Z</time>
      </trkpt>
      <trkpt lat="39.892551" lon="116.647559">
        <time>2021-05-11T12:56:26Z</time>
      </trkpt>
      <trkpt lat="39.892538" lon="116.647703">
        <time>2021-05-11T12:56:31Z</time>
      </trkpt>
      <trkpt lat="39.892553" lon="116.647879">
        <time>2021-05-11T12:56:36Z</time>
      </trkpt>
      <trkpt lat="39.892582" lon="116.64796">
        <time>2021-05-11T12:56:41Z</time>
      </trkpt>
      <trkpt lat="39.892701" lon="116.648004">
        <time>2021-05-11T12:56:46Z</time>
      </trkpt>
      <trkpt lat="39.8928" lon="116.648021">
        <time>2021-05-11T12:56:51Z</time>
      </trkpt>
      <trkpt lat="39.892925" lon="116.648051">
        <time>2021-05-11T12:56:56Z</time>
      </trkpt>
      <trkpt lat="39.893148" lon="116.64806">
        <time>2021-05-11T12:57:01Z</time>
      </trkpt>
      <trkpt lat="39.893299" lon="116.648048">
        <time>2021-05-11T12:57:06Z</time>
      </trkpt>
      <trkpt lat="39.893367" lon="116.64804">
        <time>2021-05-11T12:57:11Z</time>
      </trkpt>
      <trkpt lat="39.893447" lon="116.648033">
        <time>2021-05-11T12:57:16Z</time>
      </trkpt>
      <trkpt lat="39.893536" lon="116.648071">
        <time>2021-05-11T12:57:21Z</time>
      </trkpt>
      <trkpt lat="39.893589" lon="116.648153">
        <time>2021-05-11T12:57:26Z</time>
      </trkpt>
      <trkpt lat="39.893704" lon="116.648203">
        <time>2021-05-11T12:57:31Z</time>
      </trkpt>
      <trkpt lat="39.893828" lon="116.648244">
        <time>2021-05-11T12:57:36Z</time>
      </trkpt>
      <trkpt lat="39.893927" lon="116.648305">
        <time>2021-05-11T12:57:41Z</time>
      </trkpt>
      <trkpt lat="39.894031" lon="116.648395">
        <time>2021-05-11T12:57:46Z</time>
      </trkpt>
      <trkpt lat="39.894214" lon="116.648457">
        <time>2021-05-11T12:57:51Z</time>
      </trkpt>
      <trkpt lat="39.894362" lon="116.648497">
        <time>2021-05-11T12:57:56Z</time>
      </trkpt>
      <trkpt lat="39.894434" lon="116.648566">
        <time>2021-05-11T12:58:01Z</time>
      </trkpt>
      <trkpt lat="39.894609" lon="116.648619">
        <time>2021-05-11T12:58:06Z</time>
      </trkpt>
      <trkpt lat="39.894769" lon="116.648673">
        <time>2021-05-11T12:58:11Z</time>
      </trkpt>
      <trkpt lat="39.894901" lon="116.648755">
        <time>2021-05-11T12:58:16Z</time>
      </trkpt>
      <trkpt lat="39.895073" lon="116.648922">
        <time>2021-05-11T12:58:21Z</time>
      </trkpt>
      <trkpt lat="39.895095" lon="116.648938">
        <time>2021-05-11T12:58:26Z</time>
      </trkpt>
      <trkpt lat="39.895221" lon="116.649029">
        <time>2021-05-11T12:58:31Z</time>
      </trkpt>
      <trkpt lat="39.895342" lon="116.649055">
        <time>2021-05-11T12:58:36Z</time>
      </trkpt>
      <trkpt lat="39.895478" lon="116.649102">
        <time>2021-05-11T12:58:41Z</time>
      </trkpt>
      <trkpt lat="39.895619" lon="116.649059">
        <time>2021-05-11T12:58:46Z</time>
      </trkpt>
      <trkpt lat="39.895714" lon="116.6489">
        <time>2021-05-11T12:58:51Z</time>
      </trkpt>
      <trkpt lat="39.895731" lon="116.648743">
        <time>2021-05-11T12:58:56Z</time>
      </trkpt>
      <trkpt lat="39.895752" lon="116.648584">
        <time>2021-05-11T12:59:01Z</time>
      </trkpt>
      <trkpt lat="39.895798" lon="116.648424">
        <time>2021-05-11T12:59:06Z</time>
      </trkpt>
      <trkpt lat="39.895845" lon="116.64826">
        <time>2021-05-11T12:59:11Z</time>
      </trkpt>
      <trkpt lat="39.895895" lon="116.648106">
        <time>2021-05-11T12:59:16Z</time>
      </trkpt>
      <trkpt lat="39.895934" lon="116.647964">
        <time>2021-05-11T12:59:21Z</time>
      </trkpt>
      <trkpt lat="39.895898" lon="116.647788">
        <time>2021-05-11T12:59:26Z</time>
      </trkpt>
      <trkpt lat="39.895901" lon="116.647624">
        <time>2021-05-11T12:59:31Z</time>
      </trkpt>
      <trkpt lat="39.895915" lon="116.647528">
        <time>2021-05-11T12:59:36Z</time>
      </trkpt>
      <trkpt lat="39.895931" lon="116.647353">
        <time>2021-05-11T12:59:41Z</time>
      </trkpt>
      <trkpt lat="39.895897" lon="116.64716">
        <time>2021-05-11T12:59:46Z</time>
      </trkpt>
      <trkpt lat="39.895826" lon="116.647062">
        <time>2021-05-11T12:59:51Z</time>
      </trkpt>
      <trkpt lat="39.895803" lon="116.647196">
        <time>2021-05-11T12:59:56Z</time>
      </trkpt>
      <trkpt lat="39.895767" lon="116.647413">
        <time>2021-05-11T13:00:01Z</time>
      </trkpt>
      <trkpt lat="39.895708" lon="116.647627">
        <time>2021-05-11T13:00:06Z</time>
      </trkpt>
      <trkpt lat="39.895731" lon="116.647896">
        <time>2021-05-11T13:00:11Z</time>
      </trkpt>
      <trkpt lat="39.895768" lon="116.648098">
        <time>2021-05-11T13:00:16Z</time>
      </trkpt>
      <trkpt lat="39.895791" lon="116.648306">
        <time>2021-05-11T13:00:21Z</time>
      </trkpt>
      <trkpt lat="39.895778" lon="116.648493">
        <time>2021-05-11T13:00:26Z</time>
      </trkpt>
      <trkpt lat="39.895815" lon="116.648589">
        <time>2021-05-11T13:00:31Z</time>
      </trkpt>
      <trkpt lat="39.89585" lon="116.648419">
        <time>2021-05-11T13:00:36Z</time>
      </trkpt>
      <trkpt lat="39.895889" lon="116.648198">
        <time>2021-05-11T13:00:41Z</time>
      </trkpt>
      <trkpt lat="39.895915" lon="116.648008">
        <time>2021-05-11T13:00:46Z</time>
      </trkpt>
      <trkpt lat="39.895929" lon="116.647826">
        <time>2021-05-11T13:00:51Z</time>
      </trkpt>
      <trkpt lat="39.895919" lon="116.647632">
        <time>2021-05-11T13:00:56Z</time>
      </trkpt>
      <trkpt lat="39.895932" lon="116.647453">
        <time>2021-05-11T13:01:01Z</time>
      </trkpt>
      <trkpt lat="39.895934" lon="116.647258">
        <time>2021-05-11T13:01:06Z</time>
      </trkpt>
      <trkpt lat="39.895952" lon="116.64714">
        <time>2021-05-11T13:01:11Z</time>
      </trkpt>
      <trkpt lat="39.895879" lon="116.647152">
        <time>2021-05-11T13:01:16Z</time>
      </trkpt>
      <trkpt lat="39.895824" lon="116.647267">
        <time>2021-05-11T13:01:21Z</time>
      </trkpt>
      <trkpt lat="39.895757" lon="116.647445">
        <time>2021-05-11T13:01:26Z</time>
      </trkpt>
      <trkpt lat="39.89571" lon="116.647633">
        <time>2021-05-11T13:01:31Z</time>
      </trkpt>
      <trkpt lat="39.895703" lon="116.647807">
        <time>2021-05-11T13:01:36Z</time>
      </trkpt>
      <trkpt lat="39.895722" lon="116.648006">
        <time>2021-05-11T13:01:41Z</time>
      </trkpt>
      <trkpt lat="39.895714" lon="116.648208">
        <time>2021-05-11T13:01:46Z</time>
      </trkpt>
      <trkpt lat="39.895684" lon="116.648407">
        <time>2021-05-11T13:01:51Z</time>
      </trkpt>
      <trkpt lat="39.895726" lon="116.648565">
        <time>2021-05-11T13:01:56Z</time>
      </trkpt>
      <trkpt lat="39.895818" lon="116.648459">
        <time>2021-05-11T13:02:01Z</time>
      </trkpt>
      <trkpt lat="39.895871" lon="116.648325">
        <time>2021-05-11T13:02:06Z</time>
      </trkpt>
      <trkpt lat="39.895913" lon="116.648099">
        <time>2021-05-11T13:02:11Z</time>
      </trkpt>
      <trkpt lat="39.89594" lon="116.64787">
        <time>2021-05-11T13:02:16Z</time>
      </trkpt>
      <trkpt lat="39.895939" lon="116.647696">
        <time>2021-05-11T13:02:21Z</time>
      </trkpt>
      <trkpt lat="39.895939" lon="116.647528">
        <time>2021-05-11T13:02:26Z</time>
      </trkpt>
      <trkpt lat="39.895964" lon="116.647378">
        <time>2021-05-11T13:02:31Z</time>
      </trkpt>
      <trkpt lat="39.896006" lon="116.647217">
        <time>2021-05-11T13:02:36Z</time>
      </trkpt>
      <trkpt lat="39.896016" lon="116.647024">
        <time>2021-05-11T13:02:41Z</time>
      </trkpt>
      <trkpt lat="39.896006" lon="116.646797">
        <time>2021-05-11T13:02:46Z</time>
      </trkpt>
      <trkpt lat="39.896014" lon="116.646597">
        <time>2021-05-11T13:02:51Z</time>
      </trkpt>
      <trkpt lat="39.896041" lon="116.646417">
        <time>2021-05-11T13:02:56Z</time>
      </trkpt>
      <trkpt lat="39.896055" lon="116.646224">
        <time>2021-05-11T13:03:01Z</time>
      </trkpt>
      <trkpt lat="39.896052" lon="116.646035">
        <time>2021-05-11T13:03:06Z</time>
      </trkpt>
      <trkpt lat="39.896078" lon="116.645845">
        <time>2021-05-11T13:03:11Z</time>
      </trkpt>
      <trkpt lat="39.896103" lon="116.645673">
        <time>2021-05-11T13:03:16Z</time>
      </trkpt>
      <trkpt lat="39.896113" lon="116.645541">
        <time>2021-05-11T13:03:21Z</time>
      </trkpt>
      <trkpt lat="39.896154" lon="116.645404">
        <time>2021-05-11T13:03:26Z</time>
      </trkpt>
      <trkpt lat="39.89617" lon="116.645241">
        <time>2021-05-11T13:03:31Z</time>
      </trkpt>
      <trkpt lat="39.896187" lon="116.645063">
        <time>2021-05-11T13:03:36Z</time>
      </trkpt>
      <trkpt lat="39.896202" lon="116.644868">
        <time>2021-05-11T13:03:41Z</time>
      </trkpt>
      <trkpt lat="39.896184" lon="116.644678">
        <time>2021-05-11T13:03:46Z</time>
      </trkpt>
      <trkpt lat="39.896175" lon="116.644489">
        <time>2021-05-11T13:03:51Z</time>
      </trkpt>
      <trkpt lat="39.896167" lon="116.64428">
        <time>2021-05-11T13:03:56Z</time>
      </trkpt>
      <trkpt lat="39.896171" lon="116.644076">
        <time>2021-05-11T13:04:01Z</time>
      </trkpt>
      <trkpt lat="39.896159" lon="116.643779">
        <time>2021-05-11T13:04:06Z</time>
      </trkpt>
      <trkpt lat="39.896158" lon="116.643747">
        <time>2021-05-11T13:04:11Z</time>
      </trkpt>
      <trkpt lat="39.896163" lon="116.643585">
        <time>2021-05-11T13:04:16Z</time>
      </trkpt>
      <trkpt lat="39.89615" lon="116.643427">
        <time>2021-05-11T13:04:21Z</time>
      </trkpt>
      <trkpt lat="39.896147" lon="116.643268">
        <time>2021-05-11T13:04:26Z</time>
      </trkpt>
      <trkpt lat="39.896172" lon="116.643107">
        <time>2021-05-11T13:04:31Z</time>
      </trkpt>
      <trkpt lat="39.896168" lon="116.643021">
        <time>2021-05-11T13:04:36Z</time>
      </trkpt>
      <trkpt lat="39.896151" lon="116.642868">
        <time>2021-05-11T13:04:41Z</time>
      </trkpt>
      <trkpt lat="39.89615" lon="116.642748">
        <time>2021-05-11T13:04:46Z</time>
      </trkpt>
      <trkpt lat="39.896146" lon="116.642653">
        <time>2021-05-11T13:04:51Z</time>
      </trkpt>
      <trkpt lat="39.896174" lon="116.642521">
        <time>2021-05-11T13:04:56Z</time>
      </trkpt>
      <trkpt lat="39.8962" lon="116.642384">
        <time>2021-05-11T13:05:01Z</time>
      </trkpt>
      <trkpt lat="39.896186" lon="116.642195">
        <time>2021-05-11T13:05:06Z</time>
      </trkpt>
      <trkpt lat="39.896184" lon="116.641985">
        <time>2021-05-11T13:05:11Z</time>
      </trkpt>
      <trkpt lat="39.896201" lon="116.641804">
        <time>2021-05-11T13:05:16Z</time>
      </trkpt>
      <trkpt lat="39.896212" lon="116.641633">
        <time>2021-05-11T13:05:21Z</time>
      </trkpt>
      <trkpt lat="39.896226" lon="116.641497">
        <time>2021-05-11T13:05:26Z</time>
      </trkpt>
      <trkpt lat="39.896245" lon="116.641309">
        <time>2021-05-11T13:05:31Z</time>
      </trkpt>
      <trkpt lat="39.896237" lon="116.641138">
        <time>2021-05-11T13:05:36Z</time>
      </trkpt>
      <trkpt lat="39.896252" lon="116.640964">
        <time>2021-05-11T13:05:41Z</time>
      </trkpt>
      <trkpt lat="39.896251" lon="116.640787">
        <time>2021-05-11T13:05:46Z</time>
      </trkpt>
      <trkpt lat="39.896217" lon="116.640619">
        <time>2021-05-11T13:05:51Z</time>
      </trkpt>
      <trkpt lat="39.896209" lon="116.640464">
        <time>2021-05-11T13:05:56Z</time>
      </trkpt>
      <trkpt lat="39.896216" lon="116.64029">
        <time>2021-05-11T13:06:01Z</time>
      </trkpt>
      <trkpt lat="39.89622" lon="116.640072">
        <time>2021-05-11T13:06:06Z</time>
      </trkpt>
      <trkpt lat="39.896211" lon="116.639897">
        <time>2021-05-11T13:06:11Z</time>
      </trkpt>
      <trkpt lat="39.896192" lon="116.63974">
        <time>2021-05-11T13:06:16Z</time>
      </trkpt>
      <trkpt lat="39.896181" lon="116.6396">
        <time>2021-05-11T13:06:21Z</time>
      </trkpt>
      <trkpt lat="39.896174" lon="116.639443">
        <time>2021-05-11T13:06:26Z</time>
      </trkpt>
      <trkpt lat="39.89615" lon="116.639258">
        <time>2021-05-11T13:06:31Z</time>
      </trkpt>
      <trkpt lat="39.896132" lon="116.639099">
        <time>2021-05-11T13:06:36Z</time>
      </trkpt>
      <trkpt lat="39.896135" lon="116.638943">
        <time>2021-05-11T13:06:41Z</time>
      </trkpt>
      <trkpt lat="39.896118" lon="116.638748">
        <time>2021-05-11T13:06:46Z</time>
      </trkpt>
      <trkpt lat="39.896116" lon="116.638596">
        <time>2021-05-11T13:06:51Z</time>
      </trkpt>
      <trkpt lat="39.896109" lon="116.638444">
        <time>2021-05-11T13:06:56Z</time>
      </trkpt>
      <trkpt lat="39.896126" lon="116.638263">
        <time>2021-05-11T13:07:01Z</time>
      </trkpt>
      <trkpt lat="39.896122" lon="116.638069">
        <time>2021-05-11T13:07:06Z</time>
      </trkpt>
      <trkpt lat="39.896123" lon="116.63789">
        <time>2021-05-11T13:07:11Z</time>
      </trkpt>
      <trkpt lat="39.896107" lon="116.637713">
        <time>2021-05-11T13:07:16Z</time>
      </trkpt>
      <trkpt lat="39.896098" lon="116.637564">
        <time>2021-05-11T13:07:21Z</time>
      </trkpt>
      <trkpt lat="39.896081" lon="116.637411">
        <time>2021-05-11T13:07:26Z</time>
      </trkpt>
      <trkpt lat="39.896085" lon="116.637279">
        <time>2021-05-11T13:07:31Z</time>
      </trkpt>
      <trkpt lat="39.896115" lon="116.637161">
        <time>2021-05-11T13:07:36Z</time>
      </trkpt>
      <trkpt lat="39.896131" lon="116.637034">
        <time>2021-05-11T13:07:41Z</time>
      </trkpt>
      <trkpt lat="39.896115" lon="116.636891">
        <time>2021-05-11T13:07:46Z</time>
      </trkpt>
      <trkpt lat="39.896079" lon="116.636712">
        <time>2021-05-11T13:07:51Z</time>
      </trkpt>
      <trkpt lat="39.896009" lon="116.636647">
        <time>2021-05-11T13:07:56Z</time>
      </trkpt>
      <trkpt lat="39.895867" lon="116.636547">
        <time>2021-05-11T13:08:01Z</time>
      </trkpt>
      <trkpt lat="39.895874" lon="116.636417">
        <time>2021-05-11T13:08:06Z</time>
      </trkpt>
      <trkpt lat="39.896042" lon="116.636337">
        <time>2021-05-11T13:08:11Z</time>
      </trkpt>
      <trkpt lat="39.896187" lon="116.636233">
        <time>2021-05-11T13:08:16Z</time>
      </trkpt>
      <trkpt lat="39.896321" lon="116.636171">
        <time>2021-05-11T13:08:21Z</time>
      </trkpt>
      <trkpt lat="39.896456" lon="116.636116">
        <time>2021-05-11T13:08:26Z</time>
      </trkpt>
      <trkpt lat="39.896659" lon="116.635899">
        <time>2021-05-11T13:08:31Z</time>
      </trkpt>
      <trkpt lat="39.896722" lon="116.635864">
        <time>2021-05-11T13:08:36Z</time>
      </trkpt>
      <trkpt lat="39.89695" lon="116.635725">
        <time>2021-05-11T13:08:41Z</time>
      </trkpt>
      <trkpt lat="39.896966" lon="116.635709">
        <time>2021-05-11T13:08:46Z</time>
      </trkpt>
      <trkpt lat="39.897021" lon="116.635688">
        <time>2021-05-11T13:08:51Z</time>
      </trkpt>
      <trkpt lat="39.897081" lon="116.635659">
        <time>2021-05-11T13:08:56Z</time>
      </trkpt>
      <trkpt lat="39.897157" lon="116.635617">
        <time>2021-05-11T13:09:01Z</time>
      </trkpt>
      <trkpt lat="39.897227" lon="116.635589">
        <time>2021-05-11T13:09:06Z</time>
      </trkpt>
      <trkpt lat="39.897311" lon="116.63555">
        <time>2021-05-11T13:09:11Z</time>
      </trkpt>
      <trkpt lat="39.897441" lon="116.63542">
        <time>2021-05-11T13:09:16Z</time>
      </trkpt>
      <trkpt lat="39.897497" lon="116.635413">
        <time>2021-05-11T13:09:21Z</time>
      </trkpt>
      <trkpt lat="39.897622" lon="116.635326">
        <time>2021-05-11T13:09:26Z</time>
      </trkpt>
      <trkpt lat="39.897753" lon="116.635243">
        <time>2021-05-11T13:09:31Z</time>
      </trkpt>
      <trkpt lat="39.897882" lon="116.63517">
        <time>2021-05-11T13:09:36Z</time>
      </trkpt>
      <trkpt lat="39.897987" lon="116.635096">
        <time>2021-05-11T13:09:41Z</time>
      </trkpt>
      <trkpt lat="39.89805" lon="116.635023">
        <time>2021-05-11T13:09:46Z</time>
      </trkpt>
      <trkpt lat="39.898133" lon="116.634967">
        <time>2021-05-11T13:09:51Z</time>
      </trkpt>
      <trkpt lat="39.898198" lon="116.634927">
        <time>2021-05-11T13:09:56Z</time>
      </trkpt>
      <trkpt lat="39.898284" lon="116.634912">
        <time>2021-05-11T13:10:01Z</time>
      </trkpt>
      <trkpt lat="39.898387" lon="116.634893">
        <time>2021-05-11T13:10:06Z</time>
      </trkpt>
      <trkpt lat="39.89852" lon="116.634804">
        <time>2021-05-11T13:10:11Z</time>
      </trkpt>
      <trkpt lat="39.898632" lon="116.63471">
        <time>2021-05-11T13:10:16Z</time>
      </trkpt>
      <trkpt lat="39.898757" lon="116.634616">
        <time>2021-05-11T13:10:21Z</time>
      </trkpt>
      <trkpt lat="39.898832" lon="116.634579">
        <time>2021-05-11T13:10:26Z</time>
      </trkpt>
      <trkpt lat="39.898902" lon="116.634541">
        <time>2021-05-11T13:10:31Z</time>
      </trkpt>
      <trkpt lat="39.898964" lon="116.63452">
        <time>2021-05-11T13:10:36Z</time>
      </trkpt>
      <trkpt lat="39.899026" lon="116.63451">
        <time>2021-05-11T13:10:41Z</time>
      </trkpt>
      <trkpt lat="39.89911" lon="116.634448">
        <time>2021-05-11T13:10:46Z</time>
      </trkpt>
      <trkpt lat="39.899173" lon="116.634403">
        <time>2021-05-11T13:10:51Z</time>
      </trkpt>
      <trkpt lat="39.899287" lon="116.634287">
        <time>2021-05-11T13:10:56Z</time>
      </trkpt>
      <trkpt lat="39.899412" lon="116.634276">
        <time>2021-05-11T13:11:01Z</time>
      </trkpt>
      <trkpt lat="39.899525" lon="116.634257">
        <time>2021-05-11T13:11:06Z</time>
      </trkpt>
      <trkpt lat="39.899632" lon="116.634209">
        <time>2021-05-11T13:11:11Z</time>
      </trkpt>
      <trkpt lat="39.899815" lon="116.634036">
        <time>2021-05-11T13:11:16Z</time>
      </trkpt>
      <trkpt lat="39.899865" lon="116.633987">
        <time>2021-05-11T13:11:21Z</time>
      </trkpt>
      <trkpt lat="39.899986" lon="116.633872">
        <time>2021-05-11T13:11:26Z</time>
      </trkpt>
      <trkpt lat="39.900101" lon="116.633746">
        <time>2021-05-11T13:11:31Z</time>
      </trkpt>
      <trkpt lat="39.900162" lon="116.633683">
        <time>2021-05-11T13:11:36Z</time>
      </trkpt>
      <trkpt lat="39.900225" lon="116.63364">
        <time>2021-05-11T13:11:41Z</time>
      </trkpt>
      <trkpt lat="39.900288" lon="116.633589">
        <time>2021-05-11T13:11:46Z</time>
      </trkpt>
      <trkpt lat="39.900347" lon="116.633536">
        <time>2021-05-11T13:11:51Z</time>
      </trkpt>
      <trkpt lat="39.900402" lon="116.633508">
        <time>2021-05-11T13:11:56Z</time>
      </trkpt>
      <trkpt lat="39.900499" lon="116.633452">
        <time>2021-05-11T13:12:01Z</time>
      </trkpt>
      <trkpt lat="39.900592" lon="116.633372">
        <time>2021-05-11T13:12:06Z</time>
      </trkpt>
      <trkpt lat="39.900683" lon="116.633323">
        <time>2021-05-11T13:12:11Z</time>
      </trkpt>
      <trkpt lat="39.900795" lon="116.633285">
        <time>2021-05-11T13:12:16Z</time>
      </trkpt>
      <trkpt lat="39.900937" lon="116.633189">
        <time>2021-05-11T13:12:21Z</time>
      </trkpt>
      <trkpt lat="39.900937" lon="116.633189">
        <time>2021-05-11T13:12:26Z</time>
      </trkpt>
      <trkpt lat="39.900963" lon="116.633174">
        <time>2021-05-11T13:12:31Z</time>
      </trkpt>
      <trkpt lat="39.900917" lon="116.632942">
        <time>2021-05-11T13:12:36Z</time>
      </trkpt>
      <trkpt lat="39.900753" lon="116.63278">
        <time>2021-05-11T13:12:41Z</time>
      </trkpt>
      <trkpt lat="39.900588" lon="116.63289">
        <time>2021-05-11T13:12:46Z</time>
      </trkpt>
      <trkpt lat="39.900446" lon="116.633024">
        <time>2021-05-11T13:12:51Z</time>
      </trkpt>
      <trkpt lat="39.900292" lon="116.633155">
        <time>2021-05-11T13:12:56Z</time>
      </trkpt>
      <trkpt lat="39.900158" lon="116.63327">
        <time>2021-05-11T13:13:01Z</time>
      </trkpt>
      <trkpt lat="39.90004" lon="116.633378">
        <time>2021-05-11T13:13:06Z</time>
      </trkpt>
      <trkpt lat="39.899934" lon="116.633454">
        <time>2021-05-11T13:13:11Z</time>
      </trkpt>
      <trkpt lat="39.899826" lon="116.633551">
        <time>2021-05-11T13:13:16Z</time>
      </trkpt>
      <trkpt lat="39.899734" lon="116.633599">
        <time>2021-05-11T13:13:21Z</time>
      </trkpt>
      <trkpt lat="39.899615" lon="116.633694">
        <time>2021-05-11T13:13:26Z</time>
      </trkpt>
      <trkpt lat="39.899539" lon="116.633762">
        <time>2021-05-11T13:13:31Z</time>
      </trkpt>
      <trkpt lat="39.89944" lon="116.633817">
        <time>2021-05-11T13:13:36Z</time>
      </trkpt>
      <trkpt lat="39.899395" lon="116.633842">
        <time>2021-05-11T13:13:41Z</time>
      </trkpt>
      <trkpt lat="39.899329" lon="116.633871">
        <time>2021-05-11T13:13:46Z</time>
      </trkpt>
      <trkpt lat="39.899234" lon="116.633889">
        <time>2021-05-11T13:13:51Z</time>
      </trkpt>
      <trkpt lat="39.899198" lon="116.633908">
        <time>2021-05-11T13:13:56Z</time>
      </trkpt>
      <trkpt lat="39.899132" lon="116.633976">
        <time>2021-05-11T13:14:01Z</time>
      </trkpt>
      <trkpt lat="39.899048" lon="116.63405">
        <time>2021-05-11T13:14:06Z</time>
      </trkpt>
      <trkpt lat="39.898952" lon="116.634088">
        <time>2021-05-11T13:14:11Z</time>
      </trkpt>
      <trkpt lat="39.898847" lon="116.634146">
        <time>2021-05-11T13:14:16Z</time>
      </trkpt>
      <trkpt lat="39.898729" lon="116.634251">
        <time>2021-05-11T13:14:21Z</time>
      </trkpt>
      <trkpt lat="39.898591" lon="116.634376">
        <time>2021-05-11T13:14:26Z</time>
      </trkpt>
      <trkpt lat="39.898513" lon="116.634425">
        <time>2021-05-11T13:14:31Z</time>
      </trkpt>
      <trkpt lat="39.898409" lon="116.634486">
        <time>2021-05-11T13:14:36Z</time>
      </trkpt>
      <trkpt lat="39.898283" lon="116.634572">
        <time>2021-05-11T13:14:41Z</time>
      </trkpt>
      <trkpt lat="39.898189" lon="116.634653">
        <time>2021-05-11T13:14:46Z</time>
      </trkpt>
      <trkpt lat="39.898116" lon="116.634696">
        <time>2021-05-11T13:14:51Z</time>
      </trkpt>
      <trkpt lat="39.898051" lon="116.634673">
        <time>2021-05-11T13:14:56Z</time>
      </trkpt>
      <trkpt lat="39.898019" lon="116.634541">
        <time>2021-05-11T13:15:01Z</time>
      </trkpt>
      <trkpt lat="39.897961" lon="116.634398">
        <time>2021-05-11T13:15:06Z</time>
      </trkpt>
      <trkpt lat="39.897884" lon="116.634233">
        <time>2021-05-11T13:15:11Z</time>
      </trkpt>
      <trkpt lat="39.897771" lon="116.634031">
        <time>2021-05-11T13:15:16Z</time>
      </trkpt>
      <trkpt lat="39.897707" lon="116.633888">
        <time>2021-05-11T13:15:21Z</time>
      </trkpt>
      <trkpt lat="39.897634" lon="116.633776">
        <time>2021-05-11T13:15:26Z</time>
      </trkpt>
      <trkpt lat="39.897545" lon="116.633684">
        <time>2021-05-11T13:15:31Z</time>
      </trkpt>
      <trkpt lat="39.897426" lon="116.633757">
        <time>2021-05-11T13:15:36Z</time>
      </trkpt>
      <trkpt lat="39.897346" lon="116.633921">
        <time>2021-05-11T13:15:41Z</time>
      </trkpt>
      <trkpt lat="39.897399" lon="116.634092">
        <time>2021-05-11T13:15:46Z</time>
      </trkpt>
      <trkpt lat="39.897418" lon="116.634299">
        <time>2021-05-11T13:15:51Z</time>
      </trkpt>
      <trkpt lat="39.897425" lon="116.634312">
        <time>2021-05-11T13:16:24Z</time>
      </trkpt>
    </trkseg>
  </trk>
</gpx>