<?xml version="1.0" encoding="UTF-8"?>
<gpx xmlns="http://www.topografix.com/GPX/1/1" xmlns:gpxtpx="http://www.garmin.com/xmlschemas/TrackPointExtension/v1" xmlns:xsi="http://www.w3.org/2001/XMLSchema-instance" xsi:schemaLocation="http://www.topografix.com/GPX/1/1 http://www.topografix.com/GPX/1/1/gpx.xsd" version="1.1" creator="gpx.py -- https://github.com/tkrajina/gpxpy">
  <trk>
    <name>gpx from keep</name>
    <trkseg>
      <trkpt lat="39.897713" lon="116.63418">
        <time>2021-05-23T12:13:04Z</time>
      </trkpt>
      <trkpt lat="39.897713" lon="116.63418">
        <time>2021-05-23T12:13:09Z</time>
      </trkpt>
      <trkpt lat="39.897732" lon="116.634252">
        <time>2021-05-23T12:13:14Z</time>
      </trkpt>
      <trkpt lat="39.89776" lon="116.634355">
        <time>2021-05-23T12:13:19Z</time>
      </trkpt>
      <trkpt lat="39.897857" lon="116.634457">
        <time>2021-05-23T12:13:24Z</time>
      </trkpt>
      <trkpt lat="39.897894" lon="116.634574">
        <time>2021-05-23T12:13:29Z</time>
      </trkpt>
      <trkpt lat="39.897921" lon="116.634708">
        <time>2021-05-23T12:13:34Z</time>
      </trkpt>
      <trkpt lat="39.897934" lon="116.634706">
        <time>2021-05-23T12:13:39Z</time>
      </trkpt>
      <trkpt lat="39.897993" lon="116.634692">
        <time>2021-05-23T12:13:44Z</time>
      </trkpt>
      <trkpt lat="39.898015" lon="116.634665">
        <time>2021-05-23T12:13:49Z</time>
      </trkpt>
      <trkpt lat="39.89802" lon="116.634662">
        <time>2021-05-23T12:13:54Z</time>
      </trkpt>
      <trkpt lat="39.898042" lon="116.634691">
        <time>2021-05-23T12:13:59Z</time>
      </trkpt>
      <trkpt lat="39.898041" lon="116.634702">
        <time>2021-05-23T12:14:04Z</time>
      </trkpt>
      <trkpt lat="39.898029" lon="116.634729">
        <time>2021-05-23T12:14:09Z</time>
      </trkpt>
      <trkpt lat="39.898055" lon="116.634766">
        <time>2021-05-23T12:14:14Z</time>
      </trkpt>
      <trkpt lat="39.898158" lon="116.634886">
        <time>2021-05-23T12:14:19Z</time>
      </trkpt>
      <trkpt lat="39.8982" lon="116.635025">
        <time>2021-05-23T12:14:24Z</time>
      </trkpt>
      <trkpt lat="39.898091" lon="116.635099">
        <time>2021-05-23T12:14:29Z</time>
      </trkpt>
      <trkpt lat="39.897941" lon="116.635149">
        <time>2021-05-23T12:14:34Z</time>
      </trkpt>
      <trkpt lat="39.897791" lon="116.635222">
        <time>2021-05-23T12:14:39Z</time>
      </trkpt>
      <trkpt lat="39.897655" lon="116.63535">
        <time>2021-05-23T12:14:44Z</time>
      </trkpt>
      <trkpt lat="39.897503" lon="116.635442">
        <time>2021-05-23T12:14:49Z</time>
      </trkpt>
      <trkpt lat="39.89736" lon="116.635498">
        <time>2021-05-23T12:14:54Z</time>
      </trkpt>
      <trkpt lat="39.897227" lon="116.635594">
        <time>2021-05-23T12:14:59Z</time>
      </trkpt>
      <trkpt lat="39.897097" lon="116.635675">
        <time>2021-05-23T12:15:04Z</time>
      </trkpt>
      <trkpt lat="39.89696" lon="116.635734">
        <time>2021-05-23T12:15:09Z</time>
      </trkpt>
      <trkpt lat="39.896828" lon="116.635802">
        <time>2021-05-23T12:15:14Z</time>
      </trkpt>
      <trkpt lat="39.896703" lon="116.635905">
        <time>2021-05-23T12:15:19Z</time>
      </trkpt>
      <trkpt lat="39.896548" lon="116.635997">
        <time>2021-05-23T12:15:24Z</time>
      </trkpt>
      <trkpt lat="39.896436" lon="116.636081">
        <time>2021-05-23T12:15:29Z</time>
      </trkpt>
      <trkpt lat="39.896356" lon="116.636169">
        <time>2021-05-23T12:15:34Z</time>
      </trkpt>
      <trkpt lat="39.896349" lon="116.636203">
        <time>2021-05-23T12:15:39Z</time>
      </trkpt>
      <trkpt lat="39.896212" lon="116.636306">
        <time>2021-05-23T12:15:44Z</time>
      </trkpt>
      <trkpt lat="39.896115" lon="116.636418">
        <time>2021-05-23T12:15:49Z</time>
      </trkpt>
      <trkpt lat="39.896098" lon="116.636461">
        <time>2021-05-23T12:15:54Z</time>
      </trkpt>
      <trkpt lat="39.896083" lon="116.636467">
        <time>2021-05-23T12:15:59Z</time>
      </trkpt>
      <trkpt lat="39.896066" lon="116.636482">
        <time>2021-05-23T12:16:04Z</time>
      </trkpt>
      <trkpt lat="39.89605" lon="116.6365">
        <time>2021-05-23T12:16:09Z</time>
      </trkpt>
      <trkpt lat="39.896067" lon="116.636489">
        <time>2021-05-23T12:16:14Z</time>
      </trkpt>
      <trkpt lat="39.896075" lon="116.636491">
        <time>2021-05-23T12:16:19Z</time>
      </trkpt>
      <trkpt lat="39.896092" lon="116.636509">
        <time>2021-05-23T12:16:24Z</time>
      </trkpt>
      <trkpt lat="39.896101" lon="116.636511">
        <time>2021-05-23T12:16:29Z</time>
      </trkpt>
      <trkpt lat="39.896095" lon="116.636504">
        <time>2021-05-23T12:16:34Z</time>
      </trkpt>
      <trkpt lat="39.896086" lon="116.636495">
        <time>2021-05-23T12:16:39Z</time>
      </trkpt>
      <trkpt lat="39.896081" lon="116.636508">
        <time>2021-05-23T12:16:44Z</time>
      </trkpt>
      <trkpt lat="39.896075" lon="116.636495">
        <time>2021-05-23T12:16:49Z</time>
      </trkpt>
      <trkpt lat="39.896097" lon="116.636495">
        <time>2021-05-23T12:16:54Z</time>
      </trkpt>
      <trkpt lat="39.896101" lon="116.636485">
        <time>2021-05-23T12:16:59Z</time>
      </trkpt>
      <trkpt lat="39.896104" lon="116.636481">
        <time>2021-05-23T12:17:04Z</time>
      </trkpt>
      <trkpt lat="39.896105" lon="116.636498">
        <time>2021-05-23T12:17:09Z</time>
      </trkpt>
      <trkpt lat="39.896107" lon="116.636499">
        <time>2021-05-23T12:17:14Z</time>
      </trkpt>
      <trkpt lat="39.896106" lon="116.636498">
        <time>2021-05-23T12:17:19Z</time>
      </trkpt>
      <trkpt lat="39.896083" lon="116.636498">
        <time>2021-05-23T12:17:24Z</time>
      </trkpt>
      <trkpt lat="39.896076" lon="116.636495">
        <time>2021-05-23T12:17:29Z</time>
      </trkpt>
      <trkpt lat="39.896069" lon="116.636492">
        <time>2021-05-23T12:17:34Z</time>
      </trkpt>
      <trkpt lat="39.896067" lon="116.63649">
        <time>2021-05-23T12:17:39Z</time>
      </trkpt>
      <trkpt lat="39.896059" lon="116.636491">
        <time>2021-05-23T12:17:44Z</time>
      </trkpt>
      <trkpt lat="39.896051" lon="116.636493">
        <time>2021-05-23T12:17:49Z</time>
      </trkpt>
      <trkpt lat="39.896044" lon="116.636489">
        <time>2021-05-23T12:17:54Z</time>
      </trkpt>
      <trkpt lat="39.896043" lon="116.636486">
        <time>2021-05-23T12:17:59Z</time>
      </trkpt>
      <trkpt lat="39.896043" lon="116.636482">
        <time>2021-05-23T12:18:04Z</time>
      </trkpt>
      <trkpt lat="39.89604" lon="116.636481">
        <time>2021-05-23T12:18:09Z</time>
      </trkpt>
      <trkpt lat="39.896032" lon="116.636486">
        <time>2021-05-23T12:18:14Z</time>
      </trkpt>
      <trkpt lat="39.896032" lon="116.636499">
        <time>2021-05-23T12:18:19Z</time>
      </trkpt>
      <trkpt lat="39.896027" lon="116.636484">
        <time>2021-05-23T12:18:24Z</time>
      </trkpt>
      <trkpt lat="39.896032" lon="116.636475">
        <time>2021-05-23T12:18:29Z</time>
      </trkpt>
      <trkpt lat="39.896037" lon="116.636466">
        <time>2021-05-23T12:18:34Z</time>
      </trkpt>
      <trkpt lat="39.896035" lon="116.636465">
        <time>2021-05-23T12:18:39Z</time>
      </trkpt>
      <trkpt lat="39.896023" lon="116.636505">
        <time>2021-05-23T12:18:44Z</time>
      </trkpt>
      <trkpt lat="39.89601" lon="116.636535">
        <time>2021-05-23T12:18:49Z</time>
      </trkpt>
      <trkpt lat="39.896008" lon="116.636567">
        <time>2021-05-23T12:18:54Z</time>
      </trkpt>
      <trkpt lat="39.89599" lon="116.636601">
        <time>2021-05-23T12:18:59Z</time>
      </trkpt>
      <trkpt lat="39.89597" lon="116.636609">
        <time>2021-05-23T12:19:04Z</time>
      </trkpt>
      <trkpt lat="39.895996" lon="116.636676">
        <time>2021-05-23T12:19:09Z</time>
      </trkpt>
      <trkpt lat="39.896078" lon="116.636816">
        <time>2021-05-23T12:19:14Z</time>
      </trkpt>
      <trkpt lat="39.896116" lon="116.637151">
        <time>2021-05-23T12:19:19Z</time>
      </trkpt>
      <trkpt lat="39.896121" lon="116.637188">
        <time>2021-05-23T12:19:24Z</time>
      </trkpt>
      <trkpt lat="39.896156" lon="116.637356">
        <time>2021-05-23T12:19:29Z</time>
      </trkpt>
      <trkpt lat="39.896145" lon="116.637551">
        <time>2021-05-23T12:19:34Z</time>
      </trkpt>
      <trkpt lat="39.89614" lon="116.637749">
        <time>2021-05-23T12:19:39Z</time>
      </trkpt>
      <trkpt lat="39.896141" lon="116.637939">
        <time>2021-05-23T12:19:44Z</time>
      </trkpt>
      <trkpt lat="39.896161" lon="116.638111">
        <time>2021-05-23T12:19:49Z</time>
      </trkpt>
      <trkpt lat="39.896191" lon="116.638289">
        <time>2021-05-23T12:19:54Z</time>
      </trkpt>
      <trkpt lat="39.896203" lon="116.638474">
        <time>2021-05-23T12:19:59Z</time>
      </trkpt>
      <trkpt lat="39.896218" lon="116.63863">
        <time>2021-05-23T12:20:04Z</time>
      </trkpt>
      <trkpt lat="39.89624" lon="116.63881">
        <time>2021-05-23T12:20:09Z</time>
      </trkpt>
      <trkpt lat="39.896258" lon="116.638987">
        <time>2021-05-23T12:20:14Z</time>
      </trkpt>
      <trkpt lat="39.896275" lon="116.63914">
        <time>2021-05-23T12:20:19Z</time>
      </trkpt>
      <trkpt lat="39.896279" lon="116.639309">
        <time>2021-05-23T12:20:24Z</time>
      </trkpt>
      <trkpt lat="39.896267" lon="116.639468">
        <time>2021-05-23T12:20:29Z</time>
      </trkpt>
      <trkpt lat="39.896275" lon="116.639642">
        <time>2021-05-23T12:20:34Z</time>
      </trkpt>
      <trkpt lat="39.896273" lon="116.639809">
        <time>2021-05-23T12:20:39Z</time>
      </trkpt>
      <trkpt lat="39.896251" lon="116.639979">
        <time>2021-05-23T12:20:44Z</time>
      </trkpt>
      <trkpt lat="39.896245" lon="116.640183">
        <time>2021-05-23T12:20:49Z</time>
      </trkpt>
      <trkpt lat="39.896243" lon="116.640348">
        <time>2021-05-23T12:20:54Z</time>
      </trkpt>
      <trkpt lat="39.896262" lon="116.640518">
        <time>2021-05-23T12:20:59Z</time>
      </trkpt>
      <trkpt lat="39.896261" lon="116.640781">
        <time>2021-05-23T12:21:04Z</time>
      </trkpt>
      <trkpt lat="39.896269" lon="116.640881">
        <time>2021-05-23T12:21:09Z</time>
      </trkpt>
      <trkpt lat="39.896259" lon="116.641061">
        <time>2021-05-23T12:21:14Z</time>
      </trkpt>
      <trkpt lat="39.896242" lon="116.641218">
        <time>2021-05-23T12:21:19Z</time>
      </trkpt>
      <trkpt lat="39.896241" lon="116.641405">
        <time>2021-05-23T12:21:24Z</time>
      </trkpt>
      <trkpt lat="39.896236" lon="116.641572">
        <time>2021-05-23T12:21:29Z</time>
      </trkpt>
      <trkpt lat="39.896236" lon="116.641696">
        <time>2021-05-23T12:21:34Z</time>
      </trkpt>
      <trkpt lat="39.896229" lon="116.641871">
        <time>2021-05-23T12:21:39Z</time>
      </trkpt>
      <trkpt lat="39.896232" lon="116.642038">
        <time>2021-05-23T12:21:44Z</time>
      </trkpt>
      <trkpt lat="39.896244" lon="116.642126">
        <time>2021-05-23T12:21:49Z</time>
      </trkpt>
      <trkpt lat="39.896247" lon="116.642302">
        <time>2021-05-23T12:21:54Z</time>
      </trkpt>
      <trkpt lat="39.896218" lon="116.642491">
        <time>2021-05-23T12:21:59Z</time>
      </trkpt>
      <trkpt lat="39.896201" lon="116.642648">
        <time>2021-05-23T12:22:04Z</time>
      </trkpt>
      <trkpt lat="39.896171" lon="116.642943">
        <time>2021-05-23T12:22:09Z</time>
      </trkpt>
      <trkpt lat="39.896177" lon="116.642977">
        <time>2021-05-23T12:22:14Z</time>
      </trkpt>
      <trkpt lat="39.896184" lon="116.643147">
        <time>2021-05-23T12:22:19Z</time>
      </trkpt>
      <trkpt lat="39.896168" lon="116.643352">
        <time>2021-05-23T12:22:24Z</time>
      </trkpt>
      <trkpt lat="39.896185" lon="116.643458">
        <time>2021-05-23T12:22:29Z</time>
      </trkpt>
      <trkpt lat="39.896196" lon="116.643635">
        <time>2021-05-23T12:22:34Z</time>
      </trkpt>
      <trkpt lat="39.89622" lon="116.643817">
        <time>2021-05-23T12:22:39Z</time>
      </trkpt>
      <trkpt lat="39.896221" lon="116.643991">
        <time>2021-05-23T12:22:44Z</time>
      </trkpt>
      <trkpt lat="39.896226" lon="116.644157">
        <time>2021-05-23T12:22:49Z</time>
      </trkpt>
      <trkpt lat="39.896201" lon="116.644343">
        <time>2021-05-23T12:22:54Z</time>
      </trkpt>
      <trkpt lat="39.896186" lon="116.644515">
        <time>2021-05-23T12:22:59Z</time>
      </trkpt>
      <trkpt lat="39.896195" lon="116.644628">
        <time>2021-05-23T12:23:04Z</time>
      </trkpt>
      <trkpt lat="39.896185" lon="116.644817">
        <time>2021-05-23T12:23:09Z</time>
      </trkpt>
      <trkpt lat="39.896171" lon="116.645009">
        <time>2021-05-23T12:23:14Z</time>
      </trkpt>
      <trkpt lat="39.896164" lon="116.645282">
        <time>2021-05-23T12:23:19Z</time>
      </trkpt>
      <trkpt lat="39.896151" lon="116.645337">
        <time>2021-05-23T12:23:24Z</time>
      </trkpt>
      <trkpt lat="39.89612" lon="116.64549">
        <time>2021-05-23T12:23:29Z</time>
      </trkpt>
      <trkpt lat="39.896098" lon="116.645636">
        <time>2021-05-23T12:23:34Z</time>
      </trkpt>
      <trkpt lat="39.896065" lon="116.64585">
        <time>2021-05-23T12:23:39Z</time>
      </trkpt>
      <trkpt lat="39.896061" lon="116.646062">
        <time>2021-05-23T12:23:44Z</time>
      </trkpt>
      <trkpt lat="39.896043" lon="116.646211">
        <time>2021-05-23T12:23:49Z</time>
      </trkpt>
      <trkpt lat="39.896018" lon="116.646367">
        <time>2021-05-23T12:23:54Z</time>
      </trkpt>
      <trkpt lat="39.896022" lon="116.646522">
        <time>2021-05-23T12:23:59Z</time>
      </trkpt>
      <trkpt lat="39.896067" lon="116.646678">
        <time>2021-05-23T12:24:04Z</time>
      </trkpt>
      <trkpt lat="39.896042" lon="116.646846">
        <time>2021-05-23T12:24:09Z</time>
      </trkpt>
      <trkpt lat="39.895993" lon="116.64702">
        <time>2021-05-23T12:24:14Z</time>
      </trkpt>
      <trkpt lat="39.895963" lon="116.647233">
        <time>2021-05-23T12:24:19Z</time>
      </trkpt>
      <trkpt lat="39.895961" lon="116.647395">
        <time>2021-05-23T12:24:24Z</time>
      </trkpt>
      <trkpt lat="39.895971" lon="116.647572">
        <time>2021-05-23T12:24:29Z</time>
      </trkpt>
      <trkpt lat="39.895946" lon="116.647757">
        <time>2021-05-23T12:24:34Z</time>
      </trkpt>
      <trkpt lat="39.895945" lon="116.647941">
        <time>2021-05-23T12:24:39Z</time>
      </trkpt>
      <trkpt lat="39.895923" lon="116.64815">
        <time>2021-05-23T12:24:44Z</time>
      </trkpt>
      <trkpt lat="39.895873" lon="116.648291">
        <time>2021-05-23T12:24:49Z</time>
      </trkpt>
      <trkpt lat="39.895815" lon="116.648445">
        <time>2021-05-23T12:24:54Z</time>
      </trkpt>
      <trkpt lat="39.895757" lon="116.648607">
        <time>2021-05-23T12:24:59Z</time>
      </trkpt>
      <trkpt lat="39.895713" lon="116.648714">
        <time>2021-05-23T12:25:04Z</time>
      </trkpt>
      <trkpt lat="39.895643" lon="116.648896">
        <time>2021-05-23T12:25:09Z</time>
      </trkpt>
      <trkpt lat="39.895607" lon="116.649041">
        <time>2021-05-23T12:25:14Z</time>
      </trkpt>
      <trkpt lat="39.89551" lon="116.649132">
        <time>2021-05-23T12:25:19Z</time>
      </trkpt>
      <trkpt lat="39.895383" lon="116.649094">
        <time>2021-05-23T12:25:24Z</time>
      </trkpt>
      <trkpt lat="39.895265" lon="116.649069">
        <time>2021-05-23T12:25:29Z</time>
      </trkpt>
      <trkpt lat="39.895136" lon="116.64899">
        <time>2021-05-23T12:25:34Z</time>
      </trkpt>
      <trkpt lat="39.895016" lon="116.648882">
        <time>2021-05-23T12:25:39Z</time>
      </trkpt>
      <trkpt lat="39.894885" lon="116.648789">
        <time>2021-05-23T12:25:44Z</time>
      </trkpt>
      <trkpt lat="39.894766" lon="116.648731">
        <time>2021-05-23T12:25:49Z</time>
      </trkpt>
      <trkpt lat="39.894661" lon="116.648667">
        <time>2021-05-23T12:25:54Z</time>
      </trkpt>
      <trkpt lat="39.894558" lon="116.648565">
        <time>2021-05-23T12:25:59Z</time>
      </trkpt>
      <trkpt lat="39.894457" lon="116.648524">
        <time>2021-05-23T12:26:04Z</time>
      </trkpt>
      <trkpt lat="39.894344" lon="116.648473">
        <time>2021-05-23T12:26:09Z</time>
      </trkpt>
      <trkpt lat="39.894233" lon="116.648382">
        <time>2021-05-23T12:26:14Z</time>
      </trkpt>
      <trkpt lat="39.894095" lon="116.648321">
        <time>2021-05-23T12:26:19Z</time>
      </trkpt>
      <trkpt lat="39.893967" lon="116.648276">
        <time>2021-05-23T12:26:24Z</time>
      </trkpt>
      <trkpt lat="39.893861" lon="116.648218">
        <time>2021-05-23T12:26:29Z</time>
      </trkpt>
      <trkpt lat="39.893688" lon="116.648138">
        <time>2021-05-23T12:26:34Z</time>
      </trkpt>
      <trkpt lat="39.893569" lon="116.648085">
        <time>2021-05-23T12:26:39Z</time>
      </trkpt>
      <trkpt lat="39.893517" lon="116.648047">
        <time>2021-05-23T12:26:44Z</time>
      </trkpt>
      <trkpt lat="39.893469" lon="116.648016">
        <time>2021-05-23T12:26:49Z</time>
      </trkpt>
      <trkpt lat="39.893407" lon="116.648006">
        <time>2021-05-23T12:26:54Z</time>
      </trkpt>
      <trkpt lat="39.893302" lon="116.648016">
        <time>2021-05-23T12:26:59Z</time>
      </trkpt>
      <trkpt lat="39.893225" lon="116.648018">
        <time>2021-05-23T12:27:04Z</time>
      </trkpt>
      <trkpt lat="39.893122" lon="116.648011">
        <time>2021-05-23T12:27:09Z</time>
      </trkpt>
      <trkpt lat="39.892983" lon="116.648003">
        <time>2021-05-23T12:27:14Z</time>
      </trkpt>
      <trkpt lat="39.892871" lon="116.647999">
        <time>2021-05-23T12:27:19Z</time>
      </trkpt>
      <trkpt lat="39.892732" lon="116.647995">
        <time>2021-05-23T12:27:24Z</time>
      </trkpt>
      <trkpt lat="39.892626" lon="116.647982">
        <time>2021-05-23T12:27:29Z</time>
      </trkpt>
      <trkpt lat="39.892545" lon="116.647893">
        <time>2021-05-23T12:27:34Z</time>
      </trkpt>
      <trkpt lat="39.892564" lon="116.647717">
        <time>2021-05-23T12:27:39Z</time>
      </trkpt>
      <trkpt lat="39.892568" lon="116.647529">
        <time>2021-05-23T12:27:44Z</time>
      </trkpt>
      <trkpt lat="39.892569" lon="116.647353">
        <time>2021-05-23T12:27:49Z</time>
      </trkpt>
      <trkpt lat="39.892583" lon="116.647103">
        <time>2021-05-23T12:27:54Z</time>
      </trkpt>
      <trkpt lat="39.892598" lon="116.646982">
        <time>2021-05-23T12:27:59Z</time>
      </trkpt>
      <trkpt lat="39.892585" lon="116.646823">
        <time>2021-05-23T12:28:04Z</time>
      </trkpt>
      <trkpt lat="39.892595" lon="116.646653">
        <time>2021-05-23T12:28:09Z</time>
      </trkpt>
      <trkpt lat="39.89261" lon="116.646504">
        <time>2021-05-23T12:28:14Z</time>
      </trkpt>
      <trkpt lat="39.892637" lon="116.64632">
        <time>2021-05-23T12:28:19Z</time>
      </trkpt>
      <trkpt lat="39.892636" lon="116.64617">
        <time>2021-05-23T12:28:24Z</time>
      </trkpt>
      <trkpt lat="39.892632" lon="116.645988">
        <time>2021-05-23T12:28:29Z</time>
      </trkpt>
      <trkpt lat="39.892553" lon="116.645828">
        <time>2021-05-23T12:28:34Z</time>
      </trkpt>
      <trkpt lat="39.892449" lon="116.645783">
        <time>2021-05-23T12:28:39Z</time>
      </trkpt>
      <trkpt lat="39.892325" lon="116.645731">
        <time>2021-05-23T12:28:44Z</time>
      </trkpt>
      <trkpt lat="39.892186" lon="116.645682">
        <time>2021-05-23T12:28:49Z</time>
      </trkpt>
      <trkpt lat="39.89204" lon="116.645631">
        <time>2021-05-23T12:28:54Z</time>
      </trkpt>
      <trkpt lat="39.891916" lon="116.645564">
        <time>2021-05-23T12:28:59Z</time>
      </trkpt>
      <trkpt lat="39.891792" lon="116.645493">
        <time>2021-05-23T12:29:04Z</time>
      </trkpt>
      <trkpt lat="39.891678" lon="116.645435">
        <time>2021-05-23T12:29:09Z</time>
      </trkpt>
      <trkpt lat="39.891593" lon="116.645394">
        <time>2021-05-23T12:29:14Z</time>
      </trkpt>
      <trkpt lat="39.891537" lon="116.645371">
        <time>2021-05-23T12:29:19Z</time>
      </trkpt>
      <trkpt lat="39.891566" lon="116.645402">
        <time>2021-05-23T12:29:24Z</time>
      </trkpt>
      <trkpt lat="39.891655" lon="116.645444">
        <time>2021-05-23T12:29:29Z</time>
      </trkpt>
      <trkpt lat="39.891724" lon="116.645508">
        <time>2021-05-23T12:29:34Z</time>
      </trkpt>
      <trkpt lat="39.891831" lon="116.645597">
        <time>2021-05-23T12:29:39Z</time>
      </trkpt>
      <trkpt lat="39.891953" lon="116.645661">
        <time>2021-05-23T12:29:44Z</time>
      </trkpt>
      <trkpt lat="39.892097" lon="116.645718">
        <time>2021-05-23T12:29:49Z</time>
      </trkpt>
      <trkpt lat="39.892227" lon="116.645801">
        <time>2021-05-23T12:29:54Z</time>
      </trkpt>
      <trkpt lat="39.892298" lon="116.645839">
        <time>2021-05-23T12:29:59Z</time>
      </trkpt>
      <trkpt lat="39.892407" lon="116.645896">
        <time>2021-05-23T12:30:04Z</time>
      </trkpt>
      <trkpt lat="39.892561" lon="116.645937">
        <time>2021-05-23T12:30:09Z</time>
      </trkpt>
      <trkpt lat="39.892665" lon="116.646072">
        <time>2021-05-23T12:30:14Z</time>
      </trkpt>
      <trkpt lat="39.892639" lon="116.646251">
        <time>2021-05-23T12:30:19Z</time>
      </trkpt>
      <trkpt lat="39.892625" lon="116.646404">
        <time>2021-05-23T12:30:24Z</time>
      </trkpt>
      <trkpt lat="39.892637" lon="116.646526">
        <time>2021-05-23T12:30:29Z</time>
      </trkpt>
      <trkpt lat="39.892644" lon="116.646664">
        <time>2021-05-23T12:30:34Z</time>
      </trkpt>
      <trkpt lat="39.892648" lon="116.646854">
        <time>2021-05-23T12:30:39Z</time>
      </trkpt>
      <trkpt lat="39.892651" lon="116.647004">
        <time>2021-05-23T12:30:44Z</time>
      </trkpt>
      <trkpt lat="39.892643" lon="116.647161">
        <time>2021-05-23T12:30:49Z</time>
      </trkpt>
      <trkpt lat="39.89262" lon="116.647282">
        <time>2021-05-23T12:30:54Z</time>
      </trkpt>
      <trkpt lat="39.892634" lon="116.647465">
        <time>2021-05-23T12:30:59Z</time>
      </trkpt>
      <trkpt lat="39.892674" lon="116.647591">
        <time>2021-05-23T12:31:04Z</time>
      </trkpt>
      <trkpt lat="39.89267" lon="116.647708">
        <time>2021-05-23T12:31:09Z</time>
      </trkpt>
      <trkpt lat="39.892655" lon="116.647876">
        <time>2021-05-23T12:31:14Z</time>
      </trkpt>
      <trkpt lat="39.892739" lon="116.648004">
        <time>2021-05-23T12:31:19Z</time>
      </trkpt>
      <trkpt lat="39.892864" lon="116.648026">
        <time>2021-05-23T12:31:24Z</time>
      </trkpt>
      <trkpt lat="39.893006" lon="116.648025">
        <time>2021-05-23T12:31:29Z</time>
      </trkpt>
      <trkpt lat="39.893135" lon="116.648051">
        <time>2021-05-23T12:31:34Z</time>
      </trkpt>
      <trkpt lat="39.893249" lon="116.648084">
        <time>2021-05-23T12:31:39Z</time>
      </trkpt>
      <trkpt lat="39.89335" lon="116.648095">
        <time>2021-05-23T12:31:44Z</time>
      </trkpt>
      <trkpt lat="39.893488" lon="116.648102">
        <time>2021-05-23T12:31:49Z</time>
      </trkpt>
      <trkpt lat="39.893578" lon="116.648141">
        <time>2021-05-23T12:31:54Z</time>
      </trkpt>
      <trkpt lat="39.893597" lon="116.648175">
        <time>2021-05-23T12:31:59Z</time>
      </trkpt>
      <trkpt lat="39.893655" lon="116.648197">
        <time>2021-05-23T12:32:04Z</time>
      </trkpt>
      <trkpt lat="39.89375" lon="116.648226">
        <time>2021-05-23T12:32:09Z</time>
      </trkpt>
      <trkpt lat="39.893859" lon="116.648302">
        <time>2021-05-23T12:32:14Z</time>
      </trkpt>
      <trkpt lat="39.893957" lon="116.648342">
        <time>2021-05-23T12:32:19Z</time>
      </trkpt>
      <trkpt lat="39.894084" lon="116.648495">
        <time>2021-05-23T12:32:24Z</time>
      </trkpt>
      <trkpt lat="39.894265" lon="116.648533">
        <time>2021-05-23T12:32:29Z</time>
      </trkpt>
      <trkpt lat="39.894423" lon="116.648593">
        <time>2021-05-23T12:32:34Z</time>
      </trkpt>
      <trkpt lat="39.894558" lon="116.648604">
        <time>2021-05-23T12:32:39Z</time>
      </trkpt>
      <trkpt lat="39.894666" lon="116.648645">
        <time>2021-05-23T12:32:44Z</time>
      </trkpt>
      <trkpt lat="39.894766" lon="116.648709">
        <time>2021-05-23T12:32:49Z</time>
      </trkpt>
      <trkpt lat="39.894906" lon="116.648792">
        <time>2021-05-23T12:32:54Z</time>
      </trkpt>
      <trkpt lat="39.895074" lon="116.648918">
        <time>2021-05-23T12:32:59Z</time>
      </trkpt>
      <trkpt lat="39.895151" lon="116.648986">
        <time>2021-05-23T12:33:04Z</time>
      </trkpt>
      <trkpt lat="39.895262" lon="116.649061">
        <time>2021-05-23T12:33:09Z</time>
      </trkpt>
      <trkpt lat="39.895388" lon="116.649101">
        <time>2021-05-23T12:33:14Z</time>
      </trkpt>
      <trkpt lat="39.895511" lon="116.64914">
        <time>2021-05-23T12:33:19Z</time>
      </trkpt>
      <trkpt lat="39.895638" lon="116.649119">
        <time>2021-05-23T12:33:24Z</time>
      </trkpt>
      <trkpt lat="39.89571" lon="116.648977">
        <time>2021-05-23T12:33:29Z</time>
      </trkpt>
      <trkpt lat="39.895732" lon="116.648816">
        <time>2021-05-23T12:33:34Z</time>
      </trkpt>
      <trkpt lat="39.895784" lon="116.648654">
        <time>2021-05-23T12:33:39Z</time>
      </trkpt>
      <trkpt lat="39.895819" lon="116.648504">
        <time>2021-05-23T12:33:44Z</time>
      </trkpt>
      <trkpt lat="39.895822" lon="116.64835">
        <time>2021-05-23T12:33:49Z</time>
      </trkpt>
      <trkpt lat="39.895879" lon="116.648179">
        <time>2021-05-23T12:33:54Z</time>
      </trkpt>
      <trkpt lat="39.895934" lon="116.648002">
        <time>2021-05-23T12:33:59Z</time>
      </trkpt>
      <trkpt lat="39.895947" lon="116.647811">
        <time>2021-05-23T12:34:04Z</time>
      </trkpt>
      <trkpt lat="39.895951" lon="116.64763">
        <time>2021-05-23T12:34:09Z</time>
      </trkpt>
      <trkpt lat="39.895952" lon="116.64746">
        <time>2021-05-23T12:34:14Z</time>
      </trkpt>
      <trkpt lat="39.895952" lon="116.647305">
        <time>2021-05-23T12:34:19Z</time>
      </trkpt>
      <trkpt lat="39.895888" lon="116.64718">
        <time>2021-05-23T12:34:24Z</time>
      </trkpt>
      <trkpt lat="39.895773" lon="116.647287">
        <time>2021-05-23T12:34:29Z</time>
      </trkpt>
      <trkpt lat="39.895736" lon="116.647458">
        <time>2021-05-23T12:34:34Z</time>
      </trkpt>
      <trkpt lat="39.8957" lon="116.647622">
        <time>2021-05-23T12:34:39Z</time>
      </trkpt>
      <trkpt lat="39.895699" lon="116.647783">
        <time>2021-05-23T12:34:44Z</time>
      </trkpt>
      <trkpt lat="39.895747" lon="116.647964">
        <time>2021-05-23T12:34:49Z</time>
      </trkpt>
      <trkpt lat="39.895798" lon="116.648096">
        <time>2021-05-23T12:34:54Z</time>
      </trkpt>
      <trkpt lat="39.895831" lon="116.648267">
        <time>2021-05-23T12:34:59Z</time>
      </trkpt>
      <trkpt lat="39.895841" lon="116.648462">
        <time>2021-05-23T12:35:04Z</time>
      </trkpt>
      <trkpt lat="39.895887" lon="116.64842">
        <time>2021-05-23T12:35:09Z</time>
      </trkpt>
      <trkpt lat="39.895921" lon="116.648245">
        <time>2021-05-23T12:35:14Z</time>
      </trkpt>
      <trkpt lat="39.895974" lon="116.648074">
        <time>2021-05-23T12:35:19Z</time>
      </trkpt>
      <trkpt lat="39.895986" lon="116.647877">
        <time>2021-05-23T12:35:24Z</time>
      </trkpt>
      <trkpt lat="39.89596" lon="116.647701">
        <time>2021-05-23T12:35:29Z</time>
      </trkpt>
      <trkpt lat="39.89598" lon="116.647567">
        <time>2021-05-23T12:35:34Z</time>
      </trkpt>
      <trkpt lat="39.896001" lon="116.647392">
        <time>2021-05-23T12:35:39Z</time>
      </trkpt>
      <trkpt lat="39.896005" lon="116.647225">
        <time>2021-05-23T12:35:44Z</time>
      </trkpt>
      <trkpt lat="39.896009" lon="116.647071">
        <time>2021-05-23T12:35:49Z</time>
      </trkpt>
      <trkpt lat="39.896005" lon="116.646894">
        <time>2021-05-23T12:35:54Z</time>
      </trkpt>
      <trkpt lat="39.896053" lon="116.646734">
        <time>2021-05-23T12:35:59Z</time>
      </trkpt>
      <trkpt lat="39.896054" lon="116.646629">
        <time>2021-05-23T12:36:04Z</time>
      </trkpt>
      <trkpt lat="39.896059" lon="116.646552">
        <time>2021-05-23T12:36:09Z</time>
      </trkpt>
      <trkpt lat="39.896047" lon="116.646439">
        <time>2021-05-23T12:36:14Z</time>
      </trkpt>
      <trkpt lat="39.896063" lon="116.646331">
        <time>2021-05-23T12:36:19Z</time>
      </trkpt>
      <trkpt lat="39.896086" lon="116.646167">
        <time>2021-05-23T12:36:24Z</time>
      </trkpt>
      <trkpt lat="39.896116" lon="116.64601">
        <time>2021-05-23T12:36:29Z</time>
      </trkpt>
      <trkpt lat="39.89613" lon="116.645833">
        <time>2021-05-23T12:36:34Z</time>
      </trkpt>
      <trkpt lat="39.896159" lon="116.645665">
        <time>2021-05-23T12:36:39Z</time>
      </trkpt>
      <trkpt lat="39.896166" lon="116.645526">
        <time>2021-05-23T12:36:44Z</time>
      </trkpt>
      <trkpt lat="39.896167" lon="116.645431">
        <time>2021-05-23T12:36:49Z</time>
      </trkpt>
      <trkpt lat="39.89617" lon="116.64534">
        <time>2021-05-23T12:36:54Z</time>
      </trkpt>
      <trkpt lat="39.896184" lon="116.645214">
        <time>2021-05-23T12:36:59Z</time>
      </trkpt>
      <trkpt lat="39.896171" lon="116.645133">
        <time>2021-05-23T12:37:04Z</time>
      </trkpt>
      <trkpt lat="39.896185" lon="116.644971">
        <time>2021-05-23T12:37:09Z</time>
      </trkpt>
      <trkpt lat="39.896184" lon="116.644861">
        <time>2021-05-23T12:37:14Z</time>
      </trkpt>
      <trkpt lat="39.896174" lon="116.644707">
        <time>2021-05-23T12:37:19Z</time>
      </trkpt>
      <trkpt lat="39.896181" lon="116.644536">
        <time>2021-05-23T12:37:24Z</time>
      </trkpt>
      <trkpt lat="39.896195" lon="116.644355">
        <time>2021-05-23T12:37:29Z</time>
      </trkpt>
      <trkpt lat="39.896194" lon="116.644112">
        <time>2021-05-23T12:37:34Z</time>
      </trkpt>
      <trkpt lat="39.896202" lon="116.644025">
        <time>2021-05-23T12:37:39Z</time>
      </trkpt>
      <trkpt lat="39.896192" lon="116.643865">
        <time>2021-05-23T12:37:44Z</time>
      </trkpt>
      <trkpt lat="39.896209" lon="116.643727">
        <time>2021-05-23T12:37:49Z</time>
      </trkpt>
      <trkpt lat="39.896219" lon="116.643558">
        <time>2021-05-23T12:37:54Z</time>
      </trkpt>
      <trkpt lat="39.896199" lon="116.643409">
        <time>2021-05-23T12:37:59Z</time>
      </trkpt>
      <trkpt lat="39.896199" lon="116.643312">
        <time>2021-05-23T12:38:04Z</time>
      </trkpt>
      <trkpt lat="39.896205" lon="116.643202">
        <time>2021-05-23T12:38:09Z</time>
      </trkpt>
      <trkpt lat="39.8962" lon="116.643105">
        <time>2021-05-23T12:38:14Z</time>
      </trkpt>
      <trkpt lat="39.896192" lon="116.642961">
        <time>2021-05-23T12:38:19Z</time>
      </trkpt>
      <trkpt lat="39.896177" lon="116.642803">
        <time>2021-05-23T12:38:24Z</time>
      </trkpt>
      <trkpt lat="39.896187" lon="116.642633">
        <time>2021-05-23T12:38:29Z</time>
      </trkpt>
      <trkpt lat="39.8962" lon="116.642464">
        <time>2021-05-23T12:38:34Z</time>
      </trkpt>
      <trkpt lat="39.896207" lon="116.642293">
        <time>2021-05-23T12:38:39Z</time>
      </trkpt>
      <trkpt lat="39.896241" lon="116.642145">
        <time>2021-05-23T12:38:44Z</time>
      </trkpt>
      <trkpt lat="39.896256" lon="116.641963">
        <time>2021-05-23T12:38:49Z</time>
      </trkpt>
      <trkpt lat="39.896269" lon="116.6418">
        <time>2021-05-23T12:38:54Z</time>
      </trkpt>
      <trkpt lat="39.896279" lon="116.64166">
        <time>2021-05-23T12:38:59Z</time>
      </trkpt>
      <trkpt lat="39.896289" lon="116.641511">
        <time>2021-05-23T12:39:04Z</time>
      </trkpt>
      <trkpt lat="39.896293" lon="116.641358">
        <time>2021-05-23T12:39:09Z</time>
      </trkpt>
      <trkpt lat="39.896284" lon="116.64121">
        <time>2021-05-23T12:39:14Z</time>
      </trkpt>
      <trkpt lat="39.896284" lon="116.64113">
        <time>2021-05-23T12:39:19Z</time>
      </trkpt>
      <trkpt lat="39.896288" lon="116.641068">
        <time>2021-05-23T12:39:24Z</time>
      </trkpt>
      <trkpt lat="39.896289" lon="116.640945">
        <time>2021-05-23T12:39:29Z</time>
      </trkpt>
      <trkpt lat="39.896298" lon="116.640746">
        <time>2021-05-23T12:39:34Z</time>
      </trkpt>
      <trkpt lat="39.896277" lon="116.640556">
        <time>2021-05-23T12:39:39Z</time>
      </trkpt>
      <trkpt lat="39.896386" lon="116.640361">
        <time>2021-05-23T12:39:44Z</time>
      </trkpt>
      <trkpt lat="39.8964" lon="116.640361">
        <time>2021-05-23T12:39:49Z</time>
      </trkpt>
      <trkpt lat="39.896465" lon="116.640366">
        <time>2021-05-23T12:39:54Z</time>
      </trkpt>
      <trkpt lat="39.896666" lon="116.640471">
        <time>2021-05-23T12:39:59Z</time>
      </trkpt>
      <trkpt lat="39.896817" lon="116.640541">
        <time>2021-05-23T12:40:04Z</time>
      </trkpt>
      <trkpt lat="39.896946" lon="116.640653">
        <time>2021-05-23T12:40:09Z</time>
      </trkpt>
      <trkpt lat="39.897154" lon="116.640775">
        <time>2021-05-23T12:40:14Z</time>
      </trkpt>
      <trkpt lat="39.897204" lon="116.640805">
        <time>2021-05-23T12:40:19Z</time>
      </trkpt>
      <trkpt lat="39.897307" lon="116.640923">
        <time>2021-05-23T12:40:24Z</time>
      </trkpt>
      <trkpt lat="39.897406" lon="116.641005">
        <time>2021-05-23T12:40:29Z</time>
      </trkpt>
      <trkpt lat="39.897446" lon="116.641034">
        <time>2021-05-23T12:40:34Z</time>
      </trkpt>
      <trkpt lat="39.89758" lon="116.641083">
        <time>2021-05-23T12:40:39Z</time>
      </trkpt>
      <trkpt lat="39.897756" lon="116.641062">
        <time>2021-05-23T12:40:44Z</time>
      </trkpt>
      <trkpt lat="39.89788" lon="116.641084">
        <time>2021-05-23T12:40:49Z</time>
      </trkpt>
      <trkpt lat="39.897977" lon="116.641155">
        <time>2021-05-23T12:40:54Z</time>
      </trkpt>
      <trkpt lat="39.898113" lon="116.64126">
        <time>2021-05-23T12:40:59Z</time>
      </trkpt>
      <trkpt lat="39.898242" lon="116.641348">
        <time>2021-05-23T12:41:04Z</time>
      </trkpt>
      <trkpt lat="39.898378" lon="116.641396">
        <time>2021-05-23T12:41:09Z</time>
      </trkpt>
      <trkpt lat="39.898451" lon="116.641502">
        <time>2021-05-23T12:41:14Z</time>
      </trkpt>
      <trkpt lat="39.898411" lon="116.641651">
        <time>2021-05-23T12:41:19Z</time>
      </trkpt>
      <trkpt lat="39.89838" lon="116.641815">
        <time>2021-05-23T12:41:24Z</time>
      </trkpt>
      <trkpt lat="39.898375" lon="116.64198">
        <time>2021-05-23T12:41:29Z</time>
      </trkpt>
      <trkpt lat="39.898353" lon="116.642068">
        <time>2021-05-23T12:41:34Z</time>
      </trkpt>
      <trkpt lat="39.89834" lon="116.642136">
        <time>2021-05-23T12:41:39Z</time>
      </trkpt>
      <trkpt lat="39.898333" lon="116.642216">
        <time>2021-05-23T12:41:44Z</time>
      </trkpt>
      <trkpt lat="39.898335" lon="116.642315">
        <time>2021-05-23T12:41:49Z</time>
      </trkpt>
      <trkpt lat="39.898339" lon="116.642475">
        <time>2021-05-23T12:41:54Z</time>
      </trkpt>
      <trkpt lat="39.898346" lon="116.642642">
        <time>2021-05-23T12:41:59Z</time>
      </trkpt>
      <trkpt lat="39.898325" lon="116.642804">
        <time>2021-05-23T12:42:04Z</time>
      </trkpt>
      <trkpt lat="39.898345" lon="116.642953">
        <time>2021-05-23T12:42:09Z</time>
      </trkpt>
      <trkpt lat="39.898369" lon="116.643096">
        <time>2021-05-23T12:42:14Z</time>
      </trkpt>
      <trkpt lat="39.898379" lon="116.643231">
        <time>2021-05-23T12:42:19Z</time>
      </trkpt>
      <trkpt lat="39.898361" lon="116.643349">
        <time>2021-05-23T12:42:24Z</time>
      </trkpt>
      <trkpt lat="39.898351" lon="116.643538">
        <time>2021-05-23T12:42:29Z</time>
      </trkpt>
      <trkpt lat="39.89836" lon="116.643747">
        <time>2021-05-23T12:42:34Z</time>
      </trkpt>
      <trkpt lat="39.898337" lon="116.643957">
        <time>2021-05-23T12:42:39Z</time>
      </trkpt>
      <trkpt lat="39.898278" lon="116.644125">
        <time>2021-05-23T12:42:44Z</time>
      </trkpt>
      <trkpt lat="39.898314" lon="116.644287">
        <time>2021-05-23T12:42:49Z</time>
      </trkpt>
      <trkpt lat="39.898396" lon="116.644478">
        <time>2021-05-23T12:42:54Z</time>
      </trkpt>
      <trkpt lat="39.898419" lon="116.64466">
        <time>2021-05-23T12:42:59Z</time>
      </trkpt>
      <trkpt lat="39.898424" lon="116.644843">
        <time>2021-05-23T12:43:04Z</time>
      </trkpt>
      <trkpt lat="39.898436" lon="116.645065">
        <time>2021-05-23T12:43:09Z</time>
      </trkpt>
      <trkpt lat="39.898428" lon="116.645188">
        <time>2021-05-23T12:43:14Z</time>
      </trkpt>
      <trkpt lat="39.898481" lon="116.645367">
        <time>2021-05-23T12:43:19Z</time>
      </trkpt>
      <trkpt lat="39.898474" lon="116.645549">
        <time>2021-05-23T12:43:24Z</time>
      </trkpt>
      <trkpt lat="39.898534" lon="116.645738">
        <time>2021-05-23T12:43:29Z</time>
      </trkpt>
      <trkpt lat="39.898632" lon="116.645874">
        <time>2021-05-23T12:43:34Z</time>
      </trkpt>
      <trkpt lat="39.898646" lon="116.646001">
        <time>2021-05-23T12:43:39Z</time>
      </trkpt>
      <trkpt lat="39.898669" lon="116.646125">
        <time>2021-05-23T12:43:44Z</time>
      </trkpt>
      <trkpt lat="39.89869" lon="116.646332">
        <time>2021-05-23T12:43:49Z</time>
      </trkpt>
      <trkpt lat="39.898696" lon="116.646353">
        <time>2021-05-23T12:43:54Z</time>
      </trkpt>
      <trkpt lat="39.898742" lon="116.646411">
        <time>2021-05-23T12:43:59Z</time>
      </trkpt>
      <trkpt lat="39.898773" lon="116.646492">
        <time>2021-05-23T12:44:04Z</time>
      </trkpt>
      <trkpt lat="39.898784" lon="116.646509">
        <time>2021-05-23T12:44:09Z</time>
      </trkpt>
      <trkpt lat="39.89884" lon="116.646595">
        <time>2021-05-23T12:44:14Z</time>
      </trkpt>
      <trkpt lat="39.898866" lon="116.646778">
        <time>2021-05-23T12:44:19Z</time>
      </trkpt>
      <trkpt lat="39.898938" lon="116.647031">
        <time>2021-05-23T12:44:24Z</time>
      </trkpt>
      <trkpt lat="39.898973" lon="116.647196">
        <time>2021-05-23T12:44:29Z</time>
      </trkpt>
      <trkpt lat="39.899012" lon="116.647267">
        <time>2021-05-23T12:44:34Z</time>
      </trkpt>
      <trkpt lat="39.899024" lon="116.647465">
        <time>2021-05-23T12:44:39Z</time>
      </trkpt>
      <trkpt lat="39.899061" lon="116.647776">
        <time>2021-05-23T12:44:44Z</time>
      </trkpt>
      <trkpt lat="39.899052" lon="116.647965">
        <time>2021-05-23T12:44:49Z</time>
      </trkpt>
      <trkpt lat="39.899063" lon="116.648123">
        <time>2021-05-23T12:44:54Z</time>
      </trkpt>
      <trkpt lat="39.899072" lon="116.648262">
        <time>2021-05-23T12:44:59Z</time>
      </trkpt>
      <trkpt lat="39.899042" lon="116.648426">
        <time>2021-05-23T12:45:04Z</time>
      </trkpt>
      <trkpt lat="39.899039" lon="116.648562">
        <time>2021-05-23T12:45:09Z</time>
      </trkpt>
      <trkpt lat="39.899035" lon="116.64877">
        <time>2021-05-23T12:45:14Z</time>
      </trkpt>
      <trkpt lat="39.899036" lon="116.648865">
        <time>2021-05-23T12:45:19Z</time>
      </trkpt>
      <trkpt lat="39.899031" lon="116.649021">
        <time>2021-05-23T12:45:24Z</time>
      </trkpt>
      <trkpt lat="39.899029" lon="116.64914">
        <time>2021-05-23T12:45:29Z</time>
      </trkpt>
      <trkpt lat="39.899001" lon="116.649231">
        <time>2021-05-23T12:45:34Z</time>
      </trkpt>
      <trkpt lat="39.899037" lon="116.649373">
        <time>2021-05-23T12:45:39Z</time>
      </trkpt>
      <trkpt lat="39.899051" lon="116.649467">
        <time>2021-05-23T12:45:44Z</time>
      </trkpt>
      <trkpt lat="39.899075" lon="116.649587">
        <time>2021-05-23T12:45:49Z</time>
      </trkpt>
      <trkpt lat="39.899091" lon="116.649717">
        <time>2021-05-23T12:45:54Z</time>
      </trkpt>
      <trkpt lat="39.899074" lon="116.649883">
        <time>2021-05-23T12:45:59Z</time>
      </trkpt>
      <trkpt lat="39.89908" lon="116.650048">
        <time>2021-05-23T12:46:04Z</time>
      </trkpt>
      <trkpt lat="39.899096" lon="116.650213">
        <time>2021-05-23T12:46:09Z</time>
      </trkpt>
      <trkpt lat="39.899127" lon="116.650366">
        <time>2021-05-23T12:46:14Z</time>
      </trkpt>
      <trkpt lat="39.899131" lon="116.650497">
        <time>2021-05-23T12:46:19Z</time>
      </trkpt>
      <trkpt lat="39.899112" lon="116.650652">
        <time>2021-05-23T12:46:24Z</time>
      </trkpt>
      <trkpt lat="39.899095" lon="116.65083">
        <time>2021-05-23T12:46:29Z</time>
      </trkpt>
      <trkpt lat="39.899067" lon="116.651027">
        <time>2021-05-23T12:46:34Z</time>
      </trkpt>
      <trkpt lat="39.89898" lon="116.651424">
        <time>2021-05-23T12:46:39Z</time>
      </trkpt>
      <trkpt lat="39.898998" lon="116.651446">
        <time>2021-05-23T12:46:44Z</time>
      </trkpt>
      <trkpt lat="39.89902" lon="116.65133">
        <time>2021-05-23T12:46:49Z</time>
      </trkpt>
      <trkpt lat="39.899007" lon="116.651136">
        <time>2021-05-23T12:46:54Z</time>
      </trkpt>
      <trkpt lat="39.899006" lon="116.651014">
        <time>2021-05-23T12:46:59Z</time>
      </trkpt>
      <trkpt lat="39.89899" lon="116.650836">
        <time>2021-05-23T12:47:04Z</time>
      </trkpt>
      <trkpt lat="39.898963" lon="116.650673">
        <time>2021-05-23T12:47:09Z</time>
      </trkpt>
      <trkpt lat="39.898942" lon="116.650484">
        <time>2021-05-23T12:47:14Z</time>
      </trkpt>
      <trkpt lat="39.898934" lon="116.650297">
        <time>2021-05-23T12:47:19Z</time>
      </trkpt>
      <trkpt lat="39.898917" lon="116.650107">
        <time>2021-05-23T12:47:24Z</time>
      </trkpt>
      <trkpt lat="39.898925" lon="116.649923">
        <time>2021-05-23T12:47:29Z</time>
      </trkpt>
      <trkpt lat="39.898936" lon="116.649723">
        <time>2021-05-23T12:47:34Z</time>
      </trkpt>
      <trkpt lat="39.898944" lon="116.649493">
        <time>2021-05-23T12:47:39Z</time>
      </trkpt>
      <trkpt lat="39.898979" lon="116.649409">
        <time>2021-05-23T12:47:44Z</time>
      </trkpt>
      <trkpt lat="39.899014" lon="116.649289">
        <time>2021-05-23T12:47:49Z</time>
      </trkpt>
      <trkpt lat="39.899015" lon="116.649189">
        <time>2021-05-23T12:47:54Z</time>
      </trkpt>
      <trkpt lat="39.899038" lon="116.649098">
        <time>2021-05-23T12:47:59Z</time>
      </trkpt>
      <trkpt lat="39.899056" lon="116.648984">
        <time>2021-05-23T12:48:04Z</time>
      </trkpt>
      <trkpt lat="39.899062" lon="116.6488">
        <time>2021-05-23T12:48:09Z</time>
      </trkpt>
      <trkpt lat="39.899049" lon="116.648666">
        <time>2021-05-23T12:48:14Z</time>
      </trkpt>
      <trkpt lat="39.899027" lon="116.648503">
        <time>2021-05-23T12:48:19Z</time>
      </trkpt>
      <trkpt lat="39.899035" lon="116.648302">
        <time>2021-05-23T12:48:24Z</time>
      </trkpt>
      <trkpt lat="39.899039" lon="116.648113">
        <time>2021-05-23T12:48:29Z</time>
      </trkpt>
      <trkpt lat="39.899076" lon="116.647965">
        <time>2021-05-23T12:48:34Z</time>
      </trkpt>
      <trkpt lat="39.899096" lon="116.647781">
        <time>2021-05-23T12:48:39Z</time>
      </trkpt>
      <trkpt lat="39.899011" lon="116.647622">
        <time>2021-05-23T12:48:44Z</time>
      </trkpt>
      <trkpt lat="39.898989" lon="116.647472">
        <time>2021-05-23T12:48:49Z</time>
      </trkpt>
      <trkpt lat="39.898934" lon="116.647258">
        <time>2021-05-23T12:48:54Z</time>
      </trkpt>
      <trkpt lat="39.898902" lon="116.647073">
        <time>2021-05-23T12:48:59Z</time>
      </trkpt>
      <trkpt lat="39.898853" lon="116.646923">
        <time>2021-05-23T12:49:04Z</time>
      </trkpt>
      <trkpt lat="39.898862" lon="116.646779">
        <time>2021-05-23T12:49:09Z</time>
      </trkpt>
      <trkpt lat="39.89883" lon="116.646591">
        <time>2021-05-23T12:49:14Z</time>
      </trkpt>
      <trkpt lat="39.898805" lon="116.646448">
        <time>2021-05-23T12:49:19Z</time>
      </trkpt>
      <trkpt lat="39.898752" lon="116.646301">
        <time>2021-05-23T12:49:24Z</time>
      </trkpt>
      <trkpt lat="39.898722" lon="116.646149">
        <time>2021-05-23T12:49:29Z</time>
      </trkpt>
      <trkpt lat="39.89864" lon="116.645998">
        <time>2021-05-23T12:49:34Z</time>
      </trkpt>
      <trkpt lat="39.898581" lon="116.645837">
        <time>2021-05-23T12:49:39Z</time>
      </trkpt>
      <trkpt lat="39.898519" lon="116.64567">
        <time>2021-05-23T12:49:44Z</time>
      </trkpt>
      <trkpt lat="39.898508" lon="116.645493">
        <time>2021-05-23T12:49:49Z</time>
      </trkpt>
      <trkpt lat="39.898491" lon="116.645322">
        <time>2021-05-23T12:49:54Z</time>
      </trkpt>
      <trkpt lat="39.898458" lon="116.645138">
        <time>2021-05-23T12:49:59Z</time>
      </trkpt>
      <trkpt lat="39.898414" lon="116.64497">
        <time>2021-05-23T12:50:04Z</time>
      </trkpt>
      <trkpt lat="39.898401" lon="116.644832">
        <time>2021-05-23T12:50:09Z</time>
      </trkpt>
      <trkpt lat="39.898379" lon="116.644694">
        <time>2021-05-23T12:50:14Z</time>
      </trkpt>
      <trkpt lat="39.898382" lon="116.64453">
        <time>2021-05-23T12:50:19Z</time>
      </trkpt>
      <trkpt lat="39.898382" lon="116.644358">
        <time>2021-05-23T12:50:24Z</time>
      </trkpt>
      <trkpt lat="39.898379" lon="116.644201">
        <time>2021-05-23T12:50:29Z</time>
      </trkpt>
      <trkpt lat="39.898357" lon="116.644096">
        <time>2021-05-23T12:50:34Z</time>
      </trkpt>
      <trkpt lat="39.898345" lon="116.644021">
        <time>2021-05-23T12:50:39Z</time>
      </trkpt>
      <trkpt lat="39.898317" lon="116.643945">
        <time>2021-05-23T12:50:44Z</time>
      </trkpt>
      <trkpt lat="39.898332" lon="116.643868">
        <time>2021-05-23T12:50:49Z</time>
      </trkpt>
      <trkpt lat="39.898315" lon="116.64377">
        <time>2021-05-23T12:50:54Z</time>
      </trkpt>
      <trkpt lat="39.898298" lon="116.643629">
        <time>2021-05-23T12:50:59Z</time>
      </trkpt>
      <trkpt lat="39.898317" lon="116.643481">
        <time>2021-05-23T12:51:04Z</time>
      </trkpt>
      <trkpt lat="39.898327" lon="116.643115">
        <time>2021-05-23T12:51:09Z</time>
      </trkpt>
      <trkpt lat="39.898327" lon="116.643077">
        <time>2021-05-23T12:51:14Z</time>
      </trkpt>
      <trkpt lat="39.898311" lon="116.642888">
        <time>2021-05-23T12:51:19Z</time>
      </trkpt>
      <trkpt lat="39.898305" lon="116.64272">
        <time>2021-05-23T12:51:24Z</time>
      </trkpt>
      <trkpt lat="39.898307" lon="116.642523">
        <time>2021-05-23T12:51:29Z</time>
      </trkpt>
      <trkpt lat="39.898304" lon="116.642349">
        <time>2021-05-23T12:51:34Z</time>
      </trkpt>
      <trkpt lat="39.898311" lon="116.642132">
        <time>2021-05-23T12:51:39Z</time>
      </trkpt>
      <trkpt lat="39.898322" lon="116.641982">
        <time>2021-05-23T12:51:44Z</time>
      </trkpt>
      <trkpt lat="39.898368" lon="116.641817">
        <time>2021-05-23T12:51:49Z</time>
      </trkpt>
      <trkpt lat="39.898427" lon="116.641647">
        <time>2021-05-23T12:51:54Z</time>
      </trkpt>
      <trkpt lat="39.898468" lon="116.641486">
        <time>2021-05-23T12:51:59Z</time>
      </trkpt>
      <trkpt lat="39.898479" lon="116.641362">
        <time>2021-05-23T12:52:04Z</time>
      </trkpt>
      <trkpt lat="39.89839" lon="116.641216">
        <time>2021-05-23T12:52:09Z</time>
      </trkpt>
      <trkpt lat="39.898262" lon="116.641178">
        <time>2021-05-23T12:52:14Z</time>
      </trkpt>
      <trkpt lat="39.898179" lon="116.641169">
        <time>2021-05-23T12:52:19Z</time>
      </trkpt>
      <trkpt lat="39.898114" lon="116.64114">
        <time>2021-05-23T12:52:24Z</time>
      </trkpt>
      <trkpt lat="39.898028" lon="116.641142">
        <time>2021-05-23T12:52:29Z</time>
      </trkpt>
      <trkpt lat="39.89795" lon="116.64114">
        <time>2021-05-23T12:52:34Z</time>
      </trkpt>
      <trkpt lat="39.897895" lon="116.641108">
        <time>2021-05-23T12:52:39Z</time>
      </trkpt>
      <trkpt lat="39.897858" lon="116.641085">
        <time>2021-05-23T12:52:44Z</time>
      </trkpt>
      <trkpt lat="39.897784" lon="116.641067">
        <time>2021-05-23T12:52:49Z</time>
      </trkpt>
      <trkpt lat="39.897679" lon="116.641022">
        <time>2021-05-23T12:52:54Z</time>
      </trkpt>
      <trkpt lat="39.897604" lon="116.640955">
        <time>2021-05-23T12:52:59Z</time>
      </trkpt>
      <trkpt lat="39.897508" lon="116.640917">
        <time>2021-05-23T12:53:04Z</time>
      </trkpt>
      <trkpt lat="39.897315" lon="116.640819">
        <time>2021-05-23T12:53:09Z</time>
      </trkpt>
      <trkpt lat="39.897156" lon="116.640728">
        <time>2021-05-23T12:53:14Z</time>
      </trkpt>
      <trkpt lat="39.896972" lon="116.640663">
        <time>2021-05-23T12:53:19Z</time>
      </trkpt>
      <trkpt lat="39.896808" lon="116.640567">
        <time>2021-05-23T12:53:24Z</time>
      </trkpt>
      <trkpt lat="39.896659" lon="116.640468">
        <time>2021-05-23T12:53:29Z</time>
      </trkpt>
      <trkpt lat="39.89655" lon="116.640422">
        <time>2021-05-23T12:53:34Z</time>
      </trkpt>
      <trkpt lat="39.896408" lon="116.64041">
        <time>2021-05-23T12:53:39Z</time>
      </trkpt>
      <trkpt lat="39.896284" lon="116.640144">
        <time>2021-05-23T12:53:44Z</time>
      </trkpt>
      <trkpt lat="39.896288" lon="116.640109">
        <time>2021-05-23T12:53:49Z</time>
      </trkpt>
      <trkpt lat="39.896294" lon="116.63992">
        <time>2021-05-23T12:53:54Z</time>
      </trkpt>
      <trkpt lat="39.896278" lon="116.639778">
        <time>2021-05-23T12:53:59Z</time>
      </trkpt>
      <trkpt lat="39.896269" lon="116.639661">
        <time>2021-05-23T12:54:04Z</time>
      </trkpt>
      <trkpt lat="39.896275" lon="116.63955">
        <time>2021-05-23T12:54:09Z</time>
      </trkpt>
      <trkpt lat="39.896263" lon="116.639463">
        <time>2021-05-23T12:54:14Z</time>
      </trkpt>
      <trkpt lat="39.896264" lon="116.639353">
        <time>2021-05-23T12:54:19Z</time>
      </trkpt>
      <trkpt lat="39.896252" lon="116.639247">
        <time>2021-05-23T12:54:24Z</time>
      </trkpt>
      <trkpt lat="39.896242" lon="116.63912">
        <time>2021-05-23T12:54:29Z</time>
      </trkpt>
      <trkpt lat="39.896241" lon="116.638978">
        <time>2021-05-23T12:54:34Z</time>
      </trkpt>
      <trkpt lat="39.896254" lon="116.638827">
        <time>2021-05-23T12:54:39Z</time>
      </trkpt>
      <trkpt lat="39.896254" lon="116.638649">
        <time>2021-05-23T12:54:44Z</time>
      </trkpt>
      <trkpt lat="39.896231" lon="116.638479">
        <time>2021-05-23T12:54:49Z</time>
      </trkpt>
      <trkpt lat="39.896228" lon="116.638307">
        <time>2021-05-23T12:54:54Z</time>
      </trkpt>
      <trkpt lat="39.896224" lon="116.638135">
        <time>2021-05-23T12:54:59Z</time>
      </trkpt>
      <trkpt lat="39.896206" lon="116.637943">
        <time>2021-05-23T12:55:04Z</time>
      </trkpt>
      <trkpt lat="39.896188" lon="116.637785">
        <time>2021-05-23T12:55:09Z</time>
      </trkpt>
      <trkpt lat="39.896177" lon="116.637628">
        <time>2021-05-23T12:55:14Z</time>
      </trkpt>
      <trkpt lat="39.896188" lon="116.637444">
        <time>2021-05-23T12:55:19Z</time>
      </trkpt>
      <trkpt lat="39.896184" lon="116.637277">
        <time>2021-05-23T12:55:24Z</time>
      </trkpt>
      <trkpt lat="39.89617" lon="116.63712">
        <time>2021-05-23T12:55:29Z</time>
      </trkpt>
      <trkpt lat="39.896147" lon="116.63694">
        <time>2021-05-23T12:55:34Z</time>
      </trkpt>
      <trkpt lat="39.896073" lon="116.6367">
        <time>2021-05-23T12:55:39Z</time>
      </trkpt>
      <trkpt lat="39.896052" lon="116.636679">
        <time>2021-05-23T12:55:44Z</time>
      </trkpt>
      <trkpt lat="39.896033" lon="116.63677">
        <time>2021-05-23T12:55:49Z</time>
      </trkpt>
      <trkpt lat="39.8961" lon="116.636888">
        <time>2021-05-23T12:55:54Z</time>
      </trkpt>
      <trkpt lat="39.896128" lon="116.637026">
        <time>2021-05-23T12:55:59Z</time>
      </trkpt>
      <trkpt lat="39.896138" lon="116.637178">
        <time>2021-05-23T12:56:04Z</time>
      </trkpt>
      <trkpt lat="39.89614" lon="116.637342">
        <time>2021-05-23T12:56:09Z</time>
      </trkpt>
      <trkpt lat="39.896156" lon="116.637481">
        <time>2021-05-23T12:56:14Z</time>
      </trkpt>
      <trkpt lat="39.896169" lon="116.637646">
        <time>2021-05-23T12:56:19Z</time>
      </trkpt>
      <trkpt lat="39.896175" lon="116.637799">
        <time>2021-05-23T12:56:24Z</time>
      </trkpt>
      <trkpt lat="39.896166" lon="116.637963">
        <time>2021-05-23T12:56:29Z</time>
      </trkpt>
      <trkpt lat="39.896178" lon="116.638113">
        <time>2021-05-23T12:56:34Z</time>
      </trkpt>
      <trkpt lat="39.8962" lon="116.638284">
        <time>2021-05-23T12:56:39Z</time>
      </trkpt>
      <trkpt lat="39.89622" lon="116.638462">
        <time>2021-05-23T12:56:44Z</time>
      </trkpt>
      <trkpt lat="39.896253" lon="116.638618">
        <time>2021-05-23T12:56:49Z</time>
      </trkpt>
      <trkpt lat="39.896289" lon="116.63878">
        <time>2021-05-23T12:56:54Z</time>
      </trkpt>
      <trkpt lat="39.896275" lon="116.638933">
        <time>2021-05-23T12:56:59Z</time>
      </trkpt>
      <trkpt lat="39.896308" lon="116.639091">
        <time>2021-05-23T12:57:04Z</time>
      </trkpt>
      <trkpt lat="39.896309" lon="116.639265">
        <time>2021-05-23T12:57:09Z</time>
      </trkpt>
      <trkpt lat="39.896298" lon="116.6394">
        <time>2021-05-23T12:57:14Z</time>
      </trkpt>
      <trkpt lat="39.896264" lon="116.639558">
        <time>2021-05-23T12:57:19Z</time>
      </trkpt>
      <trkpt lat="39.896283" lon="116.639732">
        <time>2021-05-23T12:57:24Z</time>
      </trkpt>
      <trkpt lat="39.896293" lon="116.639904">
        <time>2021-05-23T12:57:29Z</time>
      </trkpt>
      <trkpt lat="39.896297" lon="116.640089">
        <time>2021-05-23T12:57:34Z</time>
      </trkpt>
      <trkpt lat="39.896302" lon="116.640249">
        <time>2021-05-23T12:57:39Z</time>
      </trkpt>
      <trkpt lat="39.89632" lon="116.640415">
        <time>2021-05-23T12:57:44Z</time>
      </trkpt>
      <trkpt lat="39.896343" lon="116.640605">
        <time>2021-05-23T12:57:49Z</time>
      </trkpt>
      <trkpt lat="39.896305" lon="116.640788">
        <time>2021-05-23T12:57:54Z</time>
      </trkpt>
      <trkpt lat="39.896289" lon="116.641014">
        <time>2021-05-23T12:57:59Z</time>
      </trkpt>
      <trkpt lat="39.896279" lon="116.641064">
        <time>2021-05-23T12:58:04Z</time>
      </trkpt>
      <trkpt lat="39.896281" lon="116.64118">
        <time>2021-05-23T12:58:09Z</time>
      </trkpt>
      <trkpt lat="39.896265" lon="116.641269">
        <time>2021-05-23T12:58:14Z</time>
      </trkpt>
      <trkpt lat="39.896261" lon="116.641372">
        <time>2021-05-23T12:58:19Z</time>
      </trkpt>
      <trkpt lat="39.896263" lon="116.641447">
        <time>2021-05-23T12:58:24Z</time>
      </trkpt>
      <trkpt lat="39.896264" lon="116.641561">
        <time>2021-05-23T12:58:29Z</time>
      </trkpt>
      <trkpt lat="39.896285" lon="116.641701">
        <time>2021-05-23T12:58:34Z</time>
      </trkpt>
      <trkpt lat="39.896277" lon="116.641836">
        <time>2021-05-23T12:58:39Z</time>
      </trkpt>
      <trkpt lat="39.896253" lon="116.642028">
        <time>2021-05-23T12:58:44Z</time>
      </trkpt>
      <trkpt lat="39.896242" lon="116.642208">
        <time>2021-05-23T12:58:49Z</time>
      </trkpt>
      <trkpt lat="39.896238" lon="116.642395">
        <time>2021-05-23T12:58:54Z</time>
      </trkpt>
      <trkpt lat="39.896213" lon="116.642574">
        <time>2021-05-23T12:58:59Z</time>
      </trkpt>
      <trkpt lat="39.896205" lon="116.642714">
        <time>2021-05-23T12:59:04Z</time>
      </trkpt>
      <trkpt lat="39.896209" lon="116.642903">
        <time>2021-05-23T12:59:09Z</time>
      </trkpt>
      <trkpt lat="39.896206" lon="116.643072">
        <time>2021-05-23T12:59:14Z</time>
      </trkpt>
      <trkpt lat="39.896171" lon="116.643341">
        <time>2021-05-23T12:59:19Z</time>
      </trkpt>
      <trkpt lat="39.896169" lon="116.643412">
        <time>2021-05-23T12:59:24Z</time>
      </trkpt>
      <trkpt lat="39.8962" lon="116.64358">
        <time>2021-05-23T12:59:29Z</time>
      </trkpt>
      <trkpt lat="39.89621" lon="116.643722">
        <time>2021-05-23T12:59:34Z</time>
      </trkpt>
      <trkpt lat="39.896219" lon="116.643847">
        <time>2021-05-23T12:59:39Z</time>
      </trkpt>
      <trkpt lat="39.896241" lon="116.644002">
        <time>2021-05-23T12:59:44Z</time>
      </trkpt>
      <trkpt lat="39.896253" lon="116.644159">
        <time>2021-05-23T12:59:49Z</time>
      </trkpt>
      <trkpt lat="39.896269" lon="116.644307">
        <time>2021-05-23T12:59:54Z</time>
      </trkpt>
      <trkpt lat="39.896242" lon="116.644478">
        <time>2021-05-23T12:59:59Z</time>
      </trkpt>
      <trkpt lat="39.896218" lon="116.644653">
        <time>2021-05-23T13:00:04Z</time>
      </trkpt>
      <trkpt lat="39.896195" lon="116.644846">
        <time>2021-05-23T13:00:09Z</time>
      </trkpt>
      <trkpt lat="39.896192" lon="116.645022">
        <time>2021-05-23T13:00:14Z</time>
      </trkpt>
      <trkpt lat="39.896202" lon="116.645236">
        <time>2021-05-23T13:00:19Z</time>
      </trkpt>
      <trkpt lat="39.896188" lon="116.645428">
        <time>2021-05-23T13:00:24Z</time>
      </trkpt>
      <trkpt lat="39.89615" lon="116.645573">
        <time>2021-05-23T13:00:29Z</time>
      </trkpt>
      <trkpt lat="39.896116" lon="116.64574">
        <time>2021-05-23T13:00:34Z</time>
      </trkpt>
      <trkpt lat="39.8961" lon="116.645907">
        <time>2021-05-23T13:00:39Z</time>
      </trkpt>
      <trkpt lat="39.89609" lon="116.646092">
        <time>2021-05-23T13:00:44Z</time>
      </trkpt>
      <trkpt lat="39.896085" lon="116.646204">
        <time>2021-05-23T13:00:49Z</time>
      </trkpt>
      <trkpt lat="39.896077" lon="116.646261">
        <time>2021-05-23T13:00:54Z</time>
      </trkpt>
      <trkpt lat="39.896056" lon="116.646394">
        <time>2021-05-23T13:00:59Z</time>
      </trkpt>
      <trkpt lat="39.896055" lon="116.646517">
        <time>2021-05-23T13:01:04Z</time>
      </trkpt>
      <trkpt lat="39.896054" lon="116.646641">
        <time>2021-05-23T13:01:09Z</time>
      </trkpt>
      <trkpt lat="39.896027" lon="116.646801">
        <time>2021-05-23T13:01:14Z</time>
      </trkpt>
      <trkpt lat="39.895998" lon="116.646978">
        <time>2021-05-23T13:01:19Z</time>
      </trkpt>
      <trkpt lat="39.89594" lon="116.64714">
        <time>2021-05-23T13:01:24Z</time>
      </trkpt>
      <trkpt lat="39.895818" lon="116.647205">
        <time>2021-05-23T13:01:29Z</time>
      </trkpt>
      <trkpt lat="39.895774" lon="116.647329">
        <time>2021-05-23T13:01:34Z</time>
      </trkpt>
      <trkpt lat="39.895761" lon="116.647467">
        <time>2021-05-23T13:01:39Z</time>
      </trkpt>
      <trkpt lat="39.895762" lon="116.647621">
        <time>2021-05-23T13:01:44Z</time>
      </trkpt>
      <trkpt lat="39.895764" lon="116.647795">
        <time>2021-05-23T13:01:49Z</time>
      </trkpt>
      <trkpt lat="39.895763" lon="116.647994">
        <time>2021-05-23T13:01:54Z</time>
      </trkpt>
      <trkpt lat="39.895743" lon="116.648193">
        <time>2021-05-23T13:01:59Z</time>
      </trkpt>
      <trkpt lat="39.895772" lon="116.648375">
        <time>2021-05-23T13:02:04Z</time>
      </trkpt>
      <trkpt lat="39.895833" lon="116.648441">
        <time>2021-05-23T13:02:09Z</time>
      </trkpt>
      <trkpt lat="39.895885" lon="116.648263">
        <time>2021-05-23T13:02:14Z</time>
      </trkpt>
      <trkpt lat="39.895934" lon="116.648088">
        <time>2021-05-23T13:02:19Z</time>
      </trkpt>
      <trkpt lat="39.895959" lon="116.647916">
        <time>2021-05-23T13:02:24Z</time>
      </trkpt>
      <trkpt lat="39.895948" lon="116.647718">
        <time>2021-05-23T13:02:29Z</time>
      </trkpt>
      <trkpt lat="39.895966" lon="116.647559">
        <time>2021-05-23T13:02:34Z</time>
      </trkpt>
      <trkpt lat="39.895962" lon="116.647422">
        <time>2021-05-23T13:02:39Z</time>
      </trkpt>
      <trkpt lat="39.895964" lon="116.647243">
        <time>2021-05-23T13:02:44Z</time>
      </trkpt>
      <trkpt lat="39.895872" lon="116.647131">
        <time>2021-05-23T13:02:49Z</time>
      </trkpt>
      <trkpt lat="39.895782" lon="116.647235">
        <time>2021-05-23T13:02:54Z</time>
      </trkpt>
      <trkpt lat="39.895771" lon="116.647353">
        <time>2021-05-23T13:02:59Z</time>
      </trkpt>
      <trkpt lat="39.895743" lon="116.647533">
        <time>2021-05-23T13:03:04Z</time>
      </trkpt>
      <trkpt lat="39.895722" lon="116.647731">
        <time>2021-05-23T13:03:09Z</time>
      </trkpt>
      <trkpt lat="39.895767" lon="116.64792">
        <time>2021-05-23T13:03:14Z</time>
      </trkpt>
      <trkpt lat="39.895762" lon="116.648078">
        <time>2021-05-23T13:03:19Z</time>
      </trkpt>
      <trkpt lat="39.895771" lon="116.648235">
        <time>2021-05-23T13:03:24Z</time>
      </trkpt>
      <trkpt lat="39.89579" lon="116.648405">
        <time>2021-05-23T13:03:29Z</time>
      </trkpt>
      <trkpt lat="39.895786" lon="116.648565">
        <time>2021-05-23T13:03:34Z</time>
      </trkpt>
      <trkpt lat="39.895738" lon="116.648797">
        <time>2021-05-23T13:03:39Z</time>
      </trkpt>
      <trkpt lat="39.89563" lon="116.648989">
        <time>2021-05-23T13:03:44Z</time>
      </trkpt>
      <trkpt lat="39.895523" lon="116.6491">
        <time>2021-05-23T13:03:49Z</time>
      </trkpt>
      <trkpt lat="39.895418" lon="116.649058">
        <time>2021-05-23T13:03:54Z</time>
      </trkpt>
      <trkpt lat="39.895339" lon="116.649049">
        <time>2021-05-23T13:03:59Z</time>
      </trkpt>
      <trkpt lat="39.895251" lon="116.649007">
        <time>2021-05-23T13:04:04Z</time>
      </trkpt>
      <trkpt lat="39.895195" lon="116.648969">
        <time>2021-05-23T13:04:09Z</time>
      </trkpt>
      <trkpt lat="39.895118" lon="116.648925">
        <time>2021-05-23T13:04:14Z</time>
      </trkpt>
      <trkpt lat="39.895044" lon="116.648885">
        <time>2021-05-23T13:04:19Z</time>
      </trkpt>
      <trkpt lat="39.894985" lon="116.648861">
        <time>2021-05-23T13:04:24Z</time>
      </trkpt>
      <trkpt lat="39.894909" lon="116.648808">
        <time>2021-05-23T13:04:29Z</time>
      </trkpt>
      <trkpt lat="39.894826" lon="116.64874">
        <time>2021-05-23T13:04:34Z</time>
      </trkpt>
      <trkpt lat="39.894738" lon="116.64867">
        <time>2021-05-23T13:04:39Z</time>
      </trkpt>
      <trkpt lat="39.894656" lon="116.648652">
        <time>2021-05-23T13:04:44Z</time>
      </trkpt>
      <trkpt lat="39.894536" lon="116.648594">
        <time>2021-05-23T13:04:49Z</time>
      </trkpt>
      <trkpt lat="39.894405" lon="116.648503">
        <time>2021-05-23T13:04:54Z</time>
      </trkpt>
      <trkpt lat="39.894275" lon="116.648381">
        <time>2021-05-23T13:04:59Z</time>
      </trkpt>
      <trkpt lat="39.894137" lon="116.648305">
        <time>2021-05-23T13:05:04Z</time>
      </trkpt>
      <trkpt lat="39.894013" lon="116.648244">
        <time>2021-05-23T13:05:09Z</time>
      </trkpt>
      <trkpt lat="39.89388" lon="116.648165">
        <time>2021-05-23T13:05:14Z</time>
      </trkpt>
      <trkpt lat="39.893705" lon="116.648116">
        <time>2021-05-23T13:05:19Z</time>
      </trkpt>
      <trkpt lat="39.893554" lon="116.648058">
        <time>2021-05-23T13:05:24Z</time>
      </trkpt>
      <trkpt lat="39.893532" lon="116.648047">
        <time>2021-05-23T13:05:29Z</time>
      </trkpt>
      <trkpt lat="39.893443" lon="116.648016">
        <time>2021-05-23T13:05:34Z</time>
      </trkpt>
      <trkpt lat="39.893333" lon="116.648002">
        <time>2021-05-23T13:05:39Z</time>
      </trkpt>
      <trkpt lat="39.893251" lon="116.64801">
        <time>2021-05-23T13:05:44Z</time>
      </trkpt>
      <trkpt lat="39.893156" lon="116.648005">
        <time>2021-05-23T13:05:49Z</time>
      </trkpt>
      <trkpt lat="39.893061" lon="116.648013">
        <time>2021-05-23T13:05:54Z</time>
      </trkpt>
      <trkpt lat="39.892941" lon="116.647993">
        <time>2021-05-23T13:05:59Z</time>
      </trkpt>
      <trkpt lat="39.892813" lon="116.647999">
        <time>2021-05-23T13:06:04Z</time>
      </trkpt>
      <trkpt lat="39.892674" lon="116.647998">
        <time>2021-05-23T13:06:09Z</time>
      </trkpt>
      <trkpt lat="39.892559" lon="116.647931">
        <time>2021-05-23T13:06:14Z</time>
      </trkpt>
      <trkpt lat="39.892524" lon="116.647768">
        <time>2021-05-23T13:06:19Z</time>
      </trkpt>
      <trkpt lat="39.892537" lon="116.647582">
        <time>2021-05-23T13:06:24Z</time>
      </trkpt>
      <trkpt lat="39.892571" lon="116.647394">
        <time>2021-05-23T13:06:29Z</time>
      </trkpt>
      <trkpt lat="39.892592" lon="116.647182">
        <time>2021-05-23T13:06:34Z</time>
      </trkpt>
      <trkpt lat="39.892596" lon="116.647032">
        <time>2021-05-23T13:06:39Z</time>
      </trkpt>
      <trkpt lat="39.892614" lon="116.646866">
        <time>2021-05-23T13:06:44Z</time>
      </trkpt>
      <trkpt lat="39.892639" lon="116.646687">
        <time>2021-05-23T13:06:49Z</time>
      </trkpt>
      <trkpt lat="39.89264" lon="116.646529">
        <time>2021-05-23T13:06:54Z</time>
      </trkpt>
      <trkpt lat="39.892651" lon="116.646369">
        <time>2021-05-23T13:06:59Z</time>
      </trkpt>
      <trkpt lat="39.892649" lon="116.646199">
        <time>2021-05-23T13:07:04Z</time>
      </trkpt>
      <trkpt lat="39.892684" lon="116.646028">
        <time>2021-05-23T13:07:09Z</time>
      </trkpt>
      <trkpt lat="39.892673" lon="116.645878">
        <time>2021-05-23T13:07:14Z</time>
      </trkpt>
      <trkpt lat="39.892586" lon="116.64583">
        <time>2021-05-23T13:07:19Z</time>
      </trkpt>
      <trkpt lat="39.892445" lon="116.645764">
        <time>2021-05-23T13:07:24Z</time>
      </trkpt>
      <trkpt lat="39.892309" lon="116.645719">
        <time>2021-05-23T13:07:29Z</time>
      </trkpt>
      <trkpt lat="39.892178" lon="116.645682">
        <time>2021-05-23T13:07:34Z</time>
      </trkpt>
      <trkpt lat="39.892061" lon="116.645637">
        <time>2021-05-23T13:07:39Z</time>
      </trkpt>
      <trkpt lat="39.891968" lon="116.645597">
        <time>2021-05-23T13:07:44Z</time>
      </trkpt>
      <trkpt lat="39.891843" lon="116.645517">
        <time>2021-05-23T13:07:49Z</time>
      </trkpt>
      <trkpt lat="39.891694" lon="116.645436">
        <time>2021-05-23T13:07:54Z</time>
      </trkpt>
      <trkpt lat="39.891576" lon="116.645391">
        <time>2021-05-23T13:07:59Z</time>
      </trkpt>
      <trkpt lat="39.89163" lon="116.645423">
        <time>2021-05-23T13:08:04Z</time>
      </trkpt>
      <trkpt lat="39.891686" lon="116.645467">
        <time>2021-05-23T13:08:09Z</time>
      </trkpt>
      <trkpt lat="39.891734" lon="116.645507">
        <time>2021-05-23T13:08:14Z</time>
      </trkpt>
      <trkpt lat="39.891816" lon="116.64557">
        <time>2021-05-23T13:08:19Z</time>
      </trkpt>
      <trkpt lat="39.891901" lon="116.645656">
        <time>2021-05-23T13:08:24Z</time>
      </trkpt>
      <trkpt lat="39.892103" lon="116.645729">
        <time>2021-05-23T13:08:29Z</time>
      </trkpt>
      <trkpt lat="39.892229" lon="116.645749">
        <time>2021-05-23T13:08:34Z</time>
      </trkpt>
      <trkpt lat="39.892379" lon="116.645791">
        <time>2021-05-23T13:08:39Z</time>
      </trkpt>
      <trkpt lat="39.892503" lon="116.64583">
        <time>2021-05-23T13:08:44Z</time>
      </trkpt>
      <trkpt lat="39.892652" lon="116.64588">
        <time>2021-05-23T13:08:49Z</time>
      </trkpt>
      <trkpt lat="39.892717" lon="116.645999">
        <time>2021-05-23T13:08:54Z</time>
      </trkpt>
      <trkpt lat="39.892698" lon="116.646254">
        <time>2021-05-23T13:08:59Z</time>
      </trkpt>
      <trkpt lat="39.892698" lon="116.646353">
        <time>2021-05-23T13:09:04Z</time>
      </trkpt>
      <trkpt lat="39.892676" lon="116.64651">
        <time>2021-05-23T13:09:09Z</time>
      </trkpt>
      <trkpt lat="39.892673" lon="116.646601">
        <time>2021-05-23T13:09:14Z</time>
      </trkpt>
      <trkpt lat="39.892677" lon="116.646676">
        <time>2021-05-23T13:09:19Z</time>
      </trkpt>
      <trkpt lat="39.892665" lon="116.646753">
        <time>2021-05-23T13:09:24Z</time>
      </trkpt>
      <trkpt lat="39.892651" lon="116.646843">
        <time>2021-05-23T13:09:29Z</time>
      </trkpt>
      <trkpt lat="39.892664" lon="116.646953">
        <time>2021-05-23T13:09:34Z</time>
      </trkpt>
      <trkpt lat="39.892656" lon="116.647067">
        <time>2021-05-23T13:09:39Z</time>
      </trkpt>
      <trkpt lat="39.892662" lon="116.647194">
        <time>2021-05-23T13:09:44Z</time>
      </trkpt>
      <trkpt lat="39.892667" lon="116.647338">
        <time>2021-05-23T13:09:49Z</time>
      </trkpt>
      <trkpt lat="39.892672" lon="116.647477">
        <time>2021-05-23T13:09:54Z</time>
      </trkpt>
      <trkpt lat="39.892664" lon="116.64762">
        <time>2021-05-23T13:09:59Z</time>
      </trkpt>
      <trkpt lat="39.89264" lon="116.647795">
        <time>2021-05-23T13:10:04Z</time>
      </trkpt>
      <trkpt lat="39.892625" lon="116.647999">
        <time>2021-05-23T13:10:09Z</time>
      </trkpt>
      <trkpt lat="39.892689" lon="116.648037">
        <time>2021-05-23T13:10:14Z</time>
      </trkpt>
      <trkpt lat="39.892824" lon="116.648011">
        <time>2021-05-23T13:10:19Z</time>
      </trkpt>
      <trkpt lat="39.892974" lon="116.648035">
        <time>2021-05-23T13:10:24Z</time>
      </trkpt>
      <trkpt lat="39.893132" lon="116.648069">
        <time>2021-05-23T13:10:29Z</time>
      </trkpt>
      <trkpt lat="39.893295" lon="116.648093">
        <time>2021-05-23T13:10:34Z</time>
      </trkpt>
      <trkpt lat="39.893447" lon="116.648099">
        <time>2021-05-23T13:10:39Z</time>
      </trkpt>
      <trkpt lat="39.893567" lon="116.648101">
        <time>2021-05-23T13:10:44Z</time>
      </trkpt>
      <trkpt lat="39.893652" lon="116.648135">
        <time>2021-05-23T13:10:49Z</time>
      </trkpt>
      <trkpt lat="39.8937" lon="116.648165">
        <time>2021-05-23T13:10:54Z</time>
      </trkpt>
      <trkpt lat="39.893794" lon="116.648224">
        <time>2021-05-23T13:10:59Z</time>
      </trkpt>
      <trkpt lat="39.893849" lon="116.648263">
        <time>2021-05-23T13:11:04Z</time>
      </trkpt>
      <trkpt lat="39.89392" lon="116.648288">
        <time>2021-05-23T13:11:09Z</time>
      </trkpt>
      <trkpt lat="39.893983" lon="116.648318">
        <time>2021-05-23T13:11:14Z</time>
      </trkpt>
      <trkpt lat="39.894135" lon="116.648401">
        <time>2021-05-23T13:11:19Z</time>
      </trkpt>
      <trkpt lat="39.894194" lon="116.648443">
        <time>2021-05-23T13:11:24Z</time>
      </trkpt>
      <trkpt lat="39.894266" lon="116.648485">
        <time>2021-05-23T13:11:29Z</time>
      </trkpt>
      <trkpt lat="39.894323" lon="116.648524">
        <time>2021-05-23T13:11:34Z</time>
      </trkpt>
      <trkpt lat="39.894405" lon="116.648572">
        <time>2021-05-23T13:11:39Z</time>
      </trkpt>
      <trkpt lat="39.894469" lon="116.648627">
        <time>2021-05-23T13:11:44Z</time>
      </trkpt>
      <trkpt lat="39.894583" lon="116.648685">
        <time>2021-05-23T13:11:49Z</time>
      </trkpt>
      <trkpt lat="39.894732" lon="116.648784">
        <time>2021-05-23T13:11:54Z</time>
      </trkpt>
      <trkpt lat="39.894892" lon="116.648879">
        <time>2021-05-23T13:11:59Z</time>
      </trkpt>
      <trkpt lat="39.895046" lon="116.648975">
        <time>2021-05-23T13:12:04Z</time>
      </trkpt>
      <trkpt lat="39.895069" lon="116.64898">
        <time>2021-05-23T13:12:09Z</time>
      </trkpt>
      <trkpt lat="39.895129" lon="116.649036">
        <time>2021-05-23T13:12:14Z</time>
      </trkpt>
      <trkpt lat="39.895183" lon="116.649059">
        <time>2021-05-23T13:12:19Z</time>
      </trkpt>
      <trkpt lat="39.895286" lon="116.649078">
        <time>2021-05-23T13:12:24Z</time>
      </trkpt>
      <trkpt lat="39.895402" lon="116.649094">
        <time>2021-05-23T13:12:29Z</time>
      </trkpt>
      <trkpt lat="39.895537" lon="116.649113">
        <time>2021-05-23T13:12:34Z</time>
      </trkpt>
      <trkpt lat="39.895639" lon="116.649043">
        <time>2021-05-23T13:12:39Z</time>
      </trkpt>
      <trkpt lat="39.89569" lon="116.648909">
        <time>2021-05-23T13:12:44Z</time>
      </trkpt>
      <trkpt lat="39.89572" lon="116.648747">
        <time>2021-05-23T13:12:49Z</time>
      </trkpt>
      <trkpt lat="39.895771" lon="116.648609">
        <time>2021-05-23T13:12:54Z</time>
      </trkpt>
      <trkpt lat="39.895824" lon="116.648436">
        <time>2021-05-23T13:12:59Z</time>
      </trkpt>
      <trkpt lat="39.895893" lon="116.648255">
        <time>2021-05-23T13:13:04Z</time>
      </trkpt>
      <trkpt lat="39.895928" lon="116.64808">
        <time>2021-05-23T13:13:09Z</time>
      </trkpt>
      <trkpt lat="39.895923" lon="116.647912">
        <time>2021-05-23T13:13:14Z</time>
      </trkpt>
      <trkpt lat="39.895926" lon="116.647744">
        <time>2021-05-23T13:13:19Z</time>
      </trkpt>
      <trkpt lat="39.895931" lon="116.647599">
        <time>2021-05-23T13:13:24Z</time>
      </trkpt>
      <trkpt lat="39.895949" lon="116.647428">
        <time>2021-05-23T13:13:29Z</time>
      </trkpt>
      <trkpt lat="39.895969" lon="116.647279">
        <time>2021-05-23T13:13:34Z</time>
      </trkpt>
      <trkpt lat="39.895973" lon="116.64712">
        <time>2021-05-23T13:13:39Z</time>
      </trkpt>
      <trkpt lat="39.896002" lon="116.646959">
        <time>2021-05-23T13:13:44Z</time>
      </trkpt>
      <trkpt lat="39.896053" lon="116.646784">
        <time>2021-05-23T13:13:49Z</time>
      </trkpt>
      <trkpt lat="39.896086" lon="116.646659">
        <time>2021-05-23T13:13:54Z</time>
      </trkpt>
      <trkpt lat="39.896088" lon="116.646517">
        <time>2021-05-23T13:13:59Z</time>
      </trkpt>
      <trkpt lat="39.896081" lon="116.646352">
        <time>2021-05-23T13:14:04Z</time>
      </trkpt>
      <trkpt lat="39.896092" lon="116.646173">
        <time>2021-05-23T13:14:09Z</time>
      </trkpt>
      <trkpt lat="39.896098" lon="116.646057">
        <time>2021-05-23T13:14:14Z</time>
      </trkpt>
      <trkpt lat="39.896099" lon="116.645952">
        <time>2021-05-23T13:14:19Z</time>
      </trkpt>
      <trkpt lat="39.896101" lon="116.645836">
        <time>2021-05-23T13:14:24Z</time>
      </trkpt>
      <trkpt lat="39.896127" lon="116.645731">
        <time>2021-05-23T13:14:29Z</time>
      </trkpt>
      <trkpt lat="39.896142" lon="116.645636">
        <time>2021-05-23T13:14:34Z</time>
      </trkpt>
      <trkpt lat="39.896166" lon="116.645538">
        <time>2021-05-23T13:14:39Z</time>
      </trkpt>
      <trkpt lat="39.896184" lon="116.64544">
        <time>2021-05-23T13:14:44Z</time>
      </trkpt>
      <trkpt lat="39.896176" lon="116.645373">
        <time>2021-05-23T13:14:49Z</time>
      </trkpt>
      <trkpt lat="39.896188" lon="116.645261">
        <time>2021-05-23T13:14:54Z</time>
      </trkpt>
      <trkpt lat="39.896186" lon="116.645158">
        <time>2021-05-23T13:14:59Z</time>
      </trkpt>
      <trkpt lat="39.896186" lon="116.644992">
        <time>2021-05-23T13:15:04Z</time>
      </trkpt>
      <trkpt lat="39.89619" lon="116.644966">
        <time>2021-05-23T13:15:09Z</time>
      </trkpt>
      <trkpt lat="39.896206" lon="116.644843">
        <time>2021-05-23T13:15:14Z</time>
      </trkpt>
      <trkpt lat="39.896225" lon="116.64469">
        <time>2021-05-23T13:15:19Z</time>
      </trkpt>
      <trkpt lat="39.896237" lon="116.644504">
        <time>2021-05-23T13:15:24Z</time>
      </trkpt>
      <trkpt lat="39.896231" lon="116.644347">
        <time>2021-05-23T13:15:29Z</time>
      </trkpt>
      <trkpt lat="39.896228" lon="116.64418">
        <time>2021-05-23T13:15:34Z</time>
      </trkpt>
      <trkpt lat="39.896216" lon="116.644002">
        <time>2021-05-23T13:15:39Z</time>
      </trkpt>
      <trkpt lat="39.896219" lon="116.643824">
        <time>2021-05-23T13:15:44Z</time>
      </trkpt>
      <trkpt lat="39.896222" lon="116.643632">
        <time>2021-05-23T13:15:49Z</time>
      </trkpt>
      <trkpt lat="39.896211" lon="116.643424">
        <time>2021-05-23T13:15:54Z</time>
      </trkpt>
      <trkpt lat="39.89622" lon="116.643237">
        <time>2021-05-23T13:15:59Z</time>
      </trkpt>
      <trkpt lat="39.896227" lon="116.643062">
        <time>2021-05-23T13:16:04Z</time>
      </trkpt>
      <trkpt lat="39.896227" lon="116.642894">
        <time>2021-05-23T13:16:09Z</time>
      </trkpt>
      <trkpt lat="39.896223" lon="116.642733">
        <time>2021-05-23T13:16:14Z</time>
      </trkpt>
      <trkpt lat="39.896224" lon="116.642599">
        <time>2021-05-23T13:16:19Z</time>
      </trkpt>
      <trkpt lat="39.896231" lon="116.642493">
        <time>2021-05-23T13:16:24Z</time>
      </trkpt>
      <trkpt lat="39.896226" lon="116.64237">
        <time>2021-05-23T13:16:29Z</time>
      </trkpt>
      <trkpt lat="39.896221" lon="116.642282">
        <time>2021-05-23T13:16:34Z</time>
      </trkpt>
      <trkpt lat="39.896223" lon="116.642185">
        <time>2021-05-23T13:16:39Z</time>
      </trkpt>
      <trkpt lat="39.896223" lon="116.642074">
        <time>2021-05-23T13:16:44Z</time>
      </trkpt>
      <trkpt lat="39.896222" lon="116.641989">
        <time>2021-05-23T13:16:49Z</time>
      </trkpt>
      <trkpt lat="39.896227" lon="116.641859">
        <time>2021-05-23T13:16:54Z</time>
      </trkpt>
      <trkpt lat="39.896226" lon="116.64166">
        <time>2021-05-23T13:16:59Z</time>
      </trkpt>
      <trkpt lat="39.896241" lon="116.641579">
        <time>2021-05-23T13:17:04Z</time>
      </trkpt>
      <trkpt lat="39.896259" lon="116.641419">
        <time>2021-05-23T13:17:09Z</time>
      </trkpt>
      <trkpt lat="39.896265" lon="116.641223">
        <time>2021-05-23T13:17:14Z</time>
      </trkpt>
      <trkpt lat="39.896264" lon="116.641037">
        <time>2021-05-23T13:17:19Z</time>
      </trkpt>
      <trkpt lat="39.89628" lon="116.640845">
        <time>2021-05-23T13:17:24Z</time>
      </trkpt>
      <trkpt lat="39.896283" lon="116.640669">
        <time>2021-05-23T13:17:29Z</time>
      </trkpt>
      <trkpt lat="39.896285" lon="116.640514">
        <time>2021-05-23T13:17:34Z</time>
      </trkpt>
      <trkpt lat="39.896294" lon="116.640177">
        <time>2021-05-23T13:17:39Z</time>
      </trkpt>
      <trkpt lat="39.896293" lon="116.640143">
        <time>2021-05-23T13:17:44Z</time>
      </trkpt>
      <trkpt lat="39.896293" lon="116.639948">
        <time>2021-05-23T13:17:49Z</time>
      </trkpt>
      <trkpt lat="39.896279" lon="116.639772">
        <time>2021-05-23T13:17:54Z</time>
      </trkpt>
      <trkpt lat="39.896268" lon="116.639604">
        <time>2021-05-23T13:17:59Z</time>
      </trkpt>
      <trkpt lat="39.896249" lon="116.639434">
        <time>2021-05-23T13:18:04Z</time>
      </trkpt>
      <trkpt lat="39.896246" lon="116.639252">
        <time>2021-05-23T13:18:09Z</time>
      </trkpt>
      <trkpt lat="39.896239" lon="116.639054">
        <time>2021-05-23T13:18:14Z</time>
      </trkpt>
      <trkpt lat="39.896216" lon="116.638861">
        <time>2021-05-23T13:18:19Z</time>
      </trkpt>
      <trkpt lat="39.8962" lon="116.638679">
        <time>2021-05-23T13:18:24Z</time>
      </trkpt>
      <trkpt lat="39.896192" lon="116.63849">
        <time>2021-05-23T13:18:29Z</time>
      </trkpt>
      <trkpt lat="39.896216" lon="116.638313">
        <time>2021-05-23T13:18:34Z</time>
      </trkpt>
      <trkpt lat="39.896216" lon="116.638173">
        <time>2021-05-23T13:18:39Z</time>
      </trkpt>
      <trkpt lat="39.89622" lon="116.638083">
        <time>2021-05-23T13:18:44Z</time>
      </trkpt>
      <trkpt lat="39.896226" lon="116.638027">
        <time>2021-05-23T13:18:49Z</time>
      </trkpt>
      <trkpt lat="39.896221" lon="116.637973">
        <time>2021-05-23T13:18:54Z</time>
      </trkpt>
      <trkpt lat="39.896219" lon="116.63791">
        <time>2021-05-23T13:18:59Z</time>
      </trkpt>
      <trkpt lat="39.896226" lon="116.637809">
        <time>2021-05-23T13:19:04Z</time>
      </trkpt>
      <trkpt lat="39.89622" lon="116.637706">
        <time>2021-05-23T13:19:09Z</time>
      </trkpt>
      <trkpt lat="39.896211" lon="116.637622">
        <time>2021-05-23T13:19:14Z</time>
      </trkpt>
      <trkpt lat="39.896185" lon="116.637532">
        <time>2021-05-23T13:19:19Z</time>
      </trkpt>
      <trkpt lat="39.89619" lon="116.637423">
        <time>2021-05-23T13:19:24Z</time>
      </trkpt>
      <trkpt lat="39.896192" lon="116.637288">
        <time>2021-05-23T13:19:29Z</time>
      </trkpt>
      <trkpt lat="39.896175" lon="116.637151">
        <time>2021-05-23T13:19:34Z</time>
      </trkpt>
      <trkpt lat="39.896138" lon="116.636981">
        <time>2021-05-23T13:19:39Z</time>
      </trkpt>
      <trkpt lat="39.896044" lon="116.636818">
        <time>2021-05-23T13:19:44Z</time>
      </trkpt>
      <trkpt lat="39.895974" lon="116.636709">
        <time>2021-05-23T13:19:49Z</time>
      </trkpt>
      <trkpt lat="39.895883" lon="116.636591">
        <time>2021-05-23T13:19:54Z</time>
      </trkpt>
      <trkpt lat="39.895911" lon="116.636441">
        <time>2021-05-23T13:19:59Z</time>
      </trkpt>
      <trkpt lat="39.896066" lon="116.636332">
        <time>2021-05-23T13:20:04Z</time>
      </trkpt>
      <trkpt lat="39.896209" lon="116.636233">
        <time>2021-05-23T13:20:09Z</time>
      </trkpt>
      <trkpt lat="39.896325" lon="116.636144">
        <time>2021-05-23T13:20:14Z</time>
      </trkpt>
      <trkpt lat="39.896427" lon="116.636008">
        <time>2021-05-23T13:20:19Z</time>
      </trkpt>
      <trkpt lat="39.896554" lon="116.635999">
        <time>2021-05-23T13:20:24Z</time>
      </trkpt>
      <trkpt lat="39.896641" lon="116.63595">
        <time>2021-05-23T13:20:29Z</time>
      </trkpt>
      <trkpt lat="39.896717" lon="116.635898">
        <time>2021-05-23T13:20:34Z</time>
      </trkpt>
      <trkpt lat="39.896778" lon="116.635863">
        <time>2021-05-23T13:20:39Z</time>
      </trkpt>
      <trkpt lat="39.896843" lon="116.635802">
        <time>2021-05-23T13:20:44Z</time>
      </trkpt>
      <trkpt lat="39.896918" lon="116.635746">
        <time>2021-05-23T13:20:49Z</time>
      </trkpt>
      <trkpt lat="39.896995" lon="116.635742">
        <time>2021-05-23T13:20:54Z</time>
      </trkpt>
      <trkpt lat="39.897085" lon="116.635717">
        <time>2021-05-23T13:20:59Z</time>
      </trkpt>
      <trkpt lat="39.897174" lon="116.635664">
        <time>2021-05-23T13:21:04Z</time>
      </trkpt>
      <trkpt lat="39.897298" lon="116.63557">
        <time>2021-05-23T13:21:09Z</time>
      </trkpt>
      <trkpt lat="39.8975" lon="116.635421">
        <time>2021-05-23T13:21:14Z</time>
      </trkpt>
      <trkpt lat="39.897549" lon="116.635372">
        <time>2021-05-23T13:21:19Z</time>
      </trkpt>
      <trkpt lat="39.89767" lon="116.63528">
        <time>2021-05-23T13:21:24Z</time>
      </trkpt>
      <trkpt lat="39.897699" lon="116.635263">
        <time>2021-05-23T13:21:29Z</time>
      </trkpt>
      <trkpt lat="39.897785" lon="116.635219">
        <time>2021-05-23T13:21:34Z</time>
      </trkpt>
      <trkpt lat="39.897878" lon="116.635179">
        <time>2021-05-23T13:21:39Z</time>
      </trkpt>
      <trkpt lat="39.897949" lon="116.635141">
        <time>2021-05-23T13:21:44Z</time>
      </trkpt>
      <trkpt lat="39.897998" lon="116.635095">
        <time>2021-05-23T13:21:49Z</time>
      </trkpt>
      <trkpt lat="39.89808" lon="116.635048">
        <time>2021-05-23T13:21:54Z</time>
      </trkpt>
      <trkpt lat="39.89814" lon="116.635012">
        <time>2021-05-23T13:21:59Z</time>
      </trkpt>
      <trkpt lat="39.898248" lon="116.634938">
        <time>2021-05-23T13:22:04Z</time>
      </trkpt>
      <trkpt lat="39.898352" lon="116.634858">
        <time>2021-05-23T13:22:09Z</time>
      </trkpt>
      <trkpt lat="39.898454" lon="116.634787">
        <time>2021-05-23T13:22:14Z</time>
      </trkpt>
      <trkpt lat="39.898575" lon="116.634728">
        <time>2021-05-23T13:22:19Z</time>
      </trkpt>
      <trkpt lat="39.89871" lon="116.634657">
        <time>2021-05-23T13:22:24Z</time>
      </trkpt>
      <trkpt lat="39.898825" lon="116.634592">
        <time>2021-05-23T13:22:29Z</time>
      </trkpt>
      <trkpt lat="39.89896" lon="116.634515">
        <time>2021-05-23T13:22:34Z</time>
      </trkpt>
      <trkpt lat="39.899057" lon="116.634467">
        <time>2021-05-23T13:22:39Z</time>
      </trkpt>
      <trkpt lat="39.899148" lon="116.634427">
        <time>2021-05-23T13:22:44Z</time>
      </trkpt>
      <trkpt lat="39.899212" lon="116.634386">
        <time>2021-05-23T13:22:49Z</time>
      </trkpt>
      <trkpt lat="39.899254" lon="116.634342">
        <time>2021-05-23T13:22:54Z</time>
      </trkpt>
      <trkpt lat="39.899301" lon="116.634288">
        <time>2021-05-23T13:22:59Z</time>
      </trkpt>
      <trkpt lat="39.899352" lon="116.634252">
        <time>2021-05-23T13:23:04Z</time>
      </trkpt>
      <trkpt lat="39.899431" lon="116.634191">
        <time>2021-05-23T13:23:09Z</time>
      </trkpt>
      <trkpt lat="39.899552" lon="116.634127">
        <time>2021-05-23T13:23:14Z</time>
      </trkpt>
      <trkpt lat="39.899706" lon="116.63406">
        <time>2021-05-23T13:23:19Z</time>
      </trkpt>
      <trkpt lat="39.899818" lon="116.633977">
        <time>2021-05-23T13:23:24Z</time>
      </trkpt>
      <trkpt lat="39.899893" lon="116.633887">
        <time>2021-05-23T13:23:29Z</time>
      </trkpt>
      <trkpt lat="39.900001" lon="116.633829">
        <time>2021-05-23T13:23:34Z</time>
      </trkpt>
      <trkpt lat="39.900107" lon="116.633774">
        <time>2021-05-23T13:23:39Z</time>
      </trkpt>
      <trkpt lat="39.900244" lon="116.633691">
        <time>2021-05-23T13:23:44Z</time>
      </trkpt>
      <trkpt lat="39.900396" lon="116.633564">
        <time>2021-05-23T13:23:49Z</time>
      </trkpt>
      <trkpt lat="39.900478" lon="116.63352">
        <time>2021-05-23T13:23:54Z</time>
      </trkpt>
      <trkpt lat="39.900618" lon="116.63342">
        <time>2021-05-23T13:23:59Z</time>
      </trkpt>
      <trkpt lat="39.900732" lon="116.63339">
        <time>2021-05-23T13:24:04Z</time>
      </trkpt>
      <trkpt lat="39.900858" lon="116.633313">
        <time>2021-05-23T13:24:09Z</time>
      </trkpt>
      <trkpt lat="39.900974" lon="116.633164">
        <time>2021-05-23T13:24:14Z</time>
      </trkpt>
      <trkpt lat="39.900936" lon="116.632989">
        <time>2021-05-23T13:24:19Z</time>
      </trkpt>
      <trkpt lat="39.900916" lon="116.632972">
        <time>2021-05-23T13:24:24Z</time>
      </trkpt>
      <trkpt lat="39.900898" lon="116.632942">
        <time>2021-05-23T13:24:29Z</time>
      </trkpt>
      <trkpt lat="39.900849" lon="116.632875">
        <time>2021-05-23T13:24:34Z</time>
      </trkpt>
      <trkpt lat="39.900747" lon="116.632876">
        <time>2021-05-23T13:24:39Z</time>
      </trkpt>
      <trkpt lat="39.900667" lon="116.63293">
        <time>2021-05-23T13:24:44Z</time>
      </trkpt>
      <trkpt lat="39.900583" lon="116.632963">
        <time>2021-05-23T13:24:49Z</time>
      </trkpt>
      <trkpt lat="39.900472" lon="116.633055">
        <time>2021-05-23T13:24:54Z</time>
      </trkpt>
      <trkpt lat="39.900354" lon="116.633133">
        <time>2021-05-23T13:24:59Z</time>
      </trkpt>
      <trkpt lat="39.900235" lon="116.633208">
        <time>2021-05-23T13:25:04Z</time>
      </trkpt>
      <trkpt lat="39.900102" lon="116.633271">
        <time>2021-05-23T13:25:09Z</time>
      </trkpt>
      <trkpt lat="39.89997" lon="116.633314">
        <time>2021-05-23T13:25:14Z</time>
      </trkpt>
      <trkpt lat="39.899859" lon="116.633407">
        <time>2021-05-23T13:25:19Z</time>
      </trkpt>
      <trkpt lat="39.899764" lon="116.633531">
        <time>2021-05-23T13:25:24Z</time>
      </trkpt>
      <trkpt lat="39.899666" lon="116.63359">
        <time>2021-05-23T13:25:29Z</time>
      </trkpt>
      <trkpt lat="39.899608" lon="116.633593">
        <time>2021-05-23T13:25:34Z</time>
      </trkpt>
      <trkpt lat="39.899549" lon="116.63364">
        <time>2021-05-23T13:25:39Z</time>
      </trkpt>
      <trkpt lat="39.899473" lon="116.633674">
        <time>2021-05-23T13:25:44Z</time>
      </trkpt>
      <trkpt lat="39.899435" lon="116.633687">
        <time>2021-05-23T13:25:49Z</time>
      </trkpt>
      <trkpt lat="39.899324" lon="116.633781">
        <time>2021-05-23T13:25:54Z</time>
      </trkpt>
      <trkpt lat="39.899301" lon="116.633797">
        <time>2021-05-23T13:25:59Z</time>
      </trkpt>
      <trkpt lat="39.899225" lon="116.633844">
        <time>2021-05-23T13:26:04Z</time>
      </trkpt>
      <trkpt lat="39.89916" lon="116.633874">
        <time>2021-05-23T13:26:09Z</time>
      </trkpt>
      <trkpt lat="39.899093" lon="116.63395">
        <time>2021-05-23T13:26:14Z</time>
      </trkpt>
      <trkpt lat="39.89904" lon="116.634066">
        <time>2021-05-23T13:26:19Z</time>
      </trkpt>
      <trkpt lat="39.898919" lon="116.634135">
        <time>2021-05-23T13:26:24Z</time>
      </trkpt>
      <trkpt lat="39.898786" lon="116.634174">
        <time>2021-05-23T13:26:29Z</time>
      </trkpt>
      <trkpt lat="39.898657" lon="116.63426">
        <time>2021-05-23T13:26:34Z</time>
      </trkpt>
      <trkpt lat="39.898523" lon="116.634328">
        <time>2021-05-23T13:26:39Z</time>
      </trkpt>
      <trkpt lat="39.898389" lon="116.63441">
        <time>2021-05-23T13:26:44Z</time>
      </trkpt>
      <trkpt lat="39.898268" lon="116.634497">
        <time>2021-05-23T13:26:49Z</time>
      </trkpt>
      <trkpt lat="39.898164" lon="116.634582">
        <time>2021-05-23T13:26:54Z</time>
      </trkpt>
      <trkpt lat="39.898043" lon="116.63462">
        <time>2021-05-23T13:26:59Z</time>
      </trkpt>
      <trkpt lat="39.897993" lon="116.634539">
        <time>2021-05-23T13:27:04Z</time>
      </trkpt>
      <trkpt lat="39.897978" lon="116.634451">
        <time>2021-05-23T13:27:09Z</time>
      </trkpt>
      <trkpt lat="39.897993" lon="116.634401">
        <time>2021-05-23T13:27:14Z</time>
      </trkpt>
      <trkpt lat="39.897963" lon="116.634398">
        <time>2021-05-23T13:27:19Z</time>
      </trkpt>
      <trkpt lat="39.89789" lon="116.634368">
        <time>2021-05-23T13:27:24Z</time>
      </trkpt>
      <trkpt lat="39.897824" lon="116.634357">
        <time>2021-05-23T13:27:29Z</time>
      </trkpt>
      <trkpt lat="39.897764" lon="116.634334">
        <time>2021-05-23T13:27:34Z</time>
      </trkpt>
      <trkpt lat="39.897687" lon="116.634341">
        <time>2021-05-23T13:27:39Z</time>
      </trkpt>
      <trkpt lat="39.897598" lon="116.634265">
        <time>2021-05-23T13:27:44Z</time>
      </trkpt>
      <trkpt lat="39.897556" lon="116.634104">
        <time>2021-05-23T13:27:49Z</time>
      </trkpt>
      <trkpt lat="39.897576" lon="116.633953">
        <time>2021-05-23T13:27:54Z</time>
      </trkpt>
      <trkpt lat="39.89757" lon="116.63388">
        <time>2021-05-23T13:27:59Z</time>
      </trkpt>
      <trkpt lat="39.897583" lon="116.633722">
        <time>2021-05-23T13:28:04Z</time>
      </trkpt>
      <trkpt lat="39.897501" lon="116.633632">
        <time>2021-05-23T13:28:09Z</time>
      </trkpt>
      <trkpt lat="39.897414" lon="116.633693">
        <time>2021-05-23T13:28:14Z</time>
      </trkpt>
      <trkpt lat="39.897348" lon="116.633807">
        <time>2021-05-23T13:28:19Z</time>
      </trkpt>
      <trkpt lat="39.897294" lon="116.633973">
        <time>2021-05-23T13:28:24Z</time>
      </trkpt>
      <trkpt lat="39.897346" lon="116.634285">
        <time>2021-05-23T13:28:29Z</time>
      </trkpt>
      <trkpt lat="39.897356" lon="116.634443">
        <time>2021-05-23T13:28:41Z</time>
      </trkpt>
    </trkseg>
  </trk>
</gpx>