<?xml version="1.0" encoding="UTF-8"?>
<gpx xmlns="http://www.topografix.com/GPX/1/1" xmlns:gpxtpx="http://www.garmin.com/xmlschemas/TrackPointExtension/v1" xmlns:xsi="http://www.w3.org/2001/XMLSchema-instance" xsi:schemaLocation="http://www.topografix.com/GPX/1/1 http://www.topografix.com/GPX/1/1/gpx.xsd" version="1.1" creator="gpx.py -- https://github.com/tkrajina/gpxpy">
  <trk>
    <name>gpx from keep</name>
    <trkseg>
      <trkpt lat="39.89595" lon="116.636662">
        <time>2021-05-30T12:19:30Z</time>
      </trkpt>
      <trkpt lat="39.89595" lon="116.636662">
        <time>2021-05-30T12:19:35Z</time>
      </trkpt>
      <trkpt lat="39.895972" lon="116.636702">
        <time>2021-05-30T12:19:40Z</time>
      </trkpt>
      <trkpt lat="39.896023" lon="116.636828">
        <time>2021-05-30T12:19:45Z</time>
      </trkpt>
      <trkpt lat="39.896077" lon="116.637048">
        <time>2021-05-30T12:19:50Z</time>
      </trkpt>
      <trkpt lat="39.896101" lon="116.637152">
        <time>2021-05-30T12:19:55Z</time>
      </trkpt>
      <trkpt lat="39.896111" lon="116.637323">
        <time>2021-05-30T12:20:00Z</time>
      </trkpt>
      <trkpt lat="39.896143" lon="116.63746">
        <time>2021-05-30T12:20:05Z</time>
      </trkpt>
      <trkpt lat="39.896156" lon="116.637605">
        <time>2021-05-30T12:20:10Z</time>
      </trkpt>
      <trkpt lat="39.896146" lon="116.637764">
        <time>2021-05-30T12:20:15Z</time>
      </trkpt>
      <trkpt lat="39.89618" lon="116.637908">
        <time>2021-05-30T12:20:20Z</time>
      </trkpt>
      <trkpt lat="39.896224" lon="116.638063">
        <time>2021-05-30T12:20:25Z</time>
      </trkpt>
      <trkpt lat="39.896234" lon="116.638243">
        <time>2021-05-30T12:20:30Z</time>
      </trkpt>
      <trkpt lat="39.896229" lon="116.638446">
        <time>2021-05-30T12:20:35Z</time>
      </trkpt>
      <trkpt lat="39.896233" lon="116.638594">
        <time>2021-05-30T12:20:40Z</time>
      </trkpt>
      <trkpt lat="39.896226" lon="116.63876">
        <time>2021-05-30T12:20:45Z</time>
      </trkpt>
      <trkpt lat="39.896247" lon="116.638907">
        <time>2021-05-30T12:20:50Z</time>
      </trkpt>
      <trkpt lat="39.896252" lon="116.639064">
        <time>2021-05-30T12:20:55Z</time>
      </trkpt>
      <trkpt lat="39.896233" lon="116.639231">
        <time>2021-05-30T12:21:00Z</time>
      </trkpt>
      <trkpt lat="39.896228" lon="116.639401">
        <time>2021-05-30T12:21:05Z</time>
      </trkpt>
      <trkpt lat="39.896231" lon="116.639637">
        <time>2021-05-30T12:21:10Z</time>
      </trkpt>
      <trkpt lat="39.896233" lon="116.639736">
        <time>2021-05-30T12:21:15Z</time>
      </trkpt>
      <trkpt lat="39.896243" lon="116.639909">
        <time>2021-05-30T12:21:20Z</time>
      </trkpt>
      <trkpt lat="39.896252" lon="116.64009">
        <time>2021-05-30T12:21:25Z</time>
      </trkpt>
      <trkpt lat="39.896252" lon="116.640242">
        <time>2021-05-30T12:21:30Z</time>
      </trkpt>
      <trkpt lat="39.896305" lon="116.64039">
        <time>2021-05-30T12:21:35Z</time>
      </trkpt>
      <trkpt lat="39.896387" lon="116.640525">
        <time>2021-05-30T12:21:40Z</time>
      </trkpt>
      <trkpt lat="39.896329" lon="116.640741">
        <time>2021-05-30T12:21:45Z</time>
      </trkpt>
      <trkpt lat="39.896282" lon="116.640994">
        <time>2021-05-30T12:21:50Z</time>
      </trkpt>
      <trkpt lat="39.896271" lon="116.6411">
        <time>2021-05-30T12:21:55Z</time>
      </trkpt>
      <trkpt lat="39.896253" lon="116.641259">
        <time>2021-05-30T12:22:00Z</time>
      </trkpt>
      <trkpt lat="39.896251" lon="116.641414">
        <time>2021-05-30T12:22:05Z</time>
      </trkpt>
      <trkpt lat="39.896246" lon="116.641581">
        <time>2021-05-30T12:22:10Z</time>
      </trkpt>
      <trkpt lat="39.896236" lon="116.641717">
        <time>2021-05-30T12:22:15Z</time>
      </trkpt>
      <trkpt lat="39.896232" lon="116.641888">
        <time>2021-05-30T12:22:20Z</time>
      </trkpt>
      <trkpt lat="39.896198" lon="116.642157">
        <time>2021-05-30T12:22:25Z</time>
      </trkpt>
      <trkpt lat="39.896204" lon="116.642208">
        <time>2021-05-30T12:22:30Z</time>
      </trkpt>
      <trkpt lat="39.8962" lon="116.642316">
        <time>2021-05-30T12:22:35Z</time>
      </trkpt>
      <trkpt lat="39.896213" lon="116.642451">
        <time>2021-05-30T12:22:40Z</time>
      </trkpt>
      <trkpt lat="39.896229" lon="116.642634">
        <time>2021-05-30T12:22:45Z</time>
      </trkpt>
      <trkpt lat="39.896229" lon="116.64282">
        <time>2021-05-30T12:22:50Z</time>
      </trkpt>
      <trkpt lat="39.896221" lon="116.643009">
        <time>2021-05-30T12:22:55Z</time>
      </trkpt>
      <trkpt lat="39.896231" lon="116.643155">
        <time>2021-05-30T12:23:00Z</time>
      </trkpt>
      <trkpt lat="39.896209" lon="116.643311">
        <time>2021-05-30T12:23:05Z</time>
      </trkpt>
      <trkpt lat="39.896196" lon="116.643457">
        <time>2021-05-30T12:23:10Z</time>
      </trkpt>
      <trkpt lat="39.896199" lon="116.643611">
        <time>2021-05-30T12:23:15Z</time>
      </trkpt>
      <trkpt lat="39.896202" lon="116.64382">
        <time>2021-05-30T12:23:20Z</time>
      </trkpt>
      <trkpt lat="39.896192" lon="116.643908">
        <time>2021-05-30T12:23:25Z</time>
      </trkpt>
      <trkpt lat="39.896182" lon="116.644062">
        <time>2021-05-30T12:23:30Z</time>
      </trkpt>
      <trkpt lat="39.896215" lon="116.644306">
        <time>2021-05-30T12:23:35Z</time>
      </trkpt>
      <trkpt lat="39.896218" lon="116.644362">
        <time>2021-05-30T12:23:40Z</time>
      </trkpt>
      <trkpt lat="39.896245" lon="116.644526">
        <time>2021-05-30T12:23:45Z</time>
      </trkpt>
      <trkpt lat="39.896228" lon="116.644711">
        <time>2021-05-30T12:23:50Z</time>
      </trkpt>
      <trkpt lat="39.896217" lon="116.644876">
        <time>2021-05-30T12:23:55Z</time>
      </trkpt>
      <trkpt lat="39.896221" lon="116.645037">
        <time>2021-05-30T12:24:00Z</time>
      </trkpt>
      <trkpt lat="39.89622" lon="116.645189">
        <time>2021-05-30T12:24:05Z</time>
      </trkpt>
      <trkpt lat="39.896195" lon="116.645313">
        <time>2021-05-30T12:24:10Z</time>
      </trkpt>
      <trkpt lat="39.896193" lon="116.645442">
        <time>2021-05-30T12:24:15Z</time>
      </trkpt>
      <trkpt lat="39.896136" lon="116.645604">
        <time>2021-05-30T12:24:20Z</time>
      </trkpt>
      <trkpt lat="39.896078" lon="116.645791">
        <time>2021-05-30T12:24:25Z</time>
      </trkpt>
      <trkpt lat="39.896059" lon="116.645958">
        <time>2021-05-30T12:24:30Z</time>
      </trkpt>
      <trkpt lat="39.896035" lon="116.646143">
        <time>2021-05-30T12:24:35Z</time>
      </trkpt>
      <trkpt lat="39.896029" lon="116.646307">
        <time>2021-05-30T12:24:40Z</time>
      </trkpt>
      <trkpt lat="39.896021" lon="116.646452">
        <time>2021-05-30T12:24:45Z</time>
      </trkpt>
      <trkpt lat="39.896016" lon="116.646626">
        <time>2021-05-30T12:24:50Z</time>
      </trkpt>
      <trkpt lat="39.896019" lon="116.6468">
        <time>2021-05-30T12:24:55Z</time>
      </trkpt>
      <trkpt lat="39.895986" lon="116.646954">
        <time>2021-05-30T12:25:00Z</time>
      </trkpt>
      <trkpt lat="39.895981" lon="116.64705">
        <time>2021-05-30T12:25:05Z</time>
      </trkpt>
      <trkpt lat="39.895923" lon="116.647176">
        <time>2021-05-30T12:25:10Z</time>
      </trkpt>
      <trkpt lat="39.895819" lon="116.647229">
        <time>2021-05-30T12:25:15Z</time>
      </trkpt>
      <trkpt lat="39.89578" lon="116.647386">
        <time>2021-05-30T12:25:20Z</time>
      </trkpt>
      <trkpt lat="39.895751" lon="116.647531">
        <time>2021-05-30T12:25:25Z</time>
      </trkpt>
      <trkpt lat="39.895718" lon="116.647651">
        <time>2021-05-30T12:25:30Z</time>
      </trkpt>
      <trkpt lat="39.895684" lon="116.647838">
        <time>2021-05-30T12:25:35Z</time>
      </trkpt>
      <trkpt lat="39.895659" lon="116.647973">
        <time>2021-05-30T12:25:40Z</time>
      </trkpt>
      <trkpt lat="39.895675" lon="116.648104">
        <time>2021-05-30T12:25:45Z</time>
      </trkpt>
      <trkpt lat="39.895656" lon="116.648282">
        <time>2021-05-30T12:25:50Z</time>
      </trkpt>
      <trkpt lat="39.895623" lon="116.648439">
        <time>2021-05-30T12:25:55Z</time>
      </trkpt>
      <trkpt lat="39.895633" lon="116.648597">
        <time>2021-05-30T12:26:00Z</time>
      </trkpt>
      <trkpt lat="39.895727" lon="116.648484">
        <time>2021-05-30T12:26:05Z</time>
      </trkpt>
      <trkpt lat="39.895796" lon="116.648318">
        <time>2021-05-30T12:26:10Z</time>
      </trkpt>
      <trkpt lat="39.895848" lon="116.64816">
        <time>2021-05-30T12:26:15Z</time>
      </trkpt>
      <trkpt lat="39.895889" lon="116.648005">
        <time>2021-05-30T12:26:20Z</time>
      </trkpt>
      <trkpt lat="39.895921" lon="116.647857">
        <time>2021-05-30T12:26:25Z</time>
      </trkpt>
      <trkpt lat="39.89593" lon="116.647735">
        <time>2021-05-30T12:26:30Z</time>
      </trkpt>
      <trkpt lat="39.895934" lon="116.647579">
        <time>2021-05-30T12:26:35Z</time>
      </trkpt>
      <trkpt lat="39.89597" lon="116.647439">
        <time>2021-05-30T12:26:40Z</time>
      </trkpt>
      <trkpt lat="39.895968" lon="116.647272">
        <time>2021-05-30T12:26:45Z</time>
      </trkpt>
      <trkpt lat="39.895896" lon="116.647165">
        <time>2021-05-30T12:26:50Z</time>
      </trkpt>
      <trkpt lat="39.89579" lon="116.647256">
        <time>2021-05-30T12:26:55Z</time>
      </trkpt>
      <trkpt lat="39.895775" lon="116.647406">
        <time>2021-05-30T12:27:00Z</time>
      </trkpt>
      <trkpt lat="39.895763" lon="116.647551">
        <time>2021-05-30T12:27:05Z</time>
      </trkpt>
      <trkpt lat="39.895762" lon="116.647713">
        <time>2021-05-30T12:27:10Z</time>
      </trkpt>
      <trkpt lat="39.895799" lon="116.647857">
        <time>2021-05-30T12:27:15Z</time>
      </trkpt>
      <trkpt lat="39.89585" lon="116.648016">
        <time>2021-05-30T12:27:20Z</time>
      </trkpt>
      <trkpt lat="39.895863" lon="116.648181">
        <time>2021-05-30T12:27:25Z</time>
      </trkpt>
      <trkpt lat="39.895806" lon="116.648367">
        <time>2021-05-30T12:27:30Z</time>
      </trkpt>
      <trkpt lat="39.895752" lon="116.648519">
        <time>2021-05-30T12:27:35Z</time>
      </trkpt>
      <trkpt lat="39.895833" lon="116.648534">
        <time>2021-05-30T12:27:40Z</time>
      </trkpt>
      <trkpt lat="39.895877" lon="116.648323">
        <time>2021-05-30T12:27:45Z</time>
      </trkpt>
      <trkpt lat="39.895913" lon="116.648109">
        <time>2021-05-30T12:27:50Z</time>
      </trkpt>
      <trkpt lat="39.895938" lon="116.647944">
        <time>2021-05-30T12:27:55Z</time>
      </trkpt>
      <trkpt lat="39.895906" lon="116.647791">
        <time>2021-05-30T12:28:00Z</time>
      </trkpt>
      <trkpt lat="39.895905" lon="116.647629">
        <time>2021-05-30T12:28:05Z</time>
      </trkpt>
      <trkpt lat="39.895903" lon="116.647482">
        <time>2021-05-30T12:28:10Z</time>
      </trkpt>
      <trkpt lat="39.895923" lon="116.647289">
        <time>2021-05-30T12:28:15Z</time>
      </trkpt>
      <trkpt lat="39.895889" lon="116.647151">
        <time>2021-05-30T12:28:20Z</time>
      </trkpt>
      <trkpt lat="39.89578" lon="116.647196">
        <time>2021-05-30T12:28:25Z</time>
      </trkpt>
      <trkpt lat="39.89575" lon="116.647399">
        <time>2021-05-30T12:28:30Z</time>
      </trkpt>
      <trkpt lat="39.895747" lon="116.647575">
        <time>2021-05-30T12:28:35Z</time>
      </trkpt>
      <trkpt lat="39.895745" lon="116.647738">
        <time>2021-05-30T12:28:40Z</time>
      </trkpt>
      <trkpt lat="39.895721" lon="116.647915">
        <time>2021-05-30T12:28:45Z</time>
      </trkpt>
      <trkpt lat="39.895716" lon="116.648058">
        <time>2021-05-30T12:28:50Z</time>
      </trkpt>
      <trkpt lat="39.895676" lon="116.648224">
        <time>2021-05-30T12:28:55Z</time>
      </trkpt>
      <trkpt lat="39.89564" lon="116.648391">
        <time>2021-05-30T12:29:00Z</time>
      </trkpt>
      <trkpt lat="39.895653" lon="116.648545">
        <time>2021-05-30T12:29:05Z</time>
      </trkpt>
      <trkpt lat="39.895704" lon="116.648585">
        <time>2021-05-30T12:29:10Z</time>
      </trkpt>
      <trkpt lat="39.895787" lon="116.648418">
        <time>2021-05-30T12:29:15Z</time>
      </trkpt>
      <trkpt lat="39.895835" lon="116.648197">
        <time>2021-05-30T12:29:20Z</time>
      </trkpt>
      <trkpt lat="39.895892" lon="116.648014">
        <time>2021-05-30T12:29:25Z</time>
      </trkpt>
      <trkpt lat="39.895895" lon="116.647838">
        <time>2021-05-30T12:29:30Z</time>
      </trkpt>
      <trkpt lat="39.895883" lon="116.647686">
        <time>2021-05-30T12:29:35Z</time>
      </trkpt>
      <trkpt lat="39.895896" lon="116.647548">
        <time>2021-05-30T12:29:40Z</time>
      </trkpt>
      <trkpt lat="39.895912" lon="116.647396">
        <time>2021-05-30T12:29:45Z</time>
      </trkpt>
      <trkpt lat="39.895907" lon="116.647206">
        <time>2021-05-30T12:29:50Z</time>
      </trkpt>
      <trkpt lat="39.895867" lon="116.64715">
        <time>2021-05-30T12:29:55Z</time>
      </trkpt>
      <trkpt lat="39.895792" lon="116.647293">
        <time>2021-05-30T12:30:00Z</time>
      </trkpt>
      <trkpt lat="39.895785" lon="116.647401">
        <time>2021-05-30T12:30:05Z</time>
      </trkpt>
      <trkpt lat="39.895754" lon="116.647591">
        <time>2021-05-30T12:30:10Z</time>
      </trkpt>
      <trkpt lat="39.895689" lon="116.647758">
        <time>2021-05-30T12:30:15Z</time>
      </trkpt>
      <trkpt lat="39.895694" lon="116.647946">
        <time>2021-05-30T12:30:20Z</time>
      </trkpt>
      <trkpt lat="39.895719" lon="116.64809">
        <time>2021-05-30T12:30:25Z</time>
      </trkpt>
      <trkpt lat="39.895715" lon="116.64826">
        <time>2021-05-30T12:30:30Z</time>
      </trkpt>
      <trkpt lat="39.895704" lon="116.648441">
        <time>2021-05-30T12:30:35Z</time>
      </trkpt>
      <trkpt lat="39.895759" lon="116.648547">
        <time>2021-05-30T12:30:40Z</time>
      </trkpt>
      <trkpt lat="39.895856" lon="116.648399">
        <time>2021-05-30T12:30:45Z</time>
      </trkpt>
      <trkpt lat="39.895893" lon="116.648218">
        <time>2021-05-30T12:30:50Z</time>
      </trkpt>
      <trkpt lat="39.89593" lon="116.64805">
        <time>2021-05-30T12:30:55Z</time>
      </trkpt>
      <trkpt lat="39.895934" lon="116.64788">
        <time>2021-05-30T12:31:00Z</time>
      </trkpt>
      <trkpt lat="39.89594" lon="116.647704">
        <time>2021-05-30T12:31:05Z</time>
      </trkpt>
      <trkpt lat="39.895947" lon="116.647543">
        <time>2021-05-30T12:31:10Z</time>
      </trkpt>
      <trkpt lat="39.895941" lon="116.647392">
        <time>2021-05-30T12:31:15Z</time>
      </trkpt>
      <trkpt lat="39.895926" lon="116.647221">
        <time>2021-05-30T12:31:20Z</time>
      </trkpt>
      <trkpt lat="39.895814" lon="116.647166">
        <time>2021-05-30T12:31:25Z</time>
      </trkpt>
      <trkpt lat="39.895744" lon="116.64726">
        <time>2021-05-30T12:31:30Z</time>
      </trkpt>
      <trkpt lat="39.895747" lon="116.647432">
        <time>2021-05-30T12:31:35Z</time>
      </trkpt>
      <trkpt lat="39.895724" lon="116.647633">
        <time>2021-05-30T12:31:40Z</time>
      </trkpt>
      <trkpt lat="39.89574" lon="116.647816">
        <time>2021-05-30T12:31:45Z</time>
      </trkpt>
      <trkpt lat="39.895794" lon="116.647987">
        <time>2021-05-30T12:31:50Z</time>
      </trkpt>
      <trkpt lat="39.895803" lon="116.648123">
        <time>2021-05-30T12:31:55Z</time>
      </trkpt>
      <trkpt lat="39.89588" lon="116.648214">
        <time>2021-05-30T12:32:00Z</time>
      </trkpt>
      <trkpt lat="39.895869" lon="116.648406">
        <time>2021-05-30T12:32:05Z</time>
      </trkpt>
      <trkpt lat="39.895948" lon="116.648442">
        <time>2021-05-30T12:32:10Z</time>
      </trkpt>
      <trkpt lat="39.895991" lon="116.648288">
        <time>2021-05-30T12:32:15Z</time>
      </trkpt>
      <trkpt lat="39.89596" lon="116.648086">
        <time>2021-05-30T12:32:20Z</time>
      </trkpt>
      <trkpt lat="39.895978" lon="116.64796">
        <time>2021-05-30T12:32:25Z</time>
      </trkpt>
      <trkpt lat="39.895975" lon="116.647806">
        <time>2021-05-30T12:32:30Z</time>
      </trkpt>
      <trkpt lat="39.895948" lon="116.647643">
        <time>2021-05-30T12:32:35Z</time>
      </trkpt>
      <trkpt lat="39.895952" lon="116.647492">
        <time>2021-05-30T12:32:40Z</time>
      </trkpt>
      <trkpt lat="39.895951" lon="116.647318">
        <time>2021-05-30T12:32:45Z</time>
      </trkpt>
      <trkpt lat="39.895932" lon="116.647148">
        <time>2021-05-30T12:32:50Z</time>
      </trkpt>
      <trkpt lat="39.895821" lon="116.64709">
        <time>2021-05-30T12:32:55Z</time>
      </trkpt>
      <trkpt lat="39.895734" lon="116.64726">
        <time>2021-05-30T12:33:00Z</time>
      </trkpt>
      <trkpt lat="39.895728" lon="116.64746">
        <time>2021-05-30T12:33:05Z</time>
      </trkpt>
      <trkpt lat="39.895729" lon="116.64763">
        <time>2021-05-30T12:33:10Z</time>
      </trkpt>
      <trkpt lat="39.895713" lon="116.647808">
        <time>2021-05-30T12:33:15Z</time>
      </trkpt>
      <trkpt lat="39.895718" lon="116.648009">
        <time>2021-05-30T12:33:20Z</time>
      </trkpt>
      <trkpt lat="39.895709" lon="116.648204">
        <time>2021-05-30T12:33:25Z</time>
      </trkpt>
      <trkpt lat="39.895674" lon="116.648375">
        <time>2021-05-30T12:33:30Z</time>
      </trkpt>
      <trkpt lat="39.895635" lon="116.648536">
        <time>2021-05-30T12:33:35Z</time>
      </trkpt>
      <trkpt lat="39.895659" lon="116.648609">
        <time>2021-05-30T12:33:40Z</time>
      </trkpt>
      <trkpt lat="39.895743" lon="116.648451">
        <time>2021-05-30T12:33:45Z</time>
      </trkpt>
      <trkpt lat="39.895804" lon="116.648248">
        <time>2021-05-30T12:33:50Z</time>
      </trkpt>
      <trkpt lat="39.895884" lon="116.64809">
        <time>2021-05-30T12:33:55Z</time>
      </trkpt>
      <trkpt lat="39.895912" lon="116.647931">
        <time>2021-05-30T12:34:00Z</time>
      </trkpt>
      <trkpt lat="39.895921" lon="116.647761">
        <time>2021-05-30T12:34:05Z</time>
      </trkpt>
      <trkpt lat="39.895925" lon="116.64757">
        <time>2021-05-30T12:34:10Z</time>
      </trkpt>
      <trkpt lat="39.895936" lon="116.647387">
        <time>2021-05-30T12:34:15Z</time>
      </trkpt>
      <trkpt lat="39.895959" lon="116.647211">
        <time>2021-05-30T12:34:20Z</time>
      </trkpt>
      <trkpt lat="39.895859" lon="116.647129">
        <time>2021-05-30T12:34:25Z</time>
      </trkpt>
      <trkpt lat="39.895777" lon="116.64725">
        <time>2021-05-30T12:34:30Z</time>
      </trkpt>
      <trkpt lat="39.895754" lon="116.647414">
        <time>2021-05-30T12:34:35Z</time>
      </trkpt>
      <trkpt lat="39.895734" lon="116.647583">
        <time>2021-05-30T12:34:40Z</time>
      </trkpt>
      <trkpt lat="39.895753" lon="116.647732">
        <time>2021-05-30T12:34:45Z</time>
      </trkpt>
      <trkpt lat="39.895748" lon="116.647893">
        <time>2021-05-30T12:34:50Z</time>
      </trkpt>
      <trkpt lat="39.895737" lon="116.64808">
        <time>2021-05-30T12:34:55Z</time>
      </trkpt>
      <trkpt lat="39.895746" lon="116.648273">
        <time>2021-05-30T12:35:00Z</time>
      </trkpt>
      <trkpt lat="39.895764" lon="116.648436">
        <time>2021-05-30T12:35:05Z</time>
      </trkpt>
      <trkpt lat="39.895859" lon="116.648533">
        <time>2021-05-30T12:35:10Z</time>
      </trkpt>
      <trkpt lat="39.89594" lon="116.648389">
        <time>2021-05-30T12:35:15Z</time>
      </trkpt>
      <trkpt lat="39.895934" lon="116.648187">
        <time>2021-05-30T12:35:20Z</time>
      </trkpt>
      <trkpt lat="39.895937" lon="116.648006">
        <time>2021-05-30T12:35:25Z</time>
      </trkpt>
      <trkpt lat="39.895916" lon="116.647898">
        <time>2021-05-30T12:35:30Z</time>
      </trkpt>
      <trkpt lat="39.895895" lon="116.647737">
        <time>2021-05-30T12:35:35Z</time>
      </trkpt>
      <trkpt lat="39.895922" lon="116.647544">
        <time>2021-05-30T12:35:40Z</time>
      </trkpt>
      <trkpt lat="39.895927" lon="116.647344">
        <time>2021-05-30T12:35:45Z</time>
      </trkpt>
      <trkpt lat="39.895924" lon="116.647151">
        <time>2021-05-30T12:35:50Z</time>
      </trkpt>
      <trkpt lat="39.895825" lon="116.647104">
        <time>2021-05-30T12:35:55Z</time>
      </trkpt>
      <trkpt lat="39.895772" lon="116.647279">
        <time>2021-05-30T12:36:00Z</time>
      </trkpt>
      <trkpt lat="39.895768" lon="116.647411">
        <time>2021-05-30T12:36:05Z</time>
      </trkpt>
      <trkpt lat="39.895741" lon="116.647584">
        <time>2021-05-30T12:36:10Z</time>
      </trkpt>
      <trkpt lat="39.895702" lon="116.647793">
        <time>2021-05-30T12:36:15Z</time>
      </trkpt>
      <trkpt lat="39.895661" lon="116.647987">
        <time>2021-05-30T12:36:20Z</time>
      </trkpt>
      <trkpt lat="39.895645" lon="116.648179">
        <time>2021-05-30T12:36:25Z</time>
      </trkpt>
      <trkpt lat="39.895634" lon="116.648376">
        <time>2021-05-30T12:36:30Z</time>
      </trkpt>
      <trkpt lat="39.895648" lon="116.648517">
        <time>2021-05-30T12:36:35Z</time>
      </trkpt>
      <trkpt lat="39.8958" lon="116.648486">
        <time>2021-05-30T12:36:40Z</time>
      </trkpt>
      <trkpt lat="39.895857" lon="116.648293">
        <time>2021-05-30T12:36:45Z</time>
      </trkpt>
      <trkpt lat="39.895884" lon="116.648091">
        <time>2021-05-30T12:36:50Z</time>
      </trkpt>
      <trkpt lat="39.895909" lon="116.647913">
        <time>2021-05-30T12:36:55Z</time>
      </trkpt>
      <trkpt lat="39.895914" lon="116.647734">
        <time>2021-05-30T12:37:00Z</time>
      </trkpt>
      <trkpt lat="39.895915" lon="116.647558">
        <time>2021-05-30T12:37:05Z</time>
      </trkpt>
      <trkpt lat="39.895929" lon="116.64741">
        <time>2021-05-30T12:37:10Z</time>
      </trkpt>
      <trkpt lat="39.895929" lon="116.647261">
        <time>2021-05-30T12:37:15Z</time>
      </trkpt>
      <trkpt lat="39.895821" lon="116.647083">
        <time>2021-05-30T12:37:20Z</time>
      </trkpt>
      <trkpt lat="39.895788" lon="116.647154">
        <time>2021-05-30T12:37:25Z</time>
      </trkpt>
      <trkpt lat="39.895764" lon="116.647285">
        <time>2021-05-30T12:37:30Z</time>
      </trkpt>
      <trkpt lat="39.895754" lon="116.647407">
        <time>2021-05-30T12:37:35Z</time>
      </trkpt>
      <trkpt lat="39.895718" lon="116.647545">
        <time>2021-05-30T12:37:40Z</time>
      </trkpt>
      <trkpt lat="39.895658" lon="116.647801">
        <time>2021-05-30T12:37:45Z</time>
      </trkpt>
      <trkpt lat="39.895618" lon="116.648013">
        <time>2021-05-30T12:37:50Z</time>
      </trkpt>
      <trkpt lat="39.895539" lon="116.648367">
        <time>2021-05-30T12:37:55Z</time>
      </trkpt>
      <trkpt lat="39.895556" lon="116.648414">
        <time>2021-05-30T12:38:00Z</time>
      </trkpt>
      <trkpt lat="39.895558" lon="116.648546">
        <time>2021-05-30T12:38:05Z</time>
      </trkpt>
      <trkpt lat="39.895583" lon="116.648641">
        <time>2021-05-30T12:38:10Z</time>
      </trkpt>
      <trkpt lat="39.895699" lon="116.648462">
        <time>2021-05-30T12:38:15Z</time>
      </trkpt>
      <trkpt lat="39.89581" lon="116.648212">
        <time>2021-05-30T12:38:20Z</time>
      </trkpt>
      <trkpt lat="39.895886" lon="116.647985">
        <time>2021-05-30T12:38:25Z</time>
      </trkpt>
      <trkpt lat="39.895892" lon="116.647795">
        <time>2021-05-30T12:38:30Z</time>
      </trkpt>
      <trkpt lat="39.895901" lon="116.647608">
        <time>2021-05-30T12:38:35Z</time>
      </trkpt>
      <trkpt lat="39.895906" lon="116.647423">
        <time>2021-05-30T12:38:40Z</time>
      </trkpt>
      <trkpt lat="39.895932" lon="116.647238">
        <time>2021-05-30T12:38:45Z</time>
      </trkpt>
      <trkpt lat="39.895873" lon="116.647108">
        <time>2021-05-30T12:38:50Z</time>
      </trkpt>
      <trkpt lat="39.895748" lon="116.647259">
        <time>2021-05-30T12:38:55Z</time>
      </trkpt>
      <trkpt lat="39.895742" lon="116.647394">
        <time>2021-05-30T12:39:00Z</time>
      </trkpt>
      <trkpt lat="39.895715" lon="116.647574">
        <time>2021-05-30T12:39:05Z</time>
      </trkpt>
      <trkpt lat="39.895679" lon="116.647777">
        <time>2021-05-30T12:39:10Z</time>
      </trkpt>
      <trkpt lat="39.895708" lon="116.647939">
        <time>2021-05-30T12:39:15Z</time>
      </trkpt>
      <trkpt lat="39.895667" lon="116.648115">
        <time>2021-05-30T12:39:20Z</time>
      </trkpt>
      <trkpt lat="39.895684" lon="116.648274">
        <time>2021-05-30T12:39:25Z</time>
      </trkpt>
      <trkpt lat="39.89577" lon="116.648364">
        <time>2021-05-30T12:39:30Z</time>
      </trkpt>
      <trkpt lat="39.895804" lon="116.648451">
        <time>2021-05-30T12:39:35Z</time>
      </trkpt>
      <trkpt lat="39.895849" lon="116.648395">
        <time>2021-05-30T12:39:40Z</time>
      </trkpt>
      <trkpt lat="39.895834" lon="116.648259">
        <time>2021-05-30T12:39:45Z</time>
      </trkpt>
      <trkpt lat="39.895911" lon="116.648073">
        <time>2021-05-30T12:39:50Z</time>
      </trkpt>
      <trkpt lat="39.895929" lon="116.647892">
        <time>2021-05-30T12:39:55Z</time>
      </trkpt>
      <trkpt lat="39.895953" lon="116.647738">
        <time>2021-05-30T12:40:00Z</time>
      </trkpt>
      <trkpt lat="39.89596" lon="116.647571">
        <time>2021-05-30T12:40:05Z</time>
      </trkpt>
      <trkpt lat="39.89597" lon="116.647403">
        <time>2021-05-30T12:40:10Z</time>
      </trkpt>
      <trkpt lat="39.895985" lon="116.647227">
        <time>2021-05-30T12:40:15Z</time>
      </trkpt>
      <trkpt lat="39.895833" lon="116.647088">
        <time>2021-05-30T12:40:20Z</time>
      </trkpt>
      <trkpt lat="39.895801" lon="116.647154">
        <time>2021-05-30T12:40:25Z</time>
      </trkpt>
      <trkpt lat="39.895763" lon="116.647362">
        <time>2021-05-30T12:40:30Z</time>
      </trkpt>
      <trkpt lat="39.89575" lon="116.647552">
        <time>2021-05-30T12:40:35Z</time>
      </trkpt>
      <trkpt lat="39.895709" lon="116.647713">
        <time>2021-05-30T12:40:40Z</time>
      </trkpt>
      <trkpt lat="39.895685" lon="116.64787">
        <time>2021-05-30T12:40:45Z</time>
      </trkpt>
      <trkpt lat="39.895694" lon="116.648052">
        <time>2021-05-30T12:40:50Z</time>
      </trkpt>
      <trkpt lat="39.895725" lon="116.648183">
        <time>2021-05-30T12:40:55Z</time>
      </trkpt>
      <trkpt lat="39.895661" lon="116.648387">
        <time>2021-05-30T12:41:00Z</time>
      </trkpt>
      <trkpt lat="39.895613" lon="116.648553">
        <time>2021-05-30T12:41:05Z</time>
      </trkpt>
      <trkpt lat="39.895691" lon="116.648513">
        <time>2021-05-30T12:41:10Z</time>
      </trkpt>
      <trkpt lat="39.895786" lon="116.648308">
        <time>2021-05-30T12:41:15Z</time>
      </trkpt>
      <trkpt lat="39.895871" lon="116.648113">
        <time>2021-05-30T12:41:20Z</time>
      </trkpt>
      <trkpt lat="39.895912" lon="116.647899">
        <time>2021-05-30T12:41:25Z</time>
      </trkpt>
      <trkpt lat="39.895934" lon="116.64772">
        <time>2021-05-30T12:41:30Z</time>
      </trkpt>
      <trkpt lat="39.895936" lon="116.647543">
        <time>2021-05-30T12:41:35Z</time>
      </trkpt>
      <trkpt lat="39.895953" lon="116.64738">
        <time>2021-05-30T12:41:40Z</time>
      </trkpt>
      <trkpt lat="39.895948" lon="116.647209">
        <time>2021-05-30T12:41:45Z</time>
      </trkpt>
      <trkpt lat="39.895883" lon="116.647062">
        <time>2021-05-30T12:41:50Z</time>
      </trkpt>
      <trkpt lat="39.895794" lon="116.647112">
        <time>2021-05-30T12:41:55Z</time>
      </trkpt>
      <trkpt lat="39.895749" lon="116.647279">
        <time>2021-05-30T12:42:00Z</time>
      </trkpt>
      <trkpt lat="39.895733" lon="116.647481">
        <time>2021-05-30T12:42:05Z</time>
      </trkpt>
      <trkpt lat="39.895706" lon="116.647668">
        <time>2021-05-30T12:42:10Z</time>
      </trkpt>
      <trkpt lat="39.895739" lon="116.647731">
        <time>2021-05-30T12:42:15Z</time>
      </trkpt>
      <trkpt lat="39.895744" lon="116.64783">
        <time>2021-05-30T12:42:20Z</time>
      </trkpt>
      <trkpt lat="39.895753" lon="116.647918">
        <time>2021-05-30T12:42:25Z</time>
      </trkpt>
      <trkpt lat="39.895792" lon="116.648013">
        <time>2021-05-30T12:42:30Z</time>
      </trkpt>
      <trkpt lat="39.895793" lon="116.648174">
        <time>2021-05-30T12:42:35Z</time>
      </trkpt>
      <trkpt lat="39.895766" lon="116.648343">
        <time>2021-05-30T12:42:40Z</time>
      </trkpt>
      <trkpt lat="39.895727" lon="116.648488">
        <time>2021-05-30T12:42:45Z</time>
      </trkpt>
      <trkpt lat="39.895756" lon="116.648562">
        <time>2021-05-30T12:42:50Z</time>
      </trkpt>
      <trkpt lat="39.895725" lon="116.648725">
        <time>2021-05-30T12:42:55Z</time>
      </trkpt>
      <trkpt lat="39.895644" lon="116.648903">
        <time>2021-05-30T12:43:00Z</time>
      </trkpt>
      <trkpt lat="39.895552" lon="116.64909">
        <time>2021-05-30T12:43:05Z</time>
      </trkpt>
      <trkpt lat="39.895437" lon="116.649156">
        <time>2021-05-30T12:43:10Z</time>
      </trkpt>
      <trkpt lat="39.895318" lon="116.649054">
        <time>2021-05-30T12:43:15Z</time>
      </trkpt>
      <trkpt lat="39.89519" lon="116.648998">
        <time>2021-05-30T12:43:20Z</time>
      </trkpt>
      <trkpt lat="39.895073" lon="116.648945">
        <time>2021-05-30T12:43:25Z</time>
      </trkpt>
      <trkpt lat="39.894963" lon="116.64886">
        <time>2021-05-30T12:43:30Z</time>
      </trkpt>
      <trkpt lat="39.894893" lon="116.648793">
        <time>2021-05-30T12:43:35Z</time>
      </trkpt>
      <trkpt lat="39.894848" lon="116.648712">
        <time>2021-05-30T12:43:40Z</time>
      </trkpt>
      <trkpt lat="39.894761" lon="116.648632">
        <time>2021-05-30T12:43:45Z</time>
      </trkpt>
      <trkpt lat="39.894618" lon="116.648582">
        <time>2021-05-30T12:43:50Z</time>
      </trkpt>
      <trkpt lat="39.894473" lon="116.648531">
        <time>2021-05-30T12:43:55Z</time>
      </trkpt>
      <trkpt lat="39.894344" lon="116.648484">
        <time>2021-05-30T12:44:00Z</time>
      </trkpt>
      <trkpt lat="39.894216" lon="116.648425">
        <time>2021-05-30T12:44:05Z</time>
      </trkpt>
      <trkpt lat="39.894087" lon="116.648351">
        <time>2021-05-30T12:44:10Z</time>
      </trkpt>
      <trkpt lat="39.893944" lon="116.648298">
        <time>2021-05-30T12:44:15Z</time>
      </trkpt>
      <trkpt lat="39.893828" lon="116.648279">
        <time>2021-05-30T12:44:20Z</time>
      </trkpt>
      <trkpt lat="39.893715" lon="116.648207">
        <time>2021-05-30T12:44:25Z</time>
      </trkpt>
      <trkpt lat="39.893596" lon="116.64814">
        <time>2021-05-30T12:44:30Z</time>
      </trkpt>
      <trkpt lat="39.893493" lon="116.648055">
        <time>2021-05-30T12:44:35Z</time>
      </trkpt>
      <trkpt lat="39.89337" lon="116.648021">
        <time>2021-05-30T12:44:40Z</time>
      </trkpt>
      <trkpt lat="39.893235" lon="116.648039">
        <time>2021-05-30T12:44:45Z</time>
      </trkpt>
      <trkpt lat="39.893092" lon="116.648017">
        <time>2021-05-30T12:44:50Z</time>
      </trkpt>
      <trkpt lat="39.892952" lon="116.64802">
        <time>2021-05-30T12:44:55Z</time>
      </trkpt>
      <trkpt lat="39.892818" lon="116.648014">
        <time>2021-05-30T12:45:00Z</time>
      </trkpt>
      <trkpt lat="39.892697" lon="116.648014">
        <time>2021-05-30T12:45:05Z</time>
      </trkpt>
      <trkpt lat="39.892547" lon="116.647975">
        <time>2021-05-30T12:45:10Z</time>
      </trkpt>
      <trkpt lat="39.892518" lon="116.647716">
        <time>2021-05-30T12:45:15Z</time>
      </trkpt>
      <trkpt lat="39.892546" lon="116.647502">
        <time>2021-05-30T12:45:20Z</time>
      </trkpt>
      <trkpt lat="39.892568" lon="116.647309">
        <time>2021-05-30T12:45:25Z</time>
      </trkpt>
      <trkpt lat="39.892627" lon="116.647162">
        <time>2021-05-30T12:45:30Z</time>
      </trkpt>
      <trkpt lat="39.892644" lon="116.646973">
        <time>2021-05-30T12:45:35Z</time>
      </trkpt>
      <trkpt lat="39.892621" lon="116.646755">
        <time>2021-05-30T12:45:40Z</time>
      </trkpt>
      <trkpt lat="39.892624" lon="116.646559">
        <time>2021-05-30T12:45:45Z</time>
      </trkpt>
      <trkpt lat="39.892643" lon="116.646395">
        <time>2021-05-30T12:45:50Z</time>
      </trkpt>
      <trkpt lat="39.892656" lon="116.646237">
        <time>2021-05-30T12:45:55Z</time>
      </trkpt>
      <trkpt lat="39.892657" lon="116.646112">
        <time>2021-05-30T12:46:00Z</time>
      </trkpt>
      <trkpt lat="39.892646" lon="116.645914">
        <time>2021-05-30T12:46:05Z</time>
      </trkpt>
      <trkpt lat="39.892615" lon="116.64575">
        <time>2021-05-30T12:46:10Z</time>
      </trkpt>
      <trkpt lat="39.892497" lon="116.645653">
        <time>2021-05-30T12:46:15Z</time>
      </trkpt>
      <trkpt lat="39.892402" lon="116.645654">
        <time>2021-05-30T12:46:20Z</time>
      </trkpt>
      <trkpt lat="39.892326" lon="116.645639">
        <time>2021-05-30T12:46:25Z</time>
      </trkpt>
      <trkpt lat="39.892243" lon="116.645611">
        <time>2021-05-30T12:46:30Z</time>
      </trkpt>
      <trkpt lat="39.892134" lon="116.645556">
        <time>2021-05-30T12:46:35Z</time>
      </trkpt>
      <trkpt lat="39.892018" lon="116.64553">
        <time>2021-05-30T12:46:40Z</time>
      </trkpt>
      <trkpt lat="39.891893" lon="116.645457">
        <time>2021-05-30T12:46:45Z</time>
      </trkpt>
      <trkpt lat="39.891766" lon="116.645407">
        <time>2021-05-30T12:46:50Z</time>
      </trkpt>
      <trkpt lat="39.891636" lon="116.645321">
        <time>2021-05-30T12:46:55Z</time>
      </trkpt>
      <trkpt lat="39.891523" lon="116.645272">
        <time>2021-05-30T12:47:00Z</time>
      </trkpt>
      <trkpt lat="39.891546" lon="116.645388">
        <time>2021-05-30T12:47:05Z</time>
      </trkpt>
      <trkpt lat="39.891736" lon="116.645445">
        <time>2021-05-30T12:47:10Z</time>
      </trkpt>
      <trkpt lat="39.891901" lon="116.645478">
        <time>2021-05-30T12:47:15Z</time>
      </trkpt>
      <trkpt lat="39.892028" lon="116.645545">
        <time>2021-05-30T12:47:20Z</time>
      </trkpt>
      <trkpt lat="39.892121" lon="116.645661">
        <time>2021-05-30T12:47:25Z</time>
      </trkpt>
      <trkpt lat="39.892235" lon="116.645766">
        <time>2021-05-30T12:47:30Z</time>
      </trkpt>
      <trkpt lat="39.892345" lon="116.645793">
        <time>2021-05-30T12:47:35Z</time>
      </trkpt>
      <trkpt lat="39.892485" lon="116.64579">
        <time>2021-05-30T12:47:40Z</time>
      </trkpt>
      <trkpt lat="39.892629" lon="116.645845">
        <time>2021-05-30T12:47:45Z</time>
      </trkpt>
      <trkpt lat="39.892719" lon="116.645988">
        <time>2021-05-30T12:47:50Z</time>
      </trkpt>
      <trkpt lat="39.892685" lon="116.646207">
        <time>2021-05-30T12:47:55Z</time>
      </trkpt>
      <trkpt lat="39.892641" lon="116.646378">
        <time>2021-05-30T12:48:00Z</time>
      </trkpt>
      <trkpt lat="39.892612" lon="116.646554">
        <time>2021-05-30T12:48:05Z</time>
      </trkpt>
      <trkpt lat="39.892606" lon="116.64667">
        <time>2021-05-30T12:48:10Z</time>
      </trkpt>
      <trkpt lat="39.892599" lon="116.646852">
        <time>2021-05-30T12:48:15Z</time>
      </trkpt>
      <trkpt lat="39.892604" lon="116.647031">
        <time>2021-05-30T12:48:20Z</time>
      </trkpt>
      <trkpt lat="39.892598" lon="116.647232">
        <time>2021-05-30T12:48:25Z</time>
      </trkpt>
      <trkpt lat="39.892599" lon="116.647411">
        <time>2021-05-30T12:48:30Z</time>
      </trkpt>
      <trkpt lat="39.892537" lon="116.647613">
        <time>2021-05-30T12:48:35Z</time>
      </trkpt>
      <trkpt lat="39.892532" lon="116.64778">
        <time>2021-05-30T12:48:40Z</time>
      </trkpt>
      <trkpt lat="39.892544" lon="116.647885">
        <time>2021-05-30T12:48:45Z</time>
      </trkpt>
      <trkpt lat="39.892573" lon="116.647977">
        <time>2021-05-30T12:48:50Z</time>
      </trkpt>
      <trkpt lat="39.892665" lon="116.647967">
        <time>2021-05-30T12:48:55Z</time>
      </trkpt>
      <trkpt lat="39.892787" lon="116.647979">
        <time>2021-05-30T12:49:00Z</time>
      </trkpt>
      <trkpt lat="39.89298" lon="116.64799">
        <time>2021-05-30T12:49:05Z</time>
      </trkpt>
      <trkpt lat="39.893115" lon="116.648011">
        <time>2021-05-30T12:49:10Z</time>
      </trkpt>
      <trkpt lat="39.893249" lon="116.64803">
        <time>2021-05-30T12:49:15Z</time>
      </trkpt>
      <trkpt lat="39.8934" lon="116.648057">
        <time>2021-05-30T12:49:20Z</time>
      </trkpt>
      <trkpt lat="39.893489" lon="116.648119">
        <time>2021-05-30T12:49:25Z</time>
      </trkpt>
      <trkpt lat="39.893583" lon="116.648185">
        <time>2021-05-30T12:49:30Z</time>
      </trkpt>
      <trkpt lat="39.893731" lon="116.648243">
        <time>2021-05-30T12:49:35Z</time>
      </trkpt>
      <trkpt lat="39.893868" lon="116.648327">
        <time>2021-05-30T12:49:40Z</time>
      </trkpt>
      <trkpt lat="39.894024" lon="116.648381">
        <time>2021-05-30T12:49:45Z</time>
      </trkpt>
      <trkpt lat="39.894159" lon="116.648471">
        <time>2021-05-30T12:49:50Z</time>
      </trkpt>
      <trkpt lat="39.894355" lon="116.648512">
        <time>2021-05-30T12:49:55Z</time>
      </trkpt>
      <trkpt lat="39.894471" lon="116.64858">
        <time>2021-05-30T12:50:00Z</time>
      </trkpt>
      <trkpt lat="39.894612" lon="116.648637">
        <time>2021-05-30T12:50:05Z</time>
      </trkpt>
      <trkpt lat="39.894796" lon="116.648724">
        <time>2021-05-30T12:50:10Z</time>
      </trkpt>
      <trkpt lat="39.894933" lon="116.648868">
        <time>2021-05-30T12:50:15Z</time>
      </trkpt>
      <trkpt lat="39.895021" lon="116.648984">
        <time>2021-05-30T12:50:20Z</time>
      </trkpt>
      <trkpt lat="39.895112" lon="116.648993">
        <time>2021-05-30T12:50:25Z</time>
      </trkpt>
      <trkpt lat="39.895205" lon="116.648998">
        <time>2021-05-30T12:50:30Z</time>
      </trkpt>
      <trkpt lat="39.895328" lon="116.649025">
        <time>2021-05-30T12:50:35Z</time>
      </trkpt>
      <trkpt lat="39.895493" lon="116.64909">
        <time>2021-05-30T12:50:40Z</time>
      </trkpt>
      <trkpt lat="39.895639" lon="116.649059">
        <time>2021-05-30T12:50:45Z</time>
      </trkpt>
      <trkpt lat="39.895699" lon="116.648909">
        <time>2021-05-30T12:50:50Z</time>
      </trkpt>
      <trkpt lat="39.895754" lon="116.648741">
        <time>2021-05-30T12:50:55Z</time>
      </trkpt>
      <trkpt lat="39.895816" lon="116.648555">
        <time>2021-05-30T12:51:00Z</time>
      </trkpt>
      <trkpt lat="39.895827" lon="116.648371">
        <time>2021-05-30T12:51:05Z</time>
      </trkpt>
      <trkpt lat="39.895857" lon="116.648247">
        <time>2021-05-30T12:51:10Z</time>
      </trkpt>
      <trkpt lat="39.895883" lon="116.648051">
        <time>2021-05-30T12:51:15Z</time>
      </trkpt>
      <trkpt lat="39.895904" lon="116.647923">
        <time>2021-05-30T12:51:20Z</time>
      </trkpt>
      <trkpt lat="39.895909" lon="116.647749">
        <time>2021-05-30T12:51:25Z</time>
      </trkpt>
      <trkpt lat="39.895928" lon="116.647561">
        <time>2021-05-30T12:51:30Z</time>
      </trkpt>
      <trkpt lat="39.895941" lon="116.647401">
        <time>2021-05-30T12:51:35Z</time>
      </trkpt>
      <trkpt lat="39.895965" lon="116.647229">
        <time>2021-05-30T12:51:40Z</time>
      </trkpt>
      <trkpt lat="39.895968" lon="116.647034">
        <time>2021-05-30T12:51:45Z</time>
      </trkpt>
      <trkpt lat="39.895977" lon="116.646834">
        <time>2021-05-30T12:51:50Z</time>
      </trkpt>
      <trkpt lat="39.896008" lon="116.646653">
        <time>2021-05-30T12:51:55Z</time>
      </trkpt>
      <trkpt lat="39.89601" lon="116.646507">
        <time>2021-05-30T12:52:00Z</time>
      </trkpt>
      <trkpt lat="39.896006" lon="116.646442">
        <time>2021-05-30T12:52:05Z</time>
      </trkpt>
      <trkpt lat="39.895999" lon="116.646334">
        <time>2021-05-30T12:52:10Z</time>
      </trkpt>
      <trkpt lat="39.896034" lon="116.646245">
        <time>2021-05-30T12:52:15Z</time>
      </trkpt>
      <trkpt lat="39.896048" lon="116.64613">
        <time>2021-05-30T12:52:20Z</time>
      </trkpt>
      <trkpt lat="39.896062" lon="116.646028">
        <time>2021-05-30T12:52:25Z</time>
      </trkpt>
      <trkpt lat="39.896069" lon="116.645927">
        <time>2021-05-30T12:52:30Z</time>
      </trkpt>
      <trkpt lat="39.896087" lon="116.645837">
        <time>2021-05-30T12:52:35Z</time>
      </trkpt>
      <trkpt lat="39.896081" lon="116.645698">
        <time>2021-05-30T12:52:40Z</time>
      </trkpt>
      <trkpt lat="39.896106" lon="116.645547">
        <time>2021-05-30T12:52:45Z</time>
      </trkpt>
      <trkpt lat="39.896164" lon="116.645488">
        <time>2021-05-30T12:52:50Z</time>
      </trkpt>
      <trkpt lat="39.896182" lon="116.645357">
        <time>2021-05-30T12:52:55Z</time>
      </trkpt>
      <trkpt lat="39.896153" lon="116.645189">
        <time>2021-05-30T12:53:00Z</time>
      </trkpt>
      <trkpt lat="39.89618" lon="116.645034">
        <time>2021-05-30T12:53:05Z</time>
      </trkpt>
      <trkpt lat="39.896177" lon="116.644868">
        <time>2021-05-30T12:53:10Z</time>
      </trkpt>
      <trkpt lat="39.896175" lon="116.644707">
        <time>2021-05-30T12:53:15Z</time>
      </trkpt>
      <trkpt lat="39.896195" lon="116.644574">
        <time>2021-05-30T12:53:20Z</time>
      </trkpt>
      <trkpt lat="39.896228" lon="116.644471">
        <time>2021-05-30T12:53:25Z</time>
      </trkpt>
      <trkpt lat="39.896226" lon="116.644303">
        <time>2021-05-30T12:53:30Z</time>
      </trkpt>
      <trkpt lat="39.896228" lon="116.644148">
        <time>2021-05-30T12:53:35Z</time>
      </trkpt>
      <trkpt lat="39.896198" lon="116.643995">
        <time>2021-05-30T12:53:40Z</time>
      </trkpt>
      <trkpt lat="39.896183" lon="116.643811">
        <time>2021-05-30T12:53:45Z</time>
      </trkpt>
      <trkpt lat="39.896164" lon="116.643633">
        <time>2021-05-30T12:53:50Z</time>
      </trkpt>
      <trkpt lat="39.896149" lon="116.643452">
        <time>2021-05-30T12:53:55Z</time>
      </trkpt>
      <trkpt lat="39.896134" lon="116.643261">
        <time>2021-05-30T12:54:00Z</time>
      </trkpt>
      <trkpt lat="39.896155" lon="116.643085">
        <time>2021-05-30T12:54:05Z</time>
      </trkpt>
      <trkpt lat="39.89617" lon="116.642928">
        <time>2021-05-30T12:54:10Z</time>
      </trkpt>
      <trkpt lat="39.89617" lon="116.642781">
        <time>2021-05-30T12:54:15Z</time>
      </trkpt>
      <trkpt lat="39.896185" lon="116.642617">
        <time>2021-05-30T12:54:20Z</time>
      </trkpt>
      <trkpt lat="39.896167" lon="116.642422">
        <time>2021-05-30T12:54:25Z</time>
      </trkpt>
      <trkpt lat="39.896131" lon="116.642394">
        <time>2021-05-30T12:54:30Z</time>
      </trkpt>
      <trkpt lat="39.896142" lon="116.642395">
        <time>2021-05-30T12:54:35Z</time>
      </trkpt>
      <trkpt lat="39.896172" lon="116.642307">
        <time>2021-05-30T12:54:40Z</time>
      </trkpt>
      <trkpt lat="39.896205" lon="116.642166">
        <time>2021-05-30T12:54:45Z</time>
      </trkpt>
      <trkpt lat="39.896227" lon="116.641992">
        <time>2021-05-30T12:54:50Z</time>
      </trkpt>
      <trkpt lat="39.896237" lon="116.641831">
        <time>2021-05-30T12:54:55Z</time>
      </trkpt>
      <trkpt lat="39.896214" lon="116.641677">
        <time>2021-05-30T12:55:00Z</time>
      </trkpt>
      <trkpt lat="39.896228" lon="116.641521">
        <time>2021-05-30T12:55:05Z</time>
      </trkpt>
      <trkpt lat="39.89624" lon="116.641347">
        <time>2021-05-30T12:55:10Z</time>
      </trkpt>
      <trkpt lat="39.896236" lon="116.641177">
        <time>2021-05-30T12:55:15Z</time>
      </trkpt>
      <trkpt lat="39.896233" lon="116.640999">
        <time>2021-05-30T12:55:20Z</time>
      </trkpt>
      <trkpt lat="39.896232" lon="116.640825">
        <time>2021-05-30T12:55:25Z</time>
      </trkpt>
      <trkpt lat="39.896254" lon="116.640675">
        <time>2021-05-30T12:55:30Z</time>
      </trkpt>
      <trkpt lat="39.896255" lon="116.640528">
        <time>2021-05-30T12:55:35Z</time>
      </trkpt>
      <trkpt lat="39.89624" lon="116.640354">
        <time>2021-05-30T12:55:40Z</time>
      </trkpt>
      <trkpt lat="39.896362" lon="116.64032">
        <time>2021-05-30T12:55:45Z</time>
      </trkpt>
      <trkpt lat="39.896488" lon="116.640409">
        <time>2021-05-30T12:55:50Z</time>
      </trkpt>
      <trkpt lat="39.896601" lon="116.640482">
        <time>2021-05-30T12:55:55Z</time>
      </trkpt>
      <trkpt lat="39.896725" lon="116.640562">
        <time>2021-05-30T12:56:00Z</time>
      </trkpt>
      <trkpt lat="39.89684" lon="116.640645">
        <time>2021-05-30T12:56:05Z</time>
      </trkpt>
      <trkpt lat="39.896954" lon="116.640657">
        <time>2021-05-30T12:56:10Z</time>
      </trkpt>
      <trkpt lat="39.897049" lon="116.640687">
        <time>2021-05-30T12:56:15Z</time>
      </trkpt>
      <trkpt lat="39.897147" lon="116.640737">
        <time>2021-05-30T12:56:20Z</time>
      </trkpt>
      <trkpt lat="39.897167" lon="116.640771">
        <time>2021-05-30T12:56:25Z</time>
      </trkpt>
      <trkpt lat="39.897229" lon="116.640809">
        <time>2021-05-30T12:56:30Z</time>
      </trkpt>
      <trkpt lat="39.897265" lon="116.640844">
        <time>2021-05-30T12:56:35Z</time>
      </trkpt>
      <trkpt lat="39.897352" lon="116.640892">
        <time>2021-05-30T12:56:40Z</time>
      </trkpt>
      <trkpt lat="39.897428" lon="116.640923">
        <time>2021-05-30T12:56:45Z</time>
      </trkpt>
      <trkpt lat="39.897489" lon="116.641007">
        <time>2021-05-30T12:56:50Z</time>
      </trkpt>
      <trkpt lat="39.897603" lon="116.641081">
        <time>2021-05-30T12:56:55Z</time>
      </trkpt>
      <trkpt lat="39.897801" lon="116.641159">
        <time>2021-05-30T12:57:00Z</time>
      </trkpt>
      <trkpt lat="39.897974" lon="116.641223">
        <time>2021-05-30T12:57:05Z</time>
      </trkpt>
      <trkpt lat="39.898065" lon="116.641271">
        <time>2021-05-30T12:57:10Z</time>
      </trkpt>
      <trkpt lat="39.898161" lon="116.641308">
        <time>2021-05-30T12:57:15Z</time>
      </trkpt>
      <trkpt lat="39.898204" lon="116.641363">
        <time>2021-05-30T12:57:20Z</time>
      </trkpt>
      <trkpt lat="39.898206" lon="116.641543">
        <time>2021-05-30T12:57:25Z</time>
      </trkpt>
      <trkpt lat="39.898207" lon="116.641751">
        <time>2021-05-30T12:57:30Z</time>
      </trkpt>
      <trkpt lat="39.898183" lon="116.641934">
        <time>2021-05-30T12:57:35Z</time>
      </trkpt>
      <trkpt lat="39.898217" lon="116.642122">
        <time>2021-05-30T12:57:40Z</time>
      </trkpt>
      <trkpt lat="39.898253" lon="116.642284">
        <time>2021-05-30T12:57:45Z</time>
      </trkpt>
      <trkpt lat="39.898291" lon="116.642445">
        <time>2021-05-30T12:57:50Z</time>
      </trkpt>
      <trkpt lat="39.898272" lon="116.642688">
        <time>2021-05-30T12:57:55Z</time>
      </trkpt>
      <trkpt lat="39.898248" lon="116.642897">
        <time>2021-05-30T12:58:00Z</time>
      </trkpt>
      <trkpt lat="39.898261" lon="116.643094">
        <time>2021-05-30T12:58:05Z</time>
      </trkpt>
      <trkpt lat="39.898258" lon="116.64328">
        <time>2021-05-30T12:58:10Z</time>
      </trkpt>
      <trkpt lat="39.898187" lon="116.643442">
        <time>2021-05-30T12:58:15Z</time>
      </trkpt>
      <trkpt lat="39.898212" lon="116.643583">
        <time>2021-05-30T12:58:20Z</time>
      </trkpt>
      <trkpt lat="39.898252" lon="116.643639">
        <time>2021-05-30T12:58:25Z</time>
      </trkpt>
      <trkpt lat="39.898312" lon="116.643743">
        <time>2021-05-30T12:58:30Z</time>
      </trkpt>
      <trkpt lat="39.898307" lon="116.643801">
        <time>2021-05-30T12:58:35Z</time>
      </trkpt>
      <trkpt lat="39.898341" lon="116.643851">
        <time>2021-05-30T12:58:40Z</time>
      </trkpt>
      <trkpt lat="39.898354" lon="116.643916">
        <time>2021-05-30T12:58:45Z</time>
      </trkpt>
      <trkpt lat="39.898338" lon="116.644006">
        <time>2021-05-30T12:58:50Z</time>
      </trkpt>
      <trkpt lat="39.898326" lon="116.644093">
        <time>2021-05-30T12:58:55Z</time>
      </trkpt>
      <trkpt lat="39.898282" lon="116.644199">
        <time>2021-05-30T12:59:00Z</time>
      </trkpt>
      <trkpt lat="39.898295" lon="116.644408">
        <time>2021-05-30T12:59:05Z</time>
      </trkpt>
      <trkpt lat="39.898317" lon="116.644613">
        <time>2021-05-30T12:59:10Z</time>
      </trkpt>
      <trkpt lat="39.898373" lon="116.644791">
        <time>2021-05-30T12:59:15Z</time>
      </trkpt>
      <trkpt lat="39.89841" lon="116.644985">
        <time>2021-05-30T12:59:20Z</time>
      </trkpt>
      <trkpt lat="39.898437" lon="116.645102">
        <time>2021-05-30T12:59:25Z</time>
      </trkpt>
      <trkpt lat="39.898468" lon="116.645222">
        <time>2021-05-30T12:59:30Z</time>
      </trkpt>
      <trkpt lat="39.898471" lon="116.645379">
        <time>2021-05-30T12:59:35Z</time>
      </trkpt>
      <trkpt lat="39.898566" lon="116.64561">
        <time>2021-05-30T12:59:40Z</time>
      </trkpt>
      <trkpt lat="39.898659" lon="116.645802">
        <time>2021-05-30T12:59:45Z</time>
      </trkpt>
      <trkpt lat="39.898698" lon="116.645993">
        <time>2021-05-30T12:59:50Z</time>
      </trkpt>
      <trkpt lat="39.898692" lon="116.646095">
        <time>2021-05-30T12:59:55Z</time>
      </trkpt>
      <trkpt lat="39.898724" lon="116.646195">
        <time>2021-05-30T13:00:00Z</time>
      </trkpt>
      <trkpt lat="39.898766" lon="116.646275">
        <time>2021-05-30T13:00:05Z</time>
      </trkpt>
      <trkpt lat="39.8988" lon="116.646357">
        <time>2021-05-30T13:00:10Z</time>
      </trkpt>
      <trkpt lat="39.898846" lon="116.646518">
        <time>2021-05-30T13:00:15Z</time>
      </trkpt>
      <trkpt lat="39.898924" lon="116.64674">
        <time>2021-05-30T13:00:20Z</time>
      </trkpt>
      <trkpt lat="39.898944" lon="116.646954">
        <time>2021-05-30T13:00:25Z</time>
      </trkpt>
      <trkpt lat="39.898978" lon="116.647175">
        <time>2021-05-30T13:00:30Z</time>
      </trkpt>
      <trkpt lat="39.899078" lon="116.647376">
        <time>2021-05-30T13:00:35Z</time>
      </trkpt>
      <trkpt lat="39.899149" lon="116.647585">
        <time>2021-05-30T13:00:40Z</time>
      </trkpt>
      <trkpt lat="39.899173" lon="116.647751">
        <time>2021-05-30T13:00:45Z</time>
      </trkpt>
      <trkpt lat="39.899134" lon="116.647935">
        <time>2021-05-30T13:00:50Z</time>
      </trkpt>
      <trkpt lat="39.899065" lon="116.648134">
        <time>2021-05-30T13:00:55Z</time>
      </trkpt>
      <trkpt lat="39.899047" lon="116.64832">
        <time>2021-05-30T13:01:00Z</time>
      </trkpt>
      <trkpt lat="39.899013" lon="116.648505">
        <time>2021-05-30T13:01:05Z</time>
      </trkpt>
      <trkpt lat="39.898977" lon="116.648636">
        <time>2021-05-30T13:01:10Z</time>
      </trkpt>
      <trkpt lat="39.899012" lon="116.6488">
        <time>2021-05-30T13:01:15Z</time>
      </trkpt>
      <trkpt lat="39.899033" lon="116.648943">
        <time>2021-05-30T13:01:20Z</time>
      </trkpt>
      <trkpt lat="39.899051" lon="116.64912">
        <time>2021-05-30T13:01:25Z</time>
      </trkpt>
      <trkpt lat="39.898996" lon="116.649321">
        <time>2021-05-30T13:01:30Z</time>
      </trkpt>
      <trkpt lat="39.898967" lon="116.649486">
        <time>2021-05-30T13:01:35Z</time>
      </trkpt>
      <trkpt lat="39.899052" lon="116.649679">
        <time>2021-05-30T13:01:40Z</time>
      </trkpt>
      <trkpt lat="39.899138" lon="116.649897">
        <time>2021-05-30T13:01:45Z</time>
      </trkpt>
      <trkpt lat="39.89921" lon="116.650068">
        <time>2021-05-30T13:01:50Z</time>
      </trkpt>
      <trkpt lat="39.899219" lon="116.650201">
        <time>2021-05-30T13:01:55Z</time>
      </trkpt>
      <trkpt lat="39.899219" lon="116.650365">
        <time>2021-05-30T13:02:00Z</time>
      </trkpt>
      <trkpt lat="39.899231" lon="116.650572">
        <time>2021-05-30T13:02:05Z</time>
      </trkpt>
      <trkpt lat="39.899234" lon="116.650675">
        <time>2021-05-30T13:02:10Z</time>
      </trkpt>
      <trkpt lat="39.899211" lon="116.650774">
        <time>2021-05-30T13:02:15Z</time>
      </trkpt>
      <trkpt lat="39.899149" lon="116.650915">
        <time>2021-05-30T13:02:20Z</time>
      </trkpt>
      <trkpt lat="39.899068" lon="116.651046">
        <time>2021-05-30T13:02:25Z</time>
      </trkpt>
      <trkpt lat="39.899003" lon="116.651196">
        <time>2021-05-30T13:02:30Z</time>
      </trkpt>
      <trkpt lat="39.899007" lon="116.651385">
        <time>2021-05-30T13:02:35Z</time>
      </trkpt>
      <trkpt lat="39.899032" lon="116.651419">
        <time>2021-05-30T13:02:40Z</time>
      </trkpt>
      <trkpt lat="39.899019" lon="116.651198">
        <time>2021-05-30T13:02:45Z</time>
      </trkpt>
      <trkpt lat="39.899016" lon="116.650978">
        <time>2021-05-30T13:02:50Z</time>
      </trkpt>
      <trkpt lat="39.899059" lon="116.650796">
        <time>2021-05-30T13:02:55Z</time>
      </trkpt>
      <trkpt lat="39.899068" lon="116.65062">
        <time>2021-05-30T13:03:00Z</time>
      </trkpt>
      <trkpt lat="39.899058" lon="116.650469">
        <time>2021-05-30T13:03:05Z</time>
      </trkpt>
      <trkpt lat="39.89902" lon="116.650315">
        <time>2021-05-30T13:03:10Z</time>
      </trkpt>
      <trkpt lat="39.899013" lon="116.650176">
        <time>2021-05-30T13:03:15Z</time>
      </trkpt>
      <trkpt lat="39.899054" lon="116.650061">
        <time>2021-05-30T13:03:20Z</time>
      </trkpt>
      <trkpt lat="39.899073" lon="116.649927">
        <time>2021-05-30T13:03:25Z</time>
      </trkpt>
      <trkpt lat="39.899095" lon="116.649771">
        <time>2021-05-30T13:03:30Z</time>
      </trkpt>
      <trkpt lat="39.899086" lon="116.649702">
        <time>2021-05-30T13:03:35Z</time>
      </trkpt>
      <trkpt lat="39.899054" lon="116.649625">
        <time>2021-05-30T13:03:40Z</time>
      </trkpt>
      <trkpt lat="39.899017" lon="116.649513">
        <time>2021-05-30T13:03:45Z</time>
      </trkpt>
      <trkpt lat="39.898996" lon="116.649416">
        <time>2021-05-30T13:03:50Z</time>
      </trkpt>
      <trkpt lat="39.898998" lon="116.649292">
        <time>2021-05-30T13:03:55Z</time>
      </trkpt>
      <trkpt lat="39.898973" lon="116.649143">
        <time>2021-05-30T13:04:00Z</time>
      </trkpt>
      <trkpt lat="39.898991" lon="116.649017">
        <time>2021-05-30T13:04:05Z</time>
      </trkpt>
      <trkpt lat="39.899031" lon="116.648825">
        <time>2021-05-30T13:04:10Z</time>
      </trkpt>
      <trkpt lat="39.899039" lon="116.648744">
        <time>2021-05-30T13:04:15Z</time>
      </trkpt>
      <trkpt lat="39.899056" lon="116.64862">
        <time>2021-05-30T13:04:20Z</time>
      </trkpt>
      <trkpt lat="39.899068" lon="116.648515">
        <time>2021-05-30T13:04:25Z</time>
      </trkpt>
      <trkpt lat="39.899052" lon="116.648408">
        <time>2021-05-30T13:04:30Z</time>
      </trkpt>
      <trkpt lat="39.89904" lon="116.648256">
        <time>2021-05-30T13:04:35Z</time>
      </trkpt>
      <trkpt lat="39.899006" lon="116.648091">
        <time>2021-05-30T13:04:40Z</time>
      </trkpt>
      <trkpt lat="39.898965" lon="116.647927">
        <time>2021-05-30T13:04:45Z</time>
      </trkpt>
      <trkpt lat="39.898964" lon="116.647743">
        <time>2021-05-30T13:04:50Z</time>
      </trkpt>
      <trkpt lat="39.899004" lon="116.647566">
        <time>2021-05-30T13:04:55Z</time>
      </trkpt>
      <trkpt lat="39.898996" lon="116.647397">
        <time>2021-05-30T13:05:00Z</time>
      </trkpt>
      <trkpt lat="39.898997" lon="116.647225">
        <time>2021-05-30T13:05:05Z</time>
      </trkpt>
      <trkpt lat="39.898964" lon="116.647052">
        <time>2021-05-30T13:05:10Z</time>
      </trkpt>
      <trkpt lat="39.898901" lon="116.646909">
        <time>2021-05-30T13:05:15Z</time>
      </trkpt>
      <trkpt lat="39.898817" lon="116.646774">
        <time>2021-05-30T13:05:20Z</time>
      </trkpt>
      <trkpt lat="39.898764" lon="116.64663">
        <time>2021-05-30T13:05:25Z</time>
      </trkpt>
      <trkpt lat="39.898719" lon="116.646455">
        <time>2021-05-30T13:05:30Z</time>
      </trkpt>
      <trkpt lat="39.898674" lon="116.646259">
        <time>2021-05-30T13:05:35Z</time>
      </trkpt>
      <trkpt lat="39.898618" lon="116.646079">
        <time>2021-05-30T13:05:40Z</time>
      </trkpt>
      <trkpt lat="39.898584" lon="116.645892">
        <time>2021-05-30T13:05:45Z</time>
      </trkpt>
      <trkpt lat="39.898551" lon="116.645723">
        <time>2021-05-30T13:05:50Z</time>
      </trkpt>
      <trkpt lat="39.898544" lon="116.64554">
        <time>2021-05-30T13:05:55Z</time>
      </trkpt>
      <trkpt lat="39.898523" lon="116.645378">
        <time>2021-05-30T13:06:00Z</time>
      </trkpt>
      <trkpt lat="39.898499" lon="116.645193">
        <time>2021-05-30T13:06:05Z</time>
      </trkpt>
      <trkpt lat="39.898472" lon="116.645023">
        <time>2021-05-30T13:06:10Z</time>
      </trkpt>
      <trkpt lat="39.898444" lon="116.644884">
        <time>2021-05-30T13:06:15Z</time>
      </trkpt>
      <trkpt lat="39.898424" lon="116.644723">
        <time>2021-05-30T13:06:20Z</time>
      </trkpt>
      <trkpt lat="39.898433" lon="116.644551">
        <time>2021-05-30T13:06:25Z</time>
      </trkpt>
      <trkpt lat="39.898429" lon="116.644368">
        <time>2021-05-30T13:06:30Z</time>
      </trkpt>
      <trkpt lat="39.898391" lon="116.644229">
        <time>2021-05-30T13:06:35Z</time>
      </trkpt>
      <trkpt lat="39.898338" lon="116.644096">
        <time>2021-05-30T13:06:40Z</time>
      </trkpt>
      <trkpt lat="39.898304" lon="116.644001">
        <time>2021-05-30T13:06:45Z</time>
      </trkpt>
      <trkpt lat="39.898306" lon="116.643941">
        <time>2021-05-30T13:06:50Z</time>
      </trkpt>
      <trkpt lat="39.898291" lon="116.643872">
        <time>2021-05-30T13:06:55Z</time>
      </trkpt>
      <trkpt lat="39.898277" lon="116.643659">
        <time>2021-05-30T13:07:00Z</time>
      </trkpt>
      <trkpt lat="39.898246" lon="116.643496">
        <time>2021-05-30T13:07:05Z</time>
      </trkpt>
      <trkpt lat="39.898213" lon="116.643294">
        <time>2021-05-30T13:07:10Z</time>
      </trkpt>
      <trkpt lat="39.898158" lon="116.643123">
        <time>2021-05-30T13:07:15Z</time>
      </trkpt>
      <trkpt lat="39.898227" lon="116.642944">
        <time>2021-05-30T13:07:20Z</time>
      </trkpt>
      <trkpt lat="39.898276" lon="116.642769">
        <time>2021-05-30T13:07:25Z</time>
      </trkpt>
      <trkpt lat="39.898285" lon="116.642572">
        <time>2021-05-30T13:07:30Z</time>
      </trkpt>
      <trkpt lat="39.898277" lon="116.642413">
        <time>2021-05-30T13:07:35Z</time>
      </trkpt>
      <trkpt lat="39.898281" lon="116.642249">
        <time>2021-05-30T13:07:40Z</time>
      </trkpt>
      <trkpt lat="39.898283" lon="116.642056">
        <time>2021-05-30T13:07:45Z</time>
      </trkpt>
      <trkpt lat="39.898315" lon="116.64192">
        <time>2021-05-30T13:07:50Z</time>
      </trkpt>
      <trkpt lat="39.898317" lon="116.641815">
        <time>2021-05-30T13:07:55Z</time>
      </trkpt>
      <trkpt lat="39.898295" lon="116.641732">
        <time>2021-05-30T13:08:00Z</time>
      </trkpt>
      <trkpt lat="39.898283" lon="116.641626">
        <time>2021-05-30T13:08:05Z</time>
      </trkpt>
      <trkpt lat="39.898348" lon="116.641514">
        <time>2021-05-30T13:08:10Z</time>
      </trkpt>
      <trkpt lat="39.898395" lon="116.641427">
        <time>2021-05-30T13:08:15Z</time>
      </trkpt>
      <trkpt lat="39.898431" lon="116.641319">
        <time>2021-05-30T13:08:20Z</time>
      </trkpt>
      <trkpt lat="39.898358" lon="116.64128">
        <time>2021-05-30T13:08:25Z</time>
      </trkpt>
      <trkpt lat="39.898232" lon="116.641262">
        <time>2021-05-30T13:08:30Z</time>
      </trkpt>
      <trkpt lat="39.898111" lon="116.6412">
        <time>2021-05-30T13:08:35Z</time>
      </trkpt>
      <trkpt lat="39.897987" lon="116.641128">
        <time>2021-05-30T13:08:40Z</time>
      </trkpt>
      <trkpt lat="39.89787" lon="116.641085">
        <time>2021-05-30T13:08:45Z</time>
      </trkpt>
      <trkpt lat="39.897775" lon="116.641054">
        <time>2021-05-30T13:08:50Z</time>
      </trkpt>
      <trkpt lat="39.897656" lon="116.640992">
        <time>2021-05-30T13:08:55Z</time>
      </trkpt>
      <trkpt lat="39.897575" lon="116.640978">
        <time>2021-05-30T13:09:00Z</time>
      </trkpt>
      <trkpt lat="39.897517" lon="116.640993">
        <time>2021-05-30T13:09:05Z</time>
      </trkpt>
      <trkpt lat="39.89741" lon="116.640905">
        <time>2021-05-30T13:09:10Z</time>
      </trkpt>
      <trkpt lat="39.897313" lon="116.640836">
        <time>2021-05-30T13:09:15Z</time>
      </trkpt>
      <trkpt lat="39.897216" lon="116.640818">
        <time>2021-05-30T13:09:20Z</time>
      </trkpt>
      <trkpt lat="39.897106" lon="116.640753">
        <time>2021-05-30T13:09:25Z</time>
      </trkpt>
      <trkpt lat="39.897" lon="116.640698">
        <time>2021-05-30T13:09:30Z</time>
      </trkpt>
      <trkpt lat="39.896899" lon="116.640651">
        <time>2021-05-30T13:09:35Z</time>
      </trkpt>
      <trkpt lat="39.896774" lon="116.640606">
        <time>2021-05-30T13:09:40Z</time>
      </trkpt>
      <trkpt lat="39.89664" lon="116.640535">
        <time>2021-05-30T13:09:45Z</time>
      </trkpt>
      <trkpt lat="39.896497" lon="116.640473">
        <time>2021-05-30T13:09:50Z</time>
      </trkpt>
      <trkpt lat="39.896378" lon="116.640417">
        <time>2021-05-30T13:09:55Z</time>
      </trkpt>
      <trkpt lat="39.896308" lon="116.640262">
        <time>2021-05-30T13:10:00Z</time>
      </trkpt>
      <trkpt lat="39.896314" lon="116.640068">
        <time>2021-05-30T13:10:05Z</time>
      </trkpt>
      <trkpt lat="39.896305" lon="116.639886">
        <time>2021-05-30T13:10:10Z</time>
      </trkpt>
      <trkpt lat="39.896309" lon="116.639707">
        <time>2021-05-30T13:10:15Z</time>
      </trkpt>
      <trkpt lat="39.896285" lon="116.639502">
        <time>2021-05-30T13:10:20Z</time>
      </trkpt>
      <trkpt lat="39.896264" lon="116.639309">
        <time>2021-05-30T13:10:25Z</time>
      </trkpt>
      <trkpt lat="39.896213" lon="116.639089">
        <time>2021-05-30T13:10:30Z</time>
      </trkpt>
      <trkpt lat="39.896201" lon="116.638883">
        <time>2021-05-30T13:10:35Z</time>
      </trkpt>
      <trkpt lat="39.896195" lon="116.638667">
        <time>2021-05-30T13:10:40Z</time>
      </trkpt>
      <trkpt lat="39.896197" lon="116.638464">
        <time>2021-05-30T13:10:45Z</time>
      </trkpt>
      <trkpt lat="39.896192" lon="116.638295">
        <time>2021-05-30T13:10:50Z</time>
      </trkpt>
      <trkpt lat="39.896195" lon="116.638097">
        <time>2021-05-30T13:10:55Z</time>
      </trkpt>
      <trkpt lat="39.896199" lon="116.637917">
        <time>2021-05-30T13:11:00Z</time>
      </trkpt>
      <trkpt lat="39.896186" lon="116.637753">
        <time>2021-05-30T13:11:05Z</time>
      </trkpt>
      <trkpt lat="39.896175" lon="116.637621">
        <time>2021-05-30T13:11:10Z</time>
      </trkpt>
      <trkpt lat="39.896165" lon="116.63751">
        <time>2021-05-30T13:11:15Z</time>
      </trkpt>
      <trkpt lat="39.896172" lon="116.637454">
        <time>2021-05-30T13:11:20Z</time>
      </trkpt>
      <trkpt lat="39.896154" lon="116.63735">
        <time>2021-05-30T13:11:25Z</time>
      </trkpt>
      <trkpt lat="39.89614" lon="116.637214">
        <time>2021-05-30T13:11:30Z</time>
      </trkpt>
      <trkpt lat="39.896137" lon="116.63713">
        <time>2021-05-30T13:11:35Z</time>
      </trkpt>
      <trkpt lat="39.896116" lon="116.637001">
        <time>2021-05-30T13:11:40Z</time>
      </trkpt>
      <trkpt lat="39.896076" lon="116.636868">
        <time>2021-05-30T13:11:45Z</time>
      </trkpt>
      <trkpt lat="39.896026" lon="116.63673">
        <time>2021-05-30T13:11:50Z</time>
      </trkpt>
      <trkpt lat="39.895963" lon="116.63665">
        <time>2021-05-30T13:11:55Z</time>
      </trkpt>
      <trkpt lat="39.896011" lon="116.636831">
        <time>2021-05-30T13:12:00Z</time>
      </trkpt>
      <trkpt lat="39.8961" lon="116.637031">
        <time>2021-05-30T13:12:05Z</time>
      </trkpt>
      <trkpt lat="39.896143" lon="116.637201">
        <time>2021-05-30T13:12:10Z</time>
      </trkpt>
      <trkpt lat="39.896166" lon="116.637375">
        <time>2021-05-30T13:12:15Z</time>
      </trkpt>
      <trkpt lat="39.896172" lon="116.637581">
        <time>2021-05-30T13:12:20Z</time>
      </trkpt>
      <trkpt lat="39.896173" lon="116.637733">
        <time>2021-05-30T13:12:25Z</time>
      </trkpt>
      <trkpt lat="39.8962" lon="116.637894">
        <time>2021-05-30T13:12:30Z</time>
      </trkpt>
      <trkpt lat="39.896239" lon="116.638079">
        <time>2021-05-30T13:12:35Z</time>
      </trkpt>
      <trkpt lat="39.896238" lon="116.638257">
        <time>2021-05-30T13:12:40Z</time>
      </trkpt>
      <trkpt lat="39.896222" lon="116.638435">
        <time>2021-05-30T13:12:45Z</time>
      </trkpt>
      <trkpt lat="39.896239" lon="116.63861">
        <time>2021-05-30T13:12:50Z</time>
      </trkpt>
      <trkpt lat="39.896222" lon="116.638786">
        <time>2021-05-30T13:12:55Z</time>
      </trkpt>
      <trkpt lat="39.896219" lon="116.638975">
        <time>2021-05-30T13:13:00Z</time>
      </trkpt>
      <trkpt lat="39.896229" lon="116.639133">
        <time>2021-05-30T13:13:05Z</time>
      </trkpt>
      <trkpt lat="39.896224" lon="116.639216">
        <time>2021-05-30T13:13:10Z</time>
      </trkpt>
      <trkpt lat="39.896216" lon="116.63933">
        <time>2021-05-30T13:13:15Z</time>
      </trkpt>
      <trkpt lat="39.896215" lon="116.639467">
        <time>2021-05-30T13:13:20Z</time>
      </trkpt>
      <trkpt lat="39.89621" lon="116.639651">
        <time>2021-05-30T13:13:25Z</time>
      </trkpt>
      <trkpt lat="39.89624" lon="116.639787">
        <time>2021-05-30T13:13:30Z</time>
      </trkpt>
      <trkpt lat="39.896253" lon="116.639973">
        <time>2021-05-30T13:13:35Z</time>
      </trkpt>
      <trkpt lat="39.896244" lon="116.640169">
        <time>2021-05-30T13:13:40Z</time>
      </trkpt>
      <trkpt lat="39.896213" lon="116.640357">
        <time>2021-05-30T13:13:45Z</time>
      </trkpt>
      <trkpt lat="39.89623" lon="116.640518">
        <time>2021-05-30T13:13:50Z</time>
      </trkpt>
      <trkpt lat="39.896227" lon="116.64067">
        <time>2021-05-30T13:13:55Z</time>
      </trkpt>
      <trkpt lat="39.89616" lon="116.640796">
        <time>2021-05-30T13:14:00Z</time>
      </trkpt>
      <trkpt lat="39.896154" lon="116.640935">
        <time>2021-05-30T13:14:05Z</time>
      </trkpt>
      <trkpt lat="39.896149" lon="116.641035">
        <time>2021-05-30T13:14:10Z</time>
      </trkpt>
      <trkpt lat="39.896172" lon="116.641136">
        <time>2021-05-30T13:14:15Z</time>
      </trkpt>
      <trkpt lat="39.89618" lon="116.641245">
        <time>2021-05-30T13:14:20Z</time>
      </trkpt>
      <trkpt lat="39.896204" lon="116.641349">
        <time>2021-05-30T13:14:25Z</time>
      </trkpt>
      <trkpt lat="39.896211" lon="116.641432">
        <time>2021-05-30T13:14:30Z</time>
      </trkpt>
      <trkpt lat="39.896195" lon="116.641516">
        <time>2021-05-30T13:14:35Z</time>
      </trkpt>
      <trkpt lat="39.896188" lon="116.641596">
        <time>2021-05-30T13:14:40Z</time>
      </trkpt>
      <trkpt lat="39.896172" lon="116.641697">
        <time>2021-05-30T13:14:45Z</time>
      </trkpt>
      <trkpt lat="39.896172" lon="116.64179">
        <time>2021-05-30T13:14:50Z</time>
      </trkpt>
      <trkpt lat="39.896144" lon="116.641915">
        <time>2021-05-30T13:14:55Z</time>
      </trkpt>
      <trkpt lat="39.896145" lon="116.642076">
        <time>2021-05-30T13:15:00Z</time>
      </trkpt>
      <trkpt lat="39.896148" lon="116.642247">
        <time>2021-05-30T13:15:05Z</time>
      </trkpt>
      <trkpt lat="39.896147" lon="116.642438">
        <time>2021-05-30T13:15:10Z</time>
      </trkpt>
      <trkpt lat="39.896147" lon="116.642628">
        <time>2021-05-30T13:15:15Z</time>
      </trkpt>
      <trkpt lat="39.896119" lon="116.642777">
        <time>2021-05-30T13:15:20Z</time>
      </trkpt>
      <trkpt lat="39.896114" lon="116.642929">
        <time>2021-05-30T13:15:25Z</time>
      </trkpt>
      <trkpt lat="39.896117" lon="116.643108">
        <time>2021-05-30T13:15:30Z</time>
      </trkpt>
      <trkpt lat="39.896116" lon="116.643288">
        <time>2021-05-30T13:15:35Z</time>
      </trkpt>
      <trkpt lat="39.896116" lon="116.643459">
        <time>2021-05-30T13:15:40Z</time>
      </trkpt>
      <trkpt lat="39.896142" lon="116.643611">
        <time>2021-05-30T13:15:45Z</time>
      </trkpt>
      <trkpt lat="39.896155" lon="116.643772">
        <time>2021-05-30T13:15:50Z</time>
      </trkpt>
      <trkpt lat="39.896157" lon="116.643944">
        <time>2021-05-30T13:15:55Z</time>
      </trkpt>
      <trkpt lat="39.896159" lon="116.644123">
        <time>2021-05-30T13:16:00Z</time>
      </trkpt>
      <trkpt lat="39.896142" lon="116.644286">
        <time>2021-05-30T13:16:05Z</time>
      </trkpt>
      <trkpt lat="39.896144" lon="116.644442">
        <time>2021-05-30T13:16:10Z</time>
      </trkpt>
      <trkpt lat="39.896143" lon="116.644618">
        <time>2021-05-30T13:16:15Z</time>
      </trkpt>
      <trkpt lat="39.896159" lon="116.644769">
        <time>2021-05-30T13:16:20Z</time>
      </trkpt>
      <trkpt lat="39.896139" lon="116.64493">
        <time>2021-05-30T13:16:25Z</time>
      </trkpt>
      <trkpt lat="39.896142" lon="116.644944">
        <time>2021-05-30T13:16:30Z</time>
      </trkpt>
      <trkpt lat="39.896153" lon="116.644993">
        <time>2021-05-30T13:16:35Z</time>
      </trkpt>
      <trkpt lat="39.896155" lon="116.645086">
        <time>2021-05-30T13:16:40Z</time>
      </trkpt>
      <trkpt lat="39.896124" lon="116.645233">
        <time>2021-05-30T13:16:45Z</time>
      </trkpt>
      <trkpt lat="39.896154" lon="116.645383">
        <time>2021-05-30T13:16:50Z</time>
      </trkpt>
      <trkpt lat="39.896176" lon="116.645538">
        <time>2021-05-30T13:16:55Z</time>
      </trkpt>
      <trkpt lat="39.896141" lon="116.645666">
        <time>2021-05-30T13:17:00Z</time>
      </trkpt>
      <trkpt lat="39.896112" lon="116.645867">
        <time>2021-05-30T13:17:05Z</time>
      </trkpt>
      <trkpt lat="39.896089" lon="116.646086">
        <time>2021-05-30T13:17:10Z</time>
      </trkpt>
      <trkpt lat="39.896049" lon="116.646292">
        <time>2021-05-30T13:17:15Z</time>
      </trkpt>
      <trkpt lat="39.896017" lon="116.646515">
        <time>2021-05-30T13:17:20Z</time>
      </trkpt>
      <trkpt lat="39.896024" lon="116.646734">
        <time>2021-05-30T13:17:25Z</time>
      </trkpt>
      <trkpt lat="39.89601" lon="116.646928">
        <time>2021-05-30T13:17:30Z</time>
      </trkpt>
      <trkpt lat="39.896008" lon="116.647092">
        <time>2021-05-30T13:17:35Z</time>
      </trkpt>
      <trkpt lat="39.895904" lon="116.647204">
        <time>2021-05-30T13:17:40Z</time>
      </trkpt>
      <trkpt lat="39.895822" lon="116.647224">
        <time>2021-05-30T13:17:45Z</time>
      </trkpt>
      <trkpt lat="39.895794" lon="116.647353">
        <time>2021-05-30T13:17:50Z</time>
      </trkpt>
      <trkpt lat="39.895754" lon="116.647581">
        <time>2021-05-30T13:17:55Z</time>
      </trkpt>
      <trkpt lat="39.89574" lon="116.647791">
        <time>2021-05-30T13:18:00Z</time>
      </trkpt>
      <trkpt lat="39.895717" lon="116.647986">
        <time>2021-05-30T13:18:05Z</time>
      </trkpt>
      <trkpt lat="39.895681" lon="116.648135">
        <time>2021-05-30T13:18:10Z</time>
      </trkpt>
      <trkpt lat="39.895683" lon="116.648313">
        <time>2021-05-30T13:18:15Z</time>
      </trkpt>
      <trkpt lat="39.895668" lon="116.648481">
        <time>2021-05-30T13:18:20Z</time>
      </trkpt>
      <trkpt lat="39.895766" lon="116.648555">
        <time>2021-05-30T13:18:25Z</time>
      </trkpt>
      <trkpt lat="39.895865" lon="116.648332">
        <time>2021-05-30T13:18:30Z</time>
      </trkpt>
      <trkpt lat="39.895927" lon="116.648147">
        <time>2021-05-30T13:18:35Z</time>
      </trkpt>
      <trkpt lat="39.895954" lon="116.647958">
        <time>2021-05-30T13:18:40Z</time>
      </trkpt>
      <trkpt lat="39.895955" lon="116.647786">
        <time>2021-05-30T13:18:45Z</time>
      </trkpt>
      <trkpt lat="39.895966" lon="116.647626">
        <time>2021-05-30T13:18:50Z</time>
      </trkpt>
      <trkpt lat="39.895975" lon="116.647482">
        <time>2021-05-30T13:18:55Z</time>
      </trkpt>
      <trkpt lat="39.895979" lon="116.647327">
        <time>2021-05-30T13:19:00Z</time>
      </trkpt>
      <trkpt lat="39.895955" lon="116.647157">
        <time>2021-05-30T13:19:05Z</time>
      </trkpt>
      <trkpt lat="39.895859" lon="116.647096">
        <time>2021-05-30T13:19:10Z</time>
      </trkpt>
      <trkpt lat="39.895807" lon="116.647213">
        <time>2021-05-30T13:19:15Z</time>
      </trkpt>
      <trkpt lat="39.895787" lon="116.64744">
        <time>2021-05-30T13:19:20Z</time>
      </trkpt>
      <trkpt lat="39.895756" lon="116.64767">
        <time>2021-05-30T13:19:25Z</time>
      </trkpt>
      <trkpt lat="39.895709" lon="116.647858">
        <time>2021-05-30T13:19:30Z</time>
      </trkpt>
      <trkpt lat="39.895683" lon="116.648028">
        <time>2021-05-30T13:19:35Z</time>
      </trkpt>
      <trkpt lat="39.895663" lon="116.648176">
        <time>2021-05-30T13:19:40Z</time>
      </trkpt>
      <trkpt lat="39.895618" lon="116.648289">
        <time>2021-05-30T13:19:45Z</time>
      </trkpt>
      <trkpt lat="39.895666" lon="116.648476">
        <time>2021-05-30T13:19:50Z</time>
      </trkpt>
      <trkpt lat="39.895799" lon="116.648444">
        <time>2021-05-30T13:19:55Z</time>
      </trkpt>
      <trkpt lat="39.895843" lon="116.648259">
        <time>2021-05-30T13:20:00Z</time>
      </trkpt>
      <trkpt lat="39.895901" lon="116.648063">
        <time>2021-05-30T13:20:05Z</time>
      </trkpt>
      <trkpt lat="39.895943" lon="116.647943">
        <time>2021-05-30T13:20:10Z</time>
      </trkpt>
      <trkpt lat="39.895972" lon="116.647812">
        <time>2021-05-30T13:20:15Z</time>
      </trkpt>
      <trkpt lat="39.895959" lon="116.647773">
        <time>2021-05-30T13:20:20Z</time>
      </trkpt>
      <trkpt lat="39.895959" lon="116.647666">
        <time>2021-05-30T13:20:25Z</time>
      </trkpt>
      <trkpt lat="39.895969" lon="116.64758">
        <time>2021-05-30T13:20:30Z</time>
      </trkpt>
      <trkpt lat="39.895993" lon="116.647519">
        <time>2021-05-30T13:20:35Z</time>
      </trkpt>
      <trkpt lat="39.895998" lon="116.647443">
        <time>2021-05-30T13:20:40Z</time>
      </trkpt>
      <trkpt lat="39.896006" lon="116.647366">
        <time>2021-05-30T13:20:45Z</time>
      </trkpt>
      <trkpt lat="39.895984" lon="116.647265">
        <time>2021-05-30T13:20:50Z</time>
      </trkpt>
      <trkpt lat="39.895964" lon="116.647159">
        <time>2021-05-30T13:20:55Z</time>
      </trkpt>
      <trkpt lat="39.895963" lon="116.647053">
        <time>2021-05-30T13:21:00Z</time>
      </trkpt>
      <trkpt lat="39.895967" lon="116.646961">
        <time>2021-05-30T13:21:05Z</time>
      </trkpt>
      <trkpt lat="39.895979" lon="116.646877">
        <time>2021-05-30T13:21:10Z</time>
      </trkpt>
      <trkpt lat="39.896038" lon="116.646773">
        <time>2021-05-30T13:21:15Z</time>
      </trkpt>
      <trkpt lat="39.896055" lon="116.646657">
        <time>2021-05-30T13:21:20Z</time>
      </trkpt>
      <trkpt lat="39.896062" lon="116.646483">
        <time>2021-05-30T13:21:25Z</time>
      </trkpt>
      <trkpt lat="39.896054" lon="116.64631">
        <time>2021-05-30T13:21:30Z</time>
      </trkpt>
      <trkpt lat="39.896061" lon="116.646133">
        <time>2021-05-30T13:21:35Z</time>
      </trkpt>
      <trkpt lat="39.896091" lon="116.645971">
        <time>2021-05-30T13:21:40Z</time>
      </trkpt>
      <trkpt lat="39.896091" lon="116.645788">
        <time>2021-05-30T13:21:45Z</time>
      </trkpt>
      <trkpt lat="39.896106" lon="116.645606">
        <time>2021-05-30T13:21:50Z</time>
      </trkpt>
      <trkpt lat="39.896118" lon="116.645438">
        <time>2021-05-30T13:21:55Z</time>
      </trkpt>
      <trkpt lat="39.896121" lon="116.645296">
        <time>2021-05-30T13:22:00Z</time>
      </trkpt>
      <trkpt lat="39.896137" lon="116.645226">
        <time>2021-05-30T13:22:05Z</time>
      </trkpt>
      <trkpt lat="39.896174" lon="116.645147">
        <time>2021-05-30T13:22:10Z</time>
      </trkpt>
      <trkpt lat="39.896187" lon="116.645037">
        <time>2021-05-30T13:22:15Z</time>
      </trkpt>
      <trkpt lat="39.896208" lon="116.644907">
        <time>2021-05-30T13:22:20Z</time>
      </trkpt>
      <trkpt lat="39.896227" lon="116.644768">
        <time>2021-05-30T13:22:25Z</time>
      </trkpt>
      <trkpt lat="39.896236" lon="116.644612">
        <time>2021-05-30T13:22:30Z</time>
      </trkpt>
      <trkpt lat="39.896233" lon="116.64446">
        <time>2021-05-30T13:22:35Z</time>
      </trkpt>
      <trkpt lat="39.896227" lon="116.644287">
        <time>2021-05-30T13:22:40Z</time>
      </trkpt>
      <trkpt lat="39.896231" lon="116.644104">
        <time>2021-05-30T13:22:45Z</time>
      </trkpt>
      <trkpt lat="39.896208" lon="116.643908">
        <time>2021-05-30T13:22:50Z</time>
      </trkpt>
      <trkpt lat="39.896211" lon="116.643744">
        <time>2021-05-30T13:22:55Z</time>
      </trkpt>
      <trkpt lat="39.896196" lon="116.643576">
        <time>2021-05-30T13:23:00Z</time>
      </trkpt>
      <trkpt lat="39.896185" lon="116.643399">
        <time>2021-05-30T13:23:05Z</time>
      </trkpt>
      <trkpt lat="39.896185" lon="116.643213">
        <time>2021-05-30T13:23:10Z</time>
      </trkpt>
      <trkpt lat="39.896207" lon="116.643036">
        <time>2021-05-30T13:23:15Z</time>
      </trkpt>
      <trkpt lat="39.896217" lon="116.642879">
        <time>2021-05-30T13:23:20Z</time>
      </trkpt>
      <trkpt lat="39.896199" lon="116.642707">
        <time>2021-05-30T13:23:25Z</time>
      </trkpt>
      <trkpt lat="39.896187" lon="116.642532">
        <time>2021-05-30T13:23:30Z</time>
      </trkpt>
      <trkpt lat="39.896193" lon="116.642339">
        <time>2021-05-30T13:23:35Z</time>
      </trkpt>
      <trkpt lat="39.896211" lon="116.642175">
        <time>2021-05-30T13:23:40Z</time>
      </trkpt>
      <trkpt lat="39.896213" lon="116.642004">
        <time>2021-05-30T13:23:45Z</time>
      </trkpt>
      <trkpt lat="39.89621" lon="116.641832">
        <time>2021-05-30T13:23:50Z</time>
      </trkpt>
      <trkpt lat="39.896208" lon="116.641648">
        <time>2021-05-30T13:23:55Z</time>
      </trkpt>
      <trkpt lat="39.896224" lon="116.641499">
        <time>2021-05-30T13:24:00Z</time>
      </trkpt>
      <trkpt lat="39.89623" lon="116.641343">
        <time>2021-05-30T13:24:05Z</time>
      </trkpt>
      <trkpt lat="39.896219" lon="116.641242">
        <time>2021-05-30T13:24:10Z</time>
      </trkpt>
      <trkpt lat="39.896206" lon="116.641133">
        <time>2021-05-30T13:24:15Z</time>
      </trkpt>
      <trkpt lat="39.896215" lon="116.641044">
        <time>2021-05-30T13:24:20Z</time>
      </trkpt>
      <trkpt lat="39.896232" lon="116.64096">
        <time>2021-05-30T13:24:25Z</time>
      </trkpt>
      <trkpt lat="39.896232" lon="116.640859">
        <time>2021-05-30T13:24:30Z</time>
      </trkpt>
      <trkpt lat="39.896239" lon="116.640725">
        <time>2021-05-30T13:24:35Z</time>
      </trkpt>
      <trkpt lat="39.896252" lon="116.640583">
        <time>2021-05-30T13:24:40Z</time>
      </trkpt>
      <trkpt lat="39.896242" lon="116.64042">
        <time>2021-05-30T13:24:45Z</time>
      </trkpt>
      <trkpt lat="39.896272" lon="116.640224">
        <time>2021-05-30T13:24:50Z</time>
      </trkpt>
      <trkpt lat="39.89626" lon="116.640073">
        <time>2021-05-30T13:24:55Z</time>
      </trkpt>
      <trkpt lat="39.896268" lon="116.639896">
        <time>2021-05-30T13:25:00Z</time>
      </trkpt>
      <trkpt lat="39.896263" lon="116.639723">
        <time>2021-05-30T13:25:05Z</time>
      </trkpt>
      <trkpt lat="39.896265" lon="116.639547">
        <time>2021-05-30T13:25:10Z</time>
      </trkpt>
      <trkpt lat="39.896265" lon="116.63939">
        <time>2021-05-30T13:25:15Z</time>
      </trkpt>
      <trkpt lat="39.896255" lon="116.639225">
        <time>2021-05-30T13:25:20Z</time>
      </trkpt>
      <trkpt lat="39.89626" lon="116.639066">
        <time>2021-05-30T13:25:25Z</time>
      </trkpt>
      <trkpt lat="39.896259" lon="116.638969">
        <time>2021-05-30T13:25:30Z</time>
      </trkpt>
      <trkpt lat="39.896239" lon="116.638869">
        <time>2021-05-30T13:25:35Z</time>
      </trkpt>
      <trkpt lat="39.896231" lon="116.638768">
        <time>2021-05-30T13:25:40Z</time>
      </trkpt>
      <trkpt lat="39.896225" lon="116.638637">
        <time>2021-05-30T13:25:45Z</time>
      </trkpt>
      <trkpt lat="39.896208" lon="116.638497">
        <time>2021-05-30T13:25:50Z</time>
      </trkpt>
      <trkpt lat="39.896192" lon="116.638355">
        <time>2021-05-30T13:25:55Z</time>
      </trkpt>
      <trkpt lat="39.896193" lon="116.638176">
        <time>2021-05-30T13:26:00Z</time>
      </trkpt>
      <trkpt lat="39.8962" lon="116.638006">
        <time>2021-05-30T13:26:05Z</time>
      </trkpt>
      <trkpt lat="39.896194" lon="116.637856">
        <time>2021-05-30T13:26:10Z</time>
      </trkpt>
      <trkpt lat="39.896183" lon="116.637676">
        <time>2021-05-30T13:26:15Z</time>
      </trkpt>
      <trkpt lat="39.89618" lon="116.637513">
        <time>2021-05-30T13:26:20Z</time>
      </trkpt>
      <trkpt lat="39.896155" lon="116.637344">
        <time>2021-05-30T13:26:25Z</time>
      </trkpt>
      <trkpt lat="39.896127" lon="116.637172">
        <time>2021-05-30T13:26:30Z</time>
      </trkpt>
      <trkpt lat="39.896109" lon="116.63702">
        <time>2021-05-30T13:26:35Z</time>
      </trkpt>
      <trkpt lat="39.896081" lon="116.636864">
        <time>2021-05-30T13:26:40Z</time>
      </trkpt>
      <trkpt lat="39.896059" lon="116.636727">
        <time>2021-05-30T13:26:45Z</time>
      </trkpt>
      <trkpt lat="39.896013" lon="116.636646">
        <time>2021-05-30T13:26:50Z</time>
      </trkpt>
      <trkpt lat="39.895949" lon="116.636566">
        <time>2021-05-30T13:26:55Z</time>
      </trkpt>
      <trkpt lat="39.895846" lon="116.636483">
        <time>2021-05-30T13:27:00Z</time>
      </trkpt>
      <trkpt lat="39.895831" lon="116.636337">
        <time>2021-05-30T13:27:05Z</time>
      </trkpt>
      <trkpt lat="39.895965" lon="116.636234">
        <time>2021-05-30T13:27:10Z</time>
      </trkpt>
      <trkpt lat="39.896108" lon="116.636154">
        <time>2021-05-30T13:27:15Z</time>
      </trkpt>
      <trkpt lat="39.896236" lon="116.636083">
        <time>2021-05-30T13:27:20Z</time>
      </trkpt>
      <trkpt lat="39.896384" lon="116.636027">
        <time>2021-05-30T13:27:25Z</time>
      </trkpt>
      <trkpt lat="39.896541" lon="116.635981">
        <time>2021-05-30T13:27:30Z</time>
      </trkpt>
      <trkpt lat="39.896656" lon="116.635862">
        <time>2021-05-30T13:27:35Z</time>
      </trkpt>
      <trkpt lat="39.896807" lon="116.635796">
        <time>2021-05-30T13:27:40Z</time>
      </trkpt>
      <trkpt lat="39.896933" lon="116.635732">
        <time>2021-05-30T13:27:45Z</time>
      </trkpt>
      <trkpt lat="39.897047" lon="116.63572">
        <time>2021-05-30T13:27:50Z</time>
      </trkpt>
      <trkpt lat="39.897138" lon="116.6357">
        <time>2021-05-30T13:27:55Z</time>
      </trkpt>
      <trkpt lat="39.897196" lon="116.635639">
        <time>2021-05-30T13:28:00Z</time>
      </trkpt>
      <trkpt lat="39.897225" lon="116.63558">
        <time>2021-05-30T13:28:05Z</time>
      </trkpt>
      <trkpt lat="39.897254" lon="116.635479">
        <time>2021-05-30T13:28:10Z</time>
      </trkpt>
      <trkpt lat="39.897277" lon="116.635437">
        <time>2021-05-30T13:28:15Z</time>
      </trkpt>
      <trkpt lat="39.897359" lon="116.635406">
        <time>2021-05-30T13:28:20Z</time>
      </trkpt>
      <trkpt lat="39.897436" lon="116.635342">
        <time>2021-05-30T13:28:25Z</time>
      </trkpt>
      <trkpt lat="39.897549" lon="116.635318">
        <time>2021-05-30T13:28:30Z</time>
      </trkpt>
      <trkpt lat="39.897599" lon="116.635246">
        <time>2021-05-30T13:28:35Z</time>
      </trkpt>
      <trkpt lat="39.897683" lon="116.635213">
        <time>2021-05-30T13:28:40Z</time>
      </trkpt>
      <trkpt lat="39.897736" lon="116.635218">
        <time>2021-05-30T13:28:45Z</time>
      </trkpt>
      <trkpt lat="39.897795" lon="116.635168">
        <time>2021-05-30T13:28:50Z</time>
      </trkpt>
      <trkpt lat="39.897872" lon="116.635138">
        <time>2021-05-30T13:28:55Z</time>
      </trkpt>
      <trkpt lat="39.897946" lon="116.635094">
        <time>2021-05-30T13:29:00Z</time>
      </trkpt>
      <trkpt lat="39.898018" lon="116.635027">
        <time>2021-05-30T13:29:05Z</time>
      </trkpt>
      <trkpt lat="39.898095" lon="116.635007">
        <time>2021-05-30T13:29:10Z</time>
      </trkpt>
      <trkpt lat="39.898157" lon="116.634971">
        <time>2021-05-30T13:29:15Z</time>
      </trkpt>
      <trkpt lat="39.898148" lon="116.634962">
        <time>2021-05-30T13:29:20Z</time>
      </trkpt>
      <trkpt lat="39.898144" lon="116.634972">
        <time>2021-05-30T13:29:25Z</time>
      </trkpt>
      <trkpt lat="39.898128" lon="116.634972">
        <time>2021-05-30T13:29:30Z</time>
      </trkpt>
      <trkpt lat="39.898118" lon="116.634961">
        <time>2021-05-30T13:29:35Z</time>
      </trkpt>
      <trkpt lat="39.898108" lon="116.63495">
        <time>2021-05-30T13:29:40Z</time>
      </trkpt>
      <trkpt lat="39.898102" lon="116.634947">
        <time>2021-05-30T13:29:45Z</time>
      </trkpt>
      <trkpt lat="39.898096" lon="116.634944">
        <time>2021-05-30T13:29:50Z</time>
      </trkpt>
      <trkpt lat="39.89809" lon="116.634936">
        <time>2021-05-30T13:29:55Z</time>
      </trkpt>
      <trkpt lat="39.898088" lon="116.634944">
        <time>2021-05-30T13:30:00Z</time>
      </trkpt>
      <trkpt lat="39.898084" lon="116.634943">
        <time>2021-05-30T13:30:05Z</time>
      </trkpt>
      <trkpt lat="39.89808" lon="116.634947">
        <time>2021-05-30T13:30:10Z</time>
      </trkpt>
      <trkpt lat="39.898061" lon="116.634879">
        <time>2021-05-30T13:30:15Z</time>
      </trkpt>
      <trkpt lat="39.897997" lon="116.634746">
        <time>2021-05-30T13:30:20Z</time>
      </trkpt>
      <trkpt lat="39.897928" lon="116.634587">
        <time>2021-05-30T13:30:25Z</time>
      </trkpt>
      <trkpt lat="39.897871" lon="116.634429">
        <time>2021-05-30T13:30:30Z</time>
      </trkpt>
      <trkpt lat="39.897792" lon="116.634283">
        <time>2021-05-30T13:30:35Z</time>
      </trkpt>
      <trkpt lat="39.897731" lon="116.634134">
        <time>2021-05-30T13:30:40Z</time>
      </trkpt>
      <trkpt lat="39.897682" lon="116.633973">
        <time>2021-05-30T13:30:45Z</time>
      </trkpt>
      <trkpt lat="39.897644" lon="116.633786">
        <time>2021-05-30T13:30:50Z</time>
      </trkpt>
      <trkpt lat="39.897591" lon="116.633614">
        <time>2021-05-30T13:30:55Z</time>
      </trkpt>
      <trkpt lat="39.897494" lon="116.633586">
        <time>2021-05-30T13:31:00Z</time>
      </trkpt>
      <trkpt lat="39.897413" lon="116.633671">
        <time>2021-05-30T13:31:05Z</time>
      </trkpt>
      <trkpt lat="39.897329" lon="116.633843">
        <time>2021-05-30T13:31:10Z</time>
      </trkpt>
      <trkpt lat="39.897367" lon="116.634066">
        <time>2021-05-30T13:31:15Z</time>
      </trkpt>
      <trkpt lat="39.897353" lon="116.634277">
        <time>2021-05-30T13:31:20Z</time>
      </trkpt>
      <trkpt lat="39.89736" lon="116.63443">
        <time>2021-05-30T13:31:25Z</time>
      </trkpt>
      <trkpt lat="39.897442" lon="116.634259">
        <time>2021-05-30T13:31:34Z</time>
      </trkpt>
    </trkseg>
  </trk>
</gpx>