<?xml version="1.0" encoding="UTF-8"?>
<gpx xmlns="http://www.topografix.com/GPX/1/1" xmlns:gpxtpx="http://www.garmin.com/xmlschemas/TrackPointExtension/v1" xmlns:xsi="http://www.w3.org/2001/XMLSchema-instance" xsi:schemaLocation="http://www.topografix.com/GPX/1/1 http://www.topografix.com/GPX/1/1/gpx.xsd" version="1.1" creator="gpx.py -- https://github.com/tkrajina/gpxpy">
  <trk>
    <name>gpx from keep</name>
    <trkseg>
      <trkpt lat="39.895938" lon="116.636813">
        <time>2021-06-03T12:04:33Z</time>
      </trkpt>
      <trkpt lat="39.895938" lon="116.636813">
        <time>2021-06-03T12:04:38Z</time>
      </trkpt>
      <trkpt lat="39.89597" lon="116.63708">
        <time>2021-06-03T12:04:43Z</time>
      </trkpt>
      <trkpt lat="39.896062" lon="116.637284">
        <time>2021-06-03T12:04:48Z</time>
      </trkpt>
      <trkpt lat="39.896048" lon="116.637369">
        <time>2021-06-03T12:04:53Z</time>
      </trkpt>
      <trkpt lat="39.896112" lon="116.637434">
        <time>2021-06-03T12:04:58Z</time>
      </trkpt>
      <trkpt lat="39.896129" lon="116.637635">
        <time>2021-06-03T12:05:03Z</time>
      </trkpt>
      <trkpt lat="39.896136" lon="116.637784">
        <time>2021-06-03T12:05:08Z</time>
      </trkpt>
      <trkpt lat="39.896185" lon="116.637917">
        <time>2021-06-03T12:05:13Z</time>
      </trkpt>
      <trkpt lat="39.896212" lon="116.63813">
        <time>2021-06-03T12:05:18Z</time>
      </trkpt>
      <trkpt lat="39.896257" lon="116.638283">
        <time>2021-06-03T12:05:23Z</time>
      </trkpt>
      <trkpt lat="39.896261" lon="116.638462">
        <time>2021-06-03T12:05:28Z</time>
      </trkpt>
      <trkpt lat="39.896214" lon="116.638634">
        <time>2021-06-03T12:05:33Z</time>
      </trkpt>
      <trkpt lat="39.896182" lon="116.638773">
        <time>2021-06-03T12:05:38Z</time>
      </trkpt>
      <trkpt lat="39.896213" lon="116.638888">
        <time>2021-06-03T12:05:43Z</time>
      </trkpt>
      <trkpt lat="39.896245" lon="116.639016">
        <time>2021-06-03T12:05:48Z</time>
      </trkpt>
      <trkpt lat="39.896282" lon="116.639169">
        <time>2021-06-03T12:05:53Z</time>
      </trkpt>
      <trkpt lat="39.896259" lon="116.639342">
        <time>2021-06-03T12:05:58Z</time>
      </trkpt>
      <trkpt lat="39.896238" lon="116.639471">
        <time>2021-06-03T12:06:03Z</time>
      </trkpt>
      <trkpt lat="39.89624" lon="116.639623">
        <time>2021-06-03T12:06:08Z</time>
      </trkpt>
      <trkpt lat="39.89625" lon="116.63975">
        <time>2021-06-03T12:06:13Z</time>
      </trkpt>
      <trkpt lat="39.896259" lon="116.639905">
        <time>2021-06-03T12:06:18Z</time>
      </trkpt>
      <trkpt lat="39.896252" lon="116.640043">
        <time>2021-06-03T12:06:23Z</time>
      </trkpt>
      <trkpt lat="39.896238" lon="116.640202">
        <time>2021-06-03T12:06:28Z</time>
      </trkpt>
      <trkpt lat="39.896246" lon="116.64035">
        <time>2021-06-03T12:06:33Z</time>
      </trkpt>
      <trkpt lat="39.89632" lon="116.640439">
        <time>2021-06-03T12:06:38Z</time>
      </trkpt>
      <trkpt lat="39.896334" lon="116.640575">
        <time>2021-06-03T12:06:43Z</time>
      </trkpt>
      <trkpt lat="39.896433" lon="116.64061">
        <time>2021-06-03T12:06:48Z</time>
      </trkpt>
      <trkpt lat="39.896629" lon="116.640658">
        <time>2021-06-03T12:06:53Z</time>
      </trkpt>
      <trkpt lat="39.896785" lon="116.640653">
        <time>2021-06-03T12:06:58Z</time>
      </trkpt>
      <trkpt lat="39.896885" lon="116.640657">
        <time>2021-06-03T12:07:03Z</time>
      </trkpt>
      <trkpt lat="39.896989" lon="116.640674">
        <time>2021-06-03T12:07:08Z</time>
      </trkpt>
      <trkpt lat="39.897101" lon="116.640709">
        <time>2021-06-03T12:07:13Z</time>
      </trkpt>
      <trkpt lat="39.897144" lon="116.640715">
        <time>2021-06-03T12:07:18Z</time>
      </trkpt>
      <trkpt lat="39.897204" lon="116.640752">
        <time>2021-06-03T12:07:23Z</time>
      </trkpt>
      <trkpt lat="39.89734" lon="116.640859">
        <time>2021-06-03T12:07:28Z</time>
      </trkpt>
      <trkpt lat="39.897398" lon="116.640921">
        <time>2021-06-03T12:07:33Z</time>
      </trkpt>
      <trkpt lat="39.897518" lon="116.640966">
        <time>2021-06-03T12:07:38Z</time>
      </trkpt>
      <trkpt lat="39.897643" lon="116.641037">
        <time>2021-06-03T12:07:43Z</time>
      </trkpt>
      <trkpt lat="39.89777" lon="116.641052">
        <time>2021-06-03T12:07:48Z</time>
      </trkpt>
      <trkpt lat="39.897832" lon="116.641056">
        <time>2021-06-03T12:07:53Z</time>
      </trkpt>
      <trkpt lat="39.89789" lon="116.641132">
        <time>2021-06-03T12:07:58Z</time>
      </trkpt>
      <trkpt lat="39.897969" lon="116.641206">
        <time>2021-06-03T12:08:03Z</time>
      </trkpt>
      <trkpt lat="39.898093" lon="116.641302">
        <time>2021-06-03T12:08:08Z</time>
      </trkpt>
      <trkpt lat="39.89825" lon="116.641388">
        <time>2021-06-03T12:08:13Z</time>
      </trkpt>
      <trkpt lat="39.898384" lon="116.641406">
        <time>2021-06-03T12:08:18Z</time>
      </trkpt>
      <trkpt lat="39.898397" lon="116.641547">
        <time>2021-06-03T12:08:23Z</time>
      </trkpt>
      <trkpt lat="39.898349" lon="116.641698">
        <time>2021-06-03T12:08:28Z</time>
      </trkpt>
      <trkpt lat="39.898299" lon="116.641852">
        <time>2021-06-03T12:08:33Z</time>
      </trkpt>
      <trkpt lat="39.898289" lon="116.641938">
        <time>2021-06-03T12:08:38Z</time>
      </trkpt>
      <trkpt lat="39.898318" lon="116.642137">
        <time>2021-06-03T12:08:43Z</time>
      </trkpt>
      <trkpt lat="39.898325" lon="116.64231">
        <time>2021-06-03T12:08:48Z</time>
      </trkpt>
      <trkpt lat="39.898378" lon="116.642513">
        <time>2021-06-03T12:08:53Z</time>
      </trkpt>
      <trkpt lat="39.898341" lon="116.642655">
        <time>2021-06-03T12:08:58Z</time>
      </trkpt>
      <trkpt lat="39.898352" lon="116.642818">
        <time>2021-06-03T12:09:03Z</time>
      </trkpt>
      <trkpt lat="39.89837" lon="116.642978">
        <time>2021-06-03T12:09:08Z</time>
      </trkpt>
      <trkpt lat="39.898369" lon="116.643133">
        <time>2021-06-03T12:09:13Z</time>
      </trkpt>
      <trkpt lat="39.898235" lon="116.643297">
        <time>2021-06-03T12:09:18Z</time>
      </trkpt>
      <trkpt lat="39.898159" lon="116.643421">
        <time>2021-06-03T12:09:23Z</time>
      </trkpt>
      <trkpt lat="39.898175" lon="116.643614">
        <time>2021-06-03T12:09:28Z</time>
      </trkpt>
      <trkpt lat="39.898221" lon="116.643779">
        <time>2021-06-03T12:09:33Z</time>
      </trkpt>
      <trkpt lat="39.898274" lon="116.643941">
        <time>2021-06-03T12:09:38Z</time>
      </trkpt>
      <trkpt lat="39.898272" lon="116.644122">
        <time>2021-06-03T12:09:43Z</time>
      </trkpt>
      <trkpt lat="39.898309" lon="116.644198">
        <time>2021-06-03T12:09:48Z</time>
      </trkpt>
      <trkpt lat="39.898288" lon="116.644342">
        <time>2021-06-03T12:09:53Z</time>
      </trkpt>
      <trkpt lat="39.898252" lon="116.644501">
        <time>2021-06-03T12:09:58Z</time>
      </trkpt>
      <trkpt lat="39.898325" lon="116.644707">
        <time>2021-06-03T12:10:03Z</time>
      </trkpt>
      <trkpt lat="39.898366" lon="116.644719">
        <time>2021-06-03T12:10:08Z</time>
      </trkpt>
      <trkpt lat="39.898564" lon="116.644804">
        <time>2021-06-03T12:10:13Z</time>
      </trkpt>
      <trkpt lat="39.89863" lon="116.644812">
        <time>2021-06-03T12:10:18Z</time>
      </trkpt>
      <trkpt lat="39.898695" lon="116.644957">
        <time>2021-06-03T12:10:23Z</time>
      </trkpt>
      <trkpt lat="39.89866" lon="116.645082">
        <time>2021-06-03T12:10:28Z</time>
      </trkpt>
      <trkpt lat="39.898632" lon="116.645243">
        <time>2021-06-03T12:10:33Z</time>
      </trkpt>
      <trkpt lat="39.898629" lon="116.645406">
        <time>2021-06-03T12:10:38Z</time>
      </trkpt>
      <trkpt lat="39.898635" lon="116.645546">
        <time>2021-06-03T12:10:43Z</time>
      </trkpt>
      <trkpt lat="39.898638" lon="116.645696">
        <time>2021-06-03T12:10:48Z</time>
      </trkpt>
      <trkpt lat="39.89869" lon="116.645823">
        <time>2021-06-03T12:10:53Z</time>
      </trkpt>
      <trkpt lat="39.898697" lon="116.645886">
        <time>2021-06-03T12:10:58Z</time>
      </trkpt>
      <trkpt lat="39.898731" lon="116.646004">
        <time>2021-06-03T12:11:03Z</time>
      </trkpt>
      <trkpt lat="39.898743" lon="116.646117">
        <time>2021-06-03T12:11:08Z</time>
      </trkpt>
      <trkpt lat="39.898753" lon="116.646211">
        <time>2021-06-03T12:11:13Z</time>
      </trkpt>
      <trkpt lat="39.89878" lon="116.646287">
        <time>2021-06-03T12:11:18Z</time>
      </trkpt>
      <trkpt lat="39.898802" lon="116.646427">
        <time>2021-06-03T12:11:23Z</time>
      </trkpt>
      <trkpt lat="39.898811" lon="116.646572">
        <time>2021-06-03T12:11:28Z</time>
      </trkpt>
      <trkpt lat="39.898834" lon="116.646717">
        <time>2021-06-03T12:11:33Z</time>
      </trkpt>
      <trkpt lat="39.89887" lon="116.646811">
        <time>2021-06-03T12:11:38Z</time>
      </trkpt>
      <trkpt lat="39.898889" lon="116.646856">
        <time>2021-06-03T12:11:43Z</time>
      </trkpt>
      <trkpt lat="39.898913" lon="116.646911">
        <time>2021-06-03T12:11:48Z</time>
      </trkpt>
      <trkpt lat="39.898946" lon="116.646998">
        <time>2021-06-03T12:11:53Z</time>
      </trkpt>
      <trkpt lat="39.898967" lon="116.647113">
        <time>2021-06-03T12:11:58Z</time>
      </trkpt>
      <trkpt lat="39.898977" lon="116.647338">
        <time>2021-06-03T12:12:03Z</time>
      </trkpt>
      <trkpt lat="39.899015" lon="116.647602">
        <time>2021-06-03T12:12:08Z</time>
      </trkpt>
      <trkpt lat="39.899098" lon="116.647825">
        <time>2021-06-03T12:12:13Z</time>
      </trkpt>
      <trkpt lat="39.89912" lon="116.647979">
        <time>2021-06-03T12:12:18Z</time>
      </trkpt>
      <trkpt lat="39.899096" lon="116.648176">
        <time>2021-06-03T12:12:23Z</time>
      </trkpt>
      <trkpt lat="39.899075" lon="116.648375">
        <time>2021-06-03T12:12:28Z</time>
      </trkpt>
      <trkpt lat="39.899082" lon="116.648519">
        <time>2021-06-03T12:12:33Z</time>
      </trkpt>
      <trkpt lat="39.899083" lon="116.648662">
        <time>2021-06-03T12:12:38Z</time>
      </trkpt>
      <trkpt lat="39.899092" lon="116.648799">
        <time>2021-06-03T12:12:43Z</time>
      </trkpt>
      <trkpt lat="39.899088" lon="116.648958">
        <time>2021-06-03T12:12:48Z</time>
      </trkpt>
      <trkpt lat="39.899097" lon="116.649115">
        <time>2021-06-03T12:12:53Z</time>
      </trkpt>
      <trkpt lat="39.899098" lon="116.64927">
        <time>2021-06-03T12:12:58Z</time>
      </trkpt>
      <trkpt lat="39.899056" lon="116.649417">
        <time>2021-06-03T12:13:03Z</time>
      </trkpt>
      <trkpt lat="39.899054" lon="116.649528">
        <time>2021-06-03T12:13:08Z</time>
      </trkpt>
      <trkpt lat="39.899069" lon="116.649671">
        <time>2021-06-03T12:13:13Z</time>
      </trkpt>
      <trkpt lat="39.899077" lon="116.649829">
        <time>2021-06-03T12:13:18Z</time>
      </trkpt>
      <trkpt lat="39.899083" lon="116.650023">
        <time>2021-06-03T12:13:23Z</time>
      </trkpt>
      <trkpt lat="39.89906" lon="116.650182">
        <time>2021-06-03T12:13:28Z</time>
      </trkpt>
      <trkpt lat="39.899054" lon="116.650327">
        <time>2021-06-03T12:13:33Z</time>
      </trkpt>
      <trkpt lat="39.899075" lon="116.650493">
        <time>2021-06-03T12:13:38Z</time>
      </trkpt>
      <trkpt lat="39.899066" lon="116.650566">
        <time>2021-06-03T12:13:43Z</time>
      </trkpt>
      <trkpt lat="39.899054" lon="116.650661">
        <time>2021-06-03T12:13:48Z</time>
      </trkpt>
      <trkpt lat="39.899055" lon="116.650837">
        <time>2021-06-03T12:13:53Z</time>
      </trkpt>
      <trkpt lat="39.899008" lon="116.651009">
        <time>2021-06-03T12:13:58Z</time>
      </trkpt>
      <trkpt lat="39.898933" lon="116.651151">
        <time>2021-06-03T12:14:03Z</time>
      </trkpt>
      <trkpt lat="39.898931" lon="116.651457">
        <time>2021-06-03T12:14:08Z</time>
      </trkpt>
      <trkpt lat="39.898933" lon="116.651463">
        <time>2021-06-03T12:14:13Z</time>
      </trkpt>
      <trkpt lat="39.898947" lon="116.651178">
        <time>2021-06-03T12:14:18Z</time>
      </trkpt>
      <trkpt lat="39.898948" lon="116.651146">
        <time>2021-06-03T12:14:23Z</time>
      </trkpt>
      <trkpt lat="39.898969" lon="116.650974">
        <time>2021-06-03T12:14:28Z</time>
      </trkpt>
      <trkpt lat="39.898981" lon="116.650806">
        <time>2021-06-03T12:14:33Z</time>
      </trkpt>
      <trkpt lat="39.898977" lon="116.650657">
        <time>2021-06-03T12:14:38Z</time>
      </trkpt>
      <trkpt lat="39.898963" lon="116.650526">
        <time>2021-06-03T12:14:43Z</time>
      </trkpt>
      <trkpt lat="39.898954" lon="116.650361">
        <time>2021-06-03T12:14:48Z</time>
      </trkpt>
      <trkpt lat="39.898974" lon="116.650216">
        <time>2021-06-03T12:14:53Z</time>
      </trkpt>
      <trkpt lat="39.898974" lon="116.650041">
        <time>2021-06-03T12:14:58Z</time>
      </trkpt>
      <trkpt lat="39.898981" lon="116.649854">
        <time>2021-06-03T12:15:03Z</time>
      </trkpt>
      <trkpt lat="39.898976" lon="116.64969">
        <time>2021-06-03T12:15:08Z</time>
      </trkpt>
      <trkpt lat="39.898947" lon="116.649511">
        <time>2021-06-03T12:15:13Z</time>
      </trkpt>
      <trkpt lat="39.898945" lon="116.649428">
        <time>2021-06-03T12:15:18Z</time>
      </trkpt>
      <trkpt lat="39.89892" lon="116.649163">
        <time>2021-06-03T12:15:23Z</time>
      </trkpt>
      <trkpt lat="39.89892" lon="116.649135">
        <time>2021-06-03T12:15:28Z</time>
      </trkpt>
      <trkpt lat="39.898994" lon="116.648978">
        <time>2021-06-03T12:15:33Z</time>
      </trkpt>
      <trkpt lat="39.898998" lon="116.648783">
        <time>2021-06-03T12:15:38Z</time>
      </trkpt>
      <trkpt lat="39.898968" lon="116.648634">
        <time>2021-06-03T12:15:43Z</time>
      </trkpt>
      <trkpt lat="39.898956" lon="116.648507">
        <time>2021-06-03T12:15:48Z</time>
      </trkpt>
      <trkpt lat="39.899015" lon="116.648367">
        <time>2021-06-03T12:15:53Z</time>
      </trkpt>
      <trkpt lat="39.898997" lon="116.648153">
        <time>2021-06-03T12:15:58Z</time>
      </trkpt>
      <trkpt lat="39.898995" lon="116.648005">
        <time>2021-06-03T12:16:03Z</time>
      </trkpt>
      <trkpt lat="39.899" lon="116.647895">
        <time>2021-06-03T12:16:08Z</time>
      </trkpt>
      <trkpt lat="39.898999" lon="116.647797">
        <time>2021-06-03T12:16:13Z</time>
      </trkpt>
      <trkpt lat="39.89896" lon="116.647643">
        <time>2021-06-03T12:16:18Z</time>
      </trkpt>
      <trkpt lat="39.898953" lon="116.647462">
        <time>2021-06-03T12:16:23Z</time>
      </trkpt>
      <trkpt lat="39.898926" lon="116.647272">
        <time>2021-06-03T12:16:28Z</time>
      </trkpt>
      <trkpt lat="39.898888" lon="116.647119">
        <time>2021-06-03T12:16:33Z</time>
      </trkpt>
      <trkpt lat="39.898852" lon="116.646937">
        <time>2021-06-03T12:16:38Z</time>
      </trkpt>
      <trkpt lat="39.898844" lon="116.646793">
        <time>2021-06-03T12:16:43Z</time>
      </trkpt>
      <trkpt lat="39.898835" lon="116.646558">
        <time>2021-06-03T12:16:48Z</time>
      </trkpt>
      <trkpt lat="39.898835" lon="116.646513">
        <time>2021-06-03T12:16:53Z</time>
      </trkpt>
      <trkpt lat="39.898798" lon="116.64636">
        <time>2021-06-03T12:16:58Z</time>
      </trkpt>
      <trkpt lat="39.898729" lon="116.646235">
        <time>2021-06-03T12:17:03Z</time>
      </trkpt>
      <trkpt lat="39.898684" lon="116.646092">
        <time>2021-06-03T12:17:08Z</time>
      </trkpt>
      <trkpt lat="39.89863" lon="116.645988">
        <time>2021-06-03T12:17:13Z</time>
      </trkpt>
      <trkpt lat="39.898565" lon="116.645898">
        <time>2021-06-03T12:17:18Z</time>
      </trkpt>
      <trkpt lat="39.898526" lon="116.645752">
        <time>2021-06-03T12:17:23Z</time>
      </trkpt>
      <trkpt lat="39.898485" lon="116.645617">
        <time>2021-06-03T12:17:28Z</time>
      </trkpt>
      <trkpt lat="39.898469" lon="116.645439">
        <time>2021-06-03T12:17:33Z</time>
      </trkpt>
      <trkpt lat="39.898464" lon="116.64527">
        <time>2021-06-03T12:17:38Z</time>
      </trkpt>
      <trkpt lat="39.898447" lon="116.645154">
        <time>2021-06-03T12:17:43Z</time>
      </trkpt>
      <trkpt lat="39.898413" lon="116.644999">
        <time>2021-06-03T12:17:48Z</time>
      </trkpt>
      <trkpt lat="39.898424" lon="116.644853">
        <time>2021-06-03T12:17:53Z</time>
      </trkpt>
      <trkpt lat="39.898422" lon="116.644736">
        <time>2021-06-03T12:17:58Z</time>
      </trkpt>
      <trkpt lat="39.898408" lon="116.644635">
        <time>2021-06-03T12:18:03Z</time>
      </trkpt>
      <trkpt lat="39.898369" lon="116.644535">
        <time>2021-06-03T12:18:08Z</time>
      </trkpt>
      <trkpt lat="39.898354" lon="116.644484">
        <time>2021-06-03T12:18:13Z</time>
      </trkpt>
      <trkpt lat="39.898345" lon="116.644398">
        <time>2021-06-03T12:18:18Z</time>
      </trkpt>
      <trkpt lat="39.898325" lon="116.64429">
        <time>2021-06-03T12:18:23Z</time>
      </trkpt>
      <trkpt lat="39.898284" lon="116.644133">
        <time>2021-06-03T12:18:28Z</time>
      </trkpt>
      <trkpt lat="39.898297" lon="116.643914">
        <time>2021-06-03T12:18:33Z</time>
      </trkpt>
      <trkpt lat="39.898278" lon="116.643782">
        <time>2021-06-03T12:18:38Z</time>
      </trkpt>
      <trkpt lat="39.898261" lon="116.643627">
        <time>2021-06-03T12:18:43Z</time>
      </trkpt>
      <trkpt lat="39.898229" lon="116.643456">
        <time>2021-06-03T12:18:48Z</time>
      </trkpt>
      <trkpt lat="39.89825" lon="116.643268">
        <time>2021-06-03T12:18:53Z</time>
      </trkpt>
      <trkpt lat="39.898284" lon="116.643061">
        <time>2021-06-03T12:18:58Z</time>
      </trkpt>
      <trkpt lat="39.898299" lon="116.642942">
        <time>2021-06-03T12:19:03Z</time>
      </trkpt>
      <trkpt lat="39.898295" lon="116.642799">
        <time>2021-06-03T12:19:08Z</time>
      </trkpt>
      <trkpt lat="39.898295" lon="116.642637">
        <time>2021-06-03T12:19:13Z</time>
      </trkpt>
      <trkpt lat="39.898302" lon="116.6425">
        <time>2021-06-03T12:19:18Z</time>
      </trkpt>
      <trkpt lat="39.898323" lon="116.642373">
        <time>2021-06-03T12:19:23Z</time>
      </trkpt>
      <trkpt lat="39.898314" lon="116.642264">
        <time>2021-06-03T12:19:28Z</time>
      </trkpt>
      <trkpt lat="39.898311" lon="116.642137">
        <time>2021-06-03T12:19:33Z</time>
      </trkpt>
      <trkpt lat="39.898304" lon="116.642116">
        <time>2021-06-03T12:19:38Z</time>
      </trkpt>
      <trkpt lat="39.89832" lon="116.641984">
        <time>2021-06-03T12:19:43Z</time>
      </trkpt>
      <trkpt lat="39.898319" lon="116.641887">
        <time>2021-06-03T12:19:48Z</time>
      </trkpt>
      <trkpt lat="39.898272" lon="116.641753">
        <time>2021-06-03T12:19:53Z</time>
      </trkpt>
      <trkpt lat="39.898305" lon="116.641555">
        <time>2021-06-03T12:19:58Z</time>
      </trkpt>
      <trkpt lat="39.898366" lon="116.641444">
        <time>2021-06-03T12:20:03Z</time>
      </trkpt>
      <trkpt lat="39.898443" lon="116.641342">
        <time>2021-06-03T12:20:08Z</time>
      </trkpt>
      <trkpt lat="39.898375" lon="116.641258">
        <time>2021-06-03T12:20:13Z</time>
      </trkpt>
      <trkpt lat="39.898271" lon="116.641246">
        <time>2021-06-03T12:20:18Z</time>
      </trkpt>
      <trkpt lat="39.898122" lon="116.641235">
        <time>2021-06-03T12:20:23Z</time>
      </trkpt>
      <trkpt lat="39.898031" lon="116.641221">
        <time>2021-06-03T12:20:28Z</time>
      </trkpt>
      <trkpt lat="39.89795" lon="116.641158">
        <time>2021-06-03T12:20:33Z</time>
      </trkpt>
      <trkpt lat="39.897822" lon="116.641066">
        <time>2021-06-03T12:20:38Z</time>
      </trkpt>
      <trkpt lat="39.89774" lon="116.641009">
        <time>2021-06-03T12:20:43Z</time>
      </trkpt>
      <trkpt lat="39.897642" lon="116.640953">
        <time>2021-06-03T12:20:48Z</time>
      </trkpt>
      <trkpt lat="39.897493" lon="116.640888">
        <time>2021-06-03T12:20:53Z</time>
      </trkpt>
      <trkpt lat="39.897349" lon="116.640857">
        <time>2021-06-03T12:20:58Z</time>
      </trkpt>
      <trkpt lat="39.89723" lon="116.640783">
        <time>2021-06-03T12:21:03Z</time>
      </trkpt>
      <trkpt lat="39.897055" lon="116.640721">
        <time>2021-06-03T12:21:08Z</time>
      </trkpt>
      <trkpt lat="39.896997" lon="116.640681">
        <time>2021-06-03T12:21:13Z</time>
      </trkpt>
      <trkpt lat="39.896928" lon="116.640633">
        <time>2021-06-03T12:21:18Z</time>
      </trkpt>
      <trkpt lat="39.896808" lon="116.640556">
        <time>2021-06-03T12:21:23Z</time>
      </trkpt>
      <trkpt lat="39.89669" lon="116.640498">
        <time>2021-06-03T12:21:28Z</time>
      </trkpt>
      <trkpt lat="39.896567" lon="116.640451">
        <time>2021-06-03T12:21:33Z</time>
      </trkpt>
      <trkpt lat="39.896419" lon="116.640404">
        <time>2021-06-03T12:21:38Z</time>
      </trkpt>
      <trkpt lat="39.89632" lon="116.640382">
        <time>2021-06-03T12:21:43Z</time>
      </trkpt>
      <trkpt lat="39.896196" lon="116.640316">
        <time>2021-06-03T12:21:48Z</time>
      </trkpt>
      <trkpt lat="39.896133" lon="116.640169">
        <time>2021-06-03T12:21:53Z</time>
      </trkpt>
      <trkpt lat="39.896127" lon="116.640018">
        <time>2021-06-03T12:21:58Z</time>
      </trkpt>
      <trkpt lat="39.896159" lon="116.639911">
        <time>2021-06-03T12:22:03Z</time>
      </trkpt>
      <trkpt lat="39.896192" lon="116.639801">
        <time>2021-06-03T12:22:08Z</time>
      </trkpt>
      <trkpt lat="39.896214" lon="116.639699">
        <time>2021-06-03T12:22:13Z</time>
      </trkpt>
      <trkpt lat="39.896209" lon="116.639596">
        <time>2021-06-03T12:22:18Z</time>
      </trkpt>
      <trkpt lat="39.896214" lon="116.639468">
        <time>2021-06-03T12:22:23Z</time>
      </trkpt>
      <trkpt lat="39.896215" lon="116.639272">
        <time>2021-06-03T12:22:28Z</time>
      </trkpt>
      <trkpt lat="39.896206" lon="116.639157">
        <time>2021-06-03T12:22:33Z</time>
      </trkpt>
      <trkpt lat="39.896221" lon="116.638993">
        <time>2021-06-03T12:22:38Z</time>
      </trkpt>
      <trkpt lat="39.896215" lon="116.638869">
        <time>2021-06-03T12:22:43Z</time>
      </trkpt>
      <trkpt lat="39.896186" lon="116.638744">
        <time>2021-06-03T12:22:48Z</time>
      </trkpt>
      <trkpt lat="39.896189" lon="116.638586">
        <time>2021-06-03T12:22:53Z</time>
      </trkpt>
      <trkpt lat="39.896187" lon="116.638441">
        <time>2021-06-03T12:22:58Z</time>
      </trkpt>
      <trkpt lat="39.896183" lon="116.638287">
        <time>2021-06-03T12:23:03Z</time>
      </trkpt>
      <trkpt lat="39.896177" lon="116.638147">
        <time>2021-06-03T12:23:08Z</time>
      </trkpt>
      <trkpt lat="39.896178" lon="116.637994">
        <time>2021-06-03T12:23:13Z</time>
      </trkpt>
      <trkpt lat="39.896198" lon="116.637823">
        <time>2021-06-03T12:23:18Z</time>
      </trkpt>
      <trkpt lat="39.896198" lon="116.63767">
        <time>2021-06-03T12:23:23Z</time>
      </trkpt>
      <trkpt lat="39.896206" lon="116.637544">
        <time>2021-06-03T12:23:28Z</time>
      </trkpt>
      <trkpt lat="39.89618" lon="116.637388">
        <time>2021-06-03T12:23:33Z</time>
      </trkpt>
      <trkpt lat="39.896178" lon="116.637228">
        <time>2021-06-03T12:23:38Z</time>
      </trkpt>
      <trkpt lat="39.896184" lon="116.63706">
        <time>2021-06-03T12:23:43Z</time>
      </trkpt>
      <trkpt lat="39.896152" lon="116.636903">
        <time>2021-06-03T12:23:48Z</time>
      </trkpt>
      <trkpt lat="39.896094" lon="116.636695">
        <time>2021-06-03T12:23:53Z</time>
      </trkpt>
      <trkpt lat="39.896071" lon="116.636617">
        <time>2021-06-03T12:23:58Z</time>
      </trkpt>
      <trkpt lat="39.89602" lon="116.636612">
        <time>2021-06-03T12:24:03Z</time>
      </trkpt>
      <trkpt lat="39.896056" lon="116.636775">
        <time>2021-06-03T12:24:08Z</time>
      </trkpt>
      <trkpt lat="39.896117" lon="116.637167">
        <time>2021-06-03T12:24:13Z</time>
      </trkpt>
      <trkpt lat="39.896138" lon="116.637237">
        <time>2021-06-03T12:24:18Z</time>
      </trkpt>
      <trkpt lat="39.896134" lon="116.637415">
        <time>2021-06-03T12:24:23Z</time>
      </trkpt>
      <trkpt lat="39.896188" lon="116.637531">
        <time>2021-06-03T12:24:28Z</time>
      </trkpt>
      <trkpt lat="39.896182" lon="116.637657">
        <time>2021-06-03T12:24:33Z</time>
      </trkpt>
      <trkpt lat="39.896173" lon="116.637817">
        <time>2021-06-03T12:24:38Z</time>
      </trkpt>
      <trkpt lat="39.896137" lon="116.63796">
        <time>2021-06-03T12:24:43Z</time>
      </trkpt>
      <trkpt lat="39.896111" lon="116.638152">
        <time>2021-06-03T12:24:48Z</time>
      </trkpt>
      <trkpt lat="39.896179" lon="116.638334">
        <time>2021-06-03T12:24:53Z</time>
      </trkpt>
      <trkpt lat="39.89617" lon="116.638458">
        <time>2021-06-03T12:24:58Z</time>
      </trkpt>
      <trkpt lat="39.896124" lon="116.638625">
        <time>2021-06-03T12:25:03Z</time>
      </trkpt>
      <trkpt lat="39.896147" lon="116.63878">
        <time>2021-06-03T12:25:08Z</time>
      </trkpt>
      <trkpt lat="39.896156" lon="116.638927">
        <time>2021-06-03T12:25:13Z</time>
      </trkpt>
      <trkpt lat="39.89623" lon="116.639072">
        <time>2021-06-03T12:25:18Z</time>
      </trkpt>
      <trkpt lat="39.896251" lon="116.639221">
        <time>2021-06-03T12:25:23Z</time>
      </trkpt>
      <trkpt lat="39.896217" lon="116.639375">
        <time>2021-06-03T12:25:28Z</time>
      </trkpt>
      <trkpt lat="39.896226" lon="116.639502">
        <time>2021-06-03T12:25:33Z</time>
      </trkpt>
      <trkpt lat="39.896229" lon="116.639657">
        <time>2021-06-03T12:25:38Z</time>
      </trkpt>
      <trkpt lat="39.896222" lon="116.639737">
        <time>2021-06-03T12:25:43Z</time>
      </trkpt>
      <trkpt lat="39.896221" lon="116.639829">
        <time>2021-06-03T12:25:48Z</time>
      </trkpt>
      <trkpt lat="39.896203" lon="116.639919">
        <time>2021-06-03T12:25:53Z</time>
      </trkpt>
      <trkpt lat="39.896187" lon="116.64002">
        <time>2021-06-03T12:25:58Z</time>
      </trkpt>
      <trkpt lat="39.896218" lon="116.640164">
        <time>2021-06-03T12:26:03Z</time>
      </trkpt>
      <trkpt lat="39.896223" lon="116.64032">
        <time>2021-06-03T12:26:08Z</time>
      </trkpt>
      <trkpt lat="39.896187" lon="116.640422">
        <time>2021-06-03T12:26:13Z</time>
      </trkpt>
      <trkpt lat="39.896206" lon="116.640577">
        <time>2021-06-03T12:26:18Z</time>
      </trkpt>
      <trkpt lat="39.896225" lon="116.64079">
        <time>2021-06-03T12:26:23Z</time>
      </trkpt>
      <trkpt lat="39.896237" lon="116.64087">
        <time>2021-06-03T12:26:28Z</time>
      </trkpt>
      <trkpt lat="39.89623" lon="116.641074">
        <time>2021-06-03T12:26:33Z</time>
      </trkpt>
      <trkpt lat="39.896167" lon="116.641195">
        <time>2021-06-03T12:26:38Z</time>
      </trkpt>
      <trkpt lat="39.896155" lon="116.641359">
        <time>2021-06-03T12:26:43Z</time>
      </trkpt>
      <trkpt lat="39.896157" lon="116.641515">
        <time>2021-06-03T12:26:48Z</time>
      </trkpt>
      <trkpt lat="39.896162" lon="116.641703">
        <time>2021-06-03T12:26:53Z</time>
      </trkpt>
      <trkpt lat="39.89614" lon="116.641823">
        <time>2021-06-03T12:26:58Z</time>
      </trkpt>
      <trkpt lat="39.896142" lon="116.642001">
        <time>2021-06-03T12:27:03Z</time>
      </trkpt>
      <trkpt lat="39.896144" lon="116.642254">
        <time>2021-06-03T12:27:08Z</time>
      </trkpt>
      <trkpt lat="39.896118" lon="116.642311">
        <time>2021-06-03T12:27:13Z</time>
      </trkpt>
      <trkpt lat="39.89613" lon="116.642464">
        <time>2021-06-03T12:27:18Z</time>
      </trkpt>
      <trkpt lat="39.896126" lon="116.642633">
        <time>2021-06-03T12:27:23Z</time>
      </trkpt>
      <trkpt lat="39.896154" lon="116.642724">
        <time>2021-06-03T12:27:28Z</time>
      </trkpt>
      <trkpt lat="39.896162" lon="116.642972">
        <time>2021-06-03T12:27:33Z</time>
      </trkpt>
      <trkpt lat="39.896152" lon="116.643036">
        <time>2021-06-03T12:27:38Z</time>
      </trkpt>
      <trkpt lat="39.896163" lon="116.643203">
        <time>2021-06-03T12:27:43Z</time>
      </trkpt>
      <trkpt lat="39.896162" lon="116.643373">
        <time>2021-06-03T12:27:48Z</time>
      </trkpt>
      <trkpt lat="39.896168" lon="116.643409">
        <time>2021-06-03T12:27:53Z</time>
      </trkpt>
      <trkpt lat="39.896191" lon="116.643575">
        <time>2021-06-03T12:27:58Z</time>
      </trkpt>
      <trkpt lat="39.896266" lon="116.643828">
        <time>2021-06-03T12:28:03Z</time>
      </trkpt>
      <trkpt lat="39.896266" lon="116.643863">
        <time>2021-06-03T12:28:08Z</time>
      </trkpt>
      <trkpt lat="39.896204" lon="116.644075">
        <time>2021-06-03T12:28:13Z</time>
      </trkpt>
      <trkpt lat="39.896218" lon="116.644221">
        <time>2021-06-03T12:28:18Z</time>
      </trkpt>
      <trkpt lat="39.896248" lon="116.644381">
        <time>2021-06-03T12:28:23Z</time>
      </trkpt>
      <trkpt lat="39.896238" lon="116.644504">
        <time>2021-06-03T12:28:28Z</time>
      </trkpt>
      <trkpt lat="39.896239" lon="116.644665">
        <time>2021-06-03T12:28:33Z</time>
      </trkpt>
      <trkpt lat="39.896238" lon="116.644782">
        <time>2021-06-03T12:28:38Z</time>
      </trkpt>
      <trkpt lat="39.896211" lon="116.64493">
        <time>2021-06-03T12:28:43Z</time>
      </trkpt>
      <trkpt lat="39.896183" lon="116.645107">
        <time>2021-06-03T12:28:48Z</time>
      </trkpt>
      <trkpt lat="39.896109" lon="116.645246">
        <time>2021-06-03T12:28:53Z</time>
      </trkpt>
      <trkpt lat="39.896114" lon="116.645385">
        <time>2021-06-03T12:28:58Z</time>
      </trkpt>
      <trkpt lat="39.896075" lon="116.645505">
        <time>2021-06-03T12:29:03Z</time>
      </trkpt>
      <trkpt lat="39.896077" lon="116.645634">
        <time>2021-06-03T12:29:08Z</time>
      </trkpt>
      <trkpt lat="39.896055" lon="116.645777">
        <time>2021-06-03T12:29:13Z</time>
      </trkpt>
      <trkpt lat="39.896044" lon="116.64593">
        <time>2021-06-03T12:29:18Z</time>
      </trkpt>
      <trkpt lat="39.896043" lon="116.646106">
        <time>2021-06-03T12:29:23Z</time>
      </trkpt>
      <trkpt lat="39.896027" lon="116.646199">
        <time>2021-06-03T12:29:28Z</time>
      </trkpt>
      <trkpt lat="39.896018" lon="116.646325">
        <time>2021-06-03T12:29:33Z</time>
      </trkpt>
      <trkpt lat="39.896013" lon="116.646433">
        <time>2021-06-03T12:29:38Z</time>
      </trkpt>
      <trkpt lat="39.896002" lon="116.64656">
        <time>2021-06-03T12:29:43Z</time>
      </trkpt>
      <trkpt lat="39.895995" lon="116.64672">
        <time>2021-06-03T12:29:48Z</time>
      </trkpt>
      <trkpt lat="39.895982" lon="116.646908">
        <time>2021-06-03T12:29:53Z</time>
      </trkpt>
      <trkpt lat="39.895944" lon="116.647121">
        <time>2021-06-03T12:29:58Z</time>
      </trkpt>
      <trkpt lat="39.895865" lon="116.647217">
        <time>2021-06-03T12:30:03Z</time>
      </trkpt>
      <trkpt lat="39.895764" lon="116.647245">
        <time>2021-06-03T12:30:08Z</time>
      </trkpt>
      <trkpt lat="39.895737" lon="116.647305">
        <time>2021-06-03T12:30:13Z</time>
      </trkpt>
      <trkpt lat="39.895744" lon="116.647408">
        <time>2021-06-03T12:30:18Z</time>
      </trkpt>
      <trkpt lat="39.895705" lon="116.647603">
        <time>2021-06-03T12:30:23Z</time>
      </trkpt>
      <trkpt lat="39.8957" lon="116.647928">
        <time>2021-06-03T12:30:28Z</time>
      </trkpt>
      <trkpt lat="39.895697" lon="116.648014">
        <time>2021-06-03T12:30:33Z</time>
      </trkpt>
      <trkpt lat="39.895633" lon="116.64817">
        <time>2021-06-03T12:30:38Z</time>
      </trkpt>
      <trkpt lat="39.895625" lon="116.648338">
        <time>2021-06-03T12:30:43Z</time>
      </trkpt>
      <trkpt lat="39.895602" lon="116.648499">
        <time>2021-06-03T12:30:48Z</time>
      </trkpt>
      <trkpt lat="39.895708" lon="116.648534">
        <time>2021-06-03T12:30:53Z</time>
      </trkpt>
      <trkpt lat="39.895795" lon="116.648356">
        <time>2021-06-03T12:30:58Z</time>
      </trkpt>
      <trkpt lat="39.89586" lon="116.648172">
        <time>2021-06-03T12:31:03Z</time>
      </trkpt>
      <trkpt lat="39.895906" lon="116.648053">
        <time>2021-06-03T12:31:08Z</time>
      </trkpt>
      <trkpt lat="39.895936" lon="116.647854">
        <time>2021-06-03T12:31:13Z</time>
      </trkpt>
      <trkpt lat="39.895955" lon="116.64772">
        <time>2021-06-03T12:31:18Z</time>
      </trkpt>
      <trkpt lat="39.895955" lon="116.647504">
        <time>2021-06-03T12:31:23Z</time>
      </trkpt>
      <trkpt lat="39.895958" lon="116.647343">
        <time>2021-06-03T12:31:28Z</time>
      </trkpt>
      <trkpt lat="39.895955" lon="116.647142">
        <time>2021-06-03T12:31:33Z</time>
      </trkpt>
      <trkpt lat="39.895817" lon="116.647098">
        <time>2021-06-03T12:31:38Z</time>
      </trkpt>
      <trkpt lat="39.89575" lon="116.647262">
        <time>2021-06-03T12:31:43Z</time>
      </trkpt>
      <trkpt lat="39.895762" lon="116.647442">
        <time>2021-06-03T12:31:48Z</time>
      </trkpt>
      <trkpt lat="39.895719" lon="116.647579">
        <time>2021-06-03T12:31:53Z</time>
      </trkpt>
      <trkpt lat="39.895706" lon="116.647771">
        <time>2021-06-03T12:31:58Z</time>
      </trkpt>
      <trkpt lat="39.895667" lon="116.648004">
        <time>2021-06-03T12:32:03Z</time>
      </trkpt>
      <trkpt lat="39.895641" lon="116.648137">
        <time>2021-06-03T12:32:08Z</time>
      </trkpt>
      <trkpt lat="39.895596" lon="116.648303">
        <time>2021-06-03T12:32:13Z</time>
      </trkpt>
      <trkpt lat="39.895587" lon="116.648484">
        <time>2021-06-03T12:32:18Z</time>
      </trkpt>
      <trkpt lat="39.895671" lon="116.648526">
        <time>2021-06-03T12:32:23Z</time>
      </trkpt>
      <trkpt lat="39.895786" lon="116.648368">
        <time>2021-06-03T12:32:28Z</time>
      </trkpt>
      <trkpt lat="39.895814" lon="116.648253">
        <time>2021-06-03T12:32:33Z</time>
      </trkpt>
      <trkpt lat="39.895869" lon="116.648139">
        <time>2021-06-03T12:32:38Z</time>
      </trkpt>
      <trkpt lat="39.89592" lon="116.647967">
        <time>2021-06-03T12:32:43Z</time>
      </trkpt>
      <trkpt lat="39.89592" lon="116.647846">
        <time>2021-06-03T12:32:48Z</time>
      </trkpt>
      <trkpt lat="39.895931" lon="116.647656">
        <time>2021-06-03T12:32:53Z</time>
      </trkpt>
      <trkpt lat="39.895931" lon="116.647478">
        <time>2021-06-03T12:32:58Z</time>
      </trkpt>
      <trkpt lat="39.895935" lon="116.647297">
        <time>2021-06-03T12:33:03Z</time>
      </trkpt>
      <trkpt lat="39.895887" lon="116.647122">
        <time>2021-06-03T12:33:08Z</time>
      </trkpt>
      <trkpt lat="39.895818" lon="116.64713">
        <time>2021-06-03T12:33:13Z</time>
      </trkpt>
      <trkpt lat="39.895708" lon="116.647309">
        <time>2021-06-03T12:33:18Z</time>
      </trkpt>
      <trkpt lat="39.895726" lon="116.647513">
        <time>2021-06-03T12:33:23Z</time>
      </trkpt>
      <trkpt lat="39.895698" lon="116.64768">
        <time>2021-06-03T12:33:28Z</time>
      </trkpt>
      <trkpt lat="39.895654" lon="116.647961">
        <time>2021-06-03T12:33:33Z</time>
      </trkpt>
      <trkpt lat="39.895655" lon="116.648069">
        <time>2021-06-03T12:33:38Z</time>
      </trkpt>
      <trkpt lat="39.895655" lon="116.648239">
        <time>2021-06-03T12:33:43Z</time>
      </trkpt>
      <trkpt lat="39.895649" lon="116.648407">
        <time>2021-06-03T12:33:48Z</time>
      </trkpt>
      <trkpt lat="39.895651" lon="116.648583">
        <time>2021-06-03T12:33:53Z</time>
      </trkpt>
      <trkpt lat="39.895644" lon="116.648761">
        <time>2021-06-03T12:33:58Z</time>
      </trkpt>
      <trkpt lat="39.895612" lon="116.648926">
        <time>2021-06-03T12:34:03Z</time>
      </trkpt>
      <trkpt lat="39.89557" lon="116.649058">
        <time>2021-06-03T12:34:08Z</time>
      </trkpt>
      <trkpt lat="39.895482" lon="116.649219">
        <time>2021-06-03T12:34:13Z</time>
      </trkpt>
      <trkpt lat="39.895366" lon="116.649168">
        <time>2021-06-03T12:34:18Z</time>
      </trkpt>
      <trkpt lat="39.895248" lon="116.649074">
        <time>2021-06-03T12:34:23Z</time>
      </trkpt>
      <trkpt lat="39.895144" lon="116.649002">
        <time>2021-06-03T12:34:28Z</time>
      </trkpt>
      <trkpt lat="39.89507" lon="116.648933">
        <time>2021-06-03T12:34:33Z</time>
      </trkpt>
      <trkpt lat="39.894935" lon="116.648837">
        <time>2021-06-03T12:34:38Z</time>
      </trkpt>
      <trkpt lat="39.894899" lon="116.648829">
        <time>2021-06-03T12:34:43Z</time>
      </trkpt>
      <trkpt lat="39.894815" lon="116.648768">
        <time>2021-06-03T12:34:48Z</time>
      </trkpt>
      <trkpt lat="39.894661" lon="116.648749">
        <time>2021-06-03T12:34:53Z</time>
      </trkpt>
      <trkpt lat="39.894571" lon="116.648781">
        <time>2021-06-03T12:34:58Z</time>
      </trkpt>
      <trkpt lat="39.894433" lon="116.648698">
        <time>2021-06-03T12:35:03Z</time>
      </trkpt>
      <trkpt lat="39.894335" lon="116.648588">
        <time>2021-06-03T12:35:08Z</time>
      </trkpt>
      <trkpt lat="39.894231" lon="116.648526">
        <time>2021-06-03T12:35:13Z</time>
      </trkpt>
      <trkpt lat="39.894118" lon="116.648442">
        <time>2021-06-03T12:35:18Z</time>
      </trkpt>
      <trkpt lat="39.894013" lon="116.648423">
        <time>2021-06-03T12:35:23Z</time>
      </trkpt>
      <trkpt lat="39.893957" lon="116.648359">
        <time>2021-06-03T12:35:28Z</time>
      </trkpt>
      <trkpt lat="39.893862" lon="116.648268">
        <time>2021-06-03T12:35:33Z</time>
      </trkpt>
      <trkpt lat="39.893706" lon="116.648183">
        <time>2021-06-03T12:35:38Z</time>
      </trkpt>
      <trkpt lat="39.893617" lon="116.648137">
        <time>2021-06-03T12:35:43Z</time>
      </trkpt>
      <trkpt lat="39.893499" lon="116.648062">
        <time>2021-06-03T12:35:48Z</time>
      </trkpt>
      <trkpt lat="39.893374" lon="116.648048">
        <time>2021-06-03T12:35:53Z</time>
      </trkpt>
      <trkpt lat="39.893245" lon="116.64806">
        <time>2021-06-03T12:35:58Z</time>
      </trkpt>
      <trkpt lat="39.893107" lon="116.648046">
        <time>2021-06-03T12:36:03Z</time>
      </trkpt>
      <trkpt lat="39.892954" lon="116.648025">
        <time>2021-06-03T12:36:08Z</time>
      </trkpt>
      <trkpt lat="39.89282" lon="116.648005">
        <time>2021-06-03T12:36:13Z</time>
      </trkpt>
      <trkpt lat="39.892687" lon="116.647997">
        <time>2021-06-03T12:36:18Z</time>
      </trkpt>
      <trkpt lat="39.892564" lon="116.648002">
        <time>2021-06-03T12:36:23Z</time>
      </trkpt>
      <trkpt lat="39.892524" lon="116.64788">
        <time>2021-06-03T12:36:28Z</time>
      </trkpt>
      <trkpt lat="39.892545" lon="116.647603">
        <time>2021-06-03T12:36:33Z</time>
      </trkpt>
      <trkpt lat="39.892572" lon="116.647384">
        <time>2021-06-03T12:36:38Z</time>
      </trkpt>
      <trkpt lat="39.892589" lon="116.647164">
        <time>2021-06-03T12:36:43Z</time>
      </trkpt>
      <trkpt lat="39.892612" lon="116.64697">
        <time>2021-06-03T12:36:48Z</time>
      </trkpt>
      <trkpt lat="39.892618" lon="116.646801">
        <time>2021-06-03T12:36:53Z</time>
      </trkpt>
      <trkpt lat="39.892623" lon="116.646636">
        <time>2021-06-03T12:36:58Z</time>
      </trkpt>
      <trkpt lat="39.892614" lon="116.646459">
        <time>2021-06-03T12:37:03Z</time>
      </trkpt>
      <trkpt lat="39.892602" lon="116.646346">
        <time>2021-06-03T12:37:08Z</time>
      </trkpt>
      <trkpt lat="39.892615" lon="116.646274">
        <time>2021-06-03T12:37:13Z</time>
      </trkpt>
      <trkpt lat="39.89264" lon="116.646202">
        <time>2021-06-03T12:37:18Z</time>
      </trkpt>
      <trkpt lat="39.892652" lon="116.646091">
        <time>2021-06-03T12:37:23Z</time>
      </trkpt>
      <trkpt lat="39.892678" lon="116.645953">
        <time>2021-06-03T12:37:28Z</time>
      </trkpt>
      <trkpt lat="39.892668" lon="116.645813">
        <time>2021-06-03T12:37:33Z</time>
      </trkpt>
      <trkpt lat="39.89257" lon="116.645719">
        <time>2021-06-03T12:37:38Z</time>
      </trkpt>
      <trkpt lat="39.892434" lon="116.645688">
        <time>2021-06-03T12:37:43Z</time>
      </trkpt>
      <trkpt lat="39.892262" lon="116.645606">
        <time>2021-06-03T12:37:48Z</time>
      </trkpt>
      <trkpt lat="39.892184" lon="116.645569">
        <time>2021-06-03T12:37:53Z</time>
      </trkpt>
      <trkpt lat="39.892082" lon="116.645528">
        <time>2021-06-03T12:37:58Z</time>
      </trkpt>
      <trkpt lat="39.891975" lon="116.645488">
        <time>2021-06-03T12:38:03Z</time>
      </trkpt>
      <trkpt lat="39.89182" lon="116.645357">
        <time>2021-06-03T12:38:08Z</time>
      </trkpt>
      <trkpt lat="39.891681" lon="116.645351">
        <time>2021-06-03T12:38:13Z</time>
      </trkpt>
      <trkpt lat="39.891591" lon="116.64533">
        <time>2021-06-03T12:38:18Z</time>
      </trkpt>
      <trkpt lat="39.89152" lon="116.645321">
        <time>2021-06-03T12:38:23Z</time>
      </trkpt>
      <trkpt lat="39.891602" lon="116.645467">
        <time>2021-06-03T12:38:28Z</time>
      </trkpt>
      <trkpt lat="39.89176" lon="116.645509">
        <time>2021-06-03T12:38:33Z</time>
      </trkpt>
      <trkpt lat="39.891884" lon="116.645619">
        <time>2021-06-03T12:38:38Z</time>
      </trkpt>
      <trkpt lat="39.892008" lon="116.645679">
        <time>2021-06-03T12:38:43Z</time>
      </trkpt>
      <trkpt lat="39.892133" lon="116.645727">
        <time>2021-06-03T12:38:48Z</time>
      </trkpt>
      <trkpt lat="39.892237" lon="116.645761">
        <time>2021-06-03T12:38:53Z</time>
      </trkpt>
      <trkpt lat="39.892355" lon="116.645813">
        <time>2021-06-03T12:38:58Z</time>
      </trkpt>
      <trkpt lat="39.892496" lon="116.645884">
        <time>2021-06-03T12:39:03Z</time>
      </trkpt>
      <trkpt lat="39.892587" lon="116.645958">
        <time>2021-06-03T12:39:08Z</time>
      </trkpt>
      <trkpt lat="39.892638" lon="116.646105">
        <time>2021-06-03T12:39:13Z</time>
      </trkpt>
      <trkpt lat="39.892623" lon="116.646269">
        <time>2021-06-03T12:39:18Z</time>
      </trkpt>
      <trkpt lat="39.892606" lon="116.646482">
        <time>2021-06-03T12:39:23Z</time>
      </trkpt>
      <trkpt lat="39.892593" lon="116.646633">
        <time>2021-06-03T12:39:28Z</time>
      </trkpt>
      <trkpt lat="39.892577" lon="116.646863">
        <time>2021-06-03T12:39:33Z</time>
      </trkpt>
      <trkpt lat="39.892564" lon="116.64704">
        <time>2021-06-03T12:39:38Z</time>
      </trkpt>
      <trkpt lat="39.892549" lon="116.647174">
        <time>2021-06-03T12:39:43Z</time>
      </trkpt>
      <trkpt lat="39.892545" lon="116.647353">
        <time>2021-06-03T12:39:48Z</time>
      </trkpt>
      <trkpt lat="39.89252" lon="116.647524">
        <time>2021-06-03T12:39:53Z</time>
      </trkpt>
      <trkpt lat="39.892497" lon="116.647633">
        <time>2021-06-03T12:39:58Z</time>
      </trkpt>
      <trkpt lat="39.892486" lon="116.647739">
        <time>2021-06-03T12:40:03Z</time>
      </trkpt>
      <trkpt lat="39.892503" lon="116.647805">
        <time>2021-06-03T12:40:08Z</time>
      </trkpt>
      <trkpt lat="39.892514" lon="116.647874">
        <time>2021-06-03T12:40:13Z</time>
      </trkpt>
      <trkpt lat="39.892526" lon="116.647968">
        <time>2021-06-03T12:40:18Z</time>
      </trkpt>
      <trkpt lat="39.892595" lon="116.647993">
        <time>2021-06-03T12:40:23Z</time>
      </trkpt>
      <trkpt lat="39.892708" lon="116.647978">
        <time>2021-06-03T12:40:28Z</time>
      </trkpt>
      <trkpt lat="39.892843" lon="116.647988">
        <time>2021-06-03T12:40:33Z</time>
      </trkpt>
      <trkpt lat="39.892999" lon="116.647998">
        <time>2021-06-03T12:40:38Z</time>
      </trkpt>
      <trkpt lat="39.89317" lon="116.648018">
        <time>2021-06-03T12:40:43Z</time>
      </trkpt>
      <trkpt lat="39.893303" lon="116.648018">
        <time>2021-06-03T12:40:48Z</time>
      </trkpt>
      <trkpt lat="39.893457" lon="116.648039">
        <time>2021-06-03T12:40:53Z</time>
      </trkpt>
      <trkpt lat="39.893567" lon="116.648115">
        <time>2021-06-03T12:40:58Z</time>
      </trkpt>
      <trkpt lat="39.893648" lon="116.648146">
        <time>2021-06-03T12:41:03Z</time>
      </trkpt>
      <trkpt lat="39.893688" lon="116.648193">
        <time>2021-06-03T12:41:08Z</time>
      </trkpt>
      <trkpt lat="39.893759" lon="116.648254">
        <time>2021-06-03T12:41:13Z</time>
      </trkpt>
      <trkpt lat="39.893865" lon="116.648293">
        <time>2021-06-03T12:41:18Z</time>
      </trkpt>
      <trkpt lat="39.894111" lon="116.648378">
        <time>2021-06-03T12:41:23Z</time>
      </trkpt>
      <trkpt lat="39.894165" lon="116.648399">
        <time>2021-06-03T12:41:28Z</time>
      </trkpt>
      <trkpt lat="39.894303" lon="116.648499">
        <time>2021-06-03T12:41:33Z</time>
      </trkpt>
      <trkpt lat="39.894363" lon="116.64859">
        <time>2021-06-03T12:41:38Z</time>
      </trkpt>
      <trkpt lat="39.894406" lon="116.648601">
        <time>2021-06-03T12:41:43Z</time>
      </trkpt>
      <trkpt lat="39.894442" lon="116.648646">
        <time>2021-06-03T12:41:48Z</time>
      </trkpt>
      <trkpt lat="39.894583" lon="116.648757">
        <time>2021-06-03T12:41:53Z</time>
      </trkpt>
      <trkpt lat="39.894772" lon="116.648813">
        <time>2021-06-03T12:41:58Z</time>
      </trkpt>
      <trkpt lat="39.894937" lon="116.648932">
        <time>2021-06-03T12:42:03Z</time>
      </trkpt>
      <trkpt lat="39.895045" lon="116.648962">
        <time>2021-06-03T12:42:08Z</time>
      </trkpt>
      <trkpt lat="39.895094" lon="116.648976">
        <time>2021-06-03T12:42:13Z</time>
      </trkpt>
      <trkpt lat="39.89521" lon="116.648989">
        <time>2021-06-03T12:42:18Z</time>
      </trkpt>
      <trkpt lat="39.895354" lon="116.64905">
        <time>2021-06-03T12:42:23Z</time>
      </trkpt>
      <trkpt lat="39.895537" lon="116.64909">
        <time>2021-06-03T12:42:28Z</time>
      </trkpt>
      <trkpt lat="39.89562" lon="116.648997">
        <time>2021-06-03T12:42:33Z</time>
      </trkpt>
      <trkpt lat="39.895645" lon="116.648827">
        <time>2021-06-03T12:42:38Z</time>
      </trkpt>
      <trkpt lat="39.895688" lon="116.64863">
        <time>2021-06-03T12:42:43Z</time>
      </trkpt>
      <trkpt lat="39.895664" lon="116.648535">
        <time>2021-06-03T12:42:48Z</time>
      </trkpt>
      <trkpt lat="39.895739" lon="116.648363">
        <time>2021-06-03T12:42:53Z</time>
      </trkpt>
      <trkpt lat="39.895789" lon="116.648255">
        <time>2021-06-03T12:42:58Z</time>
      </trkpt>
      <trkpt lat="39.895887" lon="116.64804">
        <time>2021-06-03T12:43:03Z</time>
      </trkpt>
      <trkpt lat="39.895941" lon="116.647919">
        <time>2021-06-03T12:43:08Z</time>
      </trkpt>
      <trkpt lat="39.895957" lon="116.647752">
        <time>2021-06-03T12:43:13Z</time>
      </trkpt>
      <trkpt lat="39.89597" lon="116.647596">
        <time>2021-06-03T12:43:18Z</time>
      </trkpt>
      <trkpt lat="39.895968" lon="116.647468">
        <time>2021-06-03T12:43:23Z</time>
      </trkpt>
      <trkpt lat="39.895984" lon="116.647257">
        <time>2021-06-03T12:43:28Z</time>
      </trkpt>
      <trkpt lat="39.89598" lon="116.647042">
        <time>2021-06-03T12:43:33Z</time>
      </trkpt>
      <trkpt lat="39.895963" lon="116.646893">
        <time>2021-06-03T12:43:38Z</time>
      </trkpt>
      <trkpt lat="39.896001" lon="116.646781">
        <time>2021-06-03T12:43:43Z</time>
      </trkpt>
      <trkpt lat="39.896055" lon="116.646694">
        <time>2021-06-03T12:43:48Z</time>
      </trkpt>
      <trkpt lat="39.896046" lon="116.646529">
        <time>2021-06-03T12:43:53Z</time>
      </trkpt>
      <trkpt lat="39.896046" lon="116.646415">
        <time>2021-06-03T12:43:58Z</time>
      </trkpt>
      <trkpt lat="39.896069" lon="116.646191">
        <time>2021-06-03T12:44:03Z</time>
      </trkpt>
      <trkpt lat="39.896084" lon="116.646036">
        <time>2021-06-03T12:44:08Z</time>
      </trkpt>
      <trkpt lat="39.896104" lon="116.64584">
        <time>2021-06-03T12:44:13Z</time>
      </trkpt>
      <trkpt lat="39.896113" lon="116.645691">
        <time>2021-06-03T12:44:18Z</time>
      </trkpt>
      <trkpt lat="39.896112" lon="116.645546">
        <time>2021-06-03T12:44:23Z</time>
      </trkpt>
      <trkpt lat="39.896119" lon="116.645467">
        <time>2021-06-03T12:44:28Z</time>
      </trkpt>
      <trkpt lat="39.896151" lon="116.645348">
        <time>2021-06-03T12:44:33Z</time>
      </trkpt>
      <trkpt lat="39.896154" lon="116.645238">
        <time>2021-06-03T12:44:38Z</time>
      </trkpt>
      <trkpt lat="39.896186" lon="116.645031">
        <time>2021-06-03T12:44:43Z</time>
      </trkpt>
      <trkpt lat="39.896178" lon="116.644969">
        <time>2021-06-03T12:44:48Z</time>
      </trkpt>
      <trkpt lat="39.896172" lon="116.644811">
        <time>2021-06-03T12:44:53Z</time>
      </trkpt>
      <trkpt lat="39.896178" lon="116.644608">
        <time>2021-06-03T12:44:58Z</time>
      </trkpt>
      <trkpt lat="39.89619" lon="116.644485">
        <time>2021-06-03T12:45:03Z</time>
      </trkpt>
      <trkpt lat="39.896195" lon="116.644304">
        <time>2021-06-03T12:45:08Z</time>
      </trkpt>
      <trkpt lat="39.896198" lon="116.644121">
        <time>2021-06-03T12:45:13Z</time>
      </trkpt>
      <trkpt lat="39.8962" lon="116.644044">
        <time>2021-06-03T12:45:18Z</time>
      </trkpt>
      <trkpt lat="39.8962" lon="116.643869">
        <time>2021-06-03T12:45:23Z</time>
      </trkpt>
      <trkpt lat="39.896194" lon="116.643658">
        <time>2021-06-03T12:45:28Z</time>
      </trkpt>
      <trkpt lat="39.896182" lon="116.643495">
        <time>2021-06-03T12:45:33Z</time>
      </trkpt>
      <trkpt lat="39.896163" lon="116.643361">
        <time>2021-06-03T12:45:38Z</time>
      </trkpt>
      <trkpt lat="39.896195" lon="116.64317">
        <time>2021-06-03T12:45:43Z</time>
      </trkpt>
      <trkpt lat="39.896214" lon="116.642974">
        <time>2021-06-03T12:45:48Z</time>
      </trkpt>
      <trkpt lat="39.896224" lon="116.642845">
        <time>2021-06-03T12:45:53Z</time>
      </trkpt>
      <trkpt lat="39.896232" lon="116.642708">
        <time>2021-06-03T12:45:58Z</time>
      </trkpt>
      <trkpt lat="39.896231" lon="116.642627">
        <time>2021-06-03T12:46:03Z</time>
      </trkpt>
      <trkpt lat="39.896214" lon="116.642542">
        <time>2021-06-03T12:46:08Z</time>
      </trkpt>
      <trkpt lat="39.896215" lon="116.64244">
        <time>2021-06-03T12:46:13Z</time>
      </trkpt>
      <trkpt lat="39.89622" lon="116.642312">
        <time>2021-06-03T12:46:18Z</time>
      </trkpt>
      <trkpt lat="39.896212" lon="116.642211">
        <time>2021-06-03T12:46:23Z</time>
      </trkpt>
      <trkpt lat="39.896225" lon="116.642027">
        <time>2021-06-03T12:46:28Z</time>
      </trkpt>
      <trkpt lat="39.896248" lon="116.641821">
        <time>2021-06-03T12:46:33Z</time>
      </trkpt>
      <trkpt lat="39.896244" lon="116.641754">
        <time>2021-06-03T12:46:38Z</time>
      </trkpt>
      <trkpt lat="39.896231" lon="116.64158">
        <time>2021-06-03T12:46:43Z</time>
      </trkpt>
      <trkpt lat="39.89624" lon="116.641433">
        <time>2021-06-03T12:46:48Z</time>
      </trkpt>
      <trkpt lat="39.896245" lon="116.641324">
        <time>2021-06-03T12:46:53Z</time>
      </trkpt>
      <trkpt lat="39.896248" lon="116.641114">
        <time>2021-06-03T12:46:58Z</time>
      </trkpt>
      <trkpt lat="39.896251" lon="116.641005">
        <time>2021-06-03T12:47:03Z</time>
      </trkpt>
      <trkpt lat="39.89628" lon="116.640851">
        <time>2021-06-03T12:47:08Z</time>
      </trkpt>
      <trkpt lat="39.896281" lon="116.640651">
        <time>2021-06-03T12:47:13Z</time>
      </trkpt>
      <trkpt lat="39.896288" lon="116.640491">
        <time>2021-06-03T12:47:18Z</time>
      </trkpt>
      <trkpt lat="39.896301" lon="116.640193">
        <time>2021-06-03T12:47:23Z</time>
      </trkpt>
      <trkpt lat="39.896304" lon="116.640157">
        <time>2021-06-03T12:47:28Z</time>
      </trkpt>
      <trkpt lat="39.896301" lon="116.640025">
        <time>2021-06-03T12:47:33Z</time>
      </trkpt>
      <trkpt lat="39.896276" lon="116.639803">
        <time>2021-06-03T12:47:38Z</time>
      </trkpt>
      <trkpt lat="39.89627" lon="116.639709">
        <time>2021-06-03T12:47:43Z</time>
      </trkpt>
      <trkpt lat="39.896284" lon="116.639524">
        <time>2021-06-03T12:47:48Z</time>
      </trkpt>
      <trkpt lat="39.896297" lon="116.639372">
        <time>2021-06-03T12:47:53Z</time>
      </trkpt>
      <trkpt lat="39.896276" lon="116.639242">
        <time>2021-06-03T12:47:58Z</time>
      </trkpt>
      <trkpt lat="39.896247" lon="116.639031">
        <time>2021-06-03T12:48:03Z</time>
      </trkpt>
      <trkpt lat="39.896234" lon="116.638839">
        <time>2021-06-03T12:48:08Z</time>
      </trkpt>
      <trkpt lat="39.896227" lon="116.63865">
        <time>2021-06-03T12:48:13Z</time>
      </trkpt>
      <trkpt lat="39.896227" lon="116.638508">
        <time>2021-06-03T12:48:18Z</time>
      </trkpt>
      <trkpt lat="39.896221" lon="116.638277">
        <time>2021-06-03T12:48:23Z</time>
      </trkpt>
      <trkpt lat="39.896219" lon="116.638087">
        <time>2021-06-03T12:48:28Z</time>
      </trkpt>
      <trkpt lat="39.896207" lon="116.637952">
        <time>2021-06-03T12:48:33Z</time>
      </trkpt>
      <trkpt lat="39.896188" lon="116.637728">
        <time>2021-06-03T12:48:38Z</time>
      </trkpt>
      <trkpt lat="39.896186" lon="116.637549">
        <time>2021-06-03T12:48:43Z</time>
      </trkpt>
      <trkpt lat="39.896175" lon="116.637449">
        <time>2021-06-03T12:48:48Z</time>
      </trkpt>
      <trkpt lat="39.896165" lon="116.637389">
        <time>2021-06-03T12:48:53Z</time>
      </trkpt>
      <trkpt lat="39.89615" lon="116.637312">
        <time>2021-06-03T12:48:58Z</time>
      </trkpt>
      <trkpt lat="39.89614" lon="116.637228">
        <time>2021-06-03T12:49:03Z</time>
      </trkpt>
      <trkpt lat="39.896141" lon="116.637123">
        <time>2021-06-03T12:49:08Z</time>
      </trkpt>
      <trkpt lat="39.896133" lon="116.636995">
        <time>2021-06-03T12:49:13Z</time>
      </trkpt>
      <trkpt lat="39.896065" lon="116.636731">
        <time>2021-06-03T12:49:18Z</time>
      </trkpt>
      <trkpt lat="39.896038" lon="116.636668">
        <time>2021-06-03T12:49:23Z</time>
      </trkpt>
      <trkpt lat="39.895969" lon="116.6366">
        <time>2021-06-03T12:49:28Z</time>
      </trkpt>
      <trkpt lat="39.895882" lon="116.636457">
        <time>2021-06-03T12:49:33Z</time>
      </trkpt>
      <trkpt lat="39.895964" lon="116.636324">
        <time>2021-06-03T12:49:38Z</time>
      </trkpt>
      <trkpt lat="39.896066" lon="116.636257">
        <time>2021-06-03T12:49:43Z</time>
      </trkpt>
      <trkpt lat="39.896241" lon="116.636168">
        <time>2021-06-03T12:49:48Z</time>
      </trkpt>
      <trkpt lat="39.896392" lon="116.636112">
        <time>2021-06-03T12:49:53Z</time>
      </trkpt>
      <trkpt lat="39.896504" lon="116.636005">
        <time>2021-06-03T12:49:58Z</time>
      </trkpt>
      <trkpt lat="39.896663" lon="116.635885">
        <time>2021-06-03T12:50:03Z</time>
      </trkpt>
      <trkpt lat="39.896772" lon="116.635807">
        <time>2021-06-03T12:50:08Z</time>
      </trkpt>
      <trkpt lat="39.896926" lon="116.635742">
        <time>2021-06-03T12:50:13Z</time>
      </trkpt>
      <trkpt lat="39.897066" lon="116.635691">
        <time>2021-06-03T12:50:18Z</time>
      </trkpt>
      <trkpt lat="39.897182" lon="116.635634">
        <time>2021-06-03T12:50:23Z</time>
      </trkpt>
      <trkpt lat="39.897305" lon="116.635535">
        <time>2021-06-03T12:50:28Z</time>
      </trkpt>
      <trkpt lat="39.897366" lon="116.635471">
        <time>2021-06-03T12:50:33Z</time>
      </trkpt>
      <trkpt lat="39.897405" lon="116.63541">
        <time>2021-06-03T12:50:38Z</time>
      </trkpt>
      <trkpt lat="39.89745" lon="116.635365">
        <time>2021-06-03T12:50:43Z</time>
      </trkpt>
      <trkpt lat="39.897547" lon="116.635312">
        <time>2021-06-03T12:50:48Z</time>
      </trkpt>
      <trkpt lat="39.897631" lon="116.635311">
        <time>2021-06-03T12:50:53Z</time>
      </trkpt>
      <trkpt lat="39.897665" lon="116.635277">
        <time>2021-06-03T12:50:58Z</time>
      </trkpt>
      <trkpt lat="39.897703" lon="116.635233">
        <time>2021-06-03T12:51:03Z</time>
      </trkpt>
      <trkpt lat="39.897798" lon="116.635162">
        <time>2021-06-03T12:51:08Z</time>
      </trkpt>
      <trkpt lat="39.89783" lon="116.635148">
        <time>2021-06-03T12:51:13Z</time>
      </trkpt>
      <trkpt lat="39.897915" lon="116.635106">
        <time>2021-06-03T12:51:18Z</time>
      </trkpt>
      <trkpt lat="39.897979" lon="116.635077">
        <time>2021-06-03T12:51:23Z</time>
      </trkpt>
      <trkpt lat="39.898069" lon="116.635012">
        <time>2021-06-03T12:51:28Z</time>
      </trkpt>
      <trkpt lat="39.898166" lon="116.634931">
        <time>2021-06-03T12:51:33Z</time>
      </trkpt>
      <trkpt lat="39.898189" lon="116.634922">
        <time>2021-06-03T12:51:38Z</time>
      </trkpt>
      <trkpt lat="39.898165" lon="116.634944">
        <time>2021-06-03T12:51:43Z</time>
      </trkpt>
      <trkpt lat="39.898155" lon="116.634942">
        <time>2021-06-03T12:51:48Z</time>
      </trkpt>
      <trkpt lat="39.898139" lon="116.634942">
        <time>2021-06-03T12:51:53Z</time>
      </trkpt>
      <trkpt lat="39.898134" lon="116.634929">
        <time>2021-06-03T12:51:58Z</time>
      </trkpt>
      <trkpt lat="39.898137" lon="116.634932">
        <time>2021-06-03T12:52:03Z</time>
      </trkpt>
      <trkpt lat="39.898135" lon="116.634934">
        <time>2021-06-03T12:52:08Z</time>
      </trkpt>
      <trkpt lat="39.898116" lon="116.63492">
        <time>2021-06-03T12:52:13Z</time>
      </trkpt>
      <trkpt lat="39.898086" lon="116.634828">
        <time>2021-06-03T12:52:18Z</time>
      </trkpt>
      <trkpt lat="39.898023" lon="116.634688">
        <time>2021-06-03T12:52:23Z</time>
      </trkpt>
      <trkpt lat="39.897965" lon="116.634545">
        <time>2021-06-03T12:52:28Z</time>
      </trkpt>
      <trkpt lat="39.897908" lon="116.63441">
        <time>2021-06-03T12:52:33Z</time>
      </trkpt>
      <trkpt lat="39.897828" lon="116.634299">
        <time>2021-06-03T12:52:38Z</time>
      </trkpt>
      <trkpt lat="39.897759" lon="116.634165">
        <time>2021-06-03T12:52:43Z</time>
      </trkpt>
      <trkpt lat="39.8977" lon="116.63401">
        <time>2021-06-03T12:52:48Z</time>
      </trkpt>
      <trkpt lat="39.89765" lon="116.63384">
        <time>2021-06-03T12:52:53Z</time>
      </trkpt>
      <trkpt lat="39.897576" lon="116.633666">
        <time>2021-06-03T12:52:58Z</time>
      </trkpt>
      <trkpt lat="39.897491" lon="116.633582">
        <time>2021-06-03T12:53:03Z</time>
      </trkpt>
      <trkpt lat="39.897422" lon="116.63359">
        <time>2021-06-03T12:53:08Z</time>
      </trkpt>
      <trkpt lat="39.897399" lon="116.633743">
        <time>2021-06-03T12:53:13Z</time>
      </trkpt>
      <trkpt lat="39.897351" lon="116.63403">
        <time>2021-06-03T12:53:18Z</time>
      </trkpt>
      <trkpt lat="39.897348" lon="116.634121">
        <time>2021-06-03T12:53:23Z</time>
      </trkpt>
      <trkpt lat="39.897392" lon="116.634241">
        <time>2021-06-03T12:53:33Z</time>
      </trkpt>
    </trkseg>
  </trk>
</gpx>