<?xml version="1.0" encoding="UTF-8"?>
<gpx xmlns="http://www.topografix.com/GPX/1/1" xmlns:gpxtpx="http://www.garmin.com/xmlschemas/TrackPointExtension/v1" xmlns:xsi="http://www.w3.org/2001/XMLSchema-instance" xsi:schemaLocation="http://www.topografix.com/GPX/1/1 http://www.topografix.com/GPX/1/1/gpx.xsd" version="1.1" creator="gpx.py -- https://github.com/tkrajina/gpxpy">
  <trk>
    <name>gpx from keep</name>
    <trkseg>
      <trkpt lat="39.898872" lon="116.646533">
        <time>2021-06-06T12:29:06Z</time>
      </trkpt>
      <trkpt lat="39.898872" lon="116.646533">
        <time>2021-06-06T12:29:11Z</time>
      </trkpt>
      <trkpt lat="39.898872" lon="116.646533">
        <time>2021-06-06T12:29:16Z</time>
      </trkpt>
      <trkpt lat="39.898872" lon="116.646533">
        <time>2021-06-06T12:29:21Z</time>
      </trkpt>
      <trkpt lat="39.898775" lon="116.646228">
        <time>2021-06-06T12:29:26Z</time>
      </trkpt>
      <trkpt lat="39.898739" lon="116.646101">
        <time>2021-06-06T12:29:31Z</time>
      </trkpt>
      <trkpt lat="39.898697" lon="116.646025">
        <time>2021-06-06T12:29:36Z</time>
      </trkpt>
      <trkpt lat="39.898558" lon="116.645815">
        <time>2021-06-06T12:29:41Z</time>
      </trkpt>
      <trkpt lat="39.898552" lon="116.64562">
        <time>2021-06-06T12:29:46Z</time>
      </trkpt>
      <trkpt lat="39.898546" lon="116.645477">
        <time>2021-06-06T12:29:51Z</time>
      </trkpt>
      <trkpt lat="39.898528" lon="116.645319">
        <time>2021-06-06T12:29:56Z</time>
      </trkpt>
      <trkpt lat="39.898509" lon="116.645182">
        <time>2021-06-06T12:30:01Z</time>
      </trkpt>
      <trkpt lat="39.898518" lon="116.645009">
        <time>2021-06-06T12:30:06Z</time>
      </trkpt>
      <trkpt lat="39.898486" lon="116.644819">
        <time>2021-06-06T12:30:11Z</time>
      </trkpt>
      <trkpt lat="39.898472" lon="116.644631">
        <time>2021-06-06T12:30:16Z</time>
      </trkpt>
      <trkpt lat="39.898438" lon="116.644441">
        <time>2021-06-06T12:30:21Z</time>
      </trkpt>
      <trkpt lat="39.898442" lon="116.644255">
        <time>2021-06-06T12:30:26Z</time>
      </trkpt>
      <trkpt lat="39.898431" lon="116.644062">
        <time>2021-06-06T12:30:31Z</time>
      </trkpt>
      <trkpt lat="39.898413" lon="116.643864">
        <time>2021-06-06T12:30:36Z</time>
      </trkpt>
      <trkpt lat="39.89835" lon="116.643679">
        <time>2021-06-06T12:30:41Z</time>
      </trkpt>
      <trkpt lat="39.898316" lon="116.643488">
        <time>2021-06-06T12:30:46Z</time>
      </trkpt>
      <trkpt lat="39.898278" lon="116.643112">
        <time>2021-06-06T12:30:51Z</time>
      </trkpt>
      <trkpt lat="39.898276" lon="116.643077">
        <time>2021-06-06T12:30:56Z</time>
      </trkpt>
      <trkpt lat="39.898277" lon="116.642883">
        <time>2021-06-06T12:31:01Z</time>
      </trkpt>
      <trkpt lat="39.898284" lon="116.64261">
        <time>2021-06-06T12:31:06Z</time>
      </trkpt>
      <trkpt lat="39.898331" lon="116.642467">
        <time>2021-06-06T12:31:11Z</time>
      </trkpt>
      <trkpt lat="39.898359" lon="116.642155">
        <time>2021-06-06T12:31:16Z</time>
      </trkpt>
      <trkpt lat="39.89835" lon="116.64212">
        <time>2021-06-06T12:31:21Z</time>
      </trkpt>
      <trkpt lat="39.898352" lon="116.641946">
        <time>2021-06-06T12:31:26Z</time>
      </trkpt>
      <trkpt lat="39.898406" lon="116.641789">
        <time>2021-06-06T12:31:31Z</time>
      </trkpt>
      <trkpt lat="39.898467" lon="116.64163">
        <time>2021-06-06T12:31:36Z</time>
      </trkpt>
      <trkpt lat="39.898512" lon="116.641458">
        <time>2021-06-06T12:31:41Z</time>
      </trkpt>
      <trkpt lat="39.898414" lon="116.641347">
        <time>2021-06-06T12:31:46Z</time>
      </trkpt>
      <trkpt lat="39.898301" lon="116.641372">
        <time>2021-06-06T12:31:51Z</time>
      </trkpt>
      <trkpt lat="39.898215" lon="116.641323">
        <time>2021-06-06T12:31:56Z</time>
      </trkpt>
      <trkpt lat="39.898185" lon="116.641311">
        <time>2021-06-06T12:32:01Z</time>
      </trkpt>
      <trkpt lat="39.898117" lon="116.6413">
        <time>2021-06-06T12:32:06Z</time>
      </trkpt>
      <trkpt lat="39.898066" lon="116.641286">
        <time>2021-06-06T12:32:11Z</time>
      </trkpt>
      <trkpt lat="39.897997" lon="116.641273">
        <time>2021-06-06T12:32:16Z</time>
      </trkpt>
      <trkpt lat="39.897964" lon="116.641255">
        <time>2021-06-06T12:32:21Z</time>
      </trkpt>
      <trkpt lat="39.897877" lon="116.64121">
        <time>2021-06-06T12:32:26Z</time>
      </trkpt>
      <trkpt lat="39.897761" lon="116.641128">
        <time>2021-06-06T12:32:31Z</time>
      </trkpt>
      <trkpt lat="39.897646" lon="116.641078">
        <time>2021-06-06T12:32:36Z</time>
      </trkpt>
      <trkpt lat="39.897563" lon="116.641032">
        <time>2021-06-06T12:32:41Z</time>
      </trkpt>
      <trkpt lat="39.897449" lon="116.640975">
        <time>2021-06-06T12:32:46Z</time>
      </trkpt>
      <trkpt lat="39.897324" lon="116.640945">
        <time>2021-06-06T12:32:51Z</time>
      </trkpt>
      <trkpt lat="39.89722" lon="116.640887">
        <time>2021-06-06T12:32:56Z</time>
      </trkpt>
      <trkpt lat="39.897093" lon="116.640778">
        <time>2021-06-06T12:33:01Z</time>
      </trkpt>
      <trkpt lat="39.896976" lon="116.640705">
        <time>2021-06-06T12:33:06Z</time>
      </trkpt>
      <trkpt lat="39.896842" lon="116.640645">
        <time>2021-06-06T12:33:11Z</time>
      </trkpt>
      <trkpt lat="39.89672" lon="116.640566">
        <time>2021-06-06T12:33:16Z</time>
      </trkpt>
      <trkpt lat="39.896584" lon="116.640483">
        <time>2021-06-06T12:33:21Z</time>
      </trkpt>
      <trkpt lat="39.896469" lon="116.640418">
        <time>2021-06-06T12:33:26Z</time>
      </trkpt>
      <trkpt lat="39.896346" lon="116.640382">
        <time>2021-06-06T12:33:31Z</time>
      </trkpt>
      <trkpt lat="39.896235" lon="116.640449">
        <time>2021-06-06T12:33:36Z</time>
      </trkpt>
      <trkpt lat="39.896215" lon="116.640624">
        <time>2021-06-06T12:33:41Z</time>
      </trkpt>
      <trkpt lat="39.896231" lon="116.640802">
        <time>2021-06-06T12:33:46Z</time>
      </trkpt>
      <trkpt lat="39.896212" lon="116.641006">
        <time>2021-06-06T12:33:51Z</time>
      </trkpt>
      <trkpt lat="39.896226" lon="116.641191">
        <time>2021-06-06T12:33:56Z</time>
      </trkpt>
      <trkpt lat="39.896206" lon="116.641373">
        <time>2021-06-06T12:34:01Z</time>
      </trkpt>
      <trkpt lat="39.896201" lon="116.641582">
        <time>2021-06-06T12:34:06Z</time>
      </trkpt>
      <trkpt lat="39.896222" lon="116.641724">
        <time>2021-06-06T12:34:11Z</time>
      </trkpt>
      <trkpt lat="39.896216" lon="116.641887">
        <time>2021-06-06T12:34:16Z</time>
      </trkpt>
      <trkpt lat="39.896197" lon="116.642177">
        <time>2021-06-06T12:34:21Z</time>
      </trkpt>
      <trkpt lat="39.896195" lon="116.642212">
        <time>2021-06-06T12:34:26Z</time>
      </trkpt>
      <trkpt lat="39.896178" lon="116.642384">
        <time>2021-06-06T12:34:31Z</time>
      </trkpt>
      <trkpt lat="39.896178" lon="116.642535">
        <time>2021-06-06T12:34:36Z</time>
      </trkpt>
      <trkpt lat="39.896178" lon="116.642612">
        <time>2021-06-06T12:34:41Z</time>
      </trkpt>
      <trkpt lat="39.896182" lon="116.642718">
        <time>2021-06-06T12:34:46Z</time>
      </trkpt>
      <trkpt lat="39.896189" lon="116.642874">
        <time>2021-06-06T12:34:51Z</time>
      </trkpt>
      <trkpt lat="39.896197" lon="116.642894">
        <time>2021-06-06T12:34:56Z</time>
      </trkpt>
      <trkpt lat="39.896215" lon="116.642921">
        <time>2021-06-06T12:35:01Z</time>
      </trkpt>
      <trkpt lat="39.896216" lon="116.643009">
        <time>2021-06-06T12:35:06Z</time>
      </trkpt>
      <trkpt lat="39.896198" lon="116.643086">
        <time>2021-06-06T12:35:11Z</time>
      </trkpt>
      <trkpt lat="39.89618" lon="116.643162">
        <time>2021-06-06T12:35:16Z</time>
      </trkpt>
      <trkpt lat="39.896175" lon="116.643336">
        <time>2021-06-06T12:35:21Z</time>
      </trkpt>
      <trkpt lat="39.896174" lon="116.643351">
        <time>2021-06-06T12:35:26Z</time>
      </trkpt>
      <trkpt lat="39.896191" lon="116.64341">
        <time>2021-06-06T12:35:31Z</time>
      </trkpt>
      <trkpt lat="39.896183" lon="116.643471">
        <time>2021-06-06T12:35:36Z</time>
      </trkpt>
      <trkpt lat="39.896167" lon="116.643647">
        <time>2021-06-06T12:35:41Z</time>
      </trkpt>
      <trkpt lat="39.896168" lon="116.643852">
        <time>2021-06-06T12:35:46Z</time>
      </trkpt>
      <trkpt lat="39.896171" lon="116.644019">
        <time>2021-06-06T12:35:51Z</time>
      </trkpt>
      <trkpt lat="39.896178" lon="116.644205">
        <time>2021-06-06T12:35:56Z</time>
      </trkpt>
      <trkpt lat="39.896177" lon="116.644369">
        <time>2021-06-06T12:36:01Z</time>
      </trkpt>
      <trkpt lat="39.89618" lon="116.64456">
        <time>2021-06-06T12:36:06Z</time>
      </trkpt>
      <trkpt lat="39.896203" lon="116.644641">
        <time>2021-06-06T12:36:11Z</time>
      </trkpt>
      <trkpt lat="39.896188" lon="116.644792">
        <time>2021-06-06T12:36:16Z</time>
      </trkpt>
      <trkpt lat="39.896176" lon="116.64497">
        <time>2021-06-06T12:36:21Z</time>
      </trkpt>
      <trkpt lat="39.89615" lon="116.645107">
        <time>2021-06-06T12:36:26Z</time>
      </trkpt>
      <trkpt lat="39.896142" lon="116.645269">
        <time>2021-06-06T12:36:31Z</time>
      </trkpt>
      <trkpt lat="39.896156" lon="116.645378">
        <time>2021-06-06T12:36:36Z</time>
      </trkpt>
      <trkpt lat="39.896151" lon="116.645533">
        <time>2021-06-06T12:36:41Z</time>
      </trkpt>
      <trkpt lat="39.896125" lon="116.645678">
        <time>2021-06-06T12:36:46Z</time>
      </trkpt>
      <trkpt lat="39.896119" lon="116.645868">
        <time>2021-06-06T12:36:51Z</time>
      </trkpt>
      <trkpt lat="39.896094" lon="116.646044">
        <time>2021-06-06T12:36:56Z</time>
      </trkpt>
      <trkpt lat="39.896068" lon="116.646214">
        <time>2021-06-06T12:37:01Z</time>
      </trkpt>
      <trkpt lat="39.896054" lon="116.646397">
        <time>2021-06-06T12:37:06Z</time>
      </trkpt>
      <trkpt lat="39.896042" lon="116.64656">
        <time>2021-06-06T12:37:11Z</time>
      </trkpt>
      <trkpt lat="39.896036" lon="116.646709">
        <time>2021-06-06T12:37:16Z</time>
      </trkpt>
      <trkpt lat="39.896013" lon="116.646841">
        <time>2021-06-06T12:37:21Z</time>
      </trkpt>
      <trkpt lat="39.895991" lon="116.646952">
        <time>2021-06-06T12:37:26Z</time>
      </trkpt>
      <trkpt lat="39.895984" lon="116.647022">
        <time>2021-06-06T12:37:31Z</time>
      </trkpt>
      <trkpt lat="39.895967" lon="116.647091">
        <time>2021-06-06T12:37:36Z</time>
      </trkpt>
      <trkpt lat="39.895925" lon="116.647166">
        <time>2021-06-06T12:37:41Z</time>
      </trkpt>
      <trkpt lat="39.895836" lon="116.647186">
        <time>2021-06-06T12:37:46Z</time>
      </trkpt>
      <trkpt lat="39.895773" lon="116.647298">
        <time>2021-06-06T12:37:51Z</time>
      </trkpt>
      <trkpt lat="39.895723" lon="116.647459">
        <time>2021-06-06T12:37:56Z</time>
      </trkpt>
      <trkpt lat="39.895708" lon="116.647633">
        <time>2021-06-06T12:38:01Z</time>
      </trkpt>
      <trkpt lat="39.895714" lon="116.647778">
        <time>2021-06-06T12:38:06Z</time>
      </trkpt>
      <trkpt lat="39.895715" lon="116.647949">
        <time>2021-06-06T12:38:11Z</time>
      </trkpt>
      <trkpt lat="39.89571" lon="116.648108">
        <time>2021-06-06T12:38:16Z</time>
      </trkpt>
      <trkpt lat="39.895715" lon="116.648261">
        <time>2021-06-06T12:38:21Z</time>
      </trkpt>
      <trkpt lat="39.895715" lon="116.648396">
        <time>2021-06-06T12:38:26Z</time>
      </trkpt>
      <trkpt lat="39.895698" lon="116.648527">
        <time>2021-06-06T12:38:31Z</time>
      </trkpt>
      <trkpt lat="39.895795" lon="116.648515">
        <time>2021-06-06T12:38:36Z</time>
      </trkpt>
      <trkpt lat="39.895875" lon="116.648383">
        <time>2021-06-06T12:38:41Z</time>
      </trkpt>
      <trkpt lat="39.89589" lon="116.648191">
        <time>2021-06-06T12:38:46Z</time>
      </trkpt>
      <trkpt lat="39.895946" lon="116.648022">
        <time>2021-06-06T12:38:51Z</time>
      </trkpt>
      <trkpt lat="39.895961" lon="116.647865">
        <time>2021-06-06T12:38:56Z</time>
      </trkpt>
      <trkpt lat="39.895964" lon="116.647684">
        <time>2021-06-06T12:39:01Z</time>
      </trkpt>
      <trkpt lat="39.895992" lon="116.647522">
        <time>2021-06-06T12:39:06Z</time>
      </trkpt>
      <trkpt lat="39.89601" lon="116.647355">
        <time>2021-06-06T12:39:11Z</time>
      </trkpt>
      <trkpt lat="39.895984" lon="116.647169">
        <time>2021-06-06T12:39:16Z</time>
      </trkpt>
      <trkpt lat="39.89587" lon="116.647118">
        <time>2021-06-06T12:39:21Z</time>
      </trkpt>
      <trkpt lat="39.89579" lon="116.647256">
        <time>2021-06-06T12:39:26Z</time>
      </trkpt>
      <trkpt lat="39.895744" lon="116.647428">
        <time>2021-06-06T12:39:31Z</time>
      </trkpt>
      <trkpt lat="39.89573" lon="116.647607">
        <time>2021-06-06T12:39:36Z</time>
      </trkpt>
      <trkpt lat="39.895736" lon="116.647797">
        <time>2021-06-06T12:39:41Z</time>
      </trkpt>
      <trkpt lat="39.895727" lon="116.647974">
        <time>2021-06-06T12:39:46Z</time>
      </trkpt>
      <trkpt lat="39.895712" lon="116.648116">
        <time>2021-06-06T12:39:51Z</time>
      </trkpt>
      <trkpt lat="39.895682" lon="116.648246">
        <time>2021-06-06T12:39:56Z</time>
      </trkpt>
      <trkpt lat="39.895668" lon="116.648403">
        <time>2021-06-06T12:40:01Z</time>
      </trkpt>
      <trkpt lat="39.895742" lon="116.648508">
        <time>2021-06-06T12:40:06Z</time>
      </trkpt>
      <trkpt lat="39.895825" lon="116.648375">
        <time>2021-06-06T12:40:11Z</time>
      </trkpt>
      <trkpt lat="39.895856" lon="116.648202">
        <time>2021-06-06T12:40:16Z</time>
      </trkpt>
      <trkpt lat="39.895903" lon="116.648034">
        <time>2021-06-06T12:40:21Z</time>
      </trkpt>
      <trkpt lat="39.895914" lon="116.647844">
        <time>2021-06-06T12:40:26Z</time>
      </trkpt>
      <trkpt lat="39.89593" lon="116.647676">
        <time>2021-06-06T12:40:31Z</time>
      </trkpt>
      <trkpt lat="39.895969" lon="116.647538">
        <time>2021-06-06T12:40:36Z</time>
      </trkpt>
      <trkpt lat="39.896028" lon="116.647411">
        <time>2021-06-06T12:40:41Z</time>
      </trkpt>
      <trkpt lat="39.895981" lon="116.647232">
        <time>2021-06-06T12:40:46Z</time>
      </trkpt>
      <trkpt lat="39.895891" lon="116.647187">
        <time>2021-06-06T12:40:51Z</time>
      </trkpt>
      <trkpt lat="39.895816" lon="116.647312">
        <time>2021-06-06T12:40:56Z</time>
      </trkpt>
      <trkpt lat="39.895774" lon="116.647457">
        <time>2021-06-06T12:41:01Z</time>
      </trkpt>
      <trkpt lat="39.895743" lon="116.647622">
        <time>2021-06-06T12:41:06Z</time>
      </trkpt>
      <trkpt lat="39.895728" lon="116.647809">
        <time>2021-06-06T12:41:11Z</time>
      </trkpt>
      <trkpt lat="39.89571" lon="116.647985">
        <time>2021-06-06T12:41:16Z</time>
      </trkpt>
      <trkpt lat="39.895704" lon="116.648151">
        <time>2021-06-06T12:41:21Z</time>
      </trkpt>
      <trkpt lat="39.895697" lon="116.648293">
        <time>2021-06-06T12:41:26Z</time>
      </trkpt>
      <trkpt lat="39.895713" lon="116.648462">
        <time>2021-06-06T12:41:31Z</time>
      </trkpt>
      <trkpt lat="39.895697" lon="116.648613">
        <time>2021-06-06T12:41:36Z</time>
      </trkpt>
      <trkpt lat="39.895712" lon="116.648792">
        <time>2021-06-06T12:41:41Z</time>
      </trkpt>
      <trkpt lat="39.895682" lon="116.648963">
        <time>2021-06-06T12:41:46Z</time>
      </trkpt>
      <trkpt lat="39.89561" lon="116.649094">
        <time>2021-06-06T12:41:51Z</time>
      </trkpt>
      <trkpt lat="39.895505" lon="116.649148">
        <time>2021-06-06T12:41:56Z</time>
      </trkpt>
      <trkpt lat="39.895377" lon="116.649083">
        <time>2021-06-06T12:42:01Z</time>
      </trkpt>
      <trkpt lat="39.895246" lon="116.649024">
        <time>2021-06-06T12:42:06Z</time>
      </trkpt>
      <trkpt lat="39.895123" lon="116.648951">
        <time>2021-06-06T12:42:11Z</time>
      </trkpt>
      <trkpt lat="39.895" lon="116.648874">
        <time>2021-06-06T12:42:16Z</time>
      </trkpt>
      <trkpt lat="39.894955" lon="116.648854">
        <time>2021-06-06T12:42:21Z</time>
      </trkpt>
      <trkpt lat="39.894895" lon="116.648806">
        <time>2021-06-06T12:42:26Z</time>
      </trkpt>
      <trkpt lat="39.894812" lon="116.648737">
        <time>2021-06-06T12:42:31Z</time>
      </trkpt>
      <trkpt lat="39.894682" lon="116.64869">
        <time>2021-06-06T12:42:36Z</time>
      </trkpt>
      <trkpt lat="39.894524" lon="116.648634">
        <time>2021-06-06T12:42:41Z</time>
      </trkpt>
      <trkpt lat="39.89438" lon="116.648613">
        <time>2021-06-06T12:42:46Z</time>
      </trkpt>
      <trkpt lat="39.894276" lon="116.64854">
        <time>2021-06-06T12:42:51Z</time>
      </trkpt>
      <trkpt lat="39.894179" lon="116.648435">
        <time>2021-06-06T12:42:56Z</time>
      </trkpt>
      <trkpt lat="39.894084" lon="116.648367">
        <time>2021-06-06T12:43:01Z</time>
      </trkpt>
      <trkpt lat="39.893986" lon="116.648322">
        <time>2021-06-06T12:43:06Z</time>
      </trkpt>
      <trkpt lat="39.893745" lon="116.648131">
        <time>2021-06-06T12:43:11Z</time>
      </trkpt>
      <trkpt lat="39.893657" lon="116.648112">
        <time>2021-06-06T12:43:16Z</time>
      </trkpt>
      <trkpt lat="39.893572" lon="116.648079">
        <time>2021-06-06T12:43:21Z</time>
      </trkpt>
      <trkpt lat="39.893529" lon="116.648056">
        <time>2021-06-06T12:43:26Z</time>
      </trkpt>
      <trkpt lat="39.893416" lon="116.648029">
        <time>2021-06-06T12:43:31Z</time>
      </trkpt>
      <trkpt lat="39.893287" lon="116.648046">
        <time>2021-06-06T12:43:36Z</time>
      </trkpt>
      <trkpt lat="39.893154" lon="116.648049">
        <time>2021-06-06T12:43:41Z</time>
      </trkpt>
      <trkpt lat="39.893059" lon="116.648049">
        <time>2021-06-06T12:43:46Z</time>
      </trkpt>
      <trkpt lat="39.892984" lon="116.648043">
        <time>2021-06-06T12:43:51Z</time>
      </trkpt>
      <trkpt lat="39.892889" lon="116.64804">
        <time>2021-06-06T12:43:56Z</time>
      </trkpt>
      <trkpt lat="39.892813" lon="116.648046">
        <time>2021-06-06T12:44:01Z</time>
      </trkpt>
      <trkpt lat="39.892697" lon="116.648058">
        <time>2021-06-06T12:44:06Z</time>
      </trkpt>
      <trkpt lat="39.892684" lon="116.64805">
        <time>2021-06-06T12:44:11Z</time>
      </trkpt>
      <trkpt lat="39.892653" lon="116.648002">
        <time>2021-06-06T12:44:16Z</time>
      </trkpt>
      <trkpt lat="39.892613" lon="116.647899">
        <time>2021-06-06T12:44:21Z</time>
      </trkpt>
      <trkpt lat="39.892646" lon="116.647681">
        <time>2021-06-06T12:44:26Z</time>
      </trkpt>
      <trkpt lat="39.892657" lon="116.647511">
        <time>2021-06-06T12:44:31Z</time>
      </trkpt>
      <trkpt lat="39.892675" lon="116.647327">
        <time>2021-06-06T12:44:36Z</time>
      </trkpt>
      <trkpt lat="39.892679" lon="116.647158">
        <time>2021-06-06T12:44:41Z</time>
      </trkpt>
      <trkpt lat="39.892671" lon="116.646993">
        <time>2021-06-06T12:44:46Z</time>
      </trkpt>
      <trkpt lat="39.892668" lon="116.646821">
        <time>2021-06-06T12:44:51Z</time>
      </trkpt>
      <trkpt lat="39.89268" lon="116.646663">
        <time>2021-06-06T12:44:56Z</time>
      </trkpt>
      <trkpt lat="39.892683" lon="116.646483">
        <time>2021-06-06T12:45:01Z</time>
      </trkpt>
      <trkpt lat="39.892674" lon="116.646345">
        <time>2021-06-06T12:45:06Z</time>
      </trkpt>
      <trkpt lat="39.892674" lon="116.646206">
        <time>2021-06-06T12:45:11Z</time>
      </trkpt>
      <trkpt lat="39.892683" lon="116.646022">
        <time>2021-06-06T12:45:16Z</time>
      </trkpt>
      <trkpt lat="39.892664" lon="116.645841">
        <time>2021-06-06T12:45:21Z</time>
      </trkpt>
      <trkpt lat="39.892583" lon="116.645703">
        <time>2021-06-06T12:45:26Z</time>
      </trkpt>
      <trkpt lat="39.892467" lon="116.645657">
        <time>2021-06-06T12:45:31Z</time>
      </trkpt>
      <trkpt lat="39.892326" lon="116.645621">
        <time>2021-06-06T12:45:36Z</time>
      </trkpt>
      <trkpt lat="39.892184" lon="116.645594">
        <time>2021-06-06T12:45:41Z</time>
      </trkpt>
      <trkpt lat="39.892026" lon="116.645558">
        <time>2021-06-06T12:45:46Z</time>
      </trkpt>
      <trkpt lat="39.891891" lon="116.645517">
        <time>2021-06-06T12:45:51Z</time>
      </trkpt>
      <trkpt lat="39.891776" lon="116.645426">
        <time>2021-06-06T12:45:56Z</time>
      </trkpt>
      <trkpt lat="39.891717" lon="116.645398">
        <time>2021-06-06T12:46:01Z</time>
      </trkpt>
      <trkpt lat="39.891671" lon="116.645385">
        <time>2021-06-06T12:46:06Z</time>
      </trkpt>
      <trkpt lat="39.891602" lon="116.645335">
        <time>2021-06-06T12:46:11Z</time>
      </trkpt>
      <trkpt lat="39.891542" lon="116.645309">
        <time>2021-06-06T12:46:16Z</time>
      </trkpt>
      <trkpt lat="39.891511" lon="116.645372">
        <time>2021-06-06T12:46:21Z</time>
      </trkpt>
      <trkpt lat="39.891571" lon="116.64542">
        <time>2021-06-06T12:46:26Z</time>
      </trkpt>
      <trkpt lat="39.891657" lon="116.645456">
        <time>2021-06-06T12:46:31Z</time>
      </trkpt>
      <trkpt lat="39.891734" lon="116.645485">
        <time>2021-06-06T12:46:36Z</time>
      </trkpt>
      <trkpt lat="39.891819" lon="116.645515">
        <time>2021-06-06T12:46:41Z</time>
      </trkpt>
      <trkpt lat="39.891875" lon="116.645543">
        <time>2021-06-06T12:46:46Z</time>
      </trkpt>
      <trkpt lat="39.891927" lon="116.645569">
        <time>2021-06-06T12:46:51Z</time>
      </trkpt>
      <trkpt lat="39.892018" lon="116.645601">
        <time>2021-06-06T12:46:56Z</time>
      </trkpt>
      <trkpt lat="39.892102" lon="116.645673">
        <time>2021-06-06T12:47:01Z</time>
      </trkpt>
      <trkpt lat="39.892192" lon="116.645724">
        <time>2021-06-06T12:47:06Z</time>
      </trkpt>
      <trkpt lat="39.892281" lon="116.645787">
        <time>2021-06-06T12:47:11Z</time>
      </trkpt>
      <trkpt lat="39.892385" lon="116.645849">
        <time>2021-06-06T12:47:16Z</time>
      </trkpt>
      <trkpt lat="39.892503" lon="116.645879">
        <time>2021-06-06T12:47:21Z</time>
      </trkpt>
      <trkpt lat="39.892614" lon="116.645931">
        <time>2021-06-06T12:47:26Z</time>
      </trkpt>
      <trkpt lat="39.892631" lon="116.646248">
        <time>2021-06-06T12:47:31Z</time>
      </trkpt>
      <trkpt lat="39.892626" lon="116.646279">
        <time>2021-06-06T12:47:36Z</time>
      </trkpt>
      <trkpt lat="39.892614" lon="116.646447">
        <time>2021-06-06T12:47:41Z</time>
      </trkpt>
      <trkpt lat="39.892609" lon="116.64661">
        <time>2021-06-06T12:47:46Z</time>
      </trkpt>
      <trkpt lat="39.892621" lon="116.64681">
        <time>2021-06-06T12:47:51Z</time>
      </trkpt>
      <trkpt lat="39.892621" lon="116.647015">
        <time>2021-06-06T12:47:56Z</time>
      </trkpt>
      <trkpt lat="39.892605" lon="116.647233">
        <time>2021-06-06T12:48:01Z</time>
      </trkpt>
      <trkpt lat="39.892592" lon="116.647408">
        <time>2021-06-06T12:48:06Z</time>
      </trkpt>
      <trkpt lat="39.892595" lon="116.64755">
        <time>2021-06-06T12:48:11Z</time>
      </trkpt>
      <trkpt lat="39.892559" lon="116.647683">
        <time>2021-06-06T12:48:16Z</time>
      </trkpt>
      <trkpt lat="39.892521" lon="116.647832">
        <time>2021-06-06T12:48:21Z</time>
      </trkpt>
      <trkpt lat="39.8925" lon="116.647997">
        <time>2021-06-06T12:48:26Z</time>
      </trkpt>
      <trkpt lat="39.892572" lon="116.648083">
        <time>2021-06-06T12:48:31Z</time>
      </trkpt>
      <trkpt lat="39.892738" lon="116.64805">
        <time>2021-06-06T12:48:36Z</time>
      </trkpt>
      <trkpt lat="39.892838" lon="116.648063">
        <time>2021-06-06T12:48:41Z</time>
      </trkpt>
      <trkpt lat="39.892997" lon="116.648054">
        <time>2021-06-06T12:48:46Z</time>
      </trkpt>
      <trkpt lat="39.893194" lon="116.648067">
        <time>2021-06-06T12:48:51Z</time>
      </trkpt>
      <trkpt lat="39.893328" lon="116.648072">
        <time>2021-06-06T12:48:56Z</time>
      </trkpt>
      <trkpt lat="39.893434" lon="116.648089">
        <time>2021-06-06T12:49:01Z</time>
      </trkpt>
      <trkpt lat="39.893543" lon="116.648085">
        <time>2021-06-06T12:49:06Z</time>
      </trkpt>
      <trkpt lat="39.893659" lon="116.648109">
        <time>2021-06-06T12:49:11Z</time>
      </trkpt>
      <trkpt lat="39.893708" lon="116.64815">
        <time>2021-06-06T12:49:16Z</time>
      </trkpt>
      <trkpt lat="39.893741" lon="116.648175">
        <time>2021-06-06T12:49:21Z</time>
      </trkpt>
      <trkpt lat="39.893727" lon="116.648191">
        <time>2021-06-06T12:49:26Z</time>
      </trkpt>
      <trkpt lat="39.893743" lon="116.648218">
        <time>2021-06-06T12:49:31Z</time>
      </trkpt>
      <trkpt lat="39.893782" lon="116.648253">
        <time>2021-06-06T12:49:36Z</time>
      </trkpt>
      <trkpt lat="39.893868" lon="116.648268">
        <time>2021-06-06T12:49:41Z</time>
      </trkpt>
      <trkpt lat="39.893941" lon="116.648322">
        <time>2021-06-06T12:49:46Z</time>
      </trkpt>
      <trkpt lat="39.894054" lon="116.648353">
        <time>2021-06-06T12:49:51Z</time>
      </trkpt>
      <trkpt lat="39.894138" lon="116.6484">
        <time>2021-06-06T12:49:56Z</time>
      </trkpt>
      <trkpt lat="39.894174" lon="116.64844">
        <time>2021-06-06T12:50:01Z</time>
      </trkpt>
      <trkpt lat="39.894263" lon="116.648499">
        <time>2021-06-06T12:50:06Z</time>
      </trkpt>
      <trkpt lat="39.894415" lon="116.64856">
        <time>2021-06-06T12:50:11Z</time>
      </trkpt>
      <trkpt lat="39.894527" lon="116.648557">
        <time>2021-06-06T12:50:16Z</time>
      </trkpt>
      <trkpt lat="39.89467" lon="116.648675">
        <time>2021-06-06T12:50:21Z</time>
      </trkpt>
      <trkpt lat="39.894839" lon="116.64874">
        <time>2021-06-06T12:50:26Z</time>
      </trkpt>
      <trkpt lat="39.894945" lon="116.648796">
        <time>2021-06-06T12:50:31Z</time>
      </trkpt>
      <trkpt lat="39.895082" lon="116.648897">
        <time>2021-06-06T12:50:36Z</time>
      </trkpt>
      <trkpt lat="39.895178" lon="116.648961">
        <time>2021-06-06T12:50:41Z</time>
      </trkpt>
      <trkpt lat="39.895289" lon="116.649035">
        <time>2021-06-06T12:50:46Z</time>
      </trkpt>
      <trkpt lat="39.895401" lon="116.649069">
        <time>2021-06-06T12:50:51Z</time>
      </trkpt>
      <trkpt lat="39.895501" lon="116.649093">
        <time>2021-06-06T12:50:56Z</time>
      </trkpt>
      <trkpt lat="39.895625" lon="116.649075">
        <time>2021-06-06T12:51:01Z</time>
      </trkpt>
      <trkpt lat="39.895702" lon="116.648959">
        <time>2021-06-06T12:51:06Z</time>
      </trkpt>
      <trkpt lat="39.89576" lon="116.648809">
        <time>2021-06-06T12:51:11Z</time>
      </trkpt>
      <trkpt lat="39.895798" lon="116.648636">
        <time>2021-06-06T12:51:16Z</time>
      </trkpt>
      <trkpt lat="39.895863" lon="116.648519">
        <time>2021-06-06T12:51:21Z</time>
      </trkpt>
      <trkpt lat="39.895878" lon="116.648358">
        <time>2021-06-06T12:51:26Z</time>
      </trkpt>
      <trkpt lat="39.895883" lon="116.648193">
        <time>2021-06-06T12:51:31Z</time>
      </trkpt>
      <trkpt lat="39.895927" lon="116.648049">
        <time>2021-06-06T12:51:36Z</time>
      </trkpt>
      <trkpt lat="39.895951" lon="116.647891">
        <time>2021-06-06T12:51:41Z</time>
      </trkpt>
      <trkpt lat="39.895938" lon="116.64771">
        <time>2021-06-06T12:51:46Z</time>
      </trkpt>
      <trkpt lat="39.895936" lon="116.647553">
        <time>2021-06-06T12:51:51Z</time>
      </trkpt>
      <trkpt lat="39.895998" lon="116.647406">
        <time>2021-06-06T12:51:56Z</time>
      </trkpt>
      <trkpt lat="39.895999" lon="116.64725">
        <time>2021-06-06T12:52:01Z</time>
      </trkpt>
      <trkpt lat="39.895984" lon="116.647112">
        <time>2021-06-06T12:52:06Z</time>
      </trkpt>
      <trkpt lat="39.896019" lon="116.646962">
        <time>2021-06-06T12:52:11Z</time>
      </trkpt>
      <trkpt lat="39.896049" lon="116.646804">
        <time>2021-06-06T12:52:16Z</time>
      </trkpt>
      <trkpt lat="39.896066" lon="116.646695">
        <time>2021-06-06T12:52:21Z</time>
      </trkpt>
      <trkpt lat="39.896081" lon="116.646536">
        <time>2021-06-06T12:52:26Z</time>
      </trkpt>
      <trkpt lat="39.896069" lon="116.646356">
        <time>2021-06-06T12:52:31Z</time>
      </trkpt>
      <trkpt lat="39.896098" lon="116.646213">
        <time>2021-06-06T12:52:36Z</time>
      </trkpt>
      <trkpt lat="39.896109" lon="116.646046">
        <time>2021-06-06T12:52:41Z</time>
      </trkpt>
      <trkpt lat="39.89614" lon="116.645875">
        <time>2021-06-06T12:52:46Z</time>
      </trkpt>
      <trkpt lat="39.896135" lon="116.64569">
        <time>2021-06-06T12:52:51Z</time>
      </trkpt>
      <trkpt lat="39.896126" lon="116.645497">
        <time>2021-06-06T12:52:56Z</time>
      </trkpt>
      <trkpt lat="39.896159" lon="116.64531">
        <time>2021-06-06T12:53:01Z</time>
      </trkpt>
      <trkpt lat="39.896209" lon="116.645201">
        <time>2021-06-06T12:53:06Z</time>
      </trkpt>
      <trkpt lat="39.896222" lon="116.645124">
        <time>2021-06-06T12:53:11Z</time>
      </trkpt>
      <trkpt lat="39.896232" lon="116.645063">
        <time>2021-06-06T12:53:16Z</time>
      </trkpt>
      <trkpt lat="39.896229" lon="116.644948">
        <time>2021-06-06T12:53:21Z</time>
      </trkpt>
      <trkpt lat="39.89624" lon="116.644798">
        <time>2021-06-06T12:53:26Z</time>
      </trkpt>
      <trkpt lat="39.896233" lon="116.644645">
        <time>2021-06-06T12:53:31Z</time>
      </trkpt>
      <trkpt lat="39.896212" lon="116.644468">
        <time>2021-06-06T12:53:36Z</time>
      </trkpt>
      <trkpt lat="39.896219" lon="116.644311">
        <time>2021-06-06T12:53:41Z</time>
      </trkpt>
      <trkpt lat="39.896225" lon="116.644143">
        <time>2021-06-06T12:53:46Z</time>
      </trkpt>
      <trkpt lat="39.896209" lon="116.643963">
        <time>2021-06-06T12:53:51Z</time>
      </trkpt>
      <trkpt lat="39.896222" lon="116.643803">
        <time>2021-06-06T12:53:56Z</time>
      </trkpt>
      <trkpt lat="39.89622" lon="116.643688">
        <time>2021-06-06T12:54:01Z</time>
      </trkpt>
      <trkpt lat="39.896225" lon="116.643543">
        <time>2021-06-06T12:54:06Z</time>
      </trkpt>
      <trkpt lat="39.896223" lon="116.643367">
        <time>2021-06-06T12:54:11Z</time>
      </trkpt>
      <trkpt lat="39.896199" lon="116.643182">
        <time>2021-06-06T12:54:16Z</time>
      </trkpt>
      <trkpt lat="39.896194" lon="116.643026">
        <time>2021-06-06T12:54:21Z</time>
      </trkpt>
      <trkpt lat="39.896199" lon="116.642883">
        <time>2021-06-06T12:54:26Z</time>
      </trkpt>
      <trkpt lat="39.896201" lon="116.642816">
        <time>2021-06-06T12:54:31Z</time>
      </trkpt>
      <trkpt lat="39.896206" lon="116.64272">
        <time>2021-06-06T12:54:36Z</time>
      </trkpt>
      <trkpt lat="39.896208" lon="116.642623">
        <time>2021-06-06T12:54:41Z</time>
      </trkpt>
      <trkpt lat="39.896223" lon="116.642548">
        <time>2021-06-06T12:54:46Z</time>
      </trkpt>
      <trkpt lat="39.896226" lon="116.64243">
        <time>2021-06-06T12:54:51Z</time>
      </trkpt>
      <trkpt lat="39.896215" lon="116.642367">
        <time>2021-06-06T12:54:56Z</time>
      </trkpt>
      <trkpt lat="39.896222" lon="116.64226">
        <time>2021-06-06T12:55:01Z</time>
      </trkpt>
      <trkpt lat="39.896244" lon="116.64214">
        <time>2021-06-06T12:55:06Z</time>
      </trkpt>
      <trkpt lat="39.896249" lon="116.641974">
        <time>2021-06-06T12:55:11Z</time>
      </trkpt>
      <trkpt lat="39.896252" lon="116.641788">
        <time>2021-06-06T12:55:16Z</time>
      </trkpt>
      <trkpt lat="39.896252" lon="116.641688">
        <time>2021-06-06T12:55:21Z</time>
      </trkpt>
      <trkpt lat="39.896256" lon="116.641534">
        <time>2021-06-06T12:55:26Z</time>
      </trkpt>
      <trkpt lat="39.896252" lon="116.641389">
        <time>2021-06-06T12:55:31Z</time>
      </trkpt>
      <trkpt lat="39.896235" lon="116.641226">
        <time>2021-06-06T12:55:36Z</time>
      </trkpt>
      <trkpt lat="39.896222" lon="116.641043">
        <time>2021-06-06T12:55:41Z</time>
      </trkpt>
      <trkpt lat="39.896239" lon="116.640872">
        <time>2021-06-06T12:55:46Z</time>
      </trkpt>
      <trkpt lat="39.896255" lon="116.640712">
        <time>2021-06-06T12:55:51Z</time>
      </trkpt>
      <trkpt lat="39.896274" lon="116.640549">
        <time>2021-06-06T12:55:56Z</time>
      </trkpt>
      <trkpt lat="39.896287" lon="116.640381">
        <time>2021-06-06T12:56:01Z</time>
      </trkpt>
      <trkpt lat="39.896301" lon="116.640189">
        <time>2021-06-06T12:56:06Z</time>
      </trkpt>
      <trkpt lat="39.896287" lon="116.640009">
        <time>2021-06-06T12:56:11Z</time>
      </trkpt>
      <trkpt lat="39.896305" lon="116.639846">
        <time>2021-06-06T12:56:16Z</time>
      </trkpt>
      <trkpt lat="39.896299" lon="116.639705">
        <time>2021-06-06T12:56:21Z</time>
      </trkpt>
      <trkpt lat="39.896283" lon="116.639618">
        <time>2021-06-06T12:56:26Z</time>
      </trkpt>
      <trkpt lat="39.896281" lon="116.639492">
        <time>2021-06-06T12:56:31Z</time>
      </trkpt>
      <trkpt lat="39.89628" lon="116.639388">
        <time>2021-06-06T12:56:36Z</time>
      </trkpt>
      <trkpt lat="39.896283" lon="116.63932">
        <time>2021-06-06T12:56:41Z</time>
      </trkpt>
      <trkpt lat="39.896274" lon="116.639219">
        <time>2021-06-06T12:56:46Z</time>
      </trkpt>
      <trkpt lat="39.896288" lon="116.639141">
        <time>2021-06-06T12:56:51Z</time>
      </trkpt>
      <trkpt lat="39.896258" lon="116.639047">
        <time>2021-06-06T12:56:56Z</time>
      </trkpt>
      <trkpt lat="39.896238" lon="116.638944">
        <time>2021-06-06T12:57:01Z</time>
      </trkpt>
      <trkpt lat="39.896234" lon="116.638814">
        <time>2021-06-06T12:57:06Z</time>
      </trkpt>
      <trkpt lat="39.896228" lon="116.638654">
        <time>2021-06-06T12:57:11Z</time>
      </trkpt>
      <trkpt lat="39.896204" lon="116.638461">
        <time>2021-06-06T12:57:16Z</time>
      </trkpt>
      <trkpt lat="39.89618" lon="116.63826">
        <time>2021-06-06T12:57:21Z</time>
      </trkpt>
      <trkpt lat="39.89619" lon="116.638087">
        <time>2021-06-06T12:57:26Z</time>
      </trkpt>
      <trkpt lat="39.896181" lon="116.637925">
        <time>2021-06-06T12:57:31Z</time>
      </trkpt>
      <trkpt lat="39.896175" lon="116.63775">
        <time>2021-06-06T12:57:36Z</time>
      </trkpt>
      <trkpt lat="39.896164" lon="116.637563">
        <time>2021-06-06T12:57:41Z</time>
      </trkpt>
      <trkpt lat="39.896154" lon="116.637356">
        <time>2021-06-06T12:57:46Z</time>
      </trkpt>
      <trkpt lat="39.89613" lon="116.637133">
        <time>2021-06-06T12:57:51Z</time>
      </trkpt>
      <trkpt lat="39.896112" lon="116.637006">
        <time>2021-06-06T12:57:56Z</time>
      </trkpt>
      <trkpt lat="39.89608" lon="116.63691">
        <time>2021-06-06T12:58:01Z</time>
      </trkpt>
      <trkpt lat="39.896062" lon="116.636752">
        <time>2021-06-06T12:58:06Z</time>
      </trkpt>
      <trkpt lat="39.896057" lon="116.636734">
        <time>2021-06-06T12:58:11Z</time>
      </trkpt>
      <trkpt lat="39.896017" lon="116.636662">
        <time>2021-06-06T12:58:16Z</time>
      </trkpt>
      <trkpt lat="39.895976" lon="116.636593">
        <time>2021-06-06T12:58:21Z</time>
      </trkpt>
      <trkpt lat="39.895888" lon="116.636499">
        <time>2021-06-06T12:58:26Z</time>
      </trkpt>
      <trkpt lat="39.895827" lon="116.636404">
        <time>2021-06-06T12:58:31Z</time>
      </trkpt>
      <trkpt lat="39.895951" lon="116.63635">
        <time>2021-06-06T12:58:36Z</time>
      </trkpt>
      <trkpt lat="39.89609" lon="116.636264">
        <time>2021-06-06T12:58:41Z</time>
      </trkpt>
      <trkpt lat="39.896194" lon="116.63617">
        <time>2021-06-06T12:58:46Z</time>
      </trkpt>
      <trkpt lat="39.896298" lon="116.636053">
        <time>2021-06-06T12:58:51Z</time>
      </trkpt>
      <trkpt lat="39.89645" lon="116.635985">
        <time>2021-06-06T12:58:56Z</time>
      </trkpt>
      <trkpt lat="39.89661" lon="116.635899">
        <time>2021-06-06T12:59:01Z</time>
      </trkpt>
      <trkpt lat="39.896773" lon="116.635822">
        <time>2021-06-06T12:59:06Z</time>
      </trkpt>
      <trkpt lat="39.896938" lon="116.635755">
        <time>2021-06-06T12:59:11Z</time>
      </trkpt>
      <trkpt lat="39.897097" lon="116.635695">
        <time>2021-06-06T12:59:16Z</time>
      </trkpt>
      <trkpt lat="39.897234" lon="116.635653">
        <time>2021-06-06T12:59:21Z</time>
      </trkpt>
      <trkpt lat="39.897363" lon="116.635549">
        <time>2021-06-06T12:59:26Z</time>
      </trkpt>
      <trkpt lat="39.897465" lon="116.635487">
        <time>2021-06-06T12:59:31Z</time>
      </trkpt>
      <trkpt lat="39.897585" lon="116.635421">
        <time>2021-06-06T12:59:36Z</time>
      </trkpt>
      <trkpt lat="39.897598" lon="116.63541">
        <time>2021-06-06T12:59:41Z</time>
      </trkpt>
      <trkpt lat="39.897658" lon="116.635368">
        <time>2021-06-06T12:59:46Z</time>
      </trkpt>
      <trkpt lat="39.897717" lon="116.635334">
        <time>2021-06-06T12:59:51Z</time>
      </trkpt>
      <trkpt lat="39.897766" lon="116.635316">
        <time>2021-06-06T12:59:56Z</time>
      </trkpt>
      <trkpt lat="39.897848" lon="116.635257">
        <time>2021-06-06T13:00:01Z</time>
      </trkpt>
      <trkpt lat="39.897929" lon="116.635185">
        <time>2021-06-06T13:00:06Z</time>
      </trkpt>
      <trkpt lat="39.897985" lon="116.63514">
        <time>2021-06-06T13:00:11Z</time>
      </trkpt>
      <trkpt lat="39.898068" lon="116.635111">
        <time>2021-06-06T13:00:16Z</time>
      </trkpt>
      <trkpt lat="39.898147" lon="116.635074">
        <time>2021-06-06T13:00:21Z</time>
      </trkpt>
      <trkpt lat="39.89823" lon="116.635014">
        <time>2021-06-06T13:00:26Z</time>
      </trkpt>
      <trkpt lat="39.898325" lon="116.634938">
        <time>2021-06-06T13:00:31Z</time>
      </trkpt>
      <trkpt lat="39.89842" lon="116.634859">
        <time>2021-06-06T13:00:36Z</time>
      </trkpt>
      <trkpt lat="39.898499" lon="116.634803">
        <time>2021-06-06T13:00:41Z</time>
      </trkpt>
      <trkpt lat="39.898609" lon="116.634723">
        <time>2021-06-06T13:00:46Z</time>
      </trkpt>
      <trkpt lat="39.898716" lon="116.634644">
        <time>2021-06-06T13:00:51Z</time>
      </trkpt>
      <trkpt lat="39.89884" lon="116.63458">
        <time>2021-06-06T13:00:56Z</time>
      </trkpt>
      <trkpt lat="39.898956" lon="116.634513">
        <time>2021-06-06T13:01:01Z</time>
      </trkpt>
      <trkpt lat="39.899022" lon="116.634467">
        <time>2021-06-06T13:01:06Z</time>
      </trkpt>
      <trkpt lat="39.899161" lon="116.634387">
        <time>2021-06-06T13:01:11Z</time>
      </trkpt>
      <trkpt lat="39.899306" lon="116.634298">
        <time>2021-06-06T13:01:16Z</time>
      </trkpt>
      <trkpt lat="39.899446" lon="116.634218">
        <time>2021-06-06T13:01:21Z</time>
      </trkpt>
      <trkpt lat="39.899561" lon="116.63413">
        <time>2021-06-06T13:01:26Z</time>
      </trkpt>
      <trkpt lat="39.899698" lon="116.634034">
        <time>2021-06-06T13:01:31Z</time>
      </trkpt>
      <trkpt lat="39.899831" lon="116.633962">
        <time>2021-06-06T13:01:36Z</time>
      </trkpt>
      <trkpt lat="39.899958" lon="116.63387">
        <time>2021-06-06T13:01:41Z</time>
      </trkpt>
      <trkpt lat="39.900089" lon="116.633776">
        <time>2021-06-06T13:01:46Z</time>
      </trkpt>
      <trkpt lat="39.900181" lon="116.633667">
        <time>2021-06-06T13:01:51Z</time>
      </trkpt>
      <trkpt lat="39.900358" lon="116.633531">
        <time>2021-06-06T13:01:56Z</time>
      </trkpt>
      <trkpt lat="39.900425" lon="116.633497">
        <time>2021-06-06T13:02:01Z</time>
      </trkpt>
      <trkpt lat="39.900566" lon="116.633427">
        <time>2021-06-06T13:02:06Z</time>
      </trkpt>
      <trkpt lat="39.900692" lon="116.633348">
        <time>2021-06-06T13:02:11Z</time>
      </trkpt>
      <trkpt lat="39.900809" lon="116.633275">
        <time>2021-06-06T13:02:16Z</time>
      </trkpt>
      <trkpt lat="39.900959" lon="116.633219">
        <time>2021-06-06T13:02:21Z</time>
      </trkpt>
      <trkpt lat="39.901016" lon="116.633211">
        <time>2021-06-06T13:02:26Z</time>
      </trkpt>
      <trkpt lat="39.901016" lon="116.633211">
        <time>2021-06-06T13:02:31Z</time>
      </trkpt>
      <trkpt lat="39.900958" lon="116.633095">
        <time>2021-06-06T13:02:36Z</time>
      </trkpt>
      <trkpt lat="39.900871" lon="116.632895">
        <time>2021-06-06T13:02:41Z</time>
      </trkpt>
      <trkpt lat="39.900801" lon="116.632786">
        <time>2021-06-06T13:02:46Z</time>
      </trkpt>
      <trkpt lat="39.900689" lon="116.632862">
        <time>2021-06-06T13:02:51Z</time>
      </trkpt>
      <trkpt lat="39.900521" lon="116.633001">
        <time>2021-06-06T13:02:56Z</time>
      </trkpt>
      <trkpt lat="39.900389" lon="116.633082">
        <time>2021-06-06T13:03:01Z</time>
      </trkpt>
      <trkpt lat="39.900279" lon="116.633181">
        <time>2021-06-06T13:03:06Z</time>
      </trkpt>
      <trkpt lat="39.90015" lon="116.633299">
        <time>2021-06-06T13:03:11Z</time>
      </trkpt>
      <trkpt lat="39.900031" lon="116.633354">
        <time>2021-06-06T13:03:16Z</time>
      </trkpt>
      <trkpt lat="39.89991" lon="116.63343">
        <time>2021-06-06T13:03:21Z</time>
      </trkpt>
      <trkpt lat="39.899767" lon="116.633504">
        <time>2021-06-06T13:03:26Z</time>
      </trkpt>
      <trkpt lat="39.899636" lon="116.633541">
        <time>2021-06-06T13:03:31Z</time>
      </trkpt>
      <trkpt lat="39.899501" lon="116.633656">
        <time>2021-06-06T13:03:36Z</time>
      </trkpt>
      <trkpt lat="39.899391" lon="116.633874">
        <time>2021-06-06T13:03:41Z</time>
      </trkpt>
      <trkpt lat="39.899205" lon="116.633953">
        <time>2021-06-06T13:03:46Z</time>
      </trkpt>
      <trkpt lat="39.899027" lon="116.634027">
        <time>2021-06-06T13:03:51Z</time>
      </trkpt>
      <trkpt lat="39.898879" lon="116.634109">
        <time>2021-06-06T13:03:56Z</time>
      </trkpt>
      <trkpt lat="39.8988" lon="116.634166">
        <time>2021-06-06T13:04:01Z</time>
      </trkpt>
      <trkpt lat="39.898721" lon="116.634237">
        <time>2021-06-06T13:04:06Z</time>
      </trkpt>
      <trkpt lat="39.898646" lon="116.634265">
        <time>2021-06-06T13:04:11Z</time>
      </trkpt>
      <trkpt lat="39.89857" lon="116.634296">
        <time>2021-06-06T13:04:16Z</time>
      </trkpt>
      <trkpt lat="39.898507" lon="116.634324">
        <time>2021-06-06T13:04:21Z</time>
      </trkpt>
      <trkpt lat="39.898435" lon="116.634346">
        <time>2021-06-06T13:04:26Z</time>
      </trkpt>
      <trkpt lat="39.89837" lon="116.63444">
        <time>2021-06-06T13:04:31Z</time>
      </trkpt>
      <trkpt lat="39.898295" lon="116.634465">
        <time>2021-06-06T13:04:36Z</time>
      </trkpt>
      <trkpt lat="39.898213" lon="116.634514">
        <time>2021-06-06T13:04:41Z</time>
      </trkpt>
      <trkpt lat="39.898146" lon="116.634579">
        <time>2021-06-06T13:04:46Z</time>
      </trkpt>
      <trkpt lat="39.898084" lon="116.634603">
        <time>2021-06-06T13:04:51Z</time>
      </trkpt>
      <trkpt lat="39.898001" lon="116.63457">
        <time>2021-06-06T13:04:56Z</time>
      </trkpt>
      <trkpt lat="39.897978" lon="116.634495">
        <time>2021-06-06T13:05:01Z</time>
      </trkpt>
      <trkpt lat="39.897955" lon="116.63437">
        <time>2021-06-06T13:05:06Z</time>
      </trkpt>
      <trkpt lat="39.897971" lon="116.634237">
        <time>2021-06-06T13:05:11Z</time>
      </trkpt>
      <trkpt lat="39.897929" lon="116.634163">
        <time>2021-06-06T13:05:16Z</time>
      </trkpt>
      <trkpt lat="39.897874" lon="116.634125">
        <time>2021-06-06T13:05:21Z</time>
      </trkpt>
      <trkpt lat="39.897773" lon="116.634016">
        <time>2021-06-06T13:05:26Z</time>
      </trkpt>
      <trkpt lat="39.897718" lon="116.633963">
        <time>2021-06-06T13:05:31Z</time>
      </trkpt>
      <trkpt lat="39.897656" lon="116.633902">
        <time>2021-06-06T13:05:36Z</time>
      </trkpt>
      <trkpt lat="39.89766" lon="116.633846">
        <time>2021-06-06T13:05:41Z</time>
      </trkpt>
      <trkpt lat="39.897639" lon="116.633777">
        <time>2021-06-06T13:05:46Z</time>
      </trkpt>
      <trkpt lat="39.89762" lon="116.633641">
        <time>2021-06-06T13:05:51Z</time>
      </trkpt>
      <trkpt lat="39.897571" lon="116.633648">
        <time>2021-06-06T13:05:56Z</time>
      </trkpt>
      <trkpt lat="39.897497" lon="116.633695">
        <time>2021-06-06T13:06:01Z</time>
      </trkpt>
      <trkpt lat="39.897451" lon="116.633708">
        <time>2021-06-06T13:06:06Z</time>
      </trkpt>
      <trkpt lat="39.897418" lon="116.63375">
        <time>2021-06-06T13:06:11Z</time>
      </trkpt>
      <trkpt lat="39.897403" lon="116.633792">
        <time>2021-06-06T13:06:16Z</time>
      </trkpt>
      <trkpt lat="39.897397" lon="116.633864">
        <time>2021-06-06T13:06:21Z</time>
      </trkpt>
      <trkpt lat="39.897396" lon="116.633937">
        <time>2021-06-06T13:06:26Z</time>
      </trkpt>
      <trkpt lat="39.897456" lon="116.634011">
        <time>2021-06-06T13:06:31Z</time>
      </trkpt>
      <trkpt lat="39.897432" lon="116.634158">
        <time>2021-06-06T13:08:15Z</time>
      </trkpt>
    </trkseg>
  </trk>
</gpx>