<?xml version="1.0" encoding="UTF-8"?>
<gpx xmlns="http://www.topografix.com/GPX/1/1" xmlns:gpxtpx="http://www.garmin.com/xmlschemas/TrackPointExtension/v1" xmlns:xsi="http://www.w3.org/2001/XMLSchema-instance" xsi:schemaLocation="http://www.topografix.com/GPX/1/1 http://www.topografix.com/GPX/1/1/gpx.xsd" version="1.1" creator="gpx.py -- https://github.com/tkrajina/gpxpy">
  <trk>
    <name>gpx from keep</name>
    <trkseg>
      <trkpt lat="39.896024" lon="116.636805">
        <time>2021-06-08T12:24:37Z</time>
      </trkpt>
      <trkpt lat="39.896024" lon="116.636805">
        <time>2021-06-08T12:24:42Z</time>
      </trkpt>
      <trkpt lat="39.896082" lon="116.636889">
        <time>2021-06-08T12:24:47Z</time>
      </trkpt>
      <trkpt lat="39.896183" lon="116.637235">
        <time>2021-06-08T12:24:52Z</time>
      </trkpt>
      <trkpt lat="39.896182" lon="116.637255">
        <time>2021-06-08T12:24:57Z</time>
      </trkpt>
      <trkpt lat="39.896192" lon="116.63741">
        <time>2021-06-08T12:25:02Z</time>
      </trkpt>
      <trkpt lat="39.896212" lon="116.637583">
        <time>2021-06-08T12:25:07Z</time>
      </trkpt>
      <trkpt lat="39.896212" lon="116.637721">
        <time>2021-06-08T12:25:12Z</time>
      </trkpt>
      <trkpt lat="39.896204" lon="116.637884">
        <time>2021-06-08T12:25:17Z</time>
      </trkpt>
      <trkpt lat="39.89621" lon="116.638029">
        <time>2021-06-08T12:25:22Z</time>
      </trkpt>
      <trkpt lat="39.896204" lon="116.638126">
        <time>2021-06-08T12:25:27Z</time>
      </trkpt>
      <trkpt lat="39.896233" lon="116.638259">
        <time>2021-06-08T12:25:32Z</time>
      </trkpt>
      <trkpt lat="39.896226" lon="116.638427">
        <time>2021-06-08T12:25:37Z</time>
      </trkpt>
      <trkpt lat="39.896217" lon="116.638569">
        <time>2021-06-08T12:25:42Z</time>
      </trkpt>
      <trkpt lat="39.896222" lon="116.638681">
        <time>2021-06-08T12:25:47Z</time>
      </trkpt>
      <trkpt lat="39.896266" lon="116.638815">
        <time>2021-06-08T12:25:52Z</time>
      </trkpt>
      <trkpt lat="39.896292" lon="116.638931">
        <time>2021-06-08T12:25:57Z</time>
      </trkpt>
      <trkpt lat="39.896305" lon="116.639119">
        <time>2021-06-08T12:26:02Z</time>
      </trkpt>
      <trkpt lat="39.896303" lon="116.639243">
        <time>2021-06-08T12:26:07Z</time>
      </trkpt>
      <trkpt lat="39.896282" lon="116.639392">
        <time>2021-06-08T12:26:12Z</time>
      </trkpt>
      <trkpt lat="39.896322" lon="116.639501">
        <time>2021-06-08T12:26:17Z</time>
      </trkpt>
      <trkpt lat="39.896322" lon="116.639614">
        <time>2021-06-08T12:26:22Z</time>
      </trkpt>
      <trkpt lat="39.89632" lon="116.639743">
        <time>2021-06-08T12:26:27Z</time>
      </trkpt>
      <trkpt lat="39.896287" lon="116.639918">
        <time>2021-06-08T12:26:32Z</time>
      </trkpt>
      <trkpt lat="39.896279" lon="116.640081">
        <time>2021-06-08T12:26:37Z</time>
      </trkpt>
      <trkpt lat="39.896283" lon="116.640207">
        <time>2021-06-08T12:26:42Z</time>
      </trkpt>
      <trkpt lat="39.896281" lon="116.640349">
        <time>2021-06-08T12:26:47Z</time>
      </trkpt>
      <trkpt lat="39.896284" lon="116.640507">
        <time>2021-06-08T12:26:52Z</time>
      </trkpt>
      <trkpt lat="39.896235" lon="116.640799">
        <time>2021-06-08T12:26:57Z</time>
      </trkpt>
      <trkpt lat="39.896236" lon="116.640823">
        <time>2021-06-08T12:27:02Z</time>
      </trkpt>
      <trkpt lat="39.896253" lon="116.640978">
        <time>2021-06-08T12:27:07Z</time>
      </trkpt>
      <trkpt lat="39.896277" lon="116.641111">
        <time>2021-06-08T12:27:12Z</time>
      </trkpt>
      <trkpt lat="39.896263" lon="116.641265">
        <time>2021-06-08T12:27:17Z</time>
      </trkpt>
      <trkpt lat="39.89624" lon="116.641376">
        <time>2021-06-08T12:27:22Z</time>
      </trkpt>
      <trkpt lat="39.896245" lon="116.641492">
        <time>2021-06-08T12:27:27Z</time>
      </trkpt>
      <trkpt lat="39.896228" lon="116.641625">
        <time>2021-06-08T12:27:32Z</time>
      </trkpt>
      <trkpt lat="39.896231" lon="116.641731">
        <time>2021-06-08T12:27:37Z</time>
      </trkpt>
      <trkpt lat="39.896245" lon="116.641845">
        <time>2021-06-08T12:27:42Z</time>
      </trkpt>
      <trkpt lat="39.896216" lon="116.641971">
        <time>2021-06-08T12:27:47Z</time>
      </trkpt>
      <trkpt lat="39.896222" lon="116.642119">
        <time>2021-06-08T12:27:52Z</time>
      </trkpt>
      <trkpt lat="39.89624" lon="116.642242">
        <time>2021-06-08T12:27:57Z</time>
      </trkpt>
      <trkpt lat="39.896241" lon="116.642387">
        <time>2021-06-08T12:28:02Z</time>
      </trkpt>
      <trkpt lat="39.896236" lon="116.642568">
        <time>2021-06-08T12:28:07Z</time>
      </trkpt>
      <trkpt lat="39.896219" lon="116.642689">
        <time>2021-06-08T12:28:12Z</time>
      </trkpt>
      <trkpt lat="39.896211" lon="116.642819">
        <time>2021-06-08T12:28:17Z</time>
      </trkpt>
      <trkpt lat="39.896216" lon="116.642953">
        <time>2021-06-08T12:28:22Z</time>
      </trkpt>
      <trkpt lat="39.896195" lon="116.643038">
        <time>2021-06-08T12:28:27Z</time>
      </trkpt>
      <trkpt lat="39.896185" lon="116.643331">
        <time>2021-06-08T12:28:32Z</time>
      </trkpt>
      <trkpt lat="39.896194" lon="116.64339">
        <time>2021-06-08T12:28:37Z</time>
      </trkpt>
      <trkpt lat="39.89621" lon="116.643525">
        <time>2021-06-08T12:28:42Z</time>
      </trkpt>
      <trkpt lat="39.896203" lon="116.643677">
        <time>2021-06-08T12:28:47Z</time>
      </trkpt>
      <trkpt lat="39.896222" lon="116.643806">
        <time>2021-06-08T12:28:52Z</time>
      </trkpt>
      <trkpt lat="39.896214" lon="116.64395">
        <time>2021-06-08T12:28:57Z</time>
      </trkpt>
      <trkpt lat="39.896223" lon="116.644065">
        <time>2021-06-08T12:29:02Z</time>
      </trkpt>
      <trkpt lat="39.896265" lon="116.644192">
        <time>2021-06-08T12:29:07Z</time>
      </trkpt>
      <trkpt lat="39.896267" lon="116.644303">
        <time>2021-06-08T12:29:12Z</time>
      </trkpt>
      <trkpt lat="39.896263" lon="116.644447">
        <time>2021-06-08T12:29:17Z</time>
      </trkpt>
      <trkpt lat="39.896244" lon="116.644579">
        <time>2021-06-08T12:29:22Z</time>
      </trkpt>
      <trkpt lat="39.896254" lon="116.644693">
        <time>2021-06-08T12:29:27Z</time>
      </trkpt>
      <trkpt lat="39.89625" lon="116.64488">
        <time>2021-06-08T12:29:32Z</time>
      </trkpt>
      <trkpt lat="39.896237" lon="116.645026">
        <time>2021-06-08T12:29:37Z</time>
      </trkpt>
      <trkpt lat="39.896207" lon="116.645158">
        <time>2021-06-08T12:29:42Z</time>
      </trkpt>
      <trkpt lat="39.896245" lon="116.645257">
        <time>2021-06-08T12:29:47Z</time>
      </trkpt>
      <trkpt lat="39.896226" lon="116.645361">
        <time>2021-06-08T12:29:52Z</time>
      </trkpt>
      <trkpt lat="39.8962" lon="116.645516">
        <time>2021-06-08T12:29:57Z</time>
      </trkpt>
      <trkpt lat="39.89619" lon="116.645644">
        <time>2021-06-08T12:30:02Z</time>
      </trkpt>
      <trkpt lat="39.896158" lon="116.645784">
        <time>2021-06-08T12:30:07Z</time>
      </trkpt>
      <trkpt lat="39.89611" lon="116.645918">
        <time>2021-06-08T12:30:12Z</time>
      </trkpt>
      <trkpt lat="39.896073" lon="116.646109">
        <time>2021-06-08T12:30:17Z</time>
      </trkpt>
      <trkpt lat="39.89605" lon="116.646304">
        <time>2021-06-08T12:30:22Z</time>
      </trkpt>
      <trkpt lat="39.896031" lon="116.646428">
        <time>2021-06-08T12:30:27Z</time>
      </trkpt>
      <trkpt lat="39.896029" lon="116.646553">
        <time>2021-06-08T12:30:32Z</time>
      </trkpt>
      <trkpt lat="39.896032" lon="116.646712">
        <time>2021-06-08T12:30:37Z</time>
      </trkpt>
      <trkpt lat="39.896031" lon="116.64686">
        <time>2021-06-08T12:30:42Z</time>
      </trkpt>
      <trkpt lat="39.896029" lon="116.646963">
        <time>2021-06-08T12:30:47Z</time>
      </trkpt>
      <trkpt lat="39.896055" lon="116.647051">
        <time>2021-06-08T12:30:52Z</time>
      </trkpt>
      <trkpt lat="39.895981" lon="116.647159">
        <time>2021-06-08T12:30:57Z</time>
      </trkpt>
      <trkpt lat="39.895905" lon="116.647202">
        <time>2021-06-08T12:31:02Z</time>
      </trkpt>
      <trkpt lat="39.895859" lon="116.647301">
        <time>2021-06-08T12:31:07Z</time>
      </trkpt>
      <trkpt lat="39.895808" lon="116.647437">
        <time>2021-06-08T12:31:12Z</time>
      </trkpt>
      <trkpt lat="39.895753" lon="116.647585">
        <time>2021-06-08T12:31:17Z</time>
      </trkpt>
      <trkpt lat="39.895733" lon="116.647724">
        <time>2021-06-08T12:31:22Z</time>
      </trkpt>
      <trkpt lat="39.895735" lon="116.647882">
        <time>2021-06-08T12:31:27Z</time>
      </trkpt>
      <trkpt lat="39.895721" lon="116.647997">
        <time>2021-06-08T12:31:32Z</time>
      </trkpt>
      <trkpt lat="39.895678" lon="116.648102">
        <time>2021-06-08T12:31:37Z</time>
      </trkpt>
      <trkpt lat="39.895678" lon="116.648256">
        <time>2021-06-08T12:31:42Z</time>
      </trkpt>
      <trkpt lat="39.895693" lon="116.648392">
        <time>2021-06-08T12:31:47Z</time>
      </trkpt>
      <trkpt lat="39.895726" lon="116.648527">
        <time>2021-06-08T12:31:52Z</time>
      </trkpt>
      <trkpt lat="39.895692" lon="116.648647">
        <time>2021-06-08T12:31:57Z</time>
      </trkpt>
      <trkpt lat="39.895688" lon="116.648787">
        <time>2021-06-08T12:32:02Z</time>
      </trkpt>
      <trkpt lat="39.895656" lon="116.648893">
        <time>2021-06-08T12:32:07Z</time>
      </trkpt>
      <trkpt lat="39.895605" lon="116.64903">
        <time>2021-06-08T12:32:12Z</time>
      </trkpt>
      <trkpt lat="39.895499" lon="116.649118">
        <time>2021-06-08T12:32:17Z</time>
      </trkpt>
      <trkpt lat="39.895388" lon="116.649105">
        <time>2021-06-08T12:32:22Z</time>
      </trkpt>
      <trkpt lat="39.89531" lon="116.649056">
        <time>2021-06-08T12:32:27Z</time>
      </trkpt>
      <trkpt lat="39.895216" lon="116.649043">
        <time>2021-06-08T12:32:32Z</time>
      </trkpt>
      <trkpt lat="39.895141" lon="116.649022">
        <time>2021-06-08T12:32:37Z</time>
      </trkpt>
      <trkpt lat="39.895076" lon="116.648977">
        <time>2021-06-08T12:32:42Z</time>
      </trkpt>
      <trkpt lat="39.895002" lon="116.648949">
        <time>2021-06-08T12:32:47Z</time>
      </trkpt>
      <trkpt lat="39.894933" lon="116.648909">
        <time>2021-06-08T12:32:52Z</time>
      </trkpt>
      <trkpt lat="39.894861" lon="116.648841">
        <time>2021-06-08T12:32:57Z</time>
      </trkpt>
      <trkpt lat="39.89485" lon="116.64874">
        <time>2021-06-08T12:33:02Z</time>
      </trkpt>
      <trkpt lat="39.894754" lon="116.648661">
        <time>2021-06-08T12:33:07Z</time>
      </trkpt>
      <trkpt lat="39.894668" lon="116.648644">
        <time>2021-06-08T12:33:12Z</time>
      </trkpt>
      <trkpt lat="39.894531" lon="116.64859">
        <time>2021-06-08T12:33:17Z</time>
      </trkpt>
      <trkpt lat="39.894388" lon="116.648575">
        <time>2021-06-08T12:33:22Z</time>
      </trkpt>
      <trkpt lat="39.894281" lon="116.648527">
        <time>2021-06-08T12:33:27Z</time>
      </trkpt>
      <trkpt lat="39.894191" lon="116.648424">
        <time>2021-06-08T12:33:32Z</time>
      </trkpt>
      <trkpt lat="39.894083" lon="116.648325">
        <time>2021-06-08T12:33:37Z</time>
      </trkpt>
      <trkpt lat="39.893995" lon="116.648289">
        <time>2021-06-08T12:33:42Z</time>
      </trkpt>
      <trkpt lat="39.893956" lon="116.648252">
        <time>2021-06-08T12:33:47Z</time>
      </trkpt>
      <trkpt lat="39.893823" lon="116.648228">
        <time>2021-06-08T12:33:52Z</time>
      </trkpt>
      <trkpt lat="39.893702" lon="116.648168">
        <time>2021-06-08T12:33:57Z</time>
      </trkpt>
      <trkpt lat="39.893616" lon="116.64814">
        <time>2021-06-08T12:34:02Z</time>
      </trkpt>
      <trkpt lat="39.893547" lon="116.64809">
        <time>2021-06-08T12:34:07Z</time>
      </trkpt>
      <trkpt lat="39.893425" lon="116.648053">
        <time>2021-06-08T12:34:12Z</time>
      </trkpt>
      <trkpt lat="39.893304" lon="116.648039">
        <time>2021-06-08T12:34:17Z</time>
      </trkpt>
      <trkpt lat="39.893181" lon="116.648049">
        <time>2021-06-08T12:34:22Z</time>
      </trkpt>
      <trkpt lat="39.893091" lon="116.64802">
        <time>2021-06-08T12:34:27Z</time>
      </trkpt>
      <trkpt lat="39.892986" lon="116.648022">
        <time>2021-06-08T12:34:32Z</time>
      </trkpt>
      <trkpt lat="39.892877" lon="116.647978">
        <time>2021-06-08T12:34:37Z</time>
      </trkpt>
      <trkpt lat="39.892761" lon="116.647973">
        <time>2021-06-08T12:34:42Z</time>
      </trkpt>
      <trkpt lat="39.892626" lon="116.648001">
        <time>2021-06-08T12:34:47Z</time>
      </trkpt>
      <trkpt lat="39.892572" lon="116.647875">
        <time>2021-06-08T12:34:52Z</time>
      </trkpt>
      <trkpt lat="39.892591" lon="116.647697">
        <time>2021-06-08T12:34:57Z</time>
      </trkpt>
      <trkpt lat="39.892576" lon="116.647555">
        <time>2021-06-08T12:35:02Z</time>
      </trkpt>
      <trkpt lat="39.892583" lon="116.647387">
        <time>2021-06-08T12:35:07Z</time>
      </trkpt>
      <trkpt lat="39.89259" lon="116.647198">
        <time>2021-06-08T12:35:12Z</time>
      </trkpt>
      <trkpt lat="39.892598" lon="116.647086">
        <time>2021-06-08T12:35:17Z</time>
      </trkpt>
      <trkpt lat="39.892594" lon="116.646933">
        <time>2021-06-08T12:35:22Z</time>
      </trkpt>
      <trkpt lat="39.892601" lon="116.646758">
        <time>2021-06-08T12:35:27Z</time>
      </trkpt>
      <trkpt lat="39.892595" lon="116.646614">
        <time>2021-06-08T12:35:32Z</time>
      </trkpt>
      <trkpt lat="39.892599" lon="116.646474">
        <time>2021-06-08T12:35:37Z</time>
      </trkpt>
      <trkpt lat="39.89262" lon="116.64631">
        <time>2021-06-08T12:35:42Z</time>
      </trkpt>
      <trkpt lat="39.892615" lon="116.646152">
        <time>2021-06-08T12:35:47Z</time>
      </trkpt>
      <trkpt lat="39.892612" lon="116.646029">
        <time>2021-06-08T12:35:52Z</time>
      </trkpt>
      <trkpt lat="39.892592" lon="116.645901">
        <time>2021-06-08T12:35:57Z</time>
      </trkpt>
      <trkpt lat="39.892529" lon="116.645769">
        <time>2021-06-08T12:36:02Z</time>
      </trkpt>
      <trkpt lat="39.892435" lon="116.645756">
        <time>2021-06-08T12:36:07Z</time>
      </trkpt>
      <trkpt lat="39.892383" lon="116.64578">
        <time>2021-06-08T12:36:12Z</time>
      </trkpt>
      <trkpt lat="39.892328" lon="116.645761">
        <time>2021-06-08T12:36:17Z</time>
      </trkpt>
      <trkpt lat="39.892242" lon="116.645708">
        <time>2021-06-08T12:36:22Z</time>
      </trkpt>
      <trkpt lat="39.892196" lon="116.645679">
        <time>2021-06-08T12:36:27Z</time>
      </trkpt>
      <trkpt lat="39.892135" lon="116.645642">
        <time>2021-06-08T12:36:32Z</time>
      </trkpt>
      <trkpt lat="39.892055" lon="116.645596">
        <time>2021-06-08T12:36:37Z</time>
      </trkpt>
      <trkpt lat="39.891967" lon="116.64556">
        <time>2021-06-08T12:36:42Z</time>
      </trkpt>
      <trkpt lat="39.891853" lon="116.64554">
        <time>2021-06-08T12:36:47Z</time>
      </trkpt>
      <trkpt lat="39.891745" lon="116.645468">
        <time>2021-06-08T12:36:52Z</time>
      </trkpt>
      <trkpt lat="39.891644" lon="116.645389">
        <time>2021-06-08T12:36:57Z</time>
      </trkpt>
      <trkpt lat="39.891519" lon="116.6453">
        <time>2021-06-08T12:37:02Z</time>
      </trkpt>
      <trkpt lat="39.891519" lon="116.64536">
        <time>2021-06-08T12:37:07Z</time>
      </trkpt>
      <trkpt lat="39.891589" lon="116.645407">
        <time>2021-06-08T12:37:12Z</time>
      </trkpt>
      <trkpt lat="39.891656" lon="116.645457">
        <time>2021-06-08T12:37:17Z</time>
      </trkpt>
      <trkpt lat="39.891745" lon="116.645531">
        <time>2021-06-08T12:37:22Z</time>
      </trkpt>
      <trkpt lat="39.891849" lon="116.645583">
        <time>2021-06-08T12:37:27Z</time>
      </trkpt>
      <trkpt lat="39.891949" lon="116.645603">
        <time>2021-06-08T12:37:32Z</time>
      </trkpt>
      <trkpt lat="39.89207" lon="116.645663">
        <time>2021-06-08T12:37:37Z</time>
      </trkpt>
      <trkpt lat="39.892207" lon="116.645719">
        <time>2021-06-08T12:37:42Z</time>
      </trkpt>
      <trkpt lat="39.892347" lon="116.645752">
        <time>2021-06-08T12:37:47Z</time>
      </trkpt>
      <trkpt lat="39.892468" lon="116.645794">
        <time>2021-06-08T12:37:52Z</time>
      </trkpt>
      <trkpt lat="39.892561" lon="116.645834">
        <time>2021-06-08T12:37:57Z</time>
      </trkpt>
      <trkpt lat="39.892627" lon="116.645929">
        <time>2021-06-08T12:38:02Z</time>
      </trkpt>
      <trkpt lat="39.89267" lon="116.646089">
        <time>2021-06-08T12:38:07Z</time>
      </trkpt>
      <trkpt lat="39.892686" lon="116.646252">
        <time>2021-06-08T12:38:12Z</time>
      </trkpt>
      <trkpt lat="39.892669" lon="116.646431">
        <time>2021-06-08T12:38:17Z</time>
      </trkpt>
      <trkpt lat="39.892662" lon="116.6466">
        <time>2021-06-08T12:38:22Z</time>
      </trkpt>
      <trkpt lat="39.892663" lon="116.646749">
        <time>2021-06-08T12:38:27Z</time>
      </trkpt>
      <trkpt lat="39.892639" lon="116.646907">
        <time>2021-06-08T12:38:32Z</time>
      </trkpt>
      <trkpt lat="39.89262" lon="116.647053">
        <time>2021-06-08T12:38:37Z</time>
      </trkpt>
      <trkpt lat="39.892609" lon="116.647185">
        <time>2021-06-08T12:38:42Z</time>
      </trkpt>
      <trkpt lat="39.892609" lon="116.647353">
        <time>2021-06-08T12:38:47Z</time>
      </trkpt>
      <trkpt lat="39.892596" lon="116.647532">
        <time>2021-06-08T12:38:52Z</time>
      </trkpt>
      <trkpt lat="39.89253" lon="116.647672">
        <time>2021-06-08T12:38:57Z</time>
      </trkpt>
      <trkpt lat="39.892518" lon="116.647924">
        <time>2021-06-08T12:39:02Z</time>
      </trkpt>
      <trkpt lat="39.892533" lon="116.647959">
        <time>2021-06-08T12:39:07Z</time>
      </trkpt>
      <trkpt lat="39.892681" lon="116.647964">
        <time>2021-06-08T12:39:12Z</time>
      </trkpt>
      <trkpt lat="39.89283" lon="116.647985">
        <time>2021-06-08T12:39:17Z</time>
      </trkpt>
      <trkpt lat="39.892978" lon="116.647992">
        <time>2021-06-08T12:39:22Z</time>
      </trkpt>
      <trkpt lat="39.893102" lon="116.647991">
        <time>2021-06-08T12:39:27Z</time>
      </trkpt>
      <trkpt lat="39.893232" lon="116.648013">
        <time>2021-06-08T12:39:32Z</time>
      </trkpt>
      <trkpt lat="39.893362" lon="116.648015">
        <time>2021-06-08T12:39:37Z</time>
      </trkpt>
      <trkpt lat="39.893508" lon="116.648037">
        <time>2021-06-08T12:39:42Z</time>
      </trkpt>
      <trkpt lat="39.893562" lon="116.648109">
        <time>2021-06-08T12:39:47Z</time>
      </trkpt>
      <trkpt lat="39.893646" lon="116.648153">
        <time>2021-06-08T12:39:52Z</time>
      </trkpt>
      <trkpt lat="39.893715" lon="116.648207">
        <time>2021-06-08T12:39:57Z</time>
      </trkpt>
      <trkpt lat="39.893794" lon="116.648236">
        <time>2021-06-08T12:40:02Z</time>
      </trkpt>
      <trkpt lat="39.893879" lon="116.648268">
        <time>2021-06-08T12:40:07Z</time>
      </trkpt>
      <trkpt lat="39.893951" lon="116.648311">
        <time>2021-06-08T12:40:12Z</time>
      </trkpt>
      <trkpt lat="39.894035" lon="116.648385">
        <time>2021-06-08T12:40:17Z</time>
      </trkpt>
      <trkpt lat="39.89416" lon="116.648462">
        <time>2021-06-08T12:40:22Z</time>
      </trkpt>
      <trkpt lat="39.894295" lon="116.648524">
        <time>2021-06-08T12:40:27Z</time>
      </trkpt>
      <trkpt lat="39.894389" lon="116.648547">
        <time>2021-06-08T12:40:32Z</time>
      </trkpt>
      <trkpt lat="39.894494" lon="116.648623">
        <time>2021-06-08T12:40:37Z</time>
      </trkpt>
      <trkpt lat="39.894657" lon="116.648679">
        <time>2021-06-08T12:40:42Z</time>
      </trkpt>
      <trkpt lat="39.894783" lon="116.648731">
        <time>2021-06-08T12:40:47Z</time>
      </trkpt>
      <trkpt lat="39.894902" lon="116.648787">
        <time>2021-06-08T12:40:52Z</time>
      </trkpt>
      <trkpt lat="39.895061" lon="116.648915">
        <time>2021-06-08T12:40:57Z</time>
      </trkpt>
      <trkpt lat="39.895084" lon="116.648932">
        <time>2021-06-08T12:41:02Z</time>
      </trkpt>
      <trkpt lat="39.895181" lon="116.649">
        <time>2021-06-08T12:41:07Z</time>
      </trkpt>
      <trkpt lat="39.895321" lon="116.649028">
        <time>2021-06-08T12:41:12Z</time>
      </trkpt>
      <trkpt lat="39.895431" lon="116.64903">
        <time>2021-06-08T12:41:17Z</time>
      </trkpt>
      <trkpt lat="39.895536" lon="116.649037">
        <time>2021-06-08T12:41:22Z</time>
      </trkpt>
      <trkpt lat="39.895626" lon="116.649043">
        <time>2021-06-08T12:41:27Z</time>
      </trkpt>
      <trkpt lat="39.895655" lon="116.648917">
        <time>2021-06-08T12:41:32Z</time>
      </trkpt>
      <trkpt lat="39.895694" lon="116.648803">
        <time>2021-06-08T12:41:37Z</time>
      </trkpt>
      <trkpt lat="39.895742" lon="116.648642">
        <time>2021-06-08T12:41:42Z</time>
      </trkpt>
      <trkpt lat="39.895752" lon="116.648456">
        <time>2021-06-08T12:41:47Z</time>
      </trkpt>
      <trkpt lat="39.895791" lon="116.648311">
        <time>2021-06-08T12:41:52Z</time>
      </trkpt>
      <trkpt lat="39.895815" lon="116.648145">
        <time>2021-06-08T12:41:57Z</time>
      </trkpt>
      <trkpt lat="39.895851" lon="116.647995">
        <time>2021-06-08T12:42:02Z</time>
      </trkpt>
      <trkpt lat="39.895873" lon="116.647819">
        <time>2021-06-08T12:42:07Z</time>
      </trkpt>
      <trkpt lat="39.895895" lon="116.647701">
        <time>2021-06-08T12:42:12Z</time>
      </trkpt>
      <trkpt lat="39.895913" lon="116.647553">
        <time>2021-06-08T12:42:17Z</time>
      </trkpt>
      <trkpt lat="39.89596" lon="116.647359">
        <time>2021-06-08T12:42:22Z</time>
      </trkpt>
      <trkpt lat="39.895963" lon="116.647195">
        <time>2021-06-08T12:42:27Z</time>
      </trkpt>
      <trkpt lat="39.895824" lon="116.647094">
        <time>2021-06-08T12:42:32Z</time>
      </trkpt>
      <trkpt lat="39.8958" lon="116.647144">
        <time>2021-06-08T12:42:37Z</time>
      </trkpt>
      <trkpt lat="39.895754" lon="116.647291">
        <time>2021-06-08T12:42:42Z</time>
      </trkpt>
      <trkpt lat="39.895735" lon="116.647444">
        <time>2021-06-08T12:42:47Z</time>
      </trkpt>
      <trkpt lat="39.895749" lon="116.64761">
        <time>2021-06-08T12:42:52Z</time>
      </trkpt>
      <trkpt lat="39.895735" lon="116.647784">
        <time>2021-06-08T12:42:57Z</time>
      </trkpt>
      <trkpt lat="39.895722" lon="116.647926">
        <time>2021-06-08T12:43:02Z</time>
      </trkpt>
      <trkpt lat="39.895738" lon="116.648063">
        <time>2021-06-08T12:43:07Z</time>
      </trkpt>
      <trkpt lat="39.895718" lon="116.648202">
        <time>2021-06-08T12:43:12Z</time>
      </trkpt>
      <trkpt lat="39.895705" lon="116.648352">
        <time>2021-06-08T12:43:17Z</time>
      </trkpt>
      <trkpt lat="39.895726" lon="116.648456">
        <time>2021-06-08T12:43:22Z</time>
      </trkpt>
      <trkpt lat="39.895815" lon="116.648374">
        <time>2021-06-08T12:43:27Z</time>
      </trkpt>
      <trkpt lat="39.895863" lon="116.648218">
        <time>2021-06-08T12:43:32Z</time>
      </trkpt>
      <trkpt lat="39.895899" lon="116.648041">
        <time>2021-06-08T12:43:37Z</time>
      </trkpt>
      <trkpt lat="39.89592" lon="116.647883">
        <time>2021-06-08T12:43:42Z</time>
      </trkpt>
      <trkpt lat="39.895916" lon="116.647749">
        <time>2021-06-08T12:43:47Z</time>
      </trkpt>
      <trkpt lat="39.895928" lon="116.647649">
        <time>2021-06-08T12:43:52Z</time>
      </trkpt>
      <trkpt lat="39.895947" lon="116.647515">
        <time>2021-06-08T12:43:57Z</time>
      </trkpt>
      <trkpt lat="39.895941" lon="116.647377">
        <time>2021-06-08T12:44:02Z</time>
      </trkpt>
      <trkpt lat="39.895952" lon="116.647239">
        <time>2021-06-08T12:44:07Z</time>
      </trkpt>
      <trkpt lat="39.895961" lon="116.647099">
        <time>2021-06-08T12:44:12Z</time>
      </trkpt>
      <trkpt lat="39.895953" lon="116.646928">
        <time>2021-06-08T12:44:17Z</time>
      </trkpt>
      <trkpt lat="39.895984" lon="116.646771">
        <time>2021-06-08T12:44:22Z</time>
      </trkpt>
      <trkpt lat="39.896005" lon="116.646618">
        <time>2021-06-08T12:44:27Z</time>
      </trkpt>
      <trkpt lat="39.896025" lon="116.646456">
        <time>2021-06-08T12:44:32Z</time>
      </trkpt>
      <trkpt lat="39.896029" lon="116.64628">
        <time>2021-06-08T12:44:37Z</time>
      </trkpt>
      <trkpt lat="39.896046" lon="116.646107">
        <time>2021-06-08T12:44:42Z</time>
      </trkpt>
      <trkpt lat="39.896052" lon="116.645932">
        <time>2021-06-08T12:44:47Z</time>
      </trkpt>
      <trkpt lat="39.896048" lon="116.64577">
        <time>2021-06-08T12:44:52Z</time>
      </trkpt>
      <trkpt lat="39.896081" lon="116.645677">
        <time>2021-06-08T12:44:57Z</time>
      </trkpt>
      <trkpt lat="39.896105" lon="116.645592">
        <time>2021-06-08T12:45:02Z</time>
      </trkpt>
      <trkpt lat="39.896123" lon="116.645531">
        <time>2021-06-08T12:45:07Z</time>
      </trkpt>
      <trkpt lat="39.896141" lon="116.645467">
        <time>2021-06-08T12:45:12Z</time>
      </trkpt>
      <trkpt lat="39.896143" lon="116.645357">
        <time>2021-06-08T12:45:17Z</time>
      </trkpt>
      <trkpt lat="39.896163" lon="116.645242">
        <time>2021-06-08T12:45:22Z</time>
      </trkpt>
      <trkpt lat="39.896188" lon="116.645047">
        <time>2021-06-08T12:45:27Z</time>
      </trkpt>
      <trkpt lat="39.89619" lon="116.644939">
        <time>2021-06-08T12:45:32Z</time>
      </trkpt>
      <trkpt lat="39.896209" lon="116.644784">
        <time>2021-06-08T12:45:37Z</time>
      </trkpt>
      <trkpt lat="39.896226" lon="116.64463">
        <time>2021-06-08T12:45:42Z</time>
      </trkpt>
      <trkpt lat="39.896219" lon="116.644468">
        <time>2021-06-08T12:45:47Z</time>
      </trkpt>
      <trkpt lat="39.896202" lon="116.644308">
        <time>2021-06-08T12:45:52Z</time>
      </trkpt>
      <trkpt lat="39.896211" lon="116.644195">
        <time>2021-06-08T12:45:57Z</time>
      </trkpt>
      <trkpt lat="39.896225" lon="116.644082">
        <time>2021-06-08T12:46:02Z</time>
      </trkpt>
      <trkpt lat="39.896221" lon="116.643909">
        <time>2021-06-08T12:46:07Z</time>
      </trkpt>
      <trkpt lat="39.896223" lon="116.643803">
        <time>2021-06-08T12:46:12Z</time>
      </trkpt>
      <trkpt lat="39.896229" lon="116.643695">
        <time>2021-06-08T12:46:17Z</time>
      </trkpt>
      <trkpt lat="39.896224" lon="116.643609">
        <time>2021-06-08T12:46:22Z</time>
      </trkpt>
      <trkpt lat="39.89621" lon="116.643501">
        <time>2021-06-08T12:46:27Z</time>
      </trkpt>
      <trkpt lat="39.896195" lon="116.643419">
        <time>2021-06-08T12:46:32Z</time>
      </trkpt>
      <trkpt lat="39.896172" lon="116.643337">
        <time>2021-06-08T12:46:37Z</time>
      </trkpt>
      <trkpt lat="39.896165" lon="116.643246">
        <time>2021-06-08T12:46:42Z</time>
      </trkpt>
      <trkpt lat="39.896193" lon="116.643158">
        <time>2021-06-08T12:46:47Z</time>
      </trkpt>
      <trkpt lat="39.896206" lon="116.643031">
        <time>2021-06-08T12:46:52Z</time>
      </trkpt>
      <trkpt lat="39.896207" lon="116.642928">
        <time>2021-06-08T12:46:57Z</time>
      </trkpt>
      <trkpt lat="39.896195" lon="116.642651">
        <time>2021-06-08T12:47:02Z</time>
      </trkpt>
      <trkpt lat="39.8962" lon="116.64263">
        <time>2021-06-08T12:47:07Z</time>
      </trkpt>
      <trkpt lat="39.896213" lon="116.642531">
        <time>2021-06-08T12:47:12Z</time>
      </trkpt>
      <trkpt lat="39.896195" lon="116.642367">
        <time>2021-06-08T12:47:17Z</time>
      </trkpt>
      <trkpt lat="39.896196" lon="116.642241">
        <time>2021-06-08T12:47:22Z</time>
      </trkpt>
      <trkpt lat="39.896227" lon="116.642163">
        <time>2021-06-08T12:47:27Z</time>
      </trkpt>
      <trkpt lat="39.896236" lon="116.642025">
        <time>2021-06-08T12:47:32Z</time>
      </trkpt>
      <trkpt lat="39.896236" lon="116.641899">
        <time>2021-06-08T12:47:37Z</time>
      </trkpt>
      <trkpt lat="39.896225" lon="116.641671">
        <time>2021-06-08T12:47:42Z</time>
      </trkpt>
      <trkpt lat="39.896214" lon="116.6416">
        <time>2021-06-08T12:47:47Z</time>
      </trkpt>
      <trkpt lat="39.896212" lon="116.641458">
        <time>2021-06-08T12:47:52Z</time>
      </trkpt>
      <trkpt lat="39.896219" lon="116.641317">
        <time>2021-06-08T12:47:57Z</time>
      </trkpt>
      <trkpt lat="39.8962" lon="116.641154">
        <time>2021-06-08T12:48:02Z</time>
      </trkpt>
      <trkpt lat="39.896221" lon="116.641012">
        <time>2021-06-08T12:48:07Z</time>
      </trkpt>
      <trkpt lat="39.896233" lon="116.640856">
        <time>2021-06-08T12:48:12Z</time>
      </trkpt>
      <trkpt lat="39.896239" lon="116.640699">
        <time>2021-06-08T12:48:17Z</time>
      </trkpt>
      <trkpt lat="39.896242" lon="116.640533">
        <time>2021-06-08T12:48:22Z</time>
      </trkpt>
      <trkpt lat="39.896262" lon="116.64041">
        <time>2021-06-08T12:48:27Z</time>
      </trkpt>
      <trkpt lat="39.896329" lon="116.640424">
        <time>2021-06-08T12:48:32Z</time>
      </trkpt>
      <trkpt lat="39.896429" lon="116.640528">
        <time>2021-06-08T12:48:37Z</time>
      </trkpt>
      <trkpt lat="39.896489" lon="116.640541">
        <time>2021-06-08T12:48:42Z</time>
      </trkpt>
      <trkpt lat="39.896661" lon="116.640593">
        <time>2021-06-08T12:48:47Z</time>
      </trkpt>
      <trkpt lat="39.896833" lon="116.640663">
        <time>2021-06-08T12:48:52Z</time>
      </trkpt>
      <trkpt lat="39.896907" lon="116.640681">
        <time>2021-06-08T12:48:57Z</time>
      </trkpt>
      <trkpt lat="39.897032" lon="116.640726">
        <time>2021-06-08T12:49:02Z</time>
      </trkpt>
      <trkpt lat="39.897103" lon="116.64076">
        <time>2021-06-08T12:49:07Z</time>
      </trkpt>
      <trkpt lat="39.897173" lon="116.640802">
        <time>2021-06-08T12:49:12Z</time>
      </trkpt>
      <trkpt lat="39.897262" lon="116.640841">
        <time>2021-06-08T12:49:17Z</time>
      </trkpt>
      <trkpt lat="39.897339" lon="116.640891">
        <time>2021-06-08T12:49:22Z</time>
      </trkpt>
      <trkpt lat="39.897397" lon="116.640926">
        <time>2021-06-08T12:49:27Z</time>
      </trkpt>
      <trkpt lat="39.897525" lon="116.640997">
        <time>2021-06-08T12:49:32Z</time>
      </trkpt>
      <trkpt lat="39.897555" lon="116.641025">
        <time>2021-06-08T12:49:37Z</time>
      </trkpt>
      <trkpt lat="39.897643" lon="116.641072">
        <time>2021-06-08T12:49:42Z</time>
      </trkpt>
      <trkpt lat="39.897785" lon="116.64112">
        <time>2021-06-08T12:49:47Z</time>
      </trkpt>
      <trkpt lat="39.897926" lon="116.641182">
        <time>2021-06-08T12:49:52Z</time>
      </trkpt>
      <trkpt lat="39.898079" lon="116.641235">
        <time>2021-06-08T12:49:57Z</time>
      </trkpt>
      <trkpt lat="39.898133" lon="116.641271">
        <time>2021-06-08T12:50:02Z</time>
      </trkpt>
      <trkpt lat="39.898234" lon="116.64134">
        <time>2021-06-08T12:50:07Z</time>
      </trkpt>
      <trkpt lat="39.898369" lon="116.64139">
        <time>2021-06-08T12:50:12Z</time>
      </trkpt>
      <trkpt lat="39.898459" lon="116.641507">
        <time>2021-06-08T12:50:17Z</time>
      </trkpt>
      <trkpt lat="39.898436" lon="116.641635">
        <time>2021-06-08T12:50:22Z</time>
      </trkpt>
      <trkpt lat="39.898401" lon="116.64175">
        <time>2021-06-08T12:50:27Z</time>
      </trkpt>
      <trkpt lat="39.898375" lon="116.641902">
        <time>2021-06-08T12:50:32Z</time>
      </trkpt>
      <trkpt lat="39.898347" lon="116.642071">
        <time>2021-06-08T12:50:37Z</time>
      </trkpt>
      <trkpt lat="39.898292" lon="116.64222">
        <time>2021-06-08T12:50:42Z</time>
      </trkpt>
      <trkpt lat="39.8983" lon="116.642373">
        <time>2021-06-08T12:50:47Z</time>
      </trkpt>
      <trkpt lat="39.898328" lon="116.642547">
        <time>2021-06-08T12:50:52Z</time>
      </trkpt>
      <trkpt lat="39.898368" lon="116.642836">
        <time>2021-06-08T12:50:57Z</time>
      </trkpt>
      <trkpt lat="39.898365" lon="116.642869">
        <time>2021-06-08T12:51:02Z</time>
      </trkpt>
      <trkpt lat="39.898332" lon="116.642988">
        <time>2021-06-08T12:51:07Z</time>
      </trkpt>
      <trkpt lat="39.8983" lon="116.643123">
        <time>2021-06-08T12:51:12Z</time>
      </trkpt>
      <trkpt lat="39.898282" lon="116.643274">
        <time>2021-06-08T12:51:17Z</time>
      </trkpt>
      <trkpt lat="39.898335" lon="116.643421">
        <time>2021-06-08T12:51:22Z</time>
      </trkpt>
      <trkpt lat="39.898357" lon="116.643548">
        <time>2021-06-08T12:51:27Z</time>
      </trkpt>
      <trkpt lat="39.898349" lon="116.643685">
        <time>2021-06-08T12:51:32Z</time>
      </trkpt>
      <trkpt lat="39.898326" lon="116.643811">
        <time>2021-06-08T12:51:37Z</time>
      </trkpt>
      <trkpt lat="39.898339" lon="116.643959">
        <time>2021-06-08T12:51:42Z</time>
      </trkpt>
      <trkpt lat="39.898365" lon="116.644082">
        <time>2021-06-08T12:51:47Z</time>
      </trkpt>
      <trkpt lat="39.898333" lon="116.644192">
        <time>2021-06-08T12:51:52Z</time>
      </trkpt>
      <trkpt lat="39.898357" lon="116.644357">
        <time>2021-06-08T12:51:57Z</time>
      </trkpt>
      <trkpt lat="39.898385" lon="116.64454">
        <time>2021-06-08T12:52:02Z</time>
      </trkpt>
      <trkpt lat="39.898409" lon="116.644685">
        <time>2021-06-08T12:52:07Z</time>
      </trkpt>
      <trkpt lat="39.898422" lon="116.644802">
        <time>2021-06-08T12:52:12Z</time>
      </trkpt>
      <trkpt lat="39.898477" lon="116.644922">
        <time>2021-06-08T12:52:17Z</time>
      </trkpt>
      <trkpt lat="39.898504" lon="116.645074">
        <time>2021-06-08T12:52:22Z</time>
      </trkpt>
      <trkpt lat="39.898539" lon="116.645201">
        <time>2021-06-08T12:52:27Z</time>
      </trkpt>
      <trkpt lat="39.898567" lon="116.645358">
        <time>2021-06-08T12:52:32Z</time>
      </trkpt>
      <trkpt lat="39.898579" lon="116.645479">
        <time>2021-06-08T12:52:37Z</time>
      </trkpt>
      <trkpt lat="39.898605" lon="116.645633">
        <time>2021-06-08T12:52:42Z</time>
      </trkpt>
      <trkpt lat="39.898639" lon="116.645777">
        <time>2021-06-08T12:52:47Z</time>
      </trkpt>
      <trkpt lat="39.898697" lon="116.645928">
        <time>2021-06-08T12:52:52Z</time>
      </trkpt>
      <trkpt lat="39.898744" lon="116.646018">
        <time>2021-06-08T12:52:57Z</time>
      </trkpt>
      <trkpt lat="39.898762" lon="116.646104">
        <time>2021-06-08T12:53:02Z</time>
      </trkpt>
      <trkpt lat="39.898789" lon="116.646244">
        <time>2021-06-08T12:53:07Z</time>
      </trkpt>
      <trkpt lat="39.898811" lon="116.646357">
        <time>2021-06-08T12:53:12Z</time>
      </trkpt>
      <trkpt lat="39.898842" lon="116.64646">
        <time>2021-06-08T12:53:17Z</time>
      </trkpt>
      <trkpt lat="39.898896" lon="116.646615">
        <time>2021-06-08T12:53:22Z</time>
      </trkpt>
      <trkpt lat="39.898947" lon="116.646796">
        <time>2021-06-08T12:53:27Z</time>
      </trkpt>
      <trkpt lat="39.898962" lon="116.64694">
        <time>2021-06-08T12:53:32Z</time>
      </trkpt>
      <trkpt lat="39.898977" lon="116.64708">
        <time>2021-06-08T12:53:37Z</time>
      </trkpt>
      <trkpt lat="39.899012" lon="116.647231">
        <time>2021-06-08T12:53:42Z</time>
      </trkpt>
      <trkpt lat="39.89905" lon="116.647356">
        <time>2021-06-08T12:53:47Z</time>
      </trkpt>
      <trkpt lat="39.899096" lon="116.647524">
        <time>2021-06-08T12:53:52Z</time>
      </trkpt>
      <trkpt lat="39.899085" lon="116.647712">
        <time>2021-06-08T12:53:57Z</time>
      </trkpt>
      <trkpt lat="39.899094" lon="116.647871">
        <time>2021-06-08T12:54:02Z</time>
      </trkpt>
      <trkpt lat="39.899106" lon="116.648043">
        <time>2021-06-08T12:54:07Z</time>
      </trkpt>
      <trkpt lat="39.899072" lon="116.648206">
        <time>2021-06-08T12:54:12Z</time>
      </trkpt>
      <trkpt lat="39.899049" lon="116.648379">
        <time>2021-06-08T12:54:17Z</time>
      </trkpt>
      <trkpt lat="39.899046" lon="116.648465">
        <time>2021-06-08T12:54:22Z</time>
      </trkpt>
      <trkpt lat="39.899061" lon="116.648543">
        <time>2021-06-08T12:54:27Z</time>
      </trkpt>
      <trkpt lat="39.89906" lon="116.648606">
        <time>2021-06-08T12:54:32Z</time>
      </trkpt>
      <trkpt lat="39.89908" lon="116.64866">
        <time>2021-06-08T12:54:37Z</time>
      </trkpt>
      <trkpt lat="39.89908" lon="116.648796">
        <time>2021-06-08T12:54:42Z</time>
      </trkpt>
      <trkpt lat="39.899059" lon="116.648958">
        <time>2021-06-08T12:54:47Z</time>
      </trkpt>
      <trkpt lat="39.899055" lon="116.649089">
        <time>2021-06-08T12:54:52Z</time>
      </trkpt>
      <trkpt lat="39.899096" lon="116.649223">
        <time>2021-06-08T12:54:57Z</time>
      </trkpt>
      <trkpt lat="39.899084" lon="116.649445">
        <time>2021-06-08T12:55:02Z</time>
      </trkpt>
      <trkpt lat="39.899087" lon="116.649473">
        <time>2021-06-08T12:55:07Z</time>
      </trkpt>
      <trkpt lat="39.899111" lon="116.649691">
        <time>2021-06-08T12:55:12Z</time>
      </trkpt>
      <trkpt lat="39.89914" lon="116.649801">
        <time>2021-06-08T12:55:17Z</time>
      </trkpt>
      <trkpt lat="39.899164" lon="116.649943">
        <time>2021-06-08T12:55:22Z</time>
      </trkpt>
      <trkpt lat="39.899127" lon="116.65007">
        <time>2021-06-08T12:55:27Z</time>
      </trkpt>
      <trkpt lat="39.899114" lon="116.650229">
        <time>2021-06-08T12:55:32Z</time>
      </trkpt>
      <trkpt lat="39.899116" lon="116.65044">
        <time>2021-06-08T12:55:37Z</time>
      </trkpt>
      <trkpt lat="39.899111" lon="116.650584">
        <time>2021-06-08T12:55:42Z</time>
      </trkpt>
      <trkpt lat="39.899116" lon="116.650686">
        <time>2021-06-08T12:55:47Z</time>
      </trkpt>
      <trkpt lat="39.899118" lon="116.650794">
        <time>2021-06-08T12:55:52Z</time>
      </trkpt>
      <trkpt lat="39.89911" lon="116.650934">
        <time>2021-06-08T12:55:57Z</time>
      </trkpt>
      <trkpt lat="39.899074" lon="116.651081">
        <time>2021-06-08T12:56:02Z</time>
      </trkpt>
      <trkpt lat="39.899054" lon="116.651226">
        <time>2021-06-08T12:56:07Z</time>
      </trkpt>
      <trkpt lat="39.899042" lon="116.651358">
        <time>2021-06-08T12:56:12Z</time>
      </trkpt>
      <trkpt lat="39.899063" lon="116.651416">
        <time>2021-06-08T12:56:17Z</time>
      </trkpt>
      <trkpt lat="39.899023" lon="116.651264">
        <time>2021-06-08T12:56:22Z</time>
      </trkpt>
      <trkpt lat="39.898982" lon="116.651093">
        <time>2021-06-08T12:56:27Z</time>
      </trkpt>
      <trkpt lat="39.898941" lon="116.650922">
        <time>2021-06-08T12:56:32Z</time>
      </trkpt>
      <trkpt lat="39.898953" lon="116.650738">
        <time>2021-06-08T12:56:37Z</time>
      </trkpt>
      <trkpt lat="39.898969" lon="116.650556">
        <time>2021-06-08T12:56:42Z</time>
      </trkpt>
      <trkpt lat="39.89898" lon="116.650389">
        <time>2021-06-08T12:56:47Z</time>
      </trkpt>
      <trkpt lat="39.89899" lon="116.650278">
        <time>2021-06-08T12:56:52Z</time>
      </trkpt>
      <trkpt lat="39.899014" lon="116.650216">
        <time>2021-06-08T12:56:57Z</time>
      </trkpt>
      <trkpt lat="39.89903" lon="116.650109">
        <time>2021-06-08T12:57:02Z</time>
      </trkpt>
      <trkpt lat="39.89902" lon="116.650023">
        <time>2021-06-08T12:57:07Z</time>
      </trkpt>
      <trkpt lat="39.899039" lon="116.649925">
        <time>2021-06-08T12:57:12Z</time>
      </trkpt>
      <trkpt lat="39.899067" lon="116.649756">
        <time>2021-06-08T12:57:17Z</time>
      </trkpt>
      <trkpt lat="39.89903" lon="116.649512">
        <time>2021-06-08T12:57:22Z</time>
      </trkpt>
      <trkpt lat="39.899027" lon="116.649448">
        <time>2021-06-08T12:57:27Z</time>
      </trkpt>
      <trkpt lat="39.899006" lon="116.649174">
        <time>2021-06-08T12:57:32Z</time>
      </trkpt>
      <trkpt lat="39.898991" lon="116.649105">
        <time>2021-06-08T12:57:37Z</time>
      </trkpt>
      <trkpt lat="39.898969" lon="116.648938">
        <time>2021-06-08T12:57:42Z</time>
      </trkpt>
      <trkpt lat="39.898954" lon="116.648777">
        <time>2021-06-08T12:57:47Z</time>
      </trkpt>
      <trkpt lat="39.898941" lon="116.648676">
        <time>2021-06-08T12:57:52Z</time>
      </trkpt>
      <trkpt lat="39.898955" lon="116.648508">
        <time>2021-06-08T12:57:57Z</time>
      </trkpt>
      <trkpt lat="39.898974" lon="116.648358">
        <time>2021-06-08T12:58:02Z</time>
      </trkpt>
      <trkpt lat="39.898997" lon="116.648171">
        <time>2021-06-08T12:58:07Z</time>
      </trkpt>
      <trkpt lat="39.898997" lon="116.648026">
        <time>2021-06-08T12:58:12Z</time>
      </trkpt>
      <trkpt lat="39.899001" lon="116.64785">
        <time>2021-06-08T12:58:17Z</time>
      </trkpt>
      <trkpt lat="39.89897" lon="116.647661">
        <time>2021-06-08T12:58:22Z</time>
      </trkpt>
      <trkpt lat="39.898962" lon="116.647497">
        <time>2021-06-08T12:58:27Z</time>
      </trkpt>
      <trkpt lat="39.898956" lon="116.647342">
        <time>2021-06-08T12:58:32Z</time>
      </trkpt>
      <trkpt lat="39.898936" lon="116.647197">
        <time>2021-06-08T12:58:37Z</time>
      </trkpt>
      <trkpt lat="39.898903" lon="116.647011">
        <time>2021-06-08T12:58:42Z</time>
      </trkpt>
      <trkpt lat="39.898883" lon="116.64689">
        <time>2021-06-08T12:58:47Z</time>
      </trkpt>
      <trkpt lat="39.898866" lon="116.64686">
        <time>2021-06-08T12:58:52Z</time>
      </trkpt>
      <trkpt lat="39.898795" lon="116.646656">
        <time>2021-06-08T12:58:57Z</time>
      </trkpt>
      <trkpt lat="39.898768" lon="116.646576">
        <time>2021-06-08T12:59:02Z</time>
      </trkpt>
      <trkpt lat="39.898774" lon="116.64641">
        <time>2021-06-08T12:59:07Z</time>
      </trkpt>
      <trkpt lat="39.898756" lon="116.646245">
        <time>2021-06-08T12:59:12Z</time>
      </trkpt>
      <trkpt lat="39.89866" lon="116.646068">
        <time>2021-06-08T12:59:17Z</time>
      </trkpt>
      <trkpt lat="39.898571" lon="116.645929">
        <time>2021-06-08T12:59:22Z</time>
      </trkpt>
      <trkpt lat="39.898527" lon="116.64578">
        <time>2021-06-08T12:59:27Z</time>
      </trkpt>
      <trkpt lat="39.898495" lon="116.645613">
        <time>2021-06-08T12:59:32Z</time>
      </trkpt>
      <trkpt lat="39.898491" lon="116.645409">
        <time>2021-06-08T12:59:37Z</time>
      </trkpt>
      <trkpt lat="39.89845" lon="116.645264">
        <time>2021-06-08T12:59:42Z</time>
      </trkpt>
      <trkpt lat="39.898409" lon="116.645114">
        <time>2021-06-08T12:59:47Z</time>
      </trkpt>
      <trkpt lat="39.898378" lon="116.644945">
        <time>2021-06-08T12:59:52Z</time>
      </trkpt>
      <trkpt lat="39.898355" lon="116.644779">
        <time>2021-06-08T12:59:57Z</time>
      </trkpt>
      <trkpt lat="39.898341" lon="116.644611">
        <time>2021-06-08T13:00:02Z</time>
      </trkpt>
      <trkpt lat="39.898332" lon="116.644452">
        <time>2021-06-08T13:00:07Z</time>
      </trkpt>
      <trkpt lat="39.898311" lon="116.644308">
        <time>2021-06-08T13:00:12Z</time>
      </trkpt>
      <trkpt lat="39.898313" lon="116.644151">
        <time>2021-06-08T13:00:17Z</time>
      </trkpt>
      <trkpt lat="39.898319" lon="116.643969">
        <time>2021-06-08T13:00:22Z</time>
      </trkpt>
      <trkpt lat="39.8983" lon="116.643869">
        <time>2021-06-08T13:00:27Z</time>
      </trkpt>
      <trkpt lat="39.898276" lon="116.643782">
        <time>2021-06-08T13:00:32Z</time>
      </trkpt>
      <trkpt lat="39.898277" lon="116.643697">
        <time>2021-06-08T13:00:37Z</time>
      </trkpt>
      <trkpt lat="39.898283" lon="116.643629">
        <time>2021-06-08T13:00:42Z</time>
      </trkpt>
      <trkpt lat="39.898291" lon="116.64353">
        <time>2021-06-08T13:00:47Z</time>
      </trkpt>
      <trkpt lat="39.89828" lon="116.643446">
        <time>2021-06-08T13:00:52Z</time>
      </trkpt>
      <trkpt lat="39.898283" lon="116.643349">
        <time>2021-06-08T13:00:57Z</time>
      </trkpt>
      <trkpt lat="39.898267" lon="116.643249">
        <time>2021-06-08T13:01:02Z</time>
      </trkpt>
      <trkpt lat="39.898276" lon="116.64311">
        <time>2021-06-08T13:01:07Z</time>
      </trkpt>
      <trkpt lat="39.898285" lon="116.643055">
        <time>2021-06-08T13:01:12Z</time>
      </trkpt>
      <trkpt lat="39.89829" lon="116.642966">
        <time>2021-06-08T13:01:17Z</time>
      </trkpt>
      <trkpt lat="39.898287" lon="116.642888">
        <time>2021-06-08T13:01:22Z</time>
      </trkpt>
      <trkpt lat="39.898297" lon="116.642771">
        <time>2021-06-08T13:01:27Z</time>
      </trkpt>
      <trkpt lat="39.898289" lon="116.642647">
        <time>2021-06-08T13:01:32Z</time>
      </trkpt>
      <trkpt lat="39.89829" lon="116.642519">
        <time>2021-06-08T13:01:37Z</time>
      </trkpt>
      <trkpt lat="39.898283" lon="116.642397">
        <time>2021-06-08T13:01:42Z</time>
      </trkpt>
      <trkpt lat="39.898286" lon="116.642231">
        <time>2021-06-08T13:01:47Z</time>
      </trkpt>
      <trkpt lat="39.898298" lon="116.642092">
        <time>2021-06-08T13:01:52Z</time>
      </trkpt>
      <trkpt lat="39.898327" lon="116.64191">
        <time>2021-06-08T13:01:57Z</time>
      </trkpt>
      <trkpt lat="39.898347" lon="116.641752">
        <time>2021-06-08T13:02:02Z</time>
      </trkpt>
      <trkpt lat="39.898342" lon="116.641644">
        <time>2021-06-08T13:02:07Z</time>
      </trkpt>
      <trkpt lat="39.898376" lon="116.641515">
        <time>2021-06-08T13:02:12Z</time>
      </trkpt>
      <trkpt lat="39.898336" lon="116.641414">
        <time>2021-06-08T13:02:17Z</time>
      </trkpt>
      <trkpt lat="39.898174" lon="116.641368">
        <time>2021-06-08T13:02:22Z</time>
      </trkpt>
      <trkpt lat="39.898057" lon="116.641271">
        <time>2021-06-08T13:02:27Z</time>
      </trkpt>
      <trkpt lat="39.897949" lon="116.641207">
        <time>2021-06-08T13:02:32Z</time>
      </trkpt>
      <trkpt lat="39.897876" lon="116.641183">
        <time>2021-06-08T13:02:37Z</time>
      </trkpt>
      <trkpt lat="39.897864" lon="116.641124">
        <time>2021-06-08T13:02:42Z</time>
      </trkpt>
      <trkpt lat="39.897793" lon="116.641042">
        <time>2021-06-08T13:02:47Z</time>
      </trkpt>
      <trkpt lat="39.897618" lon="116.640985">
        <time>2021-06-08T13:02:52Z</time>
      </trkpt>
      <trkpt lat="39.89748" lon="116.640944">
        <time>2021-06-08T13:02:57Z</time>
      </trkpt>
      <trkpt lat="39.897368" lon="116.640906">
        <time>2021-06-08T13:03:02Z</time>
      </trkpt>
      <trkpt lat="39.897209" lon="116.640837">
        <time>2021-06-08T13:03:07Z</time>
      </trkpt>
      <trkpt lat="39.896946" lon="116.640696">
        <time>2021-06-08T13:03:12Z</time>
      </trkpt>
      <trkpt lat="39.896918" lon="116.640679">
        <time>2021-06-08T13:03:17Z</time>
      </trkpt>
      <trkpt lat="39.896787" lon="116.640604">
        <time>2021-06-08T13:03:22Z</time>
      </trkpt>
      <trkpt lat="39.89659" lon="116.640512">
        <time>2021-06-08T13:03:27Z</time>
      </trkpt>
      <trkpt lat="39.896539" lon="116.640479">
        <time>2021-06-08T13:03:32Z</time>
      </trkpt>
      <trkpt lat="39.896463" lon="116.640392">
        <time>2021-06-08T13:03:37Z</time>
      </trkpt>
      <trkpt lat="39.896445" lon="116.640329">
        <time>2021-06-08T13:03:42Z</time>
      </trkpt>
      <trkpt lat="39.896351" lon="116.640231">
        <time>2021-06-08T13:03:47Z</time>
      </trkpt>
      <trkpt lat="39.896294" lon="116.640081">
        <time>2021-06-08T13:03:52Z</time>
      </trkpt>
      <trkpt lat="39.896289" lon="116.639942">
        <time>2021-06-08T13:03:57Z</time>
      </trkpt>
      <trkpt lat="39.896284" lon="116.639807">
        <time>2021-06-08T13:04:02Z</time>
      </trkpt>
      <trkpt lat="39.896277" lon="116.639645">
        <time>2021-06-08T13:04:07Z</time>
      </trkpt>
      <trkpt lat="39.896247" lon="116.639466">
        <time>2021-06-08T13:04:12Z</time>
      </trkpt>
      <trkpt lat="39.896237" lon="116.639297">
        <time>2021-06-08T13:04:17Z</time>
      </trkpt>
      <trkpt lat="39.896227" lon="116.639129">
        <time>2021-06-08T13:04:22Z</time>
      </trkpt>
      <trkpt lat="39.896205" lon="116.638983">
        <time>2021-06-08T13:04:27Z</time>
      </trkpt>
      <trkpt lat="39.896174" lon="116.638905">
        <time>2021-06-08T13:04:32Z</time>
      </trkpt>
      <trkpt lat="39.896148" lon="116.638799">
        <time>2021-06-08T13:04:37Z</time>
      </trkpt>
      <trkpt lat="39.896147" lon="116.638709">
        <time>2021-06-08T13:04:42Z</time>
      </trkpt>
      <trkpt lat="39.896175" lon="116.638576">
        <time>2021-06-08T13:04:47Z</time>
      </trkpt>
      <trkpt lat="39.896158" lon="116.638461">
        <time>2021-06-08T13:04:52Z</time>
      </trkpt>
      <trkpt lat="39.896134" lon="116.638328">
        <time>2021-06-08T13:04:57Z</time>
      </trkpt>
      <trkpt lat="39.896128" lon="116.638163">
        <time>2021-06-08T13:05:02Z</time>
      </trkpt>
      <trkpt lat="39.896135" lon="116.637991">
        <time>2021-06-08T13:05:07Z</time>
      </trkpt>
      <trkpt lat="39.896152" lon="116.637831">
        <time>2021-06-08T13:05:12Z</time>
      </trkpt>
      <trkpt lat="39.896151" lon="116.637669">
        <time>2021-06-08T13:05:17Z</time>
      </trkpt>
      <trkpt lat="39.896151" lon="116.637524">
        <time>2021-06-08T13:05:22Z</time>
      </trkpt>
      <trkpt lat="39.89616" lon="116.637395">
        <time>2021-06-08T13:05:27Z</time>
      </trkpt>
      <trkpt lat="39.896133" lon="116.637246">
        <time>2021-06-08T13:05:32Z</time>
      </trkpt>
      <trkpt lat="39.896122" lon="116.637112">
        <time>2021-06-08T13:05:37Z</time>
      </trkpt>
      <trkpt lat="39.89613" lon="116.636991">
        <time>2021-06-08T13:05:42Z</time>
      </trkpt>
      <trkpt lat="39.896063" lon="116.636749">
        <time>2021-06-08T13:05:47Z</time>
      </trkpt>
      <trkpt lat="39.896049" lon="116.636722">
        <time>2021-06-08T13:05:52Z</time>
      </trkpt>
      <trkpt lat="39.895956" lon="116.636719">
        <time>2021-06-08T13:05:57Z</time>
      </trkpt>
      <trkpt lat="39.896025" lon="116.636886">
        <time>2021-06-08T13:06:02Z</time>
      </trkpt>
      <trkpt lat="39.896053" lon="116.63706">
        <time>2021-06-08T13:06:07Z</time>
      </trkpt>
      <trkpt lat="39.896089" lon="116.637245">
        <time>2021-06-08T13:06:12Z</time>
      </trkpt>
      <trkpt lat="39.896143" lon="116.637395">
        <time>2021-06-08T13:06:17Z</time>
      </trkpt>
      <trkpt lat="39.896152" lon="116.637569">
        <time>2021-06-08T13:06:22Z</time>
      </trkpt>
      <trkpt lat="39.896164" lon="116.637762">
        <time>2021-06-08T13:06:27Z</time>
      </trkpt>
      <trkpt lat="39.896174" lon="116.637935">
        <time>2021-06-08T13:06:32Z</time>
      </trkpt>
      <trkpt lat="39.89617" lon="116.638046">
        <time>2021-06-08T13:06:37Z</time>
      </trkpt>
      <trkpt lat="39.896188" lon="116.638127">
        <time>2021-06-08T13:06:42Z</time>
      </trkpt>
      <trkpt lat="39.8962" lon="116.638204">
        <time>2021-06-08T13:06:47Z</time>
      </trkpt>
      <trkpt lat="39.896215" lon="116.638283">
        <time>2021-06-08T13:06:52Z</time>
      </trkpt>
      <trkpt lat="39.896213" lon="116.638415">
        <time>2021-06-08T13:06:57Z</time>
      </trkpt>
      <trkpt lat="39.896263" lon="116.63857">
        <time>2021-06-08T13:07:02Z</time>
      </trkpt>
      <trkpt lat="39.896273" lon="116.638712">
        <time>2021-06-08T13:07:07Z</time>
      </trkpt>
      <trkpt lat="39.896245" lon="116.638871">
        <time>2021-06-08T13:07:12Z</time>
      </trkpt>
      <trkpt lat="39.896266" lon="116.639028">
        <time>2021-06-08T13:07:17Z</time>
      </trkpt>
      <trkpt lat="39.896271" lon="116.639169">
        <time>2021-06-08T13:07:22Z</time>
      </trkpt>
      <trkpt lat="39.896231" lon="116.639318">
        <time>2021-06-08T13:07:27Z</time>
      </trkpt>
      <trkpt lat="39.896231" lon="116.639406">
        <time>2021-06-08T13:07:32Z</time>
      </trkpt>
      <trkpt lat="39.896225" lon="116.639497">
        <time>2021-06-08T13:07:37Z</time>
      </trkpt>
      <trkpt lat="39.896245" lon="116.639602">
        <time>2021-06-08T13:07:42Z</time>
      </trkpt>
      <trkpt lat="39.89625" lon="116.6397">
        <time>2021-06-08T13:07:47Z</time>
      </trkpt>
      <trkpt lat="39.896238" lon="116.639802">
        <time>2021-06-08T13:07:52Z</time>
      </trkpt>
      <trkpt lat="39.896236" lon="116.639956">
        <time>2021-06-08T13:07:57Z</time>
      </trkpt>
      <trkpt lat="39.896257" lon="116.640135">
        <time>2021-06-08T13:08:02Z</time>
      </trkpt>
      <trkpt lat="39.896278" lon="116.640288">
        <time>2021-06-08T13:08:07Z</time>
      </trkpt>
      <trkpt lat="39.896253" lon="116.640467">
        <time>2021-06-08T13:08:12Z</time>
      </trkpt>
      <trkpt lat="39.896261" lon="116.640791">
        <time>2021-06-08T13:08:17Z</time>
      </trkpt>
      <trkpt lat="39.896264" lon="116.640859">
        <time>2021-06-08T13:08:22Z</time>
      </trkpt>
      <trkpt lat="39.896245" lon="116.641003">
        <time>2021-06-08T13:08:27Z</time>
      </trkpt>
      <trkpt lat="39.896215" lon="116.641135">
        <time>2021-06-08T13:08:32Z</time>
      </trkpt>
      <trkpt lat="39.8962" lon="116.641287">
        <time>2021-06-08T13:08:37Z</time>
      </trkpt>
      <trkpt lat="39.896203" lon="116.641444">
        <time>2021-06-08T13:08:42Z</time>
      </trkpt>
      <trkpt lat="39.896229" lon="116.641591">
        <time>2021-06-08T13:08:47Z</time>
      </trkpt>
      <trkpt lat="39.896202" lon="116.641731">
        <time>2021-06-08T13:08:52Z</time>
      </trkpt>
      <trkpt lat="39.896188" lon="116.641884">
        <time>2021-06-08T13:08:57Z</time>
      </trkpt>
      <trkpt lat="39.896188" lon="116.641975">
        <time>2021-06-08T13:09:02Z</time>
      </trkpt>
      <trkpt lat="39.896195" lon="116.642178">
        <time>2021-06-08T13:09:07Z</time>
      </trkpt>
      <trkpt lat="39.896197" lon="116.642205">
        <time>2021-06-08T13:09:12Z</time>
      </trkpt>
      <trkpt lat="39.8962" lon="116.642357">
        <time>2021-06-08T13:09:17Z</time>
      </trkpt>
      <trkpt lat="39.896216" lon="116.642527">
        <time>2021-06-08T13:09:22Z</time>
      </trkpt>
      <trkpt lat="39.896223" lon="116.642673">
        <time>2021-06-08T13:09:27Z</time>
      </trkpt>
      <trkpt lat="39.896221" lon="116.642818">
        <time>2021-06-08T13:09:32Z</time>
      </trkpt>
      <trkpt lat="39.896215" lon="116.642953">
        <time>2021-06-08T13:09:37Z</time>
      </trkpt>
      <trkpt lat="39.896187" lon="116.643119">
        <time>2021-06-08T13:09:42Z</time>
      </trkpt>
      <trkpt lat="39.896181" lon="116.643344">
        <time>2021-06-08T13:09:47Z</time>
      </trkpt>
      <trkpt lat="39.896197" lon="116.643493">
        <time>2021-06-08T13:09:52Z</time>
      </trkpt>
      <trkpt lat="39.896237" lon="116.643665">
        <time>2021-06-08T13:09:57Z</time>
      </trkpt>
      <trkpt lat="39.896248" lon="116.643844">
        <time>2021-06-08T13:10:02Z</time>
      </trkpt>
      <trkpt lat="39.896279" lon="116.644002">
        <time>2021-06-08T13:10:07Z</time>
      </trkpt>
      <trkpt lat="39.896278" lon="116.644161">
        <time>2021-06-08T13:10:12Z</time>
      </trkpt>
      <trkpt lat="39.896251" lon="116.644302">
        <time>2021-06-08T13:10:17Z</time>
      </trkpt>
      <trkpt lat="39.896212" lon="116.644468">
        <time>2021-06-08T13:10:22Z</time>
      </trkpt>
      <trkpt lat="39.896204" lon="116.644641">
        <time>2021-06-08T13:10:27Z</time>
      </trkpt>
      <trkpt lat="39.896193" lon="116.644769">
        <time>2021-06-08T13:10:32Z</time>
      </trkpt>
      <trkpt lat="39.896185" lon="116.644864">
        <time>2021-06-08T13:10:37Z</time>
      </trkpt>
      <trkpt lat="39.896183" lon="116.644975">
        <time>2021-06-08T13:10:42Z</time>
      </trkpt>
      <trkpt lat="39.896199" lon="116.645113">
        <time>2021-06-08T13:10:47Z</time>
      </trkpt>
      <trkpt lat="39.896219" lon="116.645245">
        <time>2021-06-08T13:10:52Z</time>
      </trkpt>
      <trkpt lat="39.896204" lon="116.645421">
        <time>2021-06-08T13:10:57Z</time>
      </trkpt>
      <trkpt lat="39.896167" lon="116.645566">
        <time>2021-06-08T13:11:02Z</time>
      </trkpt>
      <trkpt lat="39.896124" lon="116.645756">
        <time>2021-06-08T13:11:07Z</time>
      </trkpt>
      <trkpt lat="39.896113" lon="116.645911">
        <time>2021-06-08T13:11:12Z</time>
      </trkpt>
      <trkpt lat="39.896088" lon="116.646065">
        <time>2021-06-08T13:11:17Z</time>
      </trkpt>
      <trkpt lat="39.896065" lon="116.646223">
        <time>2021-06-08T13:11:22Z</time>
      </trkpt>
      <trkpt lat="39.896052" lon="116.646317">
        <time>2021-06-08T13:11:27Z</time>
      </trkpt>
      <trkpt lat="39.896053" lon="116.646469">
        <time>2021-06-08T13:11:32Z</time>
      </trkpt>
      <trkpt lat="39.896024" lon="116.646663">
        <time>2021-06-08T13:11:37Z</time>
      </trkpt>
      <trkpt lat="39.895983" lon="116.646815">
        <time>2021-06-08T13:11:42Z</time>
      </trkpt>
      <trkpt lat="39.895975" lon="116.646983">
        <time>2021-06-08T13:11:47Z</time>
      </trkpt>
      <trkpt lat="39.895895" lon="116.647179">
        <time>2021-06-08T13:11:52Z</time>
      </trkpt>
      <trkpt lat="39.89579" lon="116.647217">
        <time>2021-06-08T13:11:57Z</time>
      </trkpt>
      <trkpt lat="39.89578" lon="116.647362">
        <time>2021-06-08T13:12:02Z</time>
      </trkpt>
      <trkpt lat="39.895734" lon="116.647557">
        <time>2021-06-08T13:12:07Z</time>
      </trkpt>
      <trkpt lat="39.895723" lon="116.647728">
        <time>2021-06-08T13:12:12Z</time>
      </trkpt>
      <trkpt lat="39.895701" lon="116.647908">
        <time>2021-06-08T13:12:17Z</time>
      </trkpt>
      <trkpt lat="39.895704" lon="116.648083">
        <time>2021-06-08T13:12:22Z</time>
      </trkpt>
      <trkpt lat="39.89569" lon="116.648232">
        <time>2021-06-08T13:12:27Z</time>
      </trkpt>
      <trkpt lat="39.895684" lon="116.648396">
        <time>2021-06-08T13:12:32Z</time>
      </trkpt>
      <trkpt lat="39.895681" lon="116.648466">
        <time>2021-06-08T13:12:37Z</time>
      </trkpt>
      <trkpt lat="39.895793" lon="116.648357">
        <time>2021-06-08T13:12:42Z</time>
      </trkpt>
      <trkpt lat="39.895851" lon="116.648178">
        <time>2021-06-08T13:12:47Z</time>
      </trkpt>
      <trkpt lat="39.89589" lon="116.648026">
        <time>2021-06-08T13:12:52Z</time>
      </trkpt>
      <trkpt lat="39.895921" lon="116.64791">
        <time>2021-06-08T13:12:57Z</time>
      </trkpt>
      <trkpt lat="39.895922" lon="116.647718">
        <time>2021-06-08T13:13:02Z</time>
      </trkpt>
      <trkpt lat="39.89593" lon="116.647554">
        <time>2021-06-08T13:13:07Z</time>
      </trkpt>
      <trkpt lat="39.895956" lon="116.647396">
        <time>2021-06-08T13:13:12Z</time>
      </trkpt>
      <trkpt lat="39.895948" lon="116.647232">
        <time>2021-06-08T13:13:17Z</time>
      </trkpt>
      <trkpt lat="39.895948" lon="116.647198">
        <time>2021-06-08T13:13:22Z</time>
      </trkpt>
      <trkpt lat="39.895863" lon="116.647161">
        <time>2021-06-08T13:13:27Z</time>
      </trkpt>
      <trkpt lat="39.895808" lon="116.647188">
        <time>2021-06-08T13:13:32Z</time>
      </trkpt>
      <trkpt lat="39.895753" lon="116.647272">
        <time>2021-06-08T13:13:37Z</time>
      </trkpt>
      <trkpt lat="39.89572" lon="116.64737">
        <time>2021-06-08T13:13:42Z</time>
      </trkpt>
      <trkpt lat="39.895722" lon="116.647499">
        <time>2021-06-08T13:13:47Z</time>
      </trkpt>
      <trkpt lat="39.895703" lon="116.647671">
        <time>2021-06-08T13:13:52Z</time>
      </trkpt>
      <trkpt lat="39.895679" lon="116.647975">
        <time>2021-06-08T13:13:57Z</time>
      </trkpt>
      <trkpt lat="39.895675" lon="116.648012">
        <time>2021-06-08T13:14:02Z</time>
      </trkpt>
      <trkpt lat="39.895668" lon="116.648116">
        <time>2021-06-08T13:14:07Z</time>
      </trkpt>
      <trkpt lat="39.895671" lon="116.648276">
        <time>2021-06-08T13:14:12Z</time>
      </trkpt>
      <trkpt lat="39.895663" lon="116.648423">
        <time>2021-06-08T13:14:17Z</time>
      </trkpt>
      <trkpt lat="39.895715" lon="116.64857">
        <time>2021-06-08T13:14:22Z</time>
      </trkpt>
      <trkpt lat="39.895698" lon="116.648719">
        <time>2021-06-08T13:14:27Z</time>
      </trkpt>
      <trkpt lat="39.895681" lon="116.648877">
        <time>2021-06-08T13:14:32Z</time>
      </trkpt>
      <trkpt lat="39.895619" lon="116.649042">
        <time>2021-06-08T13:14:37Z</time>
      </trkpt>
      <trkpt lat="39.89549" lon="116.649098">
        <time>2021-06-08T13:14:42Z</time>
      </trkpt>
      <trkpt lat="39.895362" lon="116.649083">
        <time>2021-06-08T13:14:47Z</time>
      </trkpt>
      <trkpt lat="39.895243" lon="116.649048">
        <time>2021-06-08T13:14:52Z</time>
      </trkpt>
      <trkpt lat="39.895149" lon="116.648972">
        <time>2021-06-08T13:14:57Z</time>
      </trkpt>
      <trkpt lat="39.895046" lon="116.648903">
        <time>2021-06-08T13:15:02Z</time>
      </trkpt>
      <trkpt lat="39.894955" lon="116.648869">
        <time>2021-06-08T13:15:07Z</time>
      </trkpt>
      <trkpt lat="39.894893" lon="116.648818">
        <time>2021-06-08T13:15:12Z</time>
      </trkpt>
      <trkpt lat="39.894829" lon="116.648781">
        <time>2021-06-08T13:15:17Z</time>
      </trkpt>
      <trkpt lat="39.894811" lon="116.648758">
        <time>2021-06-08T13:15:22Z</time>
      </trkpt>
      <trkpt lat="39.894733" lon="116.648755">
        <time>2021-06-08T13:15:27Z</time>
      </trkpt>
      <trkpt lat="39.894656" lon="116.648726">
        <time>2021-06-08T13:15:32Z</time>
      </trkpt>
      <trkpt lat="39.894604" lon="116.64868">
        <time>2021-06-08T13:15:37Z</time>
      </trkpt>
      <trkpt lat="39.894529" lon="116.648647">
        <time>2021-06-08T13:15:42Z</time>
      </trkpt>
      <trkpt lat="39.894456" lon="116.648565">
        <time>2021-06-08T13:15:47Z</time>
      </trkpt>
      <trkpt lat="39.894387" lon="116.648517">
        <time>2021-06-08T13:15:52Z</time>
      </trkpt>
      <trkpt lat="39.894271" lon="116.648472">
        <time>2021-06-08T13:15:57Z</time>
      </trkpt>
      <trkpt lat="39.894149" lon="116.64841">
        <time>2021-06-08T13:16:02Z</time>
      </trkpt>
      <trkpt lat="39.894025" lon="116.648334">
        <time>2021-06-08T13:16:07Z</time>
      </trkpt>
      <trkpt lat="39.893918" lon="116.648268">
        <time>2021-06-08T13:16:12Z</time>
      </trkpt>
      <trkpt lat="39.89381" lon="116.648227">
        <time>2021-06-08T13:16:17Z</time>
      </trkpt>
      <trkpt lat="39.893698" lon="116.648174">
        <time>2021-06-08T13:16:22Z</time>
      </trkpt>
      <trkpt lat="39.893566" lon="116.648109">
        <time>2021-06-08T13:16:27Z</time>
      </trkpt>
      <trkpt lat="39.893415" lon="116.648092">
        <time>2021-06-08T13:16:32Z</time>
      </trkpt>
      <trkpt lat="39.893277" lon="116.648083">
        <time>2021-06-08T13:16:37Z</time>
      </trkpt>
      <trkpt lat="39.893142" lon="116.648092">
        <time>2021-06-08T13:16:42Z</time>
      </trkpt>
      <trkpt lat="39.89301" lon="116.64807">
        <time>2021-06-08T13:16:47Z</time>
      </trkpt>
      <trkpt lat="39.892879" lon="116.648036">
        <time>2021-06-08T13:16:52Z</time>
      </trkpt>
      <trkpt lat="39.892755" lon="116.648006">
        <time>2021-06-08T13:16:57Z</time>
      </trkpt>
      <trkpt lat="39.892628" lon="116.647998">
        <time>2021-06-08T13:17:02Z</time>
      </trkpt>
      <trkpt lat="39.892559" lon="116.64797">
        <time>2021-06-08T13:17:07Z</time>
      </trkpt>
      <trkpt lat="39.892593" lon="116.647856">
        <time>2021-06-08T13:17:12Z</time>
      </trkpt>
      <trkpt lat="39.892645" lon="116.647717">
        <time>2021-06-08T13:17:17Z</time>
      </trkpt>
      <trkpt lat="39.89264" lon="116.647504">
        <time>2021-06-08T13:17:22Z</time>
      </trkpt>
      <trkpt lat="39.892617" lon="116.647329">
        <time>2021-06-08T13:17:27Z</time>
      </trkpt>
      <trkpt lat="39.89261" lon="116.647163">
        <time>2021-06-08T13:17:32Z</time>
      </trkpt>
      <trkpt lat="39.892599" lon="116.646986">
        <time>2021-06-08T13:17:37Z</time>
      </trkpt>
      <trkpt lat="39.892639" lon="116.646793">
        <time>2021-06-08T13:17:42Z</time>
      </trkpt>
      <trkpt lat="39.892648" lon="116.646624">
        <time>2021-06-08T13:17:47Z</time>
      </trkpt>
      <trkpt lat="39.892685" lon="116.64646">
        <time>2021-06-08T13:17:52Z</time>
      </trkpt>
      <trkpt lat="39.892705" lon="116.646339">
        <time>2021-06-08T13:17:57Z</time>
      </trkpt>
      <trkpt lat="39.892695" lon="116.646205">
        <time>2021-06-08T13:18:02Z</time>
      </trkpt>
      <trkpt lat="39.89265" lon="116.646055">
        <time>2021-06-08T13:18:07Z</time>
      </trkpt>
      <trkpt lat="39.892622" lon="116.645924">
        <time>2021-06-08T13:18:12Z</time>
      </trkpt>
      <trkpt lat="39.892565" lon="116.645833">
        <time>2021-06-08T13:18:17Z</time>
      </trkpt>
      <trkpt lat="39.892473" lon="116.645811">
        <time>2021-06-08T13:18:22Z</time>
      </trkpt>
      <trkpt lat="39.892387" lon="116.645762">
        <time>2021-06-08T13:18:27Z</time>
      </trkpt>
      <trkpt lat="39.892305" lon="116.645703">
        <time>2021-06-08T13:18:32Z</time>
      </trkpt>
      <trkpt lat="39.89223" lon="116.645674">
        <time>2021-06-08T13:18:37Z</time>
      </trkpt>
      <trkpt lat="39.892145" lon="116.645614">
        <time>2021-06-08T13:18:42Z</time>
      </trkpt>
      <trkpt lat="39.892042" lon="116.645575">
        <time>2021-06-08T13:18:47Z</time>
      </trkpt>
      <trkpt lat="39.891928" lon="116.645538">
        <time>2021-06-08T13:18:52Z</time>
      </trkpt>
      <trkpt lat="39.891797" lon="116.645496">
        <time>2021-06-08T13:18:57Z</time>
      </trkpt>
      <trkpt lat="39.891673" lon="116.645424">
        <time>2021-06-08T13:19:02Z</time>
      </trkpt>
      <trkpt lat="39.891568" lon="116.64534">
        <time>2021-06-08T13:19:07Z</time>
      </trkpt>
      <trkpt lat="39.891492" lon="116.645379">
        <time>2021-06-08T13:19:12Z</time>
      </trkpt>
      <trkpt lat="39.891544" lon="116.645423">
        <time>2021-06-08T13:19:17Z</time>
      </trkpt>
      <trkpt lat="39.891664" lon="116.645486">
        <time>2021-06-08T13:19:22Z</time>
      </trkpt>
      <trkpt lat="39.891846" lon="116.645548">
        <time>2021-06-08T13:19:27Z</time>
      </trkpt>
      <trkpt lat="39.891991" lon="116.645601">
        <time>2021-06-08T13:19:32Z</time>
      </trkpt>
      <trkpt lat="39.892178" lon="116.645663">
        <time>2021-06-08T13:19:37Z</time>
      </trkpt>
      <trkpt lat="39.892335" lon="116.645711">
        <time>2021-06-08T13:19:42Z</time>
      </trkpt>
      <trkpt lat="39.892437" lon="116.645772">
        <time>2021-06-08T13:19:47Z</time>
      </trkpt>
      <trkpt lat="39.892517" lon="116.645803">
        <time>2021-06-08T13:19:52Z</time>
      </trkpt>
      <trkpt lat="39.892635" lon="116.64589">
        <time>2021-06-08T13:19:57Z</time>
      </trkpt>
      <trkpt lat="39.892644" lon="116.64605">
        <time>2021-06-08T13:20:02Z</time>
      </trkpt>
      <trkpt lat="39.89265" lon="116.646241">
        <time>2021-06-08T13:20:07Z</time>
      </trkpt>
      <trkpt lat="39.892665" lon="116.646445">
        <time>2021-06-08T13:20:12Z</time>
      </trkpt>
      <trkpt lat="39.892649" lon="116.646652">
        <time>2021-06-08T13:20:17Z</time>
      </trkpt>
      <trkpt lat="39.892644" lon="116.64687">
        <time>2021-06-08T13:20:22Z</time>
      </trkpt>
      <trkpt lat="39.892631" lon="116.647056">
        <time>2021-06-08T13:20:27Z</time>
      </trkpt>
      <trkpt lat="39.892617" lon="116.647219">
        <time>2021-06-08T13:20:32Z</time>
      </trkpt>
      <trkpt lat="39.892583" lon="116.647307">
        <time>2021-06-08T13:20:37Z</time>
      </trkpt>
      <trkpt lat="39.892558" lon="116.647398">
        <time>2021-06-08T13:20:42Z</time>
      </trkpt>
      <trkpt lat="39.892549" lon="116.647514">
        <time>2021-06-08T13:20:47Z</time>
      </trkpt>
      <trkpt lat="39.892536" lon="116.647643">
        <time>2021-06-08T13:20:52Z</time>
      </trkpt>
      <trkpt lat="39.892534" lon="116.647807">
        <time>2021-06-08T13:20:57Z</time>
      </trkpt>
      <trkpt lat="39.892548" lon="116.647958">
        <time>2021-06-08T13:21:02Z</time>
      </trkpt>
      <trkpt lat="39.892627" lon="116.648015">
        <time>2021-06-08T13:21:07Z</time>
      </trkpt>
      <trkpt lat="39.892785" lon="116.648012">
        <time>2021-06-08T13:21:12Z</time>
      </trkpt>
      <trkpt lat="39.89289" lon="116.648">
        <time>2021-06-08T13:21:17Z</time>
      </trkpt>
      <trkpt lat="39.892999" lon="116.64799">
        <time>2021-06-08T13:21:22Z</time>
      </trkpt>
      <trkpt lat="39.893145" lon="116.647992">
        <time>2021-06-08T13:21:27Z</time>
      </trkpt>
      <trkpt lat="39.893213" lon="116.648">
        <time>2021-06-08T13:21:32Z</time>
      </trkpt>
      <trkpt lat="39.893308" lon="116.648034">
        <time>2021-06-08T13:21:37Z</time>
      </trkpt>
      <trkpt lat="39.893402" lon="116.64803">
        <time>2021-06-08T13:21:42Z</time>
      </trkpt>
      <trkpt lat="39.893504" lon="116.648061">
        <time>2021-06-08T13:21:47Z</time>
      </trkpt>
      <trkpt lat="39.893576" lon="116.648114">
        <time>2021-06-08T13:21:52Z</time>
      </trkpt>
      <trkpt lat="39.893625" lon="116.64815">
        <time>2021-06-08T13:21:57Z</time>
      </trkpt>
      <trkpt lat="39.893742" lon="116.648164">
        <time>2021-06-08T13:22:02Z</time>
      </trkpt>
      <trkpt lat="39.89391" lon="116.648197">
        <time>2021-06-08T13:22:07Z</time>
      </trkpt>
      <trkpt lat="39.894029" lon="116.648314">
        <time>2021-06-08T13:22:12Z</time>
      </trkpt>
      <trkpt lat="39.894141" lon="116.648402">
        <time>2021-06-08T13:22:17Z</time>
      </trkpt>
      <trkpt lat="39.894257" lon="116.648444">
        <time>2021-06-08T13:22:22Z</time>
      </trkpt>
      <trkpt lat="39.894386" lon="116.648496">
        <time>2021-06-08T13:22:27Z</time>
      </trkpt>
      <trkpt lat="39.894509" lon="116.648556">
        <time>2021-06-08T13:22:32Z</time>
      </trkpt>
      <trkpt lat="39.894603" lon="116.648613">
        <time>2021-06-08T13:22:37Z</time>
      </trkpt>
      <trkpt lat="39.894724" lon="116.648665">
        <time>2021-06-08T13:22:42Z</time>
      </trkpt>
      <trkpt lat="39.894857" lon="116.648726">
        <time>2021-06-08T13:22:47Z</time>
      </trkpt>
      <trkpt lat="39.895075" lon="116.64886">
        <time>2021-06-08T13:22:52Z</time>
      </trkpt>
      <trkpt lat="39.895141" lon="116.648919">
        <time>2021-06-08T13:22:57Z</time>
      </trkpt>
      <trkpt lat="39.895216" lon="116.648991">
        <time>2021-06-08T13:23:02Z</time>
      </trkpt>
      <trkpt lat="39.895333" lon="116.649025">
        <time>2021-06-08T13:23:07Z</time>
      </trkpt>
      <trkpt lat="39.895484" lon="116.649069">
        <time>2021-06-08T13:23:12Z</time>
      </trkpt>
      <trkpt lat="39.895639" lon="116.649042">
        <time>2021-06-08T13:23:17Z</time>
      </trkpt>
      <trkpt lat="39.895716" lon="116.648919">
        <time>2021-06-08T13:23:22Z</time>
      </trkpt>
      <trkpt lat="39.895726" lon="116.648784">
        <time>2021-06-08T13:23:27Z</time>
      </trkpt>
      <trkpt lat="39.895751" lon="116.648614">
        <time>2021-06-08T13:23:32Z</time>
      </trkpt>
      <trkpt lat="39.895784" lon="116.648476">
        <time>2021-06-08T13:23:37Z</time>
      </trkpt>
      <trkpt lat="39.895825" lon="116.648296">
        <time>2021-06-08T13:23:42Z</time>
      </trkpt>
      <trkpt lat="39.895886" lon="116.648155">
        <time>2021-06-08T13:23:47Z</time>
      </trkpt>
      <trkpt lat="39.895924" lon="116.64801">
        <time>2021-06-08T13:23:52Z</time>
      </trkpt>
      <trkpt lat="39.895914" lon="116.647866">
        <time>2021-06-08T13:23:57Z</time>
      </trkpt>
      <trkpt lat="39.895909" lon="116.647712">
        <time>2021-06-08T13:24:02Z</time>
      </trkpt>
      <trkpt lat="39.895918" lon="116.647539">
        <time>2021-06-08T13:24:07Z</time>
      </trkpt>
      <trkpt lat="39.895957" lon="116.647372">
        <time>2021-06-08T13:24:12Z</time>
      </trkpt>
      <trkpt lat="39.895947" lon="116.647248">
        <time>2021-06-08T13:24:17Z</time>
      </trkpt>
      <trkpt lat="39.89588" lon="116.647151">
        <time>2021-06-08T13:24:22Z</time>
      </trkpt>
      <trkpt lat="39.895797" lon="116.647141">
        <time>2021-06-08T13:24:27Z</time>
      </trkpt>
      <trkpt lat="39.895735" lon="116.647239">
        <time>2021-06-08T13:24:32Z</time>
      </trkpt>
      <trkpt lat="39.895714" lon="116.647276">
        <time>2021-06-08T13:24:37Z</time>
      </trkpt>
      <trkpt lat="39.895689" lon="116.647416">
        <time>2021-06-08T13:24:42Z</time>
      </trkpt>
      <trkpt lat="39.895686" lon="116.647593">
        <time>2021-06-08T13:24:47Z</time>
      </trkpt>
      <trkpt lat="39.89568" lon="116.647772">
        <time>2021-06-08T13:24:52Z</time>
      </trkpt>
      <trkpt lat="39.895644" lon="116.647937">
        <time>2021-06-08T13:24:57Z</time>
      </trkpt>
      <trkpt lat="39.895636" lon="116.648023">
        <time>2021-06-08T13:25:02Z</time>
      </trkpt>
      <trkpt lat="39.895632" lon="116.648213">
        <time>2021-06-08T13:25:07Z</time>
      </trkpt>
      <trkpt lat="39.895615" lon="116.648411">
        <time>2021-06-08T13:25:12Z</time>
      </trkpt>
      <trkpt lat="39.895709" lon="116.648494">
        <time>2021-06-08T13:25:17Z</time>
      </trkpt>
      <trkpt lat="39.895789" lon="116.648382">
        <time>2021-06-08T13:25:22Z</time>
      </trkpt>
      <trkpt lat="39.89582" lon="116.648222">
        <time>2021-06-08T13:25:27Z</time>
      </trkpt>
      <trkpt lat="39.895861" lon="116.648059">
        <time>2021-06-08T13:25:32Z</time>
      </trkpt>
      <trkpt lat="39.895904" lon="116.647873">
        <time>2021-06-08T13:25:37Z</time>
      </trkpt>
      <trkpt lat="39.895889" lon="116.647721">
        <time>2021-06-08T13:25:42Z</time>
      </trkpt>
      <trkpt lat="39.895889" lon="116.647546">
        <time>2021-06-08T13:25:47Z</time>
      </trkpt>
      <trkpt lat="39.895906" lon="116.647416">
        <time>2021-06-08T13:25:52Z</time>
      </trkpt>
      <trkpt lat="39.895935" lon="116.647256">
        <time>2021-06-08T13:25:57Z</time>
      </trkpt>
      <trkpt lat="39.895931" lon="116.646965">
        <time>2021-06-08T13:26:02Z</time>
      </trkpt>
      <trkpt lat="39.89594" lon="116.646914">
        <time>2021-06-08T13:26:07Z</time>
      </trkpt>
      <trkpt lat="39.895988" lon="116.646795">
        <time>2021-06-08T13:26:12Z</time>
      </trkpt>
      <trkpt lat="39.896021" lon="116.646664">
        <time>2021-06-08T13:26:17Z</time>
      </trkpt>
      <trkpt lat="39.896032" lon="116.646536">
        <time>2021-06-08T13:26:22Z</time>
      </trkpt>
      <trkpt lat="39.896032" lon="116.646361">
        <time>2021-06-08T13:26:27Z</time>
      </trkpt>
      <trkpt lat="39.896038" lon="116.646275">
        <time>2021-06-08T13:26:32Z</time>
      </trkpt>
      <trkpt lat="39.896063" lon="116.646167">
        <time>2021-06-08T13:26:37Z</time>
      </trkpt>
      <trkpt lat="39.896074" lon="116.64605">
        <time>2021-06-08T13:26:42Z</time>
      </trkpt>
      <trkpt lat="39.896107" lon="116.645924">
        <time>2021-06-08T13:26:47Z</time>
      </trkpt>
      <trkpt lat="39.896128" lon="116.64578">
        <time>2021-06-08T13:26:52Z</time>
      </trkpt>
      <trkpt lat="39.89614" lon="116.645606">
        <time>2021-06-08T13:26:57Z</time>
      </trkpt>
      <trkpt lat="39.896146" lon="116.645445">
        <time>2021-06-08T13:27:02Z</time>
      </trkpt>
      <trkpt lat="39.89614" lon="116.645297">
        <time>2021-06-08T13:27:07Z</time>
      </trkpt>
      <trkpt lat="39.896185" lon="116.645007">
        <time>2021-06-08T13:27:12Z</time>
      </trkpt>
      <trkpt lat="39.896186" lon="116.644967">
        <time>2021-06-08T13:27:17Z</time>
      </trkpt>
      <trkpt lat="39.896188" lon="116.644836">
        <time>2021-06-08T13:27:22Z</time>
      </trkpt>
      <trkpt lat="39.896195" lon="116.644738">
        <time>2021-06-08T13:27:27Z</time>
      </trkpt>
      <trkpt lat="39.896193" lon="116.644634">
        <time>2021-06-08T13:27:32Z</time>
      </trkpt>
      <trkpt lat="39.896211" lon="116.644543">
        <time>2021-06-08T13:27:37Z</time>
      </trkpt>
      <trkpt lat="39.896204" lon="116.644433">
        <time>2021-06-08T13:27:42Z</time>
      </trkpt>
      <trkpt lat="39.896209" lon="116.64421">
        <time>2021-06-08T13:27:47Z</time>
      </trkpt>
      <trkpt lat="39.896222" lon="116.644115">
        <time>2021-06-08T13:27:52Z</time>
      </trkpt>
      <trkpt lat="39.896219" lon="116.643975">
        <time>2021-06-08T13:27:57Z</time>
      </trkpt>
      <trkpt lat="39.896188" lon="116.643748">
        <time>2021-06-08T13:28:02Z</time>
      </trkpt>
      <trkpt lat="39.896192" lon="116.643648">
        <time>2021-06-08T13:28:07Z</time>
      </trkpt>
      <trkpt lat="39.89619" lon="116.643486">
        <time>2021-06-08T13:28:12Z</time>
      </trkpt>
      <trkpt lat="39.896154" lon="116.643318">
        <time>2021-06-08T13:28:17Z</time>
      </trkpt>
      <trkpt lat="39.896182" lon="116.643114">
        <time>2021-06-08T13:28:22Z</time>
      </trkpt>
      <trkpt lat="39.896185" lon="116.642976">
        <time>2021-06-08T13:28:27Z</time>
      </trkpt>
      <trkpt lat="39.896165" lon="116.642817">
        <time>2021-06-08T13:28:32Z</time>
      </trkpt>
      <trkpt lat="39.896185" lon="116.642606">
        <time>2021-06-08T13:28:37Z</time>
      </trkpt>
      <trkpt lat="39.89619" lon="116.642587">
        <time>2021-06-08T13:28:42Z</time>
      </trkpt>
      <trkpt lat="39.896196" lon="116.642491">
        <time>2021-06-08T13:28:47Z</time>
      </trkpt>
      <trkpt lat="39.896196" lon="116.642401">
        <time>2021-06-08T13:28:52Z</time>
      </trkpt>
      <trkpt lat="39.896211" lon="116.642261">
        <time>2021-06-08T13:28:57Z</time>
      </trkpt>
      <trkpt lat="39.896221" lon="116.642092">
        <time>2021-06-08T13:29:02Z</time>
      </trkpt>
      <trkpt lat="39.896207" lon="116.641918">
        <time>2021-06-08T13:29:07Z</time>
      </trkpt>
      <trkpt lat="39.896216" lon="116.641768">
        <time>2021-06-08T13:29:12Z</time>
      </trkpt>
      <trkpt lat="39.896224" lon="116.641648">
        <time>2021-06-08T13:29:17Z</time>
      </trkpt>
      <trkpt lat="39.896226" lon="116.641534">
        <time>2021-06-08T13:29:22Z</time>
      </trkpt>
      <trkpt lat="39.896225" lon="116.641404">
        <time>2021-06-08T13:29:27Z</time>
      </trkpt>
      <trkpt lat="39.896206" lon="116.641268">
        <time>2021-06-08T13:29:32Z</time>
      </trkpt>
      <trkpt lat="39.896216" lon="116.641178">
        <time>2021-06-08T13:29:37Z</time>
      </trkpt>
      <trkpt lat="39.896221" lon="116.641084">
        <time>2021-06-08T13:29:42Z</time>
      </trkpt>
      <trkpt lat="39.896224" lon="116.640958">
        <time>2021-06-08T13:29:47Z</time>
      </trkpt>
      <trkpt lat="39.896238" lon="116.640819">
        <time>2021-06-08T13:29:52Z</time>
      </trkpt>
      <trkpt lat="39.896243" lon="116.64067">
        <time>2021-06-08T13:29:57Z</time>
      </trkpt>
      <trkpt lat="39.89625" lon="116.640507">
        <time>2021-06-08T13:30:02Z</time>
      </trkpt>
      <trkpt lat="39.89627" lon="116.640144">
        <time>2021-06-08T13:30:07Z</time>
      </trkpt>
      <trkpt lat="39.896267" lon="116.640103">
        <time>2021-06-08T13:30:12Z</time>
      </trkpt>
      <trkpt lat="39.896255" lon="116.639974">
        <time>2021-06-08T13:30:17Z</time>
      </trkpt>
      <trkpt lat="39.896229" lon="116.639854">
        <time>2021-06-08T13:30:22Z</time>
      </trkpt>
      <trkpt lat="39.896221" lon="116.63972">
        <time>2021-06-08T13:30:27Z</time>
      </trkpt>
      <trkpt lat="39.896199" lon="116.639555">
        <time>2021-06-08T13:30:32Z</time>
      </trkpt>
      <trkpt lat="39.896207" lon="116.639432">
        <time>2021-06-08T13:30:37Z</time>
      </trkpt>
      <trkpt lat="39.896213" lon="116.639294">
        <time>2021-06-08T13:30:42Z</time>
      </trkpt>
      <trkpt lat="39.896198" lon="116.639154">
        <time>2021-06-08T13:30:47Z</time>
      </trkpt>
      <trkpt lat="39.896187" lon="116.639062">
        <time>2021-06-08T13:30:52Z</time>
      </trkpt>
      <trkpt lat="39.89617" lon="116.638978">
        <time>2021-06-08T13:30:57Z</time>
      </trkpt>
      <trkpt lat="39.896162" lon="116.638896">
        <time>2021-06-08T13:31:02Z</time>
      </trkpt>
      <trkpt lat="39.896157" lon="116.638802">
        <time>2021-06-08T13:31:07Z</time>
      </trkpt>
      <trkpt lat="39.896141" lon="116.638696">
        <time>2021-06-08T13:31:12Z</time>
      </trkpt>
      <trkpt lat="39.896141" lon="116.638589">
        <time>2021-06-08T13:31:17Z</time>
      </trkpt>
      <trkpt lat="39.896138" lon="116.638483">
        <time>2021-06-08T13:31:22Z</time>
      </trkpt>
      <trkpt lat="39.896128" lon="116.638408">
        <time>2021-06-08T13:31:27Z</time>
      </trkpt>
      <trkpt lat="39.89613" lon="116.63831">
        <time>2021-06-08T13:31:32Z</time>
      </trkpt>
      <trkpt lat="39.896135" lon="116.638193">
        <time>2021-06-08T13:31:37Z</time>
      </trkpt>
      <trkpt lat="39.896138" lon="116.638111">
        <time>2021-06-08T13:31:42Z</time>
      </trkpt>
      <trkpt lat="39.896141" lon="116.638011">
        <time>2021-06-08T13:31:47Z</time>
      </trkpt>
      <trkpt lat="39.896159" lon="116.637858">
        <time>2021-06-08T13:31:52Z</time>
      </trkpt>
      <trkpt lat="39.896142" lon="116.637701">
        <time>2021-06-08T13:31:57Z</time>
      </trkpt>
      <trkpt lat="39.89612" lon="116.637522">
        <time>2021-06-08T13:32:02Z</time>
      </trkpt>
      <trkpt lat="39.896111" lon="116.637374">
        <time>2021-06-08T13:32:07Z</time>
      </trkpt>
      <trkpt lat="39.896134" lon="116.637228">
        <time>2021-06-08T13:32:12Z</time>
      </trkpt>
      <trkpt lat="39.896126" lon="116.637103">
        <time>2021-06-08T13:32:17Z</time>
      </trkpt>
      <trkpt lat="39.896131" lon="116.637001">
        <time>2021-06-08T13:32:22Z</time>
      </trkpt>
      <trkpt lat="39.896106" lon="116.636909">
        <time>2021-06-08T13:32:27Z</time>
      </trkpt>
      <trkpt lat="39.896057" lon="116.636747">
        <time>2021-06-08T13:32:32Z</time>
      </trkpt>
      <trkpt lat="39.896041" lon="116.636727">
        <time>2021-06-08T13:32:37Z</time>
      </trkpt>
      <trkpt lat="39.895937" lon="116.636624">
        <time>2021-06-08T13:32:42Z</time>
      </trkpt>
      <trkpt lat="39.895893" lon="116.636558">
        <time>2021-06-08T13:32:47Z</time>
      </trkpt>
      <trkpt lat="39.895944" lon="116.636373">
        <time>2021-06-08T13:32:52Z</time>
      </trkpt>
      <trkpt lat="39.896077" lon="116.636254">
        <time>2021-06-08T13:32:57Z</time>
      </trkpt>
      <trkpt lat="39.896187" lon="116.636149">
        <time>2021-06-08T13:33:02Z</time>
      </trkpt>
      <trkpt lat="39.896336" lon="116.636056">
        <time>2021-06-08T13:33:07Z</time>
      </trkpt>
      <trkpt lat="39.896495" lon="116.635927">
        <time>2021-06-08T13:33:12Z</time>
      </trkpt>
      <trkpt lat="39.896674" lon="116.635815">
        <time>2021-06-08T13:33:17Z</time>
      </trkpt>
      <trkpt lat="39.896921" lon="116.635701">
        <time>2021-06-08T13:33:22Z</time>
      </trkpt>
      <trkpt lat="39.897003" lon="116.635678">
        <time>2021-06-08T13:33:27Z</time>
      </trkpt>
      <trkpt lat="39.897115" lon="116.635628">
        <time>2021-06-08T13:33:32Z</time>
      </trkpt>
      <trkpt lat="39.89719" lon="116.635574">
        <time>2021-06-08T13:33:37Z</time>
      </trkpt>
      <trkpt lat="39.897255" lon="116.635531">
        <time>2021-06-08T13:33:42Z</time>
      </trkpt>
      <trkpt lat="39.89732" lon="116.635475">
        <time>2021-06-08T13:33:47Z</time>
      </trkpt>
      <trkpt lat="39.897377" lon="116.635387">
        <time>2021-06-08T13:33:52Z</time>
      </trkpt>
      <trkpt lat="39.897455" lon="116.635333">
        <time>2021-06-08T13:33:57Z</time>
      </trkpt>
      <trkpt lat="39.897535" lon="116.635288">
        <time>2021-06-08T13:34:02Z</time>
      </trkpt>
      <trkpt lat="39.897601" lon="116.635244">
        <time>2021-06-08T13:34:07Z</time>
      </trkpt>
      <trkpt lat="39.897663" lon="116.635302">
        <time>2021-06-08T13:34:12Z</time>
      </trkpt>
      <trkpt lat="39.897728" lon="116.635254">
        <time>2021-06-08T13:34:17Z</time>
      </trkpt>
      <trkpt lat="39.897779" lon="116.6352">
        <time>2021-06-08T13:34:22Z</time>
      </trkpt>
      <trkpt lat="39.89783" lon="116.63512">
        <time>2021-06-08T13:34:27Z</time>
      </trkpt>
      <trkpt lat="39.897933" lon="116.635052">
        <time>2021-06-08T13:34:32Z</time>
      </trkpt>
      <trkpt lat="39.897999" lon="116.635028">
        <time>2021-06-08T13:34:37Z</time>
      </trkpt>
      <trkpt lat="39.898076" lon="116.634954">
        <time>2021-06-08T13:34:42Z</time>
      </trkpt>
      <trkpt lat="39.898076" lon="116.634954">
        <time>2021-06-08T13:34:47Z</time>
      </trkpt>
      <trkpt lat="39.898046" lon="116.634849">
        <time>2021-06-08T13:34:52Z</time>
      </trkpt>
      <trkpt lat="39.898033" lon="116.634754">
        <time>2021-06-08T13:34:57Z</time>
      </trkpt>
      <trkpt lat="39.897969" lon="116.634647">
        <time>2021-06-08T13:35:02Z</time>
      </trkpt>
      <trkpt lat="39.897939" lon="116.634525">
        <time>2021-06-08T13:35:07Z</time>
      </trkpt>
      <trkpt lat="39.897877" lon="116.634397">
        <time>2021-06-08T13:35:12Z</time>
      </trkpt>
      <trkpt lat="39.89782" lon="116.634269">
        <time>2021-06-08T13:35:17Z</time>
      </trkpt>
      <trkpt lat="39.897749" lon="116.634158">
        <time>2021-06-08T13:35:22Z</time>
      </trkpt>
      <trkpt lat="39.897692" lon="116.634019">
        <time>2021-06-08T13:35:27Z</time>
      </trkpt>
      <trkpt lat="39.897635" lon="116.633872">
        <time>2021-06-08T13:35:32Z</time>
      </trkpt>
      <trkpt lat="39.89758" lon="116.633776">
        <time>2021-06-08T13:35:37Z</time>
      </trkpt>
      <trkpt lat="39.897545" lon="116.633666">
        <time>2021-06-08T13:35:42Z</time>
      </trkpt>
      <trkpt lat="39.897439" lon="116.633717">
        <time>2021-06-08T13:35:47Z</time>
      </trkpt>
      <trkpt lat="39.897355" lon="116.633847">
        <time>2021-06-08T13:35:52Z</time>
      </trkpt>
      <trkpt lat="39.89738" lon="116.633974">
        <time>2021-06-08T13:35:57Z</time>
      </trkpt>
      <trkpt lat="39.897448" lon="116.634116">
        <time>2021-06-08T13:36:02Z</time>
      </trkpt>
      <trkpt lat="39.89743" lon="116.634213">
        <time>2021-06-08T13:37:41Z</time>
      </trkpt>
    </trkseg>
  </trk>
</gpx>