<?xml version="1.0" encoding="UTF-8"?>
<gpx xmlns="http://www.topografix.com/GPX/1/1" xmlns:gpxtpx="http://www.garmin.com/xmlschemas/TrackPointExtension/v1" xmlns:xsi="http://www.w3.org/2001/XMLSchema-instance" xsi:schemaLocation="http://www.topografix.com/GPX/1/1 http://www.topografix.com/GPX/1/1/gpx.xsd" version="1.1" creator="gpx.py -- https://github.com/tkrajina/gpxpy">
  <trk>
    <name>gpx from keep</name>
    <trkseg>
      <trkpt lat="39.898018" lon="116.634685">
        <time>2021-06-10T12:06:17Z</time>
      </trkpt>
      <trkpt lat="39.898018" lon="116.634685">
        <time>2021-06-10T12:06:22Z</time>
      </trkpt>
      <trkpt lat="39.898064" lon="116.634743">
        <time>2021-06-10T12:06:27Z</time>
      </trkpt>
      <trkpt lat="39.898105" lon="116.634884">
        <time>2021-06-10T12:06:32Z</time>
      </trkpt>
      <trkpt lat="39.898104" lon="116.634994">
        <time>2021-06-10T12:06:37Z</time>
      </trkpt>
      <trkpt lat="39.89799" lon="116.635082">
        <time>2021-06-10T12:06:42Z</time>
      </trkpt>
      <trkpt lat="39.89788" lon="116.635144">
        <time>2021-06-10T12:06:47Z</time>
      </trkpt>
      <trkpt lat="39.897766" lon="116.635193">
        <time>2021-06-10T12:06:52Z</time>
      </trkpt>
      <trkpt lat="39.897657" lon="116.635294">
        <time>2021-06-10T12:06:57Z</time>
      </trkpt>
      <trkpt lat="39.897565" lon="116.63535">
        <time>2021-06-10T12:07:02Z</time>
      </trkpt>
      <trkpt lat="39.897433" lon="116.635407">
        <time>2021-06-10T12:07:07Z</time>
      </trkpt>
      <trkpt lat="39.897319" lon="116.635489">
        <time>2021-06-10T12:07:12Z</time>
      </trkpt>
      <trkpt lat="39.897204" lon="116.635582">
        <time>2021-06-10T12:07:17Z</time>
      </trkpt>
      <trkpt lat="39.89713" lon="116.635688">
        <time>2021-06-10T12:07:22Z</time>
      </trkpt>
      <trkpt lat="39.897013" lon="116.635768">
        <time>2021-06-10T12:07:27Z</time>
      </trkpt>
      <trkpt lat="39.89689" lon="116.635806">
        <time>2021-06-10T12:07:32Z</time>
      </trkpt>
      <trkpt lat="39.896807" lon="116.635843">
        <time>2021-06-10T12:07:37Z</time>
      </trkpt>
      <trkpt lat="39.896706" lon="116.635895">
        <time>2021-06-10T12:07:42Z</time>
      </trkpt>
      <trkpt lat="39.896542" lon="116.63603">
        <time>2021-06-10T12:07:47Z</time>
      </trkpt>
      <trkpt lat="39.896493" lon="116.636074">
        <time>2021-06-10T12:07:52Z</time>
      </trkpt>
      <trkpt lat="39.896364" lon="116.636131">
        <time>2021-06-10T12:07:57Z</time>
      </trkpt>
      <trkpt lat="39.896251" lon="116.636188">
        <time>2021-06-10T12:08:02Z</time>
      </trkpt>
      <trkpt lat="39.896134" lon="116.636261">
        <time>2021-06-10T12:08:07Z</time>
      </trkpt>
      <trkpt lat="39.896124" lon="116.636391">
        <time>2021-06-10T12:08:12Z</time>
      </trkpt>
      <trkpt lat="39.896088" lon="116.636478">
        <time>2021-06-10T12:08:17Z</time>
      </trkpt>
      <trkpt lat="39.896066" lon="116.636522">
        <time>2021-06-10T12:08:22Z</time>
      </trkpt>
      <trkpt lat="39.896055" lon="116.636523">
        <time>2021-06-10T12:08:27Z</time>
      </trkpt>
      <trkpt lat="39.896059" lon="116.636494">
        <time>2021-06-10T12:08:32Z</time>
      </trkpt>
      <trkpt lat="39.896052" lon="116.636487">
        <time>2021-06-10T12:08:37Z</time>
      </trkpt>
      <trkpt lat="39.89604" lon="116.636471">
        <time>2021-06-10T12:08:42Z</time>
      </trkpt>
      <trkpt lat="39.896048" lon="116.636453">
        <time>2021-06-10T12:08:47Z</time>
      </trkpt>
      <trkpt lat="39.89608" lon="116.636466">
        <time>2021-06-10T12:08:52Z</time>
      </trkpt>
      <trkpt lat="39.896161" lon="116.636467">
        <time>2021-06-10T12:08:57Z</time>
      </trkpt>
      <trkpt lat="39.896222" lon="116.636452">
        <time>2021-06-10T12:09:02Z</time>
      </trkpt>
      <trkpt lat="39.896183" lon="116.636471">
        <time>2021-06-10T12:09:07Z</time>
      </trkpt>
      <trkpt lat="39.896192" lon="116.636461">
        <time>2021-06-10T12:09:12Z</time>
      </trkpt>
      <trkpt lat="39.896192" lon="116.636461">
        <time>2021-06-10T12:09:17Z</time>
      </trkpt>
      <trkpt lat="39.896179" lon="116.636458">
        <time>2021-06-10T12:09:22Z</time>
      </trkpt>
      <trkpt lat="39.896036" lon="116.636462">
        <time>2021-06-10T12:09:27Z</time>
      </trkpt>
      <trkpt lat="39.895959" lon="116.63658">
        <time>2021-06-10T12:09:32Z</time>
      </trkpt>
      <trkpt lat="39.896013" lon="116.636748">
        <time>2021-06-10T12:09:37Z</time>
      </trkpt>
      <trkpt lat="39.896017" lon="116.636909">
        <time>2021-06-10T12:09:42Z</time>
      </trkpt>
      <trkpt lat="39.896049" lon="116.637029">
        <time>2021-06-10T12:09:47Z</time>
      </trkpt>
      <trkpt lat="39.896081" lon="116.637204">
        <time>2021-06-10T12:09:52Z</time>
      </trkpt>
      <trkpt lat="39.89611" lon="116.637399">
        <time>2021-06-10T12:09:57Z</time>
      </trkpt>
      <trkpt lat="39.896137" lon="116.637567">
        <time>2021-06-10T12:10:02Z</time>
      </trkpt>
      <trkpt lat="39.896148" lon="116.637686">
        <time>2021-06-10T12:10:07Z</time>
      </trkpt>
      <trkpt lat="39.896163" lon="116.637856">
        <time>2021-06-10T12:10:12Z</time>
      </trkpt>
      <trkpt lat="39.896162" lon="116.637984">
        <time>2021-06-10T12:10:17Z</time>
      </trkpt>
      <trkpt lat="39.896188" lon="116.638111">
        <time>2021-06-10T12:10:22Z</time>
      </trkpt>
      <trkpt lat="39.896193" lon="116.638312">
        <time>2021-06-10T12:10:27Z</time>
      </trkpt>
      <trkpt lat="39.896188" lon="116.638491">
        <time>2021-06-10T12:10:32Z</time>
      </trkpt>
      <trkpt lat="39.896184" lon="116.638673">
        <time>2021-06-10T12:10:37Z</time>
      </trkpt>
      <trkpt lat="39.896213" lon="116.638824">
        <time>2021-06-10T12:10:42Z</time>
      </trkpt>
      <trkpt lat="39.896165" lon="116.638982">
        <time>2021-06-10T12:10:47Z</time>
      </trkpt>
      <trkpt lat="39.896149" lon="116.639134">
        <time>2021-06-10T12:10:52Z</time>
      </trkpt>
      <trkpt lat="39.896187" lon="116.639314">
        <time>2021-06-10T12:10:57Z</time>
      </trkpt>
      <trkpt lat="39.896184" lon="116.639471">
        <time>2021-06-10T12:11:02Z</time>
      </trkpt>
      <trkpt lat="39.896201" lon="116.639738">
        <time>2021-06-10T12:11:07Z</time>
      </trkpt>
      <trkpt lat="39.8962" lon="116.639802">
        <time>2021-06-10T12:11:12Z</time>
      </trkpt>
      <trkpt lat="39.896176" lon="116.639983">
        <time>2021-06-10T12:11:17Z</time>
      </trkpt>
      <trkpt lat="39.896192" lon="116.640067">
        <time>2021-06-10T12:11:22Z</time>
      </trkpt>
      <trkpt lat="39.896221" lon="116.640203">
        <time>2021-06-10T12:11:27Z</time>
      </trkpt>
      <trkpt lat="39.896291" lon="116.640362">
        <time>2021-06-10T12:11:32Z</time>
      </trkpt>
      <trkpt lat="39.896277" lon="116.640544">
        <time>2021-06-10T12:11:37Z</time>
      </trkpt>
      <trkpt lat="39.896267" lon="116.640781">
        <time>2021-06-10T12:11:42Z</time>
      </trkpt>
      <trkpt lat="39.896213" lon="116.64093">
        <time>2021-06-10T12:11:47Z</time>
      </trkpt>
      <trkpt lat="39.896201" lon="116.641087">
        <time>2021-06-10T12:11:52Z</time>
      </trkpt>
      <trkpt lat="39.896253" lon="116.641207">
        <time>2021-06-10T12:11:57Z</time>
      </trkpt>
      <trkpt lat="39.896291" lon="116.6413">
        <time>2021-06-10T12:12:02Z</time>
      </trkpt>
      <trkpt lat="39.896302" lon="116.641454">
        <time>2021-06-10T12:12:07Z</time>
      </trkpt>
      <trkpt lat="39.896258" lon="116.641626">
        <time>2021-06-10T12:12:12Z</time>
      </trkpt>
      <trkpt lat="39.896255" lon="116.641816">
        <time>2021-06-10T12:12:17Z</time>
      </trkpt>
      <trkpt lat="39.896288" lon="116.641978">
        <time>2021-06-10T12:12:22Z</time>
      </trkpt>
      <trkpt lat="39.896282" lon="116.642146">
        <time>2021-06-10T12:12:27Z</time>
      </trkpt>
      <trkpt lat="39.89628" lon="116.64234">
        <time>2021-06-10T12:12:32Z</time>
      </trkpt>
      <trkpt lat="39.896299" lon="116.642526">
        <time>2021-06-10T12:12:37Z</time>
      </trkpt>
      <trkpt lat="39.896246" lon="116.64269">
        <time>2021-06-10T12:12:42Z</time>
      </trkpt>
      <trkpt lat="39.896228" lon="116.642858">
        <time>2021-06-10T12:12:47Z</time>
      </trkpt>
      <trkpt lat="39.896198" lon="116.64303">
        <time>2021-06-10T12:12:52Z</time>
      </trkpt>
      <trkpt lat="39.896182" lon="116.643147">
        <time>2021-06-10T12:12:57Z</time>
      </trkpt>
      <trkpt lat="39.896168" lon="116.643343">
        <time>2021-06-10T12:13:02Z</time>
      </trkpt>
      <trkpt lat="39.896192" lon="116.643446">
        <time>2021-06-10T12:13:07Z</time>
      </trkpt>
      <trkpt lat="39.896207" lon="116.643515">
        <time>2021-06-10T12:13:12Z</time>
      </trkpt>
      <trkpt lat="39.89622" lon="116.64357">
        <time>2021-06-10T12:13:17Z</time>
      </trkpt>
      <trkpt lat="39.896246" lon="116.6438">
        <time>2021-06-10T12:13:22Z</time>
      </trkpt>
      <trkpt lat="39.896259" lon="116.644021">
        <time>2021-06-10T12:13:27Z</time>
      </trkpt>
      <trkpt lat="39.896196" lon="116.644242">
        <time>2021-06-10T12:13:32Z</time>
      </trkpt>
      <trkpt lat="39.896198" lon="116.644501">
        <time>2021-06-10T12:13:37Z</time>
      </trkpt>
      <trkpt lat="39.896209" lon="116.644586">
        <time>2021-06-10T12:13:42Z</time>
      </trkpt>
      <trkpt lat="39.896196" lon="116.644752">
        <time>2021-06-10T12:13:47Z</time>
      </trkpt>
      <trkpt lat="39.896203" lon="116.644896">
        <time>2021-06-10T12:13:52Z</time>
      </trkpt>
      <trkpt lat="39.896178" lon="116.645058">
        <time>2021-06-10T12:13:57Z</time>
      </trkpt>
      <trkpt lat="39.896184" lon="116.645223">
        <time>2021-06-10T12:14:02Z</time>
      </trkpt>
      <trkpt lat="39.896248" lon="116.645426">
        <time>2021-06-10T12:14:07Z</time>
      </trkpt>
      <trkpt lat="39.896184" lon="116.645627">
        <time>2021-06-10T12:14:12Z</time>
      </trkpt>
      <trkpt lat="39.896122" lon="116.645809">
        <time>2021-06-10T12:14:17Z</time>
      </trkpt>
      <trkpt lat="39.896097" lon="116.64599">
        <time>2021-06-10T12:14:22Z</time>
      </trkpt>
      <trkpt lat="39.896064" lon="116.646179">
        <time>2021-06-10T12:14:27Z</time>
      </trkpt>
      <trkpt lat="39.896051" lon="116.646311">
        <time>2021-06-10T12:14:32Z</time>
      </trkpt>
      <trkpt lat="39.896042" lon="116.646457">
        <time>2021-06-10T12:14:37Z</time>
      </trkpt>
      <trkpt lat="39.896032" lon="116.646603">
        <time>2021-06-10T12:14:42Z</time>
      </trkpt>
      <trkpt lat="39.896002" lon="116.646812">
        <time>2021-06-10T12:14:47Z</time>
      </trkpt>
      <trkpt lat="39.895985" lon="116.646969">
        <time>2021-06-10T12:14:52Z</time>
      </trkpt>
      <trkpt lat="39.896005" lon="116.64705">
        <time>2021-06-10T12:14:57Z</time>
      </trkpt>
      <trkpt lat="39.895981" lon="116.64722">
        <time>2021-06-10T12:15:02Z</time>
      </trkpt>
      <trkpt lat="39.895966" lon="116.647358">
        <time>2021-06-10T12:15:07Z</time>
      </trkpt>
      <trkpt lat="39.895991" lon="116.647476">
        <time>2021-06-10T12:15:12Z</time>
      </trkpt>
      <trkpt lat="39.896033" lon="116.647577">
        <time>2021-06-10T12:15:17Z</time>
      </trkpt>
      <trkpt lat="39.89604" lon="116.647665">
        <time>2021-06-10T12:15:22Z</time>
      </trkpt>
      <trkpt lat="39.896011" lon="116.647775">
        <time>2021-06-10T12:15:27Z</time>
      </trkpt>
      <trkpt lat="39.89595" lon="116.647932">
        <time>2021-06-10T12:15:32Z</time>
      </trkpt>
      <trkpt lat="39.895855" lon="116.64813">
        <time>2021-06-10T12:15:37Z</time>
      </trkpt>
      <trkpt lat="39.89578" lon="116.648341">
        <time>2021-06-10T12:15:42Z</time>
      </trkpt>
      <trkpt lat="39.895691" lon="116.648567">
        <time>2021-06-10T12:15:47Z</time>
      </trkpt>
      <trkpt lat="39.895656" lon="116.648788">
        <time>2021-06-10T12:15:52Z</time>
      </trkpt>
      <trkpt lat="39.895621" lon="116.648963">
        <time>2021-06-10T12:15:57Z</time>
      </trkpt>
      <trkpt lat="39.895552" lon="116.649105">
        <time>2021-06-10T12:16:02Z</time>
      </trkpt>
      <trkpt lat="39.895438" lon="116.649139">
        <time>2021-06-10T12:16:07Z</time>
      </trkpt>
      <trkpt lat="39.895314" lon="116.649086">
        <time>2021-06-10T12:16:12Z</time>
      </trkpt>
      <trkpt lat="39.895185" lon="116.649031">
        <time>2021-06-10T12:16:17Z</time>
      </trkpt>
      <trkpt lat="39.895052" lon="116.648925">
        <time>2021-06-10T12:16:22Z</time>
      </trkpt>
      <trkpt lat="39.894941" lon="116.648855">
        <time>2021-06-10T12:16:27Z</time>
      </trkpt>
      <trkpt lat="39.894865" lon="116.648829">
        <time>2021-06-10T12:16:32Z</time>
      </trkpt>
      <trkpt lat="39.89476" lon="116.648789">
        <time>2021-06-10T12:16:37Z</time>
      </trkpt>
      <trkpt lat="39.894628" lon="116.648763">
        <time>2021-06-10T12:16:42Z</time>
      </trkpt>
      <trkpt lat="39.894549" lon="116.648724">
        <time>2021-06-10T12:16:47Z</time>
      </trkpt>
      <trkpt lat="39.894455" lon="116.648603">
        <time>2021-06-10T12:16:52Z</time>
      </trkpt>
      <trkpt lat="39.894339" lon="116.648524">
        <time>2021-06-10T12:16:57Z</time>
      </trkpt>
      <trkpt lat="39.894217" lon="116.648438">
        <time>2021-06-10T12:17:02Z</time>
      </trkpt>
      <trkpt lat="39.894081" lon="116.648366">
        <time>2021-06-10T12:17:07Z</time>
      </trkpt>
      <trkpt lat="39.893996" lon="116.648297">
        <time>2021-06-10T12:17:12Z</time>
      </trkpt>
      <trkpt lat="39.893902" lon="116.648264">
        <time>2021-06-10T12:17:17Z</time>
      </trkpt>
      <trkpt lat="39.893719" lon="116.648165">
        <time>2021-06-10T12:17:22Z</time>
      </trkpt>
      <trkpt lat="39.893666" lon="116.648138">
        <time>2021-06-10T12:17:27Z</time>
      </trkpt>
      <trkpt lat="39.893536" lon="116.648091">
        <time>2021-06-10T12:17:32Z</time>
      </trkpt>
      <trkpt lat="39.893412" lon="116.648029">
        <time>2021-06-10T12:17:37Z</time>
      </trkpt>
      <trkpt lat="39.893293" lon="116.648025">
        <time>2021-06-10T12:17:42Z</time>
      </trkpt>
      <trkpt lat="39.893164" lon="116.648001">
        <time>2021-06-10T12:17:47Z</time>
      </trkpt>
      <trkpt lat="39.892967" lon="116.647964">
        <time>2021-06-10T12:17:52Z</time>
      </trkpt>
      <trkpt lat="39.892827" lon="116.647971">
        <time>2021-06-10T12:17:57Z</time>
      </trkpt>
      <trkpt lat="39.892752" lon="116.647994">
        <time>2021-06-10T12:18:02Z</time>
      </trkpt>
      <trkpt lat="39.892636" lon="116.648002">
        <time>2021-06-10T12:18:07Z</time>
      </trkpt>
      <trkpt lat="39.892537" lon="116.647993">
        <time>2021-06-10T12:18:12Z</time>
      </trkpt>
      <trkpt lat="39.892521" lon="116.647799">
        <time>2021-06-10T12:18:17Z</time>
      </trkpt>
      <trkpt lat="39.89255" lon="116.647586">
        <time>2021-06-10T12:18:22Z</time>
      </trkpt>
      <trkpt lat="39.892568" lon="116.647397">
        <time>2021-06-10T12:18:27Z</time>
      </trkpt>
      <trkpt lat="39.892571" lon="116.647118">
        <time>2021-06-10T12:18:32Z</time>
      </trkpt>
      <trkpt lat="39.892571" lon="116.647118">
        <time>2021-06-10T12:18:37Z</time>
      </trkpt>
      <trkpt lat="39.892577" lon="116.647098">
        <time>2021-06-10T12:18:42Z</time>
      </trkpt>
      <trkpt lat="39.892604" lon="116.646794">
        <time>2021-06-10T12:18:47Z</time>
      </trkpt>
      <trkpt lat="39.892612" lon="116.646605">
        <time>2021-06-10T12:18:52Z</time>
      </trkpt>
      <trkpt lat="39.892615" lon="116.646428">
        <time>2021-06-10T12:18:57Z</time>
      </trkpt>
      <trkpt lat="39.892641" lon="116.64627">
        <time>2021-06-10T12:19:02Z</time>
      </trkpt>
      <trkpt lat="39.892651" lon="116.646098">
        <time>2021-06-10T12:19:07Z</time>
      </trkpt>
      <trkpt lat="39.892649" lon="116.645925">
        <time>2021-06-10T12:19:12Z</time>
      </trkpt>
      <trkpt lat="39.892605" lon="116.645786">
        <time>2021-06-10T12:19:17Z</time>
      </trkpt>
      <trkpt lat="39.892533" lon="116.645687">
        <time>2021-06-10T12:19:22Z</time>
      </trkpt>
      <trkpt lat="39.892404" lon="116.645662">
        <time>2021-06-10T12:19:27Z</time>
      </trkpt>
      <trkpt lat="39.892241" lon="116.645609">
        <time>2021-06-10T12:19:32Z</time>
      </trkpt>
      <trkpt lat="39.89214" lon="116.645588">
        <time>2021-06-10T12:19:37Z</time>
      </trkpt>
      <trkpt lat="39.892019" lon="116.64558">
        <time>2021-06-10T12:19:42Z</time>
      </trkpt>
      <trkpt lat="39.891895" lon="116.645527">
        <time>2021-06-10T12:19:47Z</time>
      </trkpt>
      <trkpt lat="39.891736" lon="116.645436">
        <time>2021-06-10T12:19:52Z</time>
      </trkpt>
      <trkpt lat="39.89154" lon="116.645271">
        <time>2021-06-10T12:19:57Z</time>
      </trkpt>
      <trkpt lat="39.891529" lon="116.645268">
        <time>2021-06-10T12:20:02Z</time>
      </trkpt>
      <trkpt lat="39.891552" lon="116.645336">
        <time>2021-06-10T12:20:07Z</time>
      </trkpt>
      <trkpt lat="39.891718" lon="116.645415">
        <time>2021-06-10T12:20:12Z</time>
      </trkpt>
      <trkpt lat="39.891839" lon="116.645501">
        <time>2021-06-10T12:20:17Z</time>
      </trkpt>
      <trkpt lat="39.891976" lon="116.6456">
        <time>2021-06-10T12:20:22Z</time>
      </trkpt>
      <trkpt lat="39.892093" lon="116.645647">
        <time>2021-06-10T12:20:27Z</time>
      </trkpt>
      <trkpt lat="39.892216" lon="116.645669">
        <time>2021-06-10T12:20:32Z</time>
      </trkpt>
      <trkpt lat="39.892334" lon="116.645692">
        <time>2021-06-10T12:20:37Z</time>
      </trkpt>
      <trkpt lat="39.892438" lon="116.645765">
        <time>2021-06-10T12:20:42Z</time>
      </trkpt>
      <trkpt lat="39.892555" lon="116.645821">
        <time>2021-06-10T12:20:47Z</time>
      </trkpt>
      <trkpt lat="39.892669" lon="116.645932">
        <time>2021-06-10T12:20:52Z</time>
      </trkpt>
      <trkpt lat="39.892668" lon="116.646235">
        <time>2021-06-10T12:20:57Z</time>
      </trkpt>
      <trkpt lat="39.892663" lon="116.646308">
        <time>2021-06-10T12:21:02Z</time>
      </trkpt>
      <trkpt lat="39.892645" lon="116.646473">
        <time>2021-06-10T12:21:07Z</time>
      </trkpt>
      <trkpt lat="39.892626" lon="116.646621">
        <time>2021-06-10T12:21:12Z</time>
      </trkpt>
      <trkpt lat="39.892613" lon="116.64678">
        <time>2021-06-10T12:21:17Z</time>
      </trkpt>
      <trkpt lat="39.892631" lon="116.646968">
        <time>2021-06-10T12:21:22Z</time>
      </trkpt>
      <trkpt lat="39.892632" lon="116.64716">
        <time>2021-06-10T12:21:27Z</time>
      </trkpt>
      <trkpt lat="39.892613" lon="116.647365">
        <time>2021-06-10T12:21:32Z</time>
      </trkpt>
      <trkpt lat="39.892588" lon="116.647531">
        <time>2021-06-10T12:21:37Z</time>
      </trkpt>
      <trkpt lat="39.892538" lon="116.647673">
        <time>2021-06-10T12:21:42Z</time>
      </trkpt>
      <trkpt lat="39.892533" lon="116.647765">
        <time>2021-06-10T12:21:47Z</time>
      </trkpt>
      <trkpt lat="39.892558" lon="116.647869">
        <time>2021-06-10T12:21:52Z</time>
      </trkpt>
      <trkpt lat="39.892697" lon="116.647922">
        <time>2021-06-10T12:21:57Z</time>
      </trkpt>
      <trkpt lat="39.892831" lon="116.647962">
        <time>2021-06-10T12:22:02Z</time>
      </trkpt>
      <trkpt lat="39.892983" lon="116.647975">
        <time>2021-06-10T12:22:07Z</time>
      </trkpt>
      <trkpt lat="39.893119" lon="116.647998">
        <time>2021-06-10T12:22:12Z</time>
      </trkpt>
      <trkpt lat="39.893245" lon="116.648004">
        <time>2021-06-10T12:22:17Z</time>
      </trkpt>
      <trkpt lat="39.893366" lon="116.648029">
        <time>2021-06-10T12:22:22Z</time>
      </trkpt>
      <trkpt lat="39.893489" lon="116.648086">
        <time>2021-06-10T12:22:27Z</time>
      </trkpt>
      <trkpt lat="39.893634" lon="116.64812">
        <time>2021-06-10T12:22:32Z</time>
      </trkpt>
      <trkpt lat="39.893704" lon="116.648168">
        <time>2021-06-10T12:22:37Z</time>
      </trkpt>
      <trkpt lat="39.893741" lon="116.648237">
        <time>2021-06-10T12:22:42Z</time>
      </trkpt>
      <trkpt lat="39.89385" lon="116.648315">
        <time>2021-06-10T12:22:47Z</time>
      </trkpt>
      <trkpt lat="39.893975" lon="116.648352">
        <time>2021-06-10T12:22:52Z</time>
      </trkpt>
      <trkpt lat="39.894122" lon="116.6484">
        <time>2021-06-10T12:22:57Z</time>
      </trkpt>
      <trkpt lat="39.894159" lon="116.648446">
        <time>2021-06-10T12:23:02Z</time>
      </trkpt>
      <trkpt lat="39.894228" lon="116.648484">
        <time>2021-06-10T12:23:07Z</time>
      </trkpt>
      <trkpt lat="39.894368" lon="116.648529">
        <time>2021-06-10T12:23:12Z</time>
      </trkpt>
      <trkpt lat="39.894492" lon="116.648602">
        <time>2021-06-10T12:23:17Z</time>
      </trkpt>
      <trkpt lat="39.894589" lon="116.648704">
        <time>2021-06-10T12:23:22Z</time>
      </trkpt>
      <trkpt lat="39.894786" lon="116.648728">
        <time>2021-06-10T12:23:27Z</time>
      </trkpt>
      <trkpt lat="39.894945" lon="116.648798">
        <time>2021-06-10T12:23:32Z</time>
      </trkpt>
      <trkpt lat="39.895071" lon="116.648854">
        <time>2021-06-10T12:23:37Z</time>
      </trkpt>
      <trkpt lat="39.895176" lon="116.648901">
        <time>2021-06-10T12:23:42Z</time>
      </trkpt>
      <trkpt lat="39.895304" lon="116.648963">
        <time>2021-06-10T12:23:47Z</time>
      </trkpt>
      <trkpt lat="39.895436" lon="116.649006">
        <time>2021-06-10T12:23:52Z</time>
      </trkpt>
      <trkpt lat="39.895568" lon="116.64904">
        <time>2021-06-10T12:23:57Z</time>
      </trkpt>
      <trkpt lat="39.895695" lon="116.648992">
        <time>2021-06-10T12:24:02Z</time>
      </trkpt>
      <trkpt lat="39.89569" lon="116.648837">
        <time>2021-06-10T12:24:07Z</time>
      </trkpt>
      <trkpt lat="39.895687" lon="116.648704">
        <time>2021-06-10T12:24:12Z</time>
      </trkpt>
      <trkpt lat="39.895705" lon="116.648558">
        <time>2021-06-10T12:24:17Z</time>
      </trkpt>
      <trkpt lat="39.895785" lon="116.648436">
        <time>2021-06-10T12:24:22Z</time>
      </trkpt>
      <trkpt lat="39.895827" lon="116.648305">
        <time>2021-06-10T12:24:27Z</time>
      </trkpt>
      <trkpt lat="39.89585" lon="116.648156">
        <time>2021-06-10T12:24:32Z</time>
      </trkpt>
      <trkpt lat="39.895896" lon="116.647996">
        <time>2021-06-10T12:24:37Z</time>
      </trkpt>
      <trkpt lat="39.895922" lon="116.647836">
        <time>2021-06-10T12:24:42Z</time>
      </trkpt>
      <trkpt lat="39.895913" lon="116.647702">
        <time>2021-06-10T12:24:47Z</time>
      </trkpt>
      <trkpt lat="39.895915" lon="116.64753">
        <time>2021-06-10T12:24:52Z</time>
      </trkpt>
      <trkpt lat="39.895933" lon="116.647346">
        <time>2021-06-10T12:24:57Z</time>
      </trkpt>
      <trkpt lat="39.895937" lon="116.647168">
        <time>2021-06-10T12:25:02Z</time>
      </trkpt>
      <trkpt lat="39.895853" lon="116.647102">
        <time>2021-06-10T12:25:07Z</time>
      </trkpt>
      <trkpt lat="39.89581" lon="116.647247">
        <time>2021-06-10T12:25:12Z</time>
      </trkpt>
      <trkpt lat="39.89577" lon="116.647415">
        <time>2021-06-10T12:25:17Z</time>
      </trkpt>
      <trkpt lat="39.895704" lon="116.647555">
        <time>2021-06-10T12:25:22Z</time>
      </trkpt>
      <trkpt lat="39.89567" lon="116.647741">
        <time>2021-06-10T12:25:27Z</time>
      </trkpt>
      <trkpt lat="39.895686" lon="116.648013">
        <time>2021-06-10T12:25:32Z</time>
      </trkpt>
      <trkpt lat="39.895677" lon="116.648197">
        <time>2021-06-10T12:25:37Z</time>
      </trkpt>
      <trkpt lat="39.895633" lon="116.648358">
        <time>2021-06-10T12:25:42Z</time>
      </trkpt>
      <trkpt lat="39.895664" lon="116.64853">
        <time>2021-06-10T12:25:47Z</time>
      </trkpt>
      <trkpt lat="39.895782" lon="116.648463">
        <time>2021-06-10T12:25:52Z</time>
      </trkpt>
      <trkpt lat="39.895822" lon="116.648246">
        <time>2021-06-10T12:25:57Z</time>
      </trkpt>
      <trkpt lat="39.895873" lon="116.648085">
        <time>2021-06-10T12:26:02Z</time>
      </trkpt>
      <trkpt lat="39.895922" lon="116.647943">
        <time>2021-06-10T12:26:07Z</time>
      </trkpt>
      <trkpt lat="39.895909" lon="116.64776">
        <time>2021-06-10T12:26:12Z</time>
      </trkpt>
      <trkpt lat="39.895875" lon="116.647582">
        <time>2021-06-10T12:26:17Z</time>
      </trkpt>
      <trkpt lat="39.895923" lon="116.647418">
        <time>2021-06-10T12:26:22Z</time>
      </trkpt>
      <trkpt lat="39.895976" lon="116.647273">
        <time>2021-06-10T12:26:27Z</time>
      </trkpt>
      <trkpt lat="39.896003" lon="116.647079">
        <time>2021-06-10T12:26:32Z</time>
      </trkpt>
      <trkpt lat="39.895999" lon="116.646892">
        <time>2021-06-10T12:26:37Z</time>
      </trkpt>
      <trkpt lat="39.896013" lon="116.64675">
        <time>2021-06-10T12:26:42Z</time>
      </trkpt>
      <trkpt lat="39.89605" lon="116.646592">
        <time>2021-06-10T12:26:47Z</time>
      </trkpt>
      <trkpt lat="39.896055" lon="116.646426">
        <time>2021-06-10T12:26:52Z</time>
      </trkpt>
      <trkpt lat="39.896062" lon="116.646262">
        <time>2021-06-10T12:26:57Z</time>
      </trkpt>
      <trkpt lat="39.896036" lon="116.646084">
        <time>2021-06-10T12:27:02Z</time>
      </trkpt>
      <trkpt lat="39.896099" lon="116.645894">
        <time>2021-06-10T12:27:07Z</time>
      </trkpt>
      <trkpt lat="39.896127" lon="116.645723">
        <time>2021-06-10T12:27:12Z</time>
      </trkpt>
      <trkpt lat="39.896149" lon="116.645569">
        <time>2021-06-10T12:27:17Z</time>
      </trkpt>
      <trkpt lat="39.896146" lon="116.645388">
        <time>2021-06-10T12:27:22Z</time>
      </trkpt>
      <trkpt lat="39.896146" lon="116.645221">
        <time>2021-06-10T12:27:27Z</time>
      </trkpt>
      <trkpt lat="39.896172" lon="116.644945">
        <time>2021-06-10T12:27:32Z</time>
      </trkpt>
      <trkpt lat="39.896173" lon="116.64492">
        <time>2021-06-10T12:27:37Z</time>
      </trkpt>
      <trkpt lat="39.896182" lon="116.644776">
        <time>2021-06-10T12:27:42Z</time>
      </trkpt>
      <trkpt lat="39.89619" lon="116.644614">
        <time>2021-06-10T12:27:47Z</time>
      </trkpt>
      <trkpt lat="39.896184" lon="116.644471">
        <time>2021-06-10T12:27:52Z</time>
      </trkpt>
      <trkpt lat="39.896174" lon="116.644318">
        <time>2021-06-10T12:27:57Z</time>
      </trkpt>
      <trkpt lat="39.896158" lon="116.644141">
        <time>2021-06-10T12:28:02Z</time>
      </trkpt>
      <trkpt lat="39.896159" lon="116.64401">
        <time>2021-06-10T12:28:07Z</time>
      </trkpt>
      <trkpt lat="39.896169" lon="116.643752">
        <time>2021-06-10T12:28:12Z</time>
      </trkpt>
      <trkpt lat="39.896168" lon="116.643709">
        <time>2021-06-10T12:28:17Z</time>
      </trkpt>
      <trkpt lat="39.896164" lon="116.643551">
        <time>2021-06-10T12:28:22Z</time>
      </trkpt>
      <trkpt lat="39.896153" lon="116.643378">
        <time>2021-06-10T12:28:27Z</time>
      </trkpt>
      <trkpt lat="39.896144" lon="116.643124">
        <time>2021-06-10T12:28:32Z</time>
      </trkpt>
      <trkpt lat="39.896157" lon="116.643063">
        <time>2021-06-10T12:28:37Z</time>
      </trkpt>
      <trkpt lat="39.896169" lon="116.6429">
        <time>2021-06-10T12:28:42Z</time>
      </trkpt>
      <trkpt lat="39.896159" lon="116.642745">
        <time>2021-06-10T12:28:47Z</time>
      </trkpt>
      <trkpt lat="39.896153" lon="116.64249">
        <time>2021-06-10T12:28:52Z</time>
      </trkpt>
      <trkpt lat="39.896164" lon="116.642428">
        <time>2021-06-10T12:28:57Z</time>
      </trkpt>
      <trkpt lat="39.896218" lon="116.64229">
        <time>2021-06-10T12:29:02Z</time>
      </trkpt>
      <trkpt lat="39.896228" lon="116.642143">
        <time>2021-06-10T12:29:07Z</time>
      </trkpt>
      <trkpt lat="39.89623" lon="116.641994">
        <time>2021-06-10T12:29:12Z</time>
      </trkpt>
      <trkpt lat="39.89621" lon="116.641828">
        <time>2021-06-10T12:29:17Z</time>
      </trkpt>
      <trkpt lat="39.89619" lon="116.641696">
        <time>2021-06-10T12:29:22Z</time>
      </trkpt>
      <trkpt lat="39.896189" lon="116.641557">
        <time>2021-06-10T12:29:27Z</time>
      </trkpt>
      <trkpt lat="39.896195" lon="116.641413">
        <time>2021-06-10T12:29:32Z</time>
      </trkpt>
      <trkpt lat="39.896245" lon="116.641277">
        <time>2021-06-10T12:29:37Z</time>
      </trkpt>
      <trkpt lat="39.896257" lon="116.641102">
        <time>2021-06-10T12:29:42Z</time>
      </trkpt>
      <trkpt lat="39.896269" lon="116.640916">
        <time>2021-06-10T12:29:47Z</time>
      </trkpt>
      <trkpt lat="39.896252" lon="116.640743">
        <time>2021-06-10T12:29:52Z</time>
      </trkpt>
      <trkpt lat="39.896217" lon="116.640595">
        <time>2021-06-10T12:29:57Z</time>
      </trkpt>
      <trkpt lat="39.89622" lon="116.640438">
        <time>2021-06-10T12:30:02Z</time>
      </trkpt>
      <trkpt lat="39.896265" lon="116.64031">
        <time>2021-06-10T12:30:07Z</time>
      </trkpt>
      <trkpt lat="39.896314" lon="116.640368">
        <time>2021-06-10T12:30:12Z</time>
      </trkpt>
      <trkpt lat="39.896624" lon="116.640519">
        <time>2021-06-10T12:30:17Z</time>
      </trkpt>
      <trkpt lat="39.896728" lon="116.64057">
        <time>2021-06-10T12:30:22Z</time>
      </trkpt>
      <trkpt lat="39.896828" lon="116.640642">
        <time>2021-06-10T12:30:27Z</time>
      </trkpt>
      <trkpt lat="39.896941" lon="116.640703">
        <time>2021-06-10T12:30:32Z</time>
      </trkpt>
      <trkpt lat="39.897156" lon="116.640766">
        <time>2021-06-10T12:30:37Z</time>
      </trkpt>
      <trkpt lat="39.897186" lon="116.640769">
        <time>2021-06-10T12:30:42Z</time>
      </trkpt>
      <trkpt lat="39.897311" lon="116.64086">
        <time>2021-06-10T12:30:47Z</time>
      </trkpt>
      <trkpt lat="39.897303" lon="116.640904">
        <time>2021-06-10T12:30:52Z</time>
      </trkpt>
      <trkpt lat="39.897297" lon="116.640901">
        <time>2021-06-10T12:30:57Z</time>
      </trkpt>
      <trkpt lat="39.897405" lon="116.640938">
        <time>2021-06-10T12:31:02Z</time>
      </trkpt>
      <trkpt lat="39.897606" lon="116.641028">
        <time>2021-06-10T12:31:07Z</time>
      </trkpt>
      <trkpt lat="39.897782" lon="116.641126">
        <time>2021-06-10T12:31:12Z</time>
      </trkpt>
      <trkpt lat="39.897953" lon="116.641182">
        <time>2021-06-10T12:31:17Z</time>
      </trkpt>
      <trkpt lat="39.89813" lon="116.641283">
        <time>2021-06-10T12:31:22Z</time>
      </trkpt>
      <trkpt lat="39.898247" lon="116.641329">
        <time>2021-06-10T12:31:27Z</time>
      </trkpt>
      <trkpt lat="39.898374" lon="116.641335">
        <time>2021-06-10T12:31:32Z</time>
      </trkpt>
      <trkpt lat="39.898365" lon="116.641412">
        <time>2021-06-10T12:31:37Z</time>
      </trkpt>
      <trkpt lat="39.898303" lon="116.641585">
        <time>2021-06-10T12:31:42Z</time>
      </trkpt>
      <trkpt lat="39.898209" lon="116.641722">
        <time>2021-06-10T12:31:47Z</time>
      </trkpt>
      <trkpt lat="39.89814" lon="116.641861">
        <time>2021-06-10T12:31:52Z</time>
      </trkpt>
      <trkpt lat="39.898158" lon="116.642063">
        <time>2021-06-10T12:31:57Z</time>
      </trkpt>
      <trkpt lat="39.898201" lon="116.642278">
        <time>2021-06-10T12:32:02Z</time>
      </trkpt>
      <trkpt lat="39.898317" lon="116.642473">
        <time>2021-06-10T12:32:07Z</time>
      </trkpt>
      <trkpt lat="39.89834" lon="116.642646">
        <time>2021-06-10T12:32:12Z</time>
      </trkpt>
      <trkpt lat="39.898316" lon="116.64282">
        <time>2021-06-10T12:32:17Z</time>
      </trkpt>
      <trkpt lat="39.898244" lon="116.643035">
        <time>2021-06-10T12:32:22Z</time>
      </trkpt>
      <trkpt lat="39.898226" lon="116.643105">
        <time>2021-06-10T12:32:27Z</time>
      </trkpt>
      <trkpt lat="39.898266" lon="116.643244">
        <time>2021-06-10T12:32:32Z</time>
      </trkpt>
      <trkpt lat="39.898333" lon="116.643492">
        <time>2021-06-10T12:32:37Z</time>
      </trkpt>
      <trkpt lat="39.89836" lon="116.64371">
        <time>2021-06-10T12:32:42Z</time>
      </trkpt>
      <trkpt lat="39.898398" lon="116.643913">
        <time>2021-06-10T12:32:47Z</time>
      </trkpt>
      <trkpt lat="39.898336" lon="116.64408">
        <time>2021-06-10T12:32:52Z</time>
      </trkpt>
      <trkpt lat="39.898316" lon="116.644234">
        <time>2021-06-10T12:32:57Z</time>
      </trkpt>
      <trkpt lat="39.898348" lon="116.644401">
        <time>2021-06-10T12:33:02Z</time>
      </trkpt>
      <trkpt lat="39.898366" lon="116.64459">
        <time>2021-06-10T12:33:07Z</time>
      </trkpt>
      <trkpt lat="39.898439" lon="116.644738">
        <time>2021-06-10T12:33:12Z</time>
      </trkpt>
      <trkpt lat="39.898489" lon="116.644928">
        <time>2021-06-10T12:33:17Z</time>
      </trkpt>
      <trkpt lat="39.89848" lon="116.645109">
        <time>2021-06-10T12:33:22Z</time>
      </trkpt>
      <trkpt lat="39.898503" lon="116.645287">
        <time>2021-06-10T12:33:27Z</time>
      </trkpt>
      <trkpt lat="39.898558" lon="116.645436">
        <time>2021-06-10T12:33:32Z</time>
      </trkpt>
      <trkpt lat="39.898548" lon="116.645583">
        <time>2021-06-10T12:33:37Z</time>
      </trkpt>
      <trkpt lat="39.898583" lon="116.645725">
        <time>2021-06-10T12:33:42Z</time>
      </trkpt>
      <trkpt lat="39.898619" lon="116.645899">
        <time>2021-06-10T12:33:47Z</time>
      </trkpt>
      <trkpt lat="39.898707" lon="116.646094">
        <time>2021-06-10T12:33:52Z</time>
      </trkpt>
      <trkpt lat="39.898797" lon="116.646261">
        <time>2021-06-10T12:33:57Z</time>
      </trkpt>
      <trkpt lat="39.898828" lon="116.646376">
        <time>2021-06-10T12:34:02Z</time>
      </trkpt>
      <trkpt lat="39.898852" lon="116.646554">
        <time>2021-06-10T12:34:07Z</time>
      </trkpt>
      <trkpt lat="39.898824" lon="116.646749">
        <time>2021-06-10T12:34:12Z</time>
      </trkpt>
      <trkpt lat="39.898839" lon="116.64695">
        <time>2021-06-10T12:34:17Z</time>
      </trkpt>
      <trkpt lat="39.898956" lon="116.647092">
        <time>2021-06-10T12:34:22Z</time>
      </trkpt>
      <trkpt lat="39.899" lon="116.647248">
        <time>2021-06-10T12:34:27Z</time>
      </trkpt>
      <trkpt lat="39.899021" lon="116.64744">
        <time>2021-06-10T12:34:32Z</time>
      </trkpt>
      <trkpt lat="39.899066" lon="116.647594">
        <time>2021-06-10T12:34:37Z</time>
      </trkpt>
      <trkpt lat="39.899113" lon="116.647661">
        <time>2021-06-10T12:34:42Z</time>
      </trkpt>
      <trkpt lat="39.89915" lon="116.64774">
        <time>2021-06-10T12:34:47Z</time>
      </trkpt>
      <trkpt lat="39.899053" lon="116.647948">
        <time>2021-06-10T12:34:52Z</time>
      </trkpt>
      <trkpt lat="39.899011" lon="116.648126">
        <time>2021-06-10T12:34:57Z</time>
      </trkpt>
      <trkpt lat="39.899058" lon="116.6483">
        <time>2021-06-10T12:35:02Z</time>
      </trkpt>
      <trkpt lat="39.899101" lon="116.648461">
        <time>2021-06-10T12:35:07Z</time>
      </trkpt>
      <trkpt lat="39.899091" lon="116.648805">
        <time>2021-06-10T12:35:12Z</time>
      </trkpt>
      <trkpt lat="39.899066" lon="116.648864">
        <time>2021-06-10T12:35:17Z</time>
      </trkpt>
      <trkpt lat="39.899034" lon="116.648951">
        <time>2021-06-10T12:35:22Z</time>
      </trkpt>
      <trkpt lat="39.898966" lon="116.649017">
        <time>2021-06-10T12:35:27Z</time>
      </trkpt>
      <trkpt lat="39.898912" lon="116.649283">
        <time>2021-06-10T12:35:32Z</time>
      </trkpt>
      <trkpt lat="39.898899" lon="116.649426">
        <time>2021-06-10T12:35:37Z</time>
      </trkpt>
      <trkpt lat="39.898997" lon="116.649614">
        <time>2021-06-10T12:35:42Z</time>
      </trkpt>
      <trkpt lat="39.899015" lon="116.649789">
        <time>2021-06-10T12:35:47Z</time>
      </trkpt>
      <trkpt lat="39.898961" lon="116.649934">
        <time>2021-06-10T12:35:52Z</time>
      </trkpt>
      <trkpt lat="39.898979" lon="116.650106">
        <time>2021-06-10T12:35:57Z</time>
      </trkpt>
      <trkpt lat="39.899026" lon="116.650303">
        <time>2021-06-10T12:36:02Z</time>
      </trkpt>
      <trkpt lat="39.899048" lon="116.650487">
        <time>2021-06-10T12:36:07Z</time>
      </trkpt>
      <trkpt lat="39.899023" lon="116.650671">
        <time>2021-06-10T12:36:12Z</time>
      </trkpt>
      <trkpt lat="39.898946" lon="116.650847">
        <time>2021-06-10T12:36:17Z</time>
      </trkpt>
      <trkpt lat="39.898835" lon="116.650958">
        <time>2021-06-10T12:36:22Z</time>
      </trkpt>
      <trkpt lat="39.898758" lon="116.651086">
        <time>2021-06-10T12:36:27Z</time>
      </trkpt>
      <trkpt lat="39.898766" lon="116.651212">
        <time>2021-06-10T12:36:32Z</time>
      </trkpt>
      <trkpt lat="39.898937" lon="116.651447">
        <time>2021-06-10T12:36:37Z</time>
      </trkpt>
      <trkpt lat="39.899004" lon="116.6514">
        <time>2021-06-10T12:36:42Z</time>
      </trkpt>
      <trkpt lat="39.899074" lon="116.651246">
        <time>2021-06-10T12:36:47Z</time>
      </trkpt>
      <trkpt lat="39.89907" lon="116.651018">
        <time>2021-06-10T12:36:52Z</time>
      </trkpt>
      <trkpt lat="39.899031" lon="116.650799">
        <time>2021-06-10T12:36:57Z</time>
      </trkpt>
      <trkpt lat="39.899013" lon="116.650599">
        <time>2021-06-10T12:37:02Z</time>
      </trkpt>
      <trkpt lat="39.898982" lon="116.650403">
        <time>2021-06-10T12:37:07Z</time>
      </trkpt>
      <trkpt lat="39.898995" lon="116.650221">
        <time>2021-06-10T12:37:12Z</time>
      </trkpt>
      <trkpt lat="39.898988" lon="116.650025">
        <time>2021-06-10T12:37:17Z</time>
      </trkpt>
      <trkpt lat="39.898989" lon="116.649831">
        <time>2021-06-10T12:37:22Z</time>
      </trkpt>
      <trkpt lat="39.898973" lon="116.649517">
        <time>2021-06-10T12:37:27Z</time>
      </trkpt>
      <trkpt lat="39.898974" lon="116.649482">
        <time>2021-06-10T12:37:32Z</time>
      </trkpt>
      <trkpt lat="39.89896" lon="116.649167">
        <time>2021-06-10T12:37:37Z</time>
      </trkpt>
      <trkpt lat="39.898956" lon="116.649136">
        <time>2021-06-10T12:37:42Z</time>
      </trkpt>
      <trkpt lat="39.898938" lon="116.649016">
        <time>2021-06-10T12:37:47Z</time>
      </trkpt>
      <trkpt lat="39.898941" lon="116.64887">
        <time>2021-06-10T12:37:52Z</time>
      </trkpt>
      <trkpt lat="39.898936" lon="116.64867">
        <time>2021-06-10T12:37:57Z</time>
      </trkpt>
      <trkpt lat="39.898937" lon="116.64849">
        <time>2021-06-10T12:38:02Z</time>
      </trkpt>
      <trkpt lat="39.898953" lon="116.648332">
        <time>2021-06-10T12:38:07Z</time>
      </trkpt>
      <trkpt lat="39.899005" lon="116.648203">
        <time>2021-06-10T12:38:12Z</time>
      </trkpt>
      <trkpt lat="39.899034" lon="116.648102">
        <time>2021-06-10T12:38:17Z</time>
      </trkpt>
      <trkpt lat="39.899049" lon="116.647945">
        <time>2021-06-10T12:38:22Z</time>
      </trkpt>
      <trkpt lat="39.89903" lon="116.647843">
        <time>2021-06-10T12:38:27Z</time>
      </trkpt>
      <trkpt lat="39.899019" lon="116.647743">
        <time>2021-06-10T12:38:32Z</time>
      </trkpt>
      <trkpt lat="39.899018" lon="116.647675">
        <time>2021-06-10T12:38:37Z</time>
      </trkpt>
      <trkpt lat="39.899027" lon="116.647597">
        <time>2021-06-10T12:38:42Z</time>
      </trkpt>
      <trkpt lat="39.899014" lon="116.647525">
        <time>2021-06-10T12:38:47Z</time>
      </trkpt>
      <trkpt lat="39.899005" lon="116.647416">
        <time>2021-06-10T12:38:52Z</time>
      </trkpt>
      <trkpt lat="39.898986" lon="116.64728">
        <time>2021-06-10T12:38:57Z</time>
      </trkpt>
      <trkpt lat="39.898915" lon="116.647124">
        <time>2021-06-10T12:39:02Z</time>
      </trkpt>
      <trkpt lat="39.898843" lon="116.646956">
        <time>2021-06-10T12:39:07Z</time>
      </trkpt>
      <trkpt lat="39.898796" lon="116.646659">
        <time>2021-06-10T12:39:12Z</time>
      </trkpt>
      <trkpt lat="39.898787" lon="116.646567">
        <time>2021-06-10T12:39:17Z</time>
      </trkpt>
      <trkpt lat="39.898756" lon="116.646396">
        <time>2021-06-10T12:39:22Z</time>
      </trkpt>
      <trkpt lat="39.898702" lon="116.646259">
        <time>2021-06-10T12:39:27Z</time>
      </trkpt>
      <trkpt lat="39.89864" lon="116.646119">
        <time>2021-06-10T12:39:32Z</time>
      </trkpt>
      <trkpt lat="39.898593" lon="116.645975">
        <time>2021-06-10T12:39:37Z</time>
      </trkpt>
      <trkpt lat="39.89855" lon="116.645863">
        <time>2021-06-10T12:39:42Z</time>
      </trkpt>
      <trkpt lat="39.898512" lon="116.645789">
        <time>2021-06-10T12:39:47Z</time>
      </trkpt>
      <trkpt lat="39.898501" lon="116.645651">
        <time>2021-06-10T12:39:52Z</time>
      </trkpt>
      <trkpt lat="39.898469" lon="116.645494">
        <time>2021-06-10T12:39:57Z</time>
      </trkpt>
      <trkpt lat="39.898468" lon="116.645321">
        <time>2021-06-10T12:40:02Z</time>
      </trkpt>
      <trkpt lat="39.898452" lon="116.645169">
        <time>2021-06-10T12:40:07Z</time>
      </trkpt>
      <trkpt lat="39.89843" lon="116.645017">
        <time>2021-06-10T12:40:12Z</time>
      </trkpt>
      <trkpt lat="39.898414" lon="116.644877">
        <time>2021-06-10T12:40:17Z</time>
      </trkpt>
      <trkpt lat="39.898384" lon="116.644724">
        <time>2021-06-10T12:40:22Z</time>
      </trkpt>
      <trkpt lat="39.898375" lon="116.644585">
        <time>2021-06-10T12:40:27Z</time>
      </trkpt>
      <trkpt lat="39.898339" lon="116.644447">
        <time>2021-06-10T12:40:32Z</time>
      </trkpt>
      <trkpt lat="39.898307" lon="116.644301">
        <time>2021-06-10T12:40:37Z</time>
      </trkpt>
      <trkpt lat="39.898303" lon="116.644147">
        <time>2021-06-10T12:40:42Z</time>
      </trkpt>
      <trkpt lat="39.898321" lon="116.643966">
        <time>2021-06-10T12:40:47Z</time>
      </trkpt>
      <trkpt lat="39.898295" lon="116.643825">
        <time>2021-06-10T12:40:52Z</time>
      </trkpt>
      <trkpt lat="39.898265" lon="116.643695">
        <time>2021-06-10T12:40:57Z</time>
      </trkpt>
      <trkpt lat="39.898254" lon="116.643555">
        <time>2021-06-10T12:41:02Z</time>
      </trkpt>
      <trkpt lat="39.898272" lon="116.643388">
        <time>2021-06-10T12:41:07Z</time>
      </trkpt>
      <trkpt lat="39.898285" lon="116.643114">
        <time>2021-06-10T12:41:12Z</time>
      </trkpt>
      <trkpt lat="39.89828" lon="116.64305">
        <time>2021-06-10T12:41:17Z</time>
      </trkpt>
      <trkpt lat="39.898271" lon="116.642897">
        <time>2021-06-10T12:41:22Z</time>
      </trkpt>
      <trkpt lat="39.898299" lon="116.64275">
        <time>2021-06-10T12:41:27Z</time>
      </trkpt>
      <trkpt lat="39.898326" lon="116.642685">
        <time>2021-06-10T12:41:32Z</time>
      </trkpt>
      <trkpt lat="39.898323" lon="116.642586">
        <time>2021-06-10T12:41:37Z</time>
      </trkpt>
      <trkpt lat="39.898285" lon="116.642467">
        <time>2021-06-10T12:41:42Z</time>
      </trkpt>
      <trkpt lat="39.898284" lon="116.64234">
        <time>2021-06-10T12:41:47Z</time>
      </trkpt>
      <trkpt lat="39.898256" lon="116.642283">
        <time>2021-06-10T12:41:52Z</time>
      </trkpt>
      <trkpt lat="39.898271" lon="116.642148">
        <time>2021-06-10T12:41:57Z</time>
      </trkpt>
      <trkpt lat="39.898288" lon="116.641975">
        <time>2021-06-10T12:42:02Z</time>
      </trkpt>
      <trkpt lat="39.898338" lon="116.641783">
        <time>2021-06-10T12:42:07Z</time>
      </trkpt>
      <trkpt lat="39.898363" lon="116.641618">
        <time>2021-06-10T12:42:12Z</time>
      </trkpt>
      <trkpt lat="39.898379" lon="116.641405">
        <time>2021-06-10T12:42:17Z</time>
      </trkpt>
      <trkpt lat="39.898293" lon="116.64127">
        <time>2021-06-10T12:42:22Z</time>
      </trkpt>
      <trkpt lat="39.898187" lon="116.641279">
        <time>2021-06-10T12:42:27Z</time>
      </trkpt>
      <trkpt lat="39.898054" lon="116.641265">
        <time>2021-06-10T12:42:32Z</time>
      </trkpt>
      <trkpt lat="39.897947" lon="116.641213">
        <time>2021-06-10T12:42:37Z</time>
      </trkpt>
      <trkpt lat="39.897824" lon="116.641173">
        <time>2021-06-10T12:42:42Z</time>
      </trkpt>
      <trkpt lat="39.897686" lon="116.641092">
        <time>2021-06-10T12:42:47Z</time>
      </trkpt>
      <trkpt lat="39.897573" lon="116.641002">
        <time>2021-06-10T12:42:52Z</time>
      </trkpt>
      <trkpt lat="39.897475" lon="116.641008">
        <time>2021-06-10T12:42:57Z</time>
      </trkpt>
      <trkpt lat="39.897352" lon="116.640973">
        <time>2021-06-10T12:43:02Z</time>
      </trkpt>
      <trkpt lat="39.897212" lon="116.640889">
        <time>2021-06-10T12:43:07Z</time>
      </trkpt>
      <trkpt lat="39.897171" lon="116.640823">
        <time>2021-06-10T12:43:12Z</time>
      </trkpt>
      <trkpt lat="39.897086" lon="116.640742">
        <time>2021-06-10T12:43:17Z</time>
      </trkpt>
      <trkpt lat="39.896997" lon="116.640636">
        <time>2021-06-10T12:43:22Z</time>
      </trkpt>
      <trkpt lat="39.896895" lon="116.640575">
        <time>2021-06-10T12:43:27Z</time>
      </trkpt>
      <trkpt lat="39.896795" lon="116.640534">
        <time>2021-06-10T12:43:32Z</time>
      </trkpt>
      <trkpt lat="39.896556" lon="116.640419">
        <time>2021-06-10T12:43:37Z</time>
      </trkpt>
      <trkpt lat="39.896528" lon="116.640396">
        <time>2021-06-10T12:43:42Z</time>
      </trkpt>
      <trkpt lat="39.896434" lon="116.640289">
        <time>2021-06-10T12:43:47Z</time>
      </trkpt>
      <trkpt lat="39.896392" lon="116.640206">
        <time>2021-06-10T12:43:52Z</time>
      </trkpt>
      <trkpt lat="39.89634" lon="116.640142">
        <time>2021-06-10T12:43:57Z</time>
      </trkpt>
      <trkpt lat="39.896292" lon="116.640009">
        <time>2021-06-10T12:44:02Z</time>
      </trkpt>
      <trkpt lat="39.896253" lon="116.639849">
        <time>2021-06-10T12:44:07Z</time>
      </trkpt>
      <trkpt lat="39.89627" lon="116.639725">
        <time>2021-06-10T12:44:12Z</time>
      </trkpt>
      <trkpt lat="39.896284" lon="116.639581">
        <time>2021-06-10T12:44:17Z</time>
      </trkpt>
      <trkpt lat="39.896292" lon="116.63942">
        <time>2021-06-10T12:44:22Z</time>
      </trkpt>
      <trkpt lat="39.896269" lon="116.639278">
        <time>2021-06-10T12:44:27Z</time>
      </trkpt>
      <trkpt lat="39.896279" lon="116.639129">
        <time>2021-06-10T12:44:32Z</time>
      </trkpt>
      <trkpt lat="39.896295" lon="116.638989">
        <time>2021-06-10T12:44:37Z</time>
      </trkpt>
      <trkpt lat="39.8963" lon="116.638834">
        <time>2021-06-10T12:44:42Z</time>
      </trkpt>
      <trkpt lat="39.896285" lon="116.638656">
        <time>2021-06-10T12:44:47Z</time>
      </trkpt>
      <trkpt lat="39.896275" lon="116.638495">
        <time>2021-06-10T12:44:52Z</time>
      </trkpt>
      <trkpt lat="39.896227" lon="116.6384">
        <time>2021-06-10T12:44:57Z</time>
      </trkpt>
      <trkpt lat="39.896214" lon="116.638281">
        <time>2021-06-10T12:45:02Z</time>
      </trkpt>
      <trkpt lat="39.896214" lon="116.638111">
        <time>2021-06-10T12:45:07Z</time>
      </trkpt>
      <trkpt lat="39.896208" lon="116.63802">
        <time>2021-06-10T12:45:12Z</time>
      </trkpt>
      <trkpt lat="39.896217" lon="116.637931">
        <time>2021-06-10T12:45:17Z</time>
      </trkpt>
      <trkpt lat="39.896209" lon="116.637882">
        <time>2021-06-10T12:45:22Z</time>
      </trkpt>
      <trkpt lat="39.896206" lon="116.637791">
        <time>2021-06-10T12:45:27Z</time>
      </trkpt>
      <trkpt lat="39.896197" lon="116.637679">
        <time>2021-06-10T12:45:32Z</time>
      </trkpt>
      <trkpt lat="39.896178" lon="116.637593">
        <time>2021-06-10T12:45:37Z</time>
      </trkpt>
      <trkpt lat="39.89616" lon="116.637501">
        <time>2021-06-10T12:45:42Z</time>
      </trkpt>
      <trkpt lat="39.896146" lon="116.637372">
        <time>2021-06-10T12:45:47Z</time>
      </trkpt>
      <trkpt lat="39.896127" lon="116.637224">
        <time>2021-06-10T12:45:52Z</time>
      </trkpt>
      <trkpt lat="39.896132" lon="116.63707">
        <time>2021-06-10T12:45:57Z</time>
      </trkpt>
      <trkpt lat="39.896095" lon="116.636908">
        <time>2021-06-10T12:46:02Z</time>
      </trkpt>
      <trkpt lat="39.896063" lon="116.636741">
        <time>2021-06-10T12:46:07Z</time>
      </trkpt>
      <trkpt lat="39.896045" lon="116.636661">
        <time>2021-06-10T12:46:12Z</time>
      </trkpt>
      <trkpt lat="39.896016" lon="116.6368">
        <time>2021-06-10T12:46:17Z</time>
      </trkpt>
      <trkpt lat="39.896037" lon="116.637024">
        <time>2021-06-10T12:46:22Z</time>
      </trkpt>
      <trkpt lat="39.896064" lon="116.637203">
        <time>2021-06-10T12:46:27Z</time>
      </trkpt>
      <trkpt lat="39.896118" lon="116.637336">
        <time>2021-06-10T12:46:32Z</time>
      </trkpt>
      <trkpt lat="39.896163" lon="116.637437">
        <time>2021-06-10T12:46:37Z</time>
      </trkpt>
      <trkpt lat="39.896175" lon="116.637546">
        <time>2021-06-10T12:46:42Z</time>
      </trkpt>
      <trkpt lat="39.896204" lon="116.63773">
        <time>2021-06-10T12:46:47Z</time>
      </trkpt>
      <trkpt lat="39.896219" lon="116.637856">
        <time>2021-06-10T12:46:52Z</time>
      </trkpt>
      <trkpt lat="39.896187" lon="116.638014">
        <time>2021-06-10T12:46:57Z</time>
      </trkpt>
      <trkpt lat="39.89618" lon="116.638195">
        <time>2021-06-10T12:47:02Z</time>
      </trkpt>
      <trkpt lat="39.896191" lon="116.638392">
        <time>2021-06-10T12:47:07Z</time>
      </trkpt>
      <trkpt lat="39.896154" lon="116.638576">
        <time>2021-06-10T12:47:12Z</time>
      </trkpt>
      <trkpt lat="39.896098" lon="116.638706">
        <time>2021-06-10T12:47:17Z</time>
      </trkpt>
      <trkpt lat="39.89615" lon="116.638857">
        <time>2021-06-10T12:47:22Z</time>
      </trkpt>
      <trkpt lat="39.89621" lon="116.639009">
        <time>2021-06-10T12:47:27Z</time>
      </trkpt>
      <trkpt lat="39.896207" lon="116.639117">
        <time>2021-06-10T12:47:32Z</time>
      </trkpt>
      <trkpt lat="39.896187" lon="116.639205">
        <time>2021-06-10T12:47:37Z</time>
      </trkpt>
      <trkpt lat="39.896183" lon="116.639267">
        <time>2021-06-10T12:47:42Z</time>
      </trkpt>
      <trkpt lat="39.896185" lon="116.639347">
        <time>2021-06-10T12:47:47Z</time>
      </trkpt>
      <trkpt lat="39.896192" lon="116.639491">
        <time>2021-06-10T12:47:52Z</time>
      </trkpt>
      <trkpt lat="39.89622" lon="116.639686">
        <time>2021-06-10T12:47:57Z</time>
      </trkpt>
      <trkpt lat="39.896219" lon="116.639728">
        <time>2021-06-10T12:48:02Z</time>
      </trkpt>
      <trkpt lat="39.896203" lon="116.639923">
        <time>2021-06-10T12:48:07Z</time>
      </trkpt>
      <trkpt lat="39.89622" lon="116.6401">
        <time>2021-06-10T12:48:12Z</time>
      </trkpt>
      <trkpt lat="39.89619" lon="116.640265">
        <time>2021-06-10T12:48:17Z</time>
      </trkpt>
      <trkpt lat="39.89618" lon="116.640444">
        <time>2021-06-10T12:48:22Z</time>
      </trkpt>
      <trkpt lat="39.896176" lon="116.640816">
        <time>2021-06-10T12:48:27Z</time>
      </trkpt>
      <trkpt lat="39.896169" lon="116.640851">
        <time>2021-06-10T12:48:32Z</time>
      </trkpt>
      <trkpt lat="39.896129" lon="116.640998">
        <time>2021-06-10T12:48:37Z</time>
      </trkpt>
      <trkpt lat="39.896083" lon="116.641186">
        <time>2021-06-10T12:48:42Z</time>
      </trkpt>
      <trkpt lat="39.896144" lon="116.64149">
        <time>2021-06-10T12:48:47Z</time>
      </trkpt>
      <trkpt lat="39.896196" lon="116.641724">
        <time>2021-06-10T12:48:52Z</time>
      </trkpt>
      <trkpt lat="39.896206" lon="116.641915">
        <time>2021-06-10T12:48:57Z</time>
      </trkpt>
      <trkpt lat="39.89621" lon="116.642141">
        <time>2021-06-10T12:49:02Z</time>
      </trkpt>
      <trkpt lat="39.896219" lon="116.642206">
        <time>2021-06-10T12:49:07Z</time>
      </trkpt>
      <trkpt lat="39.896216" lon="116.642338">
        <time>2021-06-10T12:49:12Z</time>
      </trkpt>
      <trkpt lat="39.896167" lon="116.642454">
        <time>2021-06-10T12:49:17Z</time>
      </trkpt>
      <trkpt lat="39.896144" lon="116.642599">
        <time>2021-06-10T12:49:22Z</time>
      </trkpt>
      <trkpt lat="39.896146" lon="116.642756">
        <time>2021-06-10T12:49:27Z</time>
      </trkpt>
      <trkpt lat="39.896172" lon="116.642973">
        <time>2021-06-10T12:49:32Z</time>
      </trkpt>
      <trkpt lat="39.896185" lon="116.643023">
        <time>2021-06-10T12:49:37Z</time>
      </trkpt>
      <trkpt lat="39.896193" lon="116.643328">
        <time>2021-06-10T12:49:42Z</time>
      </trkpt>
      <trkpt lat="39.896194" lon="116.643367">
        <time>2021-06-10T12:49:47Z</time>
      </trkpt>
      <trkpt lat="39.896202" lon="116.64359">
        <time>2021-06-10T12:49:52Z</time>
      </trkpt>
      <trkpt lat="39.896219" lon="116.643846">
        <time>2021-06-10T12:49:57Z</time>
      </trkpt>
      <trkpt lat="39.896202" lon="116.643952">
        <time>2021-06-10T12:50:02Z</time>
      </trkpt>
      <trkpt lat="39.896214" lon="116.644164">
        <time>2021-06-10T12:50:07Z</time>
      </trkpt>
      <trkpt lat="39.896202" lon="116.644439">
        <time>2021-06-10T12:50:12Z</time>
      </trkpt>
      <trkpt lat="39.896215" lon="116.644495">
        <time>2021-06-10T12:50:17Z</time>
      </trkpt>
      <trkpt lat="39.896256" lon="116.644612">
        <time>2021-06-10T12:50:22Z</time>
      </trkpt>
      <trkpt lat="39.896235" lon="116.644732">
        <time>2021-06-10T12:50:27Z</time>
      </trkpt>
      <trkpt lat="39.896196" lon="116.644884">
        <time>2021-06-10T12:50:32Z</time>
      </trkpt>
      <trkpt lat="39.896119" lon="116.64499">
        <time>2021-06-10T12:50:37Z</time>
      </trkpt>
      <trkpt lat="39.896094" lon="116.64522">
        <time>2021-06-10T12:50:42Z</time>
      </trkpt>
      <trkpt lat="39.896111" lon="116.645324">
        <time>2021-06-10T12:50:47Z</time>
      </trkpt>
      <trkpt lat="39.896102" lon="116.645509">
        <time>2021-06-10T12:50:52Z</time>
      </trkpt>
      <trkpt lat="39.89606" lon="116.645695">
        <time>2021-06-10T12:50:57Z</time>
      </trkpt>
      <trkpt lat="39.896039" lon="116.645828">
        <time>2021-06-10T12:51:02Z</time>
      </trkpt>
      <trkpt lat="39.896012" lon="116.646045">
        <time>2021-06-10T12:51:07Z</time>
      </trkpt>
      <trkpt lat="39.896017" lon="116.646231">
        <time>2021-06-10T12:51:12Z</time>
      </trkpt>
      <trkpt lat="39.896012" lon="116.646362">
        <time>2021-06-10T12:51:17Z</time>
      </trkpt>
      <trkpt lat="39.896006" lon="116.646454">
        <time>2021-06-10T12:51:22Z</time>
      </trkpt>
      <trkpt lat="39.895978" lon="116.646526">
        <time>2021-06-10T12:51:27Z</time>
      </trkpt>
      <trkpt lat="39.895988" lon="116.646621">
        <time>2021-06-10T12:51:32Z</time>
      </trkpt>
      <trkpt lat="39.89598" lon="116.646706">
        <time>2021-06-10T12:51:37Z</time>
      </trkpt>
      <trkpt lat="39.895993" lon="116.646792">
        <time>2021-06-10T12:51:42Z</time>
      </trkpt>
      <trkpt lat="39.895974" lon="116.646909">
        <time>2021-06-10T12:51:47Z</time>
      </trkpt>
      <trkpt lat="39.895946" lon="116.647035">
        <time>2021-06-10T12:51:52Z</time>
      </trkpt>
      <trkpt lat="39.895895" lon="116.647098">
        <time>2021-06-10T12:51:57Z</time>
      </trkpt>
      <trkpt lat="39.895806" lon="116.647169">
        <time>2021-06-10T12:52:02Z</time>
      </trkpt>
      <trkpt lat="39.8958" lon="116.64735">
        <time>2021-06-10T12:52:07Z</time>
      </trkpt>
      <trkpt lat="39.895788" lon="116.647505">
        <time>2021-06-10T12:52:12Z</time>
      </trkpt>
      <trkpt lat="39.895714" lon="116.647689">
        <time>2021-06-10T12:52:17Z</time>
      </trkpt>
      <trkpt lat="39.895656" lon="116.647953">
        <time>2021-06-10T12:52:22Z</time>
      </trkpt>
      <trkpt lat="39.895616" lon="116.648128">
        <time>2021-06-10T12:52:27Z</time>
      </trkpt>
      <trkpt lat="39.895562" lon="116.64831">
        <time>2021-06-10T12:52:32Z</time>
      </trkpt>
      <trkpt lat="39.895559" lon="116.648468">
        <time>2021-06-10T12:52:37Z</time>
      </trkpt>
      <trkpt lat="39.895678" lon="116.648572">
        <time>2021-06-10T12:52:42Z</time>
      </trkpt>
      <trkpt lat="39.895793" lon="116.648436">
        <time>2021-06-10T12:52:47Z</time>
      </trkpt>
      <trkpt lat="39.895829" lon="116.648245">
        <time>2021-06-10T12:52:52Z</time>
      </trkpt>
      <trkpt lat="39.895895" lon="116.648106">
        <time>2021-06-10T12:52:57Z</time>
      </trkpt>
      <trkpt lat="39.895903" lon="116.647962">
        <time>2021-06-10T12:53:02Z</time>
      </trkpt>
      <trkpt lat="39.895895" lon="116.647794">
        <time>2021-06-10T12:53:07Z</time>
      </trkpt>
      <trkpt lat="39.895909" lon="116.647635">
        <time>2021-06-10T12:53:12Z</time>
      </trkpt>
      <trkpt lat="39.895939" lon="116.647463">
        <time>2021-06-10T12:53:17Z</time>
      </trkpt>
      <trkpt lat="39.895952" lon="116.647273">
        <time>2021-06-10T12:53:22Z</time>
      </trkpt>
      <trkpt lat="39.895908" lon="116.647159">
        <time>2021-06-10T12:53:27Z</time>
      </trkpt>
      <trkpt lat="39.895817" lon="116.647191">
        <time>2021-06-10T12:53:32Z</time>
      </trkpt>
      <trkpt lat="39.895738" lon="116.64734">
        <time>2021-06-10T12:53:37Z</time>
      </trkpt>
      <trkpt lat="39.895728" lon="116.647546">
        <time>2021-06-10T12:53:42Z</time>
      </trkpt>
      <trkpt lat="39.895718" lon="116.647714">
        <time>2021-06-10T12:53:47Z</time>
      </trkpt>
      <trkpt lat="39.895714" lon="116.64789">
        <time>2021-06-10T12:53:52Z</time>
      </trkpt>
      <trkpt lat="39.895733" lon="116.64806">
        <time>2021-06-10T12:53:57Z</time>
      </trkpt>
      <trkpt lat="39.895696" lon="116.648152">
        <time>2021-06-10T12:54:02Z</time>
      </trkpt>
      <trkpt lat="39.895665" lon="116.648287">
        <time>2021-06-10T12:54:07Z</time>
      </trkpt>
      <trkpt lat="39.895642" lon="116.648423">
        <time>2021-06-10T12:54:12Z</time>
      </trkpt>
      <trkpt lat="39.895603" lon="116.648591">
        <time>2021-06-10T12:54:17Z</time>
      </trkpt>
      <trkpt lat="39.89559" lon="116.648784">
        <time>2021-06-10T12:54:22Z</time>
      </trkpt>
      <trkpt lat="39.895546" lon="116.648915">
        <time>2021-06-10T12:54:27Z</time>
      </trkpt>
      <trkpt lat="39.895529" lon="116.649033">
        <time>2021-06-10T12:54:32Z</time>
      </trkpt>
      <trkpt lat="39.895463" lon="116.649106">
        <time>2021-06-10T12:54:37Z</time>
      </trkpt>
      <trkpt lat="39.895402" lon="116.649089">
        <time>2021-06-10T12:54:42Z</time>
      </trkpt>
      <trkpt lat="39.895359" lon="116.649065">
        <time>2021-06-10T12:54:47Z</time>
      </trkpt>
      <trkpt lat="39.89531" lon="116.649046">
        <time>2021-06-10T12:54:52Z</time>
      </trkpt>
      <trkpt lat="39.895227" lon="116.648994">
        <time>2021-06-10T12:54:57Z</time>
      </trkpt>
      <trkpt lat="39.895114" lon="116.648926">
        <time>2021-06-10T12:55:02Z</time>
      </trkpt>
      <trkpt lat="39.895026" lon="116.648856">
        <time>2021-06-10T12:55:07Z</time>
      </trkpt>
      <trkpt lat="39.894918" lon="116.648806">
        <time>2021-06-10T12:55:12Z</time>
      </trkpt>
      <trkpt lat="39.894863" lon="116.648806">
        <time>2021-06-10T12:55:17Z</time>
      </trkpt>
      <trkpt lat="39.894766" lon="116.648758">
        <time>2021-06-10T12:55:22Z</time>
      </trkpt>
      <trkpt lat="39.894643" lon="116.648687">
        <time>2021-06-10T12:55:27Z</time>
      </trkpt>
      <trkpt lat="39.894524" lon="116.648583">
        <time>2021-06-10T12:55:32Z</time>
      </trkpt>
      <trkpt lat="39.894404" lon="116.648524">
        <time>2021-06-10T12:55:37Z</time>
      </trkpt>
      <trkpt lat="39.894283" lon="116.648477">
        <time>2021-06-10T12:55:42Z</time>
      </trkpt>
      <trkpt lat="39.894155" lon="116.648408">
        <time>2021-06-10T12:55:47Z</time>
      </trkpt>
      <trkpt lat="39.894057" lon="116.648308">
        <time>2021-06-10T12:55:52Z</time>
      </trkpt>
      <trkpt lat="39.893974" lon="116.648204">
        <time>2021-06-10T12:55:57Z</time>
      </trkpt>
      <trkpt lat="39.893868" lon="116.648133">
        <time>2021-06-10T12:56:02Z</time>
      </trkpt>
      <trkpt lat="39.893694" lon="116.648126">
        <time>2021-06-10T12:56:07Z</time>
      </trkpt>
      <trkpt lat="39.893575" lon="116.648071">
        <time>2021-06-10T12:56:12Z</time>
      </trkpt>
      <trkpt lat="39.893505" lon="116.64805">
        <time>2021-06-10T12:56:17Z</time>
      </trkpt>
      <trkpt lat="39.893434" lon="116.647992">
        <time>2021-06-10T12:56:22Z</time>
      </trkpt>
      <trkpt lat="39.893332" lon="116.64796">
        <time>2021-06-10T12:56:27Z</time>
      </trkpt>
      <trkpt lat="39.893295" lon="116.647942">
        <time>2021-06-10T12:56:32Z</time>
      </trkpt>
      <trkpt lat="39.893209" lon="116.647916">
        <time>2021-06-10T12:56:37Z</time>
      </trkpt>
      <trkpt lat="39.893119" lon="116.64791">
        <time>2021-06-10T12:56:42Z</time>
      </trkpt>
      <trkpt lat="39.89298" lon="116.647911">
        <time>2021-06-10T12:56:47Z</time>
      </trkpt>
      <trkpt lat="39.892948" lon="116.647918">
        <time>2021-06-10T12:56:52Z</time>
      </trkpt>
      <trkpt lat="39.892833" lon="116.647965">
        <time>2021-06-10T12:56:57Z</time>
      </trkpt>
      <trkpt lat="39.892817" lon="116.647964">
        <time>2021-06-10T12:57:02Z</time>
      </trkpt>
      <trkpt lat="39.892705" lon="116.647959">
        <time>2021-06-10T12:57:07Z</time>
      </trkpt>
      <trkpt lat="39.89259" lon="116.647934">
        <time>2021-06-10T12:57:12Z</time>
      </trkpt>
      <trkpt lat="39.892592" lon="116.647758">
        <time>2021-06-10T12:57:17Z</time>
      </trkpt>
      <trkpt lat="39.892624" lon="116.647569">
        <time>2021-06-10T12:57:22Z</time>
      </trkpt>
      <trkpt lat="39.892619" lon="116.647372">
        <time>2021-06-10T12:57:27Z</time>
      </trkpt>
      <trkpt lat="39.8926" lon="116.647226">
        <time>2021-06-10T12:57:32Z</time>
      </trkpt>
      <trkpt lat="39.892573" lon="116.647112">
        <time>2021-06-10T12:57:37Z</time>
      </trkpt>
      <trkpt lat="39.892551" lon="116.646891">
        <time>2021-06-10T12:57:42Z</time>
      </trkpt>
      <trkpt lat="39.892567" lon="116.6468">
        <time>2021-06-10T12:57:47Z</time>
      </trkpt>
      <trkpt lat="39.892566" lon="116.646655">
        <time>2021-06-10T12:57:52Z</time>
      </trkpt>
      <trkpt lat="39.892577" lon="116.646488">
        <time>2021-06-10T12:57:57Z</time>
      </trkpt>
      <trkpt lat="39.892564" lon="116.64626">
        <time>2021-06-10T12:58:02Z</time>
      </trkpt>
      <trkpt lat="39.892551" lon="116.646147">
        <time>2021-06-10T12:58:07Z</time>
      </trkpt>
      <trkpt lat="39.892571" lon="116.645983">
        <time>2021-06-10T12:58:12Z</time>
      </trkpt>
      <trkpt lat="39.892561" lon="116.645838">
        <time>2021-06-10T12:58:17Z</time>
      </trkpt>
      <trkpt lat="39.892464" lon="116.645762">
        <time>2021-06-10T12:58:22Z</time>
      </trkpt>
      <trkpt lat="39.892362" lon="116.645708">
        <time>2021-06-10T12:58:27Z</time>
      </trkpt>
      <trkpt lat="39.892233" lon="116.645641">
        <time>2021-06-10T12:58:32Z</time>
      </trkpt>
      <trkpt lat="39.892121" lon="116.645517">
        <time>2021-06-10T12:58:37Z</time>
      </trkpt>
      <trkpt lat="39.892049" lon="116.645483">
        <time>2021-06-10T12:58:42Z</time>
      </trkpt>
      <trkpt lat="39.891975" lon="116.645452">
        <time>2021-06-10T12:58:47Z</time>
      </trkpt>
      <trkpt lat="39.891907" lon="116.645409">
        <time>2021-06-10T12:58:52Z</time>
      </trkpt>
      <trkpt lat="39.891811" lon="116.645398">
        <time>2021-06-10T12:58:57Z</time>
      </trkpt>
      <trkpt lat="39.891706" lon="116.645361">
        <time>2021-06-10T12:59:02Z</time>
      </trkpt>
      <trkpt lat="39.89153" lon="116.645277">
        <time>2021-06-10T12:59:07Z</time>
      </trkpt>
      <trkpt lat="39.891518" lon="116.645303">
        <time>2021-06-10T12:59:12Z</time>
      </trkpt>
      <trkpt lat="39.891582" lon="116.645427">
        <time>2021-06-10T12:59:17Z</time>
      </trkpt>
      <trkpt lat="39.891705" lon="116.645425">
        <time>2021-06-10T12:59:22Z</time>
      </trkpt>
      <trkpt lat="39.891829" lon="116.645488">
        <time>2021-06-10T12:59:27Z</time>
      </trkpt>
      <trkpt lat="39.891955" lon="116.645546">
        <time>2021-06-10T12:59:32Z</time>
      </trkpt>
      <trkpt lat="39.892084" lon="116.64561">
        <time>2021-06-10T12:59:37Z</time>
      </trkpt>
      <trkpt lat="39.892196" lon="116.645707">
        <time>2021-06-10T12:59:42Z</time>
      </trkpt>
      <trkpt lat="39.892307" lon="116.645752">
        <time>2021-06-10T12:59:47Z</time>
      </trkpt>
      <trkpt lat="39.892426" lon="116.645775">
        <time>2021-06-10T12:59:52Z</time>
      </trkpt>
      <trkpt lat="39.892557" lon="116.645815">
        <time>2021-06-10T12:59:57Z</time>
      </trkpt>
      <trkpt lat="39.892657" lon="116.645916">
        <time>2021-06-10T13:00:02Z</time>
      </trkpt>
      <trkpt lat="39.892619" lon="116.646214">
        <time>2021-06-10T13:00:07Z</time>
      </trkpt>
      <trkpt lat="39.892615" lon="116.646289">
        <time>2021-06-10T13:00:12Z</time>
      </trkpt>
      <trkpt lat="39.892632" lon="116.646451">
        <time>2021-06-10T13:00:17Z</time>
      </trkpt>
      <trkpt lat="39.892633" lon="116.646594">
        <time>2021-06-10T13:00:22Z</time>
      </trkpt>
      <trkpt lat="39.892631" lon="116.646724">
        <time>2021-06-10T13:00:27Z</time>
      </trkpt>
      <trkpt lat="39.892629" lon="116.646829">
        <time>2021-06-10T13:00:32Z</time>
      </trkpt>
      <trkpt lat="39.892624" lon="116.646921">
        <time>2021-06-10T13:00:37Z</time>
      </trkpt>
      <trkpt lat="39.892613" lon="116.647015">
        <time>2021-06-10T13:00:42Z</time>
      </trkpt>
      <trkpt lat="39.892589" lon="116.647098">
        <time>2021-06-10T13:00:47Z</time>
      </trkpt>
      <trkpt lat="39.892571" lon="116.64722">
        <time>2021-06-10T13:00:52Z</time>
      </trkpt>
      <trkpt lat="39.89251" lon="116.647313">
        <time>2021-06-10T13:00:57Z</time>
      </trkpt>
      <trkpt lat="39.892474" lon="116.647631">
        <time>2021-06-10T13:01:02Z</time>
      </trkpt>
      <trkpt lat="39.892477" lon="116.6478">
        <time>2021-06-10T13:01:07Z</time>
      </trkpt>
      <trkpt lat="39.892477" lon="116.647944">
        <time>2021-06-10T13:01:12Z</time>
      </trkpt>
      <trkpt lat="39.892502" lon="116.648006">
        <time>2021-06-10T13:01:17Z</time>
      </trkpt>
      <trkpt lat="39.892629" lon="116.648072">
        <time>2021-06-10T13:01:22Z</time>
      </trkpt>
      <trkpt lat="39.892775" lon="116.648033">
        <time>2021-06-10T13:01:27Z</time>
      </trkpt>
      <trkpt lat="39.892915" lon="116.648017">
        <time>2021-06-10T13:01:32Z</time>
      </trkpt>
      <trkpt lat="39.893062" lon="116.648036">
        <time>2021-06-10T13:01:37Z</time>
      </trkpt>
      <trkpt lat="39.893226" lon="116.648026">
        <time>2021-06-10T13:01:42Z</time>
      </trkpt>
      <trkpt lat="39.893356" lon="116.648022">
        <time>2021-06-10T13:01:47Z</time>
      </trkpt>
      <trkpt lat="39.89349" lon="116.648081">
        <time>2021-06-10T13:01:52Z</time>
      </trkpt>
      <trkpt lat="39.893614" lon="116.648139">
        <time>2021-06-10T13:01:57Z</time>
      </trkpt>
      <trkpt lat="39.893697" lon="116.648185">
        <time>2021-06-10T13:02:02Z</time>
      </trkpt>
      <trkpt lat="39.893778" lon="116.648241">
        <time>2021-06-10T13:02:07Z</time>
      </trkpt>
      <trkpt lat="39.893826" lon="116.648277">
        <time>2021-06-10T13:02:12Z</time>
      </trkpt>
      <trkpt lat="39.89389" lon="116.648321">
        <time>2021-06-10T13:02:17Z</time>
      </trkpt>
      <trkpt lat="39.893993" lon="116.648361">
        <time>2021-06-10T13:02:22Z</time>
      </trkpt>
      <trkpt lat="39.894088" lon="116.648439">
        <time>2021-06-10T13:02:27Z</time>
      </trkpt>
      <trkpt lat="39.894192" lon="116.648483">
        <time>2021-06-10T13:02:32Z</time>
      </trkpt>
      <trkpt lat="39.894314" lon="116.64852">
        <time>2021-06-10T13:02:37Z</time>
      </trkpt>
      <trkpt lat="39.894442" lon="116.64857">
        <time>2021-06-10T13:02:42Z</time>
      </trkpt>
      <trkpt lat="39.894558" lon="116.648618">
        <time>2021-06-10T13:02:47Z</time>
      </trkpt>
      <trkpt lat="39.894641" lon="116.648707">
        <time>2021-06-10T13:02:52Z</time>
      </trkpt>
      <trkpt lat="39.894762" lon="116.648744">
        <time>2021-06-10T13:02:57Z</time>
      </trkpt>
      <trkpt lat="39.894907" lon="116.648757">
        <time>2021-06-10T13:03:02Z</time>
      </trkpt>
      <trkpt lat="39.895086" lon="116.648868">
        <time>2021-06-10T13:03:07Z</time>
      </trkpt>
      <trkpt lat="39.8952" lon="116.648935">
        <time>2021-06-10T13:03:12Z</time>
      </trkpt>
      <trkpt lat="39.895322" lon="116.649009">
        <time>2021-06-10T13:03:17Z</time>
      </trkpt>
      <trkpt lat="39.895449" lon="116.649064">
        <time>2021-06-10T13:03:22Z</time>
      </trkpt>
      <trkpt lat="39.895591" lon="116.649056">
        <time>2021-06-10T13:03:27Z</time>
      </trkpt>
      <trkpt lat="39.895659" lon="116.648906">
        <time>2021-06-10T13:03:32Z</time>
      </trkpt>
      <trkpt lat="39.895721" lon="116.648741">
        <time>2021-06-10T13:03:37Z</time>
      </trkpt>
      <trkpt lat="39.8958" lon="116.648555">
        <time>2021-06-10T13:03:42Z</time>
      </trkpt>
      <trkpt lat="39.895877" lon="116.648351">
        <time>2021-06-10T13:03:47Z</time>
      </trkpt>
      <trkpt lat="39.895903" lon="116.648174">
        <time>2021-06-10T13:03:52Z</time>
      </trkpt>
      <trkpt lat="39.895963" lon="116.64799">
        <time>2021-06-10T13:03:57Z</time>
      </trkpt>
      <trkpt lat="39.895955" lon="116.647802">
        <time>2021-06-10T13:04:02Z</time>
      </trkpt>
      <trkpt lat="39.895912" lon="116.647602">
        <time>2021-06-10T13:04:07Z</time>
      </trkpt>
      <trkpt lat="39.895918" lon="116.647408">
        <time>2021-06-10T13:04:12Z</time>
      </trkpt>
      <trkpt lat="39.895951" lon="116.647232">
        <time>2021-06-10T13:04:17Z</time>
      </trkpt>
      <trkpt lat="39.895837" lon="116.647118">
        <time>2021-06-10T13:04:22Z</time>
      </trkpt>
      <trkpt lat="39.895724" lon="116.647249">
        <time>2021-06-10T13:04:27Z</time>
      </trkpt>
      <trkpt lat="39.895713" lon="116.647454">
        <time>2021-06-10T13:04:32Z</time>
      </trkpt>
      <trkpt lat="39.895644" lon="116.647649">
        <time>2021-06-10T13:04:37Z</time>
      </trkpt>
      <trkpt lat="39.895671" lon="116.6478">
        <time>2021-06-10T13:04:42Z</time>
      </trkpt>
      <trkpt lat="39.895673" lon="116.647979">
        <time>2021-06-10T13:04:47Z</time>
      </trkpt>
      <trkpt lat="39.895675" lon="116.648049">
        <time>2021-06-10T13:04:52Z</time>
      </trkpt>
      <trkpt lat="39.895644" lon="116.648163">
        <time>2021-06-10T13:04:57Z</time>
      </trkpt>
      <trkpt lat="39.895601" lon="116.648284">
        <time>2021-06-10T13:05:02Z</time>
      </trkpt>
      <trkpt lat="39.895593" lon="116.648451">
        <time>2021-06-10T13:05:07Z</time>
      </trkpt>
      <trkpt lat="39.895708" lon="116.648478">
        <time>2021-06-10T13:05:12Z</time>
      </trkpt>
      <trkpt lat="39.895767" lon="116.648262">
        <time>2021-06-10T13:05:17Z</time>
      </trkpt>
      <trkpt lat="39.89575" lon="116.648067">
        <time>2021-06-10T13:05:22Z</time>
      </trkpt>
      <trkpt lat="39.895806" lon="116.6479">
        <time>2021-06-10T13:05:27Z</time>
      </trkpt>
      <trkpt lat="39.895844" lon="116.647762">
        <time>2021-06-10T13:05:32Z</time>
      </trkpt>
      <trkpt lat="39.895865" lon="116.64762">
        <time>2021-06-10T13:05:37Z</time>
      </trkpt>
      <trkpt lat="39.89585" lon="116.647446">
        <time>2021-06-10T13:05:42Z</time>
      </trkpt>
      <trkpt lat="39.895859" lon="116.647287">
        <time>2021-06-10T13:05:47Z</time>
      </trkpt>
      <trkpt lat="39.8959" lon="116.647104">
        <time>2021-06-10T13:05:52Z</time>
      </trkpt>
      <trkpt lat="39.895924" lon="116.646913">
        <time>2021-06-10T13:05:57Z</time>
      </trkpt>
      <trkpt lat="39.895983" lon="116.646749">
        <time>2021-06-10T13:06:02Z</time>
      </trkpt>
      <trkpt lat="39.895976" lon="116.646608">
        <time>2021-06-10T13:06:07Z</time>
      </trkpt>
      <trkpt lat="39.895965" lon="116.646497">
        <time>2021-06-10T13:06:12Z</time>
      </trkpt>
      <trkpt lat="39.895981" lon="116.646439">
        <time>2021-06-10T13:06:17Z</time>
      </trkpt>
      <trkpt lat="39.895993" lon="116.646371">
        <time>2021-06-10T13:06:22Z</time>
      </trkpt>
      <trkpt lat="39.896034" lon="116.646287">
        <time>2021-06-10T13:06:27Z</time>
      </trkpt>
      <trkpt lat="39.896084" lon="116.646226">
        <time>2021-06-10T13:06:32Z</time>
      </trkpt>
      <trkpt lat="39.896095" lon="116.646112">
        <time>2021-06-10T13:06:37Z</time>
      </trkpt>
      <trkpt lat="39.896108" lon="116.645876">
        <time>2021-06-10T13:06:42Z</time>
      </trkpt>
      <trkpt lat="39.896136" lon="116.645653">
        <time>2021-06-10T13:06:47Z</time>
      </trkpt>
      <trkpt lat="39.896154" lon="116.645421">
        <time>2021-06-10T13:06:52Z</time>
      </trkpt>
      <trkpt lat="39.896166" lon="116.64523">
        <time>2021-06-10T13:06:57Z</time>
      </trkpt>
      <trkpt lat="39.896165" lon="116.645042">
        <time>2021-06-10T13:07:02Z</time>
      </trkpt>
      <trkpt lat="39.896159" lon="116.644868">
        <time>2021-06-10T13:07:07Z</time>
      </trkpt>
      <trkpt lat="39.896169" lon="116.64474">
        <time>2021-06-10T13:07:12Z</time>
      </trkpt>
      <trkpt lat="39.896164" lon="116.644618">
        <time>2021-06-10T13:07:17Z</time>
      </trkpt>
      <trkpt lat="39.896162" lon="116.64455">
        <time>2021-06-10T13:07:22Z</time>
      </trkpt>
      <trkpt lat="39.896135" lon="116.644457">
        <time>2021-06-10T13:07:27Z</time>
      </trkpt>
      <trkpt lat="39.896136" lon="116.644341">
        <time>2021-06-10T13:07:32Z</time>
      </trkpt>
      <trkpt lat="39.896143" lon="116.644242">
        <time>2021-06-10T13:07:37Z</time>
      </trkpt>
      <trkpt lat="39.896142" lon="116.644136">
        <time>2021-06-10T13:07:42Z</time>
      </trkpt>
      <trkpt lat="39.896154" lon="116.644011">
        <time>2021-06-10T13:07:47Z</time>
      </trkpt>
      <trkpt lat="39.896139" lon="116.643915">
        <time>2021-06-10T13:07:52Z</time>
      </trkpt>
      <trkpt lat="39.896129" lon="116.643812">
        <time>2021-06-10T13:07:57Z</time>
      </trkpt>
      <trkpt lat="39.896149" lon="116.643699">
        <time>2021-06-10T13:08:02Z</time>
      </trkpt>
      <trkpt lat="39.896144" lon="116.64359">
        <time>2021-06-10T13:08:07Z</time>
      </trkpt>
      <trkpt lat="39.896153" lon="116.643518">
        <time>2021-06-10T13:08:12Z</time>
      </trkpt>
      <trkpt lat="39.896149" lon="116.643381">
        <time>2021-06-10T13:08:17Z</time>
      </trkpt>
      <trkpt lat="39.896177" lon="116.643096">
        <time>2021-06-10T13:08:22Z</time>
      </trkpt>
      <trkpt lat="39.896177" lon="116.643059">
        <time>2021-06-10T13:08:27Z</time>
      </trkpt>
      <trkpt lat="39.896148" lon="116.642899">
        <time>2021-06-10T13:08:32Z</time>
      </trkpt>
      <trkpt lat="39.896188" lon="116.642613">
        <time>2021-06-10T13:08:37Z</time>
      </trkpt>
      <trkpt lat="39.896192" lon="116.642576">
        <time>2021-06-10T13:08:42Z</time>
      </trkpt>
      <trkpt lat="39.896181" lon="116.642398">
        <time>2021-06-10T13:08:47Z</time>
      </trkpt>
      <trkpt lat="39.896183" lon="116.642202">
        <time>2021-06-10T13:08:52Z</time>
      </trkpt>
      <trkpt lat="39.896206" lon="116.642001">
        <time>2021-06-10T13:08:57Z</time>
      </trkpt>
      <trkpt lat="39.896205" lon="116.641786">
        <time>2021-06-10T13:09:02Z</time>
      </trkpt>
      <trkpt lat="39.896197" lon="116.641678">
        <time>2021-06-10T13:09:07Z</time>
      </trkpt>
      <trkpt lat="39.896184" lon="116.641557">
        <time>2021-06-10T13:09:12Z</time>
      </trkpt>
      <trkpt lat="39.89618" lon="116.641443">
        <time>2021-06-10T13:09:17Z</time>
      </trkpt>
      <trkpt lat="39.896183" lon="116.641395">
        <time>2021-06-10T13:09:22Z</time>
      </trkpt>
      <trkpt lat="39.896202" lon="116.641258">
        <time>2021-06-10T13:09:27Z</time>
      </trkpt>
      <trkpt lat="39.896192" lon="116.641103">
        <time>2021-06-10T13:09:32Z</time>
      </trkpt>
      <trkpt lat="39.896203" lon="116.640915">
        <time>2021-06-10T13:09:37Z</time>
      </trkpt>
      <trkpt lat="39.896233" lon="116.640771">
        <time>2021-06-10T13:09:42Z</time>
      </trkpt>
      <trkpt lat="39.896272" lon="116.640623">
        <time>2021-06-10T13:09:47Z</time>
      </trkpt>
      <trkpt lat="39.896249" lon="116.64051">
        <time>2021-06-10T13:09:52Z</time>
      </trkpt>
      <trkpt lat="39.896246" lon="116.640403">
        <time>2021-06-10T13:09:57Z</time>
      </trkpt>
      <trkpt lat="39.896253" lon="116.640293">
        <time>2021-06-10T13:10:02Z</time>
      </trkpt>
      <trkpt lat="39.896278" lon="116.64014">
        <time>2021-06-10T13:10:07Z</time>
      </trkpt>
      <trkpt lat="39.896279" lon="116.640026">
        <time>2021-06-10T13:10:12Z</time>
      </trkpt>
      <trkpt lat="39.896277" lon="116.639786">
        <time>2021-06-10T13:10:17Z</time>
      </trkpt>
      <trkpt lat="39.896274" lon="116.639582">
        <time>2021-06-10T13:10:22Z</time>
      </trkpt>
      <trkpt lat="39.896193" lon="116.639504">
        <time>2021-06-10T13:10:27Z</time>
      </trkpt>
      <trkpt lat="39.896149" lon="116.639457">
        <time>2021-06-10T13:10:32Z</time>
      </trkpt>
      <trkpt lat="39.896167" lon="116.639449">
        <time>2021-06-10T13:10:37Z</time>
      </trkpt>
      <trkpt lat="39.89621" lon="116.639448">
        <time>2021-06-10T13:10:42Z</time>
      </trkpt>
      <trkpt lat="39.896291" lon="116.639572">
        <time>2021-06-10T13:10:47Z</time>
      </trkpt>
      <trkpt lat="39.8961" lon="116.63947">
        <time>2021-06-10T13:10:52Z</time>
      </trkpt>
      <trkpt lat="39.89617" lon="116.639397">
        <time>2021-06-10T13:10:57Z</time>
      </trkpt>
      <trkpt lat="39.896225" lon="116.639301">
        <time>2021-06-10T13:11:02Z</time>
      </trkpt>
      <trkpt lat="39.896259" lon="116.63919">
        <time>2021-06-10T13:11:07Z</time>
      </trkpt>
      <trkpt lat="39.896252" lon="116.639075">
        <time>2021-06-10T13:11:12Z</time>
      </trkpt>
      <trkpt lat="39.896227" lon="116.638942">
        <time>2021-06-10T13:11:17Z</time>
      </trkpt>
      <trkpt lat="39.896213" lon="116.638862">
        <time>2021-06-10T13:11:22Z</time>
      </trkpt>
      <trkpt lat="39.896235" lon="116.638769">
        <time>2021-06-10T13:11:27Z</time>
      </trkpt>
      <trkpt lat="39.896209" lon="116.638667">
        <time>2021-06-10T13:11:32Z</time>
      </trkpt>
      <trkpt lat="39.896188" lon="116.638571">
        <time>2021-06-10T13:11:37Z</time>
      </trkpt>
      <trkpt lat="39.896191" lon="116.63845">
        <time>2021-06-10T13:11:42Z</time>
      </trkpt>
      <trkpt lat="39.896202" lon="116.638319">
        <time>2021-06-10T13:11:47Z</time>
      </trkpt>
      <trkpt lat="39.896188" lon="116.638207">
        <time>2021-06-10T13:11:52Z</time>
      </trkpt>
      <trkpt lat="39.896188" lon="116.638115">
        <time>2021-06-10T13:11:57Z</time>
      </trkpt>
      <trkpt lat="39.896208" lon="116.638031">
        <time>2021-06-10T13:12:02Z</time>
      </trkpt>
      <trkpt lat="39.896195" lon="116.637946">
        <time>2021-06-10T13:12:07Z</time>
      </trkpt>
      <trkpt lat="39.896188" lon="116.637851">
        <time>2021-06-10T13:12:12Z</time>
      </trkpt>
      <trkpt lat="39.896187" lon="116.637756">
        <time>2021-06-10T13:12:17Z</time>
      </trkpt>
      <trkpt lat="39.896176" lon="116.637642">
        <time>2021-06-10T13:12:22Z</time>
      </trkpt>
      <trkpt lat="39.896161" lon="116.637511">
        <time>2021-06-10T13:12:27Z</time>
      </trkpt>
      <trkpt lat="39.896161" lon="116.637397">
        <time>2021-06-10T13:12:32Z</time>
      </trkpt>
      <trkpt lat="39.896154" lon="116.637272">
        <time>2021-06-10T13:12:37Z</time>
      </trkpt>
      <trkpt lat="39.896138" lon="116.637152">
        <time>2021-06-10T13:12:42Z</time>
      </trkpt>
      <trkpt lat="39.896113" lon="116.637043">
        <time>2021-06-10T13:12:47Z</time>
      </trkpt>
      <trkpt lat="39.896098" lon="116.636931">
        <time>2021-06-10T13:12:52Z</time>
      </trkpt>
      <trkpt lat="39.896065" lon="116.636748">
        <time>2021-06-10T13:12:57Z</time>
      </trkpt>
      <trkpt lat="39.896059" lon="116.636734">
        <time>2021-06-10T13:13:02Z</time>
      </trkpt>
      <trkpt lat="39.896018" lon="116.636658">
        <time>2021-06-10T13:13:07Z</time>
      </trkpt>
      <trkpt lat="39.895967" lon="116.636576">
        <time>2021-06-10T13:13:12Z</time>
      </trkpt>
      <trkpt lat="39.895907" lon="116.636543">
        <time>2021-06-10T13:13:17Z</time>
      </trkpt>
      <trkpt lat="39.895849" lon="116.636462">
        <time>2021-06-10T13:13:22Z</time>
      </trkpt>
      <trkpt lat="39.895923" lon="116.636358">
        <time>2021-06-10T13:13:27Z</time>
      </trkpt>
      <trkpt lat="39.896015" lon="116.636258">
        <time>2021-06-10T13:13:32Z</time>
      </trkpt>
      <trkpt lat="39.896155" lon="116.636168">
        <time>2021-06-10T13:13:37Z</time>
      </trkpt>
      <trkpt lat="39.896319" lon="116.636054">
        <time>2021-06-10T13:13:42Z</time>
      </trkpt>
      <trkpt lat="39.89649" lon="116.635953">
        <time>2021-06-10T13:13:47Z</time>
      </trkpt>
      <trkpt lat="39.896661" lon="116.635855">
        <time>2021-06-10T13:13:52Z</time>
      </trkpt>
      <trkpt lat="39.896834" lon="116.635767">
        <time>2021-06-10T13:13:57Z</time>
      </trkpt>
      <trkpt lat="39.89697" lon="116.635686">
        <time>2021-06-10T13:14:02Z</time>
      </trkpt>
      <trkpt lat="39.897103" lon="116.635628">
        <time>2021-06-10T13:14:07Z</time>
      </trkpt>
      <trkpt lat="39.897146" lon="116.635577">
        <time>2021-06-10T13:14:12Z</time>
      </trkpt>
      <trkpt lat="39.897181" lon="116.635557">
        <time>2021-06-10T13:14:17Z</time>
      </trkpt>
      <trkpt lat="39.897235" lon="116.635546">
        <time>2021-06-10T13:14:22Z</time>
      </trkpt>
      <trkpt lat="39.897315" lon="116.635513">
        <time>2021-06-10T13:14:27Z</time>
      </trkpt>
      <trkpt lat="39.897459" lon="116.63542">
        <time>2021-06-10T13:14:32Z</time>
      </trkpt>
      <trkpt lat="39.897482" lon="116.635397">
        <time>2021-06-10T13:14:37Z</time>
      </trkpt>
      <trkpt lat="39.897562" lon="116.635372">
        <time>2021-06-10T13:14:42Z</time>
      </trkpt>
      <trkpt lat="39.897641" lon="116.635365">
        <time>2021-06-10T13:14:47Z</time>
      </trkpt>
      <trkpt lat="39.897734" lon="116.635281">
        <time>2021-06-10T13:14:52Z</time>
      </trkpt>
      <trkpt lat="39.897833" lon="116.635201">
        <time>2021-06-10T13:14:57Z</time>
      </trkpt>
      <trkpt lat="39.897916" lon="116.635137">
        <time>2021-06-10T13:15:02Z</time>
      </trkpt>
      <trkpt lat="39.897971" lon="116.635084">
        <time>2021-06-10T13:15:07Z</time>
      </trkpt>
      <trkpt lat="39.898044" lon="116.635047">
        <time>2021-06-10T13:15:12Z</time>
      </trkpt>
      <trkpt lat="39.898127" lon="116.634988">
        <time>2021-06-10T13:15:17Z</time>
      </trkpt>
      <trkpt lat="39.898127" lon="116.634945">
        <time>2021-06-10T13:15:22Z</time>
      </trkpt>
      <trkpt lat="39.89812" lon="116.634946">
        <time>2021-06-10T13:15:27Z</time>
      </trkpt>
      <trkpt lat="39.898033" lon="116.634709">
        <time>2021-06-10T13:15:32Z</time>
      </trkpt>
      <trkpt lat="39.897974" lon="116.634569">
        <time>2021-06-10T13:15:37Z</time>
      </trkpt>
      <trkpt lat="39.897919" lon="116.634407">
        <time>2021-06-10T13:15:42Z</time>
      </trkpt>
      <trkpt lat="39.897844" lon="116.634245">
        <time>2021-06-10T13:15:47Z</time>
      </trkpt>
      <trkpt lat="39.897777" lon="116.634062">
        <time>2021-06-10T13:15:52Z</time>
      </trkpt>
      <trkpt lat="39.897755" lon="116.633998">
        <time>2021-06-10T13:15:57Z</time>
      </trkpt>
      <trkpt lat="39.8977" lon="116.633842">
        <time>2021-06-10T13:16:02Z</time>
      </trkpt>
      <trkpt lat="39.897668" lon="116.633747">
        <time>2021-06-10T13:16:07Z</time>
      </trkpt>
      <trkpt lat="39.897592" lon="116.633725">
        <time>2021-06-10T13:16:12Z</time>
      </trkpt>
      <trkpt lat="39.897528" lon="116.633733">
        <time>2021-06-10T13:16:17Z</time>
      </trkpt>
      <trkpt lat="39.897454" lon="116.633808">
        <time>2021-06-10T13:16:22Z</time>
      </trkpt>
      <trkpt lat="39.897473" lon="116.633915">
        <time>2021-06-10T13:16:27Z</time>
      </trkpt>
      <trkpt lat="39.897499" lon="116.634083">
        <time>2021-06-10T13:16:32Z</time>
      </trkpt>
      <trkpt lat="39.897457" lon="116.634236">
        <time>2021-06-10T13:19:38Z</time>
      </trkpt>
    </trkseg>
  </trk>
</gpx>