<?xml version="1.0" encoding="UTF-8"?>
<gpx xmlns="http://www.topografix.com/GPX/1/1" xmlns:gpxtpx="http://www.garmin.com/xmlschemas/TrackPointExtension/v1" xmlns:xsi="http://www.w3.org/2001/XMLSchema-instance" xsi:schemaLocation="http://www.topografix.com/GPX/1/1 http://www.topografix.com/GPX/1/1/gpx.xsd" version="1.1" creator="gpx.py -- https://github.com/tkrajina/gpxpy">
  <trk>
    <name>gpx from keep</name>
    <trkseg>
      <trkpt lat="39.898047" lon="116.635121">
        <time>2021-06-21T12:32:47Z</time>
      </trkpt>
      <trkpt lat="39.898047" lon="116.635121">
        <time>2021-06-21T12:32:52Z</time>
      </trkpt>
      <trkpt lat="39.897977" lon="116.635166">
        <time>2021-06-21T12:32:57Z</time>
      </trkpt>
      <trkpt lat="39.897909" lon="116.635213">
        <time>2021-06-21T12:33:02Z</time>
      </trkpt>
      <trkpt lat="39.897872" lon="116.635235">
        <time>2021-06-21T12:33:07Z</time>
      </trkpt>
      <trkpt lat="39.897796" lon="116.635261">
        <time>2021-06-21T12:33:12Z</time>
      </trkpt>
      <trkpt lat="39.897671" lon="116.635395">
        <time>2021-06-21T12:33:17Z</time>
      </trkpt>
      <trkpt lat="39.897568" lon="116.635501">
        <time>2021-06-21T12:33:22Z</time>
      </trkpt>
      <trkpt lat="39.897465" lon="116.635565">
        <time>2021-06-21T12:33:27Z</time>
      </trkpt>
      <trkpt lat="39.897352" lon="116.635636">
        <time>2021-06-21T12:33:32Z</time>
      </trkpt>
      <trkpt lat="39.897233" lon="116.635683">
        <time>2021-06-21T12:33:37Z</time>
      </trkpt>
      <trkpt lat="39.897126" lon="116.635776">
        <time>2021-06-21T12:33:42Z</time>
      </trkpt>
      <trkpt lat="39.896991" lon="116.635821">
        <time>2021-06-21T12:33:47Z</time>
      </trkpt>
      <trkpt lat="39.896851" lon="116.635908">
        <time>2021-06-21T12:33:52Z</time>
      </trkpt>
      <trkpt lat="39.896671" lon="116.636058">
        <time>2021-06-21T12:33:57Z</time>
      </trkpt>
      <trkpt lat="39.896592" lon="116.63611">
        <time>2021-06-21T12:34:02Z</time>
      </trkpt>
      <trkpt lat="39.896465" lon="116.636168">
        <time>2021-06-21T12:34:07Z</time>
      </trkpt>
      <trkpt lat="39.896358" lon="116.636207">
        <time>2021-06-21T12:34:12Z</time>
      </trkpt>
      <trkpt lat="39.896294" lon="116.636319">
        <time>2021-06-21T12:34:17Z</time>
      </trkpt>
      <trkpt lat="39.896194" lon="116.636395">
        <time>2021-06-21T12:34:22Z</time>
      </trkpt>
      <trkpt lat="39.896187" lon="116.636398">
        <time>2021-06-21T12:34:27Z</time>
      </trkpt>
      <trkpt lat="39.896147" lon="116.6364">
        <time>2021-06-21T12:34:32Z</time>
      </trkpt>
      <trkpt lat="39.896091" lon="116.636434">
        <time>2021-06-21T12:34:37Z</time>
      </trkpt>
      <trkpt lat="39.896058" lon="116.636476">
        <time>2021-06-21T12:34:42Z</time>
      </trkpt>
      <trkpt lat="39.89602" lon="116.636505">
        <time>2021-06-21T12:34:47Z</time>
      </trkpt>
      <trkpt lat="39.896027" lon="116.636588">
        <time>2021-06-21T12:34:52Z</time>
      </trkpt>
      <trkpt lat="39.896051" lon="116.636742">
        <time>2021-06-21T12:34:57Z</time>
      </trkpt>
      <trkpt lat="39.896077" lon="116.636915">
        <time>2021-06-21T12:35:02Z</time>
      </trkpt>
      <trkpt lat="39.896087" lon="116.637073">
        <time>2021-06-21T12:35:07Z</time>
      </trkpt>
      <trkpt lat="39.896055" lon="116.637184">
        <time>2021-06-21T12:35:12Z</time>
      </trkpt>
      <trkpt lat="39.896052" lon="116.637251">
        <time>2021-06-21T12:35:17Z</time>
      </trkpt>
      <trkpt lat="39.896038" lon="116.637282">
        <time>2021-06-21T12:35:22Z</time>
      </trkpt>
      <trkpt lat="39.896037" lon="116.637307">
        <time>2021-06-21T12:35:27Z</time>
      </trkpt>
      <trkpt lat="39.896029" lon="116.637341">
        <time>2021-06-21T12:35:32Z</time>
      </trkpt>
      <trkpt lat="39.896041" lon="116.637352">
        <time>2021-06-21T12:35:37Z</time>
      </trkpt>
      <trkpt lat="39.896057" lon="116.637359">
        <time>2021-06-21T12:35:42Z</time>
      </trkpt>
      <trkpt lat="39.896071" lon="116.637333">
        <time>2021-06-21T12:35:47Z</time>
      </trkpt>
      <trkpt lat="39.896087" lon="116.637321">
        <time>2021-06-21T12:35:52Z</time>
      </trkpt>
      <trkpt lat="39.89609" lon="116.637314">
        <time>2021-06-21T12:35:57Z</time>
      </trkpt>
      <trkpt lat="39.896088" lon="116.637291">
        <time>2021-06-21T12:36:02Z</time>
      </trkpt>
      <trkpt lat="39.896096" lon="116.637286">
        <time>2021-06-21T12:36:07Z</time>
      </trkpt>
      <trkpt lat="39.896066" lon="116.637279">
        <time>2021-06-21T12:36:12Z</time>
      </trkpt>
      <trkpt lat="39.896063" lon="116.637269">
        <time>2021-06-21T12:36:17Z</time>
      </trkpt>
      <trkpt lat="39.896074" lon="116.637261">
        <time>2021-06-21T12:36:22Z</time>
      </trkpt>
      <trkpt lat="39.896075" lon="116.637256">
        <time>2021-06-21T12:36:27Z</time>
      </trkpt>
      <trkpt lat="39.896126" lon="116.637248">
        <time>2021-06-21T12:36:32Z</time>
      </trkpt>
      <trkpt lat="39.896155" lon="116.637406">
        <time>2021-06-21T12:36:37Z</time>
      </trkpt>
      <trkpt lat="39.896154" lon="116.637562">
        <time>2021-06-21T12:36:42Z</time>
      </trkpt>
      <trkpt lat="39.896158" lon="116.637723">
        <time>2021-06-21T12:36:47Z</time>
      </trkpt>
      <trkpt lat="39.896177" lon="116.637902">
        <time>2021-06-21T12:36:52Z</time>
      </trkpt>
      <trkpt lat="39.89619" lon="116.638091">
        <time>2021-06-21T12:36:57Z</time>
      </trkpt>
      <trkpt lat="39.896201" lon="116.638249">
        <time>2021-06-21T12:37:02Z</time>
      </trkpt>
      <trkpt lat="39.896219" lon="116.638394">
        <time>2021-06-21T12:37:07Z</time>
      </trkpt>
      <trkpt lat="39.896227" lon="116.638572">
        <time>2021-06-21T12:37:12Z</time>
      </trkpt>
      <trkpt lat="39.896219" lon="116.638733">
        <time>2021-06-21T12:37:17Z</time>
      </trkpt>
      <trkpt lat="39.896225" lon="116.638909">
        <time>2021-06-21T12:37:22Z</time>
      </trkpt>
      <trkpt lat="39.896237" lon="116.639057">
        <time>2021-06-21T12:37:27Z</time>
      </trkpt>
      <trkpt lat="39.896249" lon="116.639144">
        <time>2021-06-21T12:37:32Z</time>
      </trkpt>
      <trkpt lat="39.896246" lon="116.639297">
        <time>2021-06-21T12:37:37Z</time>
      </trkpt>
      <trkpt lat="39.89624" lon="116.639476">
        <time>2021-06-21T12:37:42Z</time>
      </trkpt>
      <trkpt lat="39.896233" lon="116.639622">
        <time>2021-06-21T12:37:47Z</time>
      </trkpt>
      <trkpt lat="39.89624" lon="116.639769">
        <time>2021-06-21T12:37:52Z</time>
      </trkpt>
      <trkpt lat="39.896239" lon="116.639921">
        <time>2021-06-21T12:37:57Z</time>
      </trkpt>
      <trkpt lat="39.896254" lon="116.640092">
        <time>2021-06-21T12:38:02Z</time>
      </trkpt>
      <trkpt lat="39.896239" lon="116.640277">
        <time>2021-06-21T12:38:07Z</time>
      </trkpt>
      <trkpt lat="39.896196" lon="116.640432">
        <time>2021-06-21T12:38:12Z</time>
      </trkpt>
      <trkpt lat="39.896203" lon="116.640615">
        <time>2021-06-21T12:38:17Z</time>
      </trkpt>
      <trkpt lat="39.896188" lon="116.640798">
        <time>2021-06-21T12:38:22Z</time>
      </trkpt>
      <trkpt lat="39.89621" lon="116.64093">
        <time>2021-06-21T12:38:27Z</time>
      </trkpt>
      <trkpt lat="39.896214" lon="116.64111">
        <time>2021-06-21T12:38:32Z</time>
      </trkpt>
      <trkpt lat="39.896194" lon="116.641285">
        <time>2021-06-21T12:38:37Z</time>
      </trkpt>
      <trkpt lat="39.896209" lon="116.641462">
        <time>2021-06-21T12:38:42Z</time>
      </trkpt>
      <trkpt lat="39.896199" lon="116.64164">
        <time>2021-06-21T12:38:47Z</time>
      </trkpt>
      <trkpt lat="39.896207" lon="116.641805">
        <time>2021-06-21T12:38:52Z</time>
      </trkpt>
      <trkpt lat="39.896205" lon="116.641972">
        <time>2021-06-21T12:38:57Z</time>
      </trkpt>
      <trkpt lat="39.896212" lon="116.642141">
        <time>2021-06-21T12:39:02Z</time>
      </trkpt>
      <trkpt lat="39.896216" lon="116.642284">
        <time>2021-06-21T12:39:07Z</time>
      </trkpt>
      <trkpt lat="39.896203" lon="116.642468">
        <time>2021-06-21T12:39:12Z</time>
      </trkpt>
      <trkpt lat="39.896199" lon="116.642656">
        <time>2021-06-21T12:39:17Z</time>
      </trkpt>
      <trkpt lat="39.896191" lon="116.642822">
        <time>2021-06-21T12:39:22Z</time>
      </trkpt>
      <trkpt lat="39.89619" lon="116.642958">
        <time>2021-06-21T12:39:27Z</time>
      </trkpt>
      <trkpt lat="39.896182" lon="116.643167">
        <time>2021-06-21T12:39:32Z</time>
      </trkpt>
      <trkpt lat="39.896176" lon="116.643333">
        <time>2021-06-21T12:39:37Z</time>
      </trkpt>
      <trkpt lat="39.896183" lon="116.643481">
        <time>2021-06-21T12:39:42Z</time>
      </trkpt>
      <trkpt lat="39.896181" lon="116.643627">
        <time>2021-06-21T12:39:47Z</time>
      </trkpt>
      <trkpt lat="39.896177" lon="116.643834">
        <time>2021-06-21T12:39:52Z</time>
      </trkpt>
      <trkpt lat="39.89619" lon="116.643968">
        <time>2021-06-21T12:39:57Z</time>
      </trkpt>
      <trkpt lat="39.896191" lon="116.644143">
        <time>2021-06-21T12:40:02Z</time>
      </trkpt>
      <trkpt lat="39.896181" lon="116.644316">
        <time>2021-06-21T12:40:07Z</time>
      </trkpt>
      <trkpt lat="39.896169" lon="116.644557">
        <time>2021-06-21T12:40:12Z</time>
      </trkpt>
      <trkpt lat="39.896162" lon="116.644616">
        <time>2021-06-21T12:40:17Z</time>
      </trkpt>
      <trkpt lat="39.896136" lon="116.644775">
        <time>2021-06-21T12:40:22Z</time>
      </trkpt>
      <trkpt lat="39.896143" lon="116.644956">
        <time>2021-06-21T12:40:27Z</time>
      </trkpt>
      <trkpt lat="39.89613" lon="116.645247">
        <time>2021-06-21T12:40:32Z</time>
      </trkpt>
      <trkpt lat="39.896123" lon="116.645283">
        <time>2021-06-21T12:40:37Z</time>
      </trkpt>
      <trkpt lat="39.896125" lon="116.645489">
        <time>2021-06-21T12:40:42Z</time>
      </trkpt>
      <trkpt lat="39.896105" lon="116.645641">
        <time>2021-06-21T12:40:47Z</time>
      </trkpt>
      <trkpt lat="39.896076" lon="116.645806">
        <time>2021-06-21T12:40:52Z</time>
      </trkpt>
      <trkpt lat="39.896063" lon="116.645977">
        <time>2021-06-21T12:40:57Z</time>
      </trkpt>
      <trkpt lat="39.896021" lon="116.646128">
        <time>2021-06-21T12:41:02Z</time>
      </trkpt>
      <trkpt lat="39.896005" lon="116.64629">
        <time>2021-06-21T12:41:07Z</time>
      </trkpt>
      <trkpt lat="39.895998" lon="116.64646">
        <time>2021-06-21T12:41:12Z</time>
      </trkpt>
      <trkpt lat="39.895999" lon="116.646641">
        <time>2021-06-21T12:41:17Z</time>
      </trkpt>
      <trkpt lat="39.895993" lon="116.646802">
        <time>2021-06-21T12:41:22Z</time>
      </trkpt>
      <trkpt lat="39.895985" lon="116.64696">
        <time>2021-06-21T12:41:27Z</time>
      </trkpt>
      <trkpt lat="39.895961" lon="116.647094">
        <time>2021-06-21T12:41:32Z</time>
      </trkpt>
      <trkpt lat="39.895879" lon="116.647205">
        <time>2021-06-21T12:41:37Z</time>
      </trkpt>
      <trkpt lat="39.89577" lon="116.647256">
        <time>2021-06-21T12:41:42Z</time>
      </trkpt>
      <trkpt lat="39.895734" lon="116.647418">
        <time>2021-06-21T12:41:47Z</time>
      </trkpt>
      <trkpt lat="39.895724" lon="116.647566">
        <time>2021-06-21T12:41:52Z</time>
      </trkpt>
      <trkpt lat="39.895719" lon="116.64773">
        <time>2021-06-21T12:41:57Z</time>
      </trkpt>
      <trkpt lat="39.895722" lon="116.64787">
        <time>2021-06-21T12:42:02Z</time>
      </trkpt>
      <trkpt lat="39.895705" lon="116.648007">
        <time>2021-06-21T12:42:07Z</time>
      </trkpt>
      <trkpt lat="39.895703" lon="116.64815">
        <time>2021-06-21T12:42:12Z</time>
      </trkpt>
      <trkpt lat="39.895712" lon="116.648316">
        <time>2021-06-21T12:42:17Z</time>
      </trkpt>
      <trkpt lat="39.895714" lon="116.648482">
        <time>2021-06-21T12:42:22Z</time>
      </trkpt>
      <trkpt lat="39.89583" lon="116.64846">
        <time>2021-06-21T12:42:27Z</time>
      </trkpt>
      <trkpt lat="39.895911" lon="116.648266">
        <time>2021-06-21T12:42:32Z</time>
      </trkpt>
      <trkpt lat="39.895974" lon="116.648092">
        <time>2021-06-21T12:42:37Z</time>
      </trkpt>
      <trkpt lat="39.896008" lon="116.647938">
        <time>2021-06-21T12:42:42Z</time>
      </trkpt>
      <trkpt lat="39.896001" lon="116.647782">
        <time>2021-06-21T12:42:47Z</time>
      </trkpt>
      <trkpt lat="39.89597" lon="116.647713">
        <time>2021-06-21T12:42:52Z</time>
      </trkpt>
      <trkpt lat="39.895983" lon="116.647563">
        <time>2021-06-21T12:42:57Z</time>
      </trkpt>
      <trkpt lat="39.896003" lon="116.647403">
        <time>2021-06-21T12:43:02Z</time>
      </trkpt>
      <trkpt lat="39.895993" lon="116.647286">
        <time>2021-06-21T12:43:07Z</time>
      </trkpt>
      <trkpt lat="39.895922" lon="116.64716">
        <time>2021-06-21T12:43:12Z</time>
      </trkpt>
      <trkpt lat="39.895806" lon="116.647235">
        <time>2021-06-21T12:43:17Z</time>
      </trkpt>
      <trkpt lat="39.895751" lon="116.647411">
        <time>2021-06-21T12:43:22Z</time>
      </trkpt>
      <trkpt lat="39.895711" lon="116.647592">
        <time>2021-06-21T12:43:27Z</time>
      </trkpt>
      <trkpt lat="39.89569" lon="116.647723">
        <time>2021-06-21T12:43:32Z</time>
      </trkpt>
      <trkpt lat="39.895693" lon="116.647925">
        <time>2021-06-21T12:43:37Z</time>
      </trkpt>
      <trkpt lat="39.895709" lon="116.648051">
        <time>2021-06-21T12:43:42Z</time>
      </trkpt>
      <trkpt lat="39.895695" lon="116.648203">
        <time>2021-06-21T12:43:47Z</time>
      </trkpt>
      <trkpt lat="39.895671" lon="116.64833">
        <time>2021-06-21T12:43:52Z</time>
      </trkpt>
      <trkpt lat="39.895667" lon="116.648489">
        <time>2021-06-21T12:43:57Z</time>
      </trkpt>
      <trkpt lat="39.895678" lon="116.648649">
        <time>2021-06-21T12:44:02Z</time>
      </trkpt>
      <trkpt lat="39.895666" lon="116.648822">
        <time>2021-06-21T12:44:07Z</time>
      </trkpt>
      <trkpt lat="39.895608" lon="116.649">
        <time>2021-06-21T12:44:12Z</time>
      </trkpt>
      <trkpt lat="39.895532" lon="116.649128">
        <time>2021-06-21T12:44:17Z</time>
      </trkpt>
      <trkpt lat="39.895387" lon="116.649112">
        <time>2021-06-21T12:44:22Z</time>
      </trkpt>
      <trkpt lat="39.895245" lon="116.649091">
        <time>2021-06-21T12:44:27Z</time>
      </trkpt>
      <trkpt lat="39.895122" lon="116.649023">
        <time>2021-06-21T12:44:32Z</time>
      </trkpt>
      <trkpt lat="39.895023" lon="116.648902">
        <time>2021-06-21T12:44:37Z</time>
      </trkpt>
      <trkpt lat="39.894916" lon="116.648819">
        <time>2021-06-21T12:44:42Z</time>
      </trkpt>
      <trkpt lat="39.894854" lon="116.648739">
        <time>2021-06-21T12:44:47Z</time>
      </trkpt>
      <trkpt lat="39.894744" lon="116.64868">
        <time>2021-06-21T12:44:52Z</time>
      </trkpt>
      <trkpt lat="39.894622" lon="116.6486">
        <time>2021-06-21T12:44:57Z</time>
      </trkpt>
      <trkpt lat="39.894507" lon="116.648555">
        <time>2021-06-21T12:45:02Z</time>
      </trkpt>
      <trkpt lat="39.894395" lon="116.64849">
        <time>2021-06-21T12:45:07Z</time>
      </trkpt>
      <trkpt lat="39.894301" lon="116.648453">
        <time>2021-06-21T12:45:12Z</time>
      </trkpt>
      <trkpt lat="39.894217" lon="116.648431">
        <time>2021-06-21T12:45:17Z</time>
      </trkpt>
      <trkpt lat="39.894164" lon="116.64839">
        <time>2021-06-21T12:45:22Z</time>
      </trkpt>
      <trkpt lat="39.894106" lon="116.648348">
        <time>2021-06-21T12:45:27Z</time>
      </trkpt>
      <trkpt lat="39.893939" lon="116.648278">
        <time>2021-06-21T12:45:32Z</time>
      </trkpt>
      <trkpt lat="39.89371" lon="116.648175">
        <time>2021-06-21T12:45:37Z</time>
      </trkpt>
      <trkpt lat="39.893627" lon="116.648134">
        <time>2021-06-21T12:45:42Z</time>
      </trkpt>
      <trkpt lat="39.893518" lon="116.648064">
        <time>2021-06-21T12:45:47Z</time>
      </trkpt>
      <trkpt lat="39.893405" lon="116.64801">
        <time>2021-06-21T12:45:52Z</time>
      </trkpt>
      <trkpt lat="39.893279" lon="116.647976">
        <time>2021-06-21T12:45:57Z</time>
      </trkpt>
      <trkpt lat="39.893134" lon="116.647975">
        <time>2021-06-21T12:46:02Z</time>
      </trkpt>
      <trkpt lat="39.892982" lon="116.647989">
        <time>2021-06-21T12:46:07Z</time>
      </trkpt>
      <trkpt lat="39.89285" lon="116.647989">
        <time>2021-06-21T12:46:12Z</time>
      </trkpt>
      <trkpt lat="39.892719" lon="116.647996">
        <time>2021-06-21T12:46:17Z</time>
      </trkpt>
      <trkpt lat="39.892607" lon="116.64797">
        <time>2021-06-21T12:46:22Z</time>
      </trkpt>
      <trkpt lat="39.892598" lon="116.64789">
        <time>2021-06-21T12:46:27Z</time>
      </trkpt>
      <trkpt lat="39.892631" lon="116.647734">
        <time>2021-06-21T12:46:32Z</time>
      </trkpt>
      <trkpt lat="39.892653" lon="116.647567">
        <time>2021-06-21T12:46:37Z</time>
      </trkpt>
      <trkpt lat="39.892685" lon="116.647448">
        <time>2021-06-21T12:46:42Z</time>
      </trkpt>
      <trkpt lat="39.892694" lon="116.647351">
        <time>2021-06-21T12:46:47Z</time>
      </trkpt>
      <trkpt lat="39.89271" lon="116.647168">
        <time>2021-06-21T12:46:52Z</time>
      </trkpt>
      <trkpt lat="39.892714" lon="116.646924">
        <time>2021-06-21T12:46:57Z</time>
      </trkpt>
      <trkpt lat="39.892721" lon="116.646636">
        <time>2021-06-21T12:47:02Z</time>
      </trkpt>
      <trkpt lat="39.892708" lon="116.646381">
        <time>2021-06-21T12:47:07Z</time>
      </trkpt>
      <trkpt lat="39.892694" lon="116.646252">
        <time>2021-06-21T12:47:12Z</time>
      </trkpt>
      <trkpt lat="39.892685" lon="116.646099">
        <time>2021-06-21T12:47:17Z</time>
      </trkpt>
      <trkpt lat="39.89259" lon="116.645944">
        <time>2021-06-21T12:47:22Z</time>
      </trkpt>
      <trkpt lat="39.892446" lon="116.645766">
        <time>2021-06-21T12:47:27Z</time>
      </trkpt>
      <trkpt lat="39.892248" lon="116.645653">
        <time>2021-06-21T12:47:32Z</time>
      </trkpt>
      <trkpt lat="39.892186" lon="116.645623">
        <time>2021-06-21T12:47:37Z</time>
      </trkpt>
      <trkpt lat="39.892087" lon="116.645557">
        <time>2021-06-21T12:47:42Z</time>
      </trkpt>
      <trkpt lat="39.891963" lon="116.645519">
        <time>2021-06-21T12:47:47Z</time>
      </trkpt>
      <trkpt lat="39.891836" lon="116.64544">
        <time>2021-06-21T12:47:52Z</time>
      </trkpt>
      <trkpt lat="39.891708" lon="116.645397">
        <time>2021-06-21T12:47:57Z</time>
      </trkpt>
      <trkpt lat="39.891615" lon="116.645327">
        <time>2021-06-21T12:48:02Z</time>
      </trkpt>
      <trkpt lat="39.891558" lon="116.645391">
        <time>2021-06-21T12:48:07Z</time>
      </trkpt>
      <trkpt lat="39.891641" lon="116.645455">
        <time>2021-06-21T12:48:12Z</time>
      </trkpt>
      <trkpt lat="39.891735" lon="116.645509">
        <time>2021-06-21T12:48:17Z</time>
      </trkpt>
      <trkpt lat="39.891866" lon="116.645529">
        <time>2021-06-21T12:48:22Z</time>
      </trkpt>
      <trkpt lat="39.891988" lon="116.645596">
        <time>2021-06-21T12:48:27Z</time>
      </trkpt>
      <trkpt lat="39.892126" lon="116.645672">
        <time>2021-06-21T12:48:32Z</time>
      </trkpt>
      <trkpt lat="39.892258" lon="116.645735">
        <time>2021-06-21T12:48:37Z</time>
      </trkpt>
      <trkpt lat="39.892391" lon="116.645802">
        <time>2021-06-21T12:48:42Z</time>
      </trkpt>
      <trkpt lat="39.892522" lon="116.64584">
        <time>2021-06-21T12:48:47Z</time>
      </trkpt>
      <trkpt lat="39.892604" lon="116.645878">
        <time>2021-06-21T12:48:52Z</time>
      </trkpt>
      <trkpt lat="39.892672" lon="116.646039">
        <time>2021-06-21T12:48:57Z</time>
      </trkpt>
      <trkpt lat="39.892669" lon="116.646258">
        <time>2021-06-21T12:49:02Z</time>
      </trkpt>
      <trkpt lat="39.892668" lon="116.646406">
        <time>2021-06-21T12:49:07Z</time>
      </trkpt>
      <trkpt lat="39.892664" lon="116.646574">
        <time>2021-06-21T12:49:12Z</time>
      </trkpt>
      <trkpt lat="39.892651" lon="116.646739">
        <time>2021-06-21T12:49:17Z</time>
      </trkpt>
      <trkpt lat="39.892612" lon="116.646948">
        <time>2021-06-21T12:49:22Z</time>
      </trkpt>
      <trkpt lat="39.892591" lon="116.647139">
        <time>2021-06-21T12:49:27Z</time>
      </trkpt>
      <trkpt lat="39.892585" lon="116.647304">
        <time>2021-06-21T12:49:32Z</time>
      </trkpt>
      <trkpt lat="39.892546" lon="116.647511">
        <time>2021-06-21T12:49:37Z</time>
      </trkpt>
      <trkpt lat="39.892531" lon="116.647666">
        <time>2021-06-21T12:49:42Z</time>
      </trkpt>
      <trkpt lat="39.892521" lon="116.647864">
        <time>2021-06-21T12:49:47Z</time>
      </trkpt>
      <trkpt lat="39.892584" lon="116.647941">
        <time>2021-06-21T12:49:52Z</time>
      </trkpt>
      <trkpt lat="39.892738" lon="116.647973">
        <time>2021-06-21T12:49:57Z</time>
      </trkpt>
      <trkpt lat="39.892877" lon="116.647989">
        <time>2021-06-21T12:50:02Z</time>
      </trkpt>
      <trkpt lat="39.89303" lon="116.648003">
        <time>2021-06-21T12:50:07Z</time>
      </trkpt>
      <trkpt lat="39.893166" lon="116.648033">
        <time>2021-06-21T12:50:12Z</time>
      </trkpt>
      <trkpt lat="39.893263" lon="116.64806">
        <time>2021-06-21T12:50:17Z</time>
      </trkpt>
      <trkpt lat="39.893383" lon="116.648088">
        <time>2021-06-21T12:50:22Z</time>
      </trkpt>
      <trkpt lat="39.893519" lon="116.648111">
        <time>2021-06-21T12:50:27Z</time>
      </trkpt>
      <trkpt lat="39.893609" lon="116.648131">
        <time>2021-06-21T12:50:32Z</time>
      </trkpt>
      <trkpt lat="39.893666" lon="116.648158">
        <time>2021-06-21T12:50:37Z</time>
      </trkpt>
      <trkpt lat="39.893753" lon="116.648189">
        <time>2021-06-21T12:50:42Z</time>
      </trkpt>
      <trkpt lat="39.893881" lon="116.648273">
        <time>2021-06-21T12:50:47Z</time>
      </trkpt>
      <trkpt lat="39.894012" lon="116.648353">
        <time>2021-06-21T12:50:52Z</time>
      </trkpt>
      <trkpt lat="39.894168" lon="116.648394">
        <time>2021-06-21T12:50:57Z</time>
      </trkpt>
      <trkpt lat="39.894316" lon="116.648478">
        <time>2021-06-21T12:51:02Z</time>
      </trkpt>
      <trkpt lat="39.894425" lon="116.648518">
        <time>2021-06-21T12:51:07Z</time>
      </trkpt>
      <trkpt lat="39.894462" lon="116.648529">
        <time>2021-06-21T12:51:12Z</time>
      </trkpt>
      <trkpt lat="39.894573" lon="116.648619">
        <time>2021-06-21T12:51:17Z</time>
      </trkpt>
      <trkpt lat="39.894743" lon="116.648716">
        <time>2021-06-21T12:51:22Z</time>
      </trkpt>
      <trkpt lat="39.894906" lon="116.648757">
        <time>2021-06-21T12:51:27Z</time>
      </trkpt>
      <trkpt lat="39.895073" lon="116.648865">
        <time>2021-06-21T12:51:32Z</time>
      </trkpt>
      <trkpt lat="39.895148" lon="116.648937">
        <time>2021-06-21T12:51:37Z</time>
      </trkpt>
      <trkpt lat="39.895262" lon="116.648994">
        <time>2021-06-21T12:51:42Z</time>
      </trkpt>
      <trkpt lat="39.895364" lon="116.649023">
        <time>2021-06-21T12:51:47Z</time>
      </trkpt>
      <trkpt lat="39.895454" lon="116.649058">
        <time>2021-06-21T12:51:52Z</time>
      </trkpt>
      <trkpt lat="39.895581" lon="116.64908">
        <time>2021-06-21T12:51:57Z</time>
      </trkpt>
      <trkpt lat="39.895679" lon="116.649051">
        <time>2021-06-21T12:52:02Z</time>
      </trkpt>
      <trkpt lat="39.895718" lon="116.648978">
        <time>2021-06-21T12:52:07Z</time>
      </trkpt>
      <trkpt lat="39.895756" lon="116.648854">
        <time>2021-06-21T12:52:12Z</time>
      </trkpt>
      <trkpt lat="39.895818" lon="116.648696">
        <time>2021-06-21T12:52:17Z</time>
      </trkpt>
      <trkpt lat="39.895843" lon="116.648549">
        <time>2021-06-21T12:52:22Z</time>
      </trkpt>
      <trkpt lat="39.895895" lon="116.648397">
        <time>2021-06-21T12:52:27Z</time>
      </trkpt>
      <trkpt lat="39.895931" lon="116.648235">
        <time>2021-06-21T12:52:32Z</time>
      </trkpt>
      <trkpt lat="39.895997" lon="116.648079">
        <time>2021-06-21T12:52:37Z</time>
      </trkpt>
      <trkpt lat="39.896047" lon="116.647924">
        <time>2021-06-21T12:52:42Z</time>
      </trkpt>
      <trkpt lat="39.896075" lon="116.647759">
        <time>2021-06-21T12:52:47Z</time>
      </trkpt>
      <trkpt lat="39.896075" lon="116.647644">
        <time>2021-06-21T12:52:52Z</time>
      </trkpt>
      <trkpt lat="39.896071" lon="116.647419">
        <time>2021-06-21T12:52:57Z</time>
      </trkpt>
      <trkpt lat="39.896016" lon="116.64721">
        <time>2021-06-21T12:53:02Z</time>
      </trkpt>
      <trkpt lat="39.896018" lon="116.647066">
        <time>2021-06-21T12:53:07Z</time>
      </trkpt>
      <trkpt lat="39.896057" lon="116.646899">
        <time>2021-06-21T12:53:12Z</time>
      </trkpt>
      <trkpt lat="39.89607" lon="116.646758">
        <time>2021-06-21T12:53:17Z</time>
      </trkpt>
      <trkpt lat="39.896072" lon="116.646614">
        <time>2021-06-21T12:53:22Z</time>
      </trkpt>
      <trkpt lat="39.896084" lon="116.646444">
        <time>2021-06-21T12:53:27Z</time>
      </trkpt>
      <trkpt lat="39.896097" lon="116.646327">
        <time>2021-06-21T12:53:32Z</time>
      </trkpt>
      <trkpt lat="39.896092" lon="116.646214">
        <time>2021-06-21T12:53:37Z</time>
      </trkpt>
      <trkpt lat="39.896109" lon="116.64604">
        <time>2021-06-21T12:53:42Z</time>
      </trkpt>
      <trkpt lat="39.896125" lon="116.645852">
        <time>2021-06-21T12:53:47Z</time>
      </trkpt>
      <trkpt lat="39.896116" lon="116.645663">
        <time>2021-06-21T12:53:52Z</time>
      </trkpt>
      <trkpt lat="39.896131" lon="116.64549">
        <time>2021-06-21T12:53:57Z</time>
      </trkpt>
      <trkpt lat="39.896164" lon="116.645359">
        <time>2021-06-21T12:54:02Z</time>
      </trkpt>
      <trkpt lat="39.896195" lon="116.64521">
        <time>2021-06-21T12:54:07Z</time>
      </trkpt>
      <trkpt lat="39.896201" lon="116.645064">
        <time>2021-06-21T12:54:12Z</time>
      </trkpt>
      <trkpt lat="39.896222" lon="116.644907">
        <time>2021-06-21T12:54:17Z</time>
      </trkpt>
      <trkpt lat="39.896241" lon="116.644765">
        <time>2021-06-21T12:54:22Z</time>
      </trkpt>
      <trkpt lat="39.89624" lon="116.644655">
        <time>2021-06-21T12:54:27Z</time>
      </trkpt>
      <trkpt lat="39.896231" lon="116.644501">
        <time>2021-06-21T12:54:32Z</time>
      </trkpt>
      <trkpt lat="39.896221" lon="116.644333">
        <time>2021-06-21T12:54:37Z</time>
      </trkpt>
      <trkpt lat="39.896214" lon="116.644146">
        <time>2021-06-21T12:54:42Z</time>
      </trkpt>
      <trkpt lat="39.896199" lon="116.643966">
        <time>2021-06-21T12:54:47Z</time>
      </trkpt>
      <trkpt lat="39.896202" lon="116.643729">
        <time>2021-06-21T12:54:52Z</time>
      </trkpt>
      <trkpt lat="39.896214" lon="116.643641">
        <time>2021-06-21T12:54:57Z</time>
      </trkpt>
      <trkpt lat="39.896232" lon="116.643499">
        <time>2021-06-21T12:55:02Z</time>
      </trkpt>
      <trkpt lat="39.896209" lon="116.643312">
        <time>2021-06-21T12:55:07Z</time>
      </trkpt>
      <trkpt lat="39.896223" lon="116.643222">
        <time>2021-06-21T12:55:12Z</time>
      </trkpt>
      <trkpt lat="39.896217" lon="116.643111">
        <time>2021-06-21T12:55:17Z</time>
      </trkpt>
      <trkpt lat="39.896221" lon="116.642995">
        <time>2021-06-21T12:55:22Z</time>
      </trkpt>
      <trkpt lat="39.896245" lon="116.64288">
        <time>2021-06-21T12:55:27Z</time>
      </trkpt>
      <trkpt lat="39.896287" lon="116.642785">
        <time>2021-06-21T12:55:32Z</time>
      </trkpt>
      <trkpt lat="39.896314" lon="116.642621">
        <time>2021-06-21T12:55:37Z</time>
      </trkpt>
      <trkpt lat="39.896266" lon="116.642419">
        <time>2021-06-21T12:55:42Z</time>
      </trkpt>
      <trkpt lat="39.896287" lon="116.642289">
        <time>2021-06-21T12:55:47Z</time>
      </trkpt>
      <trkpt lat="39.8963" lon="116.64215">
        <time>2021-06-21T12:55:52Z</time>
      </trkpt>
      <trkpt lat="39.896332" lon="116.642009">
        <time>2021-06-21T12:55:57Z</time>
      </trkpt>
      <trkpt lat="39.896334" lon="116.641873">
        <time>2021-06-21T12:56:02Z</time>
      </trkpt>
      <trkpt lat="39.89632" lon="116.64172">
        <time>2021-06-21T12:56:07Z</time>
      </trkpt>
      <trkpt lat="39.896323" lon="116.641575">
        <time>2021-06-21T12:56:12Z</time>
      </trkpt>
      <trkpt lat="39.896299" lon="116.641414">
        <time>2021-06-21T12:56:17Z</time>
      </trkpt>
      <trkpt lat="39.896286" lon="116.641275">
        <time>2021-06-21T12:56:22Z</time>
      </trkpt>
      <trkpt lat="39.896305" lon="116.641128">
        <time>2021-06-21T12:56:27Z</time>
      </trkpt>
      <trkpt lat="39.896334" lon="116.640984">
        <time>2021-06-21T12:56:32Z</time>
      </trkpt>
      <trkpt lat="39.896347" lon="116.640814">
        <time>2021-06-21T12:56:37Z</time>
      </trkpt>
      <trkpt lat="39.896341" lon="116.640638">
        <time>2021-06-21T12:56:42Z</time>
      </trkpt>
      <trkpt lat="39.896431" lon="116.640473">
        <time>2021-06-21T12:56:47Z</time>
      </trkpt>
      <trkpt lat="39.896517" lon="116.640437">
        <time>2021-06-21T12:56:52Z</time>
      </trkpt>
      <trkpt lat="39.896678" lon="116.640468">
        <time>2021-06-21T12:56:57Z</time>
      </trkpt>
      <trkpt lat="39.896822" lon="116.640532">
        <time>2021-06-21T12:57:02Z</time>
      </trkpt>
      <trkpt lat="39.896979" lon="116.640632">
        <time>2021-06-21T12:57:07Z</time>
      </trkpt>
      <trkpt lat="39.897146" lon="116.64075">
        <time>2021-06-21T12:57:12Z</time>
      </trkpt>
      <trkpt lat="39.897197" lon="116.640796">
        <time>2021-06-21T12:57:17Z</time>
      </trkpt>
      <trkpt lat="39.897291" lon="116.640851">
        <time>2021-06-21T12:57:22Z</time>
      </trkpt>
      <trkpt lat="39.897379" lon="116.640921">
        <time>2021-06-21T12:57:27Z</time>
      </trkpt>
      <trkpt lat="39.897482" lon="116.641003">
        <time>2021-06-21T12:57:32Z</time>
      </trkpt>
      <trkpt lat="39.897527" lon="116.641001">
        <time>2021-06-21T12:57:37Z</time>
      </trkpt>
      <trkpt lat="39.897607" lon="116.640997">
        <time>2021-06-21T12:57:42Z</time>
      </trkpt>
      <trkpt lat="39.89771" lon="116.64107">
        <time>2021-06-21T12:57:47Z</time>
      </trkpt>
      <trkpt lat="39.89787" lon="116.641104">
        <time>2021-06-21T12:57:52Z</time>
      </trkpt>
      <trkpt lat="39.897998" lon="116.641146">
        <time>2021-06-21T12:57:57Z</time>
      </trkpt>
      <trkpt lat="39.898142" lon="116.641221">
        <time>2021-06-21T12:58:02Z</time>
      </trkpt>
      <trkpt lat="39.898258" lon="116.641288">
        <time>2021-06-21T12:58:07Z</time>
      </trkpt>
      <trkpt lat="39.898384" lon="116.641345">
        <time>2021-06-21T12:58:12Z</time>
      </trkpt>
      <trkpt lat="39.89847" lon="116.641469">
        <time>2021-06-21T12:58:17Z</time>
      </trkpt>
      <trkpt lat="39.89839" lon="116.641672">
        <time>2021-06-21T12:58:22Z</time>
      </trkpt>
      <trkpt lat="39.898368" lon="116.641861">
        <time>2021-06-21T12:58:27Z</time>
      </trkpt>
      <trkpt lat="39.898314" lon="116.642024">
        <time>2021-06-21T12:58:32Z</time>
      </trkpt>
      <trkpt lat="39.898296" lon="116.642191">
        <time>2021-06-21T12:58:37Z</time>
      </trkpt>
      <trkpt lat="39.898287" lon="116.642348">
        <time>2021-06-21T12:58:42Z</time>
      </trkpt>
      <trkpt lat="39.898281" lon="116.642517">
        <time>2021-06-21T12:58:47Z</time>
      </trkpt>
      <trkpt lat="39.898347" lon="116.642816">
        <time>2021-06-21T12:58:52Z</time>
      </trkpt>
      <trkpt lat="39.898352" lon="116.64285">
        <time>2021-06-21T12:58:57Z</time>
      </trkpt>
      <trkpt lat="39.898326" lon="116.643041">
        <time>2021-06-21T12:59:02Z</time>
      </trkpt>
      <trkpt lat="39.898286" lon="116.643221">
        <time>2021-06-21T12:59:07Z</time>
      </trkpt>
      <trkpt lat="39.898271" lon="116.643403">
        <time>2021-06-21T12:59:12Z</time>
      </trkpt>
      <trkpt lat="39.898257" lon="116.643557">
        <time>2021-06-21T12:59:17Z</time>
      </trkpt>
      <trkpt lat="39.898262" lon="116.643679">
        <time>2021-06-21T12:59:22Z</time>
      </trkpt>
      <trkpt lat="39.898267" lon="116.643832">
        <time>2021-06-21T12:59:27Z</time>
      </trkpt>
      <trkpt lat="39.898304" lon="116.644022">
        <time>2021-06-21T12:59:32Z</time>
      </trkpt>
      <trkpt lat="39.898309" lon="116.64418">
        <time>2021-06-21T12:59:37Z</time>
      </trkpt>
      <trkpt lat="39.898329" lon="116.644365">
        <time>2021-06-21T12:59:42Z</time>
      </trkpt>
      <trkpt lat="39.898346" lon="116.644514">
        <time>2021-06-21T12:59:47Z</time>
      </trkpt>
      <trkpt lat="39.898342" lon="116.644695">
        <time>2021-06-21T12:59:52Z</time>
      </trkpt>
      <trkpt lat="39.898352" lon="116.644822">
        <time>2021-06-21T12:59:57Z</time>
      </trkpt>
      <trkpt lat="39.898375" lon="116.645038">
        <time>2021-06-21T13:00:02Z</time>
      </trkpt>
      <trkpt lat="39.898388" lon="116.645188">
        <time>2021-06-21T13:00:07Z</time>
      </trkpt>
      <trkpt lat="39.898444" lon="116.645372">
        <time>2021-06-21T13:00:12Z</time>
      </trkpt>
      <trkpt lat="39.898534" lon="116.645561">
        <time>2021-06-21T13:00:17Z</time>
      </trkpt>
      <trkpt lat="39.898619" lon="116.645725">
        <time>2021-06-21T13:00:22Z</time>
      </trkpt>
      <trkpt lat="39.898647" lon="116.645887">
        <time>2021-06-21T13:00:27Z</time>
      </trkpt>
      <trkpt lat="39.89867" lon="116.646061">
        <time>2021-06-21T13:00:32Z</time>
      </trkpt>
      <trkpt lat="39.898711" lon="116.646195">
        <time>2021-06-21T13:00:37Z</time>
      </trkpt>
      <trkpt lat="39.898758" lon="116.646349">
        <time>2021-06-21T13:00:42Z</time>
      </trkpt>
      <trkpt lat="39.898795" lon="116.6465">
        <time>2021-06-21T13:00:47Z</time>
      </trkpt>
      <trkpt lat="39.898841" lon="116.64661">
        <time>2021-06-21T13:00:52Z</time>
      </trkpt>
      <trkpt lat="39.898877" lon="116.646737">
        <time>2021-06-21T13:00:57Z</time>
      </trkpt>
      <trkpt lat="39.898947" lon="116.64691">
        <time>2021-06-21T13:01:02Z</time>
      </trkpt>
      <trkpt lat="39.899003" lon="116.647088">
        <time>2021-06-21T13:01:07Z</time>
      </trkpt>
      <trkpt lat="39.899029" lon="116.647192">
        <time>2021-06-21T13:01:12Z</time>
      </trkpt>
      <trkpt lat="39.899017" lon="116.647273">
        <time>2021-06-21T13:01:17Z</time>
      </trkpt>
      <trkpt lat="39.899022" lon="116.647383">
        <time>2021-06-21T13:01:22Z</time>
      </trkpt>
      <trkpt lat="39.898997" lon="116.647537">
        <time>2021-06-21T13:01:27Z</time>
      </trkpt>
      <trkpt lat="39.899009" lon="116.647736">
        <time>2021-06-21T13:01:32Z</time>
      </trkpt>
      <trkpt lat="39.899045" lon="116.647914">
        <time>2021-06-21T13:01:37Z</time>
      </trkpt>
      <trkpt lat="39.899047" lon="116.648048">
        <time>2021-06-21T13:01:42Z</time>
      </trkpt>
      <trkpt lat="39.89906" lon="116.64822">
        <time>2021-06-21T13:01:47Z</time>
      </trkpt>
      <trkpt lat="39.899032" lon="116.648396">
        <time>2021-06-21T13:01:52Z</time>
      </trkpt>
      <trkpt lat="39.899002" lon="116.648576">
        <time>2021-06-21T13:01:57Z</time>
      </trkpt>
      <trkpt lat="39.89901" lon="116.648774">
        <time>2021-06-21T13:02:02Z</time>
      </trkpt>
      <trkpt lat="39.899004" lon="116.648886">
        <time>2021-06-21T13:02:07Z</time>
      </trkpt>
      <trkpt lat="39.899003" lon="116.649034">
        <time>2021-06-21T13:02:12Z</time>
      </trkpt>
      <trkpt lat="39.899028" lon="116.649206">
        <time>2021-06-21T13:02:17Z</time>
      </trkpt>
      <trkpt lat="39.899021" lon="116.64937">
        <time>2021-06-21T13:02:22Z</time>
      </trkpt>
      <trkpt lat="39.899034" lon="116.649468">
        <time>2021-06-21T13:02:27Z</time>
      </trkpt>
      <trkpt lat="39.899052" lon="116.649611">
        <time>2021-06-21T13:02:32Z</time>
      </trkpt>
      <trkpt lat="39.899045" lon="116.64974">
        <time>2021-06-21T13:02:37Z</time>
      </trkpt>
      <trkpt lat="39.899029" lon="116.649868">
        <time>2021-06-21T13:02:42Z</time>
      </trkpt>
      <trkpt lat="39.899002" lon="116.650001">
        <time>2021-06-21T13:02:47Z</time>
      </trkpt>
      <trkpt lat="39.899041" lon="116.65017">
        <time>2021-06-21T13:02:52Z</time>
      </trkpt>
      <trkpt lat="39.899054" lon="116.650329">
        <time>2021-06-21T13:02:57Z</time>
      </trkpt>
      <trkpt lat="39.899084" lon="116.650431">
        <time>2021-06-21T13:03:02Z</time>
      </trkpt>
      <trkpt lat="39.89911" lon="116.650576">
        <time>2021-06-21T13:03:07Z</time>
      </trkpt>
      <trkpt lat="39.899133" lon="116.650776">
        <time>2021-06-21T13:03:12Z</time>
      </trkpt>
      <trkpt lat="39.899072" lon="116.650974">
        <time>2021-06-21T13:03:17Z</time>
      </trkpt>
      <trkpt lat="39.899042" lon="116.651173">
        <time>2021-06-21T13:03:22Z</time>
      </trkpt>
      <trkpt lat="39.898956" lon="116.65142">
        <time>2021-06-21T13:03:27Z</time>
      </trkpt>
      <trkpt lat="39.898979" lon="116.651482">
        <time>2021-06-21T13:03:32Z</time>
      </trkpt>
      <trkpt lat="39.898995" lon="116.651458">
        <time>2021-06-21T13:03:37Z</time>
      </trkpt>
      <trkpt lat="39.898973" lon="116.651333">
        <time>2021-06-21T13:03:42Z</time>
      </trkpt>
      <trkpt lat="39.898966" lon="116.651175">
        <time>2021-06-21T13:03:47Z</time>
      </trkpt>
      <trkpt lat="39.899011" lon="116.651013">
        <time>2021-06-21T13:03:52Z</time>
      </trkpt>
      <trkpt lat="39.899028" lon="116.650817">
        <time>2021-06-21T13:03:57Z</time>
      </trkpt>
      <trkpt lat="39.89903" lon="116.650611">
        <time>2021-06-21T13:04:02Z</time>
      </trkpt>
      <trkpt lat="39.899013" lon="116.65041">
        <time>2021-06-21T13:04:07Z</time>
      </trkpt>
      <trkpt lat="39.899012" lon="116.650243">
        <time>2021-06-21T13:04:12Z</time>
      </trkpt>
      <trkpt lat="39.899053" lon="116.650124">
        <time>2021-06-21T13:04:17Z</time>
      </trkpt>
      <trkpt lat="39.899094" lon="116.65">
        <time>2021-06-21T13:04:22Z</time>
      </trkpt>
      <trkpt lat="39.899094" lon="116.649863">
        <time>2021-06-21T13:04:27Z</time>
      </trkpt>
      <trkpt lat="39.899101" lon="116.649739">
        <time>2021-06-21T13:04:32Z</time>
      </trkpt>
      <trkpt lat="39.899091" lon="116.649465">
        <time>2021-06-21T13:04:37Z</time>
      </trkpt>
      <trkpt lat="39.899078" lon="116.649394">
        <time>2021-06-21T13:04:42Z</time>
      </trkpt>
      <trkpt lat="39.8991" lon="116.649109">
        <time>2021-06-21T13:04:47Z</time>
      </trkpt>
      <trkpt lat="39.899086" lon="116.649042">
        <time>2021-06-21T13:04:52Z</time>
      </trkpt>
      <trkpt lat="39.899097" lon="116.648963">
        <time>2021-06-21T13:04:57Z</time>
      </trkpt>
      <trkpt lat="39.899127" lon="116.64879">
        <time>2021-06-21T13:05:02Z</time>
      </trkpt>
      <trkpt lat="39.899164" lon="116.648681">
        <time>2021-06-21T13:05:07Z</time>
      </trkpt>
      <trkpt lat="39.899191" lon="116.648548">
        <time>2021-06-21T13:05:12Z</time>
      </trkpt>
      <trkpt lat="39.899162" lon="116.648408">
        <time>2021-06-21T13:05:17Z</time>
      </trkpt>
      <trkpt lat="39.899116" lon="116.648358">
        <time>2021-06-21T13:05:22Z</time>
      </trkpt>
      <trkpt lat="39.899098" lon="116.64827">
        <time>2021-06-21T13:05:27Z</time>
      </trkpt>
      <trkpt lat="39.899101" lon="116.648187">
        <time>2021-06-21T13:05:32Z</time>
      </trkpt>
      <trkpt lat="39.899081" lon="116.648063">
        <time>2021-06-21T13:05:37Z</time>
      </trkpt>
      <trkpt lat="39.899051" lon="116.647824">
        <time>2021-06-21T13:05:42Z</time>
      </trkpt>
      <trkpt lat="39.898991" lon="116.647612">
        <time>2021-06-21T13:05:47Z</time>
      </trkpt>
      <trkpt lat="39.898984" lon="116.647387">
        <time>2021-06-21T13:05:52Z</time>
      </trkpt>
      <trkpt lat="39.898975" lon="116.647187">
        <time>2021-06-21T13:05:57Z</time>
      </trkpt>
      <trkpt lat="39.898946" lon="116.647007">
        <time>2021-06-21T13:06:02Z</time>
      </trkpt>
      <trkpt lat="39.898879" lon="116.646856">
        <time>2021-06-21T13:06:07Z</time>
      </trkpt>
      <trkpt lat="39.89883" lon="116.646609">
        <time>2021-06-21T13:06:12Z</time>
      </trkpt>
      <trkpt lat="39.898821" lon="116.64656">
        <time>2021-06-21T13:06:17Z</time>
      </trkpt>
      <trkpt lat="39.898795" lon="116.646461">
        <time>2021-06-21T13:06:22Z</time>
      </trkpt>
      <trkpt lat="39.89876" lon="116.646322">
        <time>2021-06-21T13:06:27Z</time>
      </trkpt>
      <trkpt lat="39.898745" lon="116.646192">
        <time>2021-06-21T13:06:32Z</time>
      </trkpt>
      <trkpt lat="39.898692" lon="116.646043">
        <time>2021-06-21T13:06:37Z</time>
      </trkpt>
      <trkpt lat="39.898628" lon="116.645911">
        <time>2021-06-21T13:06:42Z</time>
      </trkpt>
      <trkpt lat="39.898575" lon="116.645752">
        <time>2021-06-21T13:06:47Z</time>
      </trkpt>
      <trkpt lat="39.898552" lon="116.645594">
        <time>2021-06-21T13:06:52Z</time>
      </trkpt>
      <trkpt lat="39.89851" lon="116.645415">
        <time>2021-06-21T13:06:57Z</time>
      </trkpt>
      <trkpt lat="39.898468" lon="116.645231">
        <time>2021-06-21T13:07:02Z</time>
      </trkpt>
      <trkpt lat="39.898458" lon="116.645059">
        <time>2021-06-21T13:07:07Z</time>
      </trkpt>
      <trkpt lat="39.898444" lon="116.64486">
        <time>2021-06-21T13:07:12Z</time>
      </trkpt>
      <trkpt lat="39.898444" lon="116.644738">
        <time>2021-06-21T13:07:17Z</time>
      </trkpt>
      <trkpt lat="39.898451" lon="116.644651">
        <time>2021-06-21T13:07:22Z</time>
      </trkpt>
      <trkpt lat="39.89839" lon="116.644455">
        <time>2021-06-21T13:07:27Z</time>
      </trkpt>
      <trkpt lat="39.89836" lon="116.644233">
        <time>2021-06-21T13:07:32Z</time>
      </trkpt>
      <trkpt lat="39.898361" lon="116.644041">
        <time>2021-06-21T13:07:37Z</time>
      </trkpt>
      <trkpt lat="39.898322" lon="116.643856">
        <time>2021-06-21T13:07:42Z</time>
      </trkpt>
      <trkpt lat="39.89833" lon="116.643697">
        <time>2021-06-21T13:07:47Z</time>
      </trkpt>
      <trkpt lat="39.898346" lon="116.643551">
        <time>2021-06-21T13:07:52Z</time>
      </trkpt>
      <trkpt lat="39.898356" lon="116.643358">
        <time>2021-06-21T13:07:57Z</time>
      </trkpt>
      <trkpt lat="39.898347" lon="116.643239">
        <time>2021-06-21T13:08:02Z</time>
      </trkpt>
      <trkpt lat="39.898354" lon="116.64312">
        <time>2021-06-21T13:08:07Z</time>
      </trkpt>
      <trkpt lat="39.898363" lon="116.643024">
        <time>2021-06-21T13:08:12Z</time>
      </trkpt>
      <trkpt lat="39.898392" lon="116.64286">
        <time>2021-06-21T13:08:17Z</time>
      </trkpt>
      <trkpt lat="39.898402" lon="116.642785">
        <time>2021-06-21T13:08:22Z</time>
      </trkpt>
      <trkpt lat="39.898408" lon="116.642665">
        <time>2021-06-21T13:08:27Z</time>
      </trkpt>
      <trkpt lat="39.898409" lon="116.642548">
        <time>2021-06-21T13:08:32Z</time>
      </trkpt>
      <trkpt lat="39.898422" lon="116.642439">
        <time>2021-06-21T13:08:37Z</time>
      </trkpt>
      <trkpt lat="39.89841" lon="116.642154">
        <time>2021-06-21T13:08:42Z</time>
      </trkpt>
      <trkpt lat="39.898401" lon="116.642119">
        <time>2021-06-21T13:08:47Z</time>
      </trkpt>
      <trkpt lat="39.898399" lon="116.641901">
        <time>2021-06-21T13:08:52Z</time>
      </trkpt>
      <trkpt lat="39.898444" lon="116.641702">
        <time>2021-06-21T13:08:57Z</time>
      </trkpt>
      <trkpt lat="39.898492" lon="116.641584">
        <time>2021-06-21T13:09:02Z</time>
      </trkpt>
      <trkpt lat="39.898414" lon="116.641468">
        <time>2021-06-21T13:09:07Z</time>
      </trkpt>
      <trkpt lat="39.898325" lon="116.641394">
        <time>2021-06-21T13:09:12Z</time>
      </trkpt>
      <trkpt lat="39.898208" lon="116.641282">
        <time>2021-06-21T13:09:17Z</time>
      </trkpt>
      <trkpt lat="39.898091" lon="116.641209">
        <time>2021-06-21T13:09:22Z</time>
      </trkpt>
      <trkpt lat="39.897947" lon="116.641146">
        <time>2021-06-21T13:09:27Z</time>
      </trkpt>
      <trkpt lat="39.897867" lon="116.641095">
        <time>2021-06-21T13:09:32Z</time>
      </trkpt>
      <trkpt lat="39.897738" lon="116.641053">
        <time>2021-06-21T13:09:37Z</time>
      </trkpt>
      <trkpt lat="39.897626" lon="116.641033">
        <time>2021-06-21T13:09:42Z</time>
      </trkpt>
      <trkpt lat="39.897465" lon="116.640938">
        <time>2021-06-21T13:09:47Z</time>
      </trkpt>
      <trkpt lat="39.897296" lon="116.640817">
        <time>2021-06-21T13:09:52Z</time>
      </trkpt>
      <trkpt lat="39.897162" lon="116.640761">
        <time>2021-06-21T13:09:57Z</time>
      </trkpt>
      <trkpt lat="39.897051" lon="116.640702">
        <time>2021-06-21T13:10:02Z</time>
      </trkpt>
      <trkpt lat="39.896903" lon="116.640614">
        <time>2021-06-21T13:10:07Z</time>
      </trkpt>
      <trkpt lat="39.896758" lon="116.640547">
        <time>2021-06-21T13:10:12Z</time>
      </trkpt>
      <trkpt lat="39.896567" lon="116.64044">
        <time>2021-06-21T13:10:17Z</time>
      </trkpt>
      <trkpt lat="39.896493" lon="116.640429">
        <time>2021-06-21T13:10:22Z</time>
      </trkpt>
      <trkpt lat="39.896366" lon="116.640399">
        <time>2021-06-21T13:10:27Z</time>
      </trkpt>
      <trkpt lat="39.896283" lon="116.640164">
        <time>2021-06-21T13:10:32Z</time>
      </trkpt>
      <trkpt lat="39.896304" lon="116.640039">
        <time>2021-06-21T13:10:37Z</time>
      </trkpt>
      <trkpt lat="39.896314" lon="116.639866">
        <time>2021-06-21T13:10:42Z</time>
      </trkpt>
      <trkpt lat="39.896303" lon="116.639683">
        <time>2021-06-21T13:10:47Z</time>
      </trkpt>
      <trkpt lat="39.896312" lon="116.639523">
        <time>2021-06-21T13:10:52Z</time>
      </trkpt>
      <trkpt lat="39.896301" lon="116.639364">
        <time>2021-06-21T13:10:57Z</time>
      </trkpt>
      <trkpt lat="39.896324" lon="116.639204">
        <time>2021-06-21T13:11:02Z</time>
      </trkpt>
      <trkpt lat="39.896342" lon="116.639047">
        <time>2021-06-21T13:11:07Z</time>
      </trkpt>
      <trkpt lat="39.896322" lon="116.638887">
        <time>2021-06-21T13:11:12Z</time>
      </trkpt>
      <trkpt lat="39.896308" lon="116.63872">
        <time>2021-06-21T13:11:17Z</time>
      </trkpt>
      <trkpt lat="39.896304" lon="116.638554">
        <time>2021-06-21T13:11:22Z</time>
      </trkpt>
      <trkpt lat="39.896306" lon="116.638393">
        <time>2021-06-21T13:11:27Z</time>
      </trkpt>
      <trkpt lat="39.896308" lon="116.638235">
        <time>2021-06-21T13:11:32Z</time>
      </trkpt>
      <trkpt lat="39.896322" lon="116.638107">
        <time>2021-06-21T13:11:37Z</time>
      </trkpt>
      <trkpt lat="39.8963" lon="116.637914">
        <time>2021-06-21T13:11:42Z</time>
      </trkpt>
      <trkpt lat="39.896281" lon="116.637705">
        <time>2021-06-21T13:11:47Z</time>
      </trkpt>
      <trkpt lat="39.896269" lon="116.637513">
        <time>2021-06-21T13:11:52Z</time>
      </trkpt>
      <trkpt lat="39.896207" lon="116.637306">
        <time>2021-06-21T13:11:57Z</time>
      </trkpt>
      <trkpt lat="39.896177" lon="116.637102">
        <time>2021-06-21T13:12:02Z</time>
      </trkpt>
      <trkpt lat="39.896168" lon="116.636935">
        <time>2021-06-21T13:12:07Z</time>
      </trkpt>
      <trkpt lat="39.89609" lon="116.636695">
        <time>2021-06-21T13:12:12Z</time>
      </trkpt>
      <trkpt lat="39.896077" lon="116.63671">
        <time>2021-06-21T13:12:17Z</time>
      </trkpt>
      <trkpt lat="39.896084" lon="116.63688">
        <time>2021-06-21T13:12:22Z</time>
      </trkpt>
      <trkpt lat="39.896123" lon="116.637159">
        <time>2021-06-21T13:12:27Z</time>
      </trkpt>
      <trkpt lat="39.896127" lon="116.637221">
        <time>2021-06-21T13:12:32Z</time>
      </trkpt>
      <trkpt lat="39.896147" lon="116.637396">
        <time>2021-06-21T13:12:37Z</time>
      </trkpt>
      <trkpt lat="39.896161" lon="116.637543">
        <time>2021-06-21T13:12:42Z</time>
      </trkpt>
      <trkpt lat="39.896149" lon="116.637676">
        <time>2021-06-21T13:12:47Z</time>
      </trkpt>
      <trkpt lat="39.896155" lon="116.637845">
        <time>2021-06-21T13:12:52Z</time>
      </trkpt>
      <trkpt lat="39.896167" lon="116.638007">
        <time>2021-06-21T13:12:57Z</time>
      </trkpt>
      <trkpt lat="39.8962" lon="116.638181">
        <time>2021-06-21T13:13:02Z</time>
      </trkpt>
      <trkpt lat="39.89622" lon="116.638378">
        <time>2021-06-21T13:13:07Z</time>
      </trkpt>
      <trkpt lat="39.896213" lon="116.63856">
        <time>2021-06-21T13:13:12Z</time>
      </trkpt>
      <trkpt lat="39.89622" lon="116.638733">
        <time>2021-06-21T13:13:17Z</time>
      </trkpt>
      <trkpt lat="39.896232" lon="116.638838">
        <time>2021-06-21T13:13:22Z</time>
      </trkpt>
      <trkpt lat="39.896229" lon="116.638975">
        <time>2021-06-21T13:13:27Z</time>
      </trkpt>
      <trkpt lat="39.896229" lon="116.639142">
        <time>2021-06-21T13:13:32Z</time>
      </trkpt>
      <trkpt lat="39.896242" lon="116.639298">
        <time>2021-06-21T13:13:37Z</time>
      </trkpt>
      <trkpt lat="39.896248" lon="116.639518">
        <time>2021-06-21T13:13:42Z</time>
      </trkpt>
      <trkpt lat="39.896255" lon="116.639649">
        <time>2021-06-21T13:13:47Z</time>
      </trkpt>
      <trkpt lat="39.896265" lon="116.639827">
        <time>2021-06-21T13:13:52Z</time>
      </trkpt>
      <trkpt lat="39.896269" lon="116.63999">
        <time>2021-06-21T13:13:57Z</time>
      </trkpt>
      <trkpt lat="39.896276" lon="116.640175">
        <time>2021-06-21T13:14:02Z</time>
      </trkpt>
      <trkpt lat="39.896284" lon="116.640344">
        <time>2021-06-21T13:14:07Z</time>
      </trkpt>
      <trkpt lat="39.896298" lon="116.640525">
        <time>2021-06-21T13:14:12Z</time>
      </trkpt>
      <trkpt lat="39.896322" lon="116.640712">
        <time>2021-06-21T13:14:17Z</time>
      </trkpt>
      <trkpt lat="39.896281" lon="116.640951">
        <time>2021-06-21T13:14:22Z</time>
      </trkpt>
      <trkpt lat="39.896254" lon="116.641062">
        <time>2021-06-21T13:14:27Z</time>
      </trkpt>
      <trkpt lat="39.896229" lon="116.64123">
        <time>2021-06-21T13:14:32Z</time>
      </trkpt>
      <trkpt lat="39.896222" lon="116.641408">
        <time>2021-06-21T13:14:37Z</time>
      </trkpt>
      <trkpt lat="39.896218" lon="116.641586">
        <time>2021-06-21T13:14:42Z</time>
      </trkpt>
      <trkpt lat="39.89621" lon="116.641778">
        <time>2021-06-21T13:14:47Z</time>
      </trkpt>
      <trkpt lat="39.8962" lon="116.641951">
        <time>2021-06-21T13:14:52Z</time>
      </trkpt>
      <trkpt lat="39.896194" lon="116.642163">
        <time>2021-06-21T13:14:57Z</time>
      </trkpt>
      <trkpt lat="39.896193" lon="116.642188">
        <time>2021-06-21T13:15:02Z</time>
      </trkpt>
      <trkpt lat="39.896187" lon="116.642254">
        <time>2021-06-21T13:15:07Z</time>
      </trkpt>
      <trkpt lat="39.896171" lon="116.642393">
        <time>2021-06-21T13:15:12Z</time>
      </trkpt>
      <trkpt lat="39.896187" lon="116.642564">
        <time>2021-06-21T13:15:17Z</time>
      </trkpt>
      <trkpt lat="39.896172" lon="116.642712">
        <time>2021-06-21T13:15:22Z</time>
      </trkpt>
      <trkpt lat="39.896182" lon="116.642904">
        <time>2021-06-21T13:15:27Z</time>
      </trkpt>
      <trkpt lat="39.896191" lon="116.643023">
        <time>2021-06-21T13:15:32Z</time>
      </trkpt>
      <trkpt lat="39.896173" lon="116.643179">
        <time>2021-06-21T13:15:37Z</time>
      </trkpt>
      <trkpt lat="39.896152" lon="116.643351">
        <time>2021-06-21T13:15:42Z</time>
      </trkpt>
      <trkpt lat="39.896149" lon="116.643532">
        <time>2021-06-21T13:15:47Z</time>
      </trkpt>
      <trkpt lat="39.896172" lon="116.643679">
        <time>2021-06-21T13:15:52Z</time>
      </trkpt>
      <trkpt lat="39.896151" lon="116.643844">
        <time>2021-06-21T13:15:57Z</time>
      </trkpt>
      <trkpt lat="39.896149" lon="116.644006">
        <time>2021-06-21T13:16:02Z</time>
      </trkpt>
      <trkpt lat="39.896148" lon="116.64417">
        <time>2021-06-21T13:16:07Z</time>
      </trkpt>
      <trkpt lat="39.896162" lon="116.644301">
        <time>2021-06-21T13:16:12Z</time>
      </trkpt>
      <trkpt lat="39.89617" lon="116.644571">
        <time>2021-06-21T13:16:17Z</time>
      </trkpt>
      <trkpt lat="39.896175" lon="116.644627">
        <time>2021-06-21T13:16:22Z</time>
      </trkpt>
      <trkpt lat="39.896162" lon="116.644804">
        <time>2021-06-21T13:16:27Z</time>
      </trkpt>
      <trkpt lat="39.896187" lon="116.64512">
        <time>2021-06-21T13:16:32Z</time>
      </trkpt>
      <trkpt lat="39.89619" lon="116.645156">
        <time>2021-06-21T13:16:37Z</time>
      </trkpt>
      <trkpt lat="39.896187" lon="116.645352">
        <time>2021-06-21T13:16:42Z</time>
      </trkpt>
      <trkpt lat="39.896163" lon="116.645556">
        <time>2021-06-21T13:16:47Z</time>
      </trkpt>
      <trkpt lat="39.896106" lon="116.645787">
        <time>2021-06-21T13:16:52Z</time>
      </trkpt>
      <trkpt lat="39.896071" lon="116.645975">
        <time>2021-06-21T13:16:57Z</time>
      </trkpt>
      <trkpt lat="39.89604" lon="116.646213">
        <time>2021-06-21T13:17:02Z</time>
      </trkpt>
      <trkpt lat="39.896006" lon="116.646432">
        <time>2021-06-21T13:17:07Z</time>
      </trkpt>
      <trkpt lat="39.895998" lon="116.646601">
        <time>2021-06-21T13:17:12Z</time>
      </trkpt>
      <trkpt lat="39.895993" lon="116.646762">
        <time>2021-06-21T13:17:17Z</time>
      </trkpt>
      <trkpt lat="39.895989" lon="116.646917">
        <time>2021-06-21T13:17:22Z</time>
      </trkpt>
      <trkpt lat="39.895968" lon="116.647">
        <time>2021-06-21T13:17:27Z</time>
      </trkpt>
      <trkpt lat="39.895906" lon="116.647129">
        <time>2021-06-21T13:17:32Z</time>
      </trkpt>
      <trkpt lat="39.895796" lon="116.64722">
        <time>2021-06-21T13:17:37Z</time>
      </trkpt>
      <trkpt lat="39.895749" lon="116.647375">
        <time>2021-06-21T13:17:42Z</time>
      </trkpt>
      <trkpt lat="39.895709" lon="116.64756">
        <time>2021-06-21T13:17:47Z</time>
      </trkpt>
      <trkpt lat="39.895688" lon="116.647739">
        <time>2021-06-21T13:17:52Z</time>
      </trkpt>
      <trkpt lat="39.895698" lon="116.647925">
        <time>2021-06-21T13:17:57Z</time>
      </trkpt>
      <trkpt lat="39.895702" lon="116.648073">
        <time>2021-06-21T13:18:02Z</time>
      </trkpt>
      <trkpt lat="39.895708" lon="116.648249">
        <time>2021-06-21T13:18:07Z</time>
      </trkpt>
      <trkpt lat="39.895681" lon="116.648385">
        <time>2021-06-21T13:18:12Z</time>
      </trkpt>
      <trkpt lat="39.895707" lon="116.648531">
        <time>2021-06-21T13:18:17Z</time>
      </trkpt>
      <trkpt lat="39.895818" lon="116.648479">
        <time>2021-06-21T13:18:22Z</time>
      </trkpt>
      <trkpt lat="39.89586" lon="116.648281">
        <time>2021-06-21T13:18:27Z</time>
      </trkpt>
      <trkpt lat="39.895904" lon="116.648076">
        <time>2021-06-21T13:18:32Z</time>
      </trkpt>
      <trkpt lat="39.895936" lon="116.64791">
        <time>2021-06-21T13:18:37Z</time>
      </trkpt>
      <trkpt lat="39.895947" lon="116.647785">
        <time>2021-06-21T13:18:42Z</time>
      </trkpt>
      <trkpt lat="39.895981" lon="116.64769">
        <time>2021-06-21T13:18:47Z</time>
      </trkpt>
      <trkpt lat="39.896007" lon="116.647597">
        <time>2021-06-21T13:18:52Z</time>
      </trkpt>
      <trkpt lat="39.896018" lon="116.647463">
        <time>2021-06-21T13:18:57Z</time>
      </trkpt>
      <trkpt lat="39.896008" lon="116.647341">
        <time>2021-06-21T13:19:02Z</time>
      </trkpt>
      <trkpt lat="39.89588" lon="116.647301">
        <time>2021-06-21T13:19:07Z</time>
      </trkpt>
      <trkpt lat="39.895809" lon="116.647416">
        <time>2021-06-21T13:19:12Z</time>
      </trkpt>
      <trkpt lat="39.895741" lon="116.647592">
        <time>2021-06-21T13:19:17Z</time>
      </trkpt>
      <trkpt lat="39.895701" lon="116.64776">
        <time>2021-06-21T13:19:22Z</time>
      </trkpt>
      <trkpt lat="39.895679" lon="116.647991">
        <time>2021-06-21T13:19:27Z</time>
      </trkpt>
      <trkpt lat="39.895677" lon="116.648055">
        <time>2021-06-21T13:19:32Z</time>
      </trkpt>
      <trkpt lat="39.895666" lon="116.6482">
        <time>2021-06-21T13:19:37Z</time>
      </trkpt>
      <trkpt lat="39.895664" lon="116.648365">
        <time>2021-06-21T13:19:42Z</time>
      </trkpt>
      <trkpt lat="39.895669" lon="116.648474">
        <time>2021-06-21T13:19:47Z</time>
      </trkpt>
      <trkpt lat="39.895666" lon="116.648582">
        <time>2021-06-21T13:19:52Z</time>
      </trkpt>
      <trkpt lat="39.895661" lon="116.648645">
        <time>2021-06-21T13:19:57Z</time>
      </trkpt>
      <trkpt lat="39.89565" lon="116.64871">
        <time>2021-06-21T13:20:02Z</time>
      </trkpt>
      <trkpt lat="39.895668" lon="116.648803">
        <time>2021-06-21T13:20:07Z</time>
      </trkpt>
      <trkpt lat="39.89562" lon="116.648932">
        <time>2021-06-21T13:20:12Z</time>
      </trkpt>
      <trkpt lat="39.895557" lon="116.649061">
        <time>2021-06-21T13:20:17Z</time>
      </trkpt>
      <trkpt lat="39.895451" lon="116.649124">
        <time>2021-06-21T13:20:22Z</time>
      </trkpt>
      <trkpt lat="39.895333" lon="116.649068">
        <time>2021-06-21T13:20:27Z</time>
      </trkpt>
      <trkpt lat="39.895221" lon="116.64901">
        <time>2021-06-21T13:20:32Z</time>
      </trkpt>
      <trkpt lat="39.895081" lon="116.648928">
        <time>2021-06-21T13:20:37Z</time>
      </trkpt>
      <trkpt lat="39.894957" lon="116.648839">
        <time>2021-06-21T13:20:42Z</time>
      </trkpt>
      <trkpt lat="39.894851" lon="116.648769">
        <time>2021-06-21T13:20:47Z</time>
      </trkpt>
      <trkpt lat="39.894744" lon="116.648723">
        <time>2021-06-21T13:20:52Z</time>
      </trkpt>
      <trkpt lat="39.894646" lon="116.64868">
        <time>2021-06-21T13:20:57Z</time>
      </trkpt>
      <trkpt lat="39.894581" lon="116.648666">
        <time>2021-06-21T13:21:02Z</time>
      </trkpt>
      <trkpt lat="39.894452" lon="116.648573">
        <time>2021-06-21T13:21:07Z</time>
      </trkpt>
      <trkpt lat="39.894346" lon="116.648481">
        <time>2021-06-21T13:21:12Z</time>
      </trkpt>
      <trkpt lat="39.894227" lon="116.648412">
        <time>2021-06-21T13:21:17Z</time>
      </trkpt>
      <trkpt lat="39.89412" lon="116.648329">
        <time>2021-06-21T13:21:22Z</time>
      </trkpt>
      <trkpt lat="39.894066" lon="116.648255">
        <time>2021-06-21T13:21:27Z</time>
      </trkpt>
      <trkpt lat="39.893969" lon="116.648201">
        <time>2021-06-21T13:21:32Z</time>
      </trkpt>
      <trkpt lat="39.893729" lon="116.648147">
        <time>2021-06-21T13:21:37Z</time>
      </trkpt>
      <trkpt lat="39.893697" lon="116.648131">
        <time>2021-06-21T13:21:42Z</time>
      </trkpt>
      <trkpt lat="39.89356" lon="116.648086">
        <time>2021-06-21T13:21:47Z</time>
      </trkpt>
      <trkpt lat="39.893409" lon="116.648065">
        <time>2021-06-21T13:21:52Z</time>
      </trkpt>
      <trkpt lat="39.893261" lon="116.648052">
        <time>2021-06-21T13:21:57Z</time>
      </trkpt>
      <trkpt lat="39.893107" lon="116.648041">
        <time>2021-06-21T13:22:02Z</time>
      </trkpt>
      <trkpt lat="39.892977" lon="116.64802">
        <time>2021-06-21T13:22:07Z</time>
      </trkpt>
      <trkpt lat="39.892847" lon="116.648009">
        <time>2021-06-21T13:22:12Z</time>
      </trkpt>
      <trkpt lat="39.892746" lon="116.648008">
        <time>2021-06-21T13:22:17Z</time>
      </trkpt>
      <trkpt lat="39.892655" lon="116.647991">
        <time>2021-06-21T13:22:22Z</time>
      </trkpt>
      <trkpt lat="39.892639" lon="116.647934">
        <time>2021-06-21T13:22:27Z</time>
      </trkpt>
      <trkpt lat="39.892674" lon="116.647826">
        <time>2021-06-21T13:22:32Z</time>
      </trkpt>
      <trkpt lat="39.892683" lon="116.647674">
        <time>2021-06-21T13:22:37Z</time>
      </trkpt>
      <trkpt lat="39.892684" lon="116.647514">
        <time>2021-06-21T13:22:42Z</time>
      </trkpt>
      <trkpt lat="39.892651" lon="116.64732">
        <time>2021-06-21T13:22:47Z</time>
      </trkpt>
      <trkpt lat="39.89265" lon="116.647144">
        <time>2021-06-21T13:22:52Z</time>
      </trkpt>
      <trkpt lat="39.892631" lon="116.646959">
        <time>2021-06-21T13:22:57Z</time>
      </trkpt>
      <trkpt lat="39.89263" lon="116.646773">
        <time>2021-06-21T13:23:02Z</time>
      </trkpt>
      <trkpt lat="39.89264" lon="116.646611">
        <time>2021-06-21T13:23:07Z</time>
      </trkpt>
      <trkpt lat="39.892653" lon="116.646506">
        <time>2021-06-21T13:23:12Z</time>
      </trkpt>
      <trkpt lat="39.892673" lon="116.646409">
        <time>2021-06-21T13:23:17Z</time>
      </trkpt>
      <trkpt lat="39.892689" lon="116.646314">
        <time>2021-06-21T13:23:22Z</time>
      </trkpt>
      <trkpt lat="39.892703" lon="116.646196">
        <time>2021-06-21T13:23:27Z</time>
      </trkpt>
      <trkpt lat="39.892671" lon="116.646063">
        <time>2021-06-21T13:23:32Z</time>
      </trkpt>
      <trkpt lat="39.892581" lon="116.64593">
        <time>2021-06-21T13:23:37Z</time>
      </trkpt>
      <trkpt lat="39.892458" lon="116.645842">
        <time>2021-06-21T13:23:42Z</time>
      </trkpt>
      <trkpt lat="39.892331" lon="116.645743">
        <time>2021-06-21T13:23:47Z</time>
      </trkpt>
      <trkpt lat="39.8922" lon="116.645691">
        <time>2021-06-21T13:23:52Z</time>
      </trkpt>
      <trkpt lat="39.892026" lon="116.645586">
        <time>2021-06-21T13:23:57Z</time>
      </trkpt>
      <trkpt lat="39.891876" lon="116.645519">
        <time>2021-06-21T13:24:02Z</time>
      </trkpt>
      <trkpt lat="39.89173" lon="116.645425">
        <time>2021-06-21T13:24:07Z</time>
      </trkpt>
      <trkpt lat="39.891599" lon="116.645346">
        <time>2021-06-21T13:24:12Z</time>
      </trkpt>
      <trkpt lat="39.891611" lon="116.645431">
        <time>2021-06-21T13:24:17Z</time>
      </trkpt>
      <trkpt lat="39.891757" lon="116.645473">
        <time>2021-06-21T13:24:22Z</time>
      </trkpt>
      <trkpt lat="39.891873" lon="116.645508">
        <time>2021-06-21T13:24:27Z</time>
      </trkpt>
      <trkpt lat="39.891992" lon="116.645552">
        <time>2021-06-21T13:24:32Z</time>
      </trkpt>
      <trkpt lat="39.89213" lon="116.645595">
        <time>2021-06-21T13:24:37Z</time>
      </trkpt>
      <trkpt lat="39.892256" lon="116.645668">
        <time>2021-06-21T13:24:42Z</time>
      </trkpt>
      <trkpt lat="39.892363" lon="116.645769">
        <time>2021-06-21T13:24:47Z</time>
      </trkpt>
      <trkpt lat="39.892466" lon="116.645826">
        <time>2021-06-21T13:24:52Z</time>
      </trkpt>
      <trkpt lat="39.892611" lon="116.645877">
        <time>2021-06-21T13:24:57Z</time>
      </trkpt>
      <trkpt lat="39.892665" lon="116.646021">
        <time>2021-06-21T13:25:02Z</time>
      </trkpt>
      <trkpt lat="39.892652" lon="116.646246">
        <time>2021-06-21T13:25:07Z</time>
      </trkpt>
      <trkpt lat="39.892645" lon="116.64638">
        <time>2021-06-21T13:25:12Z</time>
      </trkpt>
      <trkpt lat="39.892627" lon="116.646517">
        <time>2021-06-21T13:25:17Z</time>
      </trkpt>
      <trkpt lat="39.892612" lon="116.646633">
        <time>2021-06-21T13:25:22Z</time>
      </trkpt>
      <trkpt lat="39.892613" lon="116.646716">
        <time>2021-06-21T13:25:27Z</time>
      </trkpt>
      <trkpt lat="39.892598" lon="116.646828">
        <time>2021-06-21T13:25:32Z</time>
      </trkpt>
      <trkpt lat="39.892592" lon="116.646953">
        <time>2021-06-21T13:25:37Z</time>
      </trkpt>
      <trkpt lat="39.892585" lon="116.647118">
        <time>2021-06-21T13:25:42Z</time>
      </trkpt>
      <trkpt lat="39.89259" lon="116.647292">
        <time>2021-06-21T13:25:47Z</time>
      </trkpt>
      <trkpt lat="39.892583" lon="116.64748">
        <time>2021-06-21T13:25:52Z</time>
      </trkpt>
      <trkpt lat="39.892578" lon="116.647671">
        <time>2021-06-21T13:25:57Z</time>
      </trkpt>
      <trkpt lat="39.892558" lon="116.647813">
        <time>2021-06-21T13:26:02Z</time>
      </trkpt>
      <trkpt lat="39.892551" lon="116.647947">
        <time>2021-06-21T13:26:07Z</time>
      </trkpt>
      <trkpt lat="39.892579" lon="116.647973">
        <time>2021-06-21T13:26:12Z</time>
      </trkpt>
      <trkpt lat="39.892628" lon="116.647973">
        <time>2021-06-21T13:26:17Z</time>
      </trkpt>
      <trkpt lat="39.892758" lon="116.647988">
        <time>2021-06-21T13:26:22Z</time>
      </trkpt>
      <trkpt lat="39.892916" lon="116.648002">
        <time>2021-06-21T13:26:27Z</time>
      </trkpt>
      <trkpt lat="39.893093" lon="116.648013">
        <time>2021-06-21T13:26:32Z</time>
      </trkpt>
      <trkpt lat="39.893211" lon="116.648033">
        <time>2021-06-21T13:26:37Z</time>
      </trkpt>
      <trkpt lat="39.893344" lon="116.64805">
        <time>2021-06-21T13:26:42Z</time>
      </trkpt>
      <trkpt lat="39.893505" lon="116.648082">
        <time>2021-06-21T13:26:47Z</time>
      </trkpt>
      <trkpt lat="39.89361" lon="116.648137">
        <time>2021-06-21T13:26:52Z</time>
      </trkpt>
      <trkpt lat="39.893647" lon="116.648138">
        <time>2021-06-21T13:26:57Z</time>
      </trkpt>
      <trkpt lat="39.893732" lon="116.648162">
        <time>2021-06-21T13:27:02Z</time>
      </trkpt>
      <trkpt lat="39.893869" lon="116.648269">
        <time>2021-06-21T13:27:07Z</time>
      </trkpt>
      <trkpt lat="39.894041" lon="116.648381">
        <time>2021-06-21T13:27:12Z</time>
      </trkpt>
      <trkpt lat="39.894204" lon="116.648462">
        <time>2021-06-21T13:27:17Z</time>
      </trkpt>
      <trkpt lat="39.894376" lon="116.648574">
        <time>2021-06-21T13:27:22Z</time>
      </trkpt>
      <trkpt lat="39.894463" lon="116.648625">
        <time>2021-06-21T13:27:27Z</time>
      </trkpt>
      <trkpt lat="39.894575" lon="116.648639">
        <time>2021-06-21T13:27:32Z</time>
      </trkpt>
      <trkpt lat="39.894739" lon="116.648681">
        <time>2021-06-21T13:27:37Z</time>
      </trkpt>
      <trkpt lat="39.894873" lon="116.648745">
        <time>2021-06-21T13:27:42Z</time>
      </trkpt>
      <trkpt lat="39.895054" lon="116.648907">
        <time>2021-06-21T13:27:47Z</time>
      </trkpt>
      <trkpt lat="39.895097" lon="116.648941">
        <time>2021-06-21T13:27:52Z</time>
      </trkpt>
      <trkpt lat="39.895192" lon="116.649015">
        <time>2021-06-21T13:27:57Z</time>
      </trkpt>
      <trkpt lat="39.895296" lon="116.649091">
        <time>2021-06-21T13:28:02Z</time>
      </trkpt>
      <trkpt lat="39.895419" lon="116.649127">
        <time>2021-06-21T13:28:07Z</time>
      </trkpt>
      <trkpt lat="39.895546" lon="116.649129">
        <time>2021-06-21T13:28:12Z</time>
      </trkpt>
      <trkpt lat="39.895647" lon="116.649064">
        <time>2021-06-21T13:28:17Z</time>
      </trkpt>
      <trkpt lat="39.895647" lon="116.648975">
        <time>2021-06-21T13:28:22Z</time>
      </trkpt>
      <trkpt lat="39.895659" lon="116.648868">
        <time>2021-06-21T13:28:27Z</time>
      </trkpt>
      <trkpt lat="39.895678" lon="116.648749">
        <time>2021-06-21T13:28:32Z</time>
      </trkpt>
      <trkpt lat="39.895717" lon="116.64866">
        <time>2021-06-21T13:28:37Z</time>
      </trkpt>
      <trkpt lat="39.895754" lon="116.648528">
        <time>2021-06-21T13:28:42Z</time>
      </trkpt>
      <trkpt lat="39.895793" lon="116.648393">
        <time>2021-06-21T13:28:47Z</time>
      </trkpt>
      <trkpt lat="39.895834" lon="116.648223">
        <time>2021-06-21T13:28:52Z</time>
      </trkpt>
      <trkpt lat="39.895888" lon="116.64807">
        <time>2021-06-21T13:28:57Z</time>
      </trkpt>
      <trkpt lat="39.89591" lon="116.647954">
        <time>2021-06-21T13:29:02Z</time>
      </trkpt>
      <trkpt lat="39.895912" lon="116.647787">
        <time>2021-06-21T13:29:07Z</time>
      </trkpt>
      <trkpt lat="39.895918" lon="116.647668">
        <time>2021-06-21T13:29:12Z</time>
      </trkpt>
      <trkpt lat="39.895921" lon="116.647511">
        <time>2021-06-21T13:29:17Z</time>
      </trkpt>
      <trkpt lat="39.895915" lon="116.647396">
        <time>2021-06-21T13:29:22Z</time>
      </trkpt>
      <trkpt lat="39.895903" lon="116.647234">
        <time>2021-06-21T13:29:27Z</time>
      </trkpt>
      <trkpt lat="39.895834" lon="116.647159">
        <time>2021-06-21T13:29:32Z</time>
      </trkpt>
      <trkpt lat="39.895761" lon="116.647269">
        <time>2021-06-21T13:29:37Z</time>
      </trkpt>
      <trkpt lat="39.895733" lon="116.647437">
        <time>2021-06-21T13:29:42Z</time>
      </trkpt>
      <trkpt lat="39.89571" lon="116.647629">
        <time>2021-06-21T13:29:47Z</time>
      </trkpt>
      <trkpt lat="39.895704" lon="116.647813">
        <time>2021-06-21T13:29:52Z</time>
      </trkpt>
      <trkpt lat="39.895698" lon="116.647956">
        <time>2021-06-21T13:29:57Z</time>
      </trkpt>
      <trkpt lat="39.895698" lon="116.648149">
        <time>2021-06-21T13:30:02Z</time>
      </trkpt>
      <trkpt lat="39.895697" lon="116.648304">
        <time>2021-06-21T13:30:07Z</time>
      </trkpt>
      <trkpt lat="39.895692" lon="116.648471">
        <time>2021-06-21T13:30:12Z</time>
      </trkpt>
      <trkpt lat="39.895743" lon="116.648566">
        <time>2021-06-21T13:30:17Z</time>
      </trkpt>
      <trkpt lat="39.895835" lon="116.648411">
        <time>2021-06-21T13:30:22Z</time>
      </trkpt>
      <trkpt lat="39.895865" lon="116.648207">
        <time>2021-06-21T13:30:27Z</time>
      </trkpt>
      <trkpt lat="39.895896" lon="116.648035">
        <time>2021-06-21T13:30:32Z</time>
      </trkpt>
      <trkpt lat="39.895939" lon="116.647875">
        <time>2021-06-21T13:30:37Z</time>
      </trkpt>
      <trkpt lat="39.895939" lon="116.647745">
        <time>2021-06-21T13:30:42Z</time>
      </trkpt>
      <trkpt lat="39.895935" lon="116.647591">
        <time>2021-06-21T13:30:47Z</time>
      </trkpt>
      <trkpt lat="39.895951" lon="116.647444">
        <time>2021-06-21T13:30:52Z</time>
      </trkpt>
      <trkpt lat="39.895953" lon="116.647323">
        <time>2021-06-21T13:30:57Z</time>
      </trkpt>
      <trkpt lat="39.895969" lon="116.647251">
        <time>2021-06-21T13:31:02Z</time>
      </trkpt>
      <trkpt lat="39.895985" lon="116.647145">
        <time>2021-06-21T13:31:07Z</time>
      </trkpt>
      <trkpt lat="39.895984" lon="116.64703">
        <time>2021-06-21T13:31:12Z</time>
      </trkpt>
      <trkpt lat="39.896006" lon="116.646848">
        <time>2021-06-21T13:31:17Z</time>
      </trkpt>
      <trkpt lat="39.896021" lon="116.646669">
        <time>2021-06-21T13:31:22Z</time>
      </trkpt>
      <trkpt lat="39.896035" lon="116.646502">
        <time>2021-06-21T13:31:27Z</time>
      </trkpt>
      <trkpt lat="39.896059" lon="116.646329">
        <time>2021-06-21T13:31:32Z</time>
      </trkpt>
      <trkpt lat="39.896064" lon="116.646156">
        <time>2021-06-21T13:31:37Z</time>
      </trkpt>
      <trkpt lat="39.89607" lon="116.645988">
        <time>2021-06-21T13:31:42Z</time>
      </trkpt>
      <trkpt lat="39.896086" lon="116.645804">
        <time>2021-06-21T13:31:47Z</time>
      </trkpt>
      <trkpt lat="39.89611" lon="116.645628">
        <time>2021-06-21T13:31:52Z</time>
      </trkpt>
      <trkpt lat="39.896144" lon="116.645463">
        <time>2021-06-21T13:31:57Z</time>
      </trkpt>
      <trkpt lat="39.896142" lon="116.64528">
        <time>2021-06-21T13:32:02Z</time>
      </trkpt>
      <trkpt lat="39.896132" lon="116.645105">
        <time>2021-06-21T13:32:07Z</time>
      </trkpt>
      <trkpt lat="39.896149" lon="116.644837">
        <time>2021-06-21T13:32:12Z</time>
      </trkpt>
      <trkpt lat="39.896157" lon="116.64477">
        <time>2021-06-21T13:32:17Z</time>
      </trkpt>
      <trkpt lat="39.896169" lon="116.644649">
        <time>2021-06-21T13:32:22Z</time>
      </trkpt>
      <trkpt lat="39.896174" lon="116.644462">
        <time>2021-06-21T13:32:27Z</time>
      </trkpt>
      <trkpt lat="39.896184" lon="116.644274">
        <time>2021-06-21T13:32:32Z</time>
      </trkpt>
      <trkpt lat="39.896182" lon="116.644067">
        <time>2021-06-21T13:32:37Z</time>
      </trkpt>
      <trkpt lat="39.896174" lon="116.643927">
        <time>2021-06-21T13:32:42Z</time>
      </trkpt>
      <trkpt lat="39.896193" lon="116.643724">
        <time>2021-06-21T13:32:47Z</time>
      </trkpt>
      <trkpt lat="39.896202" lon="116.643585">
        <time>2021-06-21T13:32:52Z</time>
      </trkpt>
      <trkpt lat="39.896194" lon="116.643432">
        <time>2021-06-21T13:32:57Z</time>
      </trkpt>
      <trkpt lat="39.896167" lon="116.643342">
        <time>2021-06-21T13:33:02Z</time>
      </trkpt>
      <trkpt lat="39.89614" lon="116.643294">
        <time>2021-06-21T13:33:07Z</time>
      </trkpt>
      <trkpt lat="39.896182" lon="116.64314">
        <time>2021-06-21T13:33:12Z</time>
      </trkpt>
      <trkpt lat="39.896186" lon="116.643062">
        <time>2021-06-21T13:33:17Z</time>
      </trkpt>
      <trkpt lat="39.896177" lon="116.642925">
        <time>2021-06-21T13:33:22Z</time>
      </trkpt>
      <trkpt lat="39.896194" lon="116.642675">
        <time>2021-06-21T13:33:27Z</time>
      </trkpt>
      <trkpt lat="39.896202" lon="116.642562">
        <time>2021-06-21T13:33:32Z</time>
      </trkpt>
      <trkpt lat="39.896189" lon="116.642393">
        <time>2021-06-21T13:33:37Z</time>
      </trkpt>
      <trkpt lat="39.896213" lon="116.642268">
        <time>2021-06-21T13:33:42Z</time>
      </trkpt>
      <trkpt lat="39.896222" lon="116.642176">
        <time>2021-06-21T13:33:47Z</time>
      </trkpt>
      <trkpt lat="39.896234" lon="116.642069">
        <time>2021-06-21T13:33:52Z</time>
      </trkpt>
      <trkpt lat="39.89624" lon="116.64201">
        <time>2021-06-21T13:33:57Z</time>
      </trkpt>
      <trkpt lat="39.896226" lon="116.641909">
        <time>2021-06-21T13:34:02Z</time>
      </trkpt>
      <trkpt lat="39.896245" lon="116.641772">
        <time>2021-06-21T13:34:07Z</time>
      </trkpt>
      <trkpt lat="39.896258" lon="116.641707">
        <time>2021-06-21T13:34:12Z</time>
      </trkpt>
      <trkpt lat="39.896254" lon="116.641546">
        <time>2021-06-21T13:34:17Z</time>
      </trkpt>
      <trkpt lat="39.89623" lon="116.641391">
        <time>2021-06-21T13:34:22Z</time>
      </trkpt>
      <trkpt lat="39.896231" lon="116.641215">
        <time>2021-06-21T13:34:27Z</time>
      </trkpt>
      <trkpt lat="39.896236" lon="116.641051">
        <time>2021-06-21T13:34:32Z</time>
      </trkpt>
      <trkpt lat="39.896248" lon="116.640863">
        <time>2021-06-21T13:34:37Z</time>
      </trkpt>
      <trkpt lat="39.896259" lon="116.640668">
        <time>2021-06-21T13:34:42Z</time>
      </trkpt>
      <trkpt lat="39.896274" lon="116.640495">
        <time>2021-06-21T13:34:47Z</time>
      </trkpt>
      <trkpt lat="39.896256" lon="116.640337">
        <time>2021-06-21T13:34:52Z</time>
      </trkpt>
      <trkpt lat="39.896264" lon="116.640135">
        <time>2021-06-21T13:34:57Z</time>
      </trkpt>
      <trkpt lat="39.896264" lon="116.640002">
        <time>2021-06-21T13:35:02Z</time>
      </trkpt>
      <trkpt lat="39.896278" lon="116.639831">
        <time>2021-06-21T13:35:07Z</time>
      </trkpt>
      <trkpt lat="39.896274" lon="116.639667">
        <time>2021-06-21T13:35:12Z</time>
      </trkpt>
      <trkpt lat="39.896253" lon="116.639486">
        <time>2021-06-21T13:35:17Z</time>
      </trkpt>
      <trkpt lat="39.896247" lon="116.639311">
        <time>2021-06-21T13:35:22Z</time>
      </trkpt>
      <trkpt lat="39.896263" lon="116.639147">
        <time>2021-06-21T13:35:27Z</time>
      </trkpt>
      <trkpt lat="39.896262" lon="116.638974">
        <time>2021-06-21T13:35:32Z</time>
      </trkpt>
      <trkpt lat="39.896223" lon="116.6388">
        <time>2021-06-21T13:35:37Z</time>
      </trkpt>
      <trkpt lat="39.896206" lon="116.638616">
        <time>2021-06-21T13:35:42Z</time>
      </trkpt>
      <trkpt lat="39.896202" lon="116.638419">
        <time>2021-06-21T13:35:47Z</time>
      </trkpt>
      <trkpt lat="39.896204" lon="116.638205">
        <time>2021-06-21T13:35:52Z</time>
      </trkpt>
      <trkpt lat="39.896195" lon="116.637979">
        <time>2021-06-21T13:35:57Z</time>
      </trkpt>
      <trkpt lat="39.896164" lon="116.637776">
        <time>2021-06-21T13:36:02Z</time>
      </trkpt>
      <trkpt lat="39.896153" lon="116.637513">
        <time>2021-06-21T13:36:07Z</time>
      </trkpt>
      <trkpt lat="39.896144" lon="116.63729">
        <time>2021-06-21T13:36:12Z</time>
      </trkpt>
      <trkpt lat="39.89612" lon="116.637093">
        <time>2021-06-21T13:36:17Z</time>
      </trkpt>
      <trkpt lat="39.896043" lon="116.636801">
        <time>2021-06-21T13:36:22Z</time>
      </trkpt>
      <trkpt lat="39.896028" lon="116.636753">
        <time>2021-06-21T13:36:27Z</time>
      </trkpt>
      <trkpt lat="39.895997" lon="116.636699">
        <time>2021-06-21T13:36:32Z</time>
      </trkpt>
      <trkpt lat="39.895955" lon="116.63663">
        <time>2021-06-21T13:36:37Z</time>
      </trkpt>
      <trkpt lat="39.895907" lon="116.636553">
        <time>2021-06-21T13:36:42Z</time>
      </trkpt>
      <trkpt lat="39.895923" lon="116.636468">
        <time>2021-06-21T13:36:47Z</time>
      </trkpt>
      <trkpt lat="39.895981" lon="116.636406">
        <time>2021-06-21T13:36:52Z</time>
      </trkpt>
      <trkpt lat="39.896052" lon="116.636348">
        <time>2021-06-21T13:37:16Z</time>
      </trkpt>
    </trkseg>
  </trk>
</gpx>