<?xml version="1.0" encoding="UTF-8"?>
<gpx xmlns="http://www.topografix.com/GPX/1/1" xmlns:gpxtpx="http://www.garmin.com/xmlschemas/TrackPointExtension/v1" xmlns:xsi="http://www.w3.org/2001/XMLSchema-instance" xsi:schemaLocation="http://www.topografix.com/GPX/1/1 http://www.topografix.com/GPX/1/1/gpx.xsd" version="1.1" creator="gpx.py -- https://github.com/tkrajina/gpxpy">
  <trk>
    <name>gpx from keep</name>
    <trkseg>
      <trkpt lat="39.897876" lon="116.634023">
        <time>2021-06-30T11:49:25Z</time>
      </trkpt>
      <trkpt lat="39.897876" lon="116.634023">
        <time>2021-06-30T11:49:30Z</time>
      </trkpt>
      <trkpt lat="39.89789" lon="116.634047">
        <time>2021-06-30T11:49:35Z</time>
      </trkpt>
      <trkpt lat="39.897913" lon="116.634105">
        <time>2021-06-30T11:49:40Z</time>
      </trkpt>
      <trkpt lat="39.897936" lon="116.634212">
        <time>2021-06-30T11:49:45Z</time>
      </trkpt>
      <trkpt lat="39.897995" lon="116.634372">
        <time>2021-06-30T11:49:50Z</time>
      </trkpt>
      <trkpt lat="39.897999" lon="116.634504">
        <time>2021-06-30T11:49:55Z</time>
      </trkpt>
      <trkpt lat="39.898018" lon="116.634571">
        <time>2021-06-30T11:50:00Z</time>
      </trkpt>
      <trkpt lat="39.898047" lon="116.634663">
        <time>2021-06-30T11:50:05Z</time>
      </trkpt>
      <trkpt lat="39.898075" lon="116.634752">
        <time>2021-06-30T11:50:10Z</time>
      </trkpt>
      <trkpt lat="39.898141" lon="116.634908">
        <time>2021-06-30T11:50:15Z</time>
      </trkpt>
      <trkpt lat="39.898163" lon="116.635046">
        <time>2021-06-30T11:50:20Z</time>
      </trkpt>
      <trkpt lat="39.898108" lon="116.635097">
        <time>2021-06-30T11:50:25Z</time>
      </trkpt>
      <trkpt lat="39.898009" lon="116.635129">
        <time>2021-06-30T11:50:30Z</time>
      </trkpt>
      <trkpt lat="39.897888" lon="116.635199">
        <time>2021-06-30T11:50:35Z</time>
      </trkpt>
      <trkpt lat="39.897765" lon="116.635249">
        <time>2021-06-30T11:50:40Z</time>
      </trkpt>
      <trkpt lat="39.897649" lon="116.635318">
        <time>2021-06-30T11:50:45Z</time>
      </trkpt>
      <trkpt lat="39.897528" lon="116.63539">
        <time>2021-06-30T11:50:50Z</time>
      </trkpt>
      <trkpt lat="39.897425" lon="116.635483">
        <time>2021-06-30T11:50:55Z</time>
      </trkpt>
      <trkpt lat="39.897312" lon="116.635545">
        <time>2021-06-30T11:51:00Z</time>
      </trkpt>
      <trkpt lat="39.897227" lon="116.635611">
        <time>2021-06-30T11:51:05Z</time>
      </trkpt>
      <trkpt lat="39.897148" lon="116.635657">
        <time>2021-06-30T11:51:10Z</time>
      </trkpt>
      <trkpt lat="39.897043" lon="116.635718">
        <time>2021-06-30T11:51:15Z</time>
      </trkpt>
      <trkpt lat="39.896925" lon="116.635729">
        <time>2021-06-30T11:51:20Z</time>
      </trkpt>
      <trkpt lat="39.896844" lon="116.635773">
        <time>2021-06-30T11:51:25Z</time>
      </trkpt>
      <trkpt lat="39.896708" lon="116.635864">
        <time>2021-06-30T11:51:30Z</time>
      </trkpt>
      <trkpt lat="39.896648" lon="116.635903">
        <time>2021-06-30T11:51:35Z</time>
      </trkpt>
      <trkpt lat="39.896539" lon="116.635982">
        <time>2021-06-30T11:51:40Z</time>
      </trkpt>
      <trkpt lat="39.896444" lon="116.636041">
        <time>2021-06-30T11:51:45Z</time>
      </trkpt>
      <trkpt lat="39.896333" lon="116.636097">
        <time>2021-06-30T11:51:50Z</time>
      </trkpt>
      <trkpt lat="39.896235" lon="116.636215">
        <time>2021-06-30T11:51:55Z</time>
      </trkpt>
      <trkpt lat="39.896151" lon="116.636288">
        <time>2021-06-30T11:52:00Z</time>
      </trkpt>
      <trkpt lat="39.896166" lon="116.636361">
        <time>2021-06-30T11:52:05Z</time>
      </trkpt>
      <trkpt lat="39.896144" lon="116.636431">
        <time>2021-06-30T11:52:10Z</time>
      </trkpt>
      <trkpt lat="39.896105" lon="116.636472">
        <time>2021-06-30T11:52:15Z</time>
      </trkpt>
      <trkpt lat="39.896127" lon="116.636491">
        <time>2021-06-30T11:52:20Z</time>
      </trkpt>
      <trkpt lat="39.896151" lon="116.636504">
        <time>2021-06-30T11:52:25Z</time>
      </trkpt>
      <trkpt lat="39.896159" lon="116.636501">
        <time>2021-06-30T11:52:30Z</time>
      </trkpt>
      <trkpt lat="39.896159" lon="116.636501">
        <time>2021-06-30T11:52:35Z</time>
      </trkpt>
      <trkpt lat="39.896146" lon="116.63648">
        <time>2021-06-30T11:52:40Z</time>
      </trkpt>
      <trkpt lat="39.896165" lon="116.636503">
        <time>2021-06-30T11:52:45Z</time>
      </trkpt>
      <trkpt lat="39.896155" lon="116.636503">
        <time>2021-06-30T11:52:50Z</time>
      </trkpt>
      <trkpt lat="39.896129" lon="116.636512">
        <time>2021-06-30T11:52:55Z</time>
      </trkpt>
      <trkpt lat="39.896119" lon="116.636485">
        <time>2021-06-30T11:53:00Z</time>
      </trkpt>
      <trkpt lat="39.896159" lon="116.636497">
        <time>2021-06-30T11:53:05Z</time>
      </trkpt>
      <trkpt lat="39.896191" lon="116.636492">
        <time>2021-06-30T11:53:10Z</time>
      </trkpt>
      <trkpt lat="39.896204" lon="116.636502">
        <time>2021-06-30T11:53:15Z</time>
      </trkpt>
      <trkpt lat="39.896187" lon="116.636514">
        <time>2021-06-30T11:53:20Z</time>
      </trkpt>
      <trkpt lat="39.896174" lon="116.636519">
        <time>2021-06-30T11:53:25Z</time>
      </trkpt>
      <trkpt lat="39.896202" lon="116.636515">
        <time>2021-06-30T11:53:30Z</time>
      </trkpt>
      <trkpt lat="39.896173" lon="116.636506">
        <time>2021-06-30T11:53:35Z</time>
      </trkpt>
      <trkpt lat="39.896097" lon="116.636605">
        <time>2021-06-30T11:53:40Z</time>
      </trkpt>
      <trkpt lat="39.896068" lon="116.636582">
        <time>2021-06-30T11:53:45Z</time>
      </trkpt>
      <trkpt lat="39.896065" lon="116.636541">
        <time>2021-06-30T11:53:50Z</time>
      </trkpt>
      <trkpt lat="39.896117" lon="116.63651">
        <time>2021-06-30T11:53:55Z</time>
      </trkpt>
      <trkpt lat="39.896118" lon="116.636484">
        <time>2021-06-30T11:54:00Z</time>
      </trkpt>
      <trkpt lat="39.896128" lon="116.636478">
        <time>2021-06-30T11:54:05Z</time>
      </trkpt>
      <trkpt lat="39.896093" lon="116.636523">
        <time>2021-06-30T11:54:10Z</time>
      </trkpt>
      <trkpt lat="39.896088" lon="116.636535">
        <time>2021-06-30T11:54:15Z</time>
      </trkpt>
      <trkpt lat="39.8961" lon="116.636542">
        <time>2021-06-30T11:54:20Z</time>
      </trkpt>
      <trkpt lat="39.89605" lon="116.636494">
        <time>2021-06-30T11:54:25Z</time>
      </trkpt>
      <trkpt lat="39.895976" lon="116.636617">
        <time>2021-06-30T11:54:30Z</time>
      </trkpt>
      <trkpt lat="39.896032" lon="116.636772">
        <time>2021-06-30T11:54:35Z</time>
      </trkpt>
      <trkpt lat="39.89609" lon="116.636958">
        <time>2021-06-30T11:54:40Z</time>
      </trkpt>
      <trkpt lat="39.896134" lon="116.637159">
        <time>2021-06-30T11:54:45Z</time>
      </trkpt>
      <trkpt lat="39.896139" lon="116.637318">
        <time>2021-06-30T11:54:50Z</time>
      </trkpt>
      <trkpt lat="39.896138" lon="116.637501">
        <time>2021-06-30T11:54:55Z</time>
      </trkpt>
      <trkpt lat="39.896139" lon="116.637644">
        <time>2021-06-30T11:55:00Z</time>
      </trkpt>
      <trkpt lat="39.896144" lon="116.637801">
        <time>2021-06-30T11:55:05Z</time>
      </trkpt>
      <trkpt lat="39.896163" lon="116.637957">
        <time>2021-06-30T11:55:10Z</time>
      </trkpt>
      <trkpt lat="39.896144" lon="116.638089">
        <time>2021-06-30T11:55:15Z</time>
      </trkpt>
      <trkpt lat="39.896136" lon="116.638246">
        <time>2021-06-30T11:55:20Z</time>
      </trkpt>
      <trkpt lat="39.896166" lon="116.638412">
        <time>2021-06-30T11:55:25Z</time>
      </trkpt>
      <trkpt lat="39.896172" lon="116.63857">
        <time>2021-06-30T11:55:30Z</time>
      </trkpt>
      <trkpt lat="39.8962" lon="116.638726">
        <time>2021-06-30T11:55:35Z</time>
      </trkpt>
      <trkpt lat="39.896196" lon="116.638877">
        <time>2021-06-30T11:55:40Z</time>
      </trkpt>
      <trkpt lat="39.896192" lon="116.639031">
        <time>2021-06-30T11:55:45Z</time>
      </trkpt>
      <trkpt lat="39.896196" lon="116.639194">
        <time>2021-06-30T11:55:50Z</time>
      </trkpt>
      <trkpt lat="39.896203" lon="116.639343">
        <time>2021-06-30T11:55:55Z</time>
      </trkpt>
      <trkpt lat="39.896211" lon="116.639492">
        <time>2021-06-30T11:56:00Z</time>
      </trkpt>
      <trkpt lat="39.896232" lon="116.639642">
        <time>2021-06-30T11:56:05Z</time>
      </trkpt>
      <trkpt lat="39.896234" lon="116.639801">
        <time>2021-06-30T11:56:10Z</time>
      </trkpt>
      <trkpt lat="39.89623" lon="116.639945">
        <time>2021-06-30T11:56:15Z</time>
      </trkpt>
      <trkpt lat="39.896224" lon="116.640106">
        <time>2021-06-30T11:56:20Z</time>
      </trkpt>
      <trkpt lat="39.896224" lon="116.640294">
        <time>2021-06-30T11:56:25Z</time>
      </trkpt>
      <trkpt lat="39.896171" lon="116.640479">
        <time>2021-06-30T11:56:30Z</time>
      </trkpt>
      <trkpt lat="39.89616" lon="116.640631">
        <time>2021-06-30T11:56:35Z</time>
      </trkpt>
      <trkpt lat="39.896178" lon="116.640797">
        <time>2021-06-30T11:56:40Z</time>
      </trkpt>
      <trkpt lat="39.896213" lon="116.640907">
        <time>2021-06-30T11:56:45Z</time>
      </trkpt>
      <trkpt lat="39.896216" lon="116.641061">
        <time>2021-06-30T11:56:50Z</time>
      </trkpt>
      <trkpt lat="39.896204" lon="116.641206">
        <time>2021-06-30T11:56:55Z</time>
      </trkpt>
      <trkpt lat="39.896202" lon="116.641363">
        <time>2021-06-30T11:57:00Z</time>
      </trkpt>
      <trkpt lat="39.896197" lon="116.64154">
        <time>2021-06-30T11:57:05Z</time>
      </trkpt>
      <trkpt lat="39.896184" lon="116.641689">
        <time>2021-06-30T11:57:10Z</time>
      </trkpt>
      <trkpt lat="39.896196" lon="116.641864">
        <time>2021-06-30T11:57:15Z</time>
      </trkpt>
      <trkpt lat="39.896197" lon="116.642022">
        <time>2021-06-30T11:57:20Z</time>
      </trkpt>
      <trkpt lat="39.896183" lon="116.642206">
        <time>2021-06-30T11:57:25Z</time>
      </trkpt>
      <trkpt lat="39.896167" lon="116.642353">
        <time>2021-06-30T11:57:30Z</time>
      </trkpt>
      <trkpt lat="39.89616" lon="116.642441">
        <time>2021-06-30T11:57:35Z</time>
      </trkpt>
      <trkpt lat="39.896164" lon="116.64259">
        <time>2021-06-30T11:57:40Z</time>
      </trkpt>
      <trkpt lat="39.896156" lon="116.642733">
        <time>2021-06-30T11:57:45Z</time>
      </trkpt>
      <trkpt lat="39.89616" lon="116.642979">
        <time>2021-06-30T11:57:50Z</time>
      </trkpt>
      <trkpt lat="39.896155" lon="116.643099">
        <time>2021-06-30T11:57:55Z</time>
      </trkpt>
      <trkpt lat="39.89615" lon="116.643351">
        <time>2021-06-30T11:58:00Z</time>
      </trkpt>
      <trkpt lat="39.896147" lon="116.643423">
        <time>2021-06-30T11:58:05Z</time>
      </trkpt>
      <trkpt lat="39.896177" lon="116.64356">
        <time>2021-06-30T11:58:10Z</time>
      </trkpt>
      <trkpt lat="39.896211" lon="116.643699">
        <time>2021-06-30T11:58:15Z</time>
      </trkpt>
      <trkpt lat="39.896191" lon="116.643835">
        <time>2021-06-30T11:58:20Z</time>
      </trkpt>
      <trkpt lat="39.896167" lon="116.644013">
        <time>2021-06-30T11:58:25Z</time>
      </trkpt>
      <trkpt lat="39.896161" lon="116.644124">
        <time>2021-06-30T11:58:30Z</time>
      </trkpt>
      <trkpt lat="39.896162" lon="116.644244">
        <time>2021-06-30T11:58:35Z</time>
      </trkpt>
      <trkpt lat="39.896167" lon="116.644561">
        <time>2021-06-30T11:58:40Z</time>
      </trkpt>
      <trkpt lat="39.896168" lon="116.644593">
        <time>2021-06-30T11:58:45Z</time>
      </trkpt>
      <trkpt lat="39.896175" lon="116.644731">
        <time>2021-06-30T11:58:50Z</time>
      </trkpt>
      <trkpt lat="39.89615" lon="116.644883">
        <time>2021-06-30T11:58:55Z</time>
      </trkpt>
      <trkpt lat="39.896164" lon="116.645033">
        <time>2021-06-30T11:59:00Z</time>
      </trkpt>
      <trkpt lat="39.896152" lon="116.645297">
        <time>2021-06-30T11:59:05Z</time>
      </trkpt>
      <trkpt lat="39.896145" lon="116.645331">
        <time>2021-06-30T11:59:10Z</time>
      </trkpt>
      <trkpt lat="39.896116" lon="116.645499">
        <time>2021-06-30T11:59:15Z</time>
      </trkpt>
      <trkpt lat="39.896082" lon="116.645687">
        <time>2021-06-30T11:59:20Z</time>
      </trkpt>
      <trkpt lat="39.896073" lon="116.645837">
        <time>2021-06-30T11:59:25Z</time>
      </trkpt>
      <trkpt lat="39.896052" lon="116.646008">
        <time>2021-06-30T11:59:30Z</time>
      </trkpt>
      <trkpt lat="39.896045" lon="116.646183">
        <time>2021-06-30T11:59:35Z</time>
      </trkpt>
      <trkpt lat="39.89603" lon="116.646348">
        <time>2021-06-30T11:59:40Z</time>
      </trkpt>
      <trkpt lat="39.896017" lon="116.646502">
        <time>2021-06-30T11:59:45Z</time>
      </trkpt>
      <trkpt lat="39.895988" lon="116.646664">
        <time>2021-06-30T11:59:50Z</time>
      </trkpt>
      <trkpt lat="39.895976" lon="116.646809">
        <time>2021-06-30T11:59:55Z</time>
      </trkpt>
      <trkpt lat="39.89596" lon="116.646974">
        <time>2021-06-30T12:00:00Z</time>
      </trkpt>
      <trkpt lat="39.895941" lon="116.647114">
        <time>2021-06-30T12:00:05Z</time>
      </trkpt>
      <trkpt lat="39.895888" lon="116.647251">
        <time>2021-06-30T12:00:10Z</time>
      </trkpt>
      <trkpt lat="39.895782" lon="116.647292">
        <time>2021-06-30T12:00:15Z</time>
      </trkpt>
      <trkpt lat="39.895745" lon="116.647404">
        <time>2021-06-30T12:00:20Z</time>
      </trkpt>
      <trkpt lat="39.895703" lon="116.647564">
        <time>2021-06-30T12:00:25Z</time>
      </trkpt>
      <trkpt lat="39.895665" lon="116.647708">
        <time>2021-06-30T12:00:30Z</time>
      </trkpt>
      <trkpt lat="39.895665" lon="116.647977">
        <time>2021-06-30T12:00:35Z</time>
      </trkpt>
      <trkpt lat="39.89566" lon="116.647997">
        <time>2021-06-30T12:00:40Z</time>
      </trkpt>
      <trkpt lat="39.895658" lon="116.648152">
        <time>2021-06-30T12:00:45Z</time>
      </trkpt>
      <trkpt lat="39.895669" lon="116.648274">
        <time>2021-06-30T12:00:50Z</time>
      </trkpt>
      <trkpt lat="39.895664" lon="116.64843">
        <time>2021-06-30T12:00:55Z</time>
      </trkpt>
      <trkpt lat="39.895732" lon="116.648506">
        <time>2021-06-30T12:01:00Z</time>
      </trkpt>
      <trkpt lat="39.89582" lon="116.648382">
        <time>2021-06-30T12:01:05Z</time>
      </trkpt>
      <trkpt lat="39.895865" lon="116.648205">
        <time>2021-06-30T12:01:10Z</time>
      </trkpt>
      <trkpt lat="39.895933" lon="116.648067">
        <time>2021-06-30T12:01:15Z</time>
      </trkpt>
      <trkpt lat="39.895971" lon="116.647888">
        <time>2021-06-30T12:01:20Z</time>
      </trkpt>
      <trkpt lat="39.895954" lon="116.647722">
        <time>2021-06-30T12:01:25Z</time>
      </trkpt>
      <trkpt lat="39.895983" lon="116.647607">
        <time>2021-06-30T12:01:30Z</time>
      </trkpt>
      <trkpt lat="39.896018" lon="116.647498">
        <time>2021-06-30T12:01:35Z</time>
      </trkpt>
      <trkpt lat="39.89603" lon="116.647346">
        <time>2021-06-30T12:01:40Z</time>
      </trkpt>
      <trkpt lat="39.895983" lon="116.647195">
        <time>2021-06-30T12:01:45Z</time>
      </trkpt>
      <trkpt lat="39.895853" lon="116.647168">
        <time>2021-06-30T12:01:50Z</time>
      </trkpt>
      <trkpt lat="39.895789" lon="116.64729">
        <time>2021-06-30T12:01:55Z</time>
      </trkpt>
      <trkpt lat="39.895752" lon="116.647453">
        <time>2021-06-30T12:02:00Z</time>
      </trkpt>
      <trkpt lat="39.895695" lon="116.647612">
        <time>2021-06-30T12:02:05Z</time>
      </trkpt>
      <trkpt lat="39.895681" lon="116.647766">
        <time>2021-06-30T12:02:10Z</time>
      </trkpt>
      <trkpt lat="39.895675" lon="116.647968">
        <time>2021-06-30T12:02:15Z</time>
      </trkpt>
      <trkpt lat="39.895667" lon="116.648047">
        <time>2021-06-30T12:02:20Z</time>
      </trkpt>
      <trkpt lat="39.895656" lon="116.648176">
        <time>2021-06-30T12:02:25Z</time>
      </trkpt>
      <trkpt lat="39.895675" lon="116.648336">
        <time>2021-06-30T12:02:30Z</time>
      </trkpt>
      <trkpt lat="39.895662" lon="116.648504">
        <time>2021-06-30T12:02:35Z</time>
      </trkpt>
      <trkpt lat="39.895649" lon="116.648649">
        <time>2021-06-30T12:02:40Z</time>
      </trkpt>
      <trkpt lat="39.895659" lon="116.64878">
        <time>2021-06-30T12:02:45Z</time>
      </trkpt>
      <trkpt lat="39.895628" lon="116.648917">
        <time>2021-06-30T12:02:50Z</time>
      </trkpt>
      <trkpt lat="39.895569" lon="116.64908">
        <time>2021-06-30T12:02:55Z</time>
      </trkpt>
      <trkpt lat="39.89548" lon="116.649176">
        <time>2021-06-30T12:03:00Z</time>
      </trkpt>
      <trkpt lat="39.895354" lon="116.649112">
        <time>2021-06-30T12:03:05Z</time>
      </trkpt>
      <trkpt lat="39.895235" lon="116.649076">
        <time>2021-06-30T12:03:10Z</time>
      </trkpt>
      <trkpt lat="39.895125" lon="116.649016">
        <time>2021-06-30T12:03:15Z</time>
      </trkpt>
      <trkpt lat="39.895031" lon="116.648931">
        <time>2021-06-30T12:03:20Z</time>
      </trkpt>
      <trkpt lat="39.894938" lon="116.648847">
        <time>2021-06-30T12:03:25Z</time>
      </trkpt>
      <trkpt lat="39.894851" lon="116.648792">
        <time>2021-06-30T12:03:30Z</time>
      </trkpt>
      <trkpt lat="39.894797" lon="116.648745">
        <time>2021-06-30T12:03:35Z</time>
      </trkpt>
      <trkpt lat="39.894702" lon="116.648688">
        <time>2021-06-30T12:03:40Z</time>
      </trkpt>
      <trkpt lat="39.894583" lon="116.648647">
        <time>2021-06-30T12:03:45Z</time>
      </trkpt>
      <trkpt lat="39.894456" lon="116.648566">
        <time>2021-06-30T12:03:50Z</time>
      </trkpt>
      <trkpt lat="39.894331" lon="116.648512">
        <time>2021-06-30T12:03:55Z</time>
      </trkpt>
      <trkpt lat="39.894217" lon="116.648434">
        <time>2021-06-30T12:04:00Z</time>
      </trkpt>
      <trkpt lat="39.894109" lon="116.648373">
        <time>2021-06-30T12:04:05Z</time>
      </trkpt>
      <trkpt lat="39.894027" lon="116.648336">
        <time>2021-06-30T12:04:10Z</time>
      </trkpt>
      <trkpt lat="39.893976" lon="116.648267">
        <time>2021-06-30T12:04:15Z</time>
      </trkpt>
      <trkpt lat="39.89373" lon="116.648214">
        <time>2021-06-30T12:04:20Z</time>
      </trkpt>
      <trkpt lat="39.893698" lon="116.64821">
        <time>2021-06-30T12:04:25Z</time>
      </trkpt>
      <trkpt lat="39.893556" lon="116.648158">
        <time>2021-06-30T12:04:30Z</time>
      </trkpt>
      <trkpt lat="39.89344" lon="116.648043">
        <time>2021-06-30T12:04:35Z</time>
      </trkpt>
      <trkpt lat="39.893324" lon="116.647997">
        <time>2021-06-30T12:04:40Z</time>
      </trkpt>
      <trkpt lat="39.893198" lon="116.648009">
        <time>2021-06-30T12:04:45Z</time>
      </trkpt>
      <trkpt lat="39.892972" lon="116.647975">
        <time>2021-06-30T12:04:50Z</time>
      </trkpt>
      <trkpt lat="39.892948" lon="116.647976">
        <time>2021-06-30T12:04:55Z</time>
      </trkpt>
      <trkpt lat="39.892837" lon="116.647997">
        <time>2021-06-30T12:05:00Z</time>
      </trkpt>
      <trkpt lat="39.892714" lon="116.648006">
        <time>2021-06-30T12:05:05Z</time>
      </trkpt>
      <trkpt lat="39.892613" lon="116.648013">
        <time>2021-06-30T12:05:10Z</time>
      </trkpt>
      <trkpt lat="39.892605" lon="116.647924">
        <time>2021-06-30T12:05:15Z</time>
      </trkpt>
      <trkpt lat="39.892616" lon="116.647775">
        <time>2021-06-30T12:05:20Z</time>
      </trkpt>
      <trkpt lat="39.892612" lon="116.647614">
        <time>2021-06-30T12:05:25Z</time>
      </trkpt>
      <trkpt lat="39.892603" lon="116.647423">
        <time>2021-06-30T12:05:30Z</time>
      </trkpt>
      <trkpt lat="39.892613" lon="116.647212">
        <time>2021-06-30T12:05:35Z</time>
      </trkpt>
      <trkpt lat="39.892586" lon="116.647035">
        <time>2021-06-30T12:05:40Z</time>
      </trkpt>
      <trkpt lat="39.892607" lon="116.646902">
        <time>2021-06-30T12:05:45Z</time>
      </trkpt>
      <trkpt lat="39.892615" lon="116.646741">
        <time>2021-06-30T12:05:50Z</time>
      </trkpt>
      <trkpt lat="39.892619" lon="116.646596">
        <time>2021-06-30T12:05:55Z</time>
      </trkpt>
      <trkpt lat="39.892634" lon="116.64643">
        <time>2021-06-30T12:06:00Z</time>
      </trkpt>
      <trkpt lat="39.892646" lon="116.646256">
        <time>2021-06-30T12:06:05Z</time>
      </trkpt>
      <trkpt lat="39.892637" lon="116.646093">
        <time>2021-06-30T12:06:10Z</time>
      </trkpt>
      <trkpt lat="39.892631" lon="116.64598">
        <time>2021-06-30T12:06:15Z</time>
      </trkpt>
      <trkpt lat="39.892611" lon="116.645877">
        <time>2021-06-30T12:06:20Z</time>
      </trkpt>
      <trkpt lat="39.892562" lon="116.645853">
        <time>2021-06-30T12:06:25Z</time>
      </trkpt>
      <trkpt lat="39.892424" lon="116.645771">
        <time>2021-06-30T12:06:30Z</time>
      </trkpt>
      <trkpt lat="39.892294" lon="116.645705">
        <time>2021-06-30T12:06:35Z</time>
      </trkpt>
      <trkpt lat="39.892164" lon="116.645665">
        <time>2021-06-30T12:06:40Z</time>
      </trkpt>
      <trkpt lat="39.892043" lon="116.645621">
        <time>2021-06-30T12:06:45Z</time>
      </trkpt>
      <trkpt lat="39.891937" lon="116.645547">
        <time>2021-06-30T12:06:50Z</time>
      </trkpt>
      <trkpt lat="39.891828" lon="116.645461">
        <time>2021-06-30T12:06:55Z</time>
      </trkpt>
      <trkpt lat="39.891716" lon="116.64538">
        <time>2021-06-30T12:07:00Z</time>
      </trkpt>
      <trkpt lat="39.891612" lon="116.645312">
        <time>2021-06-30T12:07:05Z</time>
      </trkpt>
      <trkpt lat="39.891524" lon="116.6453">
        <time>2021-06-30T12:07:10Z</time>
      </trkpt>
      <trkpt lat="39.891541" lon="116.645375">
        <time>2021-06-30T12:07:15Z</time>
      </trkpt>
      <trkpt lat="39.891674" lon="116.645417">
        <time>2021-06-30T12:07:20Z</time>
      </trkpt>
      <trkpt lat="39.891791" lon="116.645471">
        <time>2021-06-30T12:07:25Z</time>
      </trkpt>
      <trkpt lat="39.891898" lon="116.645526">
        <time>2021-06-30T12:07:30Z</time>
      </trkpt>
      <trkpt lat="39.892033" lon="116.645597">
        <time>2021-06-30T12:07:35Z</time>
      </trkpt>
      <trkpt lat="39.892122" lon="116.645653">
        <time>2021-06-30T12:07:40Z</time>
      </trkpt>
      <trkpt lat="39.892313" lon="116.645714">
        <time>2021-06-30T12:07:45Z</time>
      </trkpt>
      <trkpt lat="39.892394" lon="116.645739">
        <time>2021-06-30T12:07:50Z</time>
      </trkpt>
      <trkpt lat="39.892477" lon="116.645791">
        <time>2021-06-30T12:07:55Z</time>
      </trkpt>
      <trkpt lat="39.892586" lon="116.645857">
        <time>2021-06-30T12:08:00Z</time>
      </trkpt>
      <trkpt lat="39.892658" lon="116.645919">
        <time>2021-06-30T12:08:05Z</time>
      </trkpt>
      <trkpt lat="39.892672" lon="116.64604">
        <time>2021-06-30T12:08:10Z</time>
      </trkpt>
      <trkpt lat="39.892642" lon="116.646231">
        <time>2021-06-30T12:08:15Z</time>
      </trkpt>
      <trkpt lat="39.89264" lon="116.646411">
        <time>2021-06-30T12:08:20Z</time>
      </trkpt>
      <trkpt lat="39.892645" lon="116.646568">
        <time>2021-06-30T12:08:25Z</time>
      </trkpt>
      <trkpt lat="39.892619" lon="116.646709">
        <time>2021-06-30T12:08:30Z</time>
      </trkpt>
      <trkpt lat="39.892597" lon="116.646871">
        <time>2021-06-30T12:08:35Z</time>
      </trkpt>
      <trkpt lat="39.892577" lon="116.646992">
        <time>2021-06-30T12:08:40Z</time>
      </trkpt>
      <trkpt lat="39.892562" lon="116.64717">
        <time>2021-06-30T12:08:45Z</time>
      </trkpt>
      <trkpt lat="39.89254" lon="116.647363">
        <time>2021-06-30T12:08:50Z</time>
      </trkpt>
      <trkpt lat="39.892517" lon="116.647526">
        <time>2021-06-30T12:08:55Z</time>
      </trkpt>
      <trkpt lat="39.892501" lon="116.647682">
        <time>2021-06-30T12:09:00Z</time>
      </trkpt>
      <trkpt lat="39.892501" lon="116.647927">
        <time>2021-06-30T12:09:05Z</time>
      </trkpt>
      <trkpt lat="39.892515" lon="116.647981">
        <time>2021-06-30T12:09:10Z</time>
      </trkpt>
      <trkpt lat="39.892603" lon="116.648048">
        <time>2021-06-30T12:09:15Z</time>
      </trkpt>
      <trkpt lat="39.892725" lon="116.648034">
        <time>2021-06-30T12:09:20Z</time>
      </trkpt>
      <trkpt lat="39.892881" lon="116.648033">
        <time>2021-06-30T12:09:25Z</time>
      </trkpt>
      <trkpt lat="39.893038" lon="116.648041">
        <time>2021-06-30T12:09:30Z</time>
      </trkpt>
      <trkpt lat="39.893181" lon="116.648052">
        <time>2021-06-30T12:09:35Z</time>
      </trkpt>
      <trkpt lat="39.893274" lon="116.648054">
        <time>2021-06-30T12:09:40Z</time>
      </trkpt>
      <trkpt lat="39.893312" lon="116.648054">
        <time>2021-06-30T12:09:45Z</time>
      </trkpt>
      <trkpt lat="39.893386" lon="116.648065">
        <time>2021-06-30T12:09:50Z</time>
      </trkpt>
      <trkpt lat="39.893448" lon="116.648082">
        <time>2021-06-30T12:09:55Z</time>
      </trkpt>
      <trkpt lat="39.893521" lon="116.648112">
        <time>2021-06-30T12:10:00Z</time>
      </trkpt>
      <trkpt lat="39.893627" lon="116.648159">
        <time>2021-06-30T12:10:05Z</time>
      </trkpt>
      <trkpt lat="39.893706" lon="116.648193">
        <time>2021-06-30T12:10:10Z</time>
      </trkpt>
      <trkpt lat="39.893825" lon="116.648277">
        <time>2021-06-30T12:10:15Z</time>
      </trkpt>
      <trkpt lat="39.893999" lon="116.648343">
        <time>2021-06-30T12:10:20Z</time>
      </trkpt>
      <trkpt lat="39.894175" lon="116.64836">
        <time>2021-06-30T12:10:25Z</time>
      </trkpt>
      <trkpt lat="39.894303" lon="116.648426">
        <time>2021-06-30T12:10:30Z</time>
      </trkpt>
      <trkpt lat="39.894435" lon="116.648494">
        <time>2021-06-30T12:10:35Z</time>
      </trkpt>
      <trkpt lat="39.894521" lon="116.648589">
        <time>2021-06-30T12:10:40Z</time>
      </trkpt>
      <trkpt lat="39.894625" lon="116.648652">
        <time>2021-06-30T12:10:45Z</time>
      </trkpt>
      <trkpt lat="39.89474" lon="116.648708">
        <time>2021-06-30T12:10:50Z</time>
      </trkpt>
      <trkpt lat="39.894848" lon="116.648719">
        <time>2021-06-30T12:10:55Z</time>
      </trkpt>
      <trkpt lat="39.894951" lon="116.648772">
        <time>2021-06-30T12:11:00Z</time>
      </trkpt>
      <trkpt lat="39.895064" lon="116.648897">
        <time>2021-06-30T12:11:05Z</time>
      </trkpt>
      <trkpt lat="39.89511" lon="116.648951">
        <time>2021-06-30T12:11:10Z</time>
      </trkpt>
      <trkpt lat="39.895198" lon="116.649015">
        <time>2021-06-30T12:11:15Z</time>
      </trkpt>
      <trkpt lat="39.895299" lon="116.649063">
        <time>2021-06-30T12:11:20Z</time>
      </trkpt>
      <trkpt lat="39.895408" lon="116.649099">
        <time>2021-06-30T12:11:25Z</time>
      </trkpt>
      <trkpt lat="39.895534" lon="116.649139">
        <time>2021-06-30T12:11:30Z</time>
      </trkpt>
      <trkpt lat="39.895648" lon="116.649087">
        <time>2021-06-30T12:11:35Z</time>
      </trkpt>
      <trkpt lat="39.895706" lon="116.648938">
        <time>2021-06-30T12:11:40Z</time>
      </trkpt>
      <trkpt lat="39.895732" lon="116.648778">
        <time>2021-06-30T12:11:45Z</time>
      </trkpt>
      <trkpt lat="39.895754" lon="116.648646">
        <time>2021-06-30T12:11:50Z</time>
      </trkpt>
      <trkpt lat="39.895805" lon="116.648532">
        <time>2021-06-30T12:11:55Z</time>
      </trkpt>
      <trkpt lat="39.895828" lon="116.648394">
        <time>2021-06-30T12:12:00Z</time>
      </trkpt>
      <trkpt lat="39.895866" lon="116.648246">
        <time>2021-06-30T12:12:05Z</time>
      </trkpt>
      <trkpt lat="39.895915" lon="116.648083">
        <time>2021-06-30T12:12:10Z</time>
      </trkpt>
      <trkpt lat="39.895962" lon="116.647929">
        <time>2021-06-30T12:12:15Z</time>
      </trkpt>
      <trkpt lat="39.895978" lon="116.647783">
        <time>2021-06-30T12:12:20Z</time>
      </trkpt>
      <trkpt lat="39.895986" lon="116.64767">
        <time>2021-06-30T12:12:25Z</time>
      </trkpt>
      <trkpt lat="39.896009" lon="116.647531">
        <time>2021-06-30T12:12:30Z</time>
      </trkpt>
      <trkpt lat="39.895992" lon="116.647365">
        <time>2021-06-30T12:12:35Z</time>
      </trkpt>
      <trkpt lat="39.895991" lon="116.647199">
        <time>2021-06-30T12:12:40Z</time>
      </trkpt>
      <trkpt lat="39.8959" lon="116.647117">
        <time>2021-06-30T12:12:45Z</time>
      </trkpt>
      <trkpt lat="39.895811" lon="116.647239">
        <time>2021-06-30T12:12:50Z</time>
      </trkpt>
      <trkpt lat="39.895767" lon="116.647401">
        <time>2021-06-30T12:12:55Z</time>
      </trkpt>
      <trkpt lat="39.895727" lon="116.64757">
        <time>2021-06-30T12:13:00Z</time>
      </trkpt>
      <trkpt lat="39.895719" lon="116.647748">
        <time>2021-06-30T12:13:05Z</time>
      </trkpt>
      <trkpt lat="39.895673" lon="116.647985">
        <time>2021-06-30T12:13:10Z</time>
      </trkpt>
      <trkpt lat="39.89566" lon="116.648033">
        <time>2021-06-30T12:13:15Z</time>
      </trkpt>
      <trkpt lat="39.895638" lon="116.64818">
        <time>2021-06-30T12:13:20Z</time>
      </trkpt>
      <trkpt lat="39.89564" lon="116.648356">
        <time>2021-06-30T12:13:25Z</time>
      </trkpt>
      <trkpt lat="39.895698" lon="116.648499">
        <time>2021-06-30T12:13:30Z</time>
      </trkpt>
      <trkpt lat="39.895823" lon="116.648413">
        <time>2021-06-30T12:13:35Z</time>
      </trkpt>
      <trkpt lat="39.895888" lon="116.648238">
        <time>2021-06-30T12:13:40Z</time>
      </trkpt>
      <trkpt lat="39.895934" lon="116.648054">
        <time>2021-06-30T12:13:45Z</time>
      </trkpt>
      <trkpt lat="39.895963" lon="116.647888">
        <time>2021-06-30T12:13:50Z</time>
      </trkpt>
      <trkpt lat="39.895975" lon="116.647751">
        <time>2021-06-30T12:13:55Z</time>
      </trkpt>
      <trkpt lat="39.896001" lon="116.647576">
        <time>2021-06-30T12:14:00Z</time>
      </trkpt>
      <trkpt lat="39.896" lon="116.647433">
        <time>2021-06-30T12:14:05Z</time>
      </trkpt>
      <trkpt lat="39.895978" lon="116.647254">
        <time>2021-06-30T12:14:10Z</time>
      </trkpt>
      <trkpt lat="39.895965" lon="116.647154">
        <time>2021-06-30T12:14:15Z</time>
      </trkpt>
      <trkpt lat="39.895848" lon="116.647157">
        <time>2021-06-30T12:14:20Z</time>
      </trkpt>
      <trkpt lat="39.895779" lon="116.647297">
        <time>2021-06-30T12:14:25Z</time>
      </trkpt>
      <trkpt lat="39.895718" lon="116.647407">
        <time>2021-06-30T12:14:30Z</time>
      </trkpt>
      <trkpt lat="39.895683" lon="116.647596">
        <time>2021-06-30T12:14:35Z</time>
      </trkpt>
      <trkpt lat="39.895697" lon="116.647781">
        <time>2021-06-30T12:14:40Z</time>
      </trkpt>
      <trkpt lat="39.895696" lon="116.647938">
        <time>2021-06-30T12:14:45Z</time>
      </trkpt>
      <trkpt lat="39.895681" lon="116.648058">
        <time>2021-06-30T12:14:50Z</time>
      </trkpt>
      <trkpt lat="39.895678" lon="116.648196">
        <time>2021-06-30T12:14:55Z</time>
      </trkpt>
      <trkpt lat="39.895666" lon="116.648342">
        <time>2021-06-30T12:15:00Z</time>
      </trkpt>
      <trkpt lat="39.895667" lon="116.648455">
        <time>2021-06-30T12:15:05Z</time>
      </trkpt>
      <trkpt lat="39.895697" lon="116.648523">
        <time>2021-06-30T12:15:10Z</time>
      </trkpt>
      <trkpt lat="39.895796" lon="116.648473">
        <time>2021-06-30T12:15:15Z</time>
      </trkpt>
      <trkpt lat="39.89584" lon="116.648312">
        <time>2021-06-30T12:15:20Z</time>
      </trkpt>
      <trkpt lat="39.895889" lon="116.648152">
        <time>2021-06-30T12:15:25Z</time>
      </trkpt>
      <trkpt lat="39.895943" lon="116.647988">
        <time>2021-06-30T12:15:30Z</time>
      </trkpt>
      <trkpt lat="39.895966" lon="116.647848">
        <time>2021-06-30T12:15:35Z</time>
      </trkpt>
      <trkpt lat="39.896006" lon="116.64771">
        <time>2021-06-30T12:15:40Z</time>
      </trkpt>
      <trkpt lat="39.895998" lon="116.647557">
        <time>2021-06-30T12:15:45Z</time>
      </trkpt>
      <trkpt lat="39.896011" lon="116.647429">
        <time>2021-06-30T12:15:50Z</time>
      </trkpt>
      <trkpt lat="39.895996" lon="116.647289">
        <time>2021-06-30T12:15:55Z</time>
      </trkpt>
      <trkpt lat="39.895993" lon="116.647141">
        <time>2021-06-30T12:16:00Z</time>
      </trkpt>
      <trkpt lat="39.896001" lon="116.647021">
        <time>2021-06-30T12:16:05Z</time>
      </trkpt>
      <trkpt lat="39.896048" lon="116.646891">
        <time>2021-06-30T12:16:10Z</time>
      </trkpt>
      <trkpt lat="39.896067" lon="116.646726">
        <time>2021-06-30T12:16:15Z</time>
      </trkpt>
      <trkpt lat="39.896073" lon="116.646578">
        <time>2021-06-30T12:16:20Z</time>
      </trkpt>
      <trkpt lat="39.896094" lon="116.646424">
        <time>2021-06-30T12:16:25Z</time>
      </trkpt>
      <trkpt lat="39.896095" lon="116.64626">
        <time>2021-06-30T12:16:30Z</time>
      </trkpt>
      <trkpt lat="39.89612" lon="116.646083">
        <time>2021-06-30T12:16:35Z</time>
      </trkpt>
      <trkpt lat="39.89613" lon="116.645925">
        <time>2021-06-30T12:16:40Z</time>
      </trkpt>
      <trkpt lat="39.896132" lon="116.645742">
        <time>2021-06-30T12:16:45Z</time>
      </trkpt>
      <trkpt lat="39.896157" lon="116.645593">
        <time>2021-06-30T12:16:50Z</time>
      </trkpt>
      <trkpt lat="39.896162" lon="116.645504">
        <time>2021-06-30T12:16:55Z</time>
      </trkpt>
      <trkpt lat="39.896177" lon="116.645443">
        <time>2021-06-30T12:17:00Z</time>
      </trkpt>
      <trkpt lat="39.896187" lon="116.645354">
        <time>2021-06-30T12:17:05Z</time>
      </trkpt>
      <trkpt lat="39.89623" lon="116.645251">
        <time>2021-06-30T12:17:10Z</time>
      </trkpt>
      <trkpt lat="39.896215" lon="116.645171">
        <time>2021-06-30T12:17:15Z</time>
      </trkpt>
      <trkpt lat="39.896204" lon="116.645069">
        <time>2021-06-30T12:17:20Z</time>
      </trkpt>
      <trkpt lat="39.896205" lon="116.64496">
        <time>2021-06-30T12:17:25Z</time>
      </trkpt>
      <trkpt lat="39.896198" lon="116.644845">
        <time>2021-06-30T12:17:30Z</time>
      </trkpt>
      <trkpt lat="39.896204" lon="116.644681">
        <time>2021-06-30T12:17:35Z</time>
      </trkpt>
      <trkpt lat="39.896235" lon="116.644526">
        <time>2021-06-30T12:17:40Z</time>
      </trkpt>
      <trkpt lat="39.896252" lon="116.644365">
        <time>2021-06-30T12:17:45Z</time>
      </trkpt>
      <trkpt lat="39.896248" lon="116.644196">
        <time>2021-06-30T12:17:50Z</time>
      </trkpt>
      <trkpt lat="39.896268" lon="116.644036">
        <time>2021-06-30T12:17:55Z</time>
      </trkpt>
      <trkpt lat="39.896264" lon="116.64388">
        <time>2021-06-30T12:18:00Z</time>
      </trkpt>
      <trkpt lat="39.896233" lon="116.643687">
        <time>2021-06-30T12:18:05Z</time>
      </trkpt>
      <trkpt lat="39.896221" lon="116.64353">
        <time>2021-06-30T12:18:10Z</time>
      </trkpt>
      <trkpt lat="39.896217" lon="116.64337">
        <time>2021-06-30T12:18:15Z</time>
      </trkpt>
      <trkpt lat="39.896219" lon="116.64322">
        <time>2021-06-30T12:18:20Z</time>
      </trkpt>
      <trkpt lat="39.8962" lon="116.64307">
        <time>2021-06-30T12:18:25Z</time>
      </trkpt>
      <trkpt lat="39.89622" lon="116.642916">
        <time>2021-06-30T12:18:30Z</time>
      </trkpt>
      <trkpt lat="39.896197" lon="116.642757">
        <time>2021-06-30T12:18:35Z</time>
      </trkpt>
      <trkpt lat="39.896194" lon="116.642603">
        <time>2021-06-30T12:18:40Z</time>
      </trkpt>
      <trkpt lat="39.896201" lon="116.642482">
        <time>2021-06-30T12:18:45Z</time>
      </trkpt>
      <trkpt lat="39.896199" lon="116.642402">
        <time>2021-06-30T12:18:50Z</time>
      </trkpt>
      <trkpt lat="39.896207" lon="116.642365">
        <time>2021-06-30T12:18:55Z</time>
      </trkpt>
      <trkpt lat="39.896223" lon="116.642291">
        <time>2021-06-30T12:19:00Z</time>
      </trkpt>
      <trkpt lat="39.896243" lon="116.64218">
        <time>2021-06-30T12:19:05Z</time>
      </trkpt>
      <trkpt lat="39.896259" lon="116.642032">
        <time>2021-06-30T12:19:10Z</time>
      </trkpt>
      <trkpt lat="39.896267" lon="116.641901">
        <time>2021-06-30T12:19:15Z</time>
      </trkpt>
      <trkpt lat="39.896286" lon="116.641751">
        <time>2021-06-30T12:19:20Z</time>
      </trkpt>
      <trkpt lat="39.896284" lon="116.641621">
        <time>2021-06-30T12:19:25Z</time>
      </trkpt>
      <trkpt lat="39.896288" lon="116.641481">
        <time>2021-06-30T12:19:30Z</time>
      </trkpt>
      <trkpt lat="39.896273" lon="116.64135">
        <time>2021-06-30T12:19:35Z</time>
      </trkpt>
      <trkpt lat="39.896273" lon="116.641211">
        <time>2021-06-30T12:19:40Z</time>
      </trkpt>
      <trkpt lat="39.896265" lon="116.641076">
        <time>2021-06-30T12:19:45Z</time>
      </trkpt>
      <trkpt lat="39.896271" lon="116.640927">
        <time>2021-06-30T12:19:50Z</time>
      </trkpt>
      <trkpt lat="39.896281" lon="116.640751">
        <time>2021-06-30T12:19:55Z</time>
      </trkpt>
      <trkpt lat="39.896282" lon="116.640577">
        <time>2021-06-30T12:20:00Z</time>
      </trkpt>
      <trkpt lat="39.896381" lon="116.640349">
        <time>2021-06-30T12:20:05Z</time>
      </trkpt>
      <trkpt lat="39.896402" lon="116.640342">
        <time>2021-06-30T12:20:10Z</time>
      </trkpt>
      <trkpt lat="39.896465" lon="116.640385">
        <time>2021-06-30T12:20:15Z</time>
      </trkpt>
      <trkpt lat="39.89666" lon="116.640471">
        <time>2021-06-30T12:20:20Z</time>
      </trkpt>
      <trkpt lat="39.896845" lon="116.640511">
        <time>2021-06-30T12:20:25Z</time>
      </trkpt>
      <trkpt lat="39.896972" lon="116.640602">
        <time>2021-06-30T12:20:30Z</time>
      </trkpt>
      <trkpt lat="39.89709" lon="116.640685">
        <time>2021-06-30T12:20:35Z</time>
      </trkpt>
      <trkpt lat="39.897211" lon="116.640737">
        <time>2021-06-30T12:20:40Z</time>
      </trkpt>
      <trkpt lat="39.897292" lon="116.640828">
        <time>2021-06-30T12:20:45Z</time>
      </trkpt>
      <trkpt lat="39.89742" lon="116.640908">
        <time>2021-06-30T12:20:50Z</time>
      </trkpt>
      <trkpt lat="39.897569" lon="116.640921">
        <time>2021-06-30T12:20:55Z</time>
      </trkpt>
      <trkpt lat="39.89768" lon="116.640971">
        <time>2021-06-30T12:21:00Z</time>
      </trkpt>
      <trkpt lat="39.897774" lon="116.641043">
        <time>2021-06-30T12:21:05Z</time>
      </trkpt>
      <trkpt lat="39.897875" lon="116.641092">
        <time>2021-06-30T12:21:10Z</time>
      </trkpt>
      <trkpt lat="39.897982" lon="116.641142">
        <time>2021-06-30T12:21:15Z</time>
      </trkpt>
      <trkpt lat="39.898004" lon="116.641179">
        <time>2021-06-30T12:21:20Z</time>
      </trkpt>
      <trkpt lat="39.898025" lon="116.641203">
        <time>2021-06-30T12:21:25Z</time>
      </trkpt>
      <trkpt lat="39.898113" lon="116.641265">
        <time>2021-06-30T12:21:30Z</time>
      </trkpt>
      <trkpt lat="39.898252" lon="116.641315">
        <time>2021-06-30T12:21:35Z</time>
      </trkpt>
      <trkpt lat="39.898384" lon="116.641363">
        <time>2021-06-30T12:21:40Z</time>
      </trkpt>
      <trkpt lat="39.898491" lon="116.641438">
        <time>2021-06-30T12:21:45Z</time>
      </trkpt>
      <trkpt lat="39.898452" lon="116.641596">
        <time>2021-06-30T12:21:50Z</time>
      </trkpt>
      <trkpt lat="39.898399" lon="116.641754">
        <time>2021-06-30T12:21:55Z</time>
      </trkpt>
      <trkpt lat="39.898361" lon="116.641923">
        <time>2021-06-30T12:22:00Z</time>
      </trkpt>
      <trkpt lat="39.898317" lon="116.642116">
        <time>2021-06-30T12:22:05Z</time>
      </trkpt>
      <trkpt lat="39.898286" lon="116.642226">
        <time>2021-06-30T12:22:10Z</time>
      </trkpt>
      <trkpt lat="39.898277" lon="116.642375">
        <time>2021-06-30T12:22:15Z</time>
      </trkpt>
      <trkpt lat="39.898254" lon="116.642496">
        <time>2021-06-30T12:22:20Z</time>
      </trkpt>
      <trkpt lat="39.898237" lon="116.642695">
        <time>2021-06-30T12:22:25Z</time>
      </trkpt>
      <trkpt lat="39.898233" lon="116.642838">
        <time>2021-06-30T12:22:30Z</time>
      </trkpt>
      <trkpt lat="39.89826" lon="116.643026">
        <time>2021-06-30T12:22:35Z</time>
      </trkpt>
      <trkpt lat="39.898262" lon="116.643218">
        <time>2021-06-30T12:22:40Z</time>
      </trkpt>
      <trkpt lat="39.898261" lon="116.643374">
        <time>2021-06-30T12:22:45Z</time>
      </trkpt>
      <trkpt lat="39.89825" lon="116.643542">
        <time>2021-06-30T12:22:50Z</time>
      </trkpt>
      <trkpt lat="39.898254" lon="116.643713">
        <time>2021-06-30T12:22:55Z</time>
      </trkpt>
      <trkpt lat="39.898247" lon="116.643865">
        <time>2021-06-30T12:23:00Z</time>
      </trkpt>
      <trkpt lat="39.898271" lon="116.644014">
        <time>2021-06-30T12:23:05Z</time>
      </trkpt>
      <trkpt lat="39.898338" lon="116.644178">
        <time>2021-06-30T12:23:10Z</time>
      </trkpt>
      <trkpt lat="39.89837" lon="116.644338">
        <time>2021-06-30T12:23:15Z</time>
      </trkpt>
      <trkpt lat="39.898338" lon="116.644443">
        <time>2021-06-30T12:23:20Z</time>
      </trkpt>
      <trkpt lat="39.89833" lon="116.644523">
        <time>2021-06-30T12:23:25Z</time>
      </trkpt>
      <trkpt lat="39.898328" lon="116.644569">
        <time>2021-06-30T12:23:30Z</time>
      </trkpt>
      <trkpt lat="39.898367" lon="116.644694">
        <time>2021-06-30T12:23:35Z</time>
      </trkpt>
      <trkpt lat="39.898396" lon="116.644835">
        <time>2021-06-30T12:23:40Z</time>
      </trkpt>
      <trkpt lat="39.89843" lon="116.645077">
        <time>2021-06-30T12:23:45Z</time>
      </trkpt>
      <trkpt lat="39.898442" lon="116.645179">
        <time>2021-06-30T12:23:50Z</time>
      </trkpt>
      <trkpt lat="39.898464" lon="116.645379">
        <time>2021-06-30T12:23:55Z</time>
      </trkpt>
      <trkpt lat="39.898492" lon="116.645547">
        <time>2021-06-30T12:24:00Z</time>
      </trkpt>
      <trkpt lat="39.898534" lon="116.645691">
        <time>2021-06-30T12:24:05Z</time>
      </trkpt>
      <trkpt lat="39.89857" lon="116.645841">
        <time>2021-06-30T12:24:10Z</time>
      </trkpt>
      <trkpt lat="39.898626" lon="116.646015">
        <time>2021-06-30T12:24:15Z</time>
      </trkpt>
      <trkpt lat="39.898663" lon="116.646177">
        <time>2021-06-30T12:24:20Z</time>
      </trkpt>
      <trkpt lat="39.898737" lon="116.646294">
        <time>2021-06-30T12:24:25Z</time>
      </trkpt>
      <trkpt lat="39.898813" lon="116.646432">
        <time>2021-06-30T12:24:30Z</time>
      </trkpt>
      <trkpt lat="39.898844" lon="116.646566">
        <time>2021-06-30T12:24:35Z</time>
      </trkpt>
      <trkpt lat="39.898862" lon="116.646711">
        <time>2021-06-30T12:24:40Z</time>
      </trkpt>
      <trkpt lat="39.898934" lon="116.646851">
        <time>2021-06-30T12:24:45Z</time>
      </trkpt>
      <trkpt lat="39.898974" lon="116.647044">
        <time>2021-06-30T12:24:50Z</time>
      </trkpt>
      <trkpt lat="39.899037" lon="116.647251">
        <time>2021-06-30T12:24:55Z</time>
      </trkpt>
      <trkpt lat="39.899113" lon="116.647448">
        <time>2021-06-30T12:25:00Z</time>
      </trkpt>
      <trkpt lat="39.899125" lon="116.647668">
        <time>2021-06-30T12:25:05Z</time>
      </trkpt>
      <trkpt lat="39.899121" lon="116.647844">
        <time>2021-06-30T12:25:10Z</time>
      </trkpt>
      <trkpt lat="39.899121" lon="116.647998">
        <time>2021-06-30T12:25:15Z</time>
      </trkpt>
      <trkpt lat="39.899101" lon="116.648126">
        <time>2021-06-30T12:25:20Z</time>
      </trkpt>
      <trkpt lat="39.89912" lon="116.648271">
        <time>2021-06-30T12:25:25Z</time>
      </trkpt>
      <trkpt lat="39.899104" lon="116.648354">
        <time>2021-06-30T12:25:30Z</time>
      </trkpt>
      <trkpt lat="39.89912" lon="116.648446">
        <time>2021-06-30T12:25:35Z</time>
      </trkpt>
      <trkpt lat="39.899117" lon="116.64851">
        <time>2021-06-30T12:25:40Z</time>
      </trkpt>
      <trkpt lat="39.899095" lon="116.64861">
        <time>2021-06-30T12:25:45Z</time>
      </trkpt>
      <trkpt lat="39.899035" lon="116.648772">
        <time>2021-06-30T12:25:50Z</time>
      </trkpt>
      <trkpt lat="39.899026" lon="116.648784">
        <time>2021-06-30T12:25:55Z</time>
      </trkpt>
      <trkpt lat="39.899019" lon="116.648836">
        <time>2021-06-30T12:26:00Z</time>
      </trkpt>
      <trkpt lat="39.899029" lon="116.648994">
        <time>2021-06-30T12:26:05Z</time>
      </trkpt>
      <trkpt lat="39.899048" lon="116.649135">
        <time>2021-06-30T12:26:10Z</time>
      </trkpt>
      <trkpt lat="39.899058" lon="116.649242">
        <time>2021-06-30T12:26:15Z</time>
      </trkpt>
      <trkpt lat="39.899066" lon="116.649429">
        <time>2021-06-30T12:26:20Z</time>
      </trkpt>
      <trkpt lat="39.899043" lon="116.649527">
        <time>2021-06-30T12:26:25Z</time>
      </trkpt>
      <trkpt lat="39.898999" lon="116.649675">
        <time>2021-06-30T12:26:30Z</time>
      </trkpt>
      <trkpt lat="39.899016" lon="116.64982">
        <time>2021-06-30T12:26:35Z</time>
      </trkpt>
      <trkpt lat="39.899034" lon="116.649939">
        <time>2021-06-30T12:26:40Z</time>
      </trkpt>
      <trkpt lat="39.899079" lon="116.650064">
        <time>2021-06-30T12:26:45Z</time>
      </trkpt>
      <trkpt lat="39.8991" lon="116.650193">
        <time>2021-06-30T12:26:50Z</time>
      </trkpt>
      <trkpt lat="39.899134" lon="116.650267">
        <time>2021-06-30T12:26:55Z</time>
      </trkpt>
      <trkpt lat="39.899126" lon="116.650357">
        <time>2021-06-30T12:27:00Z</time>
      </trkpt>
      <trkpt lat="39.899098" lon="116.650444">
        <time>2021-06-30T12:27:05Z</time>
      </trkpt>
      <trkpt lat="39.899062" lon="116.650575">
        <time>2021-06-30T12:27:10Z</time>
      </trkpt>
      <trkpt lat="39.89907" lon="116.650757">
        <time>2021-06-30T12:27:15Z</time>
      </trkpt>
      <trkpt lat="39.899122" lon="116.650909">
        <time>2021-06-30T12:27:20Z</time>
      </trkpt>
      <trkpt lat="39.89906" lon="116.651037">
        <time>2021-06-30T12:27:25Z</time>
      </trkpt>
      <trkpt lat="39.898959" lon="116.65134">
        <time>2021-06-30T12:27:30Z</time>
      </trkpt>
      <trkpt lat="39.898954" lon="116.651465">
        <time>2021-06-30T12:27:35Z</time>
      </trkpt>
      <trkpt lat="39.898997" lon="116.651453">
        <time>2021-06-30T12:27:40Z</time>
      </trkpt>
      <trkpt lat="39.899013" lon="116.651387">
        <time>2021-06-30T12:27:45Z</time>
      </trkpt>
      <trkpt lat="39.89898" lon="116.651183">
        <time>2021-06-30T12:27:50Z</time>
      </trkpt>
      <trkpt lat="39.898923" lon="116.650999">
        <time>2021-06-30T12:27:55Z</time>
      </trkpt>
      <trkpt lat="39.898972" lon="116.650821">
        <time>2021-06-30T12:28:00Z</time>
      </trkpt>
      <trkpt lat="39.898994" lon="116.650643">
        <time>2021-06-30T12:28:05Z</time>
      </trkpt>
      <trkpt lat="39.899024" lon="116.650497">
        <time>2021-06-30T12:28:10Z</time>
      </trkpt>
      <trkpt lat="39.899017" lon="116.650339">
        <time>2021-06-30T12:28:15Z</time>
      </trkpt>
      <trkpt lat="39.899018" lon="116.650176">
        <time>2021-06-30T12:28:20Z</time>
      </trkpt>
      <trkpt lat="39.899062" lon="116.649995">
        <time>2021-06-30T12:28:25Z</time>
      </trkpt>
      <trkpt lat="39.899114" lon="116.649747">
        <time>2021-06-30T12:28:30Z</time>
      </trkpt>
      <trkpt lat="39.899119" lon="116.649683">
        <time>2021-06-30T12:28:35Z</time>
      </trkpt>
      <trkpt lat="39.899095" lon="116.6495">
        <time>2021-06-30T12:28:40Z</time>
      </trkpt>
      <trkpt lat="39.899048" lon="116.649391">
        <time>2021-06-30T12:28:45Z</time>
      </trkpt>
      <trkpt lat="39.899032" lon="116.649188">
        <time>2021-06-30T12:28:50Z</time>
      </trkpt>
      <trkpt lat="39.899067" lon="116.649072">
        <time>2021-06-30T12:28:55Z</time>
      </trkpt>
      <trkpt lat="39.899035" lon="116.648894">
        <time>2021-06-30T12:29:00Z</time>
      </trkpt>
      <trkpt lat="39.89901" lon="116.648719">
        <time>2021-06-30T12:29:05Z</time>
      </trkpt>
      <trkpt lat="39.899008" lon="116.648513">
        <time>2021-06-30T12:29:10Z</time>
      </trkpt>
      <trkpt lat="39.898961" lon="116.64833">
        <time>2021-06-30T12:29:15Z</time>
      </trkpt>
      <trkpt lat="39.898959" lon="116.64814">
        <time>2021-06-30T12:29:20Z</time>
      </trkpt>
      <trkpt lat="39.899013" lon="116.647961">
        <time>2021-06-30T12:29:25Z</time>
      </trkpt>
      <trkpt lat="39.899038" lon="116.647798">
        <time>2021-06-30T12:29:30Z</time>
      </trkpt>
      <trkpt lat="39.899003" lon="116.647629">
        <time>2021-06-30T12:29:35Z</time>
      </trkpt>
      <trkpt lat="39.898957" lon="116.647473">
        <time>2021-06-30T12:29:40Z</time>
      </trkpt>
      <trkpt lat="39.89894" lon="116.647319">
        <time>2021-06-30T12:29:45Z</time>
      </trkpt>
      <trkpt lat="39.898913" lon="116.64717">
        <time>2021-06-30T12:29:50Z</time>
      </trkpt>
      <trkpt lat="39.898886" lon="116.646979">
        <time>2021-06-30T12:29:55Z</time>
      </trkpt>
      <trkpt lat="39.898898" lon="116.646814">
        <time>2021-06-30T12:30:00Z</time>
      </trkpt>
      <trkpt lat="39.898823" lon="116.646596">
        <time>2021-06-30T12:30:05Z</time>
      </trkpt>
      <trkpt lat="39.898829" lon="116.646478">
        <time>2021-06-30T12:30:10Z</time>
      </trkpt>
      <trkpt lat="39.89881" lon="116.646311">
        <time>2021-06-30T12:30:15Z</time>
      </trkpt>
      <trkpt lat="39.898728" lon="116.646245">
        <time>2021-06-30T12:30:20Z</time>
      </trkpt>
      <trkpt lat="39.898652" lon="116.646093">
        <time>2021-06-30T12:30:25Z</time>
      </trkpt>
      <trkpt lat="39.898595" lon="116.645911">
        <time>2021-06-30T12:30:30Z</time>
      </trkpt>
      <trkpt lat="39.89855" lon="116.64568">
        <time>2021-06-30T12:30:35Z</time>
      </trkpt>
      <trkpt lat="39.898495" lon="116.645563">
        <time>2021-06-30T12:30:40Z</time>
      </trkpt>
      <trkpt lat="39.898449" lon="116.645406">
        <time>2021-06-30T12:30:45Z</time>
      </trkpt>
      <trkpt lat="39.898499" lon="116.645235">
        <time>2021-06-30T12:30:50Z</time>
      </trkpt>
      <trkpt lat="39.898469" lon="116.645103">
        <time>2021-06-30T12:30:55Z</time>
      </trkpt>
      <trkpt lat="39.898426" lon="116.644976">
        <time>2021-06-30T12:31:00Z</time>
      </trkpt>
      <trkpt lat="39.898414" lon="116.644834">
        <time>2021-06-30T12:31:05Z</time>
      </trkpt>
      <trkpt lat="39.898378" lon="116.644689">
        <time>2021-06-30T12:31:10Z</time>
      </trkpt>
      <trkpt lat="39.898447" lon="116.64447">
        <time>2021-06-30T12:31:15Z</time>
      </trkpt>
      <trkpt lat="39.898449" lon="116.644457">
        <time>2021-06-30T12:31:20Z</time>
      </trkpt>
      <trkpt lat="39.898446" lon="116.644404">
        <time>2021-06-30T12:31:25Z</time>
      </trkpt>
      <trkpt lat="39.898416" lon="116.644335">
        <time>2021-06-30T12:31:30Z</time>
      </trkpt>
      <trkpt lat="39.898336" lon="116.644299">
        <time>2021-06-30T12:31:35Z</time>
      </trkpt>
      <trkpt lat="39.898324" lon="116.644212">
        <time>2021-06-30T12:31:40Z</time>
      </trkpt>
      <trkpt lat="39.898349" lon="116.644082">
        <time>2021-06-30T12:31:45Z</time>
      </trkpt>
      <trkpt lat="39.89832" lon="116.643966">
        <time>2021-06-30T12:31:50Z</time>
      </trkpt>
      <trkpt lat="39.898328" lon="116.643854">
        <time>2021-06-30T12:31:55Z</time>
      </trkpt>
      <trkpt lat="39.898363" lon="116.643724">
        <time>2021-06-30T12:32:00Z</time>
      </trkpt>
      <trkpt lat="39.898341" lon="116.643559">
        <time>2021-06-30T12:32:05Z</time>
      </trkpt>
      <trkpt lat="39.898327" lon="116.643338">
        <time>2021-06-30T12:32:10Z</time>
      </trkpt>
      <trkpt lat="39.898336" lon="116.643111">
        <time>2021-06-30T12:32:15Z</time>
      </trkpt>
      <trkpt lat="39.898334" lon="116.642998">
        <time>2021-06-30T12:32:20Z</time>
      </trkpt>
      <trkpt lat="39.898339" lon="116.642847">
        <time>2021-06-30T12:32:25Z</time>
      </trkpt>
      <trkpt lat="39.898324" lon="116.642672">
        <time>2021-06-30T12:32:30Z</time>
      </trkpt>
      <trkpt lat="39.898322" lon="116.642507">
        <time>2021-06-30T12:32:35Z</time>
      </trkpt>
      <trkpt lat="39.898333" lon="116.642336">
        <time>2021-06-30T12:32:40Z</time>
      </trkpt>
      <trkpt lat="39.898331" lon="116.642139">
        <time>2021-06-30T12:32:45Z</time>
      </trkpt>
      <trkpt lat="39.898353" lon="116.642057">
        <time>2021-06-30T12:32:50Z</time>
      </trkpt>
      <trkpt lat="39.898392" lon="116.641904">
        <time>2021-06-30T12:32:55Z</time>
      </trkpt>
      <trkpt lat="39.898464" lon="116.641838">
        <time>2021-06-30T12:33:00Z</time>
      </trkpt>
      <trkpt lat="39.898501" lon="116.64172">
        <time>2021-06-30T12:33:05Z</time>
      </trkpt>
      <trkpt lat="39.898528" lon="116.641557">
        <time>2021-06-30T12:33:10Z</time>
      </trkpt>
      <trkpt lat="39.898418" lon="116.641426">
        <time>2021-06-30T12:33:15Z</time>
      </trkpt>
      <trkpt lat="39.898316" lon="116.641328">
        <time>2021-06-30T12:33:20Z</time>
      </trkpt>
      <trkpt lat="39.898194" lon="116.641247">
        <time>2021-06-30T12:33:25Z</time>
      </trkpt>
      <trkpt lat="39.898095" lon="116.641203">
        <time>2021-06-30T12:33:30Z</time>
      </trkpt>
      <trkpt lat="39.898014" lon="116.641192">
        <time>2021-06-30T12:33:35Z</time>
      </trkpt>
      <trkpt lat="39.897938" lon="116.641159">
        <time>2021-06-30T12:33:40Z</time>
      </trkpt>
      <trkpt lat="39.897819" lon="116.641119">
        <time>2021-06-30T12:33:45Z</time>
      </trkpt>
      <trkpt lat="39.897766" lon="116.641086">
        <time>2021-06-30T12:33:50Z</time>
      </trkpt>
      <trkpt lat="39.897676" lon="116.641027">
        <time>2021-06-30T12:33:55Z</time>
      </trkpt>
      <trkpt lat="39.897574" lon="116.640983">
        <time>2021-06-30T12:34:00Z</time>
      </trkpt>
      <trkpt lat="39.897458" lon="116.640912">
        <time>2021-06-30T12:34:05Z</time>
      </trkpt>
      <trkpt lat="39.897361" lon="116.64084">
        <time>2021-06-30T12:34:10Z</time>
      </trkpt>
      <trkpt lat="39.897259" lon="116.640774">
        <time>2021-06-30T12:34:15Z</time>
      </trkpt>
      <trkpt lat="39.897144" lon="116.64073">
        <time>2021-06-30T12:34:20Z</time>
      </trkpt>
      <trkpt lat="39.897027" lon="116.640678">
        <time>2021-06-30T12:34:25Z</time>
      </trkpt>
      <trkpt lat="39.896918" lon="116.640645">
        <time>2021-06-30T12:34:30Z</time>
      </trkpt>
      <trkpt lat="39.896801" lon="116.640617">
        <time>2021-06-30T12:34:35Z</time>
      </trkpt>
      <trkpt lat="39.896602" lon="116.640523">
        <time>2021-06-30T12:34:40Z</time>
      </trkpt>
      <trkpt lat="39.896584" lon="116.640506">
        <time>2021-06-30T12:34:45Z</time>
      </trkpt>
      <trkpt lat="39.896484" lon="116.640446">
        <time>2021-06-30T12:34:50Z</time>
      </trkpt>
      <trkpt lat="39.896393" lon="116.640421">
        <time>2021-06-30T12:34:55Z</time>
      </trkpt>
      <trkpt lat="39.89634" lon="116.640258">
        <time>2021-06-30T12:35:00Z</time>
      </trkpt>
      <trkpt lat="39.896322" lon="116.640227">
        <time>2021-06-30T12:35:05Z</time>
      </trkpt>
      <trkpt lat="39.896271" lon="116.640072">
        <time>2021-06-30T12:35:10Z</time>
      </trkpt>
      <trkpt lat="39.89627" lon="116.639885">
        <time>2021-06-30T12:35:15Z</time>
      </trkpt>
      <trkpt lat="39.896272" lon="116.63969">
        <time>2021-06-30T12:35:20Z</time>
      </trkpt>
      <trkpt lat="39.896265" lon="116.63951">
        <time>2021-06-30T12:35:25Z</time>
      </trkpt>
      <trkpt lat="39.896263" lon="116.639353">
        <time>2021-06-30T12:35:30Z</time>
      </trkpt>
      <trkpt lat="39.896255" lon="116.639214">
        <time>2021-06-30T12:35:35Z</time>
      </trkpt>
      <trkpt lat="39.89623" lon="116.639036">
        <time>2021-06-30T12:35:40Z</time>
      </trkpt>
      <trkpt lat="39.896224" lon="116.638853">
        <time>2021-06-30T12:35:45Z</time>
      </trkpt>
      <trkpt lat="39.896238" lon="116.638693">
        <time>2021-06-30T12:35:50Z</time>
      </trkpt>
      <trkpt lat="39.896235" lon="116.638539">
        <time>2021-06-30T12:35:55Z</time>
      </trkpt>
      <trkpt lat="39.896234" lon="116.638378">
        <time>2021-06-30T12:36:00Z</time>
      </trkpt>
      <trkpt lat="39.896206" lon="116.638213">
        <time>2021-06-30T12:36:05Z</time>
      </trkpt>
      <trkpt lat="39.896199" lon="116.638064">
        <time>2021-06-30T12:36:10Z</time>
      </trkpt>
      <trkpt lat="39.89621" lon="116.63795">
        <time>2021-06-30T12:36:15Z</time>
      </trkpt>
      <trkpt lat="39.896211" lon="116.637868">
        <time>2021-06-30T12:36:20Z</time>
      </trkpt>
      <trkpt lat="39.896205" lon="116.637799">
        <time>2021-06-30T12:36:25Z</time>
      </trkpt>
      <trkpt lat="39.89622" lon="116.637737">
        <time>2021-06-30T12:36:30Z</time>
      </trkpt>
      <trkpt lat="39.896212" lon="116.637639">
        <time>2021-06-30T12:36:35Z</time>
      </trkpt>
      <trkpt lat="39.896234" lon="116.637497">
        <time>2021-06-30T12:36:40Z</time>
      </trkpt>
      <trkpt lat="39.896241" lon="116.637447">
        <time>2021-06-30T12:36:45Z</time>
      </trkpt>
      <trkpt lat="39.89623" lon="116.637362">
        <time>2021-06-30T12:36:50Z</time>
      </trkpt>
      <trkpt lat="39.896213" lon="116.637291">
        <time>2021-06-30T12:36:55Z</time>
      </trkpt>
      <trkpt lat="39.896198" lon="116.637207">
        <time>2021-06-30T12:37:00Z</time>
      </trkpt>
      <trkpt lat="39.896195" lon="116.637132">
        <time>2021-06-30T12:37:05Z</time>
      </trkpt>
      <trkpt lat="39.896193" lon="116.637049">
        <time>2021-06-30T12:37:10Z</time>
      </trkpt>
      <trkpt lat="39.896174" lon="116.636946">
        <time>2021-06-30T12:37:15Z</time>
      </trkpt>
      <trkpt lat="39.896131" lon="116.63684">
        <time>2021-06-30T12:37:20Z</time>
      </trkpt>
      <trkpt lat="39.89606" lon="116.636747">
        <time>2021-06-30T12:37:25Z</time>
      </trkpt>
      <trkpt lat="39.896002" lon="116.636707">
        <time>2021-06-30T12:37:30Z</time>
      </trkpt>
      <trkpt lat="39.896037" lon="116.636802">
        <time>2021-06-30T12:37:35Z</time>
      </trkpt>
      <trkpt lat="39.896093" lon="116.636913">
        <time>2021-06-30T12:37:40Z</time>
      </trkpt>
      <trkpt lat="39.896129" lon="116.637163">
        <time>2021-06-30T12:37:45Z</time>
      </trkpt>
      <trkpt lat="39.896128" lon="116.637193">
        <time>2021-06-30T12:37:50Z</time>
      </trkpt>
      <trkpt lat="39.896131" lon="116.637336">
        <time>2021-06-30T12:37:55Z</time>
      </trkpt>
      <trkpt lat="39.896141" lon="116.6375">
        <time>2021-06-30T12:38:00Z</time>
      </trkpt>
      <trkpt lat="39.896151" lon="116.637658">
        <time>2021-06-30T12:38:05Z</time>
      </trkpt>
      <trkpt lat="39.896173" lon="116.637829">
        <time>2021-06-30T12:38:10Z</time>
      </trkpt>
      <trkpt lat="39.896168" lon="116.638008">
        <time>2021-06-30T12:38:15Z</time>
      </trkpt>
      <trkpt lat="39.896194" lon="116.638157">
        <time>2021-06-30T12:38:20Z</time>
      </trkpt>
      <trkpt lat="39.896177" lon="116.638314">
        <time>2021-06-30T12:38:25Z</time>
      </trkpt>
      <trkpt lat="39.896203" lon="116.638487">
        <time>2021-06-30T12:38:30Z</time>
      </trkpt>
      <trkpt lat="39.896215" lon="116.638673">
        <time>2021-06-30T12:38:35Z</time>
      </trkpt>
      <trkpt lat="39.896221" lon="116.638831">
        <time>2021-06-30T12:38:40Z</time>
      </trkpt>
      <trkpt lat="39.89621" lon="116.63899">
        <time>2021-06-30T12:38:45Z</time>
      </trkpt>
      <trkpt lat="39.896224" lon="116.63911">
        <time>2021-06-30T12:38:50Z</time>
      </trkpt>
      <trkpt lat="39.896235" lon="116.639195">
        <time>2021-06-30T12:38:55Z</time>
      </trkpt>
      <trkpt lat="39.896227" lon="116.63929">
        <time>2021-06-30T12:39:00Z</time>
      </trkpt>
      <trkpt lat="39.896217" lon="116.639382">
        <time>2021-06-30T12:39:05Z</time>
      </trkpt>
      <trkpt lat="39.896225" lon="116.639476">
        <time>2021-06-30T12:39:10Z</time>
      </trkpt>
      <trkpt lat="39.896227" lon="116.639671">
        <time>2021-06-30T12:39:15Z</time>
      </trkpt>
      <trkpt lat="39.896229" lon="116.639701">
        <time>2021-06-30T12:39:20Z</time>
      </trkpt>
      <trkpt lat="39.896227" lon="116.639829">
        <time>2021-06-30T12:39:25Z</time>
      </trkpt>
      <trkpt lat="39.896239" lon="116.639997">
        <time>2021-06-30T12:39:30Z</time>
      </trkpt>
      <trkpt lat="39.896245" lon="116.640167">
        <time>2021-06-30T12:39:35Z</time>
      </trkpt>
      <trkpt lat="39.896247" lon="116.640346">
        <time>2021-06-30T12:39:40Z</time>
      </trkpt>
      <trkpt lat="39.896265" lon="116.640531">
        <time>2021-06-30T12:39:45Z</time>
      </trkpt>
      <trkpt lat="39.89625" lon="116.640772">
        <time>2021-06-30T12:39:50Z</time>
      </trkpt>
      <trkpt lat="39.896246" lon="116.640905">
        <time>2021-06-30T12:39:55Z</time>
      </trkpt>
      <trkpt lat="39.896232" lon="116.641056">
        <time>2021-06-30T12:40:00Z</time>
      </trkpt>
      <trkpt lat="39.896215" lon="116.641231">
        <time>2021-06-30T12:40:05Z</time>
      </trkpt>
      <trkpt lat="39.896212" lon="116.641345">
        <time>2021-06-30T12:40:10Z</time>
      </trkpt>
      <trkpt lat="39.896203" lon="116.641437">
        <time>2021-06-30T12:40:15Z</time>
      </trkpt>
      <trkpt lat="39.896212" lon="116.64157">
        <time>2021-06-30T12:40:20Z</time>
      </trkpt>
      <trkpt lat="39.896235" lon="116.64171">
        <time>2021-06-30T12:40:25Z</time>
      </trkpt>
      <trkpt lat="39.896217" lon="116.641871">
        <time>2021-06-30T12:40:30Z</time>
      </trkpt>
      <trkpt lat="39.896194" lon="116.642163">
        <time>2021-06-30T12:40:35Z</time>
      </trkpt>
      <trkpt lat="39.896188" lon="116.642194">
        <time>2021-06-30T12:40:40Z</time>
      </trkpt>
      <trkpt lat="39.896155" lon="116.642289">
        <time>2021-06-30T12:40:45Z</time>
      </trkpt>
      <trkpt lat="39.896151" lon="116.642356">
        <time>2021-06-30T12:40:50Z</time>
      </trkpt>
      <trkpt lat="39.896157" lon="116.642457">
        <time>2021-06-30T12:40:55Z</time>
      </trkpt>
      <trkpt lat="39.896174" lon="116.642546">
        <time>2021-06-30T12:41:00Z</time>
      </trkpt>
      <trkpt lat="39.896176" lon="116.642669">
        <time>2021-06-30T12:41:05Z</time>
      </trkpt>
      <trkpt lat="39.89617" lon="116.642795">
        <time>2021-06-30T12:41:10Z</time>
      </trkpt>
      <trkpt lat="39.896166" lon="116.642997">
        <time>2021-06-30T12:41:15Z</time>
      </trkpt>
      <trkpt lat="39.896162" lon="116.643131">
        <time>2021-06-30T12:41:20Z</time>
      </trkpt>
      <trkpt lat="39.896158" lon="116.643342">
        <time>2021-06-30T12:41:25Z</time>
      </trkpt>
      <trkpt lat="39.896173" lon="116.643494">
        <time>2021-06-30T12:41:30Z</time>
      </trkpt>
      <trkpt lat="39.896199" lon="116.643665">
        <time>2021-06-30T12:41:35Z</time>
      </trkpt>
      <trkpt lat="39.896191" lon="116.643859">
        <time>2021-06-30T12:41:40Z</time>
      </trkpt>
      <trkpt lat="39.896169" lon="116.644028">
        <time>2021-06-30T12:41:45Z</time>
      </trkpt>
      <trkpt lat="39.896171" lon="116.644222">
        <time>2021-06-30T12:41:50Z</time>
      </trkpt>
      <trkpt lat="39.896188" lon="116.644525">
        <time>2021-06-30T12:41:55Z</time>
      </trkpt>
      <trkpt lat="39.89619" lon="116.644555">
        <time>2021-06-30T12:42:00Z</time>
      </trkpt>
      <trkpt lat="39.896194" lon="116.644695">
        <time>2021-06-30T12:42:05Z</time>
      </trkpt>
      <trkpt lat="39.896177" lon="116.644858">
        <time>2021-06-30T12:42:10Z</time>
      </trkpt>
      <trkpt lat="39.89617" lon="116.645022">
        <time>2021-06-30T12:42:15Z</time>
      </trkpt>
      <trkpt lat="39.896163" lon="116.645301">
        <time>2021-06-30T12:42:20Z</time>
      </trkpt>
      <trkpt lat="39.896149" lon="116.64537">
        <time>2021-06-30T12:42:25Z</time>
      </trkpt>
      <trkpt lat="39.896122" lon="116.645533">
        <time>2021-06-30T12:42:30Z</time>
      </trkpt>
      <trkpt lat="39.896083" lon="116.645702">
        <time>2021-06-30T12:42:35Z</time>
      </trkpt>
      <trkpt lat="39.896057" lon="116.645882">
        <time>2021-06-30T12:42:40Z</time>
      </trkpt>
      <trkpt lat="39.896042" lon="116.646003">
        <time>2021-06-30T12:42:45Z</time>
      </trkpt>
      <trkpt lat="39.896026" lon="116.646119">
        <time>2021-06-30T12:42:50Z</time>
      </trkpt>
      <trkpt lat="39.896026" lon="116.646232">
        <time>2021-06-30T12:42:55Z</time>
      </trkpt>
      <trkpt lat="39.896024" lon="116.646339">
        <time>2021-06-30T12:43:00Z</time>
      </trkpt>
      <trkpt lat="39.896016" lon="116.646456">
        <time>2021-06-30T12:43:05Z</time>
      </trkpt>
      <trkpt lat="39.896016" lon="116.646547">
        <time>2021-06-30T12:43:10Z</time>
      </trkpt>
      <trkpt lat="39.896001" lon="116.646685">
        <time>2021-06-30T12:43:15Z</time>
      </trkpt>
      <trkpt lat="39.895983" lon="116.646812">
        <time>2021-06-30T12:43:20Z</time>
      </trkpt>
      <trkpt lat="39.895964" lon="116.646977">
        <time>2021-06-30T12:43:25Z</time>
      </trkpt>
      <trkpt lat="39.89589" lon="116.647121">
        <time>2021-06-30T12:43:30Z</time>
      </trkpt>
      <trkpt lat="39.89579" lon="116.647223">
        <time>2021-06-30T12:43:35Z</time>
      </trkpt>
      <trkpt lat="39.895756" lon="116.647374">
        <time>2021-06-30T12:43:40Z</time>
      </trkpt>
      <trkpt lat="39.89572" lon="116.647519">
        <time>2021-06-30T12:43:45Z</time>
      </trkpt>
      <trkpt lat="39.895665" lon="116.647665">
        <time>2021-06-30T12:43:50Z</time>
      </trkpt>
      <trkpt lat="39.895641" lon="116.647905">
        <time>2021-06-30T12:43:55Z</time>
      </trkpt>
      <trkpt lat="39.895642" lon="116.647999">
        <time>2021-06-30T12:44:00Z</time>
      </trkpt>
      <trkpt lat="39.895663" lon="116.648148">
        <time>2021-06-30T12:44:05Z</time>
      </trkpt>
      <trkpt lat="39.895678" lon="116.6483">
        <time>2021-06-30T12:44:10Z</time>
      </trkpt>
      <trkpt lat="39.895708" lon="116.648474">
        <time>2021-06-30T12:44:15Z</time>
      </trkpt>
      <trkpt lat="39.895798" lon="116.648442">
        <time>2021-06-30T12:44:20Z</time>
      </trkpt>
      <trkpt lat="39.895845" lon="116.64829">
        <time>2021-06-30T12:44:25Z</time>
      </trkpt>
      <trkpt lat="39.895889" lon="116.648132">
        <time>2021-06-30T12:44:30Z</time>
      </trkpt>
      <trkpt lat="39.895931" lon="116.647955">
        <time>2021-06-30T12:44:35Z</time>
      </trkpt>
      <trkpt lat="39.895932" lon="116.647801">
        <time>2021-06-30T12:44:40Z</time>
      </trkpt>
      <trkpt lat="39.895942" lon="116.647699">
        <time>2021-06-30T12:44:45Z</time>
      </trkpt>
      <trkpt lat="39.895936" lon="116.6476">
        <time>2021-06-30T12:44:50Z</time>
      </trkpt>
      <trkpt lat="39.895949" lon="116.647444">
        <time>2021-06-30T12:44:55Z</time>
      </trkpt>
      <trkpt lat="39.895965" lon="116.647273">
        <time>2021-06-30T12:45:00Z</time>
      </trkpt>
      <trkpt lat="39.895916" lon="116.647154">
        <time>2021-06-30T12:45:05Z</time>
      </trkpt>
      <trkpt lat="39.895806" lon="116.647181">
        <time>2021-06-30T12:45:10Z</time>
      </trkpt>
      <trkpt lat="39.895758" lon="116.647281">
        <time>2021-06-30T12:45:15Z</time>
      </trkpt>
      <trkpt lat="39.895724" lon="116.647367">
        <time>2021-06-30T12:45:20Z</time>
      </trkpt>
      <trkpt lat="39.895696" lon="116.647515">
        <time>2021-06-30T12:45:25Z</time>
      </trkpt>
      <trkpt lat="39.895704" lon="116.647699">
        <time>2021-06-30T12:45:30Z</time>
      </trkpt>
      <trkpt lat="39.895703" lon="116.64791">
        <time>2021-06-30T12:45:35Z</time>
      </trkpt>
      <trkpt lat="39.895688" lon="116.648018">
        <time>2021-06-30T12:45:40Z</time>
      </trkpt>
      <trkpt lat="39.895696" lon="116.648107">
        <time>2021-06-30T12:45:45Z</time>
      </trkpt>
      <trkpt lat="39.895692" lon="116.648285">
        <time>2021-06-30T12:45:50Z</time>
      </trkpt>
      <trkpt lat="39.895706" lon="116.64846">
        <time>2021-06-30T12:45:55Z</time>
      </trkpt>
      <trkpt lat="39.895803" lon="116.648476">
        <time>2021-06-30T12:46:00Z</time>
      </trkpt>
      <trkpt lat="39.895845" lon="116.648301">
        <time>2021-06-30T12:46:05Z</time>
      </trkpt>
      <trkpt lat="39.895891" lon="116.648128">
        <time>2021-06-30T12:46:10Z</time>
      </trkpt>
      <trkpt lat="39.895926" lon="116.648021">
        <time>2021-06-30T12:46:15Z</time>
      </trkpt>
      <trkpt lat="39.895935" lon="116.647952">
        <time>2021-06-30T12:46:20Z</time>
      </trkpt>
      <trkpt lat="39.89594" lon="116.647833">
        <time>2021-06-30T12:46:25Z</time>
      </trkpt>
      <trkpt lat="39.895939" lon="116.647742">
        <time>2021-06-30T12:46:30Z</time>
      </trkpt>
      <trkpt lat="39.895963" lon="116.647649">
        <time>2021-06-30T12:46:35Z</time>
      </trkpt>
      <trkpt lat="39.895968" lon="116.647565">
        <time>2021-06-30T12:46:40Z</time>
      </trkpt>
      <trkpt lat="39.895986" lon="116.64747">
        <time>2021-06-30T12:46:45Z</time>
      </trkpt>
      <trkpt lat="39.895979" lon="116.647408">
        <time>2021-06-30T12:46:50Z</time>
      </trkpt>
      <trkpt lat="39.895979" lon="116.647314">
        <time>2021-06-30T12:46:55Z</time>
      </trkpt>
      <trkpt lat="39.895979" lon="116.647223">
        <time>2021-06-30T12:47:00Z</time>
      </trkpt>
      <trkpt lat="39.895974" lon="116.647135">
        <time>2021-06-30T12:47:05Z</time>
      </trkpt>
      <trkpt lat="39.89597" lon="116.647057">
        <time>2021-06-30T12:47:10Z</time>
      </trkpt>
      <trkpt lat="39.895964" lon="116.646968">
        <time>2021-06-30T12:47:15Z</time>
      </trkpt>
      <trkpt lat="39.89598" lon="116.646853">
        <time>2021-06-30T12:47:20Z</time>
      </trkpt>
      <trkpt lat="39.896027" lon="116.646696">
        <time>2021-06-30T12:47:25Z</time>
      </trkpt>
      <trkpt lat="39.896032" lon="116.64654">
        <time>2021-06-30T12:47:30Z</time>
      </trkpt>
      <trkpt lat="39.896022" lon="116.646375">
        <time>2021-06-30T12:47:35Z</time>
      </trkpt>
      <trkpt lat="39.896023" lon="116.646218">
        <time>2021-06-30T12:47:40Z</time>
      </trkpt>
      <trkpt lat="39.896046" lon="116.64606">
        <time>2021-06-30T12:47:45Z</time>
      </trkpt>
      <trkpt lat="39.896069" lon="116.645928">
        <time>2021-06-30T12:47:50Z</time>
      </trkpt>
      <trkpt lat="39.896092" lon="116.645792">
        <time>2021-06-30T12:47:55Z</time>
      </trkpt>
      <trkpt lat="39.896128" lon="116.645673">
        <time>2021-06-30T12:48:00Z</time>
      </trkpt>
      <trkpt lat="39.89616" lon="116.645531">
        <time>2021-06-30T12:48:05Z</time>
      </trkpt>
      <trkpt lat="39.896178" lon="116.645365">
        <time>2021-06-30T12:48:10Z</time>
      </trkpt>
      <trkpt lat="39.896175" lon="116.645225">
        <time>2021-06-30T12:48:15Z</time>
      </trkpt>
      <trkpt lat="39.89618" lon="116.644976">
        <time>2021-06-30T12:48:20Z</time>
      </trkpt>
      <trkpt lat="39.896184" lon="116.644947">
        <time>2021-06-30T12:48:25Z</time>
      </trkpt>
      <trkpt lat="39.89619" lon="116.644794">
        <time>2021-06-30T12:48:30Z</time>
      </trkpt>
      <trkpt lat="39.896205" lon="116.644674">
        <time>2021-06-30T12:48:35Z</time>
      </trkpt>
      <trkpt lat="39.896182" lon="116.644598">
        <time>2021-06-30T12:48:40Z</time>
      </trkpt>
      <trkpt lat="39.896211" lon="116.644472">
        <time>2021-06-30T12:48:45Z</time>
      </trkpt>
      <trkpt lat="39.896221" lon="116.644316">
        <time>2021-06-30T12:48:50Z</time>
      </trkpt>
      <trkpt lat="39.896215" lon="116.644147">
        <time>2021-06-30T12:48:55Z</time>
      </trkpt>
      <trkpt lat="39.896207" lon="116.643962">
        <time>2021-06-30T12:49:00Z</time>
      </trkpt>
      <trkpt lat="39.896195" lon="116.64373">
        <time>2021-06-30T12:49:05Z</time>
      </trkpt>
      <trkpt lat="39.896199" lon="116.643649">
        <time>2021-06-30T12:49:10Z</time>
      </trkpt>
      <trkpt lat="39.896212" lon="116.643559">
        <time>2021-06-30T12:49:15Z</time>
      </trkpt>
      <trkpt lat="39.896197" lon="116.643493">
        <time>2021-06-30T12:49:20Z</time>
      </trkpt>
      <trkpt lat="39.896174" lon="116.643396">
        <time>2021-06-30T12:49:25Z</time>
      </trkpt>
      <trkpt lat="39.896174" lon="116.643283">
        <time>2021-06-30T12:49:30Z</time>
      </trkpt>
      <trkpt lat="39.896173" lon="116.643098">
        <time>2021-06-30T12:49:35Z</time>
      </trkpt>
      <trkpt lat="39.896181" lon="116.642982">
        <time>2021-06-30T12:49:40Z</time>
      </trkpt>
      <trkpt lat="39.896192" lon="116.642808">
        <time>2021-06-30T12:49:45Z</time>
      </trkpt>
      <trkpt lat="39.896196" lon="116.642627">
        <time>2021-06-30T12:49:50Z</time>
      </trkpt>
      <trkpt lat="39.896193" lon="116.642423">
        <time>2021-06-30T12:49:55Z</time>
      </trkpt>
      <trkpt lat="39.896203" lon="116.642221">
        <time>2021-06-30T12:50:00Z</time>
      </trkpt>
      <trkpt lat="39.896226" lon="116.642037">
        <time>2021-06-30T12:50:05Z</time>
      </trkpt>
      <trkpt lat="39.896238" lon="116.641728">
        <time>2021-06-30T12:50:10Z</time>
      </trkpt>
      <trkpt lat="39.896241" lon="116.641694">
        <time>2021-06-30T12:50:15Z</time>
      </trkpt>
      <trkpt lat="39.896249" lon="116.641529">
        <time>2021-06-30T12:50:20Z</time>
      </trkpt>
      <trkpt lat="39.896265" lon="116.641388">
        <time>2021-06-30T12:50:25Z</time>
      </trkpt>
      <trkpt lat="39.896269" lon="116.641249">
        <time>2021-06-30T12:50:30Z</time>
      </trkpt>
      <trkpt lat="39.896241" lon="116.641165">
        <time>2021-06-30T12:50:35Z</time>
      </trkpt>
      <trkpt lat="39.896233" lon="116.641094">
        <time>2021-06-30T12:50:40Z</time>
      </trkpt>
      <trkpt lat="39.896241" lon="116.640993">
        <time>2021-06-30T12:50:45Z</time>
      </trkpt>
      <trkpt lat="39.89625" lon="116.640907">
        <time>2021-06-30T12:50:50Z</time>
      </trkpt>
      <trkpt lat="39.896258" lon="116.640845">
        <time>2021-06-30T12:50:55Z</time>
      </trkpt>
      <trkpt lat="39.896266" lon="116.640721">
        <time>2021-06-30T12:51:00Z</time>
      </trkpt>
      <trkpt lat="39.896288" lon="116.640585">
        <time>2021-06-30T12:51:05Z</time>
      </trkpt>
      <trkpt lat="39.896281" lon="116.640417">
        <time>2021-06-30T12:51:10Z</time>
      </trkpt>
      <trkpt lat="39.896293" lon="116.640186">
        <time>2021-06-30T12:51:15Z</time>
      </trkpt>
      <trkpt lat="39.89627" lon="116.640006">
        <time>2021-06-30T12:51:20Z</time>
      </trkpt>
      <trkpt lat="39.896273" lon="116.639856">
        <time>2021-06-30T12:51:25Z</time>
      </trkpt>
      <trkpt lat="39.896264" lon="116.639641">
        <time>2021-06-30T12:51:30Z</time>
      </trkpt>
      <trkpt lat="39.896253" lon="116.639452">
        <time>2021-06-30T12:51:35Z</time>
      </trkpt>
      <trkpt lat="39.896238" lon="116.639263">
        <time>2021-06-30T12:51:40Z</time>
      </trkpt>
      <trkpt lat="39.896224" lon="116.639082">
        <time>2021-06-30T12:51:45Z</time>
      </trkpt>
      <trkpt lat="39.896189" lon="116.638906">
        <time>2021-06-30T12:51:50Z</time>
      </trkpt>
      <trkpt lat="39.896193" lon="116.638685">
        <time>2021-06-30T12:51:55Z</time>
      </trkpt>
      <trkpt lat="39.896186" lon="116.638478">
        <time>2021-06-30T12:52:00Z</time>
      </trkpt>
      <trkpt lat="39.896189" lon="116.638362">
        <time>2021-06-30T12:52:05Z</time>
      </trkpt>
      <trkpt lat="39.896207" lon="116.638222">
        <time>2021-06-30T12:52:10Z</time>
      </trkpt>
      <trkpt lat="39.896204" lon="116.638117">
        <time>2021-06-30T12:52:15Z</time>
      </trkpt>
      <trkpt lat="39.896211" lon="116.63805">
        <time>2021-06-30T12:52:20Z</time>
      </trkpt>
      <trkpt lat="39.89621" lon="116.637952">
        <time>2021-06-30T12:52:25Z</time>
      </trkpt>
      <trkpt lat="39.896185" lon="116.637864">
        <time>2021-06-30T12:52:30Z</time>
      </trkpt>
      <trkpt lat="39.896171" lon="116.637789">
        <time>2021-06-30T12:52:35Z</time>
      </trkpt>
      <trkpt lat="39.896192" lon="116.637744">
        <time>2021-06-30T12:52:40Z</time>
      </trkpt>
      <trkpt lat="39.896186" lon="116.637655">
        <time>2021-06-30T12:52:45Z</time>
      </trkpt>
      <trkpt lat="39.896178" lon="116.637563">
        <time>2021-06-30T12:52:50Z</time>
      </trkpt>
      <trkpt lat="39.896168" lon="116.63746">
        <time>2021-06-30T12:52:55Z</time>
      </trkpt>
      <trkpt lat="39.896154" lon="116.637373">
        <time>2021-06-30T12:53:00Z</time>
      </trkpt>
      <trkpt lat="39.896142" lon="116.63729">
        <time>2021-06-30T12:53:05Z</time>
      </trkpt>
      <trkpt lat="39.896132" lon="116.637202">
        <time>2021-06-30T12:53:10Z</time>
      </trkpt>
      <trkpt lat="39.896134" lon="116.637104">
        <time>2021-06-30T12:53:15Z</time>
      </trkpt>
      <trkpt lat="39.896129" lon="116.636985">
        <time>2021-06-30T12:53:20Z</time>
      </trkpt>
      <trkpt lat="39.896108" lon="116.636866">
        <time>2021-06-30T12:53:25Z</time>
      </trkpt>
      <trkpt lat="39.896066" lon="116.636729">
        <time>2021-06-30T12:53:30Z</time>
      </trkpt>
      <trkpt lat="39.895979" lon="116.636602">
        <time>2021-06-30T12:53:35Z</time>
      </trkpt>
      <trkpt lat="39.895876" lon="116.636507">
        <time>2021-06-30T12:53:40Z</time>
      </trkpt>
      <trkpt lat="39.895915" lon="116.636396">
        <time>2021-06-30T12:53:45Z</time>
      </trkpt>
      <trkpt lat="39.896035" lon="116.636313">
        <time>2021-06-30T12:53:50Z</time>
      </trkpt>
      <trkpt lat="39.896147" lon="116.6362">
        <time>2021-06-30T12:53:55Z</time>
      </trkpt>
      <trkpt lat="39.896232" lon="116.636092">
        <time>2021-06-30T12:54:00Z</time>
      </trkpt>
      <trkpt lat="39.896363" lon="116.636002">
        <time>2021-06-30T12:54:05Z</time>
      </trkpt>
      <trkpt lat="39.896518" lon="116.635975">
        <time>2021-06-30T12:54:10Z</time>
      </trkpt>
      <trkpt lat="39.896679" lon="116.635893">
        <time>2021-06-30T12:54:15Z</time>
      </trkpt>
      <trkpt lat="39.896786" lon="116.635817">
        <time>2021-06-30T12:54:20Z</time>
      </trkpt>
      <trkpt lat="39.896854" lon="116.635777">
        <time>2021-06-30T12:54:25Z</time>
      </trkpt>
      <trkpt lat="39.896948" lon="116.635738">
        <time>2021-06-30T12:54:30Z</time>
      </trkpt>
      <trkpt lat="39.897013" lon="116.635725">
        <time>2021-06-30T12:54:35Z</time>
      </trkpt>
      <trkpt lat="39.8971" lon="116.635673">
        <time>2021-06-30T12:54:40Z</time>
      </trkpt>
      <trkpt lat="39.89718" lon="116.635619">
        <time>2021-06-30T12:54:45Z</time>
      </trkpt>
      <trkpt lat="39.897246" lon="116.63558">
        <time>2021-06-30T12:54:50Z</time>
      </trkpt>
      <trkpt lat="39.897317" lon="116.635529">
        <time>2021-06-30T12:54:55Z</time>
      </trkpt>
      <trkpt lat="39.897394" lon="116.635495">
        <time>2021-06-30T12:55:00Z</time>
      </trkpt>
      <trkpt lat="39.897446" lon="116.635466">
        <time>2021-06-30T12:55:05Z</time>
      </trkpt>
      <trkpt lat="39.897514" lon="116.635423">
        <time>2021-06-30T12:55:10Z</time>
      </trkpt>
      <trkpt lat="39.897586" lon="116.635369">
        <time>2021-06-30T12:55:15Z</time>
      </trkpt>
      <trkpt lat="39.897656" lon="116.635329">
        <time>2021-06-30T12:55:20Z</time>
      </trkpt>
      <trkpt lat="39.897739" lon="116.635281">
        <time>2021-06-30T12:55:25Z</time>
      </trkpt>
      <trkpt lat="39.897836" lon="116.635232">
        <time>2021-06-30T12:55:30Z</time>
      </trkpt>
      <trkpt lat="39.897944" lon="116.635176">
        <time>2021-06-30T12:55:35Z</time>
      </trkpt>
      <trkpt lat="39.898057" lon="116.635098">
        <time>2021-06-30T12:55:40Z</time>
      </trkpt>
      <trkpt lat="39.898183" lon="116.635017">
        <time>2021-06-30T12:55:45Z</time>
      </trkpt>
      <trkpt lat="39.898325" lon="116.63495">
        <time>2021-06-30T12:55:50Z</time>
      </trkpt>
      <trkpt lat="39.898458" lon="116.634868">
        <time>2021-06-30T12:55:55Z</time>
      </trkpt>
      <trkpt lat="39.898562" lon="116.634781">
        <time>2021-06-30T12:56:00Z</time>
      </trkpt>
      <trkpt lat="39.898712" lon="116.634685">
        <time>2021-06-30T12:56:05Z</time>
      </trkpt>
      <trkpt lat="39.898851" lon="116.634599">
        <time>2021-06-30T12:56:10Z</time>
      </trkpt>
      <trkpt lat="39.89899" lon="116.634511">
        <time>2021-06-30T12:56:15Z</time>
      </trkpt>
      <trkpt lat="39.899124" lon="116.634424">
        <time>2021-06-30T12:56:20Z</time>
      </trkpt>
      <trkpt lat="39.899259" lon="116.634347">
        <time>2021-06-30T12:56:25Z</time>
      </trkpt>
      <trkpt lat="39.899406" lon="116.634261">
        <time>2021-06-30T12:56:30Z</time>
      </trkpt>
      <trkpt lat="39.899531" lon="116.634166">
        <time>2021-06-30T12:56:35Z</time>
      </trkpt>
      <trkpt lat="39.899646" lon="116.634073">
        <time>2021-06-30T12:56:40Z</time>
      </trkpt>
      <trkpt lat="39.899809" lon="116.634008">
        <time>2021-06-30T12:56:45Z</time>
      </trkpt>
      <trkpt lat="39.89983" lon="116.634027">
        <time>2021-06-30T12:56:50Z</time>
      </trkpt>
      <trkpt lat="39.899889" lon="116.633986">
        <time>2021-06-30T12:56:55Z</time>
      </trkpt>
      <trkpt lat="39.899976" lon="116.633946">
        <time>2021-06-30T12:57:00Z</time>
      </trkpt>
      <trkpt lat="39.900088" lon="116.633904">
        <time>2021-06-30T12:57:05Z</time>
      </trkpt>
      <trkpt lat="39.900208" lon="116.633789">
        <time>2021-06-30T12:57:10Z</time>
      </trkpt>
      <trkpt lat="39.900442" lon="116.633609">
        <time>2021-06-30T12:57:15Z</time>
      </trkpt>
      <trkpt lat="39.900504" lon="116.633565">
        <time>2021-06-30T12:57:20Z</time>
      </trkpt>
      <trkpt lat="39.900662" lon="116.633454">
        <time>2021-06-30T12:57:25Z</time>
      </trkpt>
      <trkpt lat="39.900785" lon="116.633351">
        <time>2021-06-30T12:57:30Z</time>
      </trkpt>
      <trkpt lat="39.900862" lon="116.633274">
        <time>2021-06-30T12:57:35Z</time>
      </trkpt>
      <trkpt lat="39.900918" lon="116.633227">
        <time>2021-06-30T12:57:40Z</time>
      </trkpt>
      <trkpt lat="39.901005" lon="116.63314">
        <time>2021-06-30T12:57:45Z</time>
      </trkpt>
      <trkpt lat="39.900948" lon="116.633007">
        <time>2021-06-30T12:57:50Z</time>
      </trkpt>
      <trkpt lat="39.900853" lon="116.632873">
        <time>2021-06-30T12:57:55Z</time>
      </trkpt>
      <trkpt lat="39.900754" lon="116.632784">
        <time>2021-06-30T12:58:00Z</time>
      </trkpt>
      <trkpt lat="39.900662" lon="116.632781">
        <time>2021-06-30T12:58:05Z</time>
      </trkpt>
      <trkpt lat="39.900581" lon="116.632843">
        <time>2021-06-30T12:58:10Z</time>
      </trkpt>
      <trkpt lat="39.900516" lon="116.632904">
        <time>2021-06-30T12:58:15Z</time>
      </trkpt>
      <trkpt lat="39.900385" lon="116.632977">
        <time>2021-06-30T12:58:20Z</time>
      </trkpt>
      <trkpt lat="39.900315" lon="116.632995">
        <time>2021-06-30T12:58:25Z</time>
      </trkpt>
      <trkpt lat="39.900305" lon="116.633006">
        <time>2021-06-30T12:58:30Z</time>
      </trkpt>
      <trkpt lat="39.900257" lon="116.633073">
        <time>2021-06-30T12:58:35Z</time>
      </trkpt>
      <trkpt lat="39.900178" lon="116.633126">
        <time>2021-06-30T12:58:40Z</time>
      </trkpt>
      <trkpt lat="39.900104" lon="116.633191">
        <time>2021-06-30T12:58:45Z</time>
      </trkpt>
      <trkpt lat="39.900045" lon="116.63325">
        <time>2021-06-30T12:58:50Z</time>
      </trkpt>
      <trkpt lat="39.899973" lon="116.633311">
        <time>2021-06-30T12:58:55Z</time>
      </trkpt>
      <trkpt lat="39.899867" lon="116.633397">
        <time>2021-06-30T12:59:00Z</time>
      </trkpt>
      <trkpt lat="39.899848" lon="116.633427">
        <time>2021-06-30T12:59:05Z</time>
      </trkpt>
      <trkpt lat="39.899785" lon="116.633478">
        <time>2021-06-30T12:59:10Z</time>
      </trkpt>
      <trkpt lat="39.899686" lon="116.633554">
        <time>2021-06-30T12:59:15Z</time>
      </trkpt>
      <trkpt lat="39.899587" lon="116.633593">
        <time>2021-06-30T12:59:20Z</time>
      </trkpt>
      <trkpt lat="39.899485" lon="116.633631">
        <time>2021-06-30T12:59:25Z</time>
      </trkpt>
      <trkpt lat="39.899402" lon="116.633627">
        <time>2021-06-30T12:59:30Z</time>
      </trkpt>
      <trkpt lat="39.899338" lon="116.63368">
        <time>2021-06-30T12:59:35Z</time>
      </trkpt>
      <trkpt lat="39.899266" lon="116.633753">
        <time>2021-06-30T12:59:40Z</time>
      </trkpt>
      <trkpt lat="39.899208" lon="116.633809">
        <time>2021-06-30T12:59:45Z</time>
      </trkpt>
      <trkpt lat="39.89914" lon="116.633857">
        <time>2021-06-30T12:59:50Z</time>
      </trkpt>
      <trkpt lat="39.899073" lon="116.633876">
        <time>2021-06-30T12:59:55Z</time>
      </trkpt>
      <trkpt lat="39.89901" lon="116.633951">
        <time>2021-06-30T13:00:00Z</time>
      </trkpt>
      <trkpt lat="39.898903" lon="116.634032">
        <time>2021-06-30T13:00:05Z</time>
      </trkpt>
      <trkpt lat="39.898803" lon="116.634086">
        <time>2021-06-30T13:00:10Z</time>
      </trkpt>
      <trkpt lat="39.898789" lon="116.634095">
        <time>2021-06-30T13:00:15Z</time>
      </trkpt>
      <trkpt lat="39.898727" lon="116.634144">
        <time>2021-06-30T13:00:20Z</time>
      </trkpt>
      <trkpt lat="39.898682" lon="116.634161">
        <time>2021-06-30T13:00:25Z</time>
      </trkpt>
      <trkpt lat="39.898633" lon="116.634206">
        <time>2021-06-30T13:00:30Z</time>
      </trkpt>
      <trkpt lat="39.898562" lon="116.634243">
        <time>2021-06-30T13:00:35Z</time>
      </trkpt>
      <trkpt lat="39.898462" lon="116.634271">
        <time>2021-06-30T13:00:40Z</time>
      </trkpt>
      <trkpt lat="39.898417" lon="116.63432">
        <time>2021-06-30T13:00:45Z</time>
      </trkpt>
      <trkpt lat="39.898338" lon="116.634368">
        <time>2021-06-30T13:00:50Z</time>
      </trkpt>
      <trkpt lat="39.898257" lon="116.634418">
        <time>2021-06-30T13:00:55Z</time>
      </trkpt>
      <trkpt lat="39.898186" lon="116.634487">
        <time>2021-06-30T13:01:00Z</time>
      </trkpt>
      <trkpt lat="39.898134" lon="116.634536">
        <time>2021-06-30T13:01:05Z</time>
      </trkpt>
      <trkpt lat="39.898072" lon="116.634603">
        <time>2021-06-30T13:01:10Z</time>
      </trkpt>
      <trkpt lat="39.898022" lon="116.634555">
        <time>2021-06-30T13:01:15Z</time>
      </trkpt>
      <trkpt lat="39.898005" lon="116.634484">
        <time>2021-06-30T13:01:20Z</time>
      </trkpt>
      <trkpt lat="39.898005" lon="116.634484">
        <time>2021-06-30T13:01:25Z</time>
      </trkpt>
      <trkpt lat="39.89799" lon="116.634426">
        <time>2021-06-30T13:01:30Z</time>
      </trkpt>
      <trkpt lat="39.897759" lon="116.634261">
        <time>2021-06-30T13:01:35Z</time>
      </trkpt>
      <trkpt lat="39.897698" lon="116.634191">
        <time>2021-06-30T13:01:40Z</time>
      </trkpt>
      <trkpt lat="39.897677" lon="116.63412">
        <time>2021-06-30T13:01:45Z</time>
      </trkpt>
      <trkpt lat="39.897649" lon="116.63407">
        <time>2021-06-30T13:01:50Z</time>
      </trkpt>
      <trkpt lat="39.89763" lon="116.633999">
        <time>2021-06-30T13:01:55Z</time>
      </trkpt>
      <trkpt lat="39.897607" lon="116.633923">
        <time>2021-06-30T13:02:00Z</time>
      </trkpt>
      <trkpt lat="39.89756" lon="116.633749">
        <time>2021-06-30T13:02:05Z</time>
      </trkpt>
      <trkpt lat="39.897538" lon="116.633713">
        <time>2021-06-30T13:02:10Z</time>
      </trkpt>
      <trkpt lat="39.897502" lon="116.633701">
        <time>2021-06-30T13:02:15Z</time>
      </trkpt>
      <trkpt lat="39.897441" lon="116.633755">
        <time>2021-06-30T13:02:20Z</time>
      </trkpt>
      <trkpt lat="39.897372" lon="116.633795">
        <time>2021-06-30T13:02:25Z</time>
      </trkpt>
      <trkpt lat="39.897376" lon="116.633943">
        <time>2021-06-30T13:02:30Z</time>
      </trkpt>
      <trkpt lat="39.897401" lon="116.634079">
        <time>2021-06-30T13:02:35Z</time>
      </trkpt>
      <trkpt lat="39.897454" lon="116.634095">
        <time>2021-06-30T13:04:53Z</time>
      </trkpt>
    </trkseg>
  </trk>
</gpx>