<?xml version="1.0" encoding="UTF-8"?>
<gpx xmlns="http://www.topografix.com/GPX/1/1" xmlns:gpxtpx="http://www.garmin.com/xmlschemas/TrackPointExtension/v1" xmlns:xsi="http://www.w3.org/2001/XMLSchema-instance" xsi:schemaLocation="http://www.topografix.com/GPX/1/1 http://www.topografix.com/GPX/1/1/gpx.xsd" version="1.1" creator="gpx.py -- https://github.com/tkrajina/gpxpy">
  <trk>
    <name>gpx from keep</name>
    <trkseg>
      <trkpt lat="39.897415" lon="116.633872">
        <time>2021-07-07T13:17:07Z</time>
      </trkpt>
      <trkpt lat="39.897415" lon="116.633872">
        <time>2021-07-07T13:17:12Z</time>
      </trkpt>
      <trkpt lat="39.897394" lon="116.633821">
        <time>2021-07-07T13:17:17Z</time>
      </trkpt>
      <trkpt lat="39.897394" lon="116.633731">
        <time>2021-07-07T13:17:22Z</time>
      </trkpt>
      <trkpt lat="39.897661" lon="116.633807">
        <time>2021-07-07T13:17:27Z</time>
      </trkpt>
      <trkpt lat="39.897727" lon="116.633929">
        <time>2021-07-07T13:17:32Z</time>
      </trkpt>
      <trkpt lat="39.897839" lon="116.634104">
        <time>2021-07-07T13:17:37Z</time>
      </trkpt>
      <trkpt lat="39.897934" lon="116.634249">
        <time>2021-07-07T13:17:42Z</time>
      </trkpt>
      <trkpt lat="39.897959" lon="116.634443">
        <time>2021-07-07T13:17:47Z</time>
      </trkpt>
      <trkpt lat="39.89798" lon="116.634535">
        <time>2021-07-07T13:17:52Z</time>
      </trkpt>
      <trkpt lat="39.898024" lon="116.634698">
        <time>2021-07-07T13:17:57Z</time>
      </trkpt>
      <trkpt lat="39.898065" lon="116.634858">
        <time>2021-07-07T13:18:02Z</time>
      </trkpt>
      <trkpt lat="39.8981" lon="116.635023">
        <time>2021-07-07T13:18:07Z</time>
      </trkpt>
      <trkpt lat="39.898013" lon="116.635154">
        <time>2021-07-07T13:18:12Z</time>
      </trkpt>
      <trkpt lat="39.897901" lon="116.635213">
        <time>2021-07-07T13:18:17Z</time>
      </trkpt>
      <trkpt lat="39.897771" lon="116.635307">
        <time>2021-07-07T13:18:22Z</time>
      </trkpt>
      <trkpt lat="39.897647" lon="116.635348">
        <time>2021-07-07T13:18:27Z</time>
      </trkpt>
      <trkpt lat="39.897535" lon="116.6354">
        <time>2021-07-07T13:18:32Z</time>
      </trkpt>
      <trkpt lat="39.897421" lon="116.635469">
        <time>2021-07-07T13:18:37Z</time>
      </trkpt>
      <trkpt lat="39.897302" lon="116.635534">
        <time>2021-07-07T13:18:42Z</time>
      </trkpt>
      <trkpt lat="39.897201" lon="116.635606">
        <time>2021-07-07T13:18:47Z</time>
      </trkpt>
      <trkpt lat="39.89708" lon="116.635696">
        <time>2021-07-07T13:18:52Z</time>
      </trkpt>
      <trkpt lat="39.896955" lon="116.635745">
        <time>2021-07-07T13:18:57Z</time>
      </trkpt>
      <trkpt lat="39.896826" lon="116.635802">
        <time>2021-07-07T13:19:02Z</time>
      </trkpt>
      <trkpt lat="39.896705" lon="116.635894">
        <time>2021-07-07T13:19:07Z</time>
      </trkpt>
      <trkpt lat="39.896529" lon="116.636015">
        <time>2021-07-07T13:19:12Z</time>
      </trkpt>
      <trkpt lat="39.896436" lon="116.636089">
        <time>2021-07-07T13:19:17Z</time>
      </trkpt>
      <trkpt lat="39.896358" lon="116.636128">
        <time>2021-07-07T13:19:22Z</time>
      </trkpt>
      <trkpt lat="39.89626" lon="116.636176">
        <time>2021-07-07T13:19:27Z</time>
      </trkpt>
      <trkpt lat="39.896156" lon="116.636253">
        <time>2021-07-07T13:19:32Z</time>
      </trkpt>
      <trkpt lat="39.896139" lon="116.63634">
        <time>2021-07-07T13:19:37Z</time>
      </trkpt>
      <trkpt lat="39.896076" lon="116.63643">
        <time>2021-07-07T13:19:42Z</time>
      </trkpt>
      <trkpt lat="39.896021" lon="116.636525">
        <time>2021-07-07T13:19:47Z</time>
      </trkpt>
      <trkpt lat="39.895986" lon="116.636608">
        <time>2021-07-07T13:19:52Z</time>
      </trkpt>
      <trkpt lat="39.89593" lon="116.636658">
        <time>2021-07-07T13:19:57Z</time>
      </trkpt>
      <trkpt lat="39.895951" lon="116.636754">
        <time>2021-07-07T13:20:02Z</time>
      </trkpt>
      <trkpt lat="39.896008" lon="116.63688">
        <time>2021-07-07T13:20:07Z</time>
      </trkpt>
      <trkpt lat="39.89605" lon="116.637057">
        <time>2021-07-07T13:20:12Z</time>
      </trkpt>
      <trkpt lat="39.896091" lon="116.637265">
        <time>2021-07-07T13:20:17Z</time>
      </trkpt>
      <trkpt lat="39.896122" lon="116.637416">
        <time>2021-07-07T13:20:22Z</time>
      </trkpt>
      <trkpt lat="39.896122" lon="116.637565">
        <time>2021-07-07T13:20:27Z</time>
      </trkpt>
      <trkpt lat="39.896116" lon="116.637733">
        <time>2021-07-07T13:20:32Z</time>
      </trkpt>
      <trkpt lat="39.896111" lon="116.637915">
        <time>2021-07-07T13:20:37Z</time>
      </trkpt>
      <trkpt lat="39.896104" lon="116.638081">
        <time>2021-07-07T13:20:42Z</time>
      </trkpt>
      <trkpt lat="39.896071" lon="116.638223">
        <time>2021-07-07T13:20:47Z</time>
      </trkpt>
      <trkpt lat="39.896118" lon="116.638381">
        <time>2021-07-07T13:20:52Z</time>
      </trkpt>
      <trkpt lat="39.896121" lon="116.638563">
        <time>2021-07-07T13:20:57Z</time>
      </trkpt>
      <trkpt lat="39.896132" lon="116.638673">
        <time>2021-07-07T13:21:02Z</time>
      </trkpt>
      <trkpt lat="39.896139" lon="116.638884">
        <time>2021-07-07T13:21:07Z</time>
      </trkpt>
      <trkpt lat="39.89616" lon="116.63909">
        <time>2021-07-07T13:21:12Z</time>
      </trkpt>
      <trkpt lat="39.896185" lon="116.639251">
        <time>2021-07-07T13:21:17Z</time>
      </trkpt>
      <trkpt lat="39.896192" lon="116.639411">
        <time>2021-07-07T13:21:22Z</time>
      </trkpt>
      <trkpt lat="39.896216" lon="116.639702">
        <time>2021-07-07T13:21:27Z</time>
      </trkpt>
      <trkpt lat="39.896218" lon="116.639775">
        <time>2021-07-07T13:21:32Z</time>
      </trkpt>
      <trkpt lat="39.896222" lon="116.639905">
        <time>2021-07-07T13:21:37Z</time>
      </trkpt>
      <trkpt lat="39.896216" lon="116.640117">
        <time>2021-07-07T13:21:42Z</time>
      </trkpt>
      <trkpt lat="39.896236" lon="116.640291">
        <time>2021-07-07T13:21:47Z</time>
      </trkpt>
      <trkpt lat="39.896239" lon="116.640481">
        <time>2021-07-07T13:21:52Z</time>
      </trkpt>
      <trkpt lat="39.896216" lon="116.640816">
        <time>2021-07-07T13:21:57Z</time>
      </trkpt>
      <trkpt lat="39.896212" lon="116.640846">
        <time>2021-07-07T13:22:02Z</time>
      </trkpt>
      <trkpt lat="39.896208" lon="116.641016">
        <time>2021-07-07T13:22:07Z</time>
      </trkpt>
      <trkpt lat="39.896233" lon="116.641213">
        <time>2021-07-07T13:22:12Z</time>
      </trkpt>
      <trkpt lat="39.896237" lon="116.641403">
        <time>2021-07-07T13:22:17Z</time>
      </trkpt>
      <trkpt lat="39.896221" lon="116.641588">
        <time>2021-07-07T13:22:22Z</time>
      </trkpt>
      <trkpt lat="39.896253" lon="116.641825">
        <time>2021-07-07T13:22:27Z</time>
      </trkpt>
      <trkpt lat="39.896277" lon="116.641893">
        <time>2021-07-07T13:22:32Z</time>
      </trkpt>
      <trkpt lat="39.896256" lon="116.642091">
        <time>2021-07-07T13:22:37Z</time>
      </trkpt>
      <trkpt lat="39.896216" lon="116.642257">
        <time>2021-07-07T13:22:42Z</time>
      </trkpt>
      <trkpt lat="39.896192" lon="116.64241">
        <time>2021-07-07T13:22:47Z</time>
      </trkpt>
      <trkpt lat="39.896186" lon="116.642587">
        <time>2021-07-07T13:22:52Z</time>
      </trkpt>
      <trkpt lat="39.896182" lon="116.642901">
        <time>2021-07-07T13:22:57Z</time>
      </trkpt>
      <trkpt lat="39.896181" lon="116.642961">
        <time>2021-07-07T13:23:02Z</time>
      </trkpt>
      <trkpt lat="39.896173" lon="116.643146">
        <time>2021-07-07T13:23:07Z</time>
      </trkpt>
      <trkpt lat="39.896166" lon="116.643353">
        <time>2021-07-07T13:23:12Z</time>
      </trkpt>
      <trkpt lat="39.896176" lon="116.643482">
        <time>2021-07-07T13:23:17Z</time>
      </trkpt>
      <trkpt lat="39.896169" lon="116.64362">
        <time>2021-07-07T13:23:22Z</time>
      </trkpt>
      <trkpt lat="39.89618" lon="116.643845">
        <time>2021-07-07T13:23:27Z</time>
      </trkpt>
      <trkpt lat="39.896192" lon="116.643992">
        <time>2021-07-07T13:23:32Z</time>
      </trkpt>
      <trkpt lat="39.896179" lon="116.644182">
        <time>2021-07-07T13:23:37Z</time>
      </trkpt>
      <trkpt lat="39.896174" lon="116.644348">
        <time>2021-07-07T13:23:42Z</time>
      </trkpt>
      <trkpt lat="39.896178" lon="116.644541">
        <time>2021-07-07T13:23:47Z</time>
      </trkpt>
      <trkpt lat="39.896171" lon="116.644704">
        <time>2021-07-07T13:23:52Z</time>
      </trkpt>
      <trkpt lat="39.896165" lon="116.644854">
        <time>2021-07-07T13:23:57Z</time>
      </trkpt>
      <trkpt lat="39.896162" lon="116.645021">
        <time>2021-07-07T13:24:02Z</time>
      </trkpt>
      <trkpt lat="39.896147" lon="116.645291">
        <time>2021-07-07T13:24:07Z</time>
      </trkpt>
      <trkpt lat="39.896129" lon="116.645382">
        <time>2021-07-07T13:24:12Z</time>
      </trkpt>
      <trkpt lat="39.8961" lon="116.645594">
        <time>2021-07-07T13:24:17Z</time>
      </trkpt>
      <trkpt lat="39.896066" lon="116.645778">
        <time>2021-07-07T13:24:22Z</time>
      </trkpt>
      <trkpt lat="39.896046" lon="116.64594">
        <time>2021-07-07T13:24:27Z</time>
      </trkpt>
      <trkpt lat="39.896037" lon="116.646138">
        <time>2021-07-07T13:24:32Z</time>
      </trkpt>
      <trkpt lat="39.896028" lon="116.646278">
        <time>2021-07-07T13:24:37Z</time>
      </trkpt>
      <trkpt lat="39.896024" lon="116.646446">
        <time>2021-07-07T13:24:42Z</time>
      </trkpt>
      <trkpt lat="39.896019" lon="116.646646">
        <time>2021-07-07T13:24:47Z</time>
      </trkpt>
      <trkpt lat="39.89601" lon="116.646755">
        <time>2021-07-07T13:24:52Z</time>
      </trkpt>
      <trkpt lat="39.895979" lon="116.646913">
        <time>2021-07-07T13:24:57Z</time>
      </trkpt>
      <trkpt lat="39.895949" lon="116.646947">
        <time>2021-07-07T13:25:02Z</time>
      </trkpt>
      <trkpt lat="39.895949" lon="116.646947">
        <time>2021-07-07T13:25:07Z</time>
      </trkpt>
      <trkpt lat="39.89602" lon="116.647075">
        <time>2021-07-07T13:25:12Z</time>
      </trkpt>
      <trkpt lat="39.895998" lon="116.647067">
        <time>2021-07-07T13:25:17Z</time>
      </trkpt>
      <trkpt lat="39.895901" lon="116.647166">
        <time>2021-07-07T13:25:22Z</time>
      </trkpt>
      <trkpt lat="39.895786" lon="116.647238">
        <time>2021-07-07T13:25:27Z</time>
      </trkpt>
      <trkpt lat="39.895739" lon="116.647424">
        <time>2021-07-07T13:25:32Z</time>
      </trkpt>
      <trkpt lat="39.895715" lon="116.647616">
        <time>2021-07-07T13:25:37Z</time>
      </trkpt>
      <trkpt lat="39.8957" lon="116.647721">
        <time>2021-07-07T13:25:42Z</time>
      </trkpt>
      <trkpt lat="39.895688" lon="116.647958">
        <time>2021-07-07T13:25:47Z</time>
      </trkpt>
      <trkpt lat="39.895686" lon="116.648018">
        <time>2021-07-07T13:25:52Z</time>
      </trkpt>
      <trkpt lat="39.895673" lon="116.648164">
        <time>2021-07-07T13:25:57Z</time>
      </trkpt>
      <trkpt lat="39.895656" lon="116.648323">
        <time>2021-07-07T13:26:02Z</time>
      </trkpt>
      <trkpt lat="39.895666" lon="116.648507">
        <time>2021-07-07T13:26:07Z</time>
      </trkpt>
      <trkpt lat="39.89574" lon="116.648501">
        <time>2021-07-07T13:26:12Z</time>
      </trkpt>
      <trkpt lat="39.895796" lon="116.648308">
        <time>2021-07-07T13:26:17Z</time>
      </trkpt>
      <trkpt lat="39.895825" lon="116.64812">
        <time>2021-07-07T13:26:22Z</time>
      </trkpt>
      <trkpt lat="39.89589" lon="116.647985">
        <time>2021-07-07T13:26:27Z</time>
      </trkpt>
      <trkpt lat="39.895943" lon="116.647821">
        <time>2021-07-07T13:26:32Z</time>
      </trkpt>
      <trkpt lat="39.895936" lon="116.647613">
        <time>2021-07-07T13:26:37Z</time>
      </trkpt>
      <trkpt lat="39.895944" lon="116.647442">
        <time>2021-07-07T13:26:42Z</time>
      </trkpt>
      <trkpt lat="39.89598" lon="116.647291">
        <time>2021-07-07T13:26:47Z</time>
      </trkpt>
      <trkpt lat="39.895933" lon="116.647128">
        <time>2021-07-07T13:26:52Z</time>
      </trkpt>
      <trkpt lat="39.895806" lon="116.647161">
        <time>2021-07-07T13:26:57Z</time>
      </trkpt>
      <trkpt lat="39.895739" lon="116.647284">
        <time>2021-07-07T13:27:02Z</time>
      </trkpt>
      <trkpt lat="39.895689" lon="116.64746">
        <time>2021-07-07T13:27:07Z</time>
      </trkpt>
      <trkpt lat="39.895668" lon="116.647693">
        <time>2021-07-07T13:27:12Z</time>
      </trkpt>
      <trkpt lat="39.895653" lon="116.647944">
        <time>2021-07-07T13:27:17Z</time>
      </trkpt>
      <trkpt lat="39.895618" lon="116.648075">
        <time>2021-07-07T13:27:22Z</time>
      </trkpt>
      <trkpt lat="39.895599" lon="116.648236">
        <time>2021-07-07T13:27:27Z</time>
      </trkpt>
      <trkpt lat="39.895581" lon="116.648429">
        <time>2021-07-07T13:27:32Z</time>
      </trkpt>
      <trkpt lat="39.895694" lon="116.648507">
        <time>2021-07-07T13:27:37Z</time>
      </trkpt>
      <trkpt lat="39.895783" lon="116.648351">
        <time>2021-07-07T13:27:42Z</time>
      </trkpt>
      <trkpt lat="39.895834" lon="116.648167">
        <time>2021-07-07T13:27:47Z</time>
      </trkpt>
      <trkpt lat="39.895906" lon="116.647958">
        <time>2021-07-07T13:27:52Z</time>
      </trkpt>
      <trkpt lat="39.895923" lon="116.647763">
        <time>2021-07-07T13:27:57Z</time>
      </trkpt>
      <trkpt lat="39.895933" lon="116.647613">
        <time>2021-07-07T13:28:02Z</time>
      </trkpt>
      <trkpt lat="39.895903" lon="116.647448">
        <time>2021-07-07T13:28:07Z</time>
      </trkpt>
      <trkpt lat="39.895941" lon="116.647262">
        <time>2021-07-07T13:28:12Z</time>
      </trkpt>
      <trkpt lat="39.895902" lon="116.647153">
        <time>2021-07-07T13:28:17Z</time>
      </trkpt>
      <trkpt lat="39.895794" lon="116.647251">
        <time>2021-07-07T13:28:22Z</time>
      </trkpt>
      <trkpt lat="39.895747" lon="116.647434">
        <time>2021-07-07T13:28:27Z</time>
      </trkpt>
      <trkpt lat="39.895688" lon="116.647588">
        <time>2021-07-07T13:28:32Z</time>
      </trkpt>
      <trkpt lat="39.895696" lon="116.647801">
        <time>2021-07-07T13:28:37Z</time>
      </trkpt>
      <trkpt lat="39.89568" lon="116.647992">
        <time>2021-07-07T13:28:42Z</time>
      </trkpt>
      <trkpt lat="39.895669" lon="116.648141">
        <time>2021-07-07T13:28:47Z</time>
      </trkpt>
      <trkpt lat="39.895651" lon="116.648301">
        <time>2021-07-07T13:28:52Z</time>
      </trkpt>
      <trkpt lat="39.895634" lon="116.648477">
        <time>2021-07-07T13:28:57Z</time>
      </trkpt>
      <trkpt lat="39.895662" lon="116.648508">
        <time>2021-07-07T13:29:02Z</time>
      </trkpt>
      <trkpt lat="39.895716" lon="116.648323">
        <time>2021-07-07T13:29:07Z</time>
      </trkpt>
      <trkpt lat="39.89579" lon="116.648127">
        <time>2021-07-07T13:29:12Z</time>
      </trkpt>
      <trkpt lat="39.895856" lon="116.648009">
        <time>2021-07-07T13:29:17Z</time>
      </trkpt>
      <trkpt lat="39.895872" lon="116.647858">
        <time>2021-07-07T13:29:22Z</time>
      </trkpt>
      <trkpt lat="39.8959" lon="116.647708">
        <time>2021-07-07T13:29:27Z</time>
      </trkpt>
      <trkpt lat="39.895921" lon="116.647576">
        <time>2021-07-07T13:29:32Z</time>
      </trkpt>
      <trkpt lat="39.895932" lon="116.647402">
        <time>2021-07-07T13:29:37Z</time>
      </trkpt>
      <trkpt lat="39.895982" lon="116.647228">
        <time>2021-07-07T13:29:42Z</time>
      </trkpt>
      <trkpt lat="39.895878" lon="116.647134">
        <time>2021-07-07T13:29:47Z</time>
      </trkpt>
      <trkpt lat="39.895776" lon="116.647269">
        <time>2021-07-07T13:29:52Z</time>
      </trkpt>
      <trkpt lat="39.895744" lon="116.647361">
        <time>2021-07-07T13:29:57Z</time>
      </trkpt>
      <trkpt lat="39.895682" lon="116.647541">
        <time>2021-07-07T13:30:02Z</time>
      </trkpt>
      <trkpt lat="39.895684" lon="116.647758">
        <time>2021-07-07T13:30:07Z</time>
      </trkpt>
      <trkpt lat="39.89566" lon="116.647956">
        <time>2021-07-07T13:30:12Z</time>
      </trkpt>
      <trkpt lat="39.89565" lon="116.64812">
        <time>2021-07-07T13:30:17Z</time>
      </trkpt>
      <trkpt lat="39.89565" lon="116.648235">
        <time>2021-07-07T13:30:22Z</time>
      </trkpt>
      <trkpt lat="39.895628" lon="116.648396">
        <time>2021-07-07T13:30:27Z</time>
      </trkpt>
      <trkpt lat="39.895726" lon="116.648475">
        <time>2021-07-07T13:30:32Z</time>
      </trkpt>
      <trkpt lat="39.895776" lon="116.648336">
        <time>2021-07-07T13:30:37Z</time>
      </trkpt>
      <trkpt lat="39.895819" lon="116.648116">
        <time>2021-07-07T13:30:42Z</time>
      </trkpt>
      <trkpt lat="39.895883" lon="116.647926">
        <time>2021-07-07T13:30:47Z</time>
      </trkpt>
      <trkpt lat="39.895896" lon="116.64774">
        <time>2021-07-07T13:30:52Z</time>
      </trkpt>
      <trkpt lat="39.895934" lon="116.647588">
        <time>2021-07-07T13:30:57Z</time>
      </trkpt>
      <trkpt lat="39.895955" lon="116.647403">
        <time>2021-07-07T13:31:02Z</time>
      </trkpt>
      <trkpt lat="39.895942" lon="116.647209">
        <time>2021-07-07T13:31:07Z</time>
      </trkpt>
      <trkpt lat="39.895893" lon="116.647097">
        <time>2021-07-07T13:31:12Z</time>
      </trkpt>
      <trkpt lat="39.89579" lon="116.647218">
        <time>2021-07-07T13:31:17Z</time>
      </trkpt>
      <trkpt lat="39.895768" lon="116.647391">
        <time>2021-07-07T13:31:22Z</time>
      </trkpt>
      <trkpt lat="39.895726" lon="116.647611">
        <time>2021-07-07T13:31:27Z</time>
      </trkpt>
      <trkpt lat="39.895707" lon="116.647742">
        <time>2021-07-07T13:31:32Z</time>
      </trkpt>
      <trkpt lat="39.895704" lon="116.647899">
        <time>2021-07-07T13:31:37Z</time>
      </trkpt>
      <trkpt lat="39.895682" lon="116.648018">
        <time>2021-07-07T13:31:42Z</time>
      </trkpt>
      <trkpt lat="39.895678" lon="116.648173">
        <time>2021-07-07T13:31:47Z</time>
      </trkpt>
      <trkpt lat="39.895637" lon="116.648328">
        <time>2021-07-07T13:31:52Z</time>
      </trkpt>
      <trkpt lat="39.895613" lon="116.648487">
        <time>2021-07-07T13:31:57Z</time>
      </trkpt>
      <trkpt lat="39.89564" lon="116.648643">
        <time>2021-07-07T13:32:02Z</time>
      </trkpt>
      <trkpt lat="39.895658" lon="116.64882">
        <time>2021-07-07T13:32:07Z</time>
      </trkpt>
      <trkpt lat="39.895603" lon="116.649">
        <time>2021-07-07T13:32:12Z</time>
      </trkpt>
      <trkpt lat="39.895509" lon="116.649129">
        <time>2021-07-07T13:32:17Z</time>
      </trkpt>
      <trkpt lat="39.895354" lon="116.649144">
        <time>2021-07-07T13:32:22Z</time>
      </trkpt>
      <trkpt lat="39.895223" lon="116.649076">
        <time>2021-07-07T13:32:27Z</time>
      </trkpt>
      <trkpt lat="39.895099" lon="116.648983">
        <time>2021-07-07T13:32:32Z</time>
      </trkpt>
      <trkpt lat="39.894977" lon="116.648897">
        <time>2021-07-07T13:32:37Z</time>
      </trkpt>
      <trkpt lat="39.894899" lon="116.648824">
        <time>2021-07-07T13:32:42Z</time>
      </trkpt>
      <trkpt lat="39.894849" lon="116.648786">
        <time>2021-07-07T13:32:47Z</time>
      </trkpt>
      <trkpt lat="39.894779" lon="116.648735">
        <time>2021-07-07T13:32:52Z</time>
      </trkpt>
      <trkpt lat="39.894691" lon="116.64875">
        <time>2021-07-07T13:32:57Z</time>
      </trkpt>
      <trkpt lat="39.894649" lon="116.648706">
        <time>2021-07-07T13:33:02Z</time>
      </trkpt>
      <trkpt lat="39.894576" lon="116.648655">
        <time>2021-07-07T13:33:07Z</time>
      </trkpt>
      <trkpt lat="39.894502" lon="116.648557">
        <time>2021-07-07T13:33:12Z</time>
      </trkpt>
      <trkpt lat="39.894412" lon="116.648456">
        <time>2021-07-07T13:33:17Z</time>
      </trkpt>
      <trkpt lat="39.894268" lon="116.648394">
        <time>2021-07-07T13:33:22Z</time>
      </trkpt>
      <trkpt lat="39.894145" lon="116.648344">
        <time>2021-07-07T13:33:27Z</time>
      </trkpt>
      <trkpt lat="39.894018" lon="116.64829">
        <time>2021-07-07T13:33:32Z</time>
      </trkpt>
      <trkpt lat="39.893906" lon="116.648253">
        <time>2021-07-07T13:33:37Z</time>
      </trkpt>
      <trkpt lat="39.893741" lon="116.648141">
        <time>2021-07-07T13:33:42Z</time>
      </trkpt>
      <trkpt lat="39.8937" lon="116.648123">
        <time>2021-07-07T13:33:47Z</time>
      </trkpt>
      <trkpt lat="39.893653" lon="116.648102">
        <time>2021-07-07T13:33:52Z</time>
      </trkpt>
      <trkpt lat="39.893577" lon="116.648066">
        <time>2021-07-07T13:33:57Z</time>
      </trkpt>
      <trkpt lat="39.893503" lon="116.648044">
        <time>2021-07-07T13:34:02Z</time>
      </trkpt>
      <trkpt lat="39.893438" lon="116.648014">
        <time>2021-07-07T13:34:07Z</time>
      </trkpt>
      <trkpt lat="39.893364" lon="116.648008">
        <time>2021-07-07T13:34:12Z</time>
      </trkpt>
      <trkpt lat="39.893256" lon="116.648">
        <time>2021-07-07T13:34:17Z</time>
      </trkpt>
      <trkpt lat="39.893143" lon="116.647997">
        <time>2021-07-07T13:34:22Z</time>
      </trkpt>
      <trkpt lat="39.893005" lon="116.647985">
        <time>2021-07-07T13:34:27Z</time>
      </trkpt>
      <trkpt lat="39.892845" lon="116.647977">
        <time>2021-07-07T13:34:32Z</time>
      </trkpt>
      <trkpt lat="39.892731" lon="116.647982">
        <time>2021-07-07T13:34:37Z</time>
      </trkpt>
      <trkpt lat="39.892593" lon="116.647981">
        <time>2021-07-07T13:34:42Z</time>
      </trkpt>
      <trkpt lat="39.892541" lon="116.647892">
        <time>2021-07-07T13:34:47Z</time>
      </trkpt>
      <trkpt lat="39.892566" lon="116.64772">
        <time>2021-07-07T13:34:52Z</time>
      </trkpt>
      <trkpt lat="39.89252" lon="116.647556">
        <time>2021-07-07T13:34:57Z</time>
      </trkpt>
      <trkpt lat="39.892502" lon="116.647353">
        <time>2021-07-07T13:35:02Z</time>
      </trkpt>
      <trkpt lat="39.892543" lon="116.647108">
        <time>2021-07-07T13:35:07Z</time>
      </trkpt>
      <trkpt lat="39.892551" lon="116.646997">
        <time>2021-07-07T13:35:12Z</time>
      </trkpt>
      <trkpt lat="39.892563" lon="116.646842">
        <time>2021-07-07T13:35:17Z</time>
      </trkpt>
      <trkpt lat="39.892564" lon="116.646685">
        <time>2021-07-07T13:35:22Z</time>
      </trkpt>
      <trkpt lat="39.892594" lon="116.64648">
        <time>2021-07-07T13:35:27Z</time>
      </trkpt>
      <trkpt lat="39.892639" lon="116.646378">
        <time>2021-07-07T13:35:32Z</time>
      </trkpt>
      <trkpt lat="39.892645" lon="116.646237">
        <time>2021-07-07T13:35:37Z</time>
      </trkpt>
      <trkpt lat="39.892644" lon="116.646095">
        <time>2021-07-07T13:35:42Z</time>
      </trkpt>
      <trkpt lat="39.892606" lon="116.645893">
        <time>2021-07-07T13:35:47Z</time>
      </trkpt>
      <trkpt lat="39.892538" lon="116.645788">
        <time>2021-07-07T13:35:52Z</time>
      </trkpt>
      <trkpt lat="39.892409" lon="116.645708">
        <time>2021-07-07T13:35:57Z</time>
      </trkpt>
      <trkpt lat="39.89225" lon="116.645617">
        <time>2021-07-07T13:36:02Z</time>
      </trkpt>
      <trkpt lat="39.892133" lon="116.645577">
        <time>2021-07-07T13:36:07Z</time>
      </trkpt>
      <trkpt lat="39.891998" lon="116.645529">
        <time>2021-07-07T13:36:12Z</time>
      </trkpt>
      <trkpt lat="39.891873" lon="116.645472">
        <time>2021-07-07T13:36:17Z</time>
      </trkpt>
      <trkpt lat="39.891779" lon="116.645423">
        <time>2021-07-07T13:36:22Z</time>
      </trkpt>
      <trkpt lat="39.891719" lon="116.645384">
        <time>2021-07-07T13:36:27Z</time>
      </trkpt>
      <trkpt lat="39.891637" lon="116.645372">
        <time>2021-07-07T13:36:32Z</time>
      </trkpt>
      <trkpt lat="39.891514" lon="116.645306">
        <time>2021-07-07T13:36:37Z</time>
      </trkpt>
      <trkpt lat="39.891499" lon="116.645317">
        <time>2021-07-07T13:36:42Z</time>
      </trkpt>
      <trkpt lat="39.891535" lon="116.645408">
        <time>2021-07-07T13:36:47Z</time>
      </trkpt>
      <trkpt lat="39.891679" lon="116.645469">
        <time>2021-07-07T13:36:52Z</time>
      </trkpt>
      <trkpt lat="39.891815" lon="116.645514">
        <time>2021-07-07T13:36:57Z</time>
      </trkpt>
      <trkpt lat="39.891939" lon="116.645543">
        <time>2021-07-07T13:37:02Z</time>
      </trkpt>
      <trkpt lat="39.892084" lon="116.645604">
        <time>2021-07-07T13:37:07Z</time>
      </trkpt>
      <trkpt lat="39.892236" lon="116.64566">
        <time>2021-07-07T13:37:12Z</time>
      </trkpt>
      <trkpt lat="39.892377" lon="116.645729">
        <time>2021-07-07T13:37:17Z</time>
      </trkpt>
      <trkpt lat="39.892535" lon="116.6458">
        <time>2021-07-07T13:37:22Z</time>
      </trkpt>
      <trkpt lat="39.892664" lon="116.645906">
        <time>2021-07-07T13:37:27Z</time>
      </trkpt>
      <trkpt lat="39.892697" lon="116.646099">
        <time>2021-07-07T13:37:32Z</time>
      </trkpt>
      <trkpt lat="39.892665" lon="116.646246">
        <time>2021-07-07T13:37:37Z</time>
      </trkpt>
      <trkpt lat="39.89266" lon="116.646333">
        <time>2021-07-07T13:37:42Z</time>
      </trkpt>
      <trkpt lat="39.892642" lon="116.646495">
        <time>2021-07-07T13:37:47Z</time>
      </trkpt>
      <trkpt lat="39.892625" lon="116.646677">
        <time>2021-07-07T13:37:52Z</time>
      </trkpt>
      <trkpt lat="39.892609" lon="116.646837">
        <time>2021-07-07T13:37:57Z</time>
      </trkpt>
      <trkpt lat="39.892591" lon="116.646968">
        <time>2021-07-07T13:38:02Z</time>
      </trkpt>
      <trkpt lat="39.892591" lon="116.647143">
        <time>2021-07-07T13:38:07Z</time>
      </trkpt>
      <trkpt lat="39.892582" lon="116.647323">
        <time>2021-07-07T13:38:12Z</time>
      </trkpt>
      <trkpt lat="39.892567" lon="116.647487">
        <time>2021-07-07T13:38:17Z</time>
      </trkpt>
      <trkpt lat="39.892574" lon="116.647615">
        <time>2021-07-07T13:38:22Z</time>
      </trkpt>
      <trkpt lat="39.892552" lon="116.647759">
        <time>2021-07-07T13:38:27Z</time>
      </trkpt>
      <trkpt lat="39.892543" lon="116.647913">
        <time>2021-07-07T13:38:32Z</time>
      </trkpt>
      <trkpt lat="39.89265" lon="116.647973">
        <time>2021-07-07T13:38:37Z</time>
      </trkpt>
      <trkpt lat="39.892826" lon="116.647984">
        <time>2021-07-07T13:38:42Z</time>
      </trkpt>
      <trkpt lat="39.892928" lon="116.648013">
        <time>2021-07-07T13:38:47Z</time>
      </trkpt>
      <trkpt lat="39.893078" lon="116.648017">
        <time>2021-07-07T13:38:52Z</time>
      </trkpt>
      <trkpt lat="39.893169" lon="116.648008">
        <time>2021-07-07T13:38:57Z</time>
      </trkpt>
      <trkpt lat="39.893322" lon="116.648027">
        <time>2021-07-07T13:39:02Z</time>
      </trkpt>
      <trkpt lat="39.893441" lon="116.648025">
        <time>2021-07-07T13:39:07Z</time>
      </trkpt>
      <trkpt lat="39.893577" lon="116.648074">
        <time>2021-07-07T13:39:12Z</time>
      </trkpt>
      <trkpt lat="39.893712" lon="116.648185">
        <time>2021-07-07T13:39:17Z</time>
      </trkpt>
      <trkpt lat="39.893843" lon="116.648229">
        <time>2021-07-07T13:39:22Z</time>
      </trkpt>
      <trkpt lat="39.893991" lon="116.64828">
        <time>2021-07-07T13:39:27Z</time>
      </trkpt>
      <trkpt lat="39.894143" lon="116.648352">
        <time>2021-07-07T13:39:32Z</time>
      </trkpt>
      <trkpt lat="39.894213" lon="116.648386">
        <time>2021-07-07T13:39:37Z</time>
      </trkpt>
      <trkpt lat="39.894297" lon="116.648417">
        <time>2021-07-07T13:39:42Z</time>
      </trkpt>
      <trkpt lat="39.894455" lon="116.648488">
        <time>2021-07-07T13:39:47Z</time>
      </trkpt>
      <trkpt lat="39.894565" lon="116.64854">
        <time>2021-07-07T13:39:52Z</time>
      </trkpt>
      <trkpt lat="39.894682" lon="116.648628">
        <time>2021-07-07T13:39:57Z</time>
      </trkpt>
      <trkpt lat="39.894833" lon="116.648722">
        <time>2021-07-07T13:40:02Z</time>
      </trkpt>
      <trkpt lat="39.895069" lon="116.64884">
        <time>2021-07-07T13:40:07Z</time>
      </trkpt>
      <trkpt lat="39.895099" lon="116.648862">
        <time>2021-07-07T13:40:12Z</time>
      </trkpt>
      <trkpt lat="39.895212" lon="116.648964">
        <time>2021-07-07T13:40:17Z</time>
      </trkpt>
      <trkpt lat="39.895311" lon="116.649029">
        <time>2021-07-07T13:40:22Z</time>
      </trkpt>
      <trkpt lat="39.895348" lon="116.649099">
        <time>2021-07-07T13:40:27Z</time>
      </trkpt>
      <trkpt lat="39.895375" lon="116.649125">
        <time>2021-07-07T13:40:32Z</time>
      </trkpt>
      <trkpt lat="39.895464" lon="116.649139">
        <time>2021-07-07T13:40:37Z</time>
      </trkpt>
      <trkpt lat="39.89554" lon="116.649138">
        <time>2021-07-07T13:40:42Z</time>
      </trkpt>
      <trkpt lat="39.895606" lon="116.64909">
        <time>2021-07-07T13:40:47Z</time>
      </trkpt>
      <trkpt lat="39.895636" lon="116.648993">
        <time>2021-07-07T13:40:52Z</time>
      </trkpt>
      <trkpt lat="39.895677" lon="116.648901">
        <time>2021-07-07T13:40:57Z</time>
      </trkpt>
      <trkpt lat="39.895712" lon="116.648778">
        <time>2021-07-07T13:41:02Z</time>
      </trkpt>
      <trkpt lat="39.895724" lon="116.648623">
        <time>2021-07-07T13:41:07Z</time>
      </trkpt>
      <trkpt lat="39.895789" lon="116.648454">
        <time>2021-07-07T13:41:12Z</time>
      </trkpt>
      <trkpt lat="39.895806" lon="116.648278">
        <time>2021-07-07T13:41:17Z</time>
      </trkpt>
      <trkpt lat="39.895825" lon="116.64811">
        <time>2021-07-07T13:41:22Z</time>
      </trkpt>
      <trkpt lat="39.895877" lon="116.647964">
        <time>2021-07-07T13:41:27Z</time>
      </trkpt>
      <trkpt lat="39.895896" lon="116.647823">
        <time>2021-07-07T13:41:32Z</time>
      </trkpt>
      <trkpt lat="39.895891" lon="116.647635">
        <time>2021-07-07T13:41:37Z</time>
      </trkpt>
      <trkpt lat="39.895913" lon="116.647506">
        <time>2021-07-07T13:41:42Z</time>
      </trkpt>
      <trkpt lat="39.89592" lon="116.647377">
        <time>2021-07-07T13:41:47Z</time>
      </trkpt>
      <trkpt lat="39.895927" lon="116.647212">
        <time>2021-07-07T13:41:52Z</time>
      </trkpt>
      <trkpt lat="39.895788" lon="116.647155">
        <time>2021-07-07T13:41:57Z</time>
      </trkpt>
      <trkpt lat="39.895754" lon="116.64725">
        <time>2021-07-07T13:42:02Z</time>
      </trkpt>
      <trkpt lat="39.89572" lon="116.6474">
        <time>2021-07-07T13:42:07Z</time>
      </trkpt>
      <trkpt lat="39.895682" lon="116.6476">
        <time>2021-07-07T13:42:12Z</time>
      </trkpt>
      <trkpt lat="39.89565" lon="116.647739">
        <time>2021-07-07T13:42:17Z</time>
      </trkpt>
      <trkpt lat="39.895647" lon="116.64792">
        <time>2021-07-07T13:42:22Z</time>
      </trkpt>
      <trkpt lat="39.895652" lon="116.64809">
        <time>2021-07-07T13:42:27Z</time>
      </trkpt>
      <trkpt lat="39.895637" lon="116.648251">
        <time>2021-07-07T13:42:32Z</time>
      </trkpt>
      <trkpt lat="39.895631" lon="116.6484">
        <time>2021-07-07T13:42:37Z</time>
      </trkpt>
      <trkpt lat="39.895742" lon="116.648436">
        <time>2021-07-07T13:42:42Z</time>
      </trkpt>
      <trkpt lat="39.89578" lon="116.648312">
        <time>2021-07-07T13:42:47Z</time>
      </trkpt>
      <trkpt lat="39.895827" lon="116.648131">
        <time>2021-07-07T13:42:52Z</time>
      </trkpt>
      <trkpt lat="39.89588" lon="116.647946">
        <time>2021-07-07T13:42:57Z</time>
      </trkpt>
      <trkpt lat="39.895896" lon="116.647794">
        <time>2021-07-07T13:43:02Z</time>
      </trkpt>
      <trkpt lat="39.895936" lon="116.647607">
        <time>2021-07-07T13:43:07Z</time>
      </trkpt>
      <trkpt lat="39.89598" lon="116.647455">
        <time>2021-07-07T13:43:12Z</time>
      </trkpt>
      <trkpt lat="39.895977" lon="116.647271">
        <time>2021-07-07T13:43:17Z</time>
      </trkpt>
      <trkpt lat="39.895976" lon="116.647099">
        <time>2021-07-07T13:43:22Z</time>
      </trkpt>
      <trkpt lat="39.895966" lon="116.646905">
        <time>2021-07-07T13:43:27Z</time>
      </trkpt>
      <trkpt lat="39.895982" lon="116.646705">
        <time>2021-07-07T13:43:32Z</time>
      </trkpt>
      <trkpt lat="39.896022" lon="116.64652">
        <time>2021-07-07T13:43:37Z</time>
      </trkpt>
      <trkpt lat="39.89601" lon="116.646306">
        <time>2021-07-07T13:43:42Z</time>
      </trkpt>
      <trkpt lat="39.89602" lon="116.646163">
        <time>2021-07-07T13:43:47Z</time>
      </trkpt>
      <trkpt lat="39.896042" lon="116.646">
        <time>2021-07-07T13:43:52Z</time>
      </trkpt>
      <trkpt lat="39.896085" lon="116.645828">
        <time>2021-07-07T13:43:57Z</time>
      </trkpt>
      <trkpt lat="39.896136" lon="116.645691">
        <time>2021-07-07T13:44:02Z</time>
      </trkpt>
      <trkpt lat="39.896158" lon="116.645524">
        <time>2021-07-07T13:44:07Z</time>
      </trkpt>
      <trkpt lat="39.896147" lon="116.645407">
        <time>2021-07-07T13:44:12Z</time>
      </trkpt>
      <trkpt lat="39.896133" lon="116.645308">
        <time>2021-07-07T13:44:17Z</time>
      </trkpt>
      <trkpt lat="39.896121" lon="116.645139">
        <time>2021-07-07T13:44:22Z</time>
      </trkpt>
      <trkpt lat="39.896135" lon="116.644999">
        <time>2021-07-07T13:44:27Z</time>
      </trkpt>
      <trkpt lat="39.896151" lon="116.644858">
        <time>2021-07-07T13:44:32Z</time>
      </trkpt>
      <trkpt lat="39.896156" lon="116.644793">
        <time>2021-07-07T13:44:37Z</time>
      </trkpt>
      <trkpt lat="39.896167" lon="116.644706">
        <time>2021-07-07T13:44:42Z</time>
      </trkpt>
      <trkpt lat="39.896168" lon="116.644597">
        <time>2021-07-07T13:44:47Z</time>
      </trkpt>
      <trkpt lat="39.896144" lon="116.644499">
        <time>2021-07-07T13:44:52Z</time>
      </trkpt>
      <trkpt lat="39.896175" lon="116.644409">
        <time>2021-07-07T13:44:57Z</time>
      </trkpt>
      <trkpt lat="39.896174" lon="116.644271">
        <time>2021-07-07T13:45:02Z</time>
      </trkpt>
      <trkpt lat="39.896188" lon="116.6441">
        <time>2021-07-07T13:45:07Z</time>
      </trkpt>
      <trkpt lat="39.896214" lon="116.643959">
        <time>2021-07-07T13:45:12Z</time>
      </trkpt>
      <trkpt lat="39.896246" lon="116.643816">
        <time>2021-07-07T13:45:17Z</time>
      </trkpt>
      <trkpt lat="39.896252" lon="116.643665">
        <time>2021-07-07T13:45:22Z</time>
      </trkpt>
      <trkpt lat="39.896239" lon="116.643545">
        <time>2021-07-07T13:45:27Z</time>
      </trkpt>
      <trkpt lat="39.896205" lon="116.6434">
        <time>2021-07-07T13:45:32Z</time>
      </trkpt>
      <trkpt lat="39.896202" lon="116.643199">
        <time>2021-07-07T13:45:37Z</time>
      </trkpt>
      <trkpt lat="39.896207" lon="116.643083">
        <time>2021-07-07T13:45:42Z</time>
      </trkpt>
      <trkpt lat="39.89619" lon="116.642901">
        <time>2021-07-07T13:45:47Z</time>
      </trkpt>
      <trkpt lat="39.896182" lon="116.642774">
        <time>2021-07-07T13:45:52Z</time>
      </trkpt>
      <trkpt lat="39.896169" lon="116.642519">
        <time>2021-07-07T13:45:57Z</time>
      </trkpt>
      <trkpt lat="39.896187" lon="116.642409">
        <time>2021-07-07T13:46:02Z</time>
      </trkpt>
      <trkpt lat="39.896173" lon="116.642231">
        <time>2021-07-07T13:46:07Z</time>
      </trkpt>
      <trkpt lat="39.896232" lon="116.642131">
        <time>2021-07-07T13:46:12Z</time>
      </trkpt>
      <trkpt lat="39.896251" lon="116.641952">
        <time>2021-07-07T13:46:17Z</time>
      </trkpt>
      <trkpt lat="39.896254" lon="116.641778">
        <time>2021-07-07T13:46:22Z</time>
      </trkpt>
      <trkpt lat="39.896298" lon="116.641575">
        <time>2021-07-07T13:46:27Z</time>
      </trkpt>
      <trkpt lat="39.896273" lon="116.641485">
        <time>2021-07-07T13:46:32Z</time>
      </trkpt>
      <trkpt lat="39.896274" lon="116.641415">
        <time>2021-07-07T13:46:37Z</time>
      </trkpt>
      <trkpt lat="39.896247" lon="116.641313">
        <time>2021-07-07T13:46:42Z</time>
      </trkpt>
      <trkpt lat="39.896215" lon="116.641171">
        <time>2021-07-07T13:46:47Z</time>
      </trkpt>
      <trkpt lat="39.896184" lon="116.641049">
        <time>2021-07-07T13:46:52Z</time>
      </trkpt>
      <trkpt lat="39.896182" lon="116.640949">
        <time>2021-07-07T13:46:57Z</time>
      </trkpt>
      <trkpt lat="39.896203" lon="116.640788">
        <time>2021-07-07T13:47:02Z</time>
      </trkpt>
      <trkpt lat="39.896229" lon="116.640682">
        <time>2021-07-07T13:47:07Z</time>
      </trkpt>
      <trkpt lat="39.896278" lon="116.640514">
        <time>2021-07-07T13:47:12Z</time>
      </trkpt>
      <trkpt lat="39.896329" lon="116.640359">
        <time>2021-07-07T13:47:17Z</time>
      </trkpt>
      <trkpt lat="39.896531" lon="116.640426">
        <time>2021-07-07T13:47:22Z</time>
      </trkpt>
      <trkpt lat="39.896603" lon="116.64047">
        <time>2021-07-07T13:47:27Z</time>
      </trkpt>
      <trkpt lat="39.896755" lon="116.640535">
        <time>2021-07-07T13:47:32Z</time>
      </trkpt>
      <trkpt lat="39.896912" lon="116.64058">
        <time>2021-07-07T13:47:37Z</time>
      </trkpt>
      <trkpt lat="39.897024" lon="116.640626">
        <time>2021-07-07T13:47:42Z</time>
      </trkpt>
      <trkpt lat="39.897102" lon="116.64068">
        <time>2021-07-07T13:47:47Z</time>
      </trkpt>
      <trkpt lat="39.897155" lon="116.640745">
        <time>2021-07-07T13:47:52Z</time>
      </trkpt>
      <trkpt lat="39.897298" lon="116.640793">
        <time>2021-07-07T13:47:57Z</time>
      </trkpt>
      <trkpt lat="39.897413" lon="116.640847">
        <time>2021-07-07T13:48:02Z</time>
      </trkpt>
      <trkpt lat="39.897534" lon="116.640923">
        <time>2021-07-07T13:48:07Z</time>
      </trkpt>
      <trkpt lat="39.897666" lon="116.640981">
        <time>2021-07-07T13:48:12Z</time>
      </trkpt>
      <trkpt lat="39.897789" lon="116.641039">
        <time>2021-07-07T13:48:17Z</time>
      </trkpt>
      <trkpt lat="39.897895" lon="116.641079">
        <time>2021-07-07T13:48:22Z</time>
      </trkpt>
      <trkpt lat="39.897981" lon="116.641129">
        <time>2021-07-07T13:48:27Z</time>
      </trkpt>
      <trkpt lat="39.898085" lon="116.641193">
        <time>2021-07-07T13:48:32Z</time>
      </trkpt>
      <trkpt lat="39.898185" lon="116.641253">
        <time>2021-07-07T13:48:37Z</time>
      </trkpt>
      <trkpt lat="39.898316" lon="116.641302">
        <time>2021-07-07T13:48:42Z</time>
      </trkpt>
      <trkpt lat="39.898439" lon="116.641339">
        <time>2021-07-07T13:48:47Z</time>
      </trkpt>
      <trkpt lat="39.89842" lon="116.641475">
        <time>2021-07-07T13:48:52Z</time>
      </trkpt>
      <trkpt lat="39.898354" lon="116.641672">
        <time>2021-07-07T13:48:57Z</time>
      </trkpt>
      <trkpt lat="39.898297" lon="116.641864">
        <time>2021-07-07T13:49:02Z</time>
      </trkpt>
      <trkpt lat="39.898262" lon="116.642068">
        <time>2021-07-07T13:49:07Z</time>
      </trkpt>
      <trkpt lat="39.898232" lon="116.642264">
        <time>2021-07-07T13:49:12Z</time>
      </trkpt>
      <trkpt lat="39.898233" lon="116.642417">
        <time>2021-07-07T13:49:17Z</time>
      </trkpt>
      <trkpt lat="39.898225" lon="116.642698">
        <time>2021-07-07T13:49:22Z</time>
      </trkpt>
      <trkpt lat="39.898221" lon="116.642832">
        <time>2021-07-07T13:49:27Z</time>
      </trkpt>
      <trkpt lat="39.898178" lon="116.642915">
        <time>2021-07-07T13:49:32Z</time>
      </trkpt>
      <trkpt lat="39.898155" lon="116.642954">
        <time>2021-07-07T13:49:37Z</time>
      </trkpt>
      <trkpt lat="39.898164" lon="116.642999">
        <time>2021-07-07T13:49:42Z</time>
      </trkpt>
      <trkpt lat="39.898196" lon="116.643088">
        <time>2021-07-07T13:49:47Z</time>
      </trkpt>
      <trkpt lat="39.898207" lon="116.643193">
        <time>2021-07-07T13:49:52Z</time>
      </trkpt>
      <trkpt lat="39.898226" lon="116.643342">
        <time>2021-07-07T13:49:57Z</time>
      </trkpt>
      <trkpt lat="39.898208" lon="116.643512">
        <time>2021-07-07T13:50:02Z</time>
      </trkpt>
      <trkpt lat="39.89822" lon="116.643627">
        <time>2021-07-07T13:50:07Z</time>
      </trkpt>
      <trkpt lat="39.898219" lon="116.6438">
        <time>2021-07-07T13:50:12Z</time>
      </trkpt>
      <trkpt lat="39.89824" lon="116.643963">
        <time>2021-07-07T13:50:17Z</time>
      </trkpt>
      <trkpt lat="39.89823" lon="116.644049">
        <time>2021-07-07T13:50:22Z</time>
      </trkpt>
      <trkpt lat="39.898228" lon="116.64414">
        <time>2021-07-07T13:50:27Z</time>
      </trkpt>
      <trkpt lat="39.898219" lon="116.644302">
        <time>2021-07-07T13:50:32Z</time>
      </trkpt>
      <trkpt lat="39.898186" lon="116.644411">
        <time>2021-07-07T13:50:37Z</time>
      </trkpt>
      <trkpt lat="39.898252" lon="116.644608">
        <time>2021-07-07T13:50:42Z</time>
      </trkpt>
      <trkpt lat="39.898288" lon="116.644728">
        <time>2021-07-07T13:50:47Z</time>
      </trkpt>
      <trkpt lat="39.898316" lon="116.644831">
        <time>2021-07-07T13:50:52Z</time>
      </trkpt>
      <trkpt lat="39.898326" lon="116.644936">
        <time>2021-07-07T13:50:57Z</time>
      </trkpt>
      <trkpt lat="39.898333" lon="116.645051">
        <time>2021-07-07T13:51:02Z</time>
      </trkpt>
      <trkpt lat="39.898345" lon="116.645149">
        <time>2021-07-07T13:51:07Z</time>
      </trkpt>
      <trkpt lat="39.898348" lon="116.645202">
        <time>2021-07-07T13:51:12Z</time>
      </trkpt>
      <trkpt lat="39.898357" lon="116.645288">
        <time>2021-07-07T13:51:17Z</time>
      </trkpt>
      <trkpt lat="39.898428" lon="116.645445">
        <time>2021-07-07T13:51:22Z</time>
      </trkpt>
      <trkpt lat="39.898454" lon="116.645567">
        <time>2021-07-07T13:51:27Z</time>
      </trkpt>
      <trkpt lat="39.898515" lon="116.645684">
        <time>2021-07-07T13:51:32Z</time>
      </trkpt>
      <trkpt lat="39.898505" lon="116.645797">
        <time>2021-07-07T13:51:37Z</time>
      </trkpt>
      <trkpt lat="39.898529" lon="116.645928">
        <time>2021-07-07T13:51:42Z</time>
      </trkpt>
      <trkpt lat="39.898572" lon="116.646056">
        <time>2021-07-07T13:51:47Z</time>
      </trkpt>
      <trkpt lat="39.898652" lon="116.64619">
        <time>2021-07-07T13:51:52Z</time>
      </trkpt>
      <trkpt lat="39.898718" lon="116.646356">
        <time>2021-07-07T13:51:57Z</time>
      </trkpt>
      <trkpt lat="39.898757" lon="116.64649">
        <time>2021-07-07T13:52:02Z</time>
      </trkpt>
      <trkpt lat="39.898823" lon="116.646585">
        <time>2021-07-07T13:52:07Z</time>
      </trkpt>
      <trkpt lat="39.898873" lon="116.646743">
        <time>2021-07-07T13:52:12Z</time>
      </trkpt>
      <trkpt lat="39.898891" lon="116.64687">
        <time>2021-07-07T13:52:17Z</time>
      </trkpt>
      <trkpt lat="39.898898" lon="116.646936">
        <time>2021-07-07T13:52:22Z</time>
      </trkpt>
      <trkpt lat="39.898933" lon="116.647106">
        <time>2021-07-07T13:52:27Z</time>
      </trkpt>
      <trkpt lat="39.898979" lon="116.647302">
        <time>2021-07-07T13:52:32Z</time>
      </trkpt>
      <trkpt lat="39.898994" lon="116.647484">
        <time>2021-07-07T13:52:37Z</time>
      </trkpt>
      <trkpt lat="39.898996" lon="116.647698">
        <time>2021-07-07T13:52:42Z</time>
      </trkpt>
      <trkpt lat="39.899034" lon="116.647859">
        <time>2021-07-07T13:52:47Z</time>
      </trkpt>
      <trkpt lat="39.899076" lon="116.648006">
        <time>2021-07-07T13:52:52Z</time>
      </trkpt>
      <trkpt lat="39.899035" lon="116.648208">
        <time>2021-07-07T13:52:57Z</time>
      </trkpt>
      <trkpt lat="39.899006" lon="116.648412">
        <time>2021-07-07T13:53:02Z</time>
      </trkpt>
      <trkpt lat="39.898954" lon="116.648729">
        <time>2021-07-07T13:53:07Z</time>
      </trkpt>
      <trkpt lat="39.898941" lon="116.648761">
        <time>2021-07-07T13:53:12Z</time>
      </trkpt>
      <trkpt lat="39.898917" lon="116.648944">
        <time>2021-07-07T13:53:17Z</time>
      </trkpt>
      <trkpt lat="39.898909" lon="116.649032">
        <time>2021-07-07T13:53:22Z</time>
      </trkpt>
      <trkpt lat="39.898942" lon="116.649065">
        <time>2021-07-07T13:53:27Z</time>
      </trkpt>
      <trkpt lat="39.898967" lon="116.649125">
        <time>2021-07-07T13:53:32Z</time>
      </trkpt>
      <trkpt lat="39.899004" lon="116.64923">
        <time>2021-07-07T13:53:37Z</time>
      </trkpt>
      <trkpt lat="39.899043" lon="116.649391">
        <time>2021-07-07T13:53:42Z</time>
      </trkpt>
      <trkpt lat="39.899041" lon="116.649519">
        <time>2021-07-07T13:53:47Z</time>
      </trkpt>
      <trkpt lat="39.899021" lon="116.649678">
        <time>2021-07-07T13:53:52Z</time>
      </trkpt>
      <trkpt lat="39.898988" lon="116.64984">
        <time>2021-07-07T13:53:57Z</time>
      </trkpt>
      <trkpt lat="39.899002" lon="116.650011">
        <time>2021-07-07T13:54:02Z</time>
      </trkpt>
      <trkpt lat="39.899045" lon="116.650131">
        <time>2021-07-07T13:54:07Z</time>
      </trkpt>
      <trkpt lat="39.899083" lon="116.650294">
        <time>2021-07-07T13:54:12Z</time>
      </trkpt>
      <trkpt lat="39.899032" lon="116.650455">
        <time>2021-07-07T13:54:17Z</time>
      </trkpt>
      <trkpt lat="39.898996" lon="116.650598">
        <time>2021-07-07T13:54:22Z</time>
      </trkpt>
      <trkpt lat="39.899039" lon="116.650705">
        <time>2021-07-07T13:54:27Z</time>
      </trkpt>
      <trkpt lat="39.899037" lon="116.650787">
        <time>2021-07-07T13:54:32Z</time>
      </trkpt>
      <trkpt lat="39.899027" lon="116.650838">
        <time>2021-07-07T13:54:37Z</time>
      </trkpt>
      <trkpt lat="39.899" lon="116.650933">
        <time>2021-07-07T13:54:42Z</time>
      </trkpt>
      <trkpt lat="39.898985" lon="116.651018">
        <time>2021-07-07T13:54:47Z</time>
      </trkpt>
      <trkpt lat="39.89897" lon="116.651112">
        <time>2021-07-07T13:54:52Z</time>
      </trkpt>
      <trkpt lat="39.898973" lon="116.651188">
        <time>2021-07-07T13:54:57Z</time>
      </trkpt>
      <trkpt lat="39.89895" lon="116.65137">
        <time>2021-07-07T13:55:02Z</time>
      </trkpt>
      <trkpt lat="39.899009" lon="116.651426">
        <time>2021-07-07T13:55:07Z</time>
      </trkpt>
      <trkpt lat="39.899021" lon="116.651428">
        <time>2021-07-07T13:55:12Z</time>
      </trkpt>
      <trkpt lat="39.899054" lon="116.651331">
        <time>2021-07-07T13:55:17Z</time>
      </trkpt>
      <trkpt lat="39.899071" lon="116.651255">
        <time>2021-07-07T13:55:22Z</time>
      </trkpt>
      <trkpt lat="39.899069" lon="116.65109">
        <time>2021-07-07T13:55:27Z</time>
      </trkpt>
      <trkpt lat="39.899066" lon="116.650912">
        <time>2021-07-07T13:55:32Z</time>
      </trkpt>
      <trkpt lat="39.899079" lon="116.650719">
        <time>2021-07-07T13:55:37Z</time>
      </trkpt>
      <trkpt lat="39.899087" lon="116.650544">
        <time>2021-07-07T13:55:42Z</time>
      </trkpt>
      <trkpt lat="39.899022" lon="116.650357">
        <time>2021-07-07T13:55:47Z</time>
      </trkpt>
      <trkpt lat="39.898974" lon="116.650207">
        <time>2021-07-07T13:55:52Z</time>
      </trkpt>
      <trkpt lat="39.899001" lon="116.650049">
        <time>2021-07-07T13:55:57Z</time>
      </trkpt>
      <trkpt lat="39.899047" lon="116.649867">
        <time>2021-07-07T13:56:02Z</time>
      </trkpt>
      <trkpt lat="39.899043" lon="116.649715">
        <time>2021-07-07T13:56:07Z</time>
      </trkpt>
      <trkpt lat="39.899012" lon="116.649524">
        <time>2021-07-07T13:56:12Z</time>
      </trkpt>
      <trkpt lat="39.89897" lon="116.649466">
        <time>2021-07-07T13:56:17Z</time>
      </trkpt>
      <trkpt lat="39.898934" lon="116.64937">
        <time>2021-07-07T13:56:22Z</time>
      </trkpt>
      <trkpt lat="39.898918" lon="116.649276">
        <time>2021-07-07T13:56:27Z</time>
      </trkpt>
      <trkpt lat="39.898909" lon="116.649244">
        <time>2021-07-07T13:56:32Z</time>
      </trkpt>
      <trkpt lat="39.898928" lon="116.64918">
        <time>2021-07-07T13:56:37Z</time>
      </trkpt>
      <trkpt lat="39.898927" lon="116.649049">
        <time>2021-07-07T13:56:42Z</time>
      </trkpt>
      <trkpt lat="39.898956" lon="116.648921">
        <time>2021-07-07T13:56:47Z</time>
      </trkpt>
      <trkpt lat="39.898944" lon="116.648791">
        <time>2021-07-07T13:56:52Z</time>
      </trkpt>
      <trkpt lat="39.899007" lon="116.648652">
        <time>2021-07-07T13:56:57Z</time>
      </trkpt>
      <trkpt lat="39.89909" lon="116.64847">
        <time>2021-07-07T13:57:02Z</time>
      </trkpt>
      <trkpt lat="39.899067" lon="116.648252">
        <time>2021-07-07T13:57:07Z</time>
      </trkpt>
      <trkpt lat="39.89905" lon="116.648049">
        <time>2021-07-07T13:57:12Z</time>
      </trkpt>
      <trkpt lat="39.89904" lon="116.647808">
        <time>2021-07-07T13:57:17Z</time>
      </trkpt>
      <trkpt lat="39.899051" lon="116.647652">
        <time>2021-07-07T13:57:22Z</time>
      </trkpt>
      <trkpt lat="39.899118" lon="116.647481">
        <time>2021-07-07T13:57:27Z</time>
      </trkpt>
      <trkpt lat="39.8991" lon="116.64738">
        <time>2021-07-07T13:57:32Z</time>
      </trkpt>
      <trkpt lat="39.899097" lon="116.647239">
        <time>2021-07-07T13:57:37Z</time>
      </trkpt>
      <trkpt lat="39.89906" lon="116.647138">
        <time>2021-07-07T13:57:42Z</time>
      </trkpt>
      <trkpt lat="39.898999" lon="116.647028">
        <time>2021-07-07T13:57:47Z</time>
      </trkpt>
      <trkpt lat="39.898959" lon="116.646949">
        <time>2021-07-07T13:57:52Z</time>
      </trkpt>
      <trkpt lat="39.898993" lon="116.646892">
        <time>2021-07-07T13:57:57Z</time>
      </trkpt>
      <trkpt lat="39.898969" lon="116.646825">
        <time>2021-07-07T13:58:02Z</time>
      </trkpt>
      <trkpt lat="39.898805" lon="116.646606">
        <time>2021-07-07T13:58:07Z</time>
      </trkpt>
      <trkpt lat="39.898709" lon="116.646399">
        <time>2021-07-07T13:58:12Z</time>
      </trkpt>
      <trkpt lat="39.898579" lon="116.646214">
        <time>2021-07-07T13:58:17Z</time>
      </trkpt>
      <trkpt lat="39.898499" lon="116.645977">
        <time>2021-07-07T13:58:22Z</time>
      </trkpt>
      <trkpt lat="39.898463" lon="116.645678">
        <time>2021-07-07T13:58:27Z</time>
      </trkpt>
      <trkpt lat="39.898455" lon="116.645571">
        <time>2021-07-07T13:58:32Z</time>
      </trkpt>
      <trkpt lat="39.898396" lon="116.645411">
        <time>2021-07-07T13:58:37Z</time>
      </trkpt>
      <trkpt lat="39.89839" lon="116.645243">
        <time>2021-07-07T13:58:42Z</time>
      </trkpt>
      <trkpt lat="39.898502" lon="116.645047">
        <time>2021-07-07T13:58:47Z</time>
      </trkpt>
      <trkpt lat="39.898552" lon="116.644855">
        <time>2021-07-07T13:58:52Z</time>
      </trkpt>
      <trkpt lat="39.898559" lon="116.644752">
        <time>2021-07-07T13:58:57Z</time>
      </trkpt>
      <trkpt lat="39.89844" lon="116.644809">
        <time>2021-07-07T13:59:02Z</time>
      </trkpt>
      <trkpt lat="39.898378" lon="116.644728">
        <time>2021-07-07T13:59:07Z</time>
      </trkpt>
      <trkpt lat="39.89835" lon="116.644583">
        <time>2021-07-07T13:59:12Z</time>
      </trkpt>
      <trkpt lat="39.898328" lon="116.644445">
        <time>2021-07-07T13:59:17Z</time>
      </trkpt>
      <trkpt lat="39.898332" lon="116.644239">
        <time>2021-07-07T13:59:22Z</time>
      </trkpt>
      <trkpt lat="39.898396" lon="116.644022">
        <time>2021-07-07T13:59:27Z</time>
      </trkpt>
      <trkpt lat="39.89835" lon="116.643783">
        <time>2021-07-07T13:59:32Z</time>
      </trkpt>
      <trkpt lat="39.898255" lon="116.64363">
        <time>2021-07-07T13:59:37Z</time>
      </trkpt>
      <trkpt lat="39.898197" lon="116.643433">
        <time>2021-07-07T13:59:42Z</time>
      </trkpt>
      <trkpt lat="39.898205" lon="116.643081">
        <time>2021-07-07T13:59:47Z</time>
      </trkpt>
      <trkpt lat="39.898205" lon="116.642992">
        <time>2021-07-07T13:59:52Z</time>
      </trkpt>
      <trkpt lat="39.898228" lon="116.64276">
        <time>2021-07-07T13:59:57Z</time>
      </trkpt>
      <trkpt lat="39.898282" lon="116.642508">
        <time>2021-07-07T14:00:02Z</time>
      </trkpt>
      <trkpt lat="39.898296" lon="116.642363">
        <time>2021-07-07T14:00:07Z</time>
      </trkpt>
      <trkpt lat="39.898272" lon="116.642125">
        <time>2021-07-07T14:00:12Z</time>
      </trkpt>
      <trkpt lat="39.898303" lon="116.641945">
        <time>2021-07-07T14:00:17Z</time>
      </trkpt>
      <trkpt lat="39.898329" lon="116.64176">
        <time>2021-07-07T14:00:22Z</time>
      </trkpt>
      <trkpt lat="39.898334" lon="116.641612">
        <time>2021-07-07T14:00:27Z</time>
      </trkpt>
      <trkpt lat="39.898359" lon="116.641484">
        <time>2021-07-07T14:00:32Z</time>
      </trkpt>
      <trkpt lat="39.89827" lon="116.641377">
        <time>2021-07-07T14:00:37Z</time>
      </trkpt>
      <trkpt lat="39.898182" lon="116.641293">
        <time>2021-07-07T14:00:42Z</time>
      </trkpt>
      <trkpt lat="39.898107" lon="116.641237">
        <time>2021-07-07T14:00:47Z</time>
      </trkpt>
      <trkpt lat="39.898075" lon="116.641208">
        <time>2021-07-07T14:00:52Z</time>
      </trkpt>
      <trkpt lat="39.898015" lon="116.641175">
        <time>2021-07-07T14:00:57Z</time>
      </trkpt>
      <trkpt lat="39.897933" lon="116.641179">
        <time>2021-07-07T14:01:02Z</time>
      </trkpt>
      <trkpt lat="39.897874" lon="116.641142">
        <time>2021-07-07T14:01:07Z</time>
      </trkpt>
      <trkpt lat="39.897809" lon="116.641074">
        <time>2021-07-07T14:01:12Z</time>
      </trkpt>
      <trkpt lat="39.897728" lon="116.641021">
        <time>2021-07-07T14:01:17Z</time>
      </trkpt>
      <trkpt lat="39.897635" lon="116.640958">
        <time>2021-07-07T14:01:22Z</time>
      </trkpt>
      <trkpt lat="39.897513" lon="116.640906">
        <time>2021-07-07T14:01:27Z</time>
      </trkpt>
      <trkpt lat="39.897356" lon="116.640848">
        <time>2021-07-07T14:01:32Z</time>
      </trkpt>
      <trkpt lat="39.897213" lon="116.64084">
        <time>2021-07-07T14:01:37Z</time>
      </trkpt>
      <trkpt lat="39.897098" lon="116.640776">
        <time>2021-07-07T14:01:42Z</time>
      </trkpt>
      <trkpt lat="39.897054" lon="116.640663">
        <time>2021-07-07T14:01:47Z</time>
      </trkpt>
      <trkpt lat="39.896976" lon="116.640627">
        <time>2021-07-07T14:01:52Z</time>
      </trkpt>
      <trkpt lat="39.896883" lon="116.640619">
        <time>2021-07-07T14:01:57Z</time>
      </trkpt>
      <trkpt lat="39.896831" lon="116.640527">
        <time>2021-07-07T14:02:02Z</time>
      </trkpt>
      <trkpt lat="39.896741" lon="116.64048">
        <time>2021-07-07T14:02:07Z</time>
      </trkpt>
      <trkpt lat="39.896548" lon="116.640399">
        <time>2021-07-07T14:02:12Z</time>
      </trkpt>
      <trkpt lat="39.896477" lon="116.640371">
        <time>2021-07-07T14:02:17Z</time>
      </trkpt>
      <trkpt lat="39.896324" lon="116.640221">
        <time>2021-07-07T14:02:22Z</time>
      </trkpt>
      <trkpt lat="39.896296" lon="116.64011">
        <time>2021-07-07T14:02:27Z</time>
      </trkpt>
      <trkpt lat="39.896301" lon="116.639894">
        <time>2021-07-07T14:02:32Z</time>
      </trkpt>
      <trkpt lat="39.896275" lon="116.6397">
        <time>2021-07-07T14:02:37Z</time>
      </trkpt>
      <trkpt lat="39.896285" lon="116.63954">
        <time>2021-07-07T14:02:42Z</time>
      </trkpt>
      <trkpt lat="39.896274" lon="116.639413">
        <time>2021-07-07T14:02:47Z</time>
      </trkpt>
      <trkpt lat="39.896256" lon="116.639344">
        <time>2021-07-07T14:02:52Z</time>
      </trkpt>
      <trkpt lat="39.896249" lon="116.639284">
        <time>2021-07-07T14:02:57Z</time>
      </trkpt>
      <trkpt lat="39.896223" lon="116.639206">
        <time>2021-07-07T14:03:02Z</time>
      </trkpt>
      <trkpt lat="39.896217" lon="116.639097">
        <time>2021-07-07T14:03:07Z</time>
      </trkpt>
      <trkpt lat="39.896245" lon="116.638993">
        <time>2021-07-07T14:03:12Z</time>
      </trkpt>
      <trkpt lat="39.896231" lon="116.638881">
        <time>2021-07-07T14:03:17Z</time>
      </trkpt>
      <trkpt lat="39.89623" lon="116.638753">
        <time>2021-07-07T14:03:22Z</time>
      </trkpt>
      <trkpt lat="39.896218" lon="116.638615">
        <time>2021-07-07T14:03:27Z</time>
      </trkpt>
      <trkpt lat="39.896221" lon="116.63845">
        <time>2021-07-07T14:03:32Z</time>
      </trkpt>
      <trkpt lat="39.896242" lon="116.638259">
        <time>2021-07-07T14:03:37Z</time>
      </trkpt>
      <trkpt lat="39.896228" lon="116.638077">
        <time>2021-07-07T14:03:42Z</time>
      </trkpt>
      <trkpt lat="39.896173" lon="116.637849">
        <time>2021-07-07T14:03:47Z</time>
      </trkpt>
      <trkpt lat="39.89614" lon="116.637755">
        <time>2021-07-07T14:03:52Z</time>
      </trkpt>
      <trkpt lat="39.896126" lon="116.637597">
        <time>2021-07-07T14:03:57Z</time>
      </trkpt>
      <trkpt lat="39.896118" lon="116.637418">
        <time>2021-07-07T14:04:02Z</time>
      </trkpt>
      <trkpt lat="39.896125" lon="116.637252">
        <time>2021-07-07T14:04:07Z</time>
      </trkpt>
      <trkpt lat="39.896128" lon="116.637079">
        <time>2021-07-07T14:04:12Z</time>
      </trkpt>
      <trkpt lat="39.896043" lon="116.636815">
        <time>2021-07-07T14:04:17Z</time>
      </trkpt>
      <trkpt lat="39.895993" lon="116.636739">
        <time>2021-07-07T14:04:22Z</time>
      </trkpt>
      <trkpt lat="39.895915" lon="116.636626">
        <time>2021-07-07T14:04:27Z</time>
      </trkpt>
      <trkpt lat="39.895918" lon="116.636463">
        <time>2021-07-07T14:04:32Z</time>
      </trkpt>
      <trkpt lat="39.896072" lon="116.636337">
        <time>2021-07-07T14:04:37Z</time>
      </trkpt>
      <trkpt lat="39.896242" lon="116.636207">
        <time>2021-07-07T14:04:42Z</time>
      </trkpt>
      <trkpt lat="39.896386" lon="116.636109">
        <time>2021-07-07T14:04:47Z</time>
      </trkpt>
      <trkpt lat="39.89652" lon="116.635958">
        <time>2021-07-07T14:04:52Z</time>
      </trkpt>
      <trkpt lat="39.896719" lon="116.63584">
        <time>2021-07-07T14:04:57Z</time>
      </trkpt>
      <trkpt lat="39.896878" lon="116.635749">
        <time>2021-07-07T14:05:02Z</time>
      </trkpt>
      <trkpt lat="39.896934" lon="116.635711">
        <time>2021-07-07T14:05:07Z</time>
      </trkpt>
      <trkpt lat="39.896997" lon="116.635692">
        <time>2021-07-07T14:05:12Z</time>
      </trkpt>
      <trkpt lat="39.897072" lon="116.635663">
        <time>2021-07-07T14:05:17Z</time>
      </trkpt>
      <trkpt lat="39.897122" lon="116.635627">
        <time>2021-07-07T14:05:22Z</time>
      </trkpt>
      <trkpt lat="39.897196" lon="116.635568">
        <time>2021-07-07T14:05:27Z</time>
      </trkpt>
      <trkpt lat="39.897252" lon="116.635524">
        <time>2021-07-07T14:05:32Z</time>
      </trkpt>
      <trkpt lat="39.897317" lon="116.635513">
        <time>2021-07-07T14:05:37Z</time>
      </trkpt>
      <trkpt lat="39.897404" lon="116.635474">
        <time>2021-07-07T14:05:42Z</time>
      </trkpt>
      <trkpt lat="39.897483" lon="116.635418">
        <time>2021-07-07T14:05:47Z</time>
      </trkpt>
      <trkpt lat="39.897521" lon="116.635382">
        <time>2021-07-07T14:05:52Z</time>
      </trkpt>
      <trkpt lat="39.897573" lon="116.63535">
        <time>2021-07-07T14:05:57Z</time>
      </trkpt>
      <trkpt lat="39.897663" lon="116.635366">
        <time>2021-07-07T14:06:02Z</time>
      </trkpt>
      <trkpt lat="39.897713" lon="116.63533">
        <time>2021-07-07T14:06:07Z</time>
      </trkpt>
      <trkpt lat="39.897784" lon="116.635272">
        <time>2021-07-07T14:06:12Z</time>
      </trkpt>
      <trkpt lat="39.897881" lon="116.635214">
        <time>2021-07-07T14:06:17Z</time>
      </trkpt>
      <trkpt lat="39.89798" lon="116.635148">
        <time>2021-07-07T14:06:22Z</time>
      </trkpt>
      <trkpt lat="39.898097" lon="116.63508">
        <time>2021-07-07T14:06:27Z</time>
      </trkpt>
      <trkpt lat="39.898197" lon="116.635006">
        <time>2021-07-07T14:06:32Z</time>
      </trkpt>
      <trkpt lat="39.898071" lon="116.634873">
        <time>2021-07-07T14:06:37Z</time>
      </trkpt>
      <trkpt lat="39.898045" lon="116.634807">
        <time>2021-07-07T14:06:42Z</time>
      </trkpt>
      <trkpt lat="39.897979" lon="116.634581">
        <time>2021-07-07T14:06:47Z</time>
      </trkpt>
      <trkpt lat="39.897899" lon="116.634369">
        <time>2021-07-07T14:06:52Z</time>
      </trkpt>
      <trkpt lat="39.897821" lon="116.634153">
        <time>2021-07-07T14:06:57Z</time>
      </trkpt>
      <trkpt lat="39.897755" lon="116.634017">
        <time>2021-07-07T14:07:02Z</time>
      </trkpt>
      <trkpt lat="39.897699" lon="116.633878">
        <time>2021-07-07T14:07:07Z</time>
      </trkpt>
      <trkpt lat="39.897617" lon="116.633734">
        <time>2021-07-07T14:07:12Z</time>
      </trkpt>
      <trkpt lat="39.897532" lon="116.633737">
        <time>2021-07-07T14:07:17Z</time>
      </trkpt>
      <trkpt lat="39.897423" lon="116.633739">
        <time>2021-07-07T14:07:22Z</time>
      </trkpt>
      <trkpt lat="39.897381" lon="116.6337">
        <time>2021-07-07T14:07:27Z</time>
      </trkpt>
      <trkpt lat="39.897314" lon="116.633565">
        <time>2021-07-07T14:07:32Z</time>
      </trkpt>
      <trkpt lat="39.89719" lon="116.633387">
        <time>2021-07-07T14:07:37Z</time>
      </trkpt>
      <trkpt lat="39.897113" lon="116.633192">
        <time>2021-07-07T14:07:42Z</time>
      </trkpt>
      <trkpt lat="39.897063" lon="116.633143">
        <time>2021-07-07T14:07:47Z</time>
      </trkpt>
      <trkpt lat="39.89696" lon="116.633046">
        <time>2021-07-07T14:07:52Z</time>
      </trkpt>
      <trkpt lat="39.896839" lon="116.633117">
        <time>2021-07-07T14:07:57Z</time>
      </trkpt>
      <trkpt lat="39.89687" lon="116.633305">
        <time>2021-07-07T14:08:02Z</time>
      </trkpt>
      <trkpt lat="39.896899" lon="116.633524">
        <time>2021-07-07T14:08:07Z</time>
      </trkpt>
      <trkpt lat="39.896975" lon="116.633672">
        <time>2021-07-07T14:08:12Z</time>
      </trkpt>
      <trkpt lat="39.897038" lon="116.63385">
        <time>2021-07-07T14:08:17Z</time>
      </trkpt>
      <trkpt lat="39.897128" lon="116.634006">
        <time>2021-07-07T14:08:22Z</time>
      </trkpt>
      <trkpt lat="39.897207" lon="116.634153">
        <time>2021-07-07T14:08:27Z</time>
      </trkpt>
      <trkpt lat="39.897389" lon="116.634182">
        <time>2021-07-07T14:08:32Z</time>
      </trkpt>
      <trkpt lat="39.89749" lon="116.634258">
        <time>2021-07-07T14:10:30Z</time>
      </trkpt>
    </trkseg>
  </trk>
</gpx>