<?xml version="1.0" encoding="UTF-8"?>
<gpx xmlns="http://www.topografix.com/GPX/1/1" xmlns:gpxtpx="http://www.garmin.com/xmlschemas/TrackPointExtension/v1" xmlns:xsi="http://www.w3.org/2001/XMLSchema-instance" xsi:schemaLocation="http://www.topografix.com/GPX/1/1 http://www.topografix.com/GPX/1/1/gpx.xsd" version="1.1" creator="gpx.py -- https://github.com/tkrajina/gpxpy">
  <trk>
    <name>gpx from keep</name>
    <trkseg>
      <trkpt lat="39.897692" lon="116.635294">
        <time>2021-08-02T12:45:12Z</time>
      </trkpt>
      <trkpt lat="39.897692" lon="116.635294">
        <time>2021-08-02T12:45:17Z</time>
      </trkpt>
      <trkpt lat="39.897629" lon="116.63539">
        <time>2021-08-02T12:45:22Z</time>
      </trkpt>
      <trkpt lat="39.897546" lon="116.635445">
        <time>2021-08-02T12:45:27Z</time>
      </trkpt>
      <trkpt lat="39.89742" lon="116.635507">
        <time>2021-08-02T12:45:32Z</time>
      </trkpt>
      <trkpt lat="39.89729" lon="116.635569">
        <time>2021-08-02T12:45:37Z</time>
      </trkpt>
      <trkpt lat="39.897153" lon="116.635613">
        <time>2021-08-02T12:45:42Z</time>
      </trkpt>
      <trkpt lat="39.897012" lon="116.635682">
        <time>2021-08-02T12:45:47Z</time>
      </trkpt>
      <trkpt lat="39.896936" lon="116.635767">
        <time>2021-08-02T12:45:52Z</time>
      </trkpt>
      <trkpt lat="39.896817" lon="116.6358">
        <time>2021-08-02T12:45:57Z</time>
      </trkpt>
      <trkpt lat="39.896717" lon="116.6359">
        <time>2021-08-02T12:46:02Z</time>
      </trkpt>
      <trkpt lat="39.896538" lon="116.636042">
        <time>2021-08-02T12:46:07Z</time>
      </trkpt>
      <trkpt lat="39.896518" lon="116.636066">
        <time>2021-08-02T12:46:12Z</time>
      </trkpt>
      <trkpt lat="39.896447" lon="116.636128">
        <time>2021-08-02T12:46:17Z</time>
      </trkpt>
      <trkpt lat="39.896321" lon="116.636178">
        <time>2021-08-02T12:46:22Z</time>
      </trkpt>
      <trkpt lat="39.896172" lon="116.636224">
        <time>2021-08-02T12:46:27Z</time>
      </trkpt>
      <trkpt lat="39.89613" lon="116.636348">
        <time>2021-08-02T12:46:32Z</time>
      </trkpt>
      <trkpt lat="39.89606" lon="116.63645">
        <time>2021-08-02T12:46:37Z</time>
      </trkpt>
      <trkpt lat="39.896018" lon="116.636585">
        <time>2021-08-02T12:46:42Z</time>
      </trkpt>
      <trkpt lat="39.896018" lon="116.636585">
        <time>2021-08-02T12:46:47Z</time>
      </trkpt>
      <trkpt lat="39.895988" lon="116.636612">
        <time>2021-08-02T12:46:52Z</time>
      </trkpt>
      <trkpt lat="39.89602" lon="116.636715">
        <time>2021-08-02T12:46:57Z</time>
      </trkpt>
      <trkpt lat="39.896073" lon="116.636862">
        <time>2021-08-02T12:47:02Z</time>
      </trkpt>
      <trkpt lat="39.896106" lon="116.637133">
        <time>2021-08-02T12:47:07Z</time>
      </trkpt>
      <trkpt lat="39.896121" lon="116.637249">
        <time>2021-08-02T12:47:12Z</time>
      </trkpt>
      <trkpt lat="39.896148" lon="116.63743">
        <time>2021-08-02T12:47:17Z</time>
      </trkpt>
      <trkpt lat="39.896163" lon="116.637615">
        <time>2021-08-02T12:47:22Z</time>
      </trkpt>
      <trkpt lat="39.896178" lon="116.637779">
        <time>2021-08-02T12:47:27Z</time>
      </trkpt>
      <trkpt lat="39.896183" lon="116.637962">
        <time>2021-08-02T12:47:32Z</time>
      </trkpt>
      <trkpt lat="39.896186" lon="116.638124">
        <time>2021-08-02T12:47:37Z</time>
      </trkpt>
      <trkpt lat="39.896174" lon="116.638278">
        <time>2021-08-02T12:47:42Z</time>
      </trkpt>
      <trkpt lat="39.896161" lon="116.638406">
        <time>2021-08-02T12:47:47Z</time>
      </trkpt>
      <trkpt lat="39.896183" lon="116.638609">
        <time>2021-08-02T12:47:52Z</time>
      </trkpt>
      <trkpt lat="39.896191" lon="116.638765">
        <time>2021-08-02T12:47:57Z</time>
      </trkpt>
      <trkpt lat="39.896204" lon="116.638937">
        <time>2021-08-02T12:48:02Z</time>
      </trkpt>
      <trkpt lat="39.896209" lon="116.639104">
        <time>2021-08-02T12:48:07Z</time>
      </trkpt>
      <trkpt lat="39.896191" lon="116.639265">
        <time>2021-08-02T12:48:12Z</time>
      </trkpt>
      <trkpt lat="39.896193" lon="116.639423">
        <time>2021-08-02T12:48:17Z</time>
      </trkpt>
      <trkpt lat="39.896202" lon="116.63958">
        <time>2021-08-02T12:48:22Z</time>
      </trkpt>
      <trkpt lat="39.896204" lon="116.639722">
        <time>2021-08-02T12:48:27Z</time>
      </trkpt>
      <trkpt lat="39.896207" lon="116.639755">
        <time>2021-08-02T12:48:32Z</time>
      </trkpt>
      <trkpt lat="39.896218" lon="116.639843">
        <time>2021-08-02T12:48:37Z</time>
      </trkpt>
      <trkpt lat="39.896234" lon="116.639922">
        <time>2021-08-02T12:48:42Z</time>
      </trkpt>
      <trkpt lat="39.896231" lon="116.64003">
        <time>2021-08-02T12:48:47Z</time>
      </trkpt>
      <trkpt lat="39.89623" lon="116.640149">
        <time>2021-08-02T12:48:52Z</time>
      </trkpt>
      <trkpt lat="39.896255" lon="116.640294">
        <time>2021-08-02T12:48:57Z</time>
      </trkpt>
      <trkpt lat="39.896268" lon="116.640447">
        <time>2021-08-02T12:49:02Z</time>
      </trkpt>
      <trkpt lat="39.896259" lon="116.640776">
        <time>2021-08-02T12:49:07Z</time>
      </trkpt>
      <trkpt lat="39.896257" lon="116.640804">
        <time>2021-08-02T12:49:12Z</time>
      </trkpt>
      <trkpt lat="39.896241" lon="116.640982">
        <time>2021-08-02T12:49:17Z</time>
      </trkpt>
      <trkpt lat="39.896241" lon="116.641157">
        <time>2021-08-02T12:49:22Z</time>
      </trkpt>
      <trkpt lat="39.896229" lon="116.641326">
        <time>2021-08-02T12:49:27Z</time>
      </trkpt>
      <trkpt lat="39.896216" lon="116.641492">
        <time>2021-08-02T12:49:32Z</time>
      </trkpt>
      <trkpt lat="39.896183" lon="116.641641">
        <time>2021-08-02T12:49:37Z</time>
      </trkpt>
      <trkpt lat="39.896184" lon="116.641763">
        <time>2021-08-02T12:49:42Z</time>
      </trkpt>
      <trkpt lat="39.896199" lon="116.641928">
        <time>2021-08-02T12:49:47Z</time>
      </trkpt>
      <trkpt lat="39.896173" lon="116.642217">
        <time>2021-08-02T12:49:52Z</time>
      </trkpt>
      <trkpt lat="39.89617" lon="116.642244">
        <time>2021-08-02T12:49:57Z</time>
      </trkpt>
      <trkpt lat="39.896173" lon="116.642336">
        <time>2021-08-02T12:50:02Z</time>
      </trkpt>
      <trkpt lat="39.896179" lon="116.642402">
        <time>2021-08-02T12:50:07Z</time>
      </trkpt>
      <trkpt lat="39.896187" lon="116.642492">
        <time>2021-08-02T12:50:12Z</time>
      </trkpt>
      <trkpt lat="39.896178" lon="116.642604">
        <time>2021-08-02T12:50:17Z</time>
      </trkpt>
      <trkpt lat="39.896183" lon="116.642721">
        <time>2021-08-02T12:50:22Z</time>
      </trkpt>
      <trkpt lat="39.896165" lon="116.642857">
        <time>2021-08-02T12:50:27Z</time>
      </trkpt>
      <trkpt lat="39.896147" lon="116.643033">
        <time>2021-08-02T12:50:32Z</time>
      </trkpt>
      <trkpt lat="39.896163" lon="116.643196">
        <time>2021-08-02T12:50:37Z</time>
      </trkpt>
      <trkpt lat="39.89617" lon="116.643359">
        <time>2021-08-02T12:50:42Z</time>
      </trkpt>
      <trkpt lat="39.896175" lon="116.643518">
        <time>2021-08-02T12:50:47Z</time>
      </trkpt>
      <trkpt lat="39.896182" lon="116.643691">
        <time>2021-08-02T12:50:52Z</time>
      </trkpt>
      <trkpt lat="39.89618" lon="116.64385">
        <time>2021-08-02T12:50:57Z</time>
      </trkpt>
      <trkpt lat="39.896171" lon="116.643976">
        <time>2021-08-02T12:51:02Z</time>
      </trkpt>
      <trkpt lat="39.896165" lon="116.644122">
        <time>2021-08-02T12:51:07Z</time>
      </trkpt>
      <trkpt lat="39.896173" lon="116.644257">
        <time>2021-08-02T12:51:12Z</time>
      </trkpt>
      <trkpt lat="39.896177" lon="116.644534">
        <time>2021-08-02T12:51:17Z</time>
      </trkpt>
      <trkpt lat="39.896176" lon="116.644568">
        <time>2021-08-02T12:51:22Z</time>
      </trkpt>
      <trkpt lat="39.896169" lon="116.644735">
        <time>2021-08-02T12:51:27Z</time>
      </trkpt>
      <trkpt lat="39.896156" lon="116.644913">
        <time>2021-08-02T12:51:32Z</time>
      </trkpt>
      <trkpt lat="39.896143" lon="116.645067">
        <time>2021-08-02T12:51:37Z</time>
      </trkpt>
      <trkpt lat="39.896141" lon="116.645262">
        <time>2021-08-02T12:51:42Z</time>
      </trkpt>
      <trkpt lat="39.896151" lon="116.645381">
        <time>2021-08-02T12:51:47Z</time>
      </trkpt>
      <trkpt lat="39.896139" lon="116.645531">
        <time>2021-08-02T12:51:52Z</time>
      </trkpt>
      <trkpt lat="39.896102" lon="116.645659">
        <time>2021-08-02T12:51:57Z</time>
      </trkpt>
      <trkpt lat="39.896064" lon="116.645817">
        <time>2021-08-02T12:52:02Z</time>
      </trkpt>
      <trkpt lat="39.896038" lon="116.645961">
        <time>2021-08-02T12:52:07Z</time>
      </trkpt>
      <trkpt lat="39.896018" lon="116.646121">
        <time>2021-08-02T12:52:12Z</time>
      </trkpt>
      <trkpt lat="39.896005" lon="116.646303">
        <time>2021-08-02T12:52:17Z</time>
      </trkpt>
      <trkpt lat="39.895998" lon="116.646456">
        <time>2021-08-02T12:52:22Z</time>
      </trkpt>
      <trkpt lat="39.895992" lon="116.646607">
        <time>2021-08-02T12:52:27Z</time>
      </trkpt>
      <trkpt lat="39.895998" lon="116.646793">
        <time>2021-08-02T12:52:32Z</time>
      </trkpt>
      <trkpt lat="39.895965" lon="116.646966">
        <time>2021-08-02T12:52:37Z</time>
      </trkpt>
      <trkpt lat="39.895957" lon="116.647113">
        <time>2021-08-02T12:52:42Z</time>
      </trkpt>
      <trkpt lat="39.895899" lon="116.647268">
        <time>2021-08-02T12:52:47Z</time>
      </trkpt>
      <trkpt lat="39.895768" lon="116.647336">
        <time>2021-08-02T12:52:52Z</time>
      </trkpt>
      <trkpt lat="39.895722" lon="116.647453">
        <time>2021-08-02T12:52:57Z</time>
      </trkpt>
      <trkpt lat="39.895692" lon="116.647597">
        <time>2021-08-02T12:53:02Z</time>
      </trkpt>
      <trkpt lat="39.895667" lon="116.647755">
        <time>2021-08-02T12:53:07Z</time>
      </trkpt>
      <trkpt lat="39.895666" lon="116.647963">
        <time>2021-08-02T12:53:12Z</time>
      </trkpt>
      <trkpt lat="39.895671" lon="116.648056">
        <time>2021-08-02T12:53:17Z</time>
      </trkpt>
      <trkpt lat="39.89566" lon="116.648215">
        <time>2021-08-02T12:53:22Z</time>
      </trkpt>
      <trkpt lat="39.895658" lon="116.648357">
        <time>2021-08-02T12:53:27Z</time>
      </trkpt>
      <trkpt lat="39.895662" lon="116.648491">
        <time>2021-08-02T12:53:32Z</time>
      </trkpt>
      <trkpt lat="39.89578" lon="116.648488">
        <time>2021-08-02T12:53:37Z</time>
      </trkpt>
      <trkpt lat="39.895832" lon="116.648322">
        <time>2021-08-02T12:53:42Z</time>
      </trkpt>
      <trkpt lat="39.89589" lon="116.648135">
        <time>2021-08-02T12:53:47Z</time>
      </trkpt>
      <trkpt lat="39.89593" lon="116.647949">
        <time>2021-08-02T12:53:52Z</time>
      </trkpt>
      <trkpt lat="39.895919" lon="116.64781">
        <time>2021-08-02T12:53:57Z</time>
      </trkpt>
      <trkpt lat="39.895917" lon="116.647676">
        <time>2021-08-02T12:54:02Z</time>
      </trkpt>
      <trkpt lat="39.895954" lon="116.647508">
        <time>2021-08-02T12:54:07Z</time>
      </trkpt>
      <trkpt lat="39.895971" lon="116.647313">
        <time>2021-08-02T12:54:12Z</time>
      </trkpt>
      <trkpt lat="39.895927" lon="116.647191">
        <time>2021-08-02T12:54:17Z</time>
      </trkpt>
      <trkpt lat="39.895834" lon="116.647263">
        <time>2021-08-02T12:54:22Z</time>
      </trkpt>
      <trkpt lat="39.895761" lon="116.647449">
        <time>2021-08-02T12:54:27Z</time>
      </trkpt>
      <trkpt lat="39.895713" lon="116.647623">
        <time>2021-08-02T12:54:32Z</time>
      </trkpt>
      <trkpt lat="39.895688" lon="116.647935">
        <time>2021-08-02T12:54:37Z</time>
      </trkpt>
      <trkpt lat="39.895691" lon="116.647983">
        <time>2021-08-02T12:54:42Z</time>
      </trkpt>
      <trkpt lat="39.895689" lon="116.648129">
        <time>2021-08-02T12:54:47Z</time>
      </trkpt>
      <trkpt lat="39.895693" lon="116.648272">
        <time>2021-08-02T12:54:52Z</time>
      </trkpt>
      <trkpt lat="39.89568" lon="116.648437">
        <time>2021-08-02T12:54:57Z</time>
      </trkpt>
      <trkpt lat="39.895674" lon="116.648605">
        <time>2021-08-02T12:55:02Z</time>
      </trkpt>
      <trkpt lat="39.89566" lon="116.64874">
        <time>2021-08-02T12:55:07Z</time>
      </trkpt>
      <trkpt lat="39.895666" lon="116.648902">
        <time>2021-08-02T12:55:12Z</time>
      </trkpt>
      <trkpt lat="39.895605" lon="116.649061">
        <time>2021-08-02T12:55:17Z</time>
      </trkpt>
      <trkpt lat="39.895543" lon="116.649205">
        <time>2021-08-02T12:55:22Z</time>
      </trkpt>
      <trkpt lat="39.89541" lon="116.649183">
        <time>2021-08-02T12:55:27Z</time>
      </trkpt>
      <trkpt lat="39.895277" lon="116.64911">
        <time>2021-08-02T12:55:32Z</time>
      </trkpt>
      <trkpt lat="39.895162" lon="116.649053">
        <time>2021-08-02T12:55:37Z</time>
      </trkpt>
      <trkpt lat="39.895042" lon="116.648972">
        <time>2021-08-02T12:55:42Z</time>
      </trkpt>
      <trkpt lat="39.89491" lon="116.648877">
        <time>2021-08-02T12:55:47Z</time>
      </trkpt>
      <trkpt lat="39.894774" lon="116.648803">
        <time>2021-08-02T12:55:52Z</time>
      </trkpt>
      <trkpt lat="39.894701" lon="116.648693">
        <time>2021-08-02T12:55:57Z</time>
      </trkpt>
      <trkpt lat="39.894601" lon="116.648602">
        <time>2021-08-02T12:56:02Z</time>
      </trkpt>
      <trkpt lat="39.894489" lon="116.648513">
        <time>2021-08-02T12:56:07Z</time>
      </trkpt>
      <trkpt lat="39.894385" lon="116.648448">
        <time>2021-08-02T12:56:12Z</time>
      </trkpt>
      <trkpt lat="39.894272" lon="116.648385">
        <time>2021-08-02T12:56:17Z</time>
      </trkpt>
      <trkpt lat="39.89415" lon="116.648322">
        <time>2021-08-02T12:56:22Z</time>
      </trkpt>
      <trkpt lat="39.894033" lon="116.648277">
        <time>2021-08-02T12:56:27Z</time>
      </trkpt>
      <trkpt lat="39.893926" lon="116.648242">
        <time>2021-08-02T12:56:32Z</time>
      </trkpt>
      <trkpt lat="39.893739" lon="116.648231">
        <time>2021-08-02T12:56:37Z</time>
      </trkpt>
      <trkpt lat="39.893666" lon="116.648173">
        <time>2021-08-02T12:56:42Z</time>
      </trkpt>
      <trkpt lat="39.893568" lon="116.648106">
        <time>2021-08-02T12:56:47Z</time>
      </trkpt>
      <trkpt lat="39.893466" lon="116.64804">
        <time>2021-08-02T12:56:52Z</time>
      </trkpt>
      <trkpt lat="39.89333" lon="116.648007">
        <time>2021-08-02T12:56:57Z</time>
      </trkpt>
      <trkpt lat="39.893196" lon="116.648006">
        <time>2021-08-02T12:57:02Z</time>
      </trkpt>
      <trkpt lat="39.893082" lon="116.647972">
        <time>2021-08-02T12:57:07Z</time>
      </trkpt>
      <trkpt lat="39.892952" lon="116.647981">
        <time>2021-08-02T12:57:12Z</time>
      </trkpt>
      <trkpt lat="39.892698" lon="116.64793">
        <time>2021-08-02T12:57:17Z</time>
      </trkpt>
      <trkpt lat="39.892591" lon="116.647925">
        <time>2021-08-02T12:57:22Z</time>
      </trkpt>
      <trkpt lat="39.892505" lon="116.647799">
        <time>2021-08-02T12:57:27Z</time>
      </trkpt>
      <trkpt lat="39.892524" lon="116.647638">
        <time>2021-08-02T12:57:32Z</time>
      </trkpt>
      <trkpt lat="39.892556" lon="116.64754">
        <time>2021-08-02T12:57:37Z</time>
      </trkpt>
      <trkpt lat="39.892587" lon="116.647377">
        <time>2021-08-02T12:57:42Z</time>
      </trkpt>
      <trkpt lat="39.892594" lon="116.647234">
        <time>2021-08-02T12:57:47Z</time>
      </trkpt>
      <trkpt lat="39.892611" lon="116.647063">
        <time>2021-08-02T12:57:52Z</time>
      </trkpt>
      <trkpt lat="39.892626" lon="116.64686">
        <time>2021-08-02T12:57:57Z</time>
      </trkpt>
      <trkpt lat="39.892612" lon="116.646642">
        <time>2021-08-02T12:58:02Z</time>
      </trkpt>
      <trkpt lat="39.892618" lon="116.646418">
        <time>2021-08-02T12:58:07Z</time>
      </trkpt>
      <trkpt lat="39.892674" lon="116.646229">
        <time>2021-08-02T12:58:12Z</time>
      </trkpt>
      <trkpt lat="39.892676" lon="116.646018">
        <time>2021-08-02T12:58:17Z</time>
      </trkpt>
      <trkpt lat="39.89261" lon="116.645833">
        <time>2021-08-02T12:58:22Z</time>
      </trkpt>
      <trkpt lat="39.892488" lon="116.6457">
        <time>2021-08-02T12:58:27Z</time>
      </trkpt>
      <trkpt lat="39.892346" lon="116.645634">
        <time>2021-08-02T12:58:32Z</time>
      </trkpt>
      <trkpt lat="39.892176" lon="116.645584">
        <time>2021-08-02T12:58:37Z</time>
      </trkpt>
      <trkpt lat="39.892055" lon="116.645522">
        <time>2021-08-02T12:58:42Z</time>
      </trkpt>
      <trkpt lat="39.891929" lon="116.645492">
        <time>2021-08-02T12:58:47Z</time>
      </trkpt>
      <trkpt lat="39.891819" lon="116.645455">
        <time>2021-08-02T12:58:52Z</time>
      </trkpt>
      <trkpt lat="39.891717" lon="116.64543">
        <time>2021-08-02T12:58:57Z</time>
      </trkpt>
      <trkpt lat="39.891617" lon="116.645364">
        <time>2021-08-02T12:59:02Z</time>
      </trkpt>
      <trkpt lat="39.891524" lon="116.645291">
        <time>2021-08-02T12:59:07Z</time>
      </trkpt>
      <trkpt lat="39.891477" lon="116.645286">
        <time>2021-08-02T12:59:12Z</time>
      </trkpt>
      <trkpt lat="39.89149" lon="116.645361">
        <time>2021-08-02T12:59:17Z</time>
      </trkpt>
      <trkpt lat="39.891598" lon="116.645383">
        <time>2021-08-02T12:59:22Z</time>
      </trkpt>
      <trkpt lat="39.891716" lon="116.645417">
        <time>2021-08-02T12:59:27Z</time>
      </trkpt>
      <trkpt lat="39.891841" lon="116.645468">
        <time>2021-08-02T12:59:32Z</time>
      </trkpt>
      <trkpt lat="39.891975" lon="116.645546">
        <time>2021-08-02T12:59:37Z</time>
      </trkpt>
      <trkpt lat="39.892117" lon="116.645613">
        <time>2021-08-02T12:59:42Z</time>
      </trkpt>
      <trkpt lat="39.892235" lon="116.645704">
        <time>2021-08-02T12:59:47Z</time>
      </trkpt>
      <trkpt lat="39.892366" lon="116.645764">
        <time>2021-08-02T12:59:52Z</time>
      </trkpt>
      <trkpt lat="39.89246" lon="116.645792">
        <time>2021-08-02T12:59:57Z</time>
      </trkpt>
      <trkpt lat="39.892493" lon="116.645809">
        <time>2021-08-02T13:00:02Z</time>
      </trkpt>
      <trkpt lat="39.892554" lon="116.645839">
        <time>2021-08-02T13:00:07Z</time>
      </trkpt>
      <trkpt lat="39.892633" lon="116.645891">
        <time>2021-08-02T13:00:12Z</time>
      </trkpt>
      <trkpt lat="39.892689" lon="116.645967">
        <time>2021-08-02T13:00:17Z</time>
      </trkpt>
      <trkpt lat="39.892735" lon="116.646061">
        <time>2021-08-02T13:00:22Z</time>
      </trkpt>
      <trkpt lat="39.892736" lon="116.64617">
        <time>2021-08-02T13:00:27Z</time>
      </trkpt>
      <trkpt lat="39.892739" lon="116.646284">
        <time>2021-08-02T13:00:32Z</time>
      </trkpt>
      <trkpt lat="39.892699" lon="116.646445">
        <time>2021-08-02T13:00:37Z</time>
      </trkpt>
      <trkpt lat="39.892672" lon="116.646624">
        <time>2021-08-02T13:00:42Z</time>
      </trkpt>
      <trkpt lat="39.892645" lon="116.6468">
        <time>2021-08-02T13:00:47Z</time>
      </trkpt>
      <trkpt lat="39.892623" lon="116.647013">
        <time>2021-08-02T13:00:52Z</time>
      </trkpt>
      <trkpt lat="39.892581" lon="116.64732">
        <time>2021-08-02T13:00:57Z</time>
      </trkpt>
      <trkpt lat="39.892577" lon="116.647375">
        <time>2021-08-02T13:01:02Z</time>
      </trkpt>
      <trkpt lat="39.892563" lon="116.647502">
        <time>2021-08-02T13:01:07Z</time>
      </trkpt>
      <trkpt lat="39.892548" lon="116.647661">
        <time>2021-08-02T13:01:12Z</time>
      </trkpt>
      <trkpt lat="39.892533" lon="116.6478">
        <time>2021-08-02T13:01:17Z</time>
      </trkpt>
      <trkpt lat="39.892538" lon="116.647957">
        <time>2021-08-02T13:01:22Z</time>
      </trkpt>
      <trkpt lat="39.892572" lon="116.648065">
        <time>2021-08-02T13:01:27Z</time>
      </trkpt>
      <trkpt lat="39.89269" lon="116.648089">
        <time>2021-08-02T13:01:32Z</time>
      </trkpt>
      <trkpt lat="39.892807" lon="116.64808">
        <time>2021-08-02T13:01:37Z</time>
      </trkpt>
      <trkpt lat="39.892935" lon="116.648089">
        <time>2021-08-02T13:01:42Z</time>
      </trkpt>
      <trkpt lat="39.893088" lon="116.648094">
        <time>2021-08-02T13:01:47Z</time>
      </trkpt>
      <trkpt lat="39.893237" lon="116.648089">
        <time>2021-08-02T13:01:52Z</time>
      </trkpt>
      <trkpt lat="39.893301" lon="116.648083">
        <time>2021-08-02T13:01:57Z</time>
      </trkpt>
      <trkpt lat="39.893399" lon="116.648073">
        <time>2021-08-02T13:02:02Z</time>
      </trkpt>
      <trkpt lat="39.893419" lon="116.648094">
        <time>2021-08-02T13:02:07Z</time>
      </trkpt>
      <trkpt lat="39.893479" lon="116.648083">
        <time>2021-08-02T13:02:12Z</time>
      </trkpt>
      <trkpt lat="39.893581" lon="116.648161">
        <time>2021-08-02T13:02:17Z</time>
      </trkpt>
      <trkpt lat="39.893685" lon="116.64824">
        <time>2021-08-02T13:02:22Z</time>
      </trkpt>
      <trkpt lat="39.89385" lon="116.648306">
        <time>2021-08-02T13:02:27Z</time>
      </trkpt>
      <trkpt lat="39.893956" lon="116.648342">
        <time>2021-08-02T13:02:32Z</time>
      </trkpt>
      <trkpt lat="39.894025" lon="116.648378">
        <time>2021-08-02T13:02:37Z</time>
      </trkpt>
      <trkpt lat="39.894104" lon="116.648424">
        <time>2021-08-02T13:02:42Z</time>
      </trkpt>
      <trkpt lat="39.894152" lon="116.648476">
        <time>2021-08-02T13:02:47Z</time>
      </trkpt>
      <trkpt lat="39.894259" lon="116.648527">
        <time>2021-08-02T13:02:52Z</time>
      </trkpt>
      <trkpt lat="39.894318" lon="116.648528">
        <time>2021-08-02T13:02:57Z</time>
      </trkpt>
      <trkpt lat="39.894422" lon="116.648533">
        <time>2021-08-02T13:03:02Z</time>
      </trkpt>
      <trkpt lat="39.894631" lon="116.648701">
        <time>2021-08-02T13:03:07Z</time>
      </trkpt>
      <trkpt lat="39.894824" lon="116.648811">
        <time>2021-08-02T13:03:12Z</time>
      </trkpt>
      <trkpt lat="39.895057" lon="116.648944">
        <time>2021-08-02T13:03:17Z</time>
      </trkpt>
      <trkpt lat="39.89511" lon="116.648986">
        <time>2021-08-02T13:03:22Z</time>
      </trkpt>
      <trkpt lat="39.895192" lon="116.649049">
        <time>2021-08-02T13:03:27Z</time>
      </trkpt>
      <trkpt lat="39.895317" lon="116.649072">
        <time>2021-08-02T13:03:32Z</time>
      </trkpt>
      <trkpt lat="39.895461" lon="116.64913">
        <time>2021-08-02T13:03:37Z</time>
      </trkpt>
      <trkpt lat="39.895584" lon="116.649102">
        <time>2021-08-02T13:03:42Z</time>
      </trkpt>
      <trkpt lat="39.895684" lon="116.648945">
        <time>2021-08-02T13:03:47Z</time>
      </trkpt>
      <trkpt lat="39.89576" lon="116.648809">
        <time>2021-08-02T13:03:52Z</time>
      </trkpt>
      <trkpt lat="39.895808" lon="116.648623">
        <time>2021-08-02T13:03:57Z</time>
      </trkpt>
      <trkpt lat="39.895867" lon="116.648473">
        <time>2021-08-02T13:04:02Z</time>
      </trkpt>
      <trkpt lat="39.895933" lon="116.648316">
        <time>2021-08-02T13:04:07Z</time>
      </trkpt>
      <trkpt lat="39.895958" lon="116.648144">
        <time>2021-08-02T13:04:12Z</time>
      </trkpt>
      <trkpt lat="39.895989" lon="116.64794">
        <time>2021-08-02T13:04:17Z</time>
      </trkpt>
      <trkpt lat="39.895988" lon="116.647754">
        <time>2021-08-02T13:04:22Z</time>
      </trkpt>
      <trkpt lat="39.895981" lon="116.647556">
        <time>2021-08-02T13:04:27Z</time>
      </trkpt>
      <trkpt lat="39.895988" lon="116.647383">
        <time>2021-08-02T13:04:32Z</time>
      </trkpt>
      <trkpt lat="39.895978" lon="116.647184">
        <time>2021-08-02T13:04:37Z</time>
      </trkpt>
      <trkpt lat="39.895994" lon="116.646991">
        <time>2021-08-02T13:04:42Z</time>
      </trkpt>
      <trkpt lat="39.895979" lon="116.646817">
        <time>2021-08-02T13:04:47Z</time>
      </trkpt>
      <trkpt lat="39.895969" lon="116.64666">
        <time>2021-08-02T13:04:52Z</time>
      </trkpt>
      <trkpt lat="39.895985" lon="116.646604">
        <time>2021-08-02T13:04:57Z</time>
      </trkpt>
      <trkpt lat="39.896" lon="116.646507">
        <time>2021-08-02T13:05:02Z</time>
      </trkpt>
      <trkpt lat="39.896004" lon="116.646403">
        <time>2021-08-02T13:05:07Z</time>
      </trkpt>
      <trkpt lat="39.896034" lon="116.646309">
        <time>2021-08-02T13:05:12Z</time>
      </trkpt>
      <trkpt lat="39.896073" lon="116.646201">
        <time>2021-08-02T13:05:17Z</time>
      </trkpt>
      <trkpt lat="39.896076" lon="116.646104">
        <time>2021-08-02T13:05:22Z</time>
      </trkpt>
      <trkpt lat="39.896064" lon="116.64599">
        <time>2021-08-02T13:05:27Z</time>
      </trkpt>
      <trkpt lat="39.896071" lon="116.645874">
        <time>2021-08-02T13:05:32Z</time>
      </trkpt>
      <trkpt lat="39.896076" lon="116.645738">
        <time>2021-08-02T13:05:37Z</time>
      </trkpt>
      <trkpt lat="39.896141" lon="116.645616">
        <time>2021-08-02T13:05:42Z</time>
      </trkpt>
      <trkpt lat="39.896183" lon="116.645462">
        <time>2021-08-02T13:05:47Z</time>
      </trkpt>
      <trkpt lat="39.896181" lon="116.645309">
        <time>2021-08-02T13:05:52Z</time>
      </trkpt>
      <trkpt lat="39.896212" lon="116.645146">
        <time>2021-08-02T13:05:57Z</time>
      </trkpt>
      <trkpt lat="39.896218" lon="116.644967">
        <time>2021-08-02T13:06:02Z</time>
      </trkpt>
      <trkpt lat="39.896204" lon="116.644803">
        <time>2021-08-02T13:06:07Z</time>
      </trkpt>
      <trkpt lat="39.896201" lon="116.644614">
        <time>2021-08-02T13:06:12Z</time>
      </trkpt>
      <trkpt lat="39.896216" lon="116.6443">
        <time>2021-08-02T13:06:17Z</time>
      </trkpt>
      <trkpt lat="39.896222" lon="116.644262">
        <time>2021-08-02T13:06:22Z</time>
      </trkpt>
      <trkpt lat="39.8962" lon="116.644094">
        <time>2021-08-02T13:06:27Z</time>
      </trkpt>
      <trkpt lat="39.8962" lon="116.643939">
        <time>2021-08-02T13:06:32Z</time>
      </trkpt>
      <trkpt lat="39.896231" lon="116.643817">
        <time>2021-08-02T13:06:37Z</time>
      </trkpt>
      <trkpt lat="39.89622" lon="116.643706">
        <time>2021-08-02T13:06:42Z</time>
      </trkpt>
      <trkpt lat="39.896219" lon="116.643668">
        <time>2021-08-02T13:06:47Z</time>
      </trkpt>
      <trkpt lat="39.89623" lon="116.643571">
        <time>2021-08-02T13:06:52Z</time>
      </trkpt>
      <trkpt lat="39.896227" lon="116.643469">
        <time>2021-08-02T13:06:57Z</time>
      </trkpt>
      <trkpt lat="39.8962" lon="116.643369">
        <time>2021-08-02T13:07:02Z</time>
      </trkpt>
      <trkpt lat="39.896206" lon="116.643323">
        <time>2021-08-02T13:07:07Z</time>
      </trkpt>
      <trkpt lat="39.896172" lon="116.643115">
        <time>2021-08-02T13:07:12Z</time>
      </trkpt>
      <trkpt lat="39.896172" lon="116.643097">
        <time>2021-08-02T13:07:17Z</time>
      </trkpt>
      <trkpt lat="39.896165" lon="116.643001">
        <time>2021-08-02T13:07:22Z</time>
      </trkpt>
      <trkpt lat="39.896186" lon="116.642958">
        <time>2021-08-02T13:07:27Z</time>
      </trkpt>
      <trkpt lat="39.896184" lon="116.642871">
        <time>2021-08-02T13:07:32Z</time>
      </trkpt>
      <trkpt lat="39.896189" lon="116.642802">
        <time>2021-08-02T13:07:37Z</time>
      </trkpt>
      <trkpt lat="39.89619" lon="116.642737">
        <time>2021-08-02T13:07:42Z</time>
      </trkpt>
      <trkpt lat="39.896188" lon="116.642606">
        <time>2021-08-02T13:07:47Z</time>
      </trkpt>
      <trkpt lat="39.896209" lon="116.642465">
        <time>2021-08-02T13:07:52Z</time>
      </trkpt>
      <trkpt lat="39.896231" lon="116.642311">
        <time>2021-08-02T13:07:57Z</time>
      </trkpt>
      <trkpt lat="39.896251" lon="116.64215">
        <time>2021-08-02T13:08:02Z</time>
      </trkpt>
      <trkpt lat="39.896235" lon="116.641999">
        <time>2021-08-02T13:08:07Z</time>
      </trkpt>
      <trkpt lat="39.896222" lon="116.641862">
        <time>2021-08-02T13:08:12Z</time>
      </trkpt>
      <trkpt lat="39.896232" lon="116.641713">
        <time>2021-08-02T13:08:17Z</time>
      </trkpt>
      <trkpt lat="39.896243" lon="116.641558">
        <time>2021-08-02T13:08:22Z</time>
      </trkpt>
      <trkpt lat="39.896251" lon="116.641427">
        <time>2021-08-02T13:08:27Z</time>
      </trkpt>
      <trkpt lat="39.896262" lon="116.641304">
        <time>2021-08-02T13:08:32Z</time>
      </trkpt>
      <trkpt lat="39.89627" lon="116.641189">
        <time>2021-08-02T13:08:37Z</time>
      </trkpt>
      <trkpt lat="39.896266" lon="116.641053">
        <time>2021-08-02T13:08:42Z</time>
      </trkpt>
      <trkpt lat="39.896282" lon="116.64093">
        <time>2021-08-02T13:08:47Z</time>
      </trkpt>
      <trkpt lat="39.89629" lon="116.640805">
        <time>2021-08-02T13:08:52Z</time>
      </trkpt>
      <trkpt lat="39.896251" lon="116.640709">
        <time>2021-08-02T13:08:57Z</time>
      </trkpt>
      <trkpt lat="39.896253" lon="116.640617">
        <time>2021-08-02T13:09:02Z</time>
      </trkpt>
      <trkpt lat="39.896243" lon="116.640517">
        <time>2021-08-02T13:09:07Z</time>
      </trkpt>
      <trkpt lat="39.896285" lon="116.640433">
        <time>2021-08-02T13:09:12Z</time>
      </trkpt>
      <trkpt lat="39.896347" lon="116.640451">
        <time>2021-08-02T13:09:17Z</time>
      </trkpt>
      <trkpt lat="39.896432" lon="116.640499">
        <time>2021-08-02T13:09:22Z</time>
      </trkpt>
      <trkpt lat="39.896615" lon="116.640559">
        <time>2021-08-02T13:09:27Z</time>
      </trkpt>
      <trkpt lat="39.896777" lon="116.640579">
        <time>2021-08-02T13:09:32Z</time>
      </trkpt>
      <trkpt lat="39.896894" lon="116.640618">
        <time>2021-08-02T13:09:37Z</time>
      </trkpt>
      <trkpt lat="39.896958" lon="116.640683">
        <time>2021-08-02T13:09:42Z</time>
      </trkpt>
      <trkpt lat="39.897054" lon="116.640741">
        <time>2021-08-02T13:09:47Z</time>
      </trkpt>
      <trkpt lat="39.897077" lon="116.640752">
        <time>2021-08-02T13:09:52Z</time>
      </trkpt>
      <trkpt lat="39.897129" lon="116.640793">
        <time>2021-08-02T13:09:57Z</time>
      </trkpt>
      <trkpt lat="39.897196" lon="116.640842">
        <time>2021-08-02T13:10:02Z</time>
      </trkpt>
      <trkpt lat="39.897263" lon="116.640849">
        <time>2021-08-02T13:10:07Z</time>
      </trkpt>
      <trkpt lat="39.897262" lon="116.640905">
        <time>2021-08-02T13:10:12Z</time>
      </trkpt>
      <trkpt lat="39.897331" lon="116.640987">
        <time>2021-08-02T13:10:17Z</time>
      </trkpt>
      <trkpt lat="39.897434" lon="116.641038">
        <time>2021-08-02T13:10:22Z</time>
      </trkpt>
      <trkpt lat="39.897511" lon="116.641032">
        <time>2021-08-02T13:10:27Z</time>
      </trkpt>
      <trkpt lat="39.897608" lon="116.641033">
        <time>2021-08-02T13:10:32Z</time>
      </trkpt>
      <trkpt lat="39.89777" lon="116.641121">
        <time>2021-08-02T13:10:37Z</time>
      </trkpt>
      <trkpt lat="39.897875" lon="116.6412">
        <time>2021-08-02T13:10:42Z</time>
      </trkpt>
      <trkpt lat="39.89793" lon="116.64123">
        <time>2021-08-02T13:10:47Z</time>
      </trkpt>
      <trkpt lat="39.898032" lon="116.641251">
        <time>2021-08-02T13:10:52Z</time>
      </trkpt>
      <trkpt lat="39.898143" lon="116.641274">
        <time>2021-08-02T13:10:57Z</time>
      </trkpt>
      <trkpt lat="39.89825" lon="116.641405">
        <time>2021-08-02T13:11:02Z</time>
      </trkpt>
      <trkpt lat="39.898295" lon="116.641625">
        <time>2021-08-02T13:11:07Z</time>
      </trkpt>
      <trkpt lat="39.898311" lon="116.641833">
        <time>2021-08-02T13:11:12Z</time>
      </trkpt>
      <trkpt lat="39.898305" lon="116.641979">
        <time>2021-08-02T13:11:17Z</time>
      </trkpt>
      <trkpt lat="39.8983" lon="116.642148">
        <time>2021-08-02T13:11:22Z</time>
      </trkpt>
      <trkpt lat="39.898305" lon="116.642313">
        <time>2021-08-02T13:11:27Z</time>
      </trkpt>
      <trkpt lat="39.898306" lon="116.642479">
        <time>2021-08-02T13:11:32Z</time>
      </trkpt>
      <trkpt lat="39.898315" lon="116.642793">
        <time>2021-08-02T13:11:37Z</time>
      </trkpt>
      <trkpt lat="39.89832" lon="116.642824">
        <time>2021-08-02T13:11:42Z</time>
      </trkpt>
      <trkpt lat="39.898315" lon="116.642982">
        <time>2021-08-02T13:11:47Z</time>
      </trkpt>
      <trkpt lat="39.89832" lon="116.643119">
        <time>2021-08-02T13:11:52Z</time>
      </trkpt>
      <trkpt lat="39.898303" lon="116.643247">
        <time>2021-08-02T13:11:57Z</time>
      </trkpt>
      <trkpt lat="39.898321" lon="116.643379">
        <time>2021-08-02T13:12:02Z</time>
      </trkpt>
      <trkpt lat="39.898272" lon="116.643492">
        <time>2021-08-02T13:12:07Z</time>
      </trkpt>
      <trkpt lat="39.898247" lon="116.643564">
        <time>2021-08-02T13:12:12Z</time>
      </trkpt>
      <trkpt lat="39.898245" lon="116.643618">
        <time>2021-08-02T13:12:17Z</time>
      </trkpt>
      <trkpt lat="39.898261" lon="116.643735">
        <time>2021-08-02T13:12:22Z</time>
      </trkpt>
      <trkpt lat="39.898285" lon="116.643838">
        <time>2021-08-02T13:12:27Z</time>
      </trkpt>
      <trkpt lat="39.898298" lon="116.643937">
        <time>2021-08-02T13:12:32Z</time>
      </trkpt>
      <trkpt lat="39.898294" lon="116.644056">
        <time>2021-08-02T13:12:37Z</time>
      </trkpt>
      <trkpt lat="39.898313" lon="116.644159">
        <time>2021-08-02T13:12:42Z</time>
      </trkpt>
      <trkpt lat="39.89834" lon="116.644229">
        <time>2021-08-02T13:12:47Z</time>
      </trkpt>
      <trkpt lat="39.898404" lon="116.644413">
        <time>2021-08-02T13:12:52Z</time>
      </trkpt>
      <trkpt lat="39.898414" lon="116.644503">
        <time>2021-08-02T13:12:57Z</time>
      </trkpt>
      <trkpt lat="39.898412" lon="116.644731">
        <time>2021-08-02T13:13:02Z</time>
      </trkpt>
      <trkpt lat="39.898418" lon="116.644911">
        <time>2021-08-02T13:13:07Z</time>
      </trkpt>
      <trkpt lat="39.898451" lon="116.645065">
        <time>2021-08-02T13:13:12Z</time>
      </trkpt>
      <trkpt lat="39.898485" lon="116.645164">
        <time>2021-08-02T13:13:17Z</time>
      </trkpt>
      <trkpt lat="39.898498" lon="116.645203">
        <time>2021-08-02T13:13:22Z</time>
      </trkpt>
      <trkpt lat="39.898523" lon="116.645265">
        <time>2021-08-02T13:13:27Z</time>
      </trkpt>
      <trkpt lat="39.898538" lon="116.645329">
        <time>2021-08-02T13:13:32Z</time>
      </trkpt>
      <trkpt lat="39.898543" lon="116.645368">
        <time>2021-08-02T13:13:37Z</time>
      </trkpt>
      <trkpt lat="39.898538" lon="116.645457">
        <time>2021-08-02T13:13:42Z</time>
      </trkpt>
      <trkpt lat="39.898559" lon="116.645548">
        <time>2021-08-02T13:13:47Z</time>
      </trkpt>
      <trkpt lat="39.898599" lon="116.6457">
        <time>2021-08-02T13:13:52Z</time>
      </trkpt>
      <trkpt lat="39.898656" lon="116.645885">
        <time>2021-08-02T13:13:57Z</time>
      </trkpt>
      <trkpt lat="39.898698" lon="116.646062">
        <time>2021-08-02T13:14:02Z</time>
      </trkpt>
      <trkpt lat="39.898736" lon="116.646239">
        <time>2021-08-02T13:14:07Z</time>
      </trkpt>
      <trkpt lat="39.898771" lon="116.646329">
        <time>2021-08-02T13:14:12Z</time>
      </trkpt>
      <trkpt lat="39.89881" lon="116.646425">
        <time>2021-08-02T13:14:17Z</time>
      </trkpt>
      <trkpt lat="39.898845" lon="116.646538">
        <time>2021-08-02T13:14:22Z</time>
      </trkpt>
      <trkpt lat="39.898889" lon="116.646697">
        <time>2021-08-02T13:14:27Z</time>
      </trkpt>
      <trkpt lat="39.898979" lon="116.646915">
        <time>2021-08-02T13:14:32Z</time>
      </trkpt>
      <trkpt lat="39.899082" lon="116.647142">
        <time>2021-08-02T13:14:37Z</time>
      </trkpt>
      <trkpt lat="39.899141" lon="116.647352">
        <time>2021-08-02T13:14:42Z</time>
      </trkpt>
      <trkpt lat="39.899139" lon="116.647527">
        <time>2021-08-02T13:14:47Z</time>
      </trkpt>
      <trkpt lat="39.899121" lon="116.647694">
        <time>2021-08-02T13:14:52Z</time>
      </trkpt>
      <trkpt lat="39.899075" lon="116.647825">
        <time>2021-08-02T13:14:57Z</time>
      </trkpt>
      <trkpt lat="39.899067" lon="116.647923">
        <time>2021-08-02T13:15:02Z</time>
      </trkpt>
      <trkpt lat="39.899074" lon="116.64802">
        <time>2021-08-02T13:15:07Z</time>
      </trkpt>
      <trkpt lat="39.899088" lon="116.648194">
        <time>2021-08-02T13:15:12Z</time>
      </trkpt>
      <trkpt lat="39.899075" lon="116.648344">
        <time>2021-08-02T13:15:17Z</time>
      </trkpt>
      <trkpt lat="39.899119" lon="116.648509">
        <time>2021-08-02T13:15:22Z</time>
      </trkpt>
      <trkpt lat="39.899127" lon="116.648662">
        <time>2021-08-02T13:15:27Z</time>
      </trkpt>
      <trkpt lat="39.899118" lon="116.648794">
        <time>2021-08-02T13:15:32Z</time>
      </trkpt>
      <trkpt lat="39.89909" lon="116.648956">
        <time>2021-08-02T13:15:37Z</time>
      </trkpt>
      <trkpt lat="39.899065" lon="116.649163">
        <time>2021-08-02T13:15:42Z</time>
      </trkpt>
      <trkpt lat="39.899065" lon="116.649254">
        <time>2021-08-02T13:15:47Z</time>
      </trkpt>
      <trkpt lat="39.899062" lon="116.64942">
        <time>2021-08-02T13:15:52Z</time>
      </trkpt>
      <trkpt lat="39.899053" lon="116.649534">
        <time>2021-08-02T13:15:57Z</time>
      </trkpt>
      <trkpt lat="39.899078" lon="116.649609">
        <time>2021-08-02T13:16:02Z</time>
      </trkpt>
      <trkpt lat="39.899076" lon="116.649667">
        <time>2021-08-02T13:16:07Z</time>
      </trkpt>
      <trkpt lat="39.899082" lon="116.649753">
        <time>2021-08-02T13:16:12Z</time>
      </trkpt>
      <trkpt lat="39.899106" lon="116.649824">
        <time>2021-08-02T13:16:17Z</time>
      </trkpt>
      <trkpt lat="39.899094" lon="116.649963">
        <time>2021-08-02T13:16:22Z</time>
      </trkpt>
      <trkpt lat="39.899094" lon="116.650149">
        <time>2021-08-02T13:16:27Z</time>
      </trkpt>
      <trkpt lat="39.899082" lon="116.650338">
        <time>2021-08-02T13:16:32Z</time>
      </trkpt>
      <trkpt lat="39.899116" lon="116.65053">
        <time>2021-08-02T13:16:37Z</time>
      </trkpt>
      <trkpt lat="39.899215" lon="116.650685">
        <time>2021-08-02T13:16:42Z</time>
      </trkpt>
      <trkpt lat="39.899239" lon="116.650822">
        <time>2021-08-02T13:16:47Z</time>
      </trkpt>
      <trkpt lat="39.899193" lon="116.650945">
        <time>2021-08-02T13:16:52Z</time>
      </trkpt>
      <trkpt lat="39.899108" lon="116.651054">
        <time>2021-08-02T13:16:57Z</time>
      </trkpt>
      <trkpt lat="39.899056" lon="116.651133">
        <time>2021-08-02T13:17:02Z</time>
      </trkpt>
      <trkpt lat="39.899039" lon="116.65124">
        <time>2021-08-02T13:17:07Z</time>
      </trkpt>
      <trkpt lat="39.899001" lon="116.651331">
        <time>2021-08-02T13:17:12Z</time>
      </trkpt>
      <trkpt lat="39.898974" lon="116.651508">
        <time>2021-08-02T13:17:17Z</time>
      </trkpt>
      <trkpt lat="39.898975" lon="116.651501">
        <time>2021-08-02T13:17:22Z</time>
      </trkpt>
      <trkpt lat="39.898999" lon="116.651434">
        <time>2021-08-02T13:17:27Z</time>
      </trkpt>
      <trkpt lat="39.899021" lon="116.651306">
        <time>2021-08-02T13:17:32Z</time>
      </trkpt>
      <trkpt lat="39.89905" lon="116.651181">
        <time>2021-08-02T13:17:37Z</time>
      </trkpt>
      <trkpt lat="39.899076" lon="116.651028">
        <time>2021-08-02T13:17:42Z</time>
      </trkpt>
      <trkpt lat="39.899091" lon="116.650967">
        <time>2021-08-02T13:17:47Z</time>
      </trkpt>
      <trkpt lat="39.89913" lon="116.650856">
        <time>2021-08-02T13:17:52Z</time>
      </trkpt>
      <trkpt lat="39.899153" lon="116.650717">
        <time>2021-08-02T13:17:57Z</time>
      </trkpt>
      <trkpt lat="39.899176" lon="116.650527">
        <time>2021-08-02T13:18:02Z</time>
      </trkpt>
      <trkpt lat="39.899133" lon="116.650259">
        <time>2021-08-02T13:18:07Z</time>
      </trkpt>
      <trkpt lat="39.899108" lon="116.650018">
        <time>2021-08-02T13:18:12Z</time>
      </trkpt>
      <trkpt lat="39.899083" lon="116.649776">
        <time>2021-08-02T13:18:17Z</time>
      </trkpt>
      <trkpt lat="39.899013" lon="116.649515">
        <time>2021-08-02T13:18:22Z</time>
      </trkpt>
      <trkpt lat="39.898976" lon="116.649421">
        <time>2021-08-02T13:18:27Z</time>
      </trkpt>
      <trkpt lat="39.898944" lon="116.649302">
        <time>2021-08-02T13:18:32Z</time>
      </trkpt>
      <trkpt lat="39.898951" lon="116.649114">
        <time>2021-08-02T13:18:37Z</time>
      </trkpt>
      <trkpt lat="39.898949" lon="116.648945">
        <time>2021-08-02T13:18:42Z</time>
      </trkpt>
      <trkpt lat="39.898959" lon="116.648806">
        <time>2021-08-02T13:18:47Z</time>
      </trkpt>
      <trkpt lat="39.898968" lon="116.648686">
        <time>2021-08-02T13:18:52Z</time>
      </trkpt>
      <trkpt lat="39.899009" lon="116.648554">
        <time>2021-08-02T13:18:57Z</time>
      </trkpt>
      <trkpt lat="39.899047" lon="116.648407">
        <time>2021-08-02T13:19:02Z</time>
      </trkpt>
      <trkpt lat="39.899024" lon="116.648164">
        <time>2021-08-02T13:19:07Z</time>
      </trkpt>
      <trkpt lat="39.898961" lon="116.647979">
        <time>2021-08-02T13:19:12Z</time>
      </trkpt>
      <trkpt lat="39.898957" lon="116.647779">
        <time>2021-08-02T13:19:17Z</time>
      </trkpt>
      <trkpt lat="39.898986" lon="116.647616">
        <time>2021-08-02T13:19:22Z</time>
      </trkpt>
      <trkpt lat="39.898996" lon="116.647453">
        <time>2021-08-02T13:19:27Z</time>
      </trkpt>
      <trkpt lat="39.898966" lon="116.647224">
        <time>2021-08-02T13:19:32Z</time>
      </trkpt>
      <trkpt lat="39.898873" lon="116.647018">
        <time>2021-08-02T13:19:37Z</time>
      </trkpt>
      <trkpt lat="39.898743" lon="116.646779">
        <time>2021-08-02T13:19:42Z</time>
      </trkpt>
      <trkpt lat="39.898735" lon="116.646724">
        <time>2021-08-02T13:19:47Z</time>
      </trkpt>
      <trkpt lat="39.898728" lon="116.646626">
        <time>2021-08-02T13:19:52Z</time>
      </trkpt>
      <trkpt lat="39.898739" lon="116.646461">
        <time>2021-08-02T13:19:57Z</time>
      </trkpt>
      <trkpt lat="39.898762" lon="116.646368">
        <time>2021-08-02T13:20:02Z</time>
      </trkpt>
      <trkpt lat="39.898737" lon="116.646304">
        <time>2021-08-02T13:20:07Z</time>
      </trkpt>
      <trkpt lat="39.898694" lon="116.646289">
        <time>2021-08-02T13:20:12Z</time>
      </trkpt>
      <trkpt lat="39.898671" lon="116.646215">
        <time>2021-08-02T13:20:17Z</time>
      </trkpt>
      <trkpt lat="39.898645" lon="116.646102">
        <time>2021-08-02T13:20:22Z</time>
      </trkpt>
      <trkpt lat="39.898587" lon="116.645994">
        <time>2021-08-02T13:20:27Z</time>
      </trkpt>
      <trkpt lat="39.898539" lon="116.645904">
        <time>2021-08-02T13:20:32Z</time>
      </trkpt>
      <trkpt lat="39.898517" lon="116.645858">
        <time>2021-08-02T13:20:37Z</time>
      </trkpt>
      <trkpt lat="39.898496" lon="116.645787">
        <time>2021-08-02T13:20:42Z</time>
      </trkpt>
      <trkpt lat="39.898505" lon="116.645704">
        <time>2021-08-02T13:20:47Z</time>
      </trkpt>
      <trkpt lat="39.898512" lon="116.645634">
        <time>2021-08-02T13:20:52Z</time>
      </trkpt>
      <trkpt lat="39.898511" lon="116.645529">
        <time>2021-08-02T13:20:57Z</time>
      </trkpt>
      <trkpt lat="39.898486" lon="116.645396">
        <time>2021-08-02T13:21:02Z</time>
      </trkpt>
      <trkpt lat="39.898461" lon="116.645253">
        <time>2021-08-02T13:21:07Z</time>
      </trkpt>
      <trkpt lat="39.898441" lon="116.645098">
        <time>2021-08-02T13:21:12Z</time>
      </trkpt>
      <trkpt lat="39.898407" lon="116.644951">
        <time>2021-08-02T13:21:17Z</time>
      </trkpt>
      <trkpt lat="39.898371" lon="116.644793">
        <time>2021-08-02T13:21:22Z</time>
      </trkpt>
      <trkpt lat="39.898364" lon="116.644625">
        <time>2021-08-02T13:21:27Z</time>
      </trkpt>
      <trkpt lat="39.898392" lon="116.644488">
        <time>2021-08-02T13:21:32Z</time>
      </trkpt>
      <trkpt lat="39.898347" lon="116.644324">
        <time>2021-08-02T13:21:37Z</time>
      </trkpt>
      <trkpt lat="39.898309" lon="116.644145">
        <time>2021-08-02T13:21:42Z</time>
      </trkpt>
      <trkpt lat="39.898273" lon="116.643972">
        <time>2021-08-02T13:21:47Z</time>
      </trkpt>
      <trkpt lat="39.898258" lon="116.643773">
        <time>2021-08-02T13:21:52Z</time>
      </trkpt>
      <trkpt lat="39.898275" lon="116.643681">
        <time>2021-08-02T13:21:57Z</time>
      </trkpt>
      <trkpt lat="39.898344" lon="116.643598">
        <time>2021-08-02T13:22:02Z</time>
      </trkpt>
      <trkpt lat="39.898432" lon="116.643486">
        <time>2021-08-02T13:22:07Z</time>
      </trkpt>
      <trkpt lat="39.89844" lon="116.64343">
        <time>2021-08-02T13:22:12Z</time>
      </trkpt>
      <trkpt lat="39.898428" lon="116.643309">
        <time>2021-08-02T13:22:17Z</time>
      </trkpt>
      <trkpt lat="39.898425" lon="116.64318">
        <time>2021-08-02T13:22:22Z</time>
      </trkpt>
      <trkpt lat="39.898386" lon="116.643045">
        <time>2021-08-02T13:22:27Z</time>
      </trkpt>
      <trkpt lat="39.898335" lon="116.642929">
        <time>2021-08-02T13:22:32Z</time>
      </trkpt>
      <trkpt lat="39.8983" lon="116.642807">
        <time>2021-08-02T13:22:37Z</time>
      </trkpt>
      <trkpt lat="39.898304" lon="116.642699">
        <time>2021-08-02T13:22:42Z</time>
      </trkpt>
      <trkpt lat="39.898327" lon="116.642614">
        <time>2021-08-02T13:22:47Z</time>
      </trkpt>
      <trkpt lat="39.898346" lon="116.642485">
        <time>2021-08-02T13:22:52Z</time>
      </trkpt>
      <trkpt lat="39.898296" lon="116.642303">
        <time>2021-08-02T13:22:57Z</time>
      </trkpt>
      <trkpt lat="39.898277" lon="116.642231">
        <time>2021-08-02T13:23:02Z</time>
      </trkpt>
      <trkpt lat="39.898343" lon="116.642129">
        <time>2021-08-02T13:23:07Z</time>
      </trkpt>
      <trkpt lat="39.898357" lon="116.642076">
        <time>2021-08-02T13:23:12Z</time>
      </trkpt>
      <trkpt lat="39.898407" lon="116.64192">
        <time>2021-08-02T13:23:17Z</time>
      </trkpt>
      <trkpt lat="39.898421" lon="116.641697">
        <time>2021-08-02T13:23:22Z</time>
      </trkpt>
      <trkpt lat="39.898427" lon="116.641504">
        <time>2021-08-02T13:23:27Z</time>
      </trkpt>
      <trkpt lat="39.898341" lon="116.641351">
        <time>2021-08-02T13:23:32Z</time>
      </trkpt>
      <trkpt lat="39.898212" lon="116.641227">
        <time>2021-08-02T13:23:37Z</time>
      </trkpt>
      <trkpt lat="39.898123" lon="116.641162">
        <time>2021-08-02T13:23:42Z</time>
      </trkpt>
      <trkpt lat="39.89809" lon="116.641113">
        <time>2021-08-02T13:23:47Z</time>
      </trkpt>
      <trkpt lat="39.897999" lon="116.64114">
        <time>2021-08-02T13:23:52Z</time>
      </trkpt>
      <trkpt lat="39.897876" lon="116.64114">
        <time>2021-08-02T13:23:57Z</time>
      </trkpt>
      <trkpt lat="39.897781" lon="116.641106">
        <time>2021-08-02T13:24:02Z</time>
      </trkpt>
      <trkpt lat="39.897711" lon="116.641027">
        <time>2021-08-02T13:24:07Z</time>
      </trkpt>
      <trkpt lat="39.897665" lon="116.641004">
        <time>2021-08-02T13:24:12Z</time>
      </trkpt>
      <trkpt lat="39.897554" lon="116.640937">
        <time>2021-08-02T13:24:17Z</time>
      </trkpt>
      <trkpt lat="39.897417" lon="116.640863">
        <time>2021-08-02T13:24:22Z</time>
      </trkpt>
      <trkpt lat="39.897291" lon="116.6409">
        <time>2021-08-02T13:24:27Z</time>
      </trkpt>
      <trkpt lat="39.897185" lon="116.640861">
        <time>2021-08-02T13:24:32Z</time>
      </trkpt>
      <trkpt lat="39.897098" lon="116.640782">
        <time>2021-08-02T13:24:37Z</time>
      </trkpt>
      <trkpt lat="39.896975" lon="116.64071">
        <time>2021-08-02T13:24:42Z</time>
      </trkpt>
      <trkpt lat="39.896859" lon="116.640667">
        <time>2021-08-02T13:24:47Z</time>
      </trkpt>
      <trkpt lat="39.89676" lon="116.640598">
        <time>2021-08-02T13:24:52Z</time>
      </trkpt>
      <trkpt lat="39.896668" lon="116.640506">
        <time>2021-08-02T13:24:57Z</time>
      </trkpt>
      <trkpt lat="39.896546" lon="116.640425">
        <time>2021-08-02T13:25:02Z</time>
      </trkpt>
      <trkpt lat="39.896453" lon="116.640382">
        <time>2021-08-02T13:25:07Z</time>
      </trkpt>
      <trkpt lat="39.89634" lon="116.640312">
        <time>2021-08-02T13:25:12Z</time>
      </trkpt>
      <trkpt lat="39.896248" lon="116.640087">
        <time>2021-08-02T13:25:17Z</time>
      </trkpt>
      <trkpt lat="39.896254" lon="116.640045">
        <time>2021-08-02T13:25:22Z</time>
      </trkpt>
      <trkpt lat="39.896289" lon="116.639848">
        <time>2021-08-02T13:25:27Z</time>
      </trkpt>
      <trkpt lat="39.896283" lon="116.639654">
        <time>2021-08-02T13:25:32Z</time>
      </trkpt>
      <trkpt lat="39.896282" lon="116.639489">
        <time>2021-08-02T13:25:37Z</time>
      </trkpt>
      <trkpt lat="39.896275" lon="116.639316">
        <time>2021-08-02T13:25:42Z</time>
      </trkpt>
      <trkpt lat="39.896248" lon="116.639117">
        <time>2021-08-02T13:25:47Z</time>
      </trkpt>
      <trkpt lat="39.896226" lon="116.638932">
        <time>2021-08-02T13:25:52Z</time>
      </trkpt>
      <trkpt lat="39.896223" lon="116.638721">
        <time>2021-08-02T13:25:57Z</time>
      </trkpt>
      <trkpt lat="39.896202" lon="116.63855">
        <time>2021-08-02T13:26:02Z</time>
      </trkpt>
      <trkpt lat="39.896187" lon="116.638371">
        <time>2021-08-02T13:26:07Z</time>
      </trkpt>
      <trkpt lat="39.896185" lon="116.638201">
        <time>2021-08-02T13:26:12Z</time>
      </trkpt>
      <trkpt lat="39.896209" lon="116.638019">
        <time>2021-08-02T13:26:17Z</time>
      </trkpt>
      <trkpt lat="39.896205" lon="116.637895">
        <time>2021-08-02T13:26:22Z</time>
      </trkpt>
      <trkpt lat="39.896166" lon="116.637806">
        <time>2021-08-02T13:26:27Z</time>
      </trkpt>
      <trkpt lat="39.896134" lon="116.637724">
        <time>2021-08-02T13:26:32Z</time>
      </trkpt>
      <trkpt lat="39.896125" lon="116.637628">
        <time>2021-08-02T13:26:37Z</time>
      </trkpt>
      <trkpt lat="39.896149" lon="116.637509">
        <time>2021-08-02T13:26:42Z</time>
      </trkpt>
      <trkpt lat="39.896154" lon="116.637415">
        <time>2021-08-02T13:26:47Z</time>
      </trkpt>
      <trkpt lat="39.896137" lon="116.637329">
        <time>2021-08-02T13:26:52Z</time>
      </trkpt>
      <trkpt lat="39.896141" lon="116.637229">
        <time>2021-08-02T13:26:57Z</time>
      </trkpt>
      <trkpt lat="39.896135" lon="116.637153">
        <time>2021-08-02T13:27:02Z</time>
      </trkpt>
      <trkpt lat="39.896127" lon="116.637016">
        <time>2021-08-02T13:27:07Z</time>
      </trkpt>
      <trkpt lat="39.896055" lon="116.636725">
        <time>2021-08-02T13:27:12Z</time>
      </trkpt>
      <trkpt lat="39.896017" lon="116.636656">
        <time>2021-08-02T13:27:17Z</time>
      </trkpt>
      <trkpt lat="39.89593" lon="116.636552">
        <time>2021-08-02T13:27:22Z</time>
      </trkpt>
      <trkpt lat="39.89597" lon="116.636661">
        <time>2021-08-02T13:27:27Z</time>
      </trkpt>
      <trkpt lat="39.896063" lon="116.636759">
        <time>2021-08-02T13:27:32Z</time>
      </trkpt>
      <trkpt lat="39.896115" lon="116.636911">
        <time>2021-08-02T13:27:37Z</time>
      </trkpt>
      <trkpt lat="39.896142" lon="116.637048">
        <time>2021-08-02T13:27:42Z</time>
      </trkpt>
      <trkpt lat="39.89615" lon="116.637181">
        <time>2021-08-02T13:27:47Z</time>
      </trkpt>
      <trkpt lat="39.896155" lon="116.637246">
        <time>2021-08-02T13:27:52Z</time>
      </trkpt>
      <trkpt lat="39.896164" lon="116.63737">
        <time>2021-08-02T13:27:57Z</time>
      </trkpt>
      <trkpt lat="39.896174" lon="116.637506">
        <time>2021-08-02T13:28:02Z</time>
      </trkpt>
      <trkpt lat="39.89618" lon="116.637658">
        <time>2021-08-02T13:28:07Z</time>
      </trkpt>
      <trkpt lat="39.89618" lon="116.637856">
        <time>2021-08-02T13:28:12Z</time>
      </trkpt>
      <trkpt lat="39.896164" lon="116.638082">
        <time>2021-08-02T13:28:17Z</time>
      </trkpt>
      <trkpt lat="39.896171" lon="116.638179">
        <time>2021-08-02T13:28:22Z</time>
      </trkpt>
      <trkpt lat="39.896168" lon="116.638238">
        <time>2021-08-02T13:28:27Z</time>
      </trkpt>
      <trkpt lat="39.896181" lon="116.6383">
        <time>2021-08-02T13:28:32Z</time>
      </trkpt>
      <trkpt lat="39.89616" lon="116.638374">
        <time>2021-08-02T13:28:37Z</time>
      </trkpt>
      <trkpt lat="39.896181" lon="116.638472">
        <time>2021-08-02T13:28:42Z</time>
      </trkpt>
      <trkpt lat="39.896206" lon="116.638577">
        <time>2021-08-02T13:28:47Z</time>
      </trkpt>
      <trkpt lat="39.896221" lon="116.638644">
        <time>2021-08-02T13:28:52Z</time>
      </trkpt>
      <trkpt lat="39.896255" lon="116.638731">
        <time>2021-08-02T13:28:57Z</time>
      </trkpt>
      <trkpt lat="39.896263" lon="116.63882">
        <time>2021-08-02T13:29:02Z</time>
      </trkpt>
      <trkpt lat="39.89626" lon="116.638917">
        <time>2021-08-02T13:29:07Z</time>
      </trkpt>
      <trkpt lat="39.896256" lon="116.638978">
        <time>2021-08-02T13:29:12Z</time>
      </trkpt>
      <trkpt lat="39.89627" lon="116.639068">
        <time>2021-08-02T13:29:17Z</time>
      </trkpt>
      <trkpt lat="39.896285" lon="116.639192">
        <time>2021-08-02T13:29:22Z</time>
      </trkpt>
      <trkpt lat="39.896289" lon="116.63934">
        <time>2021-08-02T13:29:27Z</time>
      </trkpt>
      <trkpt lat="39.896291" lon="116.63948">
        <time>2021-08-02T13:29:32Z</time>
      </trkpt>
      <trkpt lat="39.896288" lon="116.639678">
        <time>2021-08-02T13:29:37Z</time>
      </trkpt>
      <trkpt lat="39.896293" lon="116.639884">
        <time>2021-08-02T13:29:42Z</time>
      </trkpt>
      <trkpt lat="39.896296" lon="116.640064">
        <time>2021-08-02T13:29:47Z</time>
      </trkpt>
      <trkpt lat="39.896299" lon="116.640241">
        <time>2021-08-02T13:29:52Z</time>
      </trkpt>
      <trkpt lat="39.896314" lon="116.640397">
        <time>2021-08-02T13:29:57Z</time>
      </trkpt>
      <trkpt lat="39.896309" lon="116.640491">
        <time>2021-08-02T13:30:02Z</time>
      </trkpt>
      <trkpt lat="39.896307" lon="116.640584">
        <time>2021-08-02T13:30:07Z</time>
      </trkpt>
      <trkpt lat="39.896326" lon="116.640676">
        <time>2021-08-02T13:30:12Z</time>
      </trkpt>
      <trkpt lat="39.896313" lon="116.64079">
        <time>2021-08-02T13:30:17Z</time>
      </trkpt>
      <trkpt lat="39.896273" lon="116.640914">
        <time>2021-08-02T13:30:22Z</time>
      </trkpt>
      <trkpt lat="39.896236" lon="116.640981">
        <time>2021-08-02T13:30:27Z</time>
      </trkpt>
      <trkpt lat="39.896226" lon="116.6411">
        <time>2021-08-02T13:30:32Z</time>
      </trkpt>
      <trkpt lat="39.896255" lon="116.64121">
        <time>2021-08-02T13:30:37Z</time>
      </trkpt>
      <trkpt lat="39.896246" lon="116.641344">
        <time>2021-08-02T13:30:42Z</time>
      </trkpt>
      <trkpt lat="39.896233" lon="116.641523">
        <time>2021-08-02T13:30:47Z</time>
      </trkpt>
      <trkpt lat="39.896248" lon="116.641674">
        <time>2021-08-02T13:30:52Z</time>
      </trkpt>
      <trkpt lat="39.896264" lon="116.641848">
        <time>2021-08-02T13:30:57Z</time>
      </trkpt>
      <trkpt lat="39.896278" lon="116.641976">
        <time>2021-08-02T13:31:02Z</time>
      </trkpt>
      <trkpt lat="39.896242" lon="116.642156">
        <time>2021-08-02T13:31:07Z</time>
      </trkpt>
      <trkpt lat="39.896216" lon="116.642346">
        <time>2021-08-02T13:31:12Z</time>
      </trkpt>
      <trkpt lat="39.896194" lon="116.642505">
        <time>2021-08-02T13:31:17Z</time>
      </trkpt>
      <trkpt lat="39.896212" lon="116.642661">
        <time>2021-08-02T13:31:22Z</time>
      </trkpt>
      <trkpt lat="39.896205" lon="116.642819">
        <time>2021-08-02T13:31:27Z</time>
      </trkpt>
      <trkpt lat="39.896179" lon="116.642962">
        <time>2021-08-02T13:31:32Z</time>
      </trkpt>
      <trkpt lat="39.896184" lon="116.643044">
        <time>2021-08-02T13:31:37Z</time>
      </trkpt>
      <trkpt lat="39.896181" lon="116.643119">
        <time>2021-08-02T13:31:42Z</time>
      </trkpt>
      <trkpt lat="39.896164" lon="116.64334">
        <time>2021-08-02T13:31:47Z</time>
      </trkpt>
      <trkpt lat="39.896178" lon="116.643449">
        <time>2021-08-02T13:31:52Z</time>
      </trkpt>
      <trkpt lat="39.896193" lon="116.643608">
        <time>2021-08-02T13:31:57Z</time>
      </trkpt>
      <trkpt lat="39.896238" lon="116.643798">
        <time>2021-08-02T13:32:02Z</time>
      </trkpt>
      <trkpt lat="39.89625" lon="116.643937">
        <time>2021-08-02T13:32:07Z</time>
      </trkpt>
      <trkpt lat="39.896258" lon="116.644124">
        <time>2021-08-02T13:32:12Z</time>
      </trkpt>
      <trkpt lat="39.896244" lon="116.644304">
        <time>2021-08-02T13:32:17Z</time>
      </trkpt>
      <trkpt lat="39.896214" lon="116.644487">
        <time>2021-08-02T13:32:22Z</time>
      </trkpt>
      <trkpt lat="39.896212" lon="116.644658">
        <time>2021-08-02T13:32:27Z</time>
      </trkpt>
      <trkpt lat="39.896203" lon="116.644815">
        <time>2021-08-02T13:32:32Z</time>
      </trkpt>
      <trkpt lat="39.896204" lon="116.644968">
        <time>2021-08-02T13:32:37Z</time>
      </trkpt>
      <trkpt lat="39.896165" lon="116.645096">
        <time>2021-08-02T13:32:42Z</time>
      </trkpt>
      <trkpt lat="39.896157" lon="116.645305">
        <time>2021-08-02T13:32:47Z</time>
      </trkpt>
      <trkpt lat="39.896147" lon="116.645457">
        <time>2021-08-02T13:32:52Z</time>
      </trkpt>
      <trkpt lat="39.896151" lon="116.645631">
        <time>2021-08-02T13:32:57Z</time>
      </trkpt>
      <trkpt lat="39.896089" lon="116.645799">
        <time>2021-08-02T13:33:02Z</time>
      </trkpt>
      <trkpt lat="39.896081" lon="116.645983">
        <time>2021-08-02T13:33:07Z</time>
      </trkpt>
      <trkpt lat="39.896049" lon="116.646132">
        <time>2021-08-02T13:33:12Z</time>
      </trkpt>
      <trkpt lat="39.896046" lon="116.646224">
        <time>2021-08-02T13:33:17Z</time>
      </trkpt>
      <trkpt lat="39.896037" lon="116.646318">
        <time>2021-08-02T13:33:22Z</time>
      </trkpt>
      <trkpt lat="39.896046" lon="116.646422">
        <time>2021-08-02T13:33:27Z</time>
      </trkpt>
      <trkpt lat="39.896049" lon="116.646532">
        <time>2021-08-02T13:33:32Z</time>
      </trkpt>
      <trkpt lat="39.896041" lon="116.646641">
        <time>2021-08-02T13:33:37Z</time>
      </trkpt>
      <trkpt lat="39.896036" lon="116.646708">
        <time>2021-08-02T13:33:42Z</time>
      </trkpt>
      <trkpt lat="39.896023" lon="116.64679">
        <time>2021-08-02T13:33:47Z</time>
      </trkpt>
      <trkpt lat="39.896034" lon="116.646842">
        <time>2021-08-02T13:33:52Z</time>
      </trkpt>
      <trkpt lat="39.896008" lon="116.646923">
        <time>2021-08-02T13:33:57Z</time>
      </trkpt>
      <trkpt lat="39.895985" lon="116.647034">
        <time>2021-08-02T13:34:02Z</time>
      </trkpt>
      <trkpt lat="39.89598" lon="116.647161">
        <time>2021-08-02T13:34:07Z</time>
      </trkpt>
      <trkpt lat="39.895889" lon="116.647194">
        <time>2021-08-02T13:34:12Z</time>
      </trkpt>
      <trkpt lat="39.895801" lon="116.647232">
        <time>2021-08-02T13:34:17Z</time>
      </trkpt>
      <trkpt lat="39.895746" lon="116.647335">
        <time>2021-08-02T13:34:22Z</time>
      </trkpt>
      <trkpt lat="39.8957" lon="116.64753">
        <time>2021-08-02T13:34:27Z</time>
      </trkpt>
      <trkpt lat="39.895656" lon="116.647714">
        <time>2021-08-02T13:34:32Z</time>
      </trkpt>
      <trkpt lat="39.895691" lon="116.647941">
        <time>2021-08-02T13:34:37Z</time>
      </trkpt>
      <trkpt lat="39.89571" lon="116.647991">
        <time>2021-08-02T13:34:42Z</time>
      </trkpt>
      <trkpt lat="39.895718" lon="116.648107">
        <time>2021-08-02T13:34:47Z</time>
      </trkpt>
      <trkpt lat="39.895696" lon="116.64824">
        <time>2021-08-02T13:34:52Z</time>
      </trkpt>
      <trkpt lat="39.895663" lon="116.648419">
        <time>2021-08-02T13:34:57Z</time>
      </trkpt>
      <trkpt lat="39.89575" lon="116.648465">
        <time>2021-08-02T13:35:02Z</time>
      </trkpt>
      <trkpt lat="39.895819" lon="116.648292">
        <time>2021-08-02T13:35:07Z</time>
      </trkpt>
      <trkpt lat="39.895861" lon="116.64811">
        <time>2021-08-02T13:35:12Z</time>
      </trkpt>
      <trkpt lat="39.895903" lon="116.647957">
        <time>2021-08-02T13:35:17Z</time>
      </trkpt>
      <trkpt lat="39.895917" lon="116.647778">
        <time>2021-08-02T13:35:22Z</time>
      </trkpt>
      <trkpt lat="39.895913" lon="116.647632">
        <time>2021-08-02T13:35:27Z</time>
      </trkpt>
      <trkpt lat="39.895959" lon="116.647513">
        <time>2021-08-02T13:35:32Z</time>
      </trkpt>
      <trkpt lat="39.895982" lon="116.647375">
        <time>2021-08-02T13:35:37Z</time>
      </trkpt>
      <trkpt lat="39.895945" lon="116.647179">
        <time>2021-08-02T13:35:42Z</time>
      </trkpt>
      <trkpt lat="39.895805" lon="116.647145">
        <time>2021-08-02T13:35:47Z</time>
      </trkpt>
      <trkpt lat="39.895728" lon="116.64733">
        <time>2021-08-02T13:35:52Z</time>
      </trkpt>
      <trkpt lat="39.89571" lon="116.6475">
        <time>2021-08-02T13:35:57Z</time>
      </trkpt>
      <trkpt lat="39.895717" lon="116.64756">
        <time>2021-08-02T13:36:02Z</time>
      </trkpt>
      <trkpt lat="39.895712" lon="116.647609">
        <time>2021-08-02T13:36:07Z</time>
      </trkpt>
      <trkpt lat="39.895714" lon="116.64768">
        <time>2021-08-02T13:36:12Z</time>
      </trkpt>
      <trkpt lat="39.895723" lon="116.647783">
        <time>2021-08-02T13:36:17Z</time>
      </trkpt>
      <trkpt lat="39.89569" lon="116.647943">
        <time>2021-08-02T13:36:22Z</time>
      </trkpt>
      <trkpt lat="39.895695" lon="116.647969">
        <time>2021-08-02T13:36:27Z</time>
      </trkpt>
      <trkpt lat="39.895691" lon="116.648035">
        <time>2021-08-02T13:36:32Z</time>
      </trkpt>
      <trkpt lat="39.895655" lon="116.648088">
        <time>2021-08-02T13:36:37Z</time>
      </trkpt>
      <trkpt lat="39.895657" lon="116.648185">
        <time>2021-08-02T13:36:42Z</time>
      </trkpt>
      <trkpt lat="39.895681" lon="116.648286">
        <time>2021-08-02T13:36:47Z</time>
      </trkpt>
      <trkpt lat="39.895688" lon="116.648383">
        <time>2021-08-02T13:36:52Z</time>
      </trkpt>
      <trkpt lat="39.895738" lon="116.648456">
        <time>2021-08-02T13:36:57Z</time>
      </trkpt>
      <trkpt lat="39.895785" lon="116.648414">
        <time>2021-08-02T13:37:02Z</time>
      </trkpt>
      <trkpt lat="39.895828" lon="116.648308">
        <time>2021-08-02T13:37:07Z</time>
      </trkpt>
      <trkpt lat="39.895885" lon="116.648224">
        <time>2021-08-02T13:37:12Z</time>
      </trkpt>
      <trkpt lat="39.895909" lon="116.648115">
        <time>2021-08-02T13:37:17Z</time>
      </trkpt>
      <trkpt lat="39.895922" lon="116.648028">
        <time>2021-08-02T13:37:22Z</time>
      </trkpt>
      <trkpt lat="39.895908" lon="116.647921">
        <time>2021-08-02T13:37:27Z</time>
      </trkpt>
      <trkpt lat="39.895916" lon="116.647827">
        <time>2021-08-02T13:37:32Z</time>
      </trkpt>
      <trkpt lat="39.895914" lon="116.647714">
        <time>2021-08-02T13:37:37Z</time>
      </trkpt>
      <trkpt lat="39.895921" lon="116.647604">
        <time>2021-08-02T13:37:42Z</time>
      </trkpt>
      <trkpt lat="39.895925" lon="116.64752">
        <time>2021-08-02T13:37:47Z</time>
      </trkpt>
      <trkpt lat="39.895969" lon="116.64743">
        <time>2021-08-02T13:37:52Z</time>
      </trkpt>
      <trkpt lat="39.895964" lon="116.647342">
        <time>2021-08-02T13:37:57Z</time>
      </trkpt>
      <trkpt lat="39.895948" lon="116.647244">
        <time>2021-08-02T13:38:02Z</time>
      </trkpt>
      <trkpt lat="39.89595" lon="116.647143">
        <time>2021-08-02T13:38:07Z</time>
      </trkpt>
      <trkpt lat="39.895975" lon="116.647043">
        <time>2021-08-02T13:38:12Z</time>
      </trkpt>
      <trkpt lat="39.895967" lon="116.646941">
        <time>2021-08-02T13:38:17Z</time>
      </trkpt>
      <trkpt lat="39.895984" lon="116.646882">
        <time>2021-08-02T13:38:22Z</time>
      </trkpt>
      <trkpt lat="39.896019" lon="116.646762">
        <time>2021-08-02T13:38:27Z</time>
      </trkpt>
      <trkpt lat="39.89602" lon="116.646603">
        <time>2021-08-02T13:38:32Z</time>
      </trkpt>
      <trkpt lat="39.895992" lon="116.646433">
        <time>2021-08-02T13:38:37Z</time>
      </trkpt>
      <trkpt lat="39.895969" lon="116.646294">
        <time>2021-08-02T13:38:42Z</time>
      </trkpt>
      <trkpt lat="39.896007" lon="116.646106">
        <time>2021-08-02T13:38:47Z</time>
      </trkpt>
      <trkpt lat="39.896043" lon="116.645947">
        <time>2021-08-02T13:38:52Z</time>
      </trkpt>
      <trkpt lat="39.896076" lon="116.64578">
        <time>2021-08-02T13:38:57Z</time>
      </trkpt>
      <trkpt lat="39.896113" lon="116.645611">
        <time>2021-08-02T13:39:02Z</time>
      </trkpt>
      <trkpt lat="39.89613" lon="116.645422">
        <time>2021-08-02T13:39:07Z</time>
      </trkpt>
      <trkpt lat="39.896103" lon="116.645278">
        <time>2021-08-02T13:39:12Z</time>
      </trkpt>
      <trkpt lat="39.896112" lon="116.645073">
        <time>2021-08-02T13:39:17Z</time>
      </trkpt>
      <trkpt lat="39.896131" lon="116.64481">
        <time>2021-08-02T13:39:22Z</time>
      </trkpt>
      <trkpt lat="39.896136" lon="116.644602">
        <time>2021-08-02T13:39:27Z</time>
      </trkpt>
      <trkpt lat="39.896157" lon="116.64438">
        <time>2021-08-02T13:39:32Z</time>
      </trkpt>
      <trkpt lat="39.89616" lon="116.644224">
        <time>2021-08-02T13:39:37Z</time>
      </trkpt>
      <trkpt lat="39.896162" lon="116.644129">
        <time>2021-08-02T13:39:42Z</time>
      </trkpt>
      <trkpt lat="39.896172" lon="116.644023">
        <time>2021-08-02T13:39:47Z</time>
      </trkpt>
      <trkpt lat="39.896169" lon="116.643956">
        <time>2021-08-02T13:39:52Z</time>
      </trkpt>
      <trkpt lat="39.896145" lon="116.643791">
        <time>2021-08-02T13:39:57Z</time>
      </trkpt>
      <trkpt lat="39.896152" lon="116.643746">
        <time>2021-08-02T13:40:02Z</time>
      </trkpt>
      <trkpt lat="39.896147" lon="116.643683">
        <time>2021-08-02T13:40:07Z</time>
      </trkpt>
      <trkpt lat="39.896152" lon="116.643595">
        <time>2021-08-02T13:40:12Z</time>
      </trkpt>
      <trkpt lat="39.896159" lon="116.643473">
        <time>2021-08-02T13:40:17Z</time>
      </trkpt>
      <trkpt lat="39.896152" lon="116.643377">
        <time>2021-08-02T13:40:22Z</time>
      </trkpt>
      <trkpt lat="39.896147" lon="116.643271">
        <time>2021-08-02T13:40:27Z</time>
      </trkpt>
      <trkpt lat="39.896172" lon="116.643105">
        <time>2021-08-02T13:40:32Z</time>
      </trkpt>
      <trkpt lat="39.896172" lon="116.64309">
        <time>2021-08-02T13:40:37Z</time>
      </trkpt>
      <trkpt lat="39.896162" lon="116.643011">
        <time>2021-08-02T13:40:42Z</time>
      </trkpt>
      <trkpt lat="39.896164" lon="116.642881">
        <time>2021-08-02T13:40:47Z</time>
      </trkpt>
      <trkpt lat="39.896172" lon="116.642803">
        <time>2021-08-02T13:40:52Z</time>
      </trkpt>
      <trkpt lat="39.896155" lon="116.642744">
        <time>2021-08-02T13:40:57Z</time>
      </trkpt>
      <trkpt lat="39.896155" lon="116.642662">
        <time>2021-08-02T13:41:02Z</time>
      </trkpt>
      <trkpt lat="39.89617" lon="116.642538">
        <time>2021-08-02T13:41:07Z</time>
      </trkpt>
      <trkpt lat="39.896171" lon="116.642395">
        <time>2021-08-02T13:41:12Z</time>
      </trkpt>
      <trkpt lat="39.896181" lon="116.642276">
        <time>2021-08-02T13:41:17Z</time>
      </trkpt>
      <trkpt lat="39.896195" lon="116.642181">
        <time>2021-08-02T13:41:22Z</time>
      </trkpt>
      <trkpt lat="39.896216" lon="116.642076">
        <time>2021-08-02T13:41:27Z</time>
      </trkpt>
      <trkpt lat="39.896233" lon="116.641987">
        <time>2021-08-02T13:41:32Z</time>
      </trkpt>
      <trkpt lat="39.896238" lon="116.641909">
        <time>2021-08-02T13:41:37Z</time>
      </trkpt>
      <trkpt lat="39.896227" lon="116.641866">
        <time>2021-08-02T13:41:42Z</time>
      </trkpt>
      <trkpt lat="39.896211" lon="116.641756">
        <time>2021-08-02T13:41:47Z</time>
      </trkpt>
      <trkpt lat="39.89621" lon="116.641621">
        <time>2021-08-02T13:41:52Z</time>
      </trkpt>
      <trkpt lat="39.896198" lon="116.64155">
        <time>2021-08-02T13:41:57Z</time>
      </trkpt>
      <trkpt lat="39.896181" lon="116.64142">
        <time>2021-08-02T13:42:02Z</time>
      </trkpt>
      <trkpt lat="39.896204" lon="116.641307">
        <time>2021-08-02T13:42:07Z</time>
      </trkpt>
      <trkpt lat="39.8962" lon="116.641173">
        <time>2021-08-02T13:42:12Z</time>
      </trkpt>
      <trkpt lat="39.896209" lon="116.641088">
        <time>2021-08-02T13:42:17Z</time>
      </trkpt>
      <trkpt lat="39.896205" lon="116.640992">
        <time>2021-08-02T13:42:22Z</time>
      </trkpt>
      <trkpt lat="39.896202" lon="116.640884">
        <time>2021-08-02T13:42:27Z</time>
      </trkpt>
      <trkpt lat="39.896202" lon="116.640778">
        <time>2021-08-02T13:42:32Z</time>
      </trkpt>
      <trkpt lat="39.896164" lon="116.640664">
        <time>2021-08-02T13:42:37Z</time>
      </trkpt>
      <trkpt lat="39.896166" lon="116.640557">
        <time>2021-08-02T13:42:42Z</time>
      </trkpt>
      <trkpt lat="39.896202" lon="116.640457">
        <time>2021-08-02T13:42:47Z</time>
      </trkpt>
      <trkpt lat="39.896206" lon="116.640305">
        <time>2021-08-02T13:42:52Z</time>
      </trkpt>
      <trkpt lat="39.896236" lon="116.640096">
        <time>2021-08-02T13:42:57Z</time>
      </trkpt>
      <trkpt lat="39.896263" lon="116.639927">
        <time>2021-08-02T13:43:02Z</time>
      </trkpt>
      <trkpt lat="39.896241" lon="116.639707">
        <time>2021-08-02T13:43:07Z</time>
      </trkpt>
      <trkpt lat="39.896222" lon="116.639523">
        <time>2021-08-02T13:43:12Z</time>
      </trkpt>
      <trkpt lat="39.896213" lon="116.639391">
        <time>2021-08-02T13:43:17Z</time>
      </trkpt>
      <trkpt lat="39.896211" lon="116.639296">
        <time>2021-08-02T13:43:22Z</time>
      </trkpt>
      <trkpt lat="39.896201" lon="116.639206">
        <time>2021-08-02T13:43:27Z</time>
      </trkpt>
      <trkpt lat="39.896216" lon="116.639103">
        <time>2021-08-02T13:43:32Z</time>
      </trkpt>
      <trkpt lat="39.896226" lon="116.639036">
        <time>2021-08-02T13:43:37Z</time>
      </trkpt>
      <trkpt lat="39.896209" lon="116.638972">
        <time>2021-08-02T13:43:42Z</time>
      </trkpt>
      <trkpt lat="39.896185" lon="116.63888">
        <time>2021-08-02T13:43:47Z</time>
      </trkpt>
      <trkpt lat="39.896168" lon="116.638767">
        <time>2021-08-02T13:43:52Z</time>
      </trkpt>
      <trkpt lat="39.896184" lon="116.638688">
        <time>2021-08-02T13:43:57Z</time>
      </trkpt>
      <trkpt lat="39.896193" lon="116.638605">
        <time>2021-08-02T13:44:02Z</time>
      </trkpt>
      <trkpt lat="39.896162" lon="116.638513">
        <time>2021-08-02T13:44:07Z</time>
      </trkpt>
      <trkpt lat="39.896162" lon="116.638414">
        <time>2021-08-02T13:44:12Z</time>
      </trkpt>
      <trkpt lat="39.8962" lon="116.638336">
        <time>2021-08-02T13:44:17Z</time>
      </trkpt>
      <trkpt lat="39.896175" lon="116.638281">
        <time>2021-08-02T13:44:22Z</time>
      </trkpt>
      <trkpt lat="39.896157" lon="116.638163">
        <time>2021-08-02T13:44:27Z</time>
      </trkpt>
      <trkpt lat="39.896161" lon="116.638059">
        <time>2021-08-02T13:44:32Z</time>
      </trkpt>
      <trkpt lat="39.896178" lon="116.637965">
        <time>2021-08-02T13:44:37Z</time>
      </trkpt>
      <trkpt lat="39.896178" lon="116.637857">
        <time>2021-08-02T13:44:42Z</time>
      </trkpt>
      <trkpt lat="39.896177" lon="116.637736">
        <time>2021-08-02T13:44:47Z</time>
      </trkpt>
      <trkpt lat="39.896185" lon="116.637592">
        <time>2021-08-02T13:44:52Z</time>
      </trkpt>
      <trkpt lat="39.896163" lon="116.637465">
        <time>2021-08-02T13:44:57Z</time>
      </trkpt>
      <trkpt lat="39.89615" lon="116.637345">
        <time>2021-08-02T13:45:02Z</time>
      </trkpt>
      <trkpt lat="39.896149" lon="116.637248">
        <time>2021-08-02T13:45:07Z</time>
      </trkpt>
      <trkpt lat="39.896135" lon="116.637146">
        <time>2021-08-02T13:45:12Z</time>
      </trkpt>
      <trkpt lat="39.896123" lon="116.636989">
        <time>2021-08-02T13:45:17Z</time>
      </trkpt>
      <trkpt lat="39.896071" lon="116.636725">
        <time>2021-08-02T13:45:22Z</time>
      </trkpt>
      <trkpt lat="39.896059" lon="116.636701">
        <time>2021-08-02T13:45:27Z</time>
      </trkpt>
      <trkpt lat="39.895972" lon="116.636625">
        <time>2021-08-02T13:45:32Z</time>
      </trkpt>
      <trkpt lat="39.895907" lon="116.636542">
        <time>2021-08-02T13:45:37Z</time>
      </trkpt>
      <trkpt lat="39.895844" lon="116.636469">
        <time>2021-08-02T13:45:42Z</time>
      </trkpt>
      <trkpt lat="39.895777" lon="116.636408">
        <time>2021-08-02T13:45:47Z</time>
      </trkpt>
      <trkpt lat="39.89587" lon="116.63632">
        <time>2021-08-02T13:45:52Z</time>
      </trkpt>
      <trkpt lat="39.895986" lon="116.636297">
        <time>2021-08-02T13:45:57Z</time>
      </trkpt>
      <trkpt lat="39.896078" lon="116.636284">
        <time>2021-08-02T13:46:02Z</time>
      </trkpt>
      <trkpt lat="39.896178" lon="116.636247">
        <time>2021-08-02T13:46:07Z</time>
      </trkpt>
      <trkpt lat="39.896257" lon="116.636197">
        <time>2021-08-02T13:46:12Z</time>
      </trkpt>
      <trkpt lat="39.896337" lon="116.636129">
        <time>2021-08-02T13:46:17Z</time>
      </trkpt>
      <trkpt lat="39.896423" lon="116.636084">
        <time>2021-08-02T13:46:22Z</time>
      </trkpt>
      <trkpt lat="39.896503" lon="116.636036">
        <time>2021-08-02T13:46:27Z</time>
      </trkpt>
      <trkpt lat="39.896567" lon="116.63601">
        <time>2021-08-02T13:46:32Z</time>
      </trkpt>
      <trkpt lat="39.896592" lon="116.636002">
        <time>2021-08-02T13:46:37Z</time>
      </trkpt>
      <trkpt lat="39.896656" lon="116.635952">
        <time>2021-08-02T13:46:42Z</time>
      </trkpt>
      <trkpt lat="39.89671" lon="116.635902">
        <time>2021-08-02T13:46:47Z</time>
      </trkpt>
      <trkpt lat="39.896778" lon="116.635846">
        <time>2021-08-02T13:46:52Z</time>
      </trkpt>
      <trkpt lat="39.896849" lon="116.635792">
        <time>2021-08-02T13:46:57Z</time>
      </trkpt>
      <trkpt lat="39.89693" lon="116.635739">
        <time>2021-08-02T13:47:02Z</time>
      </trkpt>
      <trkpt lat="39.896998" lon="116.635721">
        <time>2021-08-02T13:47:07Z</time>
      </trkpt>
      <trkpt lat="39.897129" lon="116.635649">
        <time>2021-08-02T13:47:12Z</time>
      </trkpt>
      <trkpt lat="39.897282" lon="116.635616">
        <time>2021-08-02T13:47:17Z</time>
      </trkpt>
      <trkpt lat="39.897569" lon="116.635412">
        <time>2021-08-02T13:47:22Z</time>
      </trkpt>
      <trkpt lat="39.897599" lon="116.635371">
        <time>2021-08-02T13:47:27Z</time>
      </trkpt>
      <trkpt lat="39.897732" lon="116.635232">
        <time>2021-08-02T13:47:32Z</time>
      </trkpt>
      <trkpt lat="39.89777" lon="116.635215">
        <time>2021-08-02T13:47:37Z</time>
      </trkpt>
      <trkpt lat="39.89784" lon="116.63518">
        <time>2021-08-02T13:47:42Z</time>
      </trkpt>
      <trkpt lat="39.897921" lon="116.635108">
        <time>2021-08-02T13:47:47Z</time>
      </trkpt>
      <trkpt lat="39.897997" lon="116.635064">
        <time>2021-08-02T13:47:52Z</time>
      </trkpt>
      <trkpt lat="39.89808" lon="116.635064">
        <time>2021-08-02T13:47:57Z</time>
      </trkpt>
      <trkpt lat="39.898146" lon="116.635014">
        <time>2021-08-02T13:48:02Z</time>
      </trkpt>
      <trkpt lat="39.898184" lon="116.635002">
        <time>2021-08-02T13:48:07Z</time>
      </trkpt>
      <trkpt lat="39.898174" lon="116.634983">
        <time>2021-08-02T13:48:12Z</time>
      </trkpt>
      <trkpt lat="39.898122" lon="116.634893">
        <time>2021-08-02T13:48:17Z</time>
      </trkpt>
      <trkpt lat="39.898076" lon="116.634821">
        <time>2021-08-02T13:48:22Z</time>
      </trkpt>
      <trkpt lat="39.898057" lon="116.634739">
        <time>2021-08-02T13:48:27Z</time>
      </trkpt>
      <trkpt lat="39.898022" lon="116.634674">
        <time>2021-08-02T13:48:32Z</time>
      </trkpt>
      <trkpt lat="39.897993" lon="116.634615">
        <time>2021-08-02T13:48:37Z</time>
      </trkpt>
      <trkpt lat="39.897919" lon="116.63448">
        <time>2021-08-02T13:48:42Z</time>
      </trkpt>
      <trkpt lat="39.897798" lon="116.634381">
        <time>2021-08-02T13:48:47Z</time>
      </trkpt>
      <trkpt lat="39.897761" lon="116.634298">
        <time>2021-08-02T13:48:52Z</time>
      </trkpt>
      <trkpt lat="39.897788" lon="116.634211">
        <time>2021-08-02T13:48:57Z</time>
      </trkpt>
      <trkpt lat="39.897757" lon="116.634177">
        <time>2021-08-02T13:49:02Z</time>
      </trkpt>
      <trkpt lat="39.897761" lon="116.634114">
        <time>2021-08-02T13:49:07Z</time>
      </trkpt>
      <trkpt lat="39.897744" lon="116.634024">
        <time>2021-08-02T13:49:12Z</time>
      </trkpt>
      <trkpt lat="39.897698" lon="116.633944">
        <time>2021-08-02T13:49:17Z</time>
      </trkpt>
      <trkpt lat="39.897644" lon="116.633875">
        <time>2021-08-02T13:49:22Z</time>
      </trkpt>
      <trkpt lat="39.897598" lon="116.633689">
        <time>2021-08-02T13:49:27Z</time>
      </trkpt>
      <trkpt lat="39.897573" lon="116.6336">
        <time>2021-08-02T13:49:32Z</time>
      </trkpt>
      <trkpt lat="39.8975" lon="116.633688">
        <time>2021-08-02T13:49:37Z</time>
      </trkpt>
      <trkpt lat="39.897396" lon="116.633777">
        <time>2021-08-02T13:49:42Z</time>
      </trkpt>
      <trkpt lat="39.897347" lon="116.633907">
        <time>2021-08-02T13:49:47Z</time>
      </trkpt>
      <trkpt lat="39.897376" lon="116.634022">
        <time>2021-08-02T13:49:52Z</time>
      </trkpt>
      <trkpt lat="39.897413" lon="116.634076">
        <time>2021-08-02T13:49:57Z</time>
      </trkpt>
      <trkpt lat="39.897383" lon="116.634145">
        <time>2021-08-02T13:50:02Z</time>
      </trkpt>
      <trkpt lat="39.897319" lon="116.634173">
        <time>2021-08-02T13:52:23Z</time>
      </trkpt>
    </trkseg>
  </trk>
</gpx>