<?xml version="1.0" encoding="UTF-8"?>
<gpx xmlns="http://www.topografix.com/GPX/1/1" xmlns:gpxtpx="http://www.garmin.com/xmlschemas/TrackPointExtension/v1" xmlns:xsi="http://www.w3.org/2001/XMLSchema-instance" xsi:schemaLocation="http://www.topografix.com/GPX/1/1 http://www.topografix.com/GPX/1/1/gpx.xsd" version="1.1" creator="gpx.py -- https://github.com/tkrajina/gpxpy">
  <trk>
    <name>gpx from keep</name>
    <trkseg>
      <trkpt lat="39.897733" lon="116.633725">
        <time>2021-09-25T10:41:33Z</time>
      </trkpt>
      <trkpt lat="39.897733" lon="116.633725">
        <time>2021-09-25T10:41:38Z</time>
      </trkpt>
      <trkpt lat="39.897755" lon="116.634055">
        <time>2021-09-25T10:41:43Z</time>
      </trkpt>
      <trkpt lat="39.897765" lon="116.6342">
        <time>2021-09-25T10:41:48Z</time>
      </trkpt>
      <trkpt lat="39.897788" lon="116.634314">
        <time>2021-09-25T10:41:53Z</time>
      </trkpt>
      <trkpt lat="39.897913" lon="116.63452">
        <time>2021-09-25T10:41:58Z</time>
      </trkpt>
      <trkpt lat="39.897962" lon="116.634682">
        <time>2021-09-25T10:42:03Z</time>
      </trkpt>
      <trkpt lat="39.898009" lon="116.634695">
        <time>2021-09-25T10:42:08Z</time>
      </trkpt>
      <trkpt lat="39.898038" lon="116.634755">
        <time>2021-09-25T10:42:13Z</time>
      </trkpt>
      <trkpt lat="39.898083" lon="116.634913">
        <time>2021-09-25T10:42:18Z</time>
      </trkpt>
      <trkpt lat="39.898103" lon="116.635028">
        <time>2021-09-25T10:42:23Z</time>
      </trkpt>
      <trkpt lat="39.897978" lon="116.635122">
        <time>2021-09-25T10:42:28Z</time>
      </trkpt>
      <trkpt lat="39.897843" lon="116.635205">
        <time>2021-09-25T10:42:33Z</time>
      </trkpt>
      <trkpt lat="39.89772" lon="116.635301">
        <time>2021-09-25T10:42:38Z</time>
      </trkpt>
      <trkpt lat="39.897591" lon="116.635393">
        <time>2021-09-25T10:42:43Z</time>
      </trkpt>
      <trkpt lat="39.897439" lon="116.635436">
        <time>2021-09-25T10:42:48Z</time>
      </trkpt>
      <trkpt lat="39.897327" lon="116.635552">
        <time>2021-09-25T10:42:53Z</time>
      </trkpt>
      <trkpt lat="39.897239" lon="116.635631">
        <time>2021-09-25T10:42:58Z</time>
      </trkpt>
      <trkpt lat="39.897115" lon="116.635703">
        <time>2021-09-25T10:43:03Z</time>
      </trkpt>
      <trkpt lat="39.897" lon="116.635792">
        <time>2021-09-25T10:43:08Z</time>
      </trkpt>
      <trkpt lat="39.896866" lon="116.635864">
        <time>2021-09-25T10:43:13Z</time>
      </trkpt>
      <trkpt lat="39.896739" lon="116.635897">
        <time>2021-09-25T10:43:18Z</time>
      </trkpt>
      <trkpt lat="39.896553" lon="116.635974">
        <time>2021-09-25T10:43:23Z</time>
      </trkpt>
      <trkpt lat="39.896487" lon="116.636024">
        <time>2021-09-25T10:43:28Z</time>
      </trkpt>
      <trkpt lat="39.896413" lon="116.63612">
        <time>2021-09-25T10:43:33Z</time>
      </trkpt>
      <trkpt lat="39.896349" lon="116.636151">
        <time>2021-09-25T10:43:38Z</time>
      </trkpt>
      <trkpt lat="39.896235" lon="116.636147">
        <time>2021-09-25T10:43:43Z</time>
      </trkpt>
      <trkpt lat="39.896111" lon="116.636216">
        <time>2021-09-25T10:43:48Z</time>
      </trkpt>
      <trkpt lat="39.896005" lon="116.636317">
        <time>2021-09-25T10:43:53Z</time>
      </trkpt>
      <trkpt lat="39.895886" lon="116.636369">
        <time>2021-09-25T10:43:58Z</time>
      </trkpt>
      <trkpt lat="39.895791" lon="116.636461">
        <time>2021-09-25T10:44:03Z</time>
      </trkpt>
      <trkpt lat="39.895857" lon="116.636694">
        <time>2021-09-25T10:44:08Z</time>
      </trkpt>
      <trkpt lat="39.895993" lon="116.636812">
        <time>2021-09-25T10:44:13Z</time>
      </trkpt>
      <trkpt lat="39.896101" lon="116.636896">
        <time>2021-09-25T10:44:18Z</time>
      </trkpt>
      <trkpt lat="39.896139" lon="116.637187">
        <time>2021-09-25T10:44:23Z</time>
      </trkpt>
      <trkpt lat="39.89614" lon="116.637215">
        <time>2021-09-25T10:44:28Z</time>
      </trkpt>
      <trkpt lat="39.896136" lon="116.637383">
        <time>2021-09-25T10:44:33Z</time>
      </trkpt>
      <trkpt lat="39.89614" lon="116.637541">
        <time>2021-09-25T10:44:38Z</time>
      </trkpt>
      <trkpt lat="39.896157" lon="116.637674">
        <time>2021-09-25T10:44:43Z</time>
      </trkpt>
      <trkpt lat="39.896189" lon="116.637796">
        <time>2021-09-25T10:44:48Z</time>
      </trkpt>
      <trkpt lat="39.896176" lon="116.637991">
        <time>2021-09-25T10:44:53Z</time>
      </trkpt>
      <trkpt lat="39.896158" lon="116.638168">
        <time>2021-09-25T10:44:58Z</time>
      </trkpt>
      <trkpt lat="39.89612" lon="116.638339">
        <time>2021-09-25T10:45:03Z</time>
      </trkpt>
      <trkpt lat="39.896144" lon="116.638498">
        <time>2021-09-25T10:45:08Z</time>
      </trkpt>
      <trkpt lat="39.896187" lon="116.638586">
        <time>2021-09-25T10:45:13Z</time>
      </trkpt>
      <trkpt lat="39.896216" lon="116.638722">
        <time>2021-09-25T10:45:18Z</time>
      </trkpt>
      <trkpt lat="39.89624" lon="116.638887">
        <time>2021-09-25T10:45:23Z</time>
      </trkpt>
      <trkpt lat="39.896233" lon="116.639069">
        <time>2021-09-25T10:45:28Z</time>
      </trkpt>
      <trkpt lat="39.896194" lon="116.639236">
        <time>2021-09-25T10:45:33Z</time>
      </trkpt>
      <trkpt lat="39.896219" lon="116.63937">
        <time>2021-09-25T10:45:38Z</time>
      </trkpt>
      <trkpt lat="39.896236" lon="116.639601">
        <time>2021-09-25T10:45:43Z</time>
      </trkpt>
      <trkpt lat="39.896237" lon="116.639627">
        <time>2021-09-25T10:45:48Z</time>
      </trkpt>
      <trkpt lat="39.896236" lon="116.639762">
        <time>2021-09-25T10:45:53Z</time>
      </trkpt>
      <trkpt lat="39.896244" lon="116.639871">
        <time>2021-09-25T10:45:58Z</time>
      </trkpt>
      <trkpt lat="39.896215" lon="116.640011">
        <time>2021-09-25T10:46:03Z</time>
      </trkpt>
      <trkpt lat="39.896215" lon="116.640178">
        <time>2021-09-25T10:46:08Z</time>
      </trkpt>
      <trkpt lat="39.896225" lon="116.64031">
        <time>2021-09-25T10:46:13Z</time>
      </trkpt>
      <trkpt lat="39.89625" lon="116.64045">
        <time>2021-09-25T10:46:18Z</time>
      </trkpt>
      <trkpt lat="39.896245" lon="116.640601">
        <time>2021-09-25T10:46:23Z</time>
      </trkpt>
      <trkpt lat="39.896232" lon="116.640779">
        <time>2021-09-25T10:46:28Z</time>
      </trkpt>
      <trkpt lat="39.896237" lon="116.640906">
        <time>2021-09-25T10:46:33Z</time>
      </trkpt>
      <trkpt lat="39.896231" lon="116.641067">
        <time>2021-09-25T10:46:38Z</time>
      </trkpt>
      <trkpt lat="39.896219" lon="116.641245">
        <time>2021-09-25T10:46:43Z</time>
      </trkpt>
      <trkpt lat="39.896223" lon="116.641403">
        <time>2021-09-25T10:46:48Z</time>
      </trkpt>
      <trkpt lat="39.896255" lon="116.64149">
        <time>2021-09-25T10:46:53Z</time>
      </trkpt>
      <trkpt lat="39.896281" lon="116.641561">
        <time>2021-09-25T10:46:58Z</time>
      </trkpt>
      <trkpt lat="39.896252" lon="116.641744">
        <time>2021-09-25T10:47:03Z</time>
      </trkpt>
      <trkpt lat="39.896232" lon="116.64191">
        <time>2021-09-25T10:47:08Z</time>
      </trkpt>
      <trkpt lat="39.89619" lon="116.64219">
        <time>2021-09-25T10:47:13Z</time>
      </trkpt>
      <trkpt lat="39.896191" lon="116.642225">
        <time>2021-09-25T10:47:18Z</time>
      </trkpt>
      <trkpt lat="39.896194" lon="116.642359">
        <time>2021-09-25T10:47:23Z</time>
      </trkpt>
      <trkpt lat="39.896201" lon="116.642523">
        <time>2021-09-25T10:47:28Z</time>
      </trkpt>
      <trkpt lat="39.896205" lon="116.642675">
        <time>2021-09-25T10:47:33Z</time>
      </trkpt>
      <trkpt lat="39.896176" lon="116.642911">
        <time>2021-09-25T10:47:38Z</time>
      </trkpt>
      <trkpt lat="39.896176" lon="116.642939">
        <time>2021-09-25T10:47:43Z</time>
      </trkpt>
      <trkpt lat="39.896154" lon="116.643078">
        <time>2021-09-25T10:47:48Z</time>
      </trkpt>
      <trkpt lat="39.896155" lon="116.643366">
        <time>2021-09-25T10:47:53Z</time>
      </trkpt>
      <trkpt lat="39.896157" lon="116.643391">
        <time>2021-09-25T10:47:58Z</time>
      </trkpt>
      <trkpt lat="39.896181" lon="116.643545">
        <time>2021-09-25T10:48:03Z</time>
      </trkpt>
      <trkpt lat="39.8962" lon="116.643651">
        <time>2021-09-25T10:48:08Z</time>
      </trkpt>
      <trkpt lat="39.896241" lon="116.643788">
        <time>2021-09-25T10:48:13Z</time>
      </trkpt>
      <trkpt lat="39.896251" lon="116.64385">
        <time>2021-09-25T10:48:18Z</time>
      </trkpt>
      <trkpt lat="39.896245" lon="116.644024">
        <time>2021-09-25T10:48:23Z</time>
      </trkpt>
      <trkpt lat="39.896244" lon="116.64421">
        <time>2021-09-25T10:48:28Z</time>
      </trkpt>
      <trkpt lat="39.896229" lon="116.644389">
        <time>2021-09-25T10:48:33Z</time>
      </trkpt>
      <trkpt lat="39.896217" lon="116.644565">
        <time>2021-09-25T10:48:38Z</time>
      </trkpt>
      <trkpt lat="39.896221" lon="116.644704">
        <time>2021-09-25T10:48:43Z</time>
      </trkpt>
      <trkpt lat="39.896199" lon="116.644873">
        <time>2021-09-25T10:48:48Z</time>
      </trkpt>
      <trkpt lat="39.896192" lon="116.645048">
        <time>2021-09-25T10:48:53Z</time>
      </trkpt>
      <trkpt lat="39.896186" lon="116.64522">
        <time>2021-09-25T10:48:58Z</time>
      </trkpt>
      <trkpt lat="39.896198" lon="116.645368">
        <time>2021-09-25T10:49:03Z</time>
      </trkpt>
      <trkpt lat="39.896223" lon="116.645521">
        <time>2021-09-25T10:49:08Z</time>
      </trkpt>
      <trkpt lat="39.896175" lon="116.64569">
        <time>2021-09-25T10:49:13Z</time>
      </trkpt>
      <trkpt lat="39.896092" lon="116.645871">
        <time>2021-09-25T10:49:18Z</time>
      </trkpt>
      <trkpt lat="39.896058" lon="116.646034">
        <time>2021-09-25T10:49:23Z</time>
      </trkpt>
      <trkpt lat="39.896023" lon="116.646208">
        <time>2021-09-25T10:49:28Z</time>
      </trkpt>
      <trkpt lat="39.896004" lon="116.646366">
        <time>2021-09-25T10:49:33Z</time>
      </trkpt>
      <trkpt lat="39.895997" lon="116.646544">
        <time>2021-09-25T10:49:38Z</time>
      </trkpt>
      <trkpt lat="39.89599" lon="116.646713">
        <time>2021-09-25T10:49:43Z</time>
      </trkpt>
      <trkpt lat="39.896004" lon="116.64688">
        <time>2021-09-25T10:49:48Z</time>
      </trkpt>
      <trkpt lat="39.895827" lon="116.646921">
        <time>2021-09-25T10:49:53Z</time>
      </trkpt>
      <trkpt lat="39.89569" lon="116.646819">
        <time>2021-09-25T10:49:58Z</time>
      </trkpt>
      <trkpt lat="39.895637" lon="116.646792">
        <time>2021-09-25T10:50:03Z</time>
      </trkpt>
      <trkpt lat="39.895516" lon="116.6467">
        <time>2021-09-25T10:50:08Z</time>
      </trkpt>
      <trkpt lat="39.89544" lon="116.646588">
        <time>2021-09-25T10:50:13Z</time>
      </trkpt>
      <trkpt lat="39.895343" lon="116.646509">
        <time>2021-09-25T10:50:18Z</time>
      </trkpt>
      <trkpt lat="39.895254" lon="116.646441">
        <time>2021-09-25T10:50:23Z</time>
      </trkpt>
      <trkpt lat="39.895169" lon="116.646399">
        <time>2021-09-25T10:50:28Z</time>
      </trkpt>
      <trkpt lat="39.895058" lon="116.646329">
        <time>2021-09-25T10:50:33Z</time>
      </trkpt>
      <trkpt lat="39.894947" lon="116.64631">
        <time>2021-09-25T10:50:38Z</time>
      </trkpt>
      <trkpt lat="39.894829" lon="116.646264">
        <time>2021-09-25T10:50:43Z</time>
      </trkpt>
      <trkpt lat="39.894719" lon="116.64623">
        <time>2021-09-25T10:50:48Z</time>
      </trkpt>
      <trkpt lat="39.894619" lon="116.646141">
        <time>2021-09-25T10:50:53Z</time>
      </trkpt>
      <trkpt lat="39.894532" lon="116.646035">
        <time>2021-09-25T10:50:58Z</time>
      </trkpt>
      <trkpt lat="39.894433" lon="116.645936">
        <time>2021-09-25T10:51:03Z</time>
      </trkpt>
      <trkpt lat="39.894324" lon="116.645909">
        <time>2021-09-25T10:51:08Z</time>
      </trkpt>
      <trkpt lat="39.894199" lon="116.645843">
        <time>2021-09-25T10:51:13Z</time>
      </trkpt>
      <trkpt lat="39.894126" lon="116.645819">
        <time>2021-09-25T10:51:18Z</time>
      </trkpt>
      <trkpt lat="39.89406" lon="116.645744">
        <time>2021-09-25T10:51:23Z</time>
      </trkpt>
      <trkpt lat="39.893943" lon="116.645786">
        <time>2021-09-25T10:51:28Z</time>
      </trkpt>
      <trkpt lat="39.893824" lon="116.645987">
        <time>2021-09-25T10:51:33Z</time>
      </trkpt>
      <trkpt lat="39.893749" lon="116.646134">
        <time>2021-09-25T10:51:38Z</time>
      </trkpt>
      <trkpt lat="39.893651" lon="116.646339">
        <time>2021-09-25T10:51:43Z</time>
      </trkpt>
      <trkpt lat="39.893615" lon="116.646375">
        <time>2021-09-25T10:51:48Z</time>
      </trkpt>
      <trkpt lat="39.893508" lon="116.646336">
        <time>2021-09-25T10:51:53Z</time>
      </trkpt>
      <trkpt lat="39.893416" lon="116.646265">
        <time>2021-09-25T10:51:58Z</time>
      </trkpt>
      <trkpt lat="39.893308" lon="116.6462">
        <time>2021-09-25T10:52:03Z</time>
      </trkpt>
      <trkpt lat="39.893205" lon="116.646172">
        <time>2021-09-25T10:52:08Z</time>
      </trkpt>
      <trkpt lat="39.89311" lon="116.646113">
        <time>2021-09-25T10:52:13Z</time>
      </trkpt>
      <trkpt lat="39.893013" lon="116.646006">
        <time>2021-09-25T10:52:18Z</time>
      </trkpt>
      <trkpt lat="39.892927" lon="116.645936">
        <time>2021-09-25T10:52:23Z</time>
      </trkpt>
      <trkpt lat="39.892861" lon="116.645874">
        <time>2021-09-25T10:52:28Z</time>
      </trkpt>
      <trkpt lat="39.892793" lon="116.645822">
        <time>2021-09-25T10:52:33Z</time>
      </trkpt>
      <trkpt lat="39.892702" lon="116.645789">
        <time>2021-09-25T10:52:38Z</time>
      </trkpt>
      <trkpt lat="39.892555" lon="116.645742">
        <time>2021-09-25T10:52:43Z</time>
      </trkpt>
      <trkpt lat="39.892428" lon="116.645703">
        <time>2021-09-25T10:52:48Z</time>
      </trkpt>
      <trkpt lat="39.892313" lon="116.645652">
        <time>2021-09-25T10:52:53Z</time>
      </trkpt>
      <trkpt lat="39.892204" lon="116.6456">
        <time>2021-09-25T10:52:58Z</time>
      </trkpt>
      <trkpt lat="39.892074" lon="116.64558">
        <time>2021-09-25T10:53:03Z</time>
      </trkpt>
      <trkpt lat="39.891989" lon="116.645502">
        <time>2021-09-25T10:53:08Z</time>
      </trkpt>
      <trkpt lat="39.891888" lon="116.645432">
        <time>2021-09-25T10:53:13Z</time>
      </trkpt>
      <trkpt lat="39.891776" lon="116.64538">
        <time>2021-09-25T10:53:18Z</time>
      </trkpt>
      <trkpt lat="39.891665" lon="116.645308">
        <time>2021-09-25T10:53:23Z</time>
      </trkpt>
      <trkpt lat="39.891566" lon="116.64523">
        <time>2021-09-25T10:53:28Z</time>
      </trkpt>
      <trkpt lat="39.891534" lon="116.645321">
        <time>2021-09-25T10:53:33Z</time>
      </trkpt>
      <trkpt lat="39.891646" lon="116.645409">
        <time>2021-09-25T10:53:38Z</time>
      </trkpt>
      <trkpt lat="39.891772" lon="116.645473">
        <time>2021-09-25T10:53:43Z</time>
      </trkpt>
      <trkpt lat="39.891885" lon="116.64553">
        <time>2021-09-25T10:53:48Z</time>
      </trkpt>
      <trkpt lat="39.891975" lon="116.6456">
        <time>2021-09-25T10:53:53Z</time>
      </trkpt>
      <trkpt lat="39.892083" lon="116.645687">
        <time>2021-09-25T10:53:58Z</time>
      </trkpt>
      <trkpt lat="39.892191" lon="116.645766">
        <time>2021-09-25T10:54:03Z</time>
      </trkpt>
      <trkpt lat="39.892309" lon="116.6458">
        <time>2021-09-25T10:54:08Z</time>
      </trkpt>
      <trkpt lat="39.89242" lon="116.645821">
        <time>2021-09-25T10:54:13Z</time>
      </trkpt>
      <trkpt lat="39.892554" lon="116.645884">
        <time>2021-09-25T10:54:18Z</time>
      </trkpt>
      <trkpt lat="39.892668" lon="116.645961">
        <time>2021-09-25T10:54:23Z</time>
      </trkpt>
      <trkpt lat="39.892796" lon="116.646022">
        <time>2021-09-25T10:54:28Z</time>
      </trkpt>
      <trkpt lat="39.892924" lon="116.646039">
        <time>2021-09-25T10:54:33Z</time>
      </trkpt>
      <trkpt lat="39.893035" lon="116.646076">
        <time>2021-09-25T10:54:38Z</time>
      </trkpt>
      <trkpt lat="39.893196" lon="116.646154">
        <time>2021-09-25T10:54:43Z</time>
      </trkpt>
      <trkpt lat="39.893318" lon="116.646267">
        <time>2021-09-25T10:54:48Z</time>
      </trkpt>
      <trkpt lat="39.893337" lon="116.646286">
        <time>2021-09-25T10:54:53Z</time>
      </trkpt>
      <trkpt lat="39.893446" lon="116.646338">
        <time>2021-09-25T10:54:58Z</time>
      </trkpt>
      <trkpt lat="39.893622" lon="116.646384">
        <time>2021-09-25T10:55:03Z</time>
      </trkpt>
      <trkpt lat="39.893771" lon="116.646367">
        <time>2021-09-25T10:55:08Z</time>
      </trkpt>
      <trkpt lat="39.893879" lon="116.646271">
        <time>2021-09-25T10:55:13Z</time>
      </trkpt>
      <trkpt lat="39.893904" lon="116.646161">
        <time>2021-09-25T10:55:18Z</time>
      </trkpt>
      <trkpt lat="39.893957" lon="116.646034">
        <time>2021-09-25T10:55:23Z</time>
      </trkpt>
      <trkpt lat="39.894025" lon="116.645899">
        <time>2021-09-25T10:55:28Z</time>
      </trkpt>
      <trkpt lat="39.89415" lon="116.645953">
        <time>2021-09-25T10:55:33Z</time>
      </trkpt>
      <trkpt lat="39.894281" lon="116.646037">
        <time>2021-09-25T10:55:38Z</time>
      </trkpt>
      <trkpt lat="39.894368" lon="116.646099">
        <time>2021-09-25T10:55:43Z</time>
      </trkpt>
      <trkpt lat="39.89448" lon="116.646181">
        <time>2021-09-25T10:55:48Z</time>
      </trkpt>
      <trkpt lat="39.894592" lon="116.646244">
        <time>2021-09-25T10:55:53Z</time>
      </trkpt>
      <trkpt lat="39.8947" lon="116.646305">
        <time>2021-09-25T10:55:58Z</time>
      </trkpt>
      <trkpt lat="39.894751" lon="116.646346">
        <time>2021-09-25T10:56:03Z</time>
      </trkpt>
      <trkpt lat="39.894802" lon="116.64634">
        <time>2021-09-25T10:56:08Z</time>
      </trkpt>
      <trkpt lat="39.894877" lon="116.646416">
        <time>2021-09-25T10:56:13Z</time>
      </trkpt>
      <trkpt lat="39.894967" lon="116.646482">
        <time>2021-09-25T10:56:18Z</time>
      </trkpt>
      <trkpt lat="39.895095" lon="116.646507">
        <time>2021-09-25T10:56:23Z</time>
      </trkpt>
      <trkpt lat="39.895258" lon="116.646551">
        <time>2021-09-25T10:56:28Z</time>
      </trkpt>
      <trkpt lat="39.895437" lon="116.64663">
        <time>2021-09-25T10:56:33Z</time>
      </trkpt>
      <trkpt lat="39.895494" lon="116.646651">
        <time>2021-09-25T10:56:38Z</time>
      </trkpt>
      <trkpt lat="39.895623" lon="116.646714">
        <time>2021-09-25T10:56:43Z</time>
      </trkpt>
      <trkpt lat="39.895731" lon="116.646792">
        <time>2021-09-25T10:56:48Z</time>
      </trkpt>
      <trkpt lat="39.895846" lon="116.646849">
        <time>2021-09-25T10:56:53Z</time>
      </trkpt>
      <trkpt lat="39.895956" lon="116.646898">
        <time>2021-09-25T10:56:58Z</time>
      </trkpt>
      <trkpt lat="39.89605" lon="116.64691">
        <time>2021-09-25T10:57:03Z</time>
      </trkpt>
      <trkpt lat="39.896091" lon="116.646842">
        <time>2021-09-25T10:57:08Z</time>
      </trkpt>
      <trkpt lat="39.896096" lon="116.646673">
        <time>2021-09-25T10:57:13Z</time>
      </trkpt>
      <trkpt lat="39.896069" lon="116.64649">
        <time>2021-09-25T10:57:18Z</time>
      </trkpt>
      <trkpt lat="39.896057" lon="116.646322">
        <time>2021-09-25T10:57:23Z</time>
      </trkpt>
      <trkpt lat="39.89605" lon="116.646178">
        <time>2021-09-25T10:57:28Z</time>
      </trkpt>
      <trkpt lat="39.896061" lon="116.64603">
        <time>2021-09-25T10:57:33Z</time>
      </trkpt>
      <trkpt lat="39.896086" lon="116.645899">
        <time>2021-09-25T10:57:38Z</time>
      </trkpt>
      <trkpt lat="39.896097" lon="116.64575">
        <time>2021-09-25T10:57:43Z</time>
      </trkpt>
      <trkpt lat="39.896116" lon="116.645617">
        <time>2021-09-25T10:57:48Z</time>
      </trkpt>
      <trkpt lat="39.896119" lon="116.645475">
        <time>2021-09-25T10:57:53Z</time>
      </trkpt>
      <trkpt lat="39.896115" lon="116.645306">
        <time>2021-09-25T10:57:58Z</time>
      </trkpt>
      <trkpt lat="39.896143" lon="116.645162">
        <time>2021-09-25T10:58:03Z</time>
      </trkpt>
      <trkpt lat="39.896175" lon="116.64496">
        <time>2021-09-25T10:58:08Z</time>
      </trkpt>
      <trkpt lat="39.896202" lon="116.644868">
        <time>2021-09-25T10:58:13Z</time>
      </trkpt>
      <trkpt lat="39.896207" lon="116.644733">
        <time>2021-09-25T10:58:18Z</time>
      </trkpt>
      <trkpt lat="39.896201" lon="116.644648">
        <time>2021-09-25T10:58:23Z</time>
      </trkpt>
      <trkpt lat="39.896191" lon="116.644515">
        <time>2021-09-25T10:58:28Z</time>
      </trkpt>
      <trkpt lat="39.896218" lon="116.644385">
        <time>2021-09-25T10:58:33Z</time>
      </trkpt>
      <trkpt lat="39.896197" lon="116.644125">
        <time>2021-09-25T10:58:38Z</time>
      </trkpt>
      <trkpt lat="39.896197" lon="116.644097">
        <time>2021-09-25T10:58:43Z</time>
      </trkpt>
      <trkpt lat="39.89618" lon="116.643935">
        <time>2021-09-25T10:58:48Z</time>
      </trkpt>
      <trkpt lat="39.896174" lon="116.643737">
        <time>2021-09-25T10:58:53Z</time>
      </trkpt>
      <trkpt lat="39.896161" lon="116.643609">
        <time>2021-09-25T10:58:58Z</time>
      </trkpt>
      <trkpt lat="39.896159" lon="116.643464">
        <time>2021-09-25T10:59:03Z</time>
      </trkpt>
      <trkpt lat="39.896172" lon="116.643328">
        <time>2021-09-25T10:59:08Z</time>
      </trkpt>
      <trkpt lat="39.896185" lon="116.643115">
        <time>2021-09-25T10:59:13Z</time>
      </trkpt>
      <trkpt lat="39.89621" lon="116.643066">
        <time>2021-09-25T10:59:18Z</time>
      </trkpt>
      <trkpt lat="39.896208" lon="116.642919">
        <time>2021-09-25T10:59:23Z</time>
      </trkpt>
      <trkpt lat="39.8962" lon="116.642764">
        <time>2021-09-25T10:59:28Z</time>
      </trkpt>
      <trkpt lat="39.896204" lon="116.642618">
        <time>2021-09-25T10:59:33Z</time>
      </trkpt>
      <trkpt lat="39.89621" lon="116.642535">
        <time>2021-09-25T10:59:38Z</time>
      </trkpt>
      <trkpt lat="39.896203" lon="116.642436">
        <time>2021-09-25T10:59:43Z</time>
      </trkpt>
      <trkpt lat="39.89621" lon="116.642344">
        <time>2021-09-25T10:59:48Z</time>
      </trkpt>
      <trkpt lat="39.89621" lon="116.642268">
        <time>2021-09-25T10:59:53Z</time>
      </trkpt>
      <trkpt lat="39.896211" lon="116.642206">
        <time>2021-09-25T10:59:58Z</time>
      </trkpt>
      <trkpt lat="39.896237" lon="116.642144">
        <time>2021-09-25T11:00:03Z</time>
      </trkpt>
      <trkpt lat="39.89624" lon="116.641996">
        <time>2021-09-25T11:00:08Z</time>
      </trkpt>
      <trkpt lat="39.896257" lon="116.641906">
        <time>2021-09-25T11:00:13Z</time>
      </trkpt>
      <trkpt lat="39.89625" lon="116.641771">
        <time>2021-09-25T11:00:18Z</time>
      </trkpt>
      <trkpt lat="39.89625" lon="116.641609">
        <time>2021-09-25T11:00:23Z</time>
      </trkpt>
      <trkpt lat="39.896261" lon="116.641428">
        <time>2021-09-25T11:00:28Z</time>
      </trkpt>
      <trkpt lat="39.896255" lon="116.641217">
        <time>2021-09-25T11:00:33Z</time>
      </trkpt>
      <trkpt lat="39.896246" lon="116.641016">
        <time>2021-09-25T11:00:38Z</time>
      </trkpt>
      <trkpt lat="39.89625" lon="116.640845">
        <time>2021-09-25T11:00:43Z</time>
      </trkpt>
      <trkpt lat="39.89625" lon="116.640659">
        <time>2021-09-25T11:00:48Z</time>
      </trkpt>
      <trkpt lat="39.896246" lon="116.640472">
        <time>2021-09-25T11:00:53Z</time>
      </trkpt>
      <trkpt lat="39.896349" lon="116.640245">
        <time>2021-09-25T11:00:58Z</time>
      </trkpt>
      <trkpt lat="39.896417" lon="116.640238">
        <time>2021-09-25T11:01:03Z</time>
      </trkpt>
      <trkpt lat="39.896608" lon="116.640391">
        <time>2021-09-25T11:01:08Z</time>
      </trkpt>
      <trkpt lat="39.89674" lon="116.640477">
        <time>2021-09-25T11:01:13Z</time>
      </trkpt>
      <trkpt lat="39.896865" lon="116.640564">
        <time>2021-09-25T11:01:18Z</time>
      </trkpt>
      <trkpt lat="39.896984" lon="116.640685">
        <time>2021-09-25T11:01:23Z</time>
      </trkpt>
      <trkpt lat="39.897139" lon="116.640783">
        <time>2021-09-25T11:01:28Z</time>
      </trkpt>
      <trkpt lat="39.897229" lon="116.640829">
        <time>2021-09-25T11:01:33Z</time>
      </trkpt>
      <trkpt lat="39.897301" lon="116.640856">
        <time>2021-09-25T11:01:38Z</time>
      </trkpt>
      <trkpt lat="39.897368" lon="116.640887">
        <time>2021-09-25T11:01:43Z</time>
      </trkpt>
      <trkpt lat="39.89745" lon="116.640934">
        <time>2021-09-25T11:01:48Z</time>
      </trkpt>
      <trkpt lat="39.897475" lon="116.640955">
        <time>2021-09-25T11:01:53Z</time>
      </trkpt>
      <trkpt lat="39.897499" lon="116.640985">
        <time>2021-09-25T11:01:58Z</time>
      </trkpt>
      <trkpt lat="39.897557" lon="116.641006">
        <time>2021-09-25T11:02:03Z</time>
      </trkpt>
      <trkpt lat="39.897666" lon="116.641059">
        <time>2021-09-25T11:02:08Z</time>
      </trkpt>
      <trkpt lat="39.897781" lon="116.641094">
        <time>2021-09-25T11:02:13Z</time>
      </trkpt>
      <trkpt lat="39.897928" lon="116.64114">
        <time>2021-09-25T11:02:18Z</time>
      </trkpt>
      <trkpt lat="39.89805" lon="116.641246">
        <time>2021-09-25T11:02:23Z</time>
      </trkpt>
      <trkpt lat="39.898177" lon="116.641316">
        <time>2021-09-25T11:02:28Z</time>
      </trkpt>
      <trkpt lat="39.898259" lon="116.64138">
        <time>2021-09-25T11:02:33Z</time>
      </trkpt>
      <trkpt lat="39.898298" lon="116.6414">
        <time>2021-09-25T11:02:38Z</time>
      </trkpt>
      <trkpt lat="39.898348" lon="116.641524">
        <time>2021-09-25T11:02:43Z</time>
      </trkpt>
      <trkpt lat="39.898337" lon="116.641742">
        <time>2021-09-25T11:02:48Z</time>
      </trkpt>
      <trkpt lat="39.898349" lon="116.641931">
        <time>2021-09-25T11:02:53Z</time>
      </trkpt>
      <trkpt lat="39.898343" lon="116.642078">
        <time>2021-09-25T11:02:58Z</time>
      </trkpt>
      <trkpt lat="39.898324" lon="116.642221">
        <time>2021-09-25T11:03:03Z</time>
      </trkpt>
      <trkpt lat="39.898329" lon="116.642337">
        <time>2021-09-25T11:03:08Z</time>
      </trkpt>
      <trkpt lat="39.898379" lon="116.642378">
        <time>2021-09-25T11:03:13Z</time>
      </trkpt>
      <trkpt lat="39.898405" lon="116.642514">
        <time>2021-09-25T11:03:18Z</time>
      </trkpt>
      <trkpt lat="39.898321" lon="116.642803">
        <time>2021-09-25T11:03:23Z</time>
      </trkpt>
      <trkpt lat="39.898288" lon="116.643027">
        <time>2021-09-25T11:03:28Z</time>
      </trkpt>
      <trkpt lat="39.898324" lon="116.643244">
        <time>2021-09-25T11:03:33Z</time>
      </trkpt>
      <trkpt lat="39.898348" lon="116.643458">
        <time>2021-09-25T11:03:38Z</time>
      </trkpt>
      <trkpt lat="39.898364" lon="116.64357">
        <time>2021-09-25T11:03:43Z</time>
      </trkpt>
      <trkpt lat="39.898368" lon="116.643611">
        <time>2021-09-25T11:03:48Z</time>
      </trkpt>
      <trkpt lat="39.898381" lon="116.643803">
        <time>2021-09-25T11:03:53Z</time>
      </trkpt>
      <trkpt lat="39.898342" lon="116.643963">
        <time>2021-09-25T11:03:58Z</time>
      </trkpt>
      <trkpt lat="39.898285" lon="116.644145">
        <time>2021-09-25T11:04:03Z</time>
      </trkpt>
      <trkpt lat="39.898311" lon="116.644246">
        <time>2021-09-25T11:04:08Z</time>
      </trkpt>
      <trkpt lat="39.898348" lon="116.644308">
        <time>2021-09-25T11:04:13Z</time>
      </trkpt>
      <trkpt lat="39.898389" lon="116.64439">
        <time>2021-09-25T11:04:18Z</time>
      </trkpt>
      <trkpt lat="39.898398" lon="116.644467">
        <time>2021-09-25T11:04:23Z</time>
      </trkpt>
      <trkpt lat="39.89843" lon="116.644577">
        <time>2021-09-25T11:04:28Z</time>
      </trkpt>
      <trkpt lat="39.898455" lon="116.644752">
        <time>2021-09-25T11:04:33Z</time>
      </trkpt>
      <trkpt lat="39.898472" lon="116.644904">
        <time>2021-09-25T11:04:38Z</time>
      </trkpt>
      <trkpt lat="39.898481" lon="116.644998">
        <time>2021-09-25T11:04:43Z</time>
      </trkpt>
      <trkpt lat="39.898483" lon="116.645079">
        <time>2021-09-25T11:04:48Z</time>
      </trkpt>
      <trkpt lat="39.898506" lon="116.64517">
        <time>2021-09-25T11:04:53Z</time>
      </trkpt>
      <trkpt lat="39.898548" lon="116.645275">
        <time>2021-09-25T11:04:58Z</time>
      </trkpt>
      <trkpt lat="39.898581" lon="116.645399">
        <time>2021-09-25T11:05:03Z</time>
      </trkpt>
      <trkpt lat="39.898587" lon="116.645525">
        <time>2021-09-25T11:05:08Z</time>
      </trkpt>
      <trkpt lat="39.8986" lon="116.645735">
        <time>2021-09-25T11:05:13Z</time>
      </trkpt>
      <trkpt lat="39.898689" lon="116.645959">
        <time>2021-09-25T11:05:18Z</time>
      </trkpt>
      <trkpt lat="39.898737" lon="116.646079">
        <time>2021-09-25T11:05:23Z</time>
      </trkpt>
      <trkpt lat="39.898751" lon="116.646148">
        <time>2021-09-25T11:05:28Z</time>
      </trkpt>
      <trkpt lat="39.898749" lon="116.646235">
        <time>2021-09-25T11:05:33Z</time>
      </trkpt>
      <trkpt lat="39.898813" lon="116.646405">
        <time>2021-09-25T11:05:38Z</time>
      </trkpt>
      <trkpt lat="39.898824" lon="116.646535">
        <time>2021-09-25T11:05:43Z</time>
      </trkpt>
      <trkpt lat="39.898808" lon="116.646662">
        <time>2021-09-25T11:05:48Z</time>
      </trkpt>
      <trkpt lat="39.898821" lon="116.646835">
        <time>2021-09-25T11:05:53Z</time>
      </trkpt>
      <trkpt lat="39.898903" lon="116.646988">
        <time>2021-09-25T11:05:58Z</time>
      </trkpt>
      <trkpt lat="39.899005" lon="116.64722">
        <time>2021-09-25T11:06:03Z</time>
      </trkpt>
      <trkpt lat="39.899077" lon="116.647425">
        <time>2021-09-25T11:06:08Z</time>
      </trkpt>
      <trkpt lat="39.899105" lon="116.647647">
        <time>2021-09-25T11:06:13Z</time>
      </trkpt>
      <trkpt lat="39.899137" lon="116.64776">
        <time>2021-09-25T11:06:18Z</time>
      </trkpt>
      <trkpt lat="39.899133" lon="116.647867">
        <time>2021-09-25T11:06:23Z</time>
      </trkpt>
      <trkpt lat="39.899115" lon="116.647888">
        <time>2021-09-25T11:06:28Z</time>
      </trkpt>
      <trkpt lat="39.89908" lon="116.647932">
        <time>2021-09-25T11:06:33Z</time>
      </trkpt>
      <trkpt lat="39.89911" lon="116.648055">
        <time>2021-09-25T11:06:38Z</time>
      </trkpt>
      <trkpt lat="39.899122" lon="116.648227">
        <time>2021-09-25T11:06:43Z</time>
      </trkpt>
      <trkpt lat="39.899061" lon="116.648389">
        <time>2021-09-25T11:06:48Z</time>
      </trkpt>
      <trkpt lat="39.898993" lon="116.648546">
        <time>2021-09-25T11:06:53Z</time>
      </trkpt>
      <trkpt lat="39.899004" lon="116.648789">
        <time>2021-09-25T11:06:58Z</time>
      </trkpt>
      <trkpt lat="39.89902" lon="116.648877">
        <time>2021-09-25T11:07:03Z</time>
      </trkpt>
      <trkpt lat="39.899062" lon="116.649064">
        <time>2021-09-25T11:07:08Z</time>
      </trkpt>
      <trkpt lat="39.899071" lon="116.649236">
        <time>2021-09-25T11:07:13Z</time>
      </trkpt>
      <trkpt lat="39.899097" lon="116.649459">
        <time>2021-09-25T11:07:18Z</time>
      </trkpt>
      <trkpt lat="39.89909" lon="116.649579">
        <time>2021-09-25T11:07:23Z</time>
      </trkpt>
      <trkpt lat="39.899055" lon="116.649758">
        <time>2021-09-25T11:07:28Z</time>
      </trkpt>
      <trkpt lat="39.899089" lon="116.649918">
        <time>2021-09-25T11:07:33Z</time>
      </trkpt>
      <trkpt lat="39.899126" lon="116.650085">
        <time>2021-09-25T11:07:38Z</time>
      </trkpt>
      <trkpt lat="39.899176" lon="116.65027">
        <time>2021-09-25T11:07:43Z</time>
      </trkpt>
      <trkpt lat="39.899095" lon="116.650447">
        <time>2021-09-25T11:07:48Z</time>
      </trkpt>
      <trkpt lat="39.899107" lon="116.650583">
        <time>2021-09-25T11:07:53Z</time>
      </trkpt>
      <trkpt lat="39.89913" lon="116.650792">
        <time>2021-09-25T11:07:58Z</time>
      </trkpt>
      <trkpt lat="39.899117" lon="116.650986">
        <time>2021-09-25T11:08:03Z</time>
      </trkpt>
      <trkpt lat="39.899035" lon="116.651202">
        <time>2021-09-25T11:08:08Z</time>
      </trkpt>
      <trkpt lat="39.899002" lon="116.65142">
        <time>2021-09-25T11:08:13Z</time>
      </trkpt>
      <trkpt lat="39.898975" lon="116.651605">
        <time>2021-09-25T11:08:18Z</time>
      </trkpt>
      <trkpt lat="39.898963" lon="116.651663">
        <time>2021-09-25T11:08:23Z</time>
      </trkpt>
      <trkpt lat="39.899" lon="116.651404">
        <time>2021-09-25T11:08:28Z</time>
      </trkpt>
      <trkpt lat="39.899031" lon="116.651237">
        <time>2021-09-25T11:08:33Z</time>
      </trkpt>
      <trkpt lat="39.899035" lon="116.650981">
        <time>2021-09-25T11:08:38Z</time>
      </trkpt>
      <trkpt lat="39.899052" lon="116.650751">
        <time>2021-09-25T11:08:43Z</time>
      </trkpt>
      <trkpt lat="39.89906" lon="116.650559">
        <time>2021-09-25T11:08:48Z</time>
      </trkpt>
      <trkpt lat="39.899073" lon="116.650378">
        <time>2021-09-25T11:08:53Z</time>
      </trkpt>
      <trkpt lat="39.899056" lon="116.650206">
        <time>2021-09-25T11:08:58Z</time>
      </trkpt>
      <trkpt lat="39.899035" lon="116.650158">
        <time>2021-09-25T11:09:03Z</time>
      </trkpt>
      <trkpt lat="39.899012" lon="116.650049">
        <time>2021-09-25T11:09:08Z</time>
      </trkpt>
      <trkpt lat="39.899029" lon="116.649929">
        <time>2021-09-25T11:09:13Z</time>
      </trkpt>
      <trkpt lat="39.899016" lon="116.649799">
        <time>2021-09-25T11:09:18Z</time>
      </trkpt>
      <trkpt lat="39.899005" lon="116.649513">
        <time>2021-09-25T11:09:23Z</time>
      </trkpt>
      <trkpt lat="39.899023" lon="116.64942">
        <time>2021-09-25T11:09:28Z</time>
      </trkpt>
      <trkpt lat="39.899007" lon="116.64916">
        <time>2021-09-25T11:09:33Z</time>
      </trkpt>
      <trkpt lat="39.899011" lon="116.649056">
        <time>2021-09-25T11:09:38Z</time>
      </trkpt>
      <trkpt lat="39.89898" lon="116.648866">
        <time>2021-09-25T11:09:43Z</time>
      </trkpt>
      <trkpt lat="39.898962" lon="116.64871">
        <time>2021-09-25T11:09:48Z</time>
      </trkpt>
      <trkpt lat="39.898981" lon="116.648677">
        <time>2021-09-25T11:09:53Z</time>
      </trkpt>
      <trkpt lat="39.89898" lon="116.648655">
        <time>2021-09-25T11:09:58Z</time>
      </trkpt>
      <trkpt lat="39.898979" lon="116.648555">
        <time>2021-09-25T11:10:03Z</time>
      </trkpt>
      <trkpt lat="39.898954" lon="116.648421">
        <time>2021-09-25T11:10:08Z</time>
      </trkpt>
      <trkpt lat="39.899003" lon="116.648394">
        <time>2021-09-25T11:10:13Z</time>
      </trkpt>
      <trkpt lat="39.899078" lon="116.648274">
        <time>2021-09-25T11:10:18Z</time>
      </trkpt>
      <trkpt lat="39.899035" lon="116.648026">
        <time>2021-09-25T11:10:23Z</time>
      </trkpt>
      <trkpt lat="39.898996" lon="116.647863">
        <time>2021-09-25T11:10:28Z</time>
      </trkpt>
      <trkpt lat="39.89896" lon="116.647683">
        <time>2021-09-25T11:10:33Z</time>
      </trkpt>
      <trkpt lat="39.89897" lon="116.647491">
        <time>2021-09-25T11:10:38Z</time>
      </trkpt>
      <trkpt lat="39.899018" lon="116.647347">
        <time>2021-09-25T11:10:43Z</time>
      </trkpt>
      <trkpt lat="39.899021" lon="116.647197">
        <time>2021-09-25T11:10:48Z</time>
      </trkpt>
      <trkpt lat="39.898978" lon="116.647012">
        <time>2021-09-25T11:10:53Z</time>
      </trkpt>
      <trkpt lat="39.898941" lon="116.646839">
        <time>2021-09-25T11:10:58Z</time>
      </trkpt>
      <trkpt lat="39.898848" lon="116.646686">
        <time>2021-09-25T11:11:03Z</time>
      </trkpt>
      <trkpt lat="39.89884" lon="116.646585">
        <time>2021-09-25T11:11:08Z</time>
      </trkpt>
      <trkpt lat="39.898783" lon="116.646454">
        <time>2021-09-25T11:11:13Z</time>
      </trkpt>
      <trkpt lat="39.898715" lon="116.646304">
        <time>2021-09-25T11:11:18Z</time>
      </trkpt>
      <trkpt lat="39.898656" lon="116.646142">
        <time>2021-09-25T11:11:23Z</time>
      </trkpt>
      <trkpt lat="39.898619" lon="116.645986">
        <time>2021-09-25T11:11:28Z</time>
      </trkpt>
      <trkpt lat="39.898576" lon="116.645842">
        <time>2021-09-25T11:11:33Z</time>
      </trkpt>
      <trkpt lat="39.898519" lon="116.645674">
        <time>2021-09-25T11:11:38Z</time>
      </trkpt>
      <trkpt lat="39.898478" lon="116.645526">
        <time>2021-09-25T11:11:43Z</time>
      </trkpt>
      <trkpt lat="39.898429" lon="116.645381">
        <time>2021-09-25T11:11:48Z</time>
      </trkpt>
      <trkpt lat="39.898393" lon="116.6452">
        <time>2021-09-25T11:11:53Z</time>
      </trkpt>
      <trkpt lat="39.89835" lon="116.64502">
        <time>2021-09-25T11:11:58Z</time>
      </trkpt>
      <trkpt lat="39.898351" lon="116.644843">
        <time>2021-09-25T11:12:03Z</time>
      </trkpt>
      <trkpt lat="39.898349" lon="116.644656">
        <time>2021-09-25T11:12:08Z</time>
      </trkpt>
      <trkpt lat="39.898348" lon="116.644503">
        <time>2021-09-25T11:12:13Z</time>
      </trkpt>
      <trkpt lat="39.898311" lon="116.644366">
        <time>2021-09-25T11:12:18Z</time>
      </trkpt>
      <trkpt lat="39.898297" lon="116.644183">
        <time>2021-09-25T11:12:23Z</time>
      </trkpt>
      <trkpt lat="39.898255" lon="116.644034">
        <time>2021-09-25T11:12:28Z</time>
      </trkpt>
      <trkpt lat="39.898216" lon="116.643893">
        <time>2021-09-25T11:12:33Z</time>
      </trkpt>
      <trkpt lat="39.898192" lon="116.643732">
        <time>2021-09-25T11:12:38Z</time>
      </trkpt>
      <trkpt lat="39.89819" lon="116.643533">
        <time>2021-09-25T11:12:43Z</time>
      </trkpt>
      <trkpt lat="39.898198" lon="116.64333">
        <time>2021-09-25T11:12:48Z</time>
      </trkpt>
      <trkpt lat="39.898242" lon="116.64309">
        <time>2021-09-25T11:12:53Z</time>
      </trkpt>
      <trkpt lat="39.898275" lon="116.64298">
        <time>2021-09-25T11:12:58Z</time>
      </trkpt>
      <trkpt lat="39.898349" lon="116.64286">
        <time>2021-09-25T11:13:03Z</time>
      </trkpt>
      <trkpt lat="39.898377" lon="116.642689">
        <time>2021-09-25T11:13:08Z</time>
      </trkpt>
      <trkpt lat="39.898311" lon="116.64252">
        <time>2021-09-25T11:13:13Z</time>
      </trkpt>
      <trkpt lat="39.898276" lon="116.642355">
        <time>2021-09-25T11:13:18Z</time>
      </trkpt>
      <trkpt lat="39.898286" lon="116.642189">
        <time>2021-09-25T11:13:23Z</time>
      </trkpt>
      <trkpt lat="39.898266" lon="116.642009">
        <time>2021-09-25T11:13:28Z</time>
      </trkpt>
      <trkpt lat="39.8983" lon="116.641857">
        <time>2021-09-25T11:13:33Z</time>
      </trkpt>
      <trkpt lat="39.898285" lon="116.641689">
        <time>2021-09-25T11:13:38Z</time>
      </trkpt>
      <trkpt lat="39.898338" lon="116.641546">
        <time>2021-09-25T11:13:43Z</time>
      </trkpt>
      <trkpt lat="39.898358" lon="116.641435">
        <time>2021-09-25T11:13:48Z</time>
      </trkpt>
      <trkpt lat="39.898367" lon="116.641324">
        <time>2021-09-25T11:13:53Z</time>
      </trkpt>
      <trkpt lat="39.898256" lon="116.641264">
        <time>2021-09-25T11:13:58Z</time>
      </trkpt>
      <trkpt lat="39.898123" lon="116.641222">
        <time>2021-09-25T11:14:03Z</time>
      </trkpt>
      <trkpt lat="39.898027" lon="116.64117">
        <time>2021-09-25T11:14:08Z</time>
      </trkpt>
      <trkpt lat="39.89798" lon="116.641145">
        <time>2021-09-25T11:14:13Z</time>
      </trkpt>
      <trkpt lat="39.897895" lon="116.641105">
        <time>2021-09-25T11:14:18Z</time>
      </trkpt>
      <trkpt lat="39.897852" lon="116.641099">
        <time>2021-09-25T11:14:23Z</time>
      </trkpt>
      <trkpt lat="39.897822" lon="116.641106">
        <time>2021-09-25T11:14:28Z</time>
      </trkpt>
      <trkpt lat="39.897711" lon="116.641054">
        <time>2021-09-25T11:14:33Z</time>
      </trkpt>
      <trkpt lat="39.897611" lon="116.640982">
        <time>2021-09-25T11:14:38Z</time>
      </trkpt>
      <trkpt lat="39.897511" lon="116.64092">
        <time>2021-09-25T11:14:43Z</time>
      </trkpt>
      <trkpt lat="39.897377" lon="116.640879">
        <time>2021-09-25T11:14:48Z</time>
      </trkpt>
      <trkpt lat="39.897224" lon="116.6408">
        <time>2021-09-25T11:14:53Z</time>
      </trkpt>
      <trkpt lat="39.897039" lon="116.640693">
        <time>2021-09-25T11:14:58Z</time>
      </trkpt>
      <trkpt lat="39.896964" lon="116.640619">
        <time>2021-09-25T11:15:03Z</time>
      </trkpt>
      <trkpt lat="39.896837" lon="116.640554">
        <time>2021-09-25T11:15:08Z</time>
      </trkpt>
      <trkpt lat="39.896717" lon="116.64047">
        <time>2021-09-25T11:15:13Z</time>
      </trkpt>
      <trkpt lat="39.896546" lon="116.64032">
        <time>2021-09-25T11:15:18Z</time>
      </trkpt>
      <trkpt lat="39.896499" lon="116.640285">
        <time>2021-09-25T11:15:23Z</time>
      </trkpt>
      <trkpt lat="39.896437" lon="116.640269">
        <time>2021-09-25T11:15:28Z</time>
      </trkpt>
      <trkpt lat="39.896402" lon="116.640264">
        <time>2021-09-25T11:15:33Z</time>
      </trkpt>
      <trkpt lat="39.896327" lon="116.640242">
        <time>2021-09-25T11:15:38Z</time>
      </trkpt>
      <trkpt lat="39.896289" lon="116.64017">
        <time>2021-09-25T11:15:43Z</time>
      </trkpt>
      <trkpt lat="39.896283" lon="116.640109">
        <time>2021-09-25T11:15:48Z</time>
      </trkpt>
      <trkpt lat="39.896254" lon="116.639949">
        <time>2021-09-25T11:15:53Z</time>
      </trkpt>
      <trkpt lat="39.896219" lon="116.639821">
        <time>2021-09-25T11:15:58Z</time>
      </trkpt>
      <trkpt lat="39.896218" lon="116.6397">
        <time>2021-09-25T11:16:03Z</time>
      </trkpt>
      <trkpt lat="39.896234" lon="116.63959">
        <time>2021-09-25T11:16:08Z</time>
      </trkpt>
      <trkpt lat="39.896252" lon="116.639406">
        <time>2021-09-25T11:16:13Z</time>
      </trkpt>
      <trkpt lat="39.896256" lon="116.63938">
        <time>2021-09-25T11:16:18Z</time>
      </trkpt>
      <trkpt lat="39.896255" lon="116.639226">
        <time>2021-09-25T11:16:23Z</time>
      </trkpt>
      <trkpt lat="39.89624" lon="116.639078">
        <time>2021-09-25T11:16:28Z</time>
      </trkpt>
      <trkpt lat="39.896223" lon="116.63894">
        <time>2021-09-25T11:16:33Z</time>
      </trkpt>
      <trkpt lat="39.896213" lon="116.638799">
        <time>2021-09-25T11:16:38Z</time>
      </trkpt>
      <trkpt lat="39.896184" lon="116.638619">
        <time>2021-09-25T11:16:43Z</time>
      </trkpt>
      <trkpt lat="39.896165" lon="116.638462">
        <time>2021-09-25T11:16:48Z</time>
      </trkpt>
      <trkpt lat="39.896185" lon="116.638316">
        <time>2021-09-25T11:16:53Z</time>
      </trkpt>
      <trkpt lat="39.896174" lon="116.638176">
        <time>2021-09-25T11:16:58Z</time>
      </trkpt>
      <trkpt lat="39.896198" lon="116.638018">
        <time>2021-09-25T11:17:03Z</time>
      </trkpt>
      <trkpt lat="39.89621" lon="116.637808">
        <time>2021-09-25T11:17:08Z</time>
      </trkpt>
      <trkpt lat="39.896196" lon="116.63764">
        <time>2021-09-25T11:17:13Z</time>
      </trkpt>
      <trkpt lat="39.896182" lon="116.637494">
        <time>2021-09-25T11:17:18Z</time>
      </trkpt>
      <trkpt lat="39.8962" lon="116.637415">
        <time>2021-09-25T11:17:23Z</time>
      </trkpt>
      <trkpt lat="39.896186" lon="116.637335">
        <time>2021-09-25T11:17:28Z</time>
      </trkpt>
      <trkpt lat="39.896169" lon="116.63724">
        <time>2021-09-25T11:17:33Z</time>
      </trkpt>
      <trkpt lat="39.896175" lon="116.637103">
        <time>2021-09-25T11:17:38Z</time>
      </trkpt>
      <trkpt lat="39.896156" lon="116.636967">
        <time>2021-09-25T11:17:43Z</time>
      </trkpt>
      <trkpt lat="39.896073" lon="116.63671">
        <time>2021-09-25T11:17:48Z</time>
      </trkpt>
      <trkpt lat="39.896021" lon="116.636614">
        <time>2021-09-25T11:17:53Z</time>
      </trkpt>
      <trkpt lat="39.895958" lon="116.636523">
        <time>2021-09-25T11:17:58Z</time>
      </trkpt>
      <trkpt lat="39.895941" lon="116.636525">
        <time>2021-09-25T11:18:03Z</time>
      </trkpt>
      <trkpt lat="39.896004" lon="116.636715">
        <time>2021-09-25T11:18:08Z</time>
      </trkpt>
      <trkpt lat="39.896063" lon="116.636875">
        <time>2021-09-25T11:18:13Z</time>
      </trkpt>
      <trkpt lat="39.896105" lon="116.637135">
        <time>2021-09-25T11:18:18Z</time>
      </trkpt>
      <trkpt lat="39.896097" lon="116.637205">
        <time>2021-09-25T11:18:23Z</time>
      </trkpt>
      <trkpt lat="39.896096" lon="116.637355">
        <time>2021-09-25T11:18:28Z</time>
      </trkpt>
      <trkpt lat="39.896114" lon="116.637493">
        <time>2021-09-25T11:18:33Z</time>
      </trkpt>
      <trkpt lat="39.896161" lon="116.637641">
        <time>2021-09-25T11:18:38Z</time>
      </trkpt>
      <trkpt lat="39.896121" lon="116.637783">
        <time>2021-09-25T11:18:43Z</time>
      </trkpt>
      <trkpt lat="39.896083" lon="116.637962">
        <time>2021-09-25T11:18:48Z</time>
      </trkpt>
      <trkpt lat="39.896105" lon="116.638069">
        <time>2021-09-25T11:18:53Z</time>
      </trkpt>
      <trkpt lat="39.896149" lon="116.63815">
        <time>2021-09-25T11:18:58Z</time>
      </trkpt>
      <trkpt lat="39.89617" lon="116.63827">
        <time>2021-09-25T11:19:03Z</time>
      </trkpt>
      <trkpt lat="39.896116" lon="116.63844">
        <time>2021-09-25T11:19:08Z</time>
      </trkpt>
      <trkpt lat="39.896142" lon="116.638628">
        <time>2021-09-25T11:19:13Z</time>
      </trkpt>
      <trkpt lat="39.896141" lon="116.638792">
        <time>2021-09-25T11:19:18Z</time>
      </trkpt>
      <trkpt lat="39.896147" lon="116.638921">
        <time>2021-09-25T11:19:23Z</time>
      </trkpt>
      <trkpt lat="39.896157" lon="116.639112">
        <time>2021-09-25T11:19:28Z</time>
      </trkpt>
      <trkpt lat="39.896163" lon="116.639276">
        <time>2021-09-25T11:19:33Z</time>
      </trkpt>
      <trkpt lat="39.89618" lon="116.639399">
        <time>2021-09-25T11:19:38Z</time>
      </trkpt>
      <trkpt lat="39.896177" lon="116.639503">
        <time>2021-09-25T11:19:43Z</time>
      </trkpt>
      <trkpt lat="39.896178" lon="116.639599">
        <time>2021-09-25T11:19:48Z</time>
      </trkpt>
      <trkpt lat="39.896191" lon="116.639767">
        <time>2021-09-25T11:19:53Z</time>
      </trkpt>
      <trkpt lat="39.896205" lon="116.639816">
        <time>2021-09-25T11:19:58Z</time>
      </trkpt>
      <trkpt lat="39.896235" lon="116.639947">
        <time>2021-09-25T11:20:03Z</time>
      </trkpt>
      <trkpt lat="39.896251" lon="116.640114">
        <time>2021-09-25T11:20:08Z</time>
      </trkpt>
      <trkpt lat="39.896243" lon="116.640267">
        <time>2021-09-25T11:20:13Z</time>
      </trkpt>
      <trkpt lat="39.89626" lon="116.640429">
        <time>2021-09-25T11:20:18Z</time>
      </trkpt>
      <trkpt lat="39.89624" lon="116.640775">
        <time>2021-09-25T11:20:23Z</time>
      </trkpt>
      <trkpt lat="39.896225" lon="116.640814">
        <time>2021-09-25T11:20:28Z</time>
      </trkpt>
      <trkpt lat="39.896183" lon="116.641031">
        <time>2021-09-25T11:20:33Z</time>
      </trkpt>
      <trkpt lat="39.896126" lon="116.641241">
        <time>2021-09-25T11:20:38Z</time>
      </trkpt>
      <trkpt lat="39.89619" lon="116.641442">
        <time>2021-09-25T11:20:43Z</time>
      </trkpt>
      <trkpt lat="39.896227" lon="116.641629">
        <time>2021-09-25T11:20:48Z</time>
      </trkpt>
      <trkpt lat="39.896209" lon="116.641764">
        <time>2021-09-25T11:20:53Z</time>
      </trkpt>
      <trkpt lat="39.896182" lon="116.64193">
        <time>2021-09-25T11:20:58Z</time>
      </trkpt>
      <trkpt lat="39.896163" lon="116.642129">
        <time>2021-09-25T11:21:03Z</time>
      </trkpt>
      <trkpt lat="39.896168" lon="116.642234">
        <time>2021-09-25T11:21:08Z</time>
      </trkpt>
      <trkpt lat="39.896171" lon="116.642313">
        <time>2021-09-25T11:21:13Z</time>
      </trkpt>
      <trkpt lat="39.896153" lon="116.64254">
        <time>2021-09-25T11:21:18Z</time>
      </trkpt>
      <trkpt lat="39.896164" lon="116.642725">
        <time>2021-09-25T11:21:23Z</time>
      </trkpt>
      <trkpt lat="39.896167" lon="116.642962">
        <time>2021-09-25T11:21:28Z</time>
      </trkpt>
      <trkpt lat="39.896162" lon="116.642994">
        <time>2021-09-25T11:21:33Z</time>
      </trkpt>
      <trkpt lat="39.896119" lon="116.643134">
        <time>2021-09-25T11:21:38Z</time>
      </trkpt>
      <trkpt lat="39.896092" lon="116.64331">
        <time>2021-09-25T11:21:43Z</time>
      </trkpt>
      <trkpt lat="39.896123" lon="116.643547">
        <time>2021-09-25T11:21:48Z</time>
      </trkpt>
      <trkpt lat="39.89614" lon="116.643613">
        <time>2021-09-25T11:21:53Z</time>
      </trkpt>
      <trkpt lat="39.896136" lon="116.643748">
        <time>2021-09-25T11:21:58Z</time>
      </trkpt>
      <trkpt lat="39.896112" lon="116.643874">
        <time>2021-09-25T11:22:03Z</time>
      </trkpt>
      <trkpt lat="39.896122" lon="116.643963">
        <time>2021-09-25T11:22:08Z</time>
      </trkpt>
      <trkpt lat="39.896134" lon="116.644057">
        <time>2021-09-25T11:22:13Z</time>
      </trkpt>
      <trkpt lat="39.896149" lon="116.644178">
        <time>2021-09-25T11:22:18Z</time>
      </trkpt>
      <trkpt lat="39.896162" lon="116.644305">
        <time>2021-09-25T11:22:23Z</time>
      </trkpt>
      <trkpt lat="39.896156" lon="116.644432">
        <time>2021-09-25T11:22:28Z</time>
      </trkpt>
      <trkpt lat="39.896169" lon="116.64458">
        <time>2021-09-25T11:22:33Z</time>
      </trkpt>
      <trkpt lat="39.896247" lon="116.644727">
        <time>2021-09-25T11:22:38Z</time>
      </trkpt>
      <trkpt lat="39.896258" lon="116.644887">
        <time>2021-09-25T11:22:43Z</time>
      </trkpt>
      <trkpt lat="39.896195" lon="116.645022">
        <time>2021-09-25T11:22:48Z</time>
      </trkpt>
      <trkpt lat="39.89618" lon="116.645221">
        <time>2021-09-25T11:22:53Z</time>
      </trkpt>
      <trkpt lat="39.896144" lon="116.645367">
        <time>2021-09-25T11:22:58Z</time>
      </trkpt>
      <trkpt lat="39.896103" lon="116.64554">
        <time>2021-09-25T11:23:03Z</time>
      </trkpt>
      <trkpt lat="39.896082" lon="116.645738">
        <time>2021-09-25T11:23:08Z</time>
      </trkpt>
      <trkpt lat="39.896053" lon="116.645952">
        <time>2021-09-25T11:23:13Z</time>
      </trkpt>
      <trkpt lat="39.896036" lon="116.646161">
        <time>2021-09-25T11:23:18Z</time>
      </trkpt>
      <trkpt lat="39.895999" lon="116.646322">
        <time>2021-09-25T11:23:23Z</time>
      </trkpt>
      <trkpt lat="39.895981" lon="116.646418">
        <time>2021-09-25T11:23:28Z</time>
      </trkpt>
      <trkpt lat="39.895977" lon="116.646512">
        <time>2021-09-25T11:23:33Z</time>
      </trkpt>
      <trkpt lat="39.89598" lon="116.646619">
        <time>2021-09-25T11:23:38Z</time>
      </trkpt>
      <trkpt lat="39.895971" lon="116.646726">
        <time>2021-09-25T11:23:43Z</time>
      </trkpt>
      <trkpt lat="39.895931" lon="116.646839">
        <time>2021-09-25T11:23:48Z</time>
      </trkpt>
      <trkpt lat="39.895839" lon="116.646841">
        <time>2021-09-25T11:23:53Z</time>
      </trkpt>
      <trkpt lat="39.895722" lon="116.646746">
        <time>2021-09-25T11:23:58Z</time>
      </trkpt>
      <trkpt lat="39.895611" lon="116.646657">
        <time>2021-09-25T11:24:03Z</time>
      </trkpt>
      <trkpt lat="39.895498" lon="116.646587">
        <time>2021-09-25T11:24:08Z</time>
      </trkpt>
      <trkpt lat="39.89537" lon="116.646545">
        <time>2021-09-25T11:24:13Z</time>
      </trkpt>
      <trkpt lat="39.895251" lon="116.646473">
        <time>2021-09-25T11:24:18Z</time>
      </trkpt>
      <trkpt lat="39.895136" lon="116.64641">
        <time>2021-09-25T11:24:23Z</time>
      </trkpt>
      <trkpt lat="39.89495" lon="116.646294">
        <time>2021-09-25T11:24:28Z</time>
      </trkpt>
      <trkpt lat="39.894903" lon="116.646269">
        <time>2021-09-25T11:24:33Z</time>
      </trkpt>
      <trkpt lat="39.89479" lon="116.646203">
        <time>2021-09-25T11:24:38Z</time>
      </trkpt>
      <trkpt lat="39.894658" lon="116.646174">
        <time>2021-09-25T11:24:43Z</time>
      </trkpt>
      <trkpt lat="39.894521" lon="116.646131">
        <time>2021-09-25T11:24:48Z</time>
      </trkpt>
      <trkpt lat="39.894394" lon="116.646055">
        <time>2021-09-25T11:24:53Z</time>
      </trkpt>
      <trkpt lat="39.894288" lon="116.645946">
        <time>2021-09-25T11:24:58Z</time>
      </trkpt>
      <trkpt lat="39.894154" lon="116.645889">
        <time>2021-09-25T11:25:03Z</time>
      </trkpt>
      <trkpt lat="39.894034" lon="116.645819">
        <time>2021-09-25T11:25:08Z</time>
      </trkpt>
      <trkpt lat="39.893901" lon="116.645926">
        <time>2021-09-25T11:25:13Z</time>
      </trkpt>
      <trkpt lat="39.893816" lon="116.646088">
        <time>2021-09-25T11:25:18Z</time>
      </trkpt>
      <trkpt lat="39.893689" lon="116.646337">
        <time>2021-09-25T11:25:23Z</time>
      </trkpt>
      <trkpt lat="39.893638" lon="116.646365">
        <time>2021-09-25T11:25:28Z</time>
      </trkpt>
      <trkpt lat="39.893485" lon="116.646285">
        <time>2021-09-25T11:25:33Z</time>
      </trkpt>
      <trkpt lat="39.893334" lon="116.646219">
        <time>2021-09-25T11:25:38Z</time>
      </trkpt>
      <trkpt lat="39.893187" lon="116.646158">
        <time>2021-09-25T11:25:43Z</time>
      </trkpt>
      <trkpt lat="39.893085" lon="116.646085">
        <time>2021-09-25T11:25:48Z</time>
      </trkpt>
      <trkpt lat="39.892957" lon="116.645981">
        <time>2021-09-25T11:25:53Z</time>
      </trkpt>
      <trkpt lat="39.892843" lon="116.645923">
        <time>2021-09-25T11:25:58Z</time>
      </trkpt>
      <trkpt lat="39.892714" lon="116.645897">
        <time>2021-09-25T11:26:03Z</time>
      </trkpt>
      <trkpt lat="39.892648" lon="116.645849">
        <time>2021-09-25T11:26:08Z</time>
      </trkpt>
      <trkpt lat="39.892611" lon="116.645814">
        <time>2021-09-25T11:26:13Z</time>
      </trkpt>
      <trkpt lat="39.892545" lon="116.645764">
        <time>2021-09-25T11:26:18Z</time>
      </trkpt>
      <trkpt lat="39.892454" lon="116.645696">
        <time>2021-09-25T11:26:23Z</time>
      </trkpt>
      <trkpt lat="39.892369" lon="116.645676">
        <time>2021-09-25T11:26:28Z</time>
      </trkpt>
      <trkpt lat="39.892316" lon="116.645646">
        <time>2021-09-25T11:26:33Z</time>
      </trkpt>
      <trkpt lat="39.892222" lon="116.645647">
        <time>2021-09-25T11:26:38Z</time>
      </trkpt>
      <trkpt lat="39.892129" lon="116.645622">
        <time>2021-09-25T11:26:43Z</time>
      </trkpt>
      <trkpt lat="39.892022" lon="116.64554">
        <time>2021-09-25T11:26:48Z</time>
      </trkpt>
      <trkpt lat="39.891924" lon="116.645462">
        <time>2021-09-25T11:26:53Z</time>
      </trkpt>
      <trkpt lat="39.891805" lon="116.645423">
        <time>2021-09-25T11:26:58Z</time>
      </trkpt>
      <trkpt lat="39.891711" lon="116.645337">
        <time>2021-09-25T11:27:03Z</time>
      </trkpt>
      <trkpt lat="39.891558" lon="116.645241">
        <time>2021-09-25T11:27:08Z</time>
      </trkpt>
      <trkpt lat="39.891539" lon="116.645271">
        <time>2021-09-25T11:27:13Z</time>
      </trkpt>
      <trkpt lat="39.891586" lon="116.645347">
        <time>2021-09-25T11:27:18Z</time>
      </trkpt>
      <trkpt lat="39.891673" lon="116.645415">
        <time>2021-09-25T11:27:23Z</time>
      </trkpt>
      <trkpt lat="39.891752" lon="116.645464">
        <time>2021-09-25T11:27:28Z</time>
      </trkpt>
      <trkpt lat="39.891814" lon="116.645484">
        <time>2021-09-25T11:27:33Z</time>
      </trkpt>
      <trkpt lat="39.891845" lon="116.645503">
        <time>2021-09-25T11:27:38Z</time>
      </trkpt>
      <trkpt lat="39.891916" lon="116.645533">
        <time>2021-09-25T11:27:43Z</time>
      </trkpt>
      <trkpt lat="39.891987" lon="116.645636">
        <time>2021-09-25T11:27:48Z</time>
      </trkpt>
      <trkpt lat="39.892105" lon="116.645701">
        <time>2021-09-25T11:27:53Z</time>
      </trkpt>
      <trkpt lat="39.89223" lon="116.645757">
        <time>2021-09-25T11:27:58Z</time>
      </trkpt>
      <trkpt lat="39.892329" lon="116.6458">
        <time>2021-09-25T11:28:03Z</time>
      </trkpt>
      <trkpt lat="39.892458" lon="116.645884">
        <time>2021-09-25T11:28:08Z</time>
      </trkpt>
      <trkpt lat="39.892593" lon="116.645949">
        <time>2021-09-25T11:28:13Z</time>
      </trkpt>
      <trkpt lat="39.892757" lon="116.646019">
        <time>2021-09-25T11:28:18Z</time>
      </trkpt>
      <trkpt lat="39.892928" lon="116.646076">
        <time>2021-09-25T11:28:23Z</time>
      </trkpt>
      <trkpt lat="39.893089" lon="116.646097">
        <time>2021-09-25T11:28:28Z</time>
      </trkpt>
      <trkpt lat="39.893214" lon="116.646158">
        <time>2021-09-25T11:28:33Z</time>
      </trkpt>
      <trkpt lat="39.893279" lon="116.646199">
        <time>2021-09-25T11:28:38Z</time>
      </trkpt>
      <trkpt lat="39.893408" lon="116.646271">
        <time>2021-09-25T11:28:43Z</time>
      </trkpt>
      <trkpt lat="39.893517" lon="116.646338">
        <time>2021-09-25T11:28:48Z</time>
      </trkpt>
      <trkpt lat="39.893657" lon="116.646325">
        <time>2021-09-25T11:28:53Z</time>
      </trkpt>
      <trkpt lat="39.893729" lon="116.646236">
        <time>2021-09-25T11:28:58Z</time>
      </trkpt>
      <trkpt lat="39.893801" lon="116.646156">
        <time>2021-09-25T11:29:03Z</time>
      </trkpt>
      <trkpt lat="39.893838" lon="116.646086">
        <time>2021-09-25T11:29:08Z</time>
      </trkpt>
      <trkpt lat="39.893874" lon="116.646055">
        <time>2021-09-25T11:29:13Z</time>
      </trkpt>
      <trkpt lat="39.893904" lon="116.646043">
        <time>2021-09-25T11:29:18Z</time>
      </trkpt>
      <trkpt lat="39.893926" lon="116.645927">
        <time>2021-09-25T11:29:23Z</time>
      </trkpt>
      <trkpt lat="39.894017" lon="116.645927">
        <time>2021-09-25T11:29:28Z</time>
      </trkpt>
      <trkpt lat="39.894097" lon="116.645967">
        <time>2021-09-25T11:29:33Z</time>
      </trkpt>
      <trkpt lat="39.894281" lon="116.646067">
        <time>2021-09-25T11:29:38Z</time>
      </trkpt>
      <trkpt lat="39.894327" lon="116.6461">
        <time>2021-09-25T11:29:43Z</time>
      </trkpt>
      <trkpt lat="39.894463" lon="116.646154">
        <time>2021-09-25T11:29:48Z</time>
      </trkpt>
      <trkpt lat="39.894588" lon="116.646214">
        <time>2021-09-25T11:29:53Z</time>
      </trkpt>
      <trkpt lat="39.894694" lon="116.646304">
        <time>2021-09-25T11:29:58Z</time>
      </trkpt>
      <trkpt lat="39.894798" lon="116.646365">
        <time>2021-09-25T11:30:03Z</time>
      </trkpt>
      <trkpt lat="39.89491" lon="116.646414">
        <time>2021-09-25T11:30:08Z</time>
      </trkpt>
      <trkpt lat="39.894987" lon="116.646429">
        <time>2021-09-25T11:30:13Z</time>
      </trkpt>
      <trkpt lat="39.89507" lon="116.646475">
        <time>2021-09-25T11:30:18Z</time>
      </trkpt>
      <trkpt lat="39.895162" lon="116.646523">
        <time>2021-09-25T11:30:23Z</time>
      </trkpt>
      <trkpt lat="39.895238" lon="116.646569">
        <time>2021-09-25T11:30:28Z</time>
      </trkpt>
      <trkpt lat="39.895313" lon="116.646596">
        <time>2021-09-25T11:30:33Z</time>
      </trkpt>
      <trkpt lat="39.895349" lon="116.64659">
        <time>2021-09-25T11:30:38Z</time>
      </trkpt>
      <trkpt lat="39.895441" lon="116.646622">
        <time>2021-09-25T11:30:43Z</time>
      </trkpt>
      <trkpt lat="39.895509" lon="116.646653">
        <time>2021-09-25T11:30:48Z</time>
      </trkpt>
      <trkpt lat="39.895608" lon="116.646688">
        <time>2021-09-25T11:30:53Z</time>
      </trkpt>
      <trkpt lat="39.895729" lon="116.646737">
        <time>2021-09-25T11:30:58Z</time>
      </trkpt>
      <trkpt lat="39.895878" lon="116.64682">
        <time>2021-09-25T11:31:03Z</time>
      </trkpt>
      <trkpt lat="39.896021" lon="116.646819">
        <time>2021-09-25T11:31:08Z</time>
      </trkpt>
      <trkpt lat="39.89607" lon="116.646692">
        <time>2021-09-25T11:31:13Z</time>
      </trkpt>
      <trkpt lat="39.896071" lon="116.64653">
        <time>2021-09-25T11:31:18Z</time>
      </trkpt>
      <trkpt lat="39.896091" lon="116.646392">
        <time>2021-09-25T11:31:23Z</time>
      </trkpt>
      <trkpt lat="39.896083" lon="116.646236">
        <time>2021-09-25T11:31:28Z</time>
      </trkpt>
      <trkpt lat="39.896091" lon="116.646109">
        <time>2021-09-25T11:31:33Z</time>
      </trkpt>
      <trkpt lat="39.89609" lon="116.645998">
        <time>2021-09-25T11:31:38Z</time>
      </trkpt>
      <trkpt lat="39.896083" lon="116.645916">
        <time>2021-09-25T11:31:43Z</time>
      </trkpt>
      <trkpt lat="39.896099" lon="116.645784">
        <time>2021-09-25T11:31:48Z</time>
      </trkpt>
      <trkpt lat="39.896119" lon="116.645676">
        <time>2021-09-25T11:31:53Z</time>
      </trkpt>
      <trkpt lat="39.896184" lon="116.645546">
        <time>2021-09-25T11:31:58Z</time>
      </trkpt>
      <trkpt lat="39.896227" lon="116.645384">
        <time>2021-09-25T11:32:03Z</time>
      </trkpt>
      <trkpt lat="39.896244" lon="116.645164">
        <time>2021-09-25T11:32:08Z</time>
      </trkpt>
      <trkpt lat="39.89623" lon="116.64496">
        <time>2021-09-25T11:32:13Z</time>
      </trkpt>
      <trkpt lat="39.896224" lon="116.644774">
        <time>2021-09-25T11:32:18Z</time>
      </trkpt>
      <trkpt lat="39.896211" lon="116.644572">
        <time>2021-09-25T11:32:23Z</time>
      </trkpt>
      <trkpt lat="39.896205" lon="116.644413">
        <time>2021-09-25T11:32:28Z</time>
      </trkpt>
      <trkpt lat="39.896219" lon="116.644278">
        <time>2021-09-25T11:32:33Z</time>
      </trkpt>
      <trkpt lat="39.896236" lon="116.644127">
        <time>2021-09-25T11:32:38Z</time>
      </trkpt>
      <trkpt lat="39.896226" lon="116.644026">
        <time>2021-09-25T11:32:43Z</time>
      </trkpt>
      <trkpt lat="39.896218" lon="116.643902">
        <time>2021-09-25T11:32:48Z</time>
      </trkpt>
      <trkpt lat="39.896205" lon="116.643824">
        <time>2021-09-25T11:32:53Z</time>
      </trkpt>
      <trkpt lat="39.896194" lon="116.643725">
        <time>2021-09-25T11:32:58Z</time>
      </trkpt>
      <trkpt lat="39.896217" lon="116.643653">
        <time>2021-09-25T11:33:03Z</time>
      </trkpt>
      <trkpt lat="39.896229" lon="116.643547">
        <time>2021-09-25T11:33:08Z</time>
      </trkpt>
      <trkpt lat="39.896199" lon="116.643378">
        <time>2021-09-25T11:33:13Z</time>
      </trkpt>
      <trkpt lat="39.896197" lon="116.643179">
        <time>2021-09-25T11:33:18Z</time>
      </trkpt>
      <trkpt lat="39.89621" lon="116.643041">
        <time>2021-09-25T11:33:23Z</time>
      </trkpt>
      <trkpt lat="39.896252" lon="116.642921">
        <time>2021-09-25T11:33:28Z</time>
      </trkpt>
      <trkpt lat="39.896274" lon="116.642798">
        <time>2021-09-25T11:33:33Z</time>
      </trkpt>
      <trkpt lat="39.896299" lon="116.642596">
        <time>2021-09-25T11:33:38Z</time>
      </trkpt>
      <trkpt lat="39.896283" lon="116.642389">
        <time>2021-09-25T11:33:43Z</time>
      </trkpt>
      <trkpt lat="39.896278" lon="116.642237">
        <time>2021-09-25T11:33:48Z</time>
      </trkpt>
      <trkpt lat="39.896255" lon="116.642067">
        <time>2021-09-25T11:33:53Z</time>
      </trkpt>
      <trkpt lat="39.896269" lon="116.641883">
        <time>2021-09-25T11:33:58Z</time>
      </trkpt>
      <trkpt lat="39.896275" lon="116.64166">
        <time>2021-09-25T11:34:03Z</time>
      </trkpt>
      <trkpt lat="39.896275" lon="116.641517">
        <time>2021-09-25T11:34:08Z</time>
      </trkpt>
      <trkpt lat="39.896279" lon="116.641361">
        <time>2021-09-25T11:34:13Z</time>
      </trkpt>
      <trkpt lat="39.896287" lon="116.64127">
        <time>2021-09-25T11:34:18Z</time>
      </trkpt>
      <trkpt lat="39.896286" lon="116.641168">
        <time>2021-09-25T11:34:23Z</time>
      </trkpt>
      <trkpt lat="39.896284" lon="116.641016">
        <time>2021-09-25T11:34:28Z</time>
      </trkpt>
      <trkpt lat="39.896274" lon="116.640869">
        <time>2021-09-25T11:34:33Z</time>
      </trkpt>
      <trkpt lat="39.896262" lon="116.640695">
        <time>2021-09-25T11:34:38Z</time>
      </trkpt>
      <trkpt lat="39.896258" lon="116.640538">
        <time>2021-09-25T11:34:43Z</time>
      </trkpt>
      <trkpt lat="39.896266" lon="116.640364">
        <time>2021-09-25T11:34:48Z</time>
      </trkpt>
      <trkpt lat="39.896279" lon="116.640161">
        <time>2021-09-25T11:34:53Z</time>
      </trkpt>
      <trkpt lat="39.896274" lon="116.640028">
        <time>2021-09-25T11:34:58Z</time>
      </trkpt>
      <trkpt lat="39.896288" lon="116.639865">
        <time>2021-09-25T11:35:03Z</time>
      </trkpt>
      <trkpt lat="39.896294" lon="116.63974">
        <time>2021-09-25T11:35:08Z</time>
      </trkpt>
      <trkpt lat="39.896332" lon="116.639619">
        <time>2021-09-25T11:35:13Z</time>
      </trkpt>
      <trkpt lat="39.896359" lon="116.639499">
        <time>2021-09-25T11:35:18Z</time>
      </trkpt>
      <trkpt lat="39.896357" lon="116.639299">
        <time>2021-09-25T11:35:23Z</time>
      </trkpt>
      <trkpt lat="39.896299" lon="116.63912">
        <time>2021-09-25T11:35:28Z</time>
      </trkpt>
      <trkpt lat="39.896261" lon="116.638986">
        <time>2021-09-25T11:35:33Z</time>
      </trkpt>
      <trkpt lat="39.89623" lon="116.638877">
        <time>2021-09-25T11:35:38Z</time>
      </trkpt>
      <trkpt lat="39.896188" lon="116.638769">
        <time>2021-09-25T11:35:43Z</time>
      </trkpt>
      <trkpt lat="39.896147" lon="116.638669">
        <time>2021-09-25T11:35:48Z</time>
      </trkpt>
      <trkpt lat="39.896178" lon="116.63857">
        <time>2021-09-25T11:35:53Z</time>
      </trkpt>
      <trkpt lat="39.896172" lon="116.638472">
        <time>2021-09-25T11:35:58Z</time>
      </trkpt>
      <trkpt lat="39.896166" lon="116.63839">
        <time>2021-09-25T11:36:03Z</time>
      </trkpt>
      <trkpt lat="39.896176" lon="116.638277">
        <time>2021-09-25T11:36:08Z</time>
      </trkpt>
      <trkpt lat="39.896211" lon="116.638163">
        <time>2021-09-25T11:36:13Z</time>
      </trkpt>
      <trkpt lat="39.896217" lon="116.638043">
        <time>2021-09-25T11:36:18Z</time>
      </trkpt>
      <trkpt lat="39.896219" lon="116.637898">
        <time>2021-09-25T11:36:23Z</time>
      </trkpt>
      <trkpt lat="39.896206" lon="116.637726">
        <time>2021-09-25T11:36:28Z</time>
      </trkpt>
      <trkpt lat="39.89621" lon="116.637558">
        <time>2021-09-25T11:36:33Z</time>
      </trkpt>
      <trkpt lat="39.896193" lon="116.637379">
        <time>2021-09-25T11:36:38Z</time>
      </trkpt>
      <trkpt lat="39.896181" lon="116.637197">
        <time>2021-09-25T11:36:43Z</time>
      </trkpt>
      <trkpt lat="39.896139" lon="116.63703">
        <time>2021-09-25T11:36:48Z</time>
      </trkpt>
      <trkpt lat="39.896062" lon="116.636758">
        <time>2021-09-25T11:36:53Z</time>
      </trkpt>
      <trkpt lat="39.896012" lon="116.636643">
        <time>2021-09-25T11:36:58Z</time>
      </trkpt>
      <trkpt lat="39.895915" lon="116.636521">
        <time>2021-09-25T11:37:03Z</time>
      </trkpt>
      <trkpt lat="39.895908" lon="116.636407">
        <time>2021-09-25T11:37:08Z</time>
      </trkpt>
      <trkpt lat="39.896064" lon="116.636326">
        <time>2021-09-25T11:37:13Z</time>
      </trkpt>
      <trkpt lat="39.896203" lon="116.636214">
        <time>2021-09-25T11:37:18Z</time>
      </trkpt>
      <trkpt lat="39.896329" lon="116.636152">
        <time>2021-09-25T11:37:23Z</time>
      </trkpt>
      <trkpt lat="39.896494" lon="116.636092">
        <time>2021-09-25T11:37:28Z</time>
      </trkpt>
      <trkpt lat="39.896616" lon="116.635976">
        <time>2021-09-25T11:37:33Z</time>
      </trkpt>
      <trkpt lat="39.896769" lon="116.635867">
        <time>2021-09-25T11:37:38Z</time>
      </trkpt>
      <trkpt lat="39.896921" lon="116.635822">
        <time>2021-09-25T11:37:43Z</time>
      </trkpt>
      <trkpt lat="39.897017" lon="116.635818">
        <time>2021-09-25T11:37:48Z</time>
      </trkpt>
      <trkpt lat="39.897092" lon="116.635795">
        <time>2021-09-25T11:37:53Z</time>
      </trkpt>
      <trkpt lat="39.897172" lon="116.63577">
        <time>2021-09-25T11:37:58Z</time>
      </trkpt>
      <trkpt lat="39.897248" lon="116.635733">
        <time>2021-09-25T11:38:03Z</time>
      </trkpt>
      <trkpt lat="39.8973" lon="116.63571">
        <time>2021-09-25T11:38:08Z</time>
      </trkpt>
      <trkpt lat="39.897345" lon="116.635682">
        <time>2021-09-25T11:38:13Z</time>
      </trkpt>
      <trkpt lat="39.897409" lon="116.63561">
        <time>2021-09-25T11:38:18Z</time>
      </trkpt>
      <trkpt lat="39.897473" lon="116.635537">
        <time>2021-09-25T11:38:23Z</time>
      </trkpt>
      <trkpt lat="39.897575" lon="116.635424">
        <time>2021-09-25T11:38:28Z</time>
      </trkpt>
      <trkpt lat="39.897577" lon="116.635406">
        <time>2021-09-25T11:38:33Z</time>
      </trkpt>
      <trkpt lat="39.897623" lon="116.635374">
        <time>2021-09-25T11:38:38Z</time>
      </trkpt>
      <trkpt lat="39.897705" lon="116.635365">
        <time>2021-09-25T11:38:43Z</time>
      </trkpt>
      <trkpt lat="39.897739" lon="116.635318">
        <time>2021-09-25T11:38:48Z</time>
      </trkpt>
      <trkpt lat="39.897824" lon="116.635287">
        <time>2021-09-25T11:38:53Z</time>
      </trkpt>
      <trkpt lat="39.897911" lon="116.63522">
        <time>2021-09-25T11:38:58Z</time>
      </trkpt>
      <trkpt lat="39.898004" lon="116.635164">
        <time>2021-09-25T11:39:03Z</time>
      </trkpt>
      <trkpt lat="39.898127" lon="116.635066">
        <time>2021-09-25T11:39:08Z</time>
      </trkpt>
      <trkpt lat="39.898239" lon="116.63496">
        <time>2021-09-25T11:39:13Z</time>
      </trkpt>
      <trkpt lat="39.898348" lon="116.634892">
        <time>2021-09-25T11:39:18Z</time>
      </trkpt>
      <trkpt lat="39.898429" lon="116.634824">
        <time>2021-09-25T11:39:23Z</time>
      </trkpt>
      <trkpt lat="39.898554" lon="116.634735">
        <time>2021-09-25T11:39:28Z</time>
      </trkpt>
      <trkpt lat="39.89868" lon="116.634656">
        <time>2021-09-25T11:39:33Z</time>
      </trkpt>
      <trkpt lat="39.898758" lon="116.634607">
        <time>2021-09-25T11:39:38Z</time>
      </trkpt>
      <trkpt lat="39.89878" lon="116.634573">
        <time>2021-09-25T11:39:43Z</time>
      </trkpt>
      <trkpt lat="39.898859" lon="116.634526">
        <time>2021-09-25T11:39:48Z</time>
      </trkpt>
      <trkpt lat="39.898928" lon="116.634476">
        <time>2021-09-25T11:39:53Z</time>
      </trkpt>
      <trkpt lat="39.899003" lon="116.63443">
        <time>2021-09-25T11:39:58Z</time>
      </trkpt>
      <trkpt lat="39.899041" lon="116.634405">
        <time>2021-09-25T11:40:03Z</time>
      </trkpt>
      <trkpt lat="39.899119" lon="116.634332">
        <time>2021-09-25T11:40:08Z</time>
      </trkpt>
      <trkpt lat="39.899194" lon="116.634302">
        <time>2021-09-25T11:40:13Z</time>
      </trkpt>
      <trkpt lat="39.899271" lon="116.63426">
        <time>2021-09-25T11:40:18Z</time>
      </trkpt>
      <trkpt lat="39.899371" lon="116.6342">
        <time>2021-09-25T11:40:23Z</time>
      </trkpt>
      <trkpt lat="39.899468" lon="116.63418">
        <time>2021-09-25T11:40:28Z</time>
      </trkpt>
      <trkpt lat="39.899602" lon="116.6341">
        <time>2021-09-25T11:40:33Z</time>
      </trkpt>
      <trkpt lat="39.899726" lon="116.633992">
        <time>2021-09-25T11:40:38Z</time>
      </trkpt>
      <trkpt lat="39.899856" lon="116.633912">
        <time>2021-09-25T11:40:43Z</time>
      </trkpt>
      <trkpt lat="39.899963" lon="116.633824">
        <time>2021-09-25T11:40:48Z</time>
      </trkpt>
      <trkpt lat="39.900078" lon="116.633768">
        <time>2021-09-25T11:40:53Z</time>
      </trkpt>
      <trkpt lat="39.900187" lon="116.633688">
        <time>2021-09-25T11:40:58Z</time>
      </trkpt>
      <trkpt lat="39.900279" lon="116.633652">
        <time>2021-09-25T11:41:03Z</time>
      </trkpt>
      <trkpt lat="39.90043" lon="116.633596">
        <time>2021-09-25T11:41:08Z</time>
      </trkpt>
      <trkpt lat="39.90052" lon="116.633539">
        <time>2021-09-25T11:41:13Z</time>
      </trkpt>
      <trkpt lat="39.900638" lon="116.633483">
        <time>2021-09-25T11:41:18Z</time>
      </trkpt>
      <trkpt lat="39.900677" lon="116.633438">
        <time>2021-09-25T11:41:23Z</time>
      </trkpt>
      <trkpt lat="39.900728" lon="116.633401">
        <time>2021-09-25T11:41:28Z</time>
      </trkpt>
      <trkpt lat="39.900754" lon="116.633331">
        <time>2021-09-25T11:41:33Z</time>
      </trkpt>
      <trkpt lat="39.900834" lon="116.633305">
        <time>2021-09-25T11:41:38Z</time>
      </trkpt>
      <trkpt lat="39.900894" lon="116.633267">
        <time>2021-09-25T11:41:43Z</time>
      </trkpt>
      <trkpt lat="39.900947" lon="116.633222">
        <time>2021-09-25T11:41:48Z</time>
      </trkpt>
      <trkpt lat="39.900989" lon="116.6332">
        <time>2021-09-25T11:41:53Z</time>
      </trkpt>
      <trkpt lat="39.900989" lon="116.6332">
        <time>2021-09-25T11:41:58Z</time>
      </trkpt>
      <trkpt lat="39.90102" lon="116.633186">
        <time>2021-09-25T11:42:03Z</time>
      </trkpt>
      <trkpt lat="39.900896" lon="116.6329">
        <time>2021-09-25T11:42:08Z</time>
      </trkpt>
      <trkpt lat="39.900825" lon="116.632808">
        <time>2021-09-25T11:42:13Z</time>
      </trkpt>
      <trkpt lat="39.900698" lon="116.632854">
        <time>2021-09-25T11:42:18Z</time>
      </trkpt>
      <trkpt lat="39.900568" lon="116.632958">
        <time>2021-09-25T11:42:23Z</time>
      </trkpt>
      <trkpt lat="39.900427" lon="116.633084">
        <time>2021-09-25T11:42:28Z</time>
      </trkpt>
      <trkpt lat="39.900283" lon="116.633211">
        <time>2021-09-25T11:42:33Z</time>
      </trkpt>
      <trkpt lat="39.900169" lon="116.633292">
        <time>2021-09-25T11:42:38Z</time>
      </trkpt>
      <trkpt lat="39.900051" lon="116.633385">
        <time>2021-09-25T11:42:43Z</time>
      </trkpt>
      <trkpt lat="39.899942" lon="116.633476">
        <time>2021-09-25T11:42:48Z</time>
      </trkpt>
      <trkpt lat="39.899772" lon="116.633551">
        <time>2021-09-25T11:42:53Z</time>
      </trkpt>
      <trkpt lat="39.899699" lon="116.633599">
        <time>2021-09-25T11:42:58Z</time>
      </trkpt>
      <trkpt lat="39.899507" lon="116.633694">
        <time>2021-09-25T11:43:03Z</time>
      </trkpt>
      <trkpt lat="39.899427" lon="116.633732">
        <time>2021-09-25T11:43:08Z</time>
      </trkpt>
      <trkpt lat="39.899277" lon="116.63383">
        <time>2021-09-25T11:43:13Z</time>
      </trkpt>
      <trkpt lat="39.899224" lon="116.633867">
        <time>2021-09-25T11:43:18Z</time>
      </trkpt>
      <trkpt lat="39.899181" lon="116.63389">
        <time>2021-09-25T11:43:23Z</time>
      </trkpt>
      <trkpt lat="39.899165" lon="116.633917">
        <time>2021-09-25T11:43:28Z</time>
      </trkpt>
      <trkpt lat="39.899085" lon="116.633962">
        <time>2021-09-25T11:43:33Z</time>
      </trkpt>
      <trkpt lat="39.899009" lon="116.633992">
        <time>2021-09-25T11:43:38Z</time>
      </trkpt>
      <trkpt lat="39.898909" lon="116.634052">
        <time>2021-09-25T11:43:43Z</time>
      </trkpt>
      <trkpt lat="39.898836" lon="116.634115">
        <time>2021-09-25T11:43:48Z</time>
      </trkpt>
      <trkpt lat="39.898744" lon="116.634191">
        <time>2021-09-25T11:43:53Z</time>
      </trkpt>
      <trkpt lat="39.898659" lon="116.634226">
        <time>2021-09-25T11:43:58Z</time>
      </trkpt>
      <trkpt lat="39.898523" lon="116.634331">
        <time>2021-09-25T11:44:03Z</time>
      </trkpt>
      <trkpt lat="39.898465" lon="116.634379">
        <time>2021-09-25T11:44:08Z</time>
      </trkpt>
      <trkpt lat="39.898348" lon="116.634473">
        <time>2021-09-25T11:44:13Z</time>
      </trkpt>
      <trkpt lat="39.898228" lon="116.63455">
        <time>2021-09-25T11:44:18Z</time>
      </trkpt>
      <trkpt lat="39.898121" lon="116.634615">
        <time>2021-09-25T11:44:23Z</time>
      </trkpt>
      <trkpt lat="39.898013" lon="116.634607">
        <time>2021-09-25T11:44:28Z</time>
      </trkpt>
      <trkpt lat="39.897961" lon="116.634464">
        <time>2021-09-25T11:44:33Z</time>
      </trkpt>
      <trkpt lat="39.897941" lon="116.634423">
        <time>2021-09-25T11:44:38Z</time>
      </trkpt>
      <trkpt lat="39.897904" lon="116.634349">
        <time>2021-09-25T11:44:43Z</time>
      </trkpt>
      <trkpt lat="39.897893" lon="116.634292">
        <time>2021-09-25T11:44:48Z</time>
      </trkpt>
      <trkpt lat="39.897856" lon="116.634237">
        <time>2021-09-25T11:44:53Z</time>
      </trkpt>
      <trkpt lat="39.897772" lon="116.634175">
        <time>2021-09-25T11:44:58Z</time>
      </trkpt>
      <trkpt lat="39.897711" lon="116.634107">
        <time>2021-09-25T11:45:03Z</time>
      </trkpt>
      <trkpt lat="39.897673" lon="116.634037">
        <time>2021-09-25T11:45:08Z</time>
      </trkpt>
      <trkpt lat="39.897659" lon="116.633963">
        <time>2021-09-25T11:45:13Z</time>
      </trkpt>
      <trkpt lat="39.897663" lon="116.633872">
        <time>2021-09-25T11:45:18Z</time>
      </trkpt>
      <trkpt lat="39.897623" lon="116.633772">
        <time>2021-09-25T11:45:23Z</time>
      </trkpt>
      <trkpt lat="39.897593" lon="116.633736">
        <time>2021-09-25T11:45:28Z</time>
      </trkpt>
      <trkpt lat="39.897537" lon="116.633773">
        <time>2021-09-25T11:45:33Z</time>
      </trkpt>
      <trkpt lat="39.897455" lon="116.633828">
        <time>2021-09-25T11:45:38Z</time>
      </trkpt>
      <trkpt lat="39.897365" lon="116.633772">
        <time>2021-09-25T11:45:43Z</time>
      </trkpt>
      <trkpt lat="39.897273" lon="116.633658">
        <time>2021-09-25T11:45:48Z</time>
      </trkpt>
      <trkpt lat="39.897199" lon="116.63354">
        <time>2021-09-25T11:45:53Z</time>
      </trkpt>
      <trkpt lat="39.897165" lon="116.633355">
        <time>2021-09-25T11:45:58Z</time>
      </trkpt>
      <trkpt lat="39.897112" lon="116.633293">
        <time>2021-09-25T11:46:03Z</time>
      </trkpt>
      <trkpt lat="39.897061" lon="116.63326">
        <time>2021-09-25T11:46:08Z</time>
      </trkpt>
      <trkpt lat="39.896984" lon="116.633145">
        <time>2021-09-25T11:46:13Z</time>
      </trkpt>
      <trkpt lat="39.896929" lon="116.632958">
        <time>2021-09-25T11:46:18Z</time>
      </trkpt>
      <trkpt lat="39.896777" lon="116.632985">
        <time>2021-09-25T11:46:23Z</time>
      </trkpt>
      <trkpt lat="39.896727" lon="116.633134">
        <time>2021-09-25T11:46:28Z</time>
      </trkpt>
      <trkpt lat="39.89679" lon="116.633295">
        <time>2021-09-25T11:46:33Z</time>
      </trkpt>
      <trkpt lat="39.896875" lon="116.633435">
        <time>2021-09-25T11:46:38Z</time>
      </trkpt>
      <trkpt lat="39.896981" lon="116.633517">
        <time>2021-09-25T11:46:43Z</time>
      </trkpt>
      <trkpt lat="39.897075" lon="116.633583">
        <time>2021-09-25T11:46:48Z</time>
      </trkpt>
      <trkpt lat="39.89711" lon="116.633687">
        <time>2021-09-25T11:46:53Z</time>
      </trkpt>
      <trkpt lat="39.897208" lon="116.63387">
        <time>2021-09-25T11:46:58Z</time>
      </trkpt>
      <trkpt lat="39.897221" lon="116.633887">
        <time>2021-09-25T11:47:03Z</time>
      </trkpt>
      <trkpt lat="39.897233" lon="116.63398">
        <time>2021-09-25T11:47:08Z</time>
      </trkpt>
      <trkpt lat="39.897324" lon="116.634077">
        <time>2021-09-25T11:47:13Z</time>
      </trkpt>
      <trkpt lat="39.897406" lon="116.634106">
        <time>2021-09-25T11:47:18Z</time>
      </trkpt>
      <trkpt lat="39.897442" lon="116.634092">
        <time>2021-09-25T11:47:23Z</time>
      </trkpt>
      <trkpt lat="39.897451" lon="116.634004">
        <time>2021-09-25T11:47:28Z</time>
      </trkpt>
      <trkpt lat="39.897451" lon="116.634004">
        <time>2021-09-25T11:48:20Z</time>
      </trkpt>
    </trkseg>
  </trk>
</gpx>