<?xml version="1.0" encoding="UTF-8"?>
<gpx xmlns="http://www.topografix.com/GPX/1/1" xmlns:gpxtpx="http://www.garmin.com/xmlschemas/TrackPointExtension/v1" xmlns:xsi="http://www.w3.org/2001/XMLSchema-instance" xsi:schemaLocation="http://www.topografix.com/GPX/1/1 http://www.topografix.com/GPX/1/1/gpx.xsd" version="1.1" creator="gpx.py -- https://github.com/tkrajina/gpxpy">
  <trk>
    <name>gpx from keep</name>
    <trkseg>
      <trkpt lat="39.897956" lon="116.634422">
        <time>2021-10-10T10:24:30Z</time>
      </trkpt>
      <trkpt lat="39.897956" lon="116.634422">
        <time>2021-10-10T10:24:35Z</time>
      </trkpt>
      <trkpt lat="39.897948" lon="116.634502">
        <time>2021-10-10T10:24:40Z</time>
      </trkpt>
      <trkpt lat="39.898001" lon="116.634692">
        <time>2021-10-10T10:24:45Z</time>
      </trkpt>
      <trkpt lat="39.898005" lon="116.634701">
        <time>2021-10-10T10:24:50Z</time>
      </trkpt>
      <trkpt lat="39.898036" lon="116.634681">
        <time>2021-10-10T10:24:55Z</time>
      </trkpt>
      <trkpt lat="39.89802" lon="116.634698">
        <time>2021-10-10T10:25:00Z</time>
      </trkpt>
      <trkpt lat="39.898016" lon="116.634711">
        <time>2021-10-10T10:25:05Z</time>
      </trkpt>
      <trkpt lat="39.898013" lon="116.634775">
        <time>2021-10-10T10:25:10Z</time>
      </trkpt>
      <trkpt lat="39.898007" lon="116.634799">
        <time>2021-10-10T10:25:15Z</time>
      </trkpt>
      <trkpt lat="39.898007" lon="116.634815">
        <time>2021-10-10T10:25:20Z</time>
      </trkpt>
      <trkpt lat="39.898112" lon="116.634936">
        <time>2021-10-10T10:25:25Z</time>
      </trkpt>
      <trkpt lat="39.898097" lon="116.635059">
        <time>2021-10-10T10:25:30Z</time>
      </trkpt>
      <trkpt lat="39.897947" lon="116.635142">
        <time>2021-10-10T10:25:35Z</time>
      </trkpt>
      <trkpt lat="39.897768" lon="116.635247">
        <time>2021-10-10T10:25:40Z</time>
      </trkpt>
      <trkpt lat="39.89763" lon="116.63533">
        <time>2021-10-10T10:25:45Z</time>
      </trkpt>
      <trkpt lat="39.897417" lon="116.635423">
        <time>2021-10-10T10:25:50Z</time>
      </trkpt>
      <trkpt lat="39.897377" lon="116.635462">
        <time>2021-10-10T10:25:55Z</time>
      </trkpt>
      <trkpt lat="39.897259" lon="116.635555">
        <time>2021-10-10T10:26:00Z</time>
      </trkpt>
      <trkpt lat="39.897135" lon="116.63562">
        <time>2021-10-10T10:26:05Z</time>
      </trkpt>
      <trkpt lat="39.897003" lon="116.635654">
        <time>2021-10-10T10:26:10Z</time>
      </trkpt>
      <trkpt lat="39.896886" lon="116.635689">
        <time>2021-10-10T10:26:15Z</time>
      </trkpt>
      <trkpt lat="39.896709" lon="116.635789">
        <time>2021-10-10T10:26:20Z</time>
      </trkpt>
      <trkpt lat="39.896674" lon="116.635828">
        <time>2021-10-10T10:26:25Z</time>
      </trkpt>
      <trkpt lat="39.896573" lon="116.635908">
        <time>2021-10-10T10:26:30Z</time>
      </trkpt>
      <trkpt lat="39.8965" lon="116.636001">
        <time>2021-10-10T10:26:35Z</time>
      </trkpt>
      <trkpt lat="39.896399" lon="116.636082">
        <time>2021-10-10T10:26:40Z</time>
      </trkpt>
      <trkpt lat="39.896321" lon="116.636121">
        <time>2021-10-10T10:26:45Z</time>
      </trkpt>
      <trkpt lat="39.896202" lon="116.636083">
        <time>2021-10-10T10:26:50Z</time>
      </trkpt>
      <trkpt lat="39.896116" lon="116.636221">
        <time>2021-10-10T10:26:55Z</time>
      </trkpt>
      <trkpt lat="39.896106" lon="116.636343">
        <time>2021-10-10T10:27:00Z</time>
      </trkpt>
      <trkpt lat="39.896077" lon="116.636436">
        <time>2021-10-10T10:27:05Z</time>
      </trkpt>
      <trkpt lat="39.896093" lon="116.636437">
        <time>2021-10-10T10:27:10Z</time>
      </trkpt>
      <trkpt lat="39.896148" lon="116.636453">
        <time>2021-10-10T10:27:15Z</time>
      </trkpt>
      <trkpt lat="39.896162" lon="116.636463">
        <time>2021-10-10T10:27:20Z</time>
      </trkpt>
      <trkpt lat="39.896131" lon="116.636458">
        <time>2021-10-10T10:27:25Z</time>
      </trkpt>
      <trkpt lat="39.896138" lon="116.636429">
        <time>2021-10-10T10:27:30Z</time>
      </trkpt>
      <trkpt lat="39.896201" lon="116.636438">
        <time>2021-10-10T10:27:35Z</time>
      </trkpt>
      <trkpt lat="39.896184" lon="116.636451">
        <time>2021-10-10T10:27:40Z</time>
      </trkpt>
      <trkpt lat="39.896151" lon="116.63646">
        <time>2021-10-10T10:27:45Z</time>
      </trkpt>
      <trkpt lat="39.896146" lon="116.636461">
        <time>2021-10-10T10:27:50Z</time>
      </trkpt>
      <trkpt lat="39.896133" lon="116.636491">
        <time>2021-10-10T10:27:55Z</time>
      </trkpt>
      <trkpt lat="39.89612" lon="116.636474">
        <time>2021-10-10T10:28:00Z</time>
      </trkpt>
      <trkpt lat="39.896099" lon="116.636459">
        <time>2021-10-10T10:28:05Z</time>
      </trkpt>
      <trkpt lat="39.896093" lon="116.636438">
        <time>2021-10-10T10:28:10Z</time>
      </trkpt>
      <trkpt lat="39.896116" lon="116.636468">
        <time>2021-10-10T10:28:15Z</time>
      </trkpt>
      <trkpt lat="39.896137" lon="116.636468">
        <time>2021-10-10T10:28:20Z</time>
      </trkpt>
      <trkpt lat="39.89616" lon="116.636481">
        <time>2021-10-10T10:28:25Z</time>
      </trkpt>
      <trkpt lat="39.896185" lon="116.636467">
        <time>2021-10-10T10:28:30Z</time>
      </trkpt>
      <trkpt lat="39.896192" lon="116.636445">
        <time>2021-10-10T10:28:35Z</time>
      </trkpt>
      <trkpt lat="39.896192" lon="116.636445">
        <time>2021-10-10T10:28:40Z</time>
      </trkpt>
      <trkpt lat="39.896167" lon="116.636466">
        <time>2021-10-10T10:28:45Z</time>
      </trkpt>
      <trkpt lat="39.896079" lon="116.636519">
        <time>2021-10-10T10:28:50Z</time>
      </trkpt>
      <trkpt lat="39.896072" lon="116.636661">
        <time>2021-10-10T10:28:55Z</time>
      </trkpt>
      <trkpt lat="39.896141" lon="116.636827">
        <time>2021-10-10T10:29:00Z</time>
      </trkpt>
      <trkpt lat="39.896149" lon="116.636989">
        <time>2021-10-10T10:29:05Z</time>
      </trkpt>
      <trkpt lat="39.896188" lon="116.637253">
        <time>2021-10-10T10:29:10Z</time>
      </trkpt>
      <trkpt lat="39.896181" lon="116.637339">
        <time>2021-10-10T10:29:15Z</time>
      </trkpt>
      <trkpt lat="39.896173" lon="116.637526">
        <time>2021-10-10T10:29:20Z</time>
      </trkpt>
      <trkpt lat="39.896179" lon="116.637721">
        <time>2021-10-10T10:29:25Z</time>
      </trkpt>
      <trkpt lat="39.896168" lon="116.637877">
        <time>2021-10-10T10:29:30Z</time>
      </trkpt>
      <trkpt lat="39.896171" lon="116.638048">
        <time>2021-10-10T10:29:35Z</time>
      </trkpt>
      <trkpt lat="39.89616" lon="116.638195">
        <time>2021-10-10T10:29:40Z</time>
      </trkpt>
      <trkpt lat="39.89617" lon="116.638364">
        <time>2021-10-10T10:29:45Z</time>
      </trkpt>
      <trkpt lat="39.896157" lon="116.638508">
        <time>2021-10-10T10:29:50Z</time>
      </trkpt>
      <trkpt lat="39.896186" lon="116.638639">
        <time>2021-10-10T10:29:55Z</time>
      </trkpt>
      <trkpt lat="39.896186" lon="116.638787">
        <time>2021-10-10T10:30:00Z</time>
      </trkpt>
      <trkpt lat="39.896191" lon="116.638935">
        <time>2021-10-10T10:30:05Z</time>
      </trkpt>
      <trkpt lat="39.89619" lon="116.639094">
        <time>2021-10-10T10:30:10Z</time>
      </trkpt>
      <trkpt lat="39.896238" lon="116.63921">
        <time>2021-10-10T10:30:15Z</time>
      </trkpt>
      <trkpt lat="39.896242" lon="116.639363">
        <time>2021-10-10T10:30:20Z</time>
      </trkpt>
      <trkpt lat="39.896233" lon="116.639511">
        <time>2021-10-10T10:30:25Z</time>
      </trkpt>
      <trkpt lat="39.896219" lon="116.639682">
        <time>2021-10-10T10:30:30Z</time>
      </trkpt>
      <trkpt lat="39.896225" lon="116.63979">
        <time>2021-10-10T10:30:35Z</time>
      </trkpt>
      <trkpt lat="39.896263" lon="116.639925">
        <time>2021-10-10T10:30:40Z</time>
      </trkpt>
      <trkpt lat="39.896265" lon="116.640097">
        <time>2021-10-10T10:30:45Z</time>
      </trkpt>
      <trkpt lat="39.896277" lon="116.640249">
        <time>2021-10-10T10:30:50Z</time>
      </trkpt>
      <trkpt lat="39.896282" lon="116.64042">
        <time>2021-10-10T10:30:55Z</time>
      </trkpt>
      <trkpt lat="39.896272" lon="116.640585">
        <time>2021-10-10T10:31:00Z</time>
      </trkpt>
      <trkpt lat="39.896242" lon="116.640785">
        <time>2021-10-10T10:31:05Z</time>
      </trkpt>
      <trkpt lat="39.896234" lon="116.641019">
        <time>2021-10-10T10:31:10Z</time>
      </trkpt>
      <trkpt lat="39.896219" lon="116.641199">
        <time>2021-10-10T10:31:15Z</time>
      </trkpt>
      <trkpt lat="39.896227" lon="116.641366">
        <time>2021-10-10T10:31:20Z</time>
      </trkpt>
      <trkpt lat="39.896232" lon="116.641539">
        <time>2021-10-10T10:31:25Z</time>
      </trkpt>
      <trkpt lat="39.896227" lon="116.641699">
        <time>2021-10-10T10:31:30Z</time>
      </trkpt>
      <trkpt lat="39.896212" lon="116.641863">
        <time>2021-10-10T10:31:35Z</time>
      </trkpt>
      <trkpt lat="39.896214" lon="116.642122">
        <time>2021-10-10T10:31:40Z</time>
      </trkpt>
      <trkpt lat="39.896208" lon="116.642225">
        <time>2021-10-10T10:31:45Z</time>
      </trkpt>
      <trkpt lat="39.896202" lon="116.642395">
        <time>2021-10-10T10:31:50Z</time>
      </trkpt>
      <trkpt lat="39.89618" lon="116.642553">
        <time>2021-10-10T10:31:55Z</time>
      </trkpt>
      <trkpt lat="39.896168" lon="116.642722">
        <time>2021-10-10T10:32:00Z</time>
      </trkpt>
      <trkpt lat="39.89616" lon="116.642978">
        <time>2021-10-10T10:32:05Z</time>
      </trkpt>
      <trkpt lat="39.89616" lon="116.643011">
        <time>2021-10-10T10:32:10Z</time>
      </trkpt>
      <trkpt lat="39.896148" lon="116.643144">
        <time>2021-10-10T10:32:15Z</time>
      </trkpt>
      <trkpt lat="39.896115" lon="116.643318">
        <time>2021-10-10T10:32:20Z</time>
      </trkpt>
      <trkpt lat="39.896136" lon="116.643485">
        <time>2021-10-10T10:32:25Z</time>
      </trkpt>
      <trkpt lat="39.896146" lon="116.643608">
        <time>2021-10-10T10:32:30Z</time>
      </trkpt>
      <trkpt lat="39.896129" lon="116.643743">
        <time>2021-10-10T10:32:35Z</time>
      </trkpt>
      <trkpt lat="39.896138" lon="116.64391">
        <time>2021-10-10T10:32:40Z</time>
      </trkpt>
      <trkpt lat="39.896145" lon="116.644065">
        <time>2021-10-10T10:32:45Z</time>
      </trkpt>
      <trkpt lat="39.896153" lon="116.644222">
        <time>2021-10-10T10:32:50Z</time>
      </trkpt>
      <trkpt lat="39.896184" lon="116.644345">
        <time>2021-10-10T10:32:55Z</time>
      </trkpt>
      <trkpt lat="39.896184" lon="116.644528">
        <time>2021-10-10T10:33:00Z</time>
      </trkpt>
      <trkpt lat="39.896194" lon="116.644645">
        <time>2021-10-10T10:33:05Z</time>
      </trkpt>
      <trkpt lat="39.896191" lon="116.6448">
        <time>2021-10-10T10:33:10Z</time>
      </trkpt>
      <trkpt lat="39.896186" lon="116.644945">
        <time>2021-10-10T10:33:15Z</time>
      </trkpt>
      <trkpt lat="39.896171" lon="116.645074">
        <time>2021-10-10T10:33:20Z</time>
      </trkpt>
      <trkpt lat="39.896168" lon="116.64528">
        <time>2021-10-10T10:33:25Z</time>
      </trkpt>
      <trkpt lat="39.896162" lon="116.645392">
        <time>2021-10-10T10:33:30Z</time>
      </trkpt>
      <trkpt lat="39.896158" lon="116.64555">
        <time>2021-10-10T10:33:35Z</time>
      </trkpt>
      <trkpt lat="39.896139" lon="116.64571">
        <time>2021-10-10T10:33:40Z</time>
      </trkpt>
      <trkpt lat="39.896103" lon="116.645853">
        <time>2021-10-10T10:33:45Z</time>
      </trkpt>
      <trkpt lat="39.896071" lon="116.64599">
        <time>2021-10-10T10:33:50Z</time>
      </trkpt>
      <trkpt lat="39.896041" lon="116.646125">
        <time>2021-10-10T10:33:55Z</time>
      </trkpt>
      <trkpt lat="39.896042" lon="116.646226">
        <time>2021-10-10T10:34:00Z</time>
      </trkpt>
      <trkpt lat="39.89603" lon="116.646372">
        <time>2021-10-10T10:34:05Z</time>
      </trkpt>
      <trkpt lat="39.89604" lon="116.646544">
        <time>2021-10-10T10:34:10Z</time>
      </trkpt>
      <trkpt lat="39.895999" lon="116.64667">
        <time>2021-10-10T10:34:15Z</time>
      </trkpt>
      <trkpt lat="39.895942" lon="116.646796">
        <time>2021-10-10T10:34:20Z</time>
      </trkpt>
      <trkpt lat="39.895785" lon="116.646829">
        <time>2021-10-10T10:34:25Z</time>
      </trkpt>
      <trkpt lat="39.895698" lon="116.646758">
        <time>2021-10-10T10:34:30Z</time>
      </trkpt>
      <trkpt lat="39.895602" lon="116.646698">
        <time>2021-10-10T10:34:35Z</time>
      </trkpt>
      <trkpt lat="39.895505" lon="116.646627">
        <time>2021-10-10T10:34:40Z</time>
      </trkpt>
      <trkpt lat="39.895416" lon="116.64656">
        <time>2021-10-10T10:34:45Z</time>
      </trkpt>
      <trkpt lat="39.895312" lon="116.646505">
        <time>2021-10-10T10:34:50Z</time>
      </trkpt>
      <trkpt lat="39.895223" lon="116.646448">
        <time>2021-10-10T10:34:55Z</time>
      </trkpt>
      <trkpt lat="39.895149" lon="116.646412">
        <time>2021-10-10T10:35:00Z</time>
      </trkpt>
      <trkpt lat="39.895071" lon="116.646368">
        <time>2021-10-10T10:35:05Z</time>
      </trkpt>
      <trkpt lat="39.894941" lon="116.646297">
        <time>2021-10-10T10:35:10Z</time>
      </trkpt>
      <trkpt lat="39.894851" lon="116.646269">
        <time>2021-10-10T10:35:15Z</time>
      </trkpt>
      <trkpt lat="39.894747" lon="116.646216">
        <time>2021-10-10T10:35:20Z</time>
      </trkpt>
      <trkpt lat="39.894655" lon="116.646159">
        <time>2021-10-10T10:35:25Z</time>
      </trkpt>
      <trkpt lat="39.894585" lon="116.646087">
        <time>2021-10-10T10:35:30Z</time>
      </trkpt>
      <trkpt lat="39.894533" lon="116.645975">
        <time>2021-10-10T10:35:35Z</time>
      </trkpt>
      <trkpt lat="39.894447" lon="116.645904">
        <time>2021-10-10T10:35:40Z</time>
      </trkpt>
      <trkpt lat="39.894348" lon="116.645906">
        <time>2021-10-10T10:35:45Z</time>
      </trkpt>
      <trkpt lat="39.894182" lon="116.645883">
        <time>2021-10-10T10:35:50Z</time>
      </trkpt>
      <trkpt lat="39.894104" lon="116.645888">
        <time>2021-10-10T10:35:55Z</time>
      </trkpt>
      <trkpt lat="39.893992" lon="116.645851">
        <time>2021-10-10T10:36:00Z</time>
      </trkpt>
      <trkpt lat="39.893901" lon="116.645871">
        <time>2021-10-10T10:36:05Z</time>
      </trkpt>
      <trkpt lat="39.893828" lon="116.645984">
        <time>2021-10-10T10:36:10Z</time>
      </trkpt>
      <trkpt lat="39.89377" lon="116.646114">
        <time>2021-10-10T10:36:15Z</time>
      </trkpt>
      <trkpt lat="39.893714" lon="116.646233">
        <time>2021-10-10T10:36:20Z</time>
      </trkpt>
      <trkpt lat="39.893655" lon="116.646341">
        <time>2021-10-10T10:36:25Z</time>
      </trkpt>
      <trkpt lat="39.893571" lon="116.646423">
        <time>2021-10-10T10:36:30Z</time>
      </trkpt>
      <trkpt lat="39.893464" lon="116.646352">
        <time>2021-10-10T10:36:35Z</time>
      </trkpt>
      <trkpt lat="39.893383" lon="116.646249">
        <time>2021-10-10T10:36:40Z</time>
      </trkpt>
      <trkpt lat="39.893301" lon="116.646202">
        <time>2021-10-10T10:36:45Z</time>
      </trkpt>
      <trkpt lat="39.893228" lon="116.646136">
        <time>2021-10-10T10:36:50Z</time>
      </trkpt>
      <trkpt lat="39.893137" lon="116.646057">
        <time>2021-10-10T10:36:55Z</time>
      </trkpt>
      <trkpt lat="39.893015" lon="116.646025">
        <time>2021-10-10T10:37:00Z</time>
      </trkpt>
      <trkpt lat="39.89291" lon="116.645961">
        <time>2021-10-10T10:37:05Z</time>
      </trkpt>
      <trkpt lat="39.89281" lon="116.645886">
        <time>2021-10-10T10:37:10Z</time>
      </trkpt>
      <trkpt lat="39.8927" lon="116.645841">
        <time>2021-10-10T10:37:15Z</time>
      </trkpt>
      <trkpt lat="39.892573" lon="116.64581">
        <time>2021-10-10T10:37:20Z</time>
      </trkpt>
      <trkpt lat="39.892485" lon="116.645759">
        <time>2021-10-10T10:37:25Z</time>
      </trkpt>
      <trkpt lat="39.892406" lon="116.645694">
        <time>2021-10-10T10:37:30Z</time>
      </trkpt>
      <trkpt lat="39.892302" lon="116.645638">
        <time>2021-10-10T10:37:35Z</time>
      </trkpt>
      <trkpt lat="39.892177" lon="116.645555">
        <time>2021-10-10T10:37:40Z</time>
      </trkpt>
      <trkpt lat="39.892066" lon="116.64552">
        <time>2021-10-10T10:37:45Z</time>
      </trkpt>
      <trkpt lat="39.89197" lon="116.645442">
        <time>2021-10-10T10:37:50Z</time>
      </trkpt>
      <trkpt lat="39.891849" lon="116.645406">
        <time>2021-10-10T10:37:55Z</time>
      </trkpt>
      <trkpt lat="39.891755" lon="116.645361">
        <time>2021-10-10T10:38:00Z</time>
      </trkpt>
      <trkpt lat="39.891668" lon="116.645293">
        <time>2021-10-10T10:38:05Z</time>
      </trkpt>
      <trkpt lat="39.891574" lon="116.645255">
        <time>2021-10-10T10:38:10Z</time>
      </trkpt>
      <trkpt lat="39.891558" lon="116.645334">
        <time>2021-10-10T10:38:15Z</time>
      </trkpt>
      <trkpt lat="39.891668" lon="116.645434">
        <time>2021-10-10T10:38:20Z</time>
      </trkpt>
      <trkpt lat="39.891786" lon="116.645514">
        <time>2021-10-10T10:38:25Z</time>
      </trkpt>
      <trkpt lat="39.891914" lon="116.645555">
        <time>2021-10-10T10:38:30Z</time>
      </trkpt>
      <trkpt lat="39.891983" lon="116.645615">
        <time>2021-10-10T10:38:35Z</time>
      </trkpt>
      <trkpt lat="39.892081" lon="116.645671">
        <time>2021-10-10T10:38:40Z</time>
      </trkpt>
      <trkpt lat="39.892234" lon="116.645715">
        <time>2021-10-10T10:38:45Z</time>
      </trkpt>
      <trkpt lat="39.892331" lon="116.645751">
        <time>2021-10-10T10:38:50Z</time>
      </trkpt>
      <trkpt lat="39.892415" lon="116.64581">
        <time>2021-10-10T10:38:55Z</time>
      </trkpt>
      <trkpt lat="39.892492" lon="116.645803">
        <time>2021-10-10T10:39:00Z</time>
      </trkpt>
      <trkpt lat="39.892613" lon="116.645845">
        <time>2021-10-10T10:39:05Z</time>
      </trkpt>
      <trkpt lat="39.892726" lon="116.645939">
        <time>2021-10-10T10:39:10Z</time>
      </trkpt>
      <trkpt lat="39.89284" lon="116.645987">
        <time>2021-10-10T10:39:15Z</time>
      </trkpt>
      <trkpt lat="39.89296" lon="116.645981">
        <time>2021-10-10T10:39:20Z</time>
      </trkpt>
      <trkpt lat="39.893072" lon="116.646057">
        <time>2021-10-10T10:39:25Z</time>
      </trkpt>
      <trkpt lat="39.893198" lon="116.646095">
        <time>2021-10-10T10:39:30Z</time>
      </trkpt>
      <trkpt lat="39.893328" lon="116.646154">
        <time>2021-10-10T10:39:35Z</time>
      </trkpt>
      <trkpt lat="39.893391" lon="116.646199">
        <time>2021-10-10T10:39:40Z</time>
      </trkpt>
      <trkpt lat="39.893467" lon="116.646281">
        <time>2021-10-10T10:39:45Z</time>
      </trkpt>
      <trkpt lat="39.893546" lon="116.646337">
        <time>2021-10-10T10:39:50Z</time>
      </trkpt>
      <trkpt lat="39.893679" lon="116.646368">
        <time>2021-10-10T10:39:55Z</time>
      </trkpt>
      <trkpt lat="39.893788" lon="116.646277">
        <time>2021-10-10T10:40:00Z</time>
      </trkpt>
      <trkpt lat="39.893844" lon="116.646138">
        <time>2021-10-10T10:40:05Z</time>
      </trkpt>
      <trkpt lat="39.893895" lon="116.646088">
        <time>2021-10-10T10:40:10Z</time>
      </trkpt>
      <trkpt lat="39.893963" lon="116.645993">
        <time>2021-10-10T10:40:15Z</time>
      </trkpt>
      <trkpt lat="39.894007" lon="116.645946">
        <time>2021-10-10T10:40:20Z</time>
      </trkpt>
      <trkpt lat="39.894105" lon="116.64597">
        <time>2021-10-10T10:40:25Z</time>
      </trkpt>
      <trkpt lat="39.894277" lon="116.646033">
        <time>2021-10-10T10:40:30Z</time>
      </trkpt>
      <trkpt lat="39.894308" lon="116.646047">
        <time>2021-10-10T10:40:35Z</time>
      </trkpt>
      <trkpt lat="39.894379" lon="116.64609">
        <time>2021-10-10T10:40:40Z</time>
      </trkpt>
      <trkpt lat="39.894469" lon="116.64616">
        <time>2021-10-10T10:40:45Z</time>
      </trkpt>
      <trkpt lat="39.894561" lon="116.64623">
        <time>2021-10-10T10:40:50Z</time>
      </trkpt>
      <trkpt lat="39.894652" lon="116.646263">
        <time>2021-10-10T10:40:55Z</time>
      </trkpt>
      <trkpt lat="39.8947" lon="116.646303">
        <time>2021-10-10T10:41:00Z</time>
      </trkpt>
      <trkpt lat="39.894741" lon="116.646402">
        <time>2021-10-10T10:41:05Z</time>
      </trkpt>
      <trkpt lat="39.894908" lon="116.646451">
        <time>2021-10-10T10:41:10Z</time>
      </trkpt>
      <trkpt lat="39.895126" lon="116.646464">
        <time>2021-10-10T10:41:15Z</time>
      </trkpt>
      <trkpt lat="39.895277" lon="116.646513">
        <time>2021-10-10T10:41:20Z</time>
      </trkpt>
      <trkpt lat="39.895463" lon="116.64661">
        <time>2021-10-10T10:41:25Z</time>
      </trkpt>
      <trkpt lat="39.895533" lon="116.646628">
        <time>2021-10-10T10:41:30Z</time>
      </trkpt>
      <trkpt lat="39.895666" lon="116.646668">
        <time>2021-10-10T10:41:35Z</time>
      </trkpt>
      <trkpt lat="39.895783" lon="116.646727">
        <time>2021-10-10T10:41:40Z</time>
      </trkpt>
      <trkpt lat="39.895894" lon="116.646782">
        <time>2021-10-10T10:41:45Z</time>
      </trkpt>
      <trkpt lat="39.895998" lon="116.646794">
        <time>2021-10-10T10:41:50Z</time>
      </trkpt>
      <trkpt lat="39.896106" lon="116.646711">
        <time>2021-10-10T10:41:55Z</time>
      </trkpt>
      <trkpt lat="39.896109" lon="116.646558">
        <time>2021-10-10T10:42:00Z</time>
      </trkpt>
      <trkpt lat="39.896092" lon="116.64635">
        <time>2021-10-10T10:42:05Z</time>
      </trkpt>
      <trkpt lat="39.896088" lon="116.646143">
        <time>2021-10-10T10:42:10Z</time>
      </trkpt>
      <trkpt lat="39.896095" lon="116.645954">
        <time>2021-10-10T10:42:15Z</time>
      </trkpt>
      <trkpt lat="39.896111" lon="116.645802">
        <time>2021-10-10T10:42:20Z</time>
      </trkpt>
      <trkpt lat="39.896129" lon="116.645696">
        <time>2021-10-10T10:42:25Z</time>
      </trkpt>
      <trkpt lat="39.896144" lon="116.645555">
        <time>2021-10-10T10:42:30Z</time>
      </trkpt>
      <trkpt lat="39.896146" lon="116.645439">
        <time>2021-10-10T10:42:35Z</time>
      </trkpt>
      <trkpt lat="39.896164" lon="116.645375">
        <time>2021-10-10T10:42:40Z</time>
      </trkpt>
      <trkpt lat="39.896207" lon="116.645232">
        <time>2021-10-10T10:42:45Z</time>
      </trkpt>
      <trkpt lat="39.896221" lon="116.64508">
        <time>2021-10-10T10:42:50Z</time>
      </trkpt>
      <trkpt lat="39.89622" lon="116.64491">
        <time>2021-10-10T10:42:55Z</time>
      </trkpt>
      <trkpt lat="39.896221" lon="116.64477">
        <time>2021-10-10T10:43:00Z</time>
      </trkpt>
      <trkpt lat="39.896226" lon="116.64462">
        <time>2021-10-10T10:43:05Z</time>
      </trkpt>
      <trkpt lat="39.896223" lon="116.644479">
        <time>2021-10-10T10:43:10Z</time>
      </trkpt>
      <trkpt lat="39.896212" lon="116.644348">
        <time>2021-10-10T10:43:15Z</time>
      </trkpt>
      <trkpt lat="39.896215" lon="116.64419">
        <time>2021-10-10T10:43:20Z</time>
      </trkpt>
      <trkpt lat="39.896211" lon="116.644063">
        <time>2021-10-10T10:43:25Z</time>
      </trkpt>
      <trkpt lat="39.896207" lon="116.64394">
        <time>2021-10-10T10:43:30Z</time>
      </trkpt>
      <trkpt lat="39.896206" lon="116.64382">
        <time>2021-10-10T10:43:35Z</time>
      </trkpt>
      <trkpt lat="39.896209" lon="116.643685">
        <time>2021-10-10T10:43:40Z</time>
      </trkpt>
      <trkpt lat="39.896225" lon="116.643583">
        <time>2021-10-10T10:43:45Z</time>
      </trkpt>
      <trkpt lat="39.896225" lon="116.64346">
        <time>2021-10-10T10:43:50Z</time>
      </trkpt>
      <trkpt lat="39.896198" lon="116.643314">
        <time>2021-10-10T10:43:55Z</time>
      </trkpt>
      <trkpt lat="39.896205" lon="116.643178">
        <time>2021-10-10T10:44:00Z</time>
      </trkpt>
      <trkpt lat="39.896222" lon="116.64303">
        <time>2021-10-10T10:44:05Z</time>
      </trkpt>
      <trkpt lat="39.896246" lon="116.642888">
        <time>2021-10-10T10:44:10Z</time>
      </trkpt>
      <trkpt lat="39.896255" lon="116.642771">
        <time>2021-10-10T10:44:15Z</time>
      </trkpt>
      <trkpt lat="39.896243" lon="116.642619">
        <time>2021-10-10T10:44:20Z</time>
      </trkpt>
      <trkpt lat="39.89625" lon="116.642469">
        <time>2021-10-10T10:44:25Z</time>
      </trkpt>
      <trkpt lat="39.896235" lon="116.642281">
        <time>2021-10-10T10:44:30Z</time>
      </trkpt>
      <trkpt lat="39.896239" lon="116.642102">
        <time>2021-10-10T10:44:35Z</time>
      </trkpt>
      <trkpt lat="39.896253" lon="116.641952">
        <time>2021-10-10T10:44:40Z</time>
      </trkpt>
      <trkpt lat="39.896252" lon="116.641776">
        <time>2021-10-10T10:44:45Z</time>
      </trkpt>
      <trkpt lat="39.896264" lon="116.64161">
        <time>2021-10-10T10:44:50Z</time>
      </trkpt>
      <trkpt lat="39.896273" lon="116.641466">
        <time>2021-10-10T10:44:55Z</time>
      </trkpt>
      <trkpt lat="39.89628" lon="116.641299">
        <time>2021-10-10T10:45:00Z</time>
      </trkpt>
      <trkpt lat="39.896269" lon="116.641163">
        <time>2021-10-10T10:45:05Z</time>
      </trkpt>
      <trkpt lat="39.896265" lon="116.641008">
        <time>2021-10-10T10:45:10Z</time>
      </trkpt>
      <trkpt lat="39.89627" lon="116.64086">
        <time>2021-10-10T10:45:15Z</time>
      </trkpt>
      <trkpt lat="39.896282" lon="116.640705">
        <time>2021-10-10T10:45:20Z</time>
      </trkpt>
      <trkpt lat="39.896279" lon="116.640573">
        <time>2021-10-10T10:45:25Z</time>
      </trkpt>
      <trkpt lat="39.896276" lon="116.640404">
        <time>2021-10-10T10:45:30Z</time>
      </trkpt>
      <trkpt lat="39.89632" lon="116.640285">
        <time>2021-10-10T10:45:35Z</time>
      </trkpt>
      <trkpt lat="39.896381" lon="116.640358">
        <time>2021-10-10T10:45:40Z</time>
      </trkpt>
      <trkpt lat="39.896405" lon="116.640376">
        <time>2021-10-10T10:45:45Z</time>
      </trkpt>
      <trkpt lat="39.896603" lon="116.640467">
        <time>2021-10-10T10:45:50Z</time>
      </trkpt>
      <trkpt lat="39.896775" lon="116.640547">
        <time>2021-10-10T10:45:55Z</time>
      </trkpt>
      <trkpt lat="39.896889" lon="116.640582">
        <time>2021-10-10T10:46:00Z</time>
      </trkpt>
      <trkpt lat="39.897001" lon="116.640656">
        <time>2021-10-10T10:46:05Z</time>
      </trkpt>
      <trkpt lat="39.897043" lon="116.640678">
        <time>2021-10-10T10:46:10Z</time>
      </trkpt>
      <trkpt lat="39.89709" lon="116.640743">
        <time>2021-10-10T10:46:15Z</time>
      </trkpt>
      <trkpt lat="39.897212" lon="116.640762">
        <time>2021-10-10T10:46:20Z</time>
      </trkpt>
      <trkpt lat="39.897386" lon="116.64082">
        <time>2021-10-10T10:46:25Z</time>
      </trkpt>
      <trkpt lat="39.897495" lon="116.640895">
        <time>2021-10-10T10:46:30Z</time>
      </trkpt>
      <trkpt lat="39.897656" lon="116.640978">
        <time>2021-10-10T10:46:35Z</time>
      </trkpt>
      <trkpt lat="39.897813" lon="116.641062">
        <time>2021-10-10T10:46:40Z</time>
      </trkpt>
      <trkpt lat="39.897894" lon="116.64108">
        <time>2021-10-10T10:46:45Z</time>
      </trkpt>
      <trkpt lat="39.898031" lon="116.64114">
        <time>2021-10-10T10:46:50Z</time>
      </trkpt>
      <trkpt lat="39.898097" lon="116.641197">
        <time>2021-10-10T10:46:55Z</time>
      </trkpt>
      <trkpt lat="39.898212" lon="116.641281">
        <time>2021-10-10T10:47:00Z</time>
      </trkpt>
      <trkpt lat="39.898326" lon="116.641385">
        <time>2021-10-10T10:47:05Z</time>
      </trkpt>
      <trkpt lat="39.898408" lon="116.641522">
        <time>2021-10-10T10:47:10Z</time>
      </trkpt>
      <trkpt lat="39.898401" lon="116.641664">
        <time>2021-10-10T10:47:15Z</time>
      </trkpt>
      <trkpt lat="39.898374" lon="116.641821">
        <time>2021-10-10T10:47:20Z</time>
      </trkpt>
      <trkpt lat="39.898326" lon="116.641948">
        <time>2021-10-10T10:47:25Z</time>
      </trkpt>
      <trkpt lat="39.898328" lon="116.642086">
        <time>2021-10-10T10:47:30Z</time>
      </trkpt>
      <trkpt lat="39.898314" lon="116.642222">
        <time>2021-10-10T10:47:35Z</time>
      </trkpt>
      <trkpt lat="39.898313" lon="116.642363">
        <time>2021-10-10T10:47:40Z</time>
      </trkpt>
      <trkpt lat="39.898304" lon="116.642484">
        <time>2021-10-10T10:47:45Z</time>
      </trkpt>
      <trkpt lat="39.898302" lon="116.642773">
        <time>2021-10-10T10:47:50Z</time>
      </trkpt>
      <trkpt lat="39.898306" lon="116.64284">
        <time>2021-10-10T10:47:55Z</time>
      </trkpt>
      <trkpt lat="39.898319" lon="116.64302">
        <time>2021-10-10T10:48:00Z</time>
      </trkpt>
      <trkpt lat="39.898303" lon="116.643193">
        <time>2021-10-10T10:48:05Z</time>
      </trkpt>
      <trkpt lat="39.898294" lon="116.643297">
        <time>2021-10-10T10:48:10Z</time>
      </trkpt>
      <trkpt lat="39.898274" lon="116.643362">
        <time>2021-10-10T10:48:15Z</time>
      </trkpt>
      <trkpt lat="39.89829" lon="116.643481">
        <time>2021-10-10T10:48:20Z</time>
      </trkpt>
      <trkpt lat="39.898311" lon="116.643635">
        <time>2021-10-10T10:48:25Z</time>
      </trkpt>
      <trkpt lat="39.898298" lon="116.643826">
        <time>2021-10-10T10:48:30Z</time>
      </trkpt>
      <trkpt lat="39.89831" lon="116.644005">
        <time>2021-10-10T10:48:35Z</time>
      </trkpt>
      <trkpt lat="39.898327" lon="116.644062">
        <time>2021-10-10T10:48:40Z</time>
      </trkpt>
      <trkpt lat="39.898332" lon="116.644158">
        <time>2021-10-10T10:48:45Z</time>
      </trkpt>
      <trkpt lat="39.898327" lon="116.644339">
        <time>2021-10-10T10:48:50Z</time>
      </trkpt>
      <trkpt lat="39.898341" lon="116.644506">
        <time>2021-10-10T10:48:55Z</time>
      </trkpt>
      <trkpt lat="39.898367" lon="116.644705">
        <time>2021-10-10T10:49:00Z</time>
      </trkpt>
      <trkpt lat="39.8984" lon="116.64489">
        <time>2021-10-10T10:49:05Z</time>
      </trkpt>
      <trkpt lat="39.898452" lon="116.645072">
        <time>2021-10-10T10:49:10Z</time>
      </trkpt>
      <trkpt lat="39.898469" lon="116.645115">
        <time>2021-10-10T10:49:15Z</time>
      </trkpt>
      <trkpt lat="39.898484" lon="116.64517">
        <time>2021-10-10T10:49:20Z</time>
      </trkpt>
      <trkpt lat="39.898506" lon="116.645206">
        <time>2021-10-10T10:49:25Z</time>
      </trkpt>
      <trkpt lat="39.898505" lon="116.645303">
        <time>2021-10-10T10:49:30Z</time>
      </trkpt>
      <trkpt lat="39.898502" lon="116.645379">
        <time>2021-10-10T10:49:35Z</time>
      </trkpt>
      <trkpt lat="39.89851" lon="116.64548">
        <time>2021-10-10T10:49:40Z</time>
      </trkpt>
      <trkpt lat="39.898568" lon="116.645605">
        <time>2021-10-10T10:49:45Z</time>
      </trkpt>
      <trkpt lat="39.898601" lon="116.645776">
        <time>2021-10-10T10:49:50Z</time>
      </trkpt>
      <trkpt lat="39.898628" lon="116.645967">
        <time>2021-10-10T10:49:55Z</time>
      </trkpt>
      <trkpt lat="39.898685" lon="116.64611">
        <time>2021-10-10T10:50:00Z</time>
      </trkpt>
      <trkpt lat="39.898727" lon="116.646163">
        <time>2021-10-10T10:50:05Z</time>
      </trkpt>
      <trkpt lat="39.89877" lon="116.646315">
        <time>2021-10-10T10:50:10Z</time>
      </trkpt>
      <trkpt lat="39.898808" lon="116.6464">
        <time>2021-10-10T10:50:15Z</time>
      </trkpt>
      <trkpt lat="39.898859" lon="116.646416">
        <time>2021-10-10T10:50:20Z</time>
      </trkpt>
      <trkpt lat="39.898931" lon="116.646512">
        <time>2021-10-10T10:50:25Z</time>
      </trkpt>
      <trkpt lat="39.89893" lon="116.646593">
        <time>2021-10-10T10:50:30Z</time>
      </trkpt>
      <trkpt lat="39.898946" lon="116.646773">
        <time>2021-10-10T10:50:35Z</time>
      </trkpt>
      <trkpt lat="39.89892" lon="116.646941">
        <time>2021-10-10T10:50:40Z</time>
      </trkpt>
      <trkpt lat="39.898871" lon="116.647245">
        <time>2021-10-10T10:50:45Z</time>
      </trkpt>
      <trkpt lat="39.899075" lon="116.647722">
        <time>2021-10-10T10:50:50Z</time>
      </trkpt>
      <trkpt lat="39.899111" lon="116.647799">
        <time>2021-10-10T10:50:55Z</time>
      </trkpt>
      <trkpt lat="39.899089" lon="116.647889">
        <time>2021-10-10T10:51:00Z</time>
      </trkpt>
      <trkpt lat="39.899135" lon="116.647984">
        <time>2021-10-10T10:51:05Z</time>
      </trkpt>
      <trkpt lat="39.899083" lon="116.648192">
        <time>2021-10-10T10:51:10Z</time>
      </trkpt>
      <trkpt lat="39.899064" lon="116.648376">
        <time>2021-10-10T10:51:15Z</time>
      </trkpt>
      <trkpt lat="39.899065" lon="116.648505">
        <time>2021-10-10T10:51:20Z</time>
      </trkpt>
      <trkpt lat="39.899051" lon="116.648611">
        <time>2021-10-10T10:51:25Z</time>
      </trkpt>
      <trkpt lat="39.89904" lon="116.648681">
        <time>2021-10-10T10:51:30Z</time>
      </trkpt>
      <trkpt lat="39.899036" lon="116.648767">
        <time>2021-10-10T10:51:35Z</time>
      </trkpt>
      <trkpt lat="39.89902" lon="116.648834">
        <time>2021-10-10T10:51:40Z</time>
      </trkpt>
      <trkpt lat="39.899004" lon="116.648946">
        <time>2021-10-10T10:51:45Z</time>
      </trkpt>
      <trkpt lat="39.89898" lon="116.648991">
        <time>2021-10-10T10:51:50Z</time>
      </trkpt>
      <trkpt lat="39.898969" lon="116.649123">
        <time>2021-10-10T10:51:55Z</time>
      </trkpt>
      <trkpt lat="39.898976" lon="116.649311">
        <time>2021-10-10T10:52:00Z</time>
      </trkpt>
      <trkpt lat="39.898969" lon="116.649453">
        <time>2021-10-10T10:52:05Z</time>
      </trkpt>
      <trkpt lat="39.898961" lon="116.649626">
        <time>2021-10-10T10:52:10Z</time>
      </trkpt>
      <trkpt lat="39.898959" lon="116.649826">
        <time>2021-10-10T10:52:15Z</time>
      </trkpt>
      <trkpt lat="39.898999" lon="116.650012">
        <time>2021-10-10T10:52:20Z</time>
      </trkpt>
      <trkpt lat="39.899" lon="116.650174">
        <time>2021-10-10T10:52:25Z</time>
      </trkpt>
      <trkpt lat="39.898998" lon="116.650329">
        <time>2021-10-10T10:52:30Z</time>
      </trkpt>
      <trkpt lat="39.899014" lon="116.650464">
        <time>2021-10-10T10:52:35Z</time>
      </trkpt>
      <trkpt lat="39.899024" lon="116.650622">
        <time>2021-10-10T10:52:40Z</time>
      </trkpt>
      <trkpt lat="39.899055" lon="116.650774">
        <time>2021-10-10T10:52:45Z</time>
      </trkpt>
      <trkpt lat="39.899072" lon="116.650908">
        <time>2021-10-10T10:52:50Z</time>
      </trkpt>
      <trkpt lat="39.899065" lon="116.651013">
        <time>2021-10-10T10:52:55Z</time>
      </trkpt>
      <trkpt lat="39.899045" lon="116.651116">
        <time>2021-10-10T10:53:00Z</time>
      </trkpt>
      <trkpt lat="39.898959" lon="116.651323">
        <time>2021-10-10T10:53:05Z</time>
      </trkpt>
      <trkpt lat="39.898932" lon="116.651466">
        <time>2021-10-10T10:53:10Z</time>
      </trkpt>
      <trkpt lat="39.898937" lon="116.651455">
        <time>2021-10-10T10:53:15Z</time>
      </trkpt>
      <trkpt lat="39.898939" lon="116.651361">
        <time>2021-10-10T10:53:20Z</time>
      </trkpt>
      <trkpt lat="39.898989" lon="116.651171">
        <time>2021-10-10T10:53:25Z</time>
      </trkpt>
      <trkpt lat="39.899001" lon="116.650923">
        <time>2021-10-10T10:53:30Z</time>
      </trkpt>
      <trkpt lat="39.899026" lon="116.650712">
        <time>2021-10-10T10:53:35Z</time>
      </trkpt>
      <trkpt lat="39.899112" lon="116.650574">
        <time>2021-10-10T10:53:40Z</time>
      </trkpt>
      <trkpt lat="39.899102" lon="116.650457">
        <time>2021-10-10T10:53:45Z</time>
      </trkpt>
      <trkpt lat="39.899056" lon="116.650318">
        <time>2021-10-10T10:53:50Z</time>
      </trkpt>
      <trkpt lat="39.899051" lon="116.650175">
        <time>2021-10-10T10:53:55Z</time>
      </trkpt>
      <trkpt lat="39.899082" lon="116.649999">
        <time>2021-10-10T10:54:00Z</time>
      </trkpt>
      <trkpt lat="39.899031" lon="116.649902">
        <time>2021-10-10T10:54:05Z</time>
      </trkpt>
      <trkpt lat="39.899034" lon="116.649737">
        <time>2021-10-10T10:54:10Z</time>
      </trkpt>
      <trkpt lat="39.899049" lon="116.649587">
        <time>2021-10-10T10:54:15Z</time>
      </trkpt>
      <trkpt lat="39.899064" lon="116.649483">
        <time>2021-10-10T10:54:20Z</time>
      </trkpt>
      <trkpt lat="39.899054" lon="116.649325">
        <time>2021-10-10T10:54:25Z</time>
      </trkpt>
      <trkpt lat="39.899035" lon="116.649204">
        <time>2021-10-10T10:54:30Z</time>
      </trkpt>
      <trkpt lat="39.899028" lon="116.649033">
        <time>2021-10-10T10:54:35Z</time>
      </trkpt>
      <trkpt lat="39.899021" lon="116.648884">
        <time>2021-10-10T10:54:40Z</time>
      </trkpt>
      <trkpt lat="39.899049" lon="116.648693">
        <time>2021-10-10T10:54:45Z</time>
      </trkpt>
      <trkpt lat="39.899041" lon="116.648489">
        <time>2021-10-10T10:54:50Z</time>
      </trkpt>
      <trkpt lat="39.899014" lon="116.648348">
        <time>2021-10-10T10:54:55Z</time>
      </trkpt>
      <trkpt lat="39.899023" lon="116.648148">
        <time>2021-10-10T10:55:00Z</time>
      </trkpt>
      <trkpt lat="39.899023" lon="116.647992">
        <time>2021-10-10T10:55:05Z</time>
      </trkpt>
      <trkpt lat="39.898977" lon="116.64782">
        <time>2021-10-10T10:55:10Z</time>
      </trkpt>
      <trkpt lat="39.898995" lon="116.64764">
        <time>2021-10-10T10:55:15Z</time>
      </trkpt>
      <trkpt lat="39.899007" lon="116.647486">
        <time>2021-10-10T10:55:20Z</time>
      </trkpt>
      <trkpt lat="39.89901" lon="116.647319">
        <time>2021-10-10T10:55:25Z</time>
      </trkpt>
      <trkpt lat="39.899001" lon="116.64719">
        <time>2021-10-10T10:55:30Z</time>
      </trkpt>
      <trkpt lat="39.898993" lon="116.647127">
        <time>2021-10-10T10:55:35Z</time>
      </trkpt>
      <trkpt lat="39.898946" lon="116.647071">
        <time>2021-10-10T10:55:40Z</time>
      </trkpt>
      <trkpt lat="39.898922" lon="116.647029">
        <time>2021-10-10T10:55:45Z</time>
      </trkpt>
      <trkpt lat="39.898894" lon="116.646916">
        <time>2021-10-10T10:55:50Z</time>
      </trkpt>
      <trkpt lat="39.898866" lon="116.64682">
        <time>2021-10-10T10:55:55Z</time>
      </trkpt>
      <trkpt lat="39.898816" lon="116.646627">
        <time>2021-10-10T10:56:00Z</time>
      </trkpt>
      <trkpt lat="39.898807" lon="116.6466">
        <time>2021-10-10T10:56:05Z</time>
      </trkpt>
      <trkpt lat="39.898789" lon="116.646452">
        <time>2021-10-10T10:56:10Z</time>
      </trkpt>
      <trkpt lat="39.898778" lon="116.646336">
        <time>2021-10-10T10:56:15Z</time>
      </trkpt>
      <trkpt lat="39.898779" lon="116.646245">
        <time>2021-10-10T10:56:20Z</time>
      </trkpt>
      <trkpt lat="39.898723" lon="116.646092">
        <time>2021-10-10T10:56:25Z</time>
      </trkpt>
      <trkpt lat="39.898671" lon="116.645954">
        <time>2021-10-10T10:56:30Z</time>
      </trkpt>
      <trkpt lat="39.898596" lon="116.645802">
        <time>2021-10-10T10:56:35Z</time>
      </trkpt>
      <trkpt lat="39.898527" lon="116.645667">
        <time>2021-10-10T10:56:40Z</time>
      </trkpt>
      <trkpt lat="39.898513" lon="116.645572">
        <time>2021-10-10T10:56:45Z</time>
      </trkpt>
      <trkpt lat="39.898532" lon="116.64543">
        <time>2021-10-10T10:56:50Z</time>
      </trkpt>
      <trkpt lat="39.898515" lon="116.645252">
        <time>2021-10-10T10:56:55Z</time>
      </trkpt>
      <trkpt lat="39.898455" lon="116.645096">
        <time>2021-10-10T10:57:00Z</time>
      </trkpt>
      <trkpt lat="39.89842" lon="116.644943">
        <time>2021-10-10T10:57:05Z</time>
      </trkpt>
      <trkpt lat="39.89843" lon="116.644769">
        <time>2021-10-10T10:57:10Z</time>
      </trkpt>
      <trkpt lat="39.898415" lon="116.644622">
        <time>2021-10-10T10:57:15Z</time>
      </trkpt>
      <trkpt lat="39.898363" lon="116.644479">
        <time>2021-10-10T10:57:20Z</time>
      </trkpt>
      <trkpt lat="39.898307" lon="116.644341">
        <time>2021-10-10T10:57:25Z</time>
      </trkpt>
      <trkpt lat="39.898275" lon="116.644189">
        <time>2021-10-10T10:57:30Z</time>
      </trkpt>
      <trkpt lat="39.898299" lon="116.644059">
        <time>2021-10-10T10:57:35Z</time>
      </trkpt>
      <trkpt lat="39.898327" lon="116.643993">
        <time>2021-10-10T10:57:40Z</time>
      </trkpt>
      <trkpt lat="39.898313" lon="116.643943">
        <time>2021-10-10T10:57:45Z</time>
      </trkpt>
      <trkpt lat="39.898282" lon="116.643798">
        <time>2021-10-10T10:57:50Z</time>
      </trkpt>
      <trkpt lat="39.898262" lon="116.6436">
        <time>2021-10-10T10:57:55Z</time>
      </trkpt>
      <trkpt lat="39.898283" lon="116.643461">
        <time>2021-10-10T10:58:00Z</time>
      </trkpt>
      <trkpt lat="39.898311" lon="116.643337">
        <time>2021-10-10T10:58:05Z</time>
      </trkpt>
      <trkpt lat="39.898328" lon="116.643212">
        <time>2021-10-10T10:58:10Z</time>
      </trkpt>
      <trkpt lat="39.898399" lon="116.643042">
        <time>2021-10-10T10:58:15Z</time>
      </trkpt>
      <trkpt lat="39.898393" lon="116.642866">
        <time>2021-10-10T10:58:20Z</time>
      </trkpt>
      <trkpt lat="39.898386" lon="116.642735">
        <time>2021-10-10T10:58:25Z</time>
      </trkpt>
      <trkpt lat="39.898365" lon="116.642597">
        <time>2021-10-10T10:58:30Z</time>
      </trkpt>
      <trkpt lat="39.898357" lon="116.642459">
        <time>2021-10-10T10:58:35Z</time>
      </trkpt>
      <trkpt lat="39.898365" lon="116.642378">
        <time>2021-10-10T10:58:40Z</time>
      </trkpt>
      <trkpt lat="39.898352" lon="116.642326">
        <time>2021-10-10T10:58:45Z</time>
      </trkpt>
      <trkpt lat="39.89835" lon="116.642239">
        <time>2021-10-10T10:58:50Z</time>
      </trkpt>
      <trkpt lat="39.898299" lon="116.642123">
        <time>2021-10-10T10:58:55Z</time>
      </trkpt>
      <trkpt lat="39.898312" lon="116.642026">
        <time>2021-10-10T10:59:00Z</time>
      </trkpt>
      <trkpt lat="39.89836" lon="116.641886">
        <time>2021-10-10T10:59:05Z</time>
      </trkpt>
      <trkpt lat="39.898401" lon="116.641785">
        <time>2021-10-10T10:59:10Z</time>
      </trkpt>
      <trkpt lat="39.898426" lon="116.641724">
        <time>2021-10-10T10:59:15Z</time>
      </trkpt>
      <trkpt lat="39.898429" lon="116.64162">
        <time>2021-10-10T10:59:20Z</time>
      </trkpt>
      <trkpt lat="39.898436" lon="116.641483">
        <time>2021-10-10T10:59:25Z</time>
      </trkpt>
      <trkpt lat="39.898443" lon="116.641366">
        <time>2021-10-10T10:59:30Z</time>
      </trkpt>
      <trkpt lat="39.898409" lon="116.641255">
        <time>2021-10-10T10:59:35Z</time>
      </trkpt>
      <trkpt lat="39.898337" lon="116.641228">
        <time>2021-10-10T10:59:40Z</time>
      </trkpt>
      <trkpt lat="39.898256" lon="116.641178">
        <time>2021-10-10T10:59:45Z</time>
      </trkpt>
      <trkpt lat="39.898153" lon="116.641157">
        <time>2021-10-10T10:59:50Z</time>
      </trkpt>
      <trkpt lat="39.898077" lon="116.641156">
        <time>2021-10-10T10:59:55Z</time>
      </trkpt>
      <trkpt lat="39.897979" lon="116.641103">
        <time>2021-10-10T11:00:00Z</time>
      </trkpt>
      <trkpt lat="39.897896" lon="116.641044">
        <time>2021-10-10T11:00:05Z</time>
      </trkpt>
      <trkpt lat="39.897827" lon="116.64099">
        <time>2021-10-10T11:00:10Z</time>
      </trkpt>
      <trkpt lat="39.897719" lon="116.640941">
        <time>2021-10-10T11:00:15Z</time>
      </trkpt>
      <trkpt lat="39.897629" lon="116.640944">
        <time>2021-10-10T11:00:20Z</time>
      </trkpt>
      <trkpt lat="39.89752" lon="116.6409">
        <time>2021-10-10T11:00:25Z</time>
      </trkpt>
      <trkpt lat="39.897328" lon="116.640827">
        <time>2021-10-10T11:00:30Z</time>
      </trkpt>
      <trkpt lat="39.897176" lon="116.640748">
        <time>2021-10-10T11:00:35Z</time>
      </trkpt>
      <trkpt lat="39.897079" lon="116.640683">
        <time>2021-10-10T11:00:40Z</time>
      </trkpt>
      <trkpt lat="39.897066" lon="116.640659">
        <time>2021-10-10T11:00:45Z</time>
      </trkpt>
      <trkpt lat="39.89694" lon="116.640601">
        <time>2021-10-10T11:00:50Z</time>
      </trkpt>
      <trkpt lat="39.896811" lon="116.640532">
        <time>2021-10-10T11:00:55Z</time>
      </trkpt>
      <trkpt lat="39.896688" lon="116.640468">
        <time>2021-10-10T11:01:00Z</time>
      </trkpt>
      <trkpt lat="39.896548" lon="116.640393">
        <time>2021-10-10T11:01:05Z</time>
      </trkpt>
      <trkpt lat="39.896463" lon="116.640372">
        <time>2021-10-10T11:01:10Z</time>
      </trkpt>
      <trkpt lat="39.896405" lon="116.640332">
        <time>2021-10-10T11:01:15Z</time>
      </trkpt>
      <trkpt lat="39.896367" lon="116.64015">
        <time>2021-10-10T11:01:20Z</time>
      </trkpt>
      <trkpt lat="39.896337" lon="116.639972">
        <time>2021-10-10T11:01:25Z</time>
      </trkpt>
      <trkpt lat="39.896299" lon="116.63978">
        <time>2021-10-10T11:01:30Z</time>
      </trkpt>
      <trkpt lat="39.896307" lon="116.639586">
        <time>2021-10-10T11:01:35Z</time>
      </trkpt>
      <trkpt lat="39.896312" lon="116.639421">
        <time>2021-10-10T11:01:40Z</time>
      </trkpt>
      <trkpt lat="39.896302" lon="116.639302">
        <time>2021-10-10T11:01:45Z</time>
      </trkpt>
      <trkpt lat="39.896295" lon="116.639201">
        <time>2021-10-10T11:01:50Z</time>
      </trkpt>
      <trkpt lat="39.896287" lon="116.639089">
        <time>2021-10-10T11:01:55Z</time>
      </trkpt>
      <trkpt lat="39.896294" lon="116.63899">
        <time>2021-10-10T11:02:00Z</time>
      </trkpt>
      <trkpt lat="39.896281" lon="116.638897">
        <time>2021-10-10T11:02:05Z</time>
      </trkpt>
      <trkpt lat="39.896263" lon="116.638783">
        <time>2021-10-10T11:02:10Z</time>
      </trkpt>
      <trkpt lat="39.896237" lon="116.638662">
        <time>2021-10-10T11:02:15Z</time>
      </trkpt>
      <trkpt lat="39.896238" lon="116.638531">
        <time>2021-10-10T11:02:20Z</time>
      </trkpt>
      <trkpt lat="39.896226" lon="116.638434">
        <time>2021-10-10T11:02:25Z</time>
      </trkpt>
      <trkpt lat="39.896216" lon="116.638289">
        <time>2021-10-10T11:02:30Z</time>
      </trkpt>
      <trkpt lat="39.896196" lon="116.63811">
        <time>2021-10-10T11:02:35Z</time>
      </trkpt>
      <trkpt lat="39.896187" lon="116.637944">
        <time>2021-10-10T11:02:40Z</time>
      </trkpt>
      <trkpt lat="39.896189" lon="116.637789">
        <time>2021-10-10T11:02:45Z</time>
      </trkpt>
      <trkpt lat="39.896183" lon="116.637644">
        <time>2021-10-10T11:02:50Z</time>
      </trkpt>
      <trkpt lat="39.896177" lon="116.637499">
        <time>2021-10-10T11:02:55Z</time>
      </trkpt>
      <trkpt lat="39.896186" lon="116.63738">
        <time>2021-10-10T11:03:00Z</time>
      </trkpt>
      <trkpt lat="39.896172" lon="116.637214">
        <time>2021-10-10T11:03:05Z</time>
      </trkpt>
      <trkpt lat="39.89616" lon="116.637069">
        <time>2021-10-10T11:03:10Z</time>
      </trkpt>
      <trkpt lat="39.896136" lon="116.636894">
        <time>2021-10-10T11:03:15Z</time>
      </trkpt>
      <trkpt lat="39.896077" lon="116.636699">
        <time>2021-10-10T11:03:20Z</time>
      </trkpt>
      <trkpt lat="39.896048" lon="116.636646">
        <time>2021-10-10T11:03:25Z</time>
      </trkpt>
      <trkpt lat="39.895967" lon="116.636554">
        <time>2021-10-10T11:03:30Z</time>
      </trkpt>
      <trkpt lat="39.895955" lon="116.636631">
        <time>2021-10-10T11:03:35Z</time>
      </trkpt>
      <trkpt lat="39.895998" lon="116.636726">
        <time>2021-10-10T11:03:40Z</time>
      </trkpt>
      <trkpt lat="39.896047" lon="116.636814">
        <time>2021-10-10T11:03:45Z</time>
      </trkpt>
      <trkpt lat="39.896084" lon="116.636908">
        <time>2021-10-10T11:03:50Z</time>
      </trkpt>
      <trkpt lat="39.896115" lon="116.637022">
        <time>2021-10-10T11:03:55Z</time>
      </trkpt>
      <trkpt lat="39.896128" lon="116.637155">
        <time>2021-10-10T11:04:00Z</time>
      </trkpt>
      <trkpt lat="39.896142" lon="116.637268">
        <time>2021-10-10T11:04:05Z</time>
      </trkpt>
      <trkpt lat="39.896155" lon="116.637431">
        <time>2021-10-10T11:04:10Z</time>
      </trkpt>
      <trkpt lat="39.896146" lon="116.637596">
        <time>2021-10-10T11:04:15Z</time>
      </trkpt>
      <trkpt lat="39.896154" lon="116.637763">
        <time>2021-10-10T11:04:20Z</time>
      </trkpt>
      <trkpt lat="39.896151" lon="116.637939">
        <time>2021-10-10T11:04:25Z</time>
      </trkpt>
      <trkpt lat="39.896163" lon="116.638076">
        <time>2021-10-10T11:04:30Z</time>
      </trkpt>
      <trkpt lat="39.89616" lon="116.638214">
        <time>2021-10-10T11:04:35Z</time>
      </trkpt>
      <trkpt lat="39.896164" lon="116.638331">
        <time>2021-10-10T11:04:40Z</time>
      </trkpt>
      <trkpt lat="39.896177" lon="116.638418">
        <time>2021-10-10T11:04:45Z</time>
      </trkpt>
      <trkpt lat="39.896192" lon="116.638512">
        <time>2021-10-10T11:04:50Z</time>
      </trkpt>
      <trkpt lat="39.896203" lon="116.638602">
        <time>2021-10-10T11:04:55Z</time>
      </trkpt>
      <trkpt lat="39.896188" lon="116.638693">
        <time>2021-10-10T11:05:00Z</time>
      </trkpt>
      <trkpt lat="39.896202" lon="116.638825">
        <time>2021-10-10T11:05:05Z</time>
      </trkpt>
      <trkpt lat="39.89621" lon="116.638961">
        <time>2021-10-10T11:05:10Z</time>
      </trkpt>
      <trkpt lat="39.896219" lon="116.639116">
        <time>2021-10-10T11:05:15Z</time>
      </trkpt>
      <trkpt lat="39.896228" lon="116.639244">
        <time>2021-10-10T11:05:20Z</time>
      </trkpt>
      <trkpt lat="39.896239" lon="116.639397">
        <time>2021-10-10T11:05:25Z</time>
      </trkpt>
      <trkpt lat="39.896239" lon="116.639589">
        <time>2021-10-10T11:05:30Z</time>
      </trkpt>
      <trkpt lat="39.896242" lon="116.639678">
        <time>2021-10-10T11:05:35Z</time>
      </trkpt>
      <trkpt lat="39.896247" lon="116.639823">
        <time>2021-10-10T11:05:40Z</time>
      </trkpt>
      <trkpt lat="39.89624" lon="116.639986">
        <time>2021-10-10T11:05:45Z</time>
      </trkpt>
      <trkpt lat="39.896241" lon="116.640172">
        <time>2021-10-10T11:05:50Z</time>
      </trkpt>
      <trkpt lat="39.896267" lon="116.640303">
        <time>2021-10-10T11:05:55Z</time>
      </trkpt>
      <trkpt lat="39.896298" lon="116.640441">
        <time>2021-10-10T11:06:00Z</time>
      </trkpt>
      <trkpt lat="39.896299" lon="116.640586">
        <time>2021-10-10T11:06:05Z</time>
      </trkpt>
      <trkpt lat="39.896279" lon="116.640918">
        <time>2021-10-10T11:06:10Z</time>
      </trkpt>
      <trkpt lat="39.896276" lon="116.640947">
        <time>2021-10-10T11:06:15Z</time>
      </trkpt>
      <trkpt lat="39.896259" lon="116.641086">
        <time>2021-10-10T11:06:20Z</time>
      </trkpt>
      <trkpt lat="39.896254" lon="116.641199">
        <time>2021-10-10T11:06:25Z</time>
      </trkpt>
      <trkpt lat="39.896264" lon="116.641284">
        <time>2021-10-10T11:06:30Z</time>
      </trkpt>
      <trkpt lat="39.896257" lon="116.641368">
        <time>2021-10-10T11:06:35Z</time>
      </trkpt>
      <trkpt lat="39.896241" lon="116.641488">
        <time>2021-10-10T11:06:40Z</time>
      </trkpt>
      <trkpt lat="39.896236" lon="116.641604">
        <time>2021-10-10T11:06:45Z</time>
      </trkpt>
      <trkpt lat="39.896239" lon="116.641757">
        <time>2021-10-10T11:06:50Z</time>
      </trkpt>
      <trkpt lat="39.896244" lon="116.641967">
        <time>2021-10-10T11:06:55Z</time>
      </trkpt>
      <trkpt lat="39.896242" lon="116.642048">
        <time>2021-10-10T11:07:00Z</time>
      </trkpt>
      <trkpt lat="39.89622" lon="116.642173">
        <time>2021-10-10T11:07:05Z</time>
      </trkpt>
      <trkpt lat="39.896219" lon="116.64226">
        <time>2021-10-10T11:07:10Z</time>
      </trkpt>
      <trkpt lat="39.896216" lon="116.642349">
        <time>2021-10-10T11:07:15Z</time>
      </trkpt>
      <trkpt lat="39.896209" lon="116.642481">
        <time>2021-10-10T11:07:20Z</time>
      </trkpt>
      <trkpt lat="39.896219" lon="116.642609">
        <time>2021-10-10T11:07:25Z</time>
      </trkpt>
      <trkpt lat="39.896222" lon="116.642745">
        <time>2021-10-10T11:07:30Z</time>
      </trkpt>
      <trkpt lat="39.896199" lon="116.642862">
        <time>2021-10-10T11:07:35Z</time>
      </trkpt>
      <trkpt lat="39.896185" lon="116.643008">
        <time>2021-10-10T11:07:40Z</time>
      </trkpt>
      <trkpt lat="39.896191" lon="116.643313">
        <time>2021-10-10T11:07:45Z</time>
      </trkpt>
      <trkpt lat="39.896193" lon="116.643354">
        <time>2021-10-10T11:07:50Z</time>
      </trkpt>
      <trkpt lat="39.896218" lon="116.643539">
        <time>2021-10-10T11:07:55Z</time>
      </trkpt>
      <trkpt lat="39.896213" lon="116.643695">
        <time>2021-10-10T11:08:00Z</time>
      </trkpt>
      <trkpt lat="39.896211" lon="116.643871">
        <time>2021-10-10T11:08:05Z</time>
      </trkpt>
      <trkpt lat="39.896232" lon="116.644017">
        <time>2021-10-10T11:08:10Z</time>
      </trkpt>
      <trkpt lat="39.896222" lon="116.644161">
        <time>2021-10-10T11:08:15Z</time>
      </trkpt>
      <trkpt lat="39.89622" lon="116.644232">
        <time>2021-10-10T11:08:20Z</time>
      </trkpt>
      <trkpt lat="39.896217" lon="116.644318">
        <time>2021-10-10T11:08:25Z</time>
      </trkpt>
      <trkpt lat="39.896212" lon="116.644446">
        <time>2021-10-10T11:08:30Z</time>
      </trkpt>
      <trkpt lat="39.896226" lon="116.644577">
        <time>2021-10-10T11:08:35Z</time>
      </trkpt>
      <trkpt lat="39.896222" lon="116.644713">
        <time>2021-10-10T11:08:40Z</time>
      </trkpt>
      <trkpt lat="39.896216" lon="116.644857">
        <time>2021-10-10T11:08:45Z</time>
      </trkpt>
      <trkpt lat="39.896207" lon="116.645009">
        <time>2021-10-10T11:08:50Z</time>
      </trkpt>
      <trkpt lat="39.896198" lon="116.645179">
        <time>2021-10-10T11:08:55Z</time>
      </trkpt>
      <trkpt lat="39.896193" lon="116.645261">
        <time>2021-10-10T11:09:00Z</time>
      </trkpt>
      <trkpt lat="39.896183" lon="116.645429">
        <time>2021-10-10T11:09:05Z</time>
      </trkpt>
      <trkpt lat="39.896157" lon="116.645564">
        <time>2021-10-10T11:09:10Z</time>
      </trkpt>
      <trkpt lat="39.896134" lon="116.64573">
        <time>2021-10-10T11:09:15Z</time>
      </trkpt>
      <trkpt lat="39.896108" lon="116.645919">
        <time>2021-10-10T11:09:20Z</time>
      </trkpt>
      <trkpt lat="39.896082" lon="116.646031">
        <time>2021-10-10T11:09:25Z</time>
      </trkpt>
      <trkpt lat="39.89606" lon="116.64611">
        <time>2021-10-10T11:09:30Z</time>
      </trkpt>
      <trkpt lat="39.896037" lon="116.646196">
        <time>2021-10-10T11:09:35Z</time>
      </trkpt>
      <trkpt lat="39.896012" lon="116.646284">
        <time>2021-10-10T11:09:40Z</time>
      </trkpt>
      <trkpt lat="39.896007" lon="116.646357">
        <time>2021-10-10T11:09:45Z</time>
      </trkpt>
      <trkpt lat="39.896003" lon="116.646437">
        <time>2021-10-10T11:09:50Z</time>
      </trkpt>
      <trkpt lat="39.896005" lon="116.646485">
        <time>2021-10-10T11:09:55Z</time>
      </trkpt>
      <trkpt lat="39.896015" lon="116.646511">
        <time>2021-10-10T11:10:00Z</time>
      </trkpt>
      <trkpt lat="39.896108" lon="116.646581">
        <time>2021-10-10T11:10:05Z</time>
      </trkpt>
      <trkpt lat="39.896077" lon="116.646582">
        <time>2021-10-10T11:10:10Z</time>
      </trkpt>
      <trkpt lat="39.89607" lon="116.646505">
        <time>2021-10-10T11:10:15Z</time>
      </trkpt>
      <trkpt lat="39.896074" lon="116.646388">
        <time>2021-10-10T11:10:20Z</time>
      </trkpt>
      <trkpt lat="39.896098" lon="116.646236">
        <time>2021-10-10T11:10:25Z</time>
      </trkpt>
      <trkpt lat="39.896119" lon="116.646129">
        <time>2021-10-10T11:10:30Z</time>
      </trkpt>
      <trkpt lat="39.896143" lon="116.645988">
        <time>2021-10-10T11:10:35Z</time>
      </trkpt>
      <trkpt lat="39.896159" lon="116.645846">
        <time>2021-10-10T11:10:40Z</time>
      </trkpt>
      <trkpt lat="39.896189" lon="116.645711">
        <time>2021-10-10T11:10:45Z</time>
      </trkpt>
      <trkpt lat="39.896221" lon="116.645557">
        <time>2021-10-10T11:10:50Z</time>
      </trkpt>
      <trkpt lat="39.896225" lon="116.645385">
        <time>2021-10-10T11:10:55Z</time>
      </trkpt>
      <trkpt lat="39.896226" lon="116.64524">
        <time>2021-10-10T11:11:00Z</time>
      </trkpt>
      <trkpt lat="39.896251" lon="116.645102">
        <time>2021-10-10T11:11:05Z</time>
      </trkpt>
      <trkpt lat="39.896248" lon="116.644916">
        <time>2021-10-10T11:11:10Z</time>
      </trkpt>
      <trkpt lat="39.896249" lon="116.64476">
        <time>2021-10-10T11:11:15Z</time>
      </trkpt>
      <trkpt lat="39.896248" lon="116.644618">
        <time>2021-10-10T11:11:20Z</time>
      </trkpt>
      <trkpt lat="39.896267" lon="116.644496">
        <time>2021-10-10T11:11:25Z</time>
      </trkpt>
      <trkpt lat="39.896294" lon="116.644413">
        <time>2021-10-10T11:11:30Z</time>
      </trkpt>
      <trkpt lat="39.896262" lon="116.644339">
        <time>2021-10-10T11:11:35Z</time>
      </trkpt>
      <trkpt lat="39.89623" lon="116.644224">
        <time>2021-10-10T11:11:40Z</time>
      </trkpt>
      <trkpt lat="39.896216" lon="116.644094">
        <time>2021-10-10T11:11:45Z</time>
      </trkpt>
      <trkpt lat="39.896218" lon="116.643968">
        <time>2021-10-10T11:11:50Z</time>
      </trkpt>
      <trkpt lat="39.896221" lon="116.643839">
        <time>2021-10-10T11:11:55Z</time>
      </trkpt>
      <trkpt lat="39.896231" lon="116.643691">
        <time>2021-10-10T11:12:00Z</time>
      </trkpt>
      <trkpt lat="39.896238" lon="116.643542">
        <time>2021-10-10T11:12:05Z</time>
      </trkpt>
      <trkpt lat="39.896229" lon="116.643404">
        <time>2021-10-10T11:12:10Z</time>
      </trkpt>
      <trkpt lat="39.896218" lon="116.643282">
        <time>2021-10-10T11:12:15Z</time>
      </trkpt>
      <trkpt lat="39.896215" lon="116.643193">
        <time>2021-10-10T11:12:20Z</time>
      </trkpt>
      <trkpt lat="39.896224" lon="116.643086">
        <time>2021-10-10T11:12:25Z</time>
      </trkpt>
      <trkpt lat="39.896236" lon="116.642989">
        <time>2021-10-10T11:12:30Z</time>
      </trkpt>
      <trkpt lat="39.896244" lon="116.642855">
        <time>2021-10-10T11:12:35Z</time>
      </trkpt>
      <trkpt lat="39.896235" lon="116.642741">
        <time>2021-10-10T11:12:40Z</time>
      </trkpt>
      <trkpt lat="39.896259" lon="116.642631">
        <time>2021-10-10T11:12:45Z</time>
      </trkpt>
      <trkpt lat="39.896271" lon="116.642512">
        <time>2021-10-10T11:12:50Z</time>
      </trkpt>
      <trkpt lat="39.896276" lon="116.642404">
        <time>2021-10-10T11:12:55Z</time>
      </trkpt>
      <trkpt lat="39.896267" lon="116.64229">
        <time>2021-10-10T11:13:00Z</time>
      </trkpt>
      <trkpt lat="39.896261" lon="116.642196">
        <time>2021-10-10T11:13:05Z</time>
      </trkpt>
      <trkpt lat="39.896278" lon="116.642098">
        <time>2021-10-10T11:13:10Z</time>
      </trkpt>
      <trkpt lat="39.896278" lon="116.641999">
        <time>2021-10-10T11:13:15Z</time>
      </trkpt>
      <trkpt lat="39.896285" lon="116.641902">
        <time>2021-10-10T11:13:20Z</time>
      </trkpt>
      <trkpt lat="39.896281" lon="116.641847">
        <time>2021-10-10T11:13:25Z</time>
      </trkpt>
      <trkpt lat="39.896295" lon="116.641769">
        <time>2021-10-10T11:13:30Z</time>
      </trkpt>
      <trkpt lat="39.896288" lon="116.641656">
        <time>2021-10-10T11:13:35Z</time>
      </trkpt>
      <trkpt lat="39.896302" lon="116.641539">
        <time>2021-10-10T11:13:40Z</time>
      </trkpt>
      <trkpt lat="39.896311" lon="116.641365">
        <time>2021-10-10T11:13:45Z</time>
      </trkpt>
      <trkpt lat="39.896308" lon="116.64118">
        <time>2021-10-10T11:13:50Z</time>
      </trkpt>
      <trkpt lat="39.896279" lon="116.640988">
        <time>2021-10-10T11:13:55Z</time>
      </trkpt>
      <trkpt lat="39.896273" lon="116.640794">
        <time>2021-10-10T11:14:00Z</time>
      </trkpt>
      <trkpt lat="39.896277" lon="116.640604">
        <time>2021-10-10T11:14:05Z</time>
      </trkpt>
      <trkpt lat="39.896314" lon="116.640421">
        <time>2021-10-10T11:14:10Z</time>
      </trkpt>
      <trkpt lat="39.896325" lon="116.640222">
        <time>2021-10-10T11:14:15Z</time>
      </trkpt>
      <trkpt lat="39.896326" lon="116.640041">
        <time>2021-10-10T11:14:20Z</time>
      </trkpt>
      <trkpt lat="39.896326" lon="116.639873">
        <time>2021-10-10T11:14:25Z</time>
      </trkpt>
      <trkpt lat="39.896327" lon="116.639691">
        <time>2021-10-10T11:14:30Z</time>
      </trkpt>
      <trkpt lat="39.896319" lon="116.639489">
        <time>2021-10-10T11:14:35Z</time>
      </trkpt>
      <trkpt lat="39.896316" lon="116.639328">
        <time>2021-10-10T11:14:40Z</time>
      </trkpt>
      <trkpt lat="39.896285" lon="116.639268">
        <time>2021-10-10T11:14:45Z</time>
      </trkpt>
      <trkpt lat="39.896278" lon="116.63918">
        <time>2021-10-10T11:14:50Z</time>
      </trkpt>
      <trkpt lat="39.89626" lon="116.639097">
        <time>2021-10-10T11:14:55Z</time>
      </trkpt>
      <trkpt lat="39.896243" lon="116.639026">
        <time>2021-10-10T11:15:00Z</time>
      </trkpt>
      <trkpt lat="39.896222" lon="116.638938">
        <time>2021-10-10T11:15:05Z</time>
      </trkpt>
      <trkpt lat="39.896244" lon="116.638812">
        <time>2021-10-10T11:15:10Z</time>
      </trkpt>
      <trkpt lat="39.896271" lon="116.638721">
        <time>2021-10-10T11:15:15Z</time>
      </trkpt>
      <trkpt lat="39.89626" lon="116.638638">
        <time>2021-10-10T11:15:20Z</time>
      </trkpt>
      <trkpt lat="39.89627" lon="116.638534">
        <time>2021-10-10T11:15:25Z</time>
      </trkpt>
      <trkpt lat="39.896254" lon="116.638438">
        <time>2021-10-10T11:15:30Z</time>
      </trkpt>
      <trkpt lat="39.896245" lon="116.638352">
        <time>2021-10-10T11:15:35Z</time>
      </trkpt>
      <trkpt lat="39.896258" lon="116.638275">
        <time>2021-10-10T11:15:40Z</time>
      </trkpt>
      <trkpt lat="39.896211" lon="116.638195">
        <time>2021-10-10T11:15:45Z</time>
      </trkpt>
      <trkpt lat="39.896187" lon="116.638086">
        <time>2021-10-10T11:15:50Z</time>
      </trkpt>
      <trkpt lat="39.896185" lon="116.637996">
        <time>2021-10-10T11:15:55Z</time>
      </trkpt>
      <trkpt lat="39.896189" lon="116.637894">
        <time>2021-10-10T11:16:00Z</time>
      </trkpt>
      <trkpt lat="39.896189" lon="116.637778">
        <time>2021-10-10T11:16:05Z</time>
      </trkpt>
      <trkpt lat="39.896178" lon="116.637664">
        <time>2021-10-10T11:16:10Z</time>
      </trkpt>
      <trkpt lat="39.896162" lon="116.637592">
        <time>2021-10-10T11:16:15Z</time>
      </trkpt>
      <trkpt lat="39.896158" lon="116.6375">
        <time>2021-10-10T11:16:20Z</time>
      </trkpt>
      <trkpt lat="39.896195" lon="116.63739">
        <time>2021-10-10T11:16:25Z</time>
      </trkpt>
      <trkpt lat="39.896187" lon="116.637257">
        <time>2021-10-10T11:16:30Z</time>
      </trkpt>
      <trkpt lat="39.896178" lon="116.637146">
        <time>2021-10-10T11:16:35Z</time>
      </trkpt>
      <trkpt lat="39.896152" lon="116.636993">
        <time>2021-10-10T11:16:40Z</time>
      </trkpt>
      <trkpt lat="39.896061" lon="116.636721">
        <time>2021-10-10T11:16:45Z</time>
      </trkpt>
      <trkpt lat="39.896046" lon="116.636687">
        <time>2021-10-10T11:16:50Z</time>
      </trkpt>
      <trkpt lat="39.895957" lon="116.636554">
        <time>2021-10-10T11:16:55Z</time>
      </trkpt>
      <trkpt lat="39.895865" lon="116.636487">
        <time>2021-10-10T11:17:00Z</time>
      </trkpt>
      <trkpt lat="39.89587" lon="116.636366">
        <time>2021-10-10T11:17:05Z</time>
      </trkpt>
      <trkpt lat="39.896016" lon="116.636325">
        <time>2021-10-10T11:17:10Z</time>
      </trkpt>
      <trkpt lat="39.896155" lon="116.636258">
        <time>2021-10-10T11:17:15Z</time>
      </trkpt>
      <trkpt lat="39.896261" lon="116.636169">
        <time>2021-10-10T11:17:20Z</time>
      </trkpt>
      <trkpt lat="39.896365" lon="116.636071">
        <time>2021-10-10T11:17:25Z</time>
      </trkpt>
      <trkpt lat="39.896472" lon="116.635993">
        <time>2021-10-10T11:17:30Z</time>
      </trkpt>
      <trkpt lat="39.896611" lon="116.635935">
        <time>2021-10-10T11:17:35Z</time>
      </trkpt>
      <trkpt lat="39.89672" lon="116.635899">
        <time>2021-10-10T11:17:40Z</time>
      </trkpt>
      <trkpt lat="39.896815" lon="116.635826">
        <time>2021-10-10T11:17:45Z</time>
      </trkpt>
      <trkpt lat="39.89696" lon="116.635738">
        <time>2021-10-10T11:17:50Z</time>
      </trkpt>
      <trkpt lat="39.897101" lon="116.635728">
        <time>2021-10-10T11:17:55Z</time>
      </trkpt>
      <trkpt lat="39.897193" lon="116.635632">
        <time>2021-10-10T11:18:00Z</time>
      </trkpt>
      <trkpt lat="39.897314" lon="116.635585">
        <time>2021-10-10T11:18:05Z</time>
      </trkpt>
      <trkpt lat="39.897432" lon="116.635528">
        <time>2021-10-10T11:18:10Z</time>
      </trkpt>
      <trkpt lat="39.897596" lon="116.63542">
        <time>2021-10-10T11:18:15Z</time>
      </trkpt>
      <trkpt lat="39.897677" lon="116.635367">
        <time>2021-10-10T11:18:20Z</time>
      </trkpt>
      <trkpt lat="39.897821" lon="116.635265">
        <time>2021-10-10T11:18:25Z</time>
      </trkpt>
      <trkpt lat="39.897959" lon="116.635154">
        <time>2021-10-10T11:18:30Z</time>
      </trkpt>
      <trkpt lat="39.898098" lon="116.635062">
        <time>2021-10-10T11:18:35Z</time>
      </trkpt>
      <trkpt lat="39.898199" lon="116.634997">
        <time>2021-10-10T11:18:40Z</time>
      </trkpt>
      <trkpt lat="39.898199" lon="116.634997">
        <time>2021-10-10T11:18:45Z</time>
      </trkpt>
      <trkpt lat="39.898147" lon="116.634829">
        <time>2021-10-10T11:18:50Z</time>
      </trkpt>
      <trkpt lat="39.89811" lon="116.63474">
        <time>2021-10-10T11:18:55Z</time>
      </trkpt>
      <trkpt lat="39.898062" lon="116.63463">
        <time>2021-10-10T11:19:00Z</time>
      </trkpt>
      <trkpt lat="39.898021" lon="116.634531">
        <time>2021-10-10T11:19:05Z</time>
      </trkpt>
      <trkpt lat="39.897938" lon="116.634389">
        <time>2021-10-10T11:19:10Z</time>
      </trkpt>
      <trkpt lat="39.897864" lon="116.63432">
        <time>2021-10-10T11:19:15Z</time>
      </trkpt>
      <trkpt lat="39.897804" lon="116.634262">
        <time>2021-10-10T11:19:20Z</time>
      </trkpt>
      <trkpt lat="39.897789" lon="116.634189">
        <time>2021-10-10T11:19:25Z</time>
      </trkpt>
      <trkpt lat="39.897758" lon="116.634064">
        <time>2021-10-10T11:19:30Z</time>
      </trkpt>
      <trkpt lat="39.897737" lon="116.633954">
        <time>2021-10-10T11:19:35Z</time>
      </trkpt>
      <trkpt lat="39.897715" lon="116.633836">
        <time>2021-10-10T11:19:40Z</time>
      </trkpt>
      <trkpt lat="39.897638" lon="116.633771">
        <time>2021-10-10T11:19:45Z</time>
      </trkpt>
      <trkpt lat="39.897559" lon="116.63372">
        <time>2021-10-10T11:19:50Z</time>
      </trkpt>
      <trkpt lat="39.897529" lon="116.633616">
        <time>2021-10-10T11:19:55Z</time>
      </trkpt>
      <trkpt lat="39.897503" lon="116.633636">
        <time>2021-10-10T11:20:00Z</time>
      </trkpt>
      <trkpt lat="39.897388" lon="116.633849">
        <time>2021-10-10T11:20:05Z</time>
      </trkpt>
      <trkpt lat="39.897416" lon="116.634032">
        <time>2021-10-10T11:20:10Z</time>
      </trkpt>
      <trkpt lat="39.897469" lon="116.634181">
        <time>2021-10-10T11:20:15Z</time>
      </trkpt>
      <trkpt lat="39.897378" lon="116.634249">
        <time>2021-10-10T11:20:20Z</time>
      </trkpt>
      <trkpt lat="39.897244" lon="116.634148">
        <time>2021-10-10T11:20:25Z</time>
      </trkpt>
      <trkpt lat="39.897139" lon="116.63392">
        <time>2021-10-10T11:20:30Z</time>
      </trkpt>
      <trkpt lat="39.897063" lon="116.633745">
        <time>2021-10-10T11:20:35Z</time>
      </trkpt>
      <trkpt lat="39.897015" lon="116.633579">
        <time>2021-10-10T11:20:40Z</time>
      </trkpt>
      <trkpt lat="39.897002" lon="116.633363">
        <time>2021-10-10T11:20:45Z</time>
      </trkpt>
      <trkpt lat="39.896938" lon="116.633217">
        <time>2021-10-10T11:20:50Z</time>
      </trkpt>
      <trkpt lat="39.896811" lon="116.633061">
        <time>2021-10-10T11:20:55Z</time>
      </trkpt>
      <trkpt lat="39.896717" lon="116.632926">
        <time>2021-10-10T11:21:00Z</time>
      </trkpt>
      <trkpt lat="39.896758" lon="116.632868">
        <time>2021-10-10T11:21:05Z</time>
      </trkpt>
      <trkpt lat="39.896911" lon="116.63306">
        <time>2021-10-10T11:21:10Z</time>
      </trkpt>
      <trkpt lat="39.897036" lon="116.633189">
        <time>2021-10-10T11:21:15Z</time>
      </trkpt>
      <trkpt lat="39.897191" lon="116.633419">
        <time>2021-10-10T11:21:20Z</time>
      </trkpt>
      <trkpt lat="39.897283" lon="116.633519">
        <time>2021-10-10T11:21:25Z</time>
      </trkpt>
      <trkpt lat="39.897361" lon="116.633612">
        <time>2021-10-10T11:21:30Z</time>
      </trkpt>
      <trkpt lat="39.897436" lon="116.633825">
        <time>2021-10-10T11:21:35Z</time>
      </trkpt>
      <trkpt lat="39.897507" lon="116.633998">
        <time>2021-10-10T11:21:40Z</time>
      </trkpt>
      <trkpt lat="39.897479" lon="116.634195">
        <time>2021-10-10T11:30:40Z</time>
      </trkpt>
    </trkseg>
  </trk>
</gpx>