<?xml version="1.0" encoding="UTF-8"?>
<gpx xmlns="http://www.topografix.com/GPX/1/1" xmlns:gpxtpx="http://www.garmin.com/xmlschemas/TrackPointExtension/v1" xmlns:xsi="http://www.w3.org/2001/XMLSchema-instance" xsi:schemaLocation="http://www.topografix.com/GPX/1/1 http://www.topografix.com/GPX/1/1/gpx.xsd" version="1.1" creator="gpx.py -- https://github.com/tkrajina/gpxpy">
  <trk>
    <name>gpx from keep</name>
    <trkseg>
      <trkpt lat="39.898111" lon="116.635036">
        <time>2021-10-12T12:34:50Z</time>
      </trkpt>
      <trkpt lat="39.898111" lon="116.635036">
        <time>2021-10-12T12:34:55Z</time>
      </trkpt>
      <trkpt lat="39.898027" lon="116.635118">
        <time>2021-10-12T12:35:00Z</time>
      </trkpt>
      <trkpt lat="39.897907" lon="116.635229">
        <time>2021-10-12T12:35:05Z</time>
      </trkpt>
      <trkpt lat="39.897776" lon="116.635297">
        <time>2021-10-12T12:35:10Z</time>
      </trkpt>
      <trkpt lat="39.897658" lon="116.635358">
        <time>2021-10-12T12:35:15Z</time>
      </trkpt>
      <trkpt lat="39.897619" lon="116.635374">
        <time>2021-10-12T12:35:20Z</time>
      </trkpt>
      <trkpt lat="39.897415" lon="116.635503">
        <time>2021-10-12T12:35:25Z</time>
      </trkpt>
      <trkpt lat="39.897296" lon="116.635576">
        <time>2021-10-12T12:35:30Z</time>
      </trkpt>
      <trkpt lat="39.897138" lon="116.635651">
        <time>2021-10-12T12:35:35Z</time>
      </trkpt>
      <trkpt lat="39.896985" lon="116.635736">
        <time>2021-10-12T12:35:40Z</time>
      </trkpt>
      <trkpt lat="39.896855" lon="116.635817">
        <time>2021-10-12T12:35:45Z</time>
      </trkpt>
      <trkpt lat="39.896737" lon="116.635898">
        <time>2021-10-12T12:35:50Z</time>
      </trkpt>
      <trkpt lat="39.896525" lon="116.636023">
        <time>2021-10-12T12:35:55Z</time>
      </trkpt>
      <trkpt lat="39.896506" lon="116.636035">
        <time>2021-10-12T12:36:00Z</time>
      </trkpt>
      <trkpt lat="39.896412" lon="116.636096">
        <time>2021-10-12T12:36:05Z</time>
      </trkpt>
      <trkpt lat="39.896297" lon="116.636057">
        <time>2021-10-12T12:36:10Z</time>
      </trkpt>
      <trkpt lat="39.896192" lon="116.636165">
        <time>2021-10-12T12:36:15Z</time>
      </trkpt>
      <trkpt lat="39.896159" lon="116.636307">
        <time>2021-10-12T12:36:20Z</time>
      </trkpt>
      <trkpt lat="39.896107" lon="116.63643">
        <time>2021-10-12T12:36:25Z</time>
      </trkpt>
      <trkpt lat="39.896069" lon="116.63652">
        <time>2021-10-12T12:36:30Z</time>
      </trkpt>
      <trkpt lat="39.895997" lon="116.636627">
        <time>2021-10-12T12:36:35Z</time>
      </trkpt>
      <trkpt lat="39.896038" lon="116.636778">
        <time>2021-10-12T12:36:40Z</time>
      </trkpt>
      <trkpt lat="39.89609" lon="116.636936">
        <time>2021-10-12T12:36:45Z</time>
      </trkpt>
      <trkpt lat="39.896105" lon="116.637122">
        <time>2021-10-12T12:36:50Z</time>
      </trkpt>
      <trkpt lat="39.896107" lon="116.637272">
        <time>2021-10-12T12:36:55Z</time>
      </trkpt>
      <trkpt lat="39.896062" lon="116.637353">
        <time>2021-10-12T12:37:00Z</time>
      </trkpt>
      <trkpt lat="39.896049" lon="116.637319">
        <time>2021-10-12T12:37:05Z</time>
      </trkpt>
      <trkpt lat="39.896017" lon="116.637286">
        <time>2021-10-12T12:37:10Z</time>
      </trkpt>
      <trkpt lat="39.895996" lon="116.637344">
        <time>2021-10-12T12:37:15Z</time>
      </trkpt>
      <trkpt lat="39.896035" lon="116.637344">
        <time>2021-10-12T12:37:20Z</time>
      </trkpt>
      <trkpt lat="39.896008" lon="116.63737">
        <time>2021-10-12T12:37:25Z</time>
      </trkpt>
      <trkpt lat="39.895978" lon="116.637374">
        <time>2021-10-12T12:37:30Z</time>
      </trkpt>
      <trkpt lat="39.895991" lon="116.637329">
        <time>2021-10-12T12:37:35Z</time>
      </trkpt>
      <trkpt lat="39.896056" lon="116.6373">
        <time>2021-10-12T12:37:40Z</time>
      </trkpt>
      <trkpt lat="39.896058" lon="116.637297">
        <time>2021-10-12T12:37:45Z</time>
      </trkpt>
      <trkpt lat="39.896033" lon="116.637312">
        <time>2021-10-12T12:37:50Z</time>
      </trkpt>
      <trkpt lat="39.896022" lon="116.637319">
        <time>2021-10-12T12:37:55Z</time>
      </trkpt>
      <trkpt lat="39.896068" lon="116.637318">
        <time>2021-10-12T12:38:00Z</time>
      </trkpt>
      <trkpt lat="39.896066" lon="116.637351">
        <time>2021-10-12T12:38:05Z</time>
      </trkpt>
      <trkpt lat="39.896065" lon="116.637303">
        <time>2021-10-12T12:38:10Z</time>
      </trkpt>
      <trkpt lat="39.896048" lon="116.637287">
        <time>2021-10-12T12:38:15Z</time>
      </trkpt>
      <trkpt lat="39.896082" lon="116.637305">
        <time>2021-10-12T12:38:20Z</time>
      </trkpt>
      <trkpt lat="39.896088" lon="116.63729">
        <time>2021-10-12T12:38:25Z</time>
      </trkpt>
      <trkpt lat="39.896069" lon="116.637283">
        <time>2021-10-12T12:38:30Z</time>
      </trkpt>
      <trkpt lat="39.896047" lon="116.637297">
        <time>2021-10-12T12:38:35Z</time>
      </trkpt>
      <trkpt lat="39.89613" lon="116.63744">
        <time>2021-10-12T12:38:40Z</time>
      </trkpt>
      <trkpt lat="39.896144" lon="116.637603">
        <time>2021-10-12T12:38:45Z</time>
      </trkpt>
      <trkpt lat="39.896156" lon="116.637753">
        <time>2021-10-12T12:38:50Z</time>
      </trkpt>
      <trkpt lat="39.896156" lon="116.637935">
        <time>2021-10-12T12:38:55Z</time>
      </trkpt>
      <trkpt lat="39.896144" lon="116.638087">
        <time>2021-10-12T12:39:00Z</time>
      </trkpt>
      <trkpt lat="39.896131" lon="116.638267">
        <time>2021-10-12T12:39:05Z</time>
      </trkpt>
      <trkpt lat="39.896114" lon="116.638414">
        <time>2021-10-12T12:39:10Z</time>
      </trkpt>
      <trkpt lat="39.896144" lon="116.638589">
        <time>2021-10-12T12:39:15Z</time>
      </trkpt>
      <trkpt lat="39.896161" lon="116.63878">
        <time>2021-10-12T12:39:20Z</time>
      </trkpt>
      <trkpt lat="39.896135" lon="116.638937">
        <time>2021-10-12T12:39:25Z</time>
      </trkpt>
      <trkpt lat="39.896108" lon="116.639044">
        <time>2021-10-12T12:39:30Z</time>
      </trkpt>
      <trkpt lat="39.896105" lon="116.639195">
        <time>2021-10-12T12:39:35Z</time>
      </trkpt>
      <trkpt lat="39.896125" lon="116.639379">
        <time>2021-10-12T12:39:40Z</time>
      </trkpt>
      <trkpt lat="39.896143" lon="116.639548">
        <time>2021-10-12T12:39:45Z</time>
      </trkpt>
      <trkpt lat="39.896189" lon="116.639799">
        <time>2021-10-12T12:39:50Z</time>
      </trkpt>
      <trkpt lat="39.89621" lon="116.639912">
        <time>2021-10-12T12:39:55Z</time>
      </trkpt>
      <trkpt lat="39.896231" lon="116.640114">
        <time>2021-10-12T12:40:00Z</time>
      </trkpt>
      <trkpt lat="39.896255" lon="116.640288">
        <time>2021-10-12T12:40:05Z</time>
      </trkpt>
      <trkpt lat="39.896298" lon="116.640445">
        <time>2021-10-12T12:40:10Z</time>
      </trkpt>
      <trkpt lat="39.896296" lon="116.640602">
        <time>2021-10-12T12:40:15Z</time>
      </trkpt>
      <trkpt lat="39.896272" lon="116.640823">
        <time>2021-10-12T12:40:20Z</time>
      </trkpt>
      <trkpt lat="39.896241" lon="116.640914">
        <time>2021-10-12T12:40:25Z</time>
      </trkpt>
      <trkpt lat="39.896241" lon="116.641089">
        <time>2021-10-12T12:40:30Z</time>
      </trkpt>
      <trkpt lat="39.89623" lon="116.641236">
        <time>2021-10-12T12:40:35Z</time>
      </trkpt>
      <trkpt lat="39.896228" lon="116.641388">
        <time>2021-10-12T12:40:40Z</time>
      </trkpt>
      <trkpt lat="39.896234" lon="116.641546">
        <time>2021-10-12T12:40:45Z</time>
      </trkpt>
      <trkpt lat="39.896247" lon="116.641738">
        <time>2021-10-12T12:40:50Z</time>
      </trkpt>
      <trkpt lat="39.896221" lon="116.64209">
        <time>2021-10-12T12:40:55Z</time>
      </trkpt>
      <trkpt lat="39.896214" lon="116.642129">
        <time>2021-10-12T12:41:00Z</time>
      </trkpt>
      <trkpt lat="39.896232" lon="116.642371">
        <time>2021-10-12T12:41:05Z</time>
      </trkpt>
      <trkpt lat="39.896229" lon="116.642575">
        <time>2021-10-12T12:41:10Z</time>
      </trkpt>
      <trkpt lat="39.896215" lon="116.642731">
        <time>2021-10-12T12:41:15Z</time>
      </trkpt>
      <trkpt lat="39.896221" lon="116.64287">
        <time>2021-10-12T12:41:20Z</time>
      </trkpt>
      <trkpt lat="39.896229" lon="116.643022">
        <time>2021-10-12T12:41:25Z</time>
      </trkpt>
      <trkpt lat="39.896202" lon="116.643176">
        <time>2021-10-12T12:41:30Z</time>
      </trkpt>
      <trkpt lat="39.896172" lon="116.643349">
        <time>2021-10-12T12:41:35Z</time>
      </trkpt>
      <trkpt lat="39.896169" lon="116.64351">
        <time>2021-10-12T12:41:40Z</time>
      </trkpt>
      <trkpt lat="39.896189" lon="116.643673">
        <time>2021-10-12T12:41:45Z</time>
      </trkpt>
      <trkpt lat="39.896183" lon="116.643842">
        <time>2021-10-12T12:41:50Z</time>
      </trkpt>
      <trkpt lat="39.896178" lon="116.643993">
        <time>2021-10-12T12:41:55Z</time>
      </trkpt>
      <trkpt lat="39.896186" lon="116.644146">
        <time>2021-10-12T12:42:00Z</time>
      </trkpt>
      <trkpt lat="39.896196" lon="116.64429">
        <time>2021-10-12T12:42:05Z</time>
      </trkpt>
      <trkpt lat="39.896182" lon="116.644541">
        <time>2021-10-12T12:42:10Z</time>
      </trkpt>
      <trkpt lat="39.896182" lon="116.644587">
        <time>2021-10-12T12:42:15Z</time>
      </trkpt>
      <trkpt lat="39.896194" lon="116.644727">
        <time>2021-10-12T12:42:20Z</time>
      </trkpt>
      <trkpt lat="39.89621" lon="116.644935">
        <time>2021-10-12T12:42:25Z</time>
      </trkpt>
      <trkpt lat="39.896215" lon="116.645088">
        <time>2021-10-12T12:42:30Z</time>
      </trkpt>
      <trkpt lat="39.896217" lon="116.645202">
        <time>2021-10-12T12:42:35Z</time>
      </trkpt>
      <trkpt lat="39.896214" lon="116.645372">
        <time>2021-10-12T12:42:40Z</time>
      </trkpt>
      <trkpt lat="39.896193" lon="116.645538">
        <time>2021-10-12T12:42:45Z</time>
      </trkpt>
      <trkpt lat="39.896136" lon="116.645684">
        <time>2021-10-12T12:42:50Z</time>
      </trkpt>
      <trkpt lat="39.896109" lon="116.645799">
        <time>2021-10-12T12:42:55Z</time>
      </trkpt>
      <trkpt lat="39.896082" lon="116.645956">
        <time>2021-10-12T12:43:00Z</time>
      </trkpt>
      <trkpt lat="39.896072" lon="116.64612">
        <time>2021-10-12T12:43:05Z</time>
      </trkpt>
      <trkpt lat="39.89606" lon="116.646244">
        <time>2021-10-12T12:43:10Z</time>
      </trkpt>
      <trkpt lat="39.896038" lon="116.646377">
        <time>2021-10-12T12:43:15Z</time>
      </trkpt>
      <trkpt lat="39.896028" lon="116.646472">
        <time>2021-10-12T12:43:20Z</time>
      </trkpt>
      <trkpt lat="39.896038" lon="116.646629">
        <time>2021-10-12T12:43:25Z</time>
      </trkpt>
      <trkpt lat="39.896018" lon="116.64681">
        <time>2021-10-12T12:43:30Z</time>
      </trkpt>
      <trkpt lat="39.895891" lon="116.646862">
        <time>2021-10-12T12:43:35Z</time>
      </trkpt>
      <trkpt lat="39.895683" lon="116.646789">
        <time>2021-10-12T12:43:40Z</time>
      </trkpt>
      <trkpt lat="39.895625" lon="116.646752">
        <time>2021-10-12T12:43:45Z</time>
      </trkpt>
      <trkpt lat="39.895516" lon="116.646679">
        <time>2021-10-12T12:43:50Z</time>
      </trkpt>
      <trkpt lat="39.895393" lon="116.646621">
        <time>2021-10-12T12:43:55Z</time>
      </trkpt>
      <trkpt lat="39.89525" lon="116.646557">
        <time>2021-10-12T12:44:00Z</time>
      </trkpt>
      <trkpt lat="39.89513" lon="116.646494">
        <time>2021-10-12T12:44:05Z</time>
      </trkpt>
      <trkpt lat="39.895018" lon="116.646449">
        <time>2021-10-12T12:44:10Z</time>
      </trkpt>
      <trkpt lat="39.894909" lon="116.646397">
        <time>2021-10-12T12:44:15Z</time>
      </trkpt>
      <trkpt lat="39.894783" lon="116.646372">
        <time>2021-10-12T12:44:20Z</time>
      </trkpt>
      <trkpt lat="39.894673" lon="116.646281">
        <time>2021-10-12T12:44:25Z</time>
      </trkpt>
      <trkpt lat="39.894578" lon="116.646207">
        <time>2021-10-12T12:44:30Z</time>
      </trkpt>
      <trkpt lat="39.894479" lon="116.64616">
        <time>2021-10-12T12:44:35Z</time>
      </trkpt>
      <trkpt lat="39.894359" lon="116.646098">
        <time>2021-10-12T12:44:40Z</time>
      </trkpt>
      <trkpt lat="39.894236" lon="116.646035">
        <time>2021-10-12T12:44:45Z</time>
      </trkpt>
      <trkpt lat="39.894116" lon="116.645999">
        <time>2021-10-12T12:44:50Z</time>
      </trkpt>
      <trkpt lat="39.894023" lon="116.645911">
        <time>2021-10-12T12:44:55Z</time>
      </trkpt>
      <trkpt lat="39.893911" lon="116.645872">
        <time>2021-10-12T12:45:00Z</time>
      </trkpt>
      <trkpt lat="39.893824" lon="116.646014">
        <time>2021-10-12T12:45:05Z</time>
      </trkpt>
      <trkpt lat="39.893741" lon="116.646155">
        <time>2021-10-12T12:45:10Z</time>
      </trkpt>
      <trkpt lat="39.893637" lon="116.646351">
        <time>2021-10-12T12:45:15Z</time>
      </trkpt>
      <trkpt lat="39.893544" lon="116.646402">
        <time>2021-10-12T12:45:20Z</time>
      </trkpt>
      <trkpt lat="39.893405" lon="116.646336">
        <time>2021-10-12T12:45:25Z</time>
      </trkpt>
      <trkpt lat="39.893229" lon="116.646246">
        <time>2021-10-12T12:45:30Z</time>
      </trkpt>
      <trkpt lat="39.893157" lon="116.646231">
        <time>2021-10-12T12:45:35Z</time>
      </trkpt>
      <trkpt lat="39.89303" lon="116.646167">
        <time>2021-10-12T12:45:40Z</time>
      </trkpt>
      <trkpt lat="39.892903" lon="116.646103">
        <time>2021-10-12T12:45:45Z</time>
      </trkpt>
      <trkpt lat="39.892795" lon="116.646019">
        <time>2021-10-12T12:45:50Z</time>
      </trkpt>
      <trkpt lat="39.892693" lon="116.645905">
        <time>2021-10-12T12:45:55Z</time>
      </trkpt>
      <trkpt lat="39.892579" lon="116.645863">
        <time>2021-10-12T12:46:00Z</time>
      </trkpt>
      <trkpt lat="39.892451" lon="116.645785">
        <time>2021-10-12T12:46:05Z</time>
      </trkpt>
      <trkpt lat="39.892329" lon="116.645732">
        <time>2021-10-12T12:46:10Z</time>
      </trkpt>
      <trkpt lat="39.892205" lon="116.645679">
        <time>2021-10-12T12:46:15Z</time>
      </trkpt>
      <trkpt lat="39.892088" lon="116.64565">
        <time>2021-10-12T12:46:20Z</time>
      </trkpt>
      <trkpt lat="39.891973" lon="116.645568">
        <time>2021-10-12T12:46:25Z</time>
      </trkpt>
      <trkpt lat="39.89184" lon="116.645498">
        <time>2021-10-12T12:46:30Z</time>
      </trkpt>
      <trkpt lat="39.8917" lon="116.64542">
        <time>2021-10-12T12:46:35Z</time>
      </trkpt>
      <trkpt lat="39.891501" lon="116.645341">
        <time>2021-10-12T12:46:40Z</time>
      </trkpt>
      <trkpt lat="39.891492" lon="116.645369">
        <time>2021-10-12T12:46:45Z</time>
      </trkpt>
      <trkpt lat="39.891574" lon="116.645496">
        <time>2021-10-12T12:46:50Z</time>
      </trkpt>
      <trkpt lat="39.8917" lon="116.645536">
        <time>2021-10-12T12:46:55Z</time>
      </trkpt>
      <trkpt lat="39.89187" lon="116.645584">
        <time>2021-10-12T12:47:00Z</time>
      </trkpt>
      <trkpt lat="39.892026" lon="116.645633">
        <time>2021-10-12T12:47:05Z</time>
      </trkpt>
      <trkpt lat="39.892169" lon="116.645668">
        <time>2021-10-12T12:47:10Z</time>
      </trkpt>
      <trkpt lat="39.892286" lon="116.645721">
        <time>2021-10-12T12:47:15Z</time>
      </trkpt>
      <trkpt lat="39.892401" lon="116.645797">
        <time>2021-10-12T12:47:20Z</time>
      </trkpt>
      <trkpt lat="39.892547" lon="116.645848">
        <time>2021-10-12T12:47:25Z</time>
      </trkpt>
      <trkpt lat="39.892689" lon="116.645917">
        <time>2021-10-12T12:47:30Z</time>
      </trkpt>
      <trkpt lat="39.89284" lon="116.645977">
        <time>2021-10-12T12:47:35Z</time>
      </trkpt>
      <trkpt lat="39.892947" lon="116.646018">
        <time>2021-10-12T12:47:40Z</time>
      </trkpt>
      <trkpt lat="39.893072" lon="116.646029">
        <time>2021-10-12T12:47:45Z</time>
      </trkpt>
      <trkpt lat="39.89318" lon="116.646127">
        <time>2021-10-12T12:47:50Z</time>
      </trkpt>
      <trkpt lat="39.893288" lon="116.646201">
        <time>2021-10-12T12:47:55Z</time>
      </trkpt>
      <trkpt lat="39.893369" lon="116.646263">
        <time>2021-10-12T12:48:00Z</time>
      </trkpt>
      <trkpt lat="39.893471" lon="116.646352">
        <time>2021-10-12T12:48:05Z</time>
      </trkpt>
      <trkpt lat="39.893581" lon="116.646411">
        <time>2021-10-12T12:48:10Z</time>
      </trkpt>
      <trkpt lat="39.893699" lon="116.64635">
        <time>2021-10-12T12:48:15Z</time>
      </trkpt>
      <trkpt lat="39.893804" lon="116.646208">
        <time>2021-10-12T12:48:20Z</time>
      </trkpt>
      <trkpt lat="39.893903" lon="116.646102">
        <time>2021-10-12T12:48:25Z</time>
      </trkpt>
      <trkpt lat="39.893974" lon="116.646037">
        <time>2021-10-12T12:48:30Z</time>
      </trkpt>
      <trkpt lat="39.894067" lon="116.646015">
        <time>2021-10-12T12:48:35Z</time>
      </trkpt>
      <trkpt lat="39.894263" lon="116.646066">
        <time>2021-10-12T12:48:40Z</time>
      </trkpt>
      <trkpt lat="39.894285" lon="116.646071">
        <time>2021-10-12T12:48:45Z</time>
      </trkpt>
      <trkpt lat="39.894403" lon="116.646109">
        <time>2021-10-12T12:48:50Z</time>
      </trkpt>
      <trkpt lat="39.894509" lon="116.646164">
        <time>2021-10-12T12:48:55Z</time>
      </trkpt>
      <trkpt lat="39.894638" lon="116.646216">
        <time>2021-10-12T12:49:00Z</time>
      </trkpt>
      <trkpt lat="39.894761" lon="116.646275">
        <time>2021-10-12T12:49:05Z</time>
      </trkpt>
      <trkpt lat="39.894878" lon="116.646332">
        <time>2021-10-12T12:49:10Z</time>
      </trkpt>
      <trkpt lat="39.894963" lon="116.646368">
        <time>2021-10-12T12:49:15Z</time>
      </trkpt>
      <trkpt lat="39.895026" lon="116.646408">
        <time>2021-10-12T12:49:20Z</time>
      </trkpt>
      <trkpt lat="39.895128" lon="116.646492">
        <time>2021-10-12T12:49:25Z</time>
      </trkpt>
      <trkpt lat="39.895235" lon="116.646548">
        <time>2021-10-12T12:49:30Z</time>
      </trkpt>
      <trkpt lat="39.895333" lon="116.646594">
        <time>2021-10-12T12:49:35Z</time>
      </trkpt>
      <trkpt lat="39.895441" lon="116.646636">
        <time>2021-10-12T12:49:40Z</time>
      </trkpt>
      <trkpt lat="39.895538" lon="116.646682">
        <time>2021-10-12T12:49:45Z</time>
      </trkpt>
      <trkpt lat="39.895652" lon="116.646717">
        <time>2021-10-12T12:49:50Z</time>
      </trkpt>
      <trkpt lat="39.895762" lon="116.646774">
        <time>2021-10-12T12:49:55Z</time>
      </trkpt>
      <trkpt lat="39.895879" lon="116.646821">
        <time>2021-10-12T12:50:00Z</time>
      </trkpt>
      <trkpt lat="39.896004" lon="116.646829">
        <time>2021-10-12T12:50:05Z</time>
      </trkpt>
      <trkpt lat="39.89607" lon="116.646718">
        <time>2021-10-12T12:50:10Z</time>
      </trkpt>
      <trkpt lat="39.896074" lon="116.64657">
        <time>2021-10-12T12:50:15Z</time>
      </trkpt>
      <trkpt lat="39.896064" lon="116.64642">
        <time>2021-10-12T12:50:20Z</time>
      </trkpt>
      <trkpt lat="39.896063" lon="116.646264">
        <time>2021-10-12T12:50:25Z</time>
      </trkpt>
      <trkpt lat="39.896068" lon="116.646117">
        <time>2021-10-12T12:50:30Z</time>
      </trkpt>
      <trkpt lat="39.896066" lon="116.646006">
        <time>2021-10-12T12:50:35Z</time>
      </trkpt>
      <trkpt lat="39.896076" lon="116.645923">
        <time>2021-10-12T12:50:40Z</time>
      </trkpt>
      <trkpt lat="39.896093" lon="116.645863">
        <time>2021-10-12T12:50:45Z</time>
      </trkpt>
      <trkpt lat="39.896122" lon="116.645764">
        <time>2021-10-12T12:50:50Z</time>
      </trkpt>
      <trkpt lat="39.896164" lon="116.645685">
        <time>2021-10-12T12:50:55Z</time>
      </trkpt>
      <trkpt lat="39.896172" lon="116.645554">
        <time>2021-10-12T12:51:00Z</time>
      </trkpt>
      <trkpt lat="39.896163" lon="116.645392">
        <time>2021-10-12T12:51:05Z</time>
      </trkpt>
      <trkpt lat="39.896174" lon="116.645246">
        <time>2021-10-12T12:51:10Z</time>
      </trkpt>
      <trkpt lat="39.896174" lon="116.644955">
        <time>2021-10-12T12:51:15Z</time>
      </trkpt>
      <trkpt lat="39.896171" lon="116.644921">
        <time>2021-10-12T12:51:20Z</time>
      </trkpt>
      <trkpt lat="39.896184" lon="116.644764">
        <time>2021-10-12T12:51:25Z</time>
      </trkpt>
      <trkpt lat="39.896191" lon="116.644615">
        <time>2021-10-12T12:51:30Z</time>
      </trkpt>
      <trkpt lat="39.89618" lon="116.644473">
        <time>2021-10-12T12:51:35Z</time>
      </trkpt>
      <trkpt lat="39.89617" lon="116.644347">
        <time>2021-10-12T12:51:40Z</time>
      </trkpt>
      <trkpt lat="39.896158" lon="116.644198">
        <time>2021-10-12T12:51:45Z</time>
      </trkpt>
      <trkpt lat="39.896165" lon="116.64404">
        <time>2021-10-12T12:51:50Z</time>
      </trkpt>
      <trkpt lat="39.896162" lon="116.6439">
        <time>2021-10-12T12:51:55Z</time>
      </trkpt>
      <trkpt lat="39.89618" lon="116.643761">
        <time>2021-10-12T12:52:00Z</time>
      </trkpt>
      <trkpt lat="39.896202" lon="116.643632">
        <time>2021-10-12T12:52:05Z</time>
      </trkpt>
      <trkpt lat="39.896192" lon="116.643501">
        <time>2021-10-12T12:52:10Z</time>
      </trkpt>
      <trkpt lat="39.896175" lon="116.643362">
        <time>2021-10-12T12:52:15Z</time>
      </trkpt>
      <trkpt lat="39.896177" lon="116.643109">
        <time>2021-10-12T12:52:20Z</time>
      </trkpt>
      <trkpt lat="39.896181" lon="116.643082">
        <time>2021-10-12T12:52:25Z</time>
      </trkpt>
      <trkpt lat="39.896178" lon="116.642922">
        <time>2021-10-12T12:52:30Z</time>
      </trkpt>
      <trkpt lat="39.89618" lon="116.642758">
        <time>2021-10-12T12:52:35Z</time>
      </trkpt>
      <trkpt lat="39.896186" lon="116.642584">
        <time>2021-10-12T12:52:40Z</time>
      </trkpt>
      <trkpt lat="39.896197" lon="116.642487">
        <time>2021-10-12T12:52:45Z</time>
      </trkpt>
      <trkpt lat="39.896201" lon="116.642312">
        <time>2021-10-12T12:52:50Z</time>
      </trkpt>
      <trkpt lat="39.896221" lon="116.64215">
        <time>2021-10-12T12:52:55Z</time>
      </trkpt>
      <trkpt lat="39.896215" lon="116.641994">
        <time>2021-10-12T12:53:00Z</time>
      </trkpt>
      <trkpt lat="39.896215" lon="116.641839">
        <time>2021-10-12T12:53:05Z</time>
      </trkpt>
      <trkpt lat="39.896201" lon="116.641589">
        <time>2021-10-12T12:53:10Z</time>
      </trkpt>
      <trkpt lat="39.896208" lon="116.64152">
        <time>2021-10-12T12:53:15Z</time>
      </trkpt>
      <trkpt lat="39.896232" lon="116.641404">
        <time>2021-10-12T12:53:20Z</time>
      </trkpt>
      <trkpt lat="39.896228" lon="116.641294">
        <time>2021-10-12T12:53:25Z</time>
      </trkpt>
      <trkpt lat="39.896227" lon="116.64116">
        <time>2021-10-12T12:53:30Z</time>
      </trkpt>
      <trkpt lat="39.896234" lon="116.641013">
        <time>2021-10-12T12:53:35Z</time>
      </trkpt>
      <trkpt lat="39.896239" lon="116.64087">
        <time>2021-10-12T12:53:40Z</time>
      </trkpt>
      <trkpt lat="39.896231" lon="116.640705">
        <time>2021-10-12T12:53:45Z</time>
      </trkpt>
      <trkpt lat="39.89624" lon="116.640559">
        <time>2021-10-12T12:53:50Z</time>
      </trkpt>
      <trkpt lat="39.896255" lon="116.640423">
        <time>2021-10-12T12:53:55Z</time>
      </trkpt>
      <trkpt lat="39.896344" lon="116.640401">
        <time>2021-10-12T12:54:00Z</time>
      </trkpt>
      <trkpt lat="39.896429" lon="116.640486">
        <time>2021-10-12T12:54:05Z</time>
      </trkpt>
      <trkpt lat="39.89659" lon="116.640533">
        <time>2021-10-12T12:54:10Z</time>
      </trkpt>
      <trkpt lat="39.896769" lon="116.640572">
        <time>2021-10-12T12:54:15Z</time>
      </trkpt>
      <trkpt lat="39.896898" lon="116.640617">
        <time>2021-10-12T12:54:20Z</time>
      </trkpt>
      <trkpt lat="39.896998" lon="116.64069">
        <time>2021-10-12T12:54:25Z</time>
      </trkpt>
      <trkpt lat="39.897139" lon="116.640757">
        <time>2021-10-12T12:54:30Z</time>
      </trkpt>
      <trkpt lat="39.897153" lon="116.640754">
        <time>2021-10-12T12:54:35Z</time>
      </trkpt>
      <trkpt lat="39.897224" lon="116.640791">
        <time>2021-10-12T12:54:40Z</time>
      </trkpt>
      <trkpt lat="39.89733" lon="116.640847">
        <time>2021-10-12T12:54:45Z</time>
      </trkpt>
      <trkpt lat="39.897393" lon="116.640881">
        <time>2021-10-12T12:54:50Z</time>
      </trkpt>
      <trkpt lat="39.897479" lon="116.640935">
        <time>2021-10-12T12:54:55Z</time>
      </trkpt>
      <trkpt lat="39.897616" lon="116.641018">
        <time>2021-10-12T12:55:00Z</time>
      </trkpt>
      <trkpt lat="39.897724" lon="116.64107">
        <time>2021-10-12T12:55:05Z</time>
      </trkpt>
      <trkpt lat="39.897839" lon="116.641128">
        <time>2021-10-12T12:55:10Z</time>
      </trkpt>
      <trkpt lat="39.897944" lon="116.6412">
        <time>2021-10-12T12:55:15Z</time>
      </trkpt>
      <trkpt lat="39.898083" lon="116.641275">
        <time>2021-10-12T12:55:20Z</time>
      </trkpt>
      <trkpt lat="39.898204" lon="116.641339">
        <time>2021-10-12T12:55:25Z</time>
      </trkpt>
      <trkpt lat="39.898318" lon="116.641408">
        <time>2021-10-12T12:55:30Z</time>
      </trkpt>
      <trkpt lat="39.898396" lon="116.641476">
        <time>2021-10-12T12:55:35Z</time>
      </trkpt>
      <trkpt lat="39.898386" lon="116.641641">
        <time>2021-10-12T12:55:40Z</time>
      </trkpt>
      <trkpt lat="39.898361" lon="116.641797">
        <time>2021-10-12T12:55:45Z</time>
      </trkpt>
      <trkpt lat="39.898329" lon="116.641955">
        <time>2021-10-12T12:55:50Z</time>
      </trkpt>
      <trkpt lat="39.898288" lon="116.64213">
        <time>2021-10-12T12:55:55Z</time>
      </trkpt>
      <trkpt lat="39.898251" lon="116.642293">
        <time>2021-10-12T12:56:00Z</time>
      </trkpt>
      <trkpt lat="39.898229" lon="116.642441">
        <time>2021-10-12T12:56:05Z</time>
      </trkpt>
      <trkpt lat="39.898212" lon="116.64268">
        <time>2021-10-12T12:56:10Z</time>
      </trkpt>
      <trkpt lat="39.898231" lon="116.642799">
        <time>2021-10-12T12:56:15Z</time>
      </trkpt>
      <trkpt lat="39.89821" lon="116.642964">
        <time>2021-10-12T12:56:20Z</time>
      </trkpt>
      <trkpt lat="39.898201" lon="116.643135">
        <time>2021-10-12T12:56:25Z</time>
      </trkpt>
      <trkpt lat="39.8982" lon="116.6433">
        <time>2021-10-12T12:56:30Z</time>
      </trkpt>
      <trkpt lat="39.898223" lon="116.643462">
        <time>2021-10-12T12:56:35Z</time>
      </trkpt>
      <trkpt lat="39.898228" lon="116.643631">
        <time>2021-10-12T12:56:40Z</time>
      </trkpt>
      <trkpt lat="39.898243" lon="116.643772">
        <time>2021-10-12T12:56:45Z</time>
      </trkpt>
      <trkpt lat="39.89825" lon="116.643927">
        <time>2021-10-12T12:56:50Z</time>
      </trkpt>
      <trkpt lat="39.898291" lon="116.644055">
        <time>2021-10-12T12:56:55Z</time>
      </trkpt>
      <trkpt lat="39.898283" lon="116.644208">
        <time>2021-10-12T12:57:00Z</time>
      </trkpt>
      <trkpt lat="39.898322" lon="116.644388">
        <time>2021-10-12T12:57:05Z</time>
      </trkpt>
      <trkpt lat="39.898387" lon="116.644552">
        <time>2021-10-12T12:57:10Z</time>
      </trkpt>
      <trkpt lat="39.898406" lon="116.644743">
        <time>2021-10-12T12:57:15Z</time>
      </trkpt>
      <trkpt lat="39.898455" lon="116.645079">
        <time>2021-10-12T12:57:20Z</time>
      </trkpt>
      <trkpt lat="39.898454" lon="116.645105">
        <time>2021-10-12T12:57:25Z</time>
      </trkpt>
      <trkpt lat="39.898441" lon="116.645253">
        <time>2021-10-12T12:57:30Z</time>
      </trkpt>
      <trkpt lat="39.898509" lon="116.645413">
        <time>2021-10-12T12:57:35Z</time>
      </trkpt>
      <trkpt lat="39.898578" lon="116.645581">
        <time>2021-10-12T12:57:40Z</time>
      </trkpt>
      <trkpt lat="39.898623" lon="116.645733">
        <time>2021-10-12T12:57:45Z</time>
      </trkpt>
      <trkpt lat="39.898682" lon="116.645917">
        <time>2021-10-12T12:57:50Z</time>
      </trkpt>
      <trkpt lat="39.898686" lon="116.64611">
        <time>2021-10-12T12:57:55Z</time>
      </trkpt>
      <trkpt lat="39.898708" lon="116.646265">
        <time>2021-10-12T12:58:00Z</time>
      </trkpt>
      <trkpt lat="39.898719" lon="116.646383">
        <time>2021-10-12T12:58:05Z</time>
      </trkpt>
      <trkpt lat="39.898768" lon="116.646493">
        <time>2021-10-12T12:58:10Z</time>
      </trkpt>
      <trkpt lat="39.898801" lon="116.646547">
        <time>2021-10-12T12:58:15Z</time>
      </trkpt>
      <trkpt lat="39.898838" lon="116.646638">
        <time>2021-10-12T12:58:20Z</time>
      </trkpt>
      <trkpt lat="39.898874" lon="116.646747">
        <time>2021-10-12T12:58:25Z</time>
      </trkpt>
      <trkpt lat="39.898893" lon="116.646866">
        <time>2021-10-12T12:58:30Z</time>
      </trkpt>
      <trkpt lat="39.898913" lon="116.647017">
        <time>2021-10-12T12:58:35Z</time>
      </trkpt>
      <trkpt lat="39.898927" lon="116.647165">
        <time>2021-10-12T12:58:40Z</time>
      </trkpt>
      <trkpt lat="39.898987" lon="116.647355">
        <time>2021-10-12T12:58:45Z</time>
      </trkpt>
      <trkpt lat="39.899053" lon="116.647541">
        <time>2021-10-12T12:58:50Z</time>
      </trkpt>
      <trkpt lat="39.899081" lon="116.647745">
        <time>2021-10-12T12:58:55Z</time>
      </trkpt>
      <trkpt lat="39.899099" lon="116.647926">
        <time>2021-10-12T12:59:00Z</time>
      </trkpt>
      <trkpt lat="39.899093" lon="116.648105">
        <time>2021-10-12T12:59:05Z</time>
      </trkpt>
      <trkpt lat="39.899078" lon="116.648275">
        <time>2021-10-12T12:59:10Z</time>
      </trkpt>
      <trkpt lat="39.899046" lon="116.648438">
        <time>2021-10-12T12:59:15Z</time>
      </trkpt>
      <trkpt lat="39.899043" lon="116.648595">
        <time>2021-10-12T12:59:20Z</time>
      </trkpt>
      <trkpt lat="39.899083" lon="116.648793">
        <time>2021-10-12T12:59:25Z</time>
      </trkpt>
      <trkpt lat="39.899098" lon="116.64898">
        <time>2021-10-12T12:59:30Z</time>
      </trkpt>
      <trkpt lat="39.899092" lon="116.649094">
        <time>2021-10-12T12:59:35Z</time>
      </trkpt>
      <trkpt lat="39.89908" lon="116.649146">
        <time>2021-10-12T12:59:40Z</time>
      </trkpt>
      <trkpt lat="39.89908" lon="116.649255">
        <time>2021-10-12T12:59:45Z</time>
      </trkpt>
      <trkpt lat="39.89908" lon="116.649255">
        <time>2021-10-12T12:59:50Z</time>
      </trkpt>
      <trkpt lat="39.899001" lon="116.649358">
        <time>2021-10-12T12:59:55Z</time>
      </trkpt>
      <trkpt lat="39.899001" lon="116.649473">
        <time>2021-10-12T13:00:00Z</time>
      </trkpt>
      <trkpt lat="39.899064" lon="116.64968">
        <time>2021-10-12T13:00:05Z</time>
      </trkpt>
      <trkpt lat="39.89911" lon="116.649911">
        <time>2021-10-12T13:00:10Z</time>
      </trkpt>
      <trkpt lat="39.899085" lon="116.650097">
        <time>2021-10-12T13:00:15Z</time>
      </trkpt>
      <trkpt lat="39.899076" lon="116.65026">
        <time>2021-10-12T13:00:20Z</time>
      </trkpt>
      <trkpt lat="39.899077" lon="116.650397">
        <time>2021-10-12T13:00:25Z</time>
      </trkpt>
      <trkpt lat="39.899086" lon="116.650575">
        <time>2021-10-12T13:00:30Z</time>
      </trkpt>
      <trkpt lat="39.899077" lon="116.650714">
        <time>2021-10-12T13:00:35Z</time>
      </trkpt>
      <trkpt lat="39.899081" lon="116.65087">
        <time>2021-10-12T13:00:40Z</time>
      </trkpt>
      <trkpt lat="39.899119" lon="116.651051">
        <time>2021-10-12T13:00:45Z</time>
      </trkpt>
      <trkpt lat="39.899198" lon="116.651204">
        <time>2021-10-12T13:00:50Z</time>
      </trkpt>
      <trkpt lat="39.899137" lon="116.651272">
        <time>2021-10-12T13:00:55Z</time>
      </trkpt>
      <trkpt lat="39.899079" lon="116.65134">
        <time>2021-10-12T13:01:00Z</time>
      </trkpt>
      <trkpt lat="39.89901" lon="116.651421">
        <time>2021-10-12T13:01:05Z</time>
      </trkpt>
      <trkpt lat="39.899018" lon="116.65143">
        <time>2021-10-12T13:01:10Z</time>
      </trkpt>
      <trkpt lat="39.899024" lon="116.651325">
        <time>2021-10-12T13:01:15Z</time>
      </trkpt>
      <trkpt lat="39.899027" lon="116.651185">
        <time>2021-10-12T13:01:20Z</time>
      </trkpt>
      <trkpt lat="39.898961" lon="116.651054">
        <time>2021-10-12T13:01:25Z</time>
      </trkpt>
      <trkpt lat="39.898894" lon="116.650909">
        <time>2021-10-12T13:01:30Z</time>
      </trkpt>
      <trkpt lat="39.898907" lon="116.65072">
        <time>2021-10-12T13:01:35Z</time>
      </trkpt>
      <trkpt lat="39.898948" lon="116.650529">
        <time>2021-10-12T13:01:40Z</time>
      </trkpt>
      <trkpt lat="39.898953" lon="116.650354">
        <time>2021-10-12T13:01:45Z</time>
      </trkpt>
      <trkpt lat="39.898979" lon="116.650188">
        <time>2021-10-12T13:01:50Z</time>
      </trkpt>
      <trkpt lat="39.898953" lon="116.650002">
        <time>2021-10-12T13:01:55Z</time>
      </trkpt>
      <trkpt lat="39.898958" lon="116.649842">
        <time>2021-10-12T13:02:00Z</time>
      </trkpt>
      <trkpt lat="39.898967" lon="116.64967">
        <time>2021-10-12T13:02:05Z</time>
      </trkpt>
      <trkpt lat="39.898944" lon="116.649484">
        <time>2021-10-12T13:02:10Z</time>
      </trkpt>
      <trkpt lat="39.898947" lon="116.649308">
        <time>2021-10-12T13:02:15Z</time>
      </trkpt>
      <trkpt lat="39.89893" lon="116.649132">
        <time>2021-10-12T13:02:20Z</time>
      </trkpt>
      <trkpt lat="39.898951" lon="116.648938">
        <time>2021-10-12T13:02:25Z</time>
      </trkpt>
      <trkpt lat="39.898946" lon="116.648751">
        <time>2021-10-12T13:02:30Z</time>
      </trkpt>
      <trkpt lat="39.898977" lon="116.64859">
        <time>2021-10-12T13:02:35Z</time>
      </trkpt>
      <trkpt lat="39.899016" lon="116.648407">
        <time>2021-10-12T13:02:40Z</time>
      </trkpt>
      <trkpt lat="39.899011" lon="116.648247">
        <time>2021-10-12T13:02:45Z</time>
      </trkpt>
      <trkpt lat="39.899045" lon="116.648061">
        <time>2021-10-12T13:02:50Z</time>
      </trkpt>
      <trkpt lat="39.899026" lon="116.647918">
        <time>2021-10-12T13:02:55Z</time>
      </trkpt>
      <trkpt lat="39.898992" lon="116.647822">
        <time>2021-10-12T13:03:00Z</time>
      </trkpt>
      <trkpt lat="39.898968" lon="116.647694">
        <time>2021-10-12T13:03:05Z</time>
      </trkpt>
      <trkpt lat="39.898942" lon="116.647523">
        <time>2021-10-12T13:03:10Z</time>
      </trkpt>
      <trkpt lat="39.89897" lon="116.647356">
        <time>2021-10-12T13:03:15Z</time>
      </trkpt>
      <trkpt lat="39.898928" lon="116.6472">
        <time>2021-10-12T13:03:20Z</time>
      </trkpt>
      <trkpt lat="39.898865" lon="116.647033">
        <time>2021-10-12T13:03:25Z</time>
      </trkpt>
      <trkpt lat="39.898838" lon="116.646834">
        <time>2021-10-12T13:03:30Z</time>
      </trkpt>
      <trkpt lat="39.898814" lon="116.64663">
        <time>2021-10-12T13:03:35Z</time>
      </trkpt>
      <trkpt lat="39.898787" lon="116.646435">
        <time>2021-10-12T13:03:40Z</time>
      </trkpt>
      <trkpt lat="39.898771" lon="116.646326">
        <time>2021-10-12T13:03:45Z</time>
      </trkpt>
      <trkpt lat="39.898735" lon="116.646257">
        <time>2021-10-12T13:03:50Z</time>
      </trkpt>
      <trkpt lat="39.898707" lon="116.646157">
        <time>2021-10-12T13:03:55Z</time>
      </trkpt>
      <trkpt lat="39.898681" lon="116.646077">
        <time>2021-10-12T13:04:00Z</time>
      </trkpt>
      <trkpt lat="39.898621" lon="116.645986">
        <time>2021-10-12T13:04:05Z</time>
      </trkpt>
      <trkpt lat="39.898587" lon="116.645895">
        <time>2021-10-12T13:04:10Z</time>
      </trkpt>
      <trkpt lat="39.898531" lon="116.645792">
        <time>2021-10-12T13:04:15Z</time>
      </trkpt>
      <trkpt lat="39.89848" lon="116.645641">
        <time>2021-10-12T13:04:20Z</time>
      </trkpt>
      <trkpt lat="39.898413" lon="116.645514">
        <time>2021-10-12T13:04:25Z</time>
      </trkpt>
      <trkpt lat="39.898363" lon="116.645394">
        <time>2021-10-12T13:04:30Z</time>
      </trkpt>
      <trkpt lat="39.898345" lon="116.645233">
        <time>2021-10-12T13:04:35Z</time>
      </trkpt>
      <trkpt lat="39.898315" lon="116.64509">
        <time>2021-10-12T13:04:40Z</time>
      </trkpt>
      <trkpt lat="39.89841" lon="116.644924">
        <time>2021-10-12T13:04:45Z</time>
      </trkpt>
      <trkpt lat="39.898398" lon="116.644776">
        <time>2021-10-12T13:04:50Z</time>
      </trkpt>
      <trkpt lat="39.898391" lon="116.644632">
        <time>2021-10-12T13:04:55Z</time>
      </trkpt>
      <trkpt lat="39.8984" lon="116.644395">
        <time>2021-10-12T13:05:00Z</time>
      </trkpt>
      <trkpt lat="39.89839" lon="116.644277">
        <time>2021-10-12T13:05:05Z</time>
      </trkpt>
      <trkpt lat="39.898301" lon="116.644148">
        <time>2021-10-12T13:05:10Z</time>
      </trkpt>
      <trkpt lat="39.898267" lon="116.643981">
        <time>2021-10-12T13:05:15Z</time>
      </trkpt>
      <trkpt lat="39.898256" lon="116.643814">
        <time>2021-10-12T13:05:20Z</time>
      </trkpt>
      <trkpt lat="39.898256" lon="116.643653">
        <time>2021-10-12T13:05:25Z</time>
      </trkpt>
      <trkpt lat="39.898267" lon="116.643519">
        <time>2021-10-12T13:05:30Z</time>
      </trkpt>
      <trkpt lat="39.898253" lon="116.643454">
        <time>2021-10-12T13:05:35Z</time>
      </trkpt>
      <trkpt lat="39.898271" lon="116.64335">
        <time>2021-10-12T13:05:40Z</time>
      </trkpt>
      <trkpt lat="39.898263" lon="116.643112">
        <time>2021-10-12T13:05:45Z</time>
      </trkpt>
      <trkpt lat="39.898256" lon="116.643083">
        <time>2021-10-12T13:05:50Z</time>
      </trkpt>
      <trkpt lat="39.898252" lon="116.64294">
        <time>2021-10-12T13:05:55Z</time>
      </trkpt>
      <trkpt lat="39.898247" lon="116.642793">
        <time>2021-10-12T13:06:00Z</time>
      </trkpt>
      <trkpt lat="39.89825" lon="116.642627">
        <time>2021-10-12T13:06:05Z</time>
      </trkpt>
      <trkpt lat="39.898281" lon="116.642438">
        <time>2021-10-12T13:06:10Z</time>
      </trkpt>
      <trkpt lat="39.898346" lon="116.642137">
        <time>2021-10-12T13:06:15Z</time>
      </trkpt>
      <trkpt lat="39.898348" lon="116.642113">
        <time>2021-10-12T13:06:20Z</time>
      </trkpt>
      <trkpt lat="39.898346" lon="116.641964">
        <time>2021-10-12T13:06:25Z</time>
      </trkpt>
      <trkpt lat="39.898366" lon="116.641827">
        <time>2021-10-12T13:06:30Z</time>
      </trkpt>
      <trkpt lat="39.898369" lon="116.641767">
        <time>2021-10-12T13:06:35Z</time>
      </trkpt>
      <trkpt lat="39.898394" lon="116.641669">
        <time>2021-10-12T13:06:40Z</time>
      </trkpt>
      <trkpt lat="39.898472" lon="116.641537">
        <time>2021-10-12T13:06:45Z</time>
      </trkpt>
      <trkpt lat="39.898439" lon="116.641419">
        <time>2021-10-12T13:06:50Z</time>
      </trkpt>
      <trkpt lat="39.898342" lon="116.641271">
        <time>2021-10-12T13:06:55Z</time>
      </trkpt>
      <trkpt lat="39.898201" lon="116.64121">
        <time>2021-10-12T13:07:00Z</time>
      </trkpt>
      <trkpt lat="39.898052" lon="116.641183">
        <time>2021-10-12T13:07:05Z</time>
      </trkpt>
      <trkpt lat="39.897908" lon="116.641125">
        <time>2021-10-12T13:07:10Z</time>
      </trkpt>
      <trkpt lat="39.897755" lon="116.641073">
        <time>2021-10-12T13:07:15Z</time>
      </trkpt>
      <trkpt lat="39.897641" lon="116.641027">
        <time>2021-10-12T13:07:20Z</time>
      </trkpt>
      <trkpt lat="39.897581" lon="116.640921">
        <time>2021-10-12T13:07:25Z</time>
      </trkpt>
      <trkpt lat="39.897495" lon="116.640818">
        <time>2021-10-12T13:07:30Z</time>
      </trkpt>
      <trkpt lat="39.897425" lon="116.640861">
        <time>2021-10-12T13:07:35Z</time>
      </trkpt>
      <trkpt lat="39.897387" lon="116.640849">
        <time>2021-10-12T13:07:40Z</time>
      </trkpt>
      <trkpt lat="39.897335" lon="116.640772">
        <time>2021-10-12T13:07:45Z</time>
      </trkpt>
      <trkpt lat="39.897246" lon="116.640674">
        <time>2021-10-12T13:07:50Z</time>
      </trkpt>
      <trkpt lat="39.897153" lon="116.64065">
        <time>2021-10-12T13:07:55Z</time>
      </trkpt>
      <trkpt lat="39.897034" lon="116.640632">
        <time>2021-10-12T13:08:00Z</time>
      </trkpt>
      <trkpt lat="39.896915" lon="116.640607">
        <time>2021-10-12T13:08:05Z</time>
      </trkpt>
      <trkpt lat="39.896813" lon="116.640559">
        <time>2021-10-12T13:08:10Z</time>
      </trkpt>
      <trkpt lat="39.896693" lon="116.64051">
        <time>2021-10-12T13:08:15Z</time>
      </trkpt>
      <trkpt lat="39.896569" lon="116.640457">
        <time>2021-10-12T13:08:20Z</time>
      </trkpt>
      <trkpt lat="39.896463" lon="116.640429">
        <time>2021-10-12T13:08:25Z</time>
      </trkpt>
      <trkpt lat="39.896359" lon="116.640436">
        <time>2021-10-12T13:08:30Z</time>
      </trkpt>
      <trkpt lat="39.896269" lon="116.640369">
        <time>2021-10-12T13:08:35Z</time>
      </trkpt>
      <trkpt lat="39.896295" lon="116.640163">
        <time>2021-10-12T13:08:40Z</time>
      </trkpt>
      <trkpt lat="39.896293" lon="116.639982">
        <time>2021-10-12T13:08:45Z</time>
      </trkpt>
      <trkpt lat="39.896276" lon="116.639796">
        <time>2021-10-12T13:08:50Z</time>
      </trkpt>
      <trkpt lat="39.89628" lon="116.639629">
        <time>2021-10-12T13:08:55Z</time>
      </trkpt>
      <trkpt lat="39.89627" lon="116.63945">
        <time>2021-10-12T13:09:00Z</time>
      </trkpt>
      <trkpt lat="39.896268" lon="116.639277">
        <time>2021-10-12T13:09:05Z</time>
      </trkpt>
      <trkpt lat="39.896262" lon="116.639145">
        <time>2021-10-12T13:09:10Z</time>
      </trkpt>
      <trkpt lat="39.896258" lon="116.639048">
        <time>2021-10-12T13:09:15Z</time>
      </trkpt>
      <trkpt lat="39.896252" lon="116.638947">
        <time>2021-10-12T13:09:20Z</time>
      </trkpt>
      <trkpt lat="39.896225" lon="116.638865">
        <time>2021-10-12T13:09:25Z</time>
      </trkpt>
      <trkpt lat="39.896205" lon="116.638745">
        <time>2021-10-12T13:09:30Z</time>
      </trkpt>
      <trkpt lat="39.896177" lon="116.63862">
        <time>2021-10-12T13:09:35Z</time>
      </trkpt>
      <trkpt lat="39.896141" lon="116.638479">
        <time>2021-10-12T13:09:40Z</time>
      </trkpt>
      <trkpt lat="39.896136" lon="116.638313">
        <time>2021-10-12T13:09:45Z</time>
      </trkpt>
      <trkpt lat="39.896148" lon="116.638132">
        <time>2021-10-12T13:09:50Z</time>
      </trkpt>
      <trkpt lat="39.896149" lon="116.637968">
        <time>2021-10-12T13:09:55Z</time>
      </trkpt>
      <trkpt lat="39.896156" lon="116.637795">
        <time>2021-10-12T13:10:00Z</time>
      </trkpt>
      <trkpt lat="39.896153" lon="116.637613">
        <time>2021-10-12T13:10:05Z</time>
      </trkpt>
      <trkpt lat="39.896145" lon="116.637452">
        <time>2021-10-12T13:10:10Z</time>
      </trkpt>
      <trkpt lat="39.89615" lon="116.637276">
        <time>2021-10-12T13:10:15Z</time>
      </trkpt>
      <trkpt lat="39.896135" lon="116.637103">
        <time>2021-10-12T13:10:20Z</time>
      </trkpt>
      <trkpt lat="39.896128" lon="116.636941">
        <time>2021-10-12T13:10:25Z</time>
      </trkpt>
      <trkpt lat="39.896081" lon="116.636712">
        <time>2021-10-12T13:10:30Z</time>
      </trkpt>
      <trkpt lat="39.896059" lon="116.636673">
        <time>2021-10-12T13:10:35Z</time>
      </trkpt>
      <trkpt lat="39.896026" lon="116.636682">
        <time>2021-10-12T13:10:40Z</time>
      </trkpt>
      <trkpt lat="39.89606" lon="116.636785">
        <time>2021-10-12T13:10:45Z</time>
      </trkpt>
      <trkpt lat="39.896092" lon="116.636893">
        <time>2021-10-12T13:10:50Z</time>
      </trkpt>
      <trkpt lat="39.896093" lon="116.637083">
        <time>2021-10-12T13:10:55Z</time>
      </trkpt>
      <trkpt lat="39.896096" lon="116.637127">
        <time>2021-10-12T13:11:00Z</time>
      </trkpt>
      <trkpt lat="39.896123" lon="116.637226">
        <time>2021-10-12T13:11:05Z</time>
      </trkpt>
      <trkpt lat="39.89616" lon="116.63734">
        <time>2021-10-12T13:11:10Z</time>
      </trkpt>
      <trkpt lat="39.89618" lon="116.63746">
        <time>2021-10-12T13:11:15Z</time>
      </trkpt>
      <trkpt lat="39.896153" lon="116.637579">
        <time>2021-10-12T13:11:20Z</time>
      </trkpt>
      <trkpt lat="39.896173" lon="116.637707">
        <time>2021-10-12T13:11:25Z</time>
      </trkpt>
      <trkpt lat="39.896217" lon="116.637897">
        <time>2021-10-12T13:11:30Z</time>
      </trkpt>
      <trkpt lat="39.896201" lon="116.63808">
        <time>2021-10-12T13:11:35Z</time>
      </trkpt>
      <trkpt lat="39.896197" lon="116.638233">
        <time>2021-10-12T13:11:40Z</time>
      </trkpt>
      <trkpt lat="39.896206" lon="116.638383">
        <time>2021-10-12T13:11:45Z</time>
      </trkpt>
      <trkpt lat="39.896201" lon="116.638517">
        <time>2021-10-12T13:11:50Z</time>
      </trkpt>
      <trkpt lat="39.896225" lon="116.638647">
        <time>2021-10-12T13:11:55Z</time>
      </trkpt>
      <trkpt lat="39.896227" lon="116.638745">
        <time>2021-10-12T13:12:00Z</time>
      </trkpt>
      <trkpt lat="39.896217" lon="116.638819">
        <time>2021-10-12T13:12:05Z</time>
      </trkpt>
      <trkpt lat="39.896243" lon="116.638879">
        <time>2021-10-12T13:12:10Z</time>
      </trkpt>
      <trkpt lat="39.896278" lon="116.638972">
        <time>2021-10-12T13:12:15Z</time>
      </trkpt>
      <trkpt lat="39.896284" lon="116.639072">
        <time>2021-10-12T13:12:20Z</time>
      </trkpt>
      <trkpt lat="39.896284" lon="116.639202">
        <time>2021-10-12T13:12:25Z</time>
      </trkpt>
      <trkpt lat="39.896278" lon="116.63931">
        <time>2021-10-12T13:12:30Z</time>
      </trkpt>
      <trkpt lat="39.89628" lon="116.639487">
        <time>2021-10-12T13:12:35Z</time>
      </trkpt>
      <trkpt lat="39.896275" lon="116.639646">
        <time>2021-10-12T13:12:40Z</time>
      </trkpt>
      <trkpt lat="39.896269" lon="116.639804">
        <time>2021-10-12T13:12:45Z</time>
      </trkpt>
      <trkpt lat="39.896284" lon="116.639961">
        <time>2021-10-12T13:12:50Z</time>
      </trkpt>
      <trkpt lat="39.896284" lon="116.640122">
        <time>2021-10-12T13:12:55Z</time>
      </trkpt>
      <trkpt lat="39.896264" lon="116.640275">
        <time>2021-10-12T13:13:00Z</time>
      </trkpt>
      <trkpt lat="39.896239" lon="116.640414">
        <time>2021-10-12T13:13:05Z</time>
      </trkpt>
      <trkpt lat="39.896217" lon="116.640582">
        <time>2021-10-12T13:13:10Z</time>
      </trkpt>
      <trkpt lat="39.89623" lon="116.640783">
        <time>2021-10-12T13:13:15Z</time>
      </trkpt>
      <trkpt lat="39.896226" lon="116.640886">
        <time>2021-10-12T13:13:20Z</time>
      </trkpt>
      <trkpt lat="39.896236" lon="116.641014">
        <time>2021-10-12T13:13:25Z</time>
      </trkpt>
      <trkpt lat="39.896235" lon="116.641105">
        <time>2021-10-12T13:13:30Z</time>
      </trkpt>
      <trkpt lat="39.896226" lon="116.641182">
        <time>2021-10-12T13:13:35Z</time>
      </trkpt>
      <trkpt lat="39.896232" lon="116.641319">
        <time>2021-10-12T13:13:40Z</time>
      </trkpt>
      <trkpt lat="39.896237" lon="116.641467">
        <time>2021-10-12T13:13:45Z</time>
      </trkpt>
      <trkpt lat="39.896229" lon="116.641634">
        <time>2021-10-12T13:13:50Z</time>
      </trkpt>
      <trkpt lat="39.896204" lon="116.641761">
        <time>2021-10-12T13:13:55Z</time>
      </trkpt>
      <trkpt lat="39.896219" lon="116.641861">
        <time>2021-10-12T13:14:00Z</time>
      </trkpt>
      <trkpt lat="39.896224" lon="116.64207">
        <time>2021-10-12T13:14:05Z</time>
      </trkpt>
      <trkpt lat="39.896227" lon="116.642114">
        <time>2021-10-12T13:14:10Z</time>
      </trkpt>
      <trkpt lat="39.896238" lon="116.642213">
        <time>2021-10-12T13:14:15Z</time>
      </trkpt>
      <trkpt lat="39.896234" lon="116.642295">
        <time>2021-10-12T13:14:20Z</time>
      </trkpt>
      <trkpt lat="39.896211" lon="116.642411">
        <time>2021-10-12T13:14:25Z</time>
      </trkpt>
      <trkpt lat="39.896214" lon="116.642573">
        <time>2021-10-12T13:14:30Z</time>
      </trkpt>
      <trkpt lat="39.896213" lon="116.642735">
        <time>2021-10-12T13:14:35Z</time>
      </trkpt>
      <trkpt lat="39.896205" lon="116.642894">
        <time>2021-10-12T13:14:40Z</time>
      </trkpt>
      <trkpt lat="39.896193" lon="116.643075">
        <time>2021-10-12T13:14:45Z</time>
      </trkpt>
      <trkpt lat="39.89617" lon="116.643337">
        <time>2021-10-12T13:14:50Z</time>
      </trkpt>
      <trkpt lat="39.896176" lon="116.643367">
        <time>2021-10-12T13:14:55Z</time>
      </trkpt>
      <trkpt lat="39.896208" lon="116.643542">
        <time>2021-10-12T13:15:00Z</time>
      </trkpt>
      <trkpt lat="39.896235" lon="116.643689">
        <time>2021-10-12T13:15:05Z</time>
      </trkpt>
      <trkpt lat="39.8962" lon="116.643826">
        <time>2021-10-12T13:15:10Z</time>
      </trkpt>
      <trkpt lat="39.896189" lon="116.643982">
        <time>2021-10-12T13:15:15Z</time>
      </trkpt>
      <trkpt lat="39.89619" lon="116.644136">
        <time>2021-10-12T13:15:20Z</time>
      </trkpt>
      <trkpt lat="39.89619" lon="116.644303">
        <time>2021-10-12T13:15:25Z</time>
      </trkpt>
      <trkpt lat="39.896162" lon="116.644585">
        <time>2021-10-12T13:15:30Z</time>
      </trkpt>
      <trkpt lat="39.896166" lon="116.644613">
        <time>2021-10-12T13:15:35Z</time>
      </trkpt>
      <trkpt lat="39.896192" lon="116.644751">
        <time>2021-10-12T13:15:40Z</time>
      </trkpt>
      <trkpt lat="39.896196" lon="116.644925">
        <time>2021-10-12T13:15:45Z</time>
      </trkpt>
      <trkpt lat="39.896184" lon="116.645105">
        <time>2021-10-12T13:15:50Z</time>
      </trkpt>
      <trkpt lat="39.896176" lon="116.645242">
        <time>2021-10-12T13:15:55Z</time>
      </trkpt>
      <trkpt lat="39.896186" lon="116.645373">
        <time>2021-10-12T13:16:00Z</time>
      </trkpt>
      <trkpt lat="39.896178" lon="116.645467">
        <time>2021-10-12T13:16:05Z</time>
      </trkpt>
      <trkpt lat="39.896152" lon="116.645552">
        <time>2021-10-12T13:16:10Z</time>
      </trkpt>
      <trkpt lat="39.896116" lon="116.645684">
        <time>2021-10-12T13:16:15Z</time>
      </trkpt>
      <trkpt lat="39.896112" lon="116.645877">
        <time>2021-10-12T13:16:20Z</time>
      </trkpt>
      <trkpt lat="39.896092" lon="116.646031">
        <time>2021-10-12T13:16:25Z</time>
      </trkpt>
      <trkpt lat="39.896067" lon="116.646189">
        <time>2021-10-12T13:16:30Z</time>
      </trkpt>
      <trkpt lat="39.896036" lon="116.646356">
        <time>2021-10-12T13:16:35Z</time>
      </trkpt>
      <trkpt lat="39.896033" lon="116.646519">
        <time>2021-10-12T13:16:40Z</time>
      </trkpt>
      <trkpt lat="39.896033" lon="116.646673">
        <time>2021-10-12T13:16:45Z</time>
      </trkpt>
      <trkpt lat="39.895953" lon="116.646818">
        <time>2021-10-12T13:16:50Z</time>
      </trkpt>
      <trkpt lat="39.895783" lon="116.646795">
        <time>2021-10-12T13:16:55Z</time>
      </trkpt>
      <trkpt lat="39.895643" lon="116.646709">
        <time>2021-10-12T13:17:00Z</time>
      </trkpt>
      <trkpt lat="39.895519" lon="116.646645">
        <time>2021-10-12T13:17:05Z</time>
      </trkpt>
      <trkpt lat="39.895389" lon="116.646567">
        <time>2021-10-12T13:17:10Z</time>
      </trkpt>
      <trkpt lat="39.895279" lon="116.646516">
        <time>2021-10-12T13:17:15Z</time>
      </trkpt>
      <trkpt lat="39.895199" lon="116.646493">
        <time>2021-10-12T13:17:20Z</time>
      </trkpt>
      <trkpt lat="39.895119" lon="116.646429">
        <time>2021-10-12T13:17:25Z</time>
      </trkpt>
      <trkpt lat="39.894937" lon="116.646318">
        <time>2021-10-12T13:17:30Z</time>
      </trkpt>
      <trkpt lat="39.894865" lon="116.646273">
        <time>2021-10-12T13:17:35Z</time>
      </trkpt>
      <trkpt lat="39.894797" lon="116.646158">
        <time>2021-10-12T13:17:40Z</time>
      </trkpt>
      <trkpt lat="39.894645" lon="116.646058">
        <time>2021-10-12T13:17:45Z</time>
      </trkpt>
      <trkpt lat="39.894511" lon="116.646012">
        <time>2021-10-12T13:17:50Z</time>
      </trkpt>
      <trkpt lat="39.894348" lon="116.645995">
        <time>2021-10-12T13:17:55Z</time>
      </trkpt>
      <trkpt lat="39.89421" lon="116.645968">
        <time>2021-10-12T13:18:00Z</time>
      </trkpt>
      <trkpt lat="39.894111" lon="116.645906">
        <time>2021-10-12T13:18:05Z</time>
      </trkpt>
      <trkpt lat="39.894036" lon="116.645882">
        <time>2021-10-12T13:18:10Z</time>
      </trkpt>
      <trkpt lat="39.893942" lon="116.645863">
        <time>2021-10-12T13:18:15Z</time>
      </trkpt>
      <trkpt lat="39.893887" lon="116.645912">
        <time>2021-10-12T13:18:20Z</time>
      </trkpt>
      <trkpt lat="39.893846" lon="116.646007">
        <time>2021-10-12T13:18:25Z</time>
      </trkpt>
      <trkpt lat="39.893815" lon="116.646077">
        <time>2021-10-12T13:18:30Z</time>
      </trkpt>
      <trkpt lat="39.893772" lon="116.646154">
        <time>2021-10-12T13:18:35Z</time>
      </trkpt>
      <trkpt lat="39.893717" lon="116.646212">
        <time>2021-10-12T13:18:40Z</time>
      </trkpt>
      <trkpt lat="39.893612" lon="116.646313">
        <time>2021-10-12T13:18:45Z</time>
      </trkpt>
      <trkpt lat="39.893565" lon="116.646291">
        <time>2021-10-12T13:18:50Z</time>
      </trkpt>
      <trkpt lat="39.893459" lon="116.646229">
        <time>2021-10-12T13:18:55Z</time>
      </trkpt>
      <trkpt lat="39.893348" lon="116.646164">
        <time>2021-10-12T13:19:00Z</time>
      </trkpt>
      <trkpt lat="39.893203" lon="116.646105">
        <time>2021-10-12T13:19:05Z</time>
      </trkpt>
      <trkpt lat="39.893064" lon="116.646069">
        <time>2021-10-12T13:19:10Z</time>
      </trkpt>
      <trkpt lat="39.892923" lon="116.646018">
        <time>2021-10-12T13:19:15Z</time>
      </trkpt>
      <trkpt lat="39.892796" lon="116.645942">
        <time>2021-10-12T13:19:20Z</time>
      </trkpt>
      <trkpt lat="39.892681" lon="116.645865">
        <time>2021-10-12T13:19:25Z</time>
      </trkpt>
      <trkpt lat="39.892573" lon="116.645794">
        <time>2021-10-12T13:19:30Z</time>
      </trkpt>
      <trkpt lat="39.892463" lon="116.645756">
        <time>2021-10-12T13:19:35Z</time>
      </trkpt>
      <trkpt lat="39.892389" lon="116.645723">
        <time>2021-10-12T13:19:40Z</time>
      </trkpt>
      <trkpt lat="39.892319" lon="116.645705">
        <time>2021-10-12T13:19:45Z</time>
      </trkpt>
      <trkpt lat="39.892246" lon="116.64565">
        <time>2021-10-12T13:19:50Z</time>
      </trkpt>
      <trkpt lat="39.892183" lon="116.645607">
        <time>2021-10-12T13:19:55Z</time>
      </trkpt>
      <trkpt lat="39.892048" lon="116.645567">
        <time>2021-10-12T13:20:00Z</time>
      </trkpt>
      <trkpt lat="39.8919" lon="116.645528">
        <time>2021-10-12T13:20:05Z</time>
      </trkpt>
      <trkpt lat="39.891743" lon="116.645483">
        <time>2021-10-12T13:20:10Z</time>
      </trkpt>
      <trkpt lat="39.891623" lon="116.645397">
        <time>2021-10-12T13:20:15Z</time>
      </trkpt>
      <trkpt lat="39.891509" lon="116.645314">
        <time>2021-10-12T13:20:20Z</time>
      </trkpt>
      <trkpt lat="39.891518" lon="116.645397">
        <time>2021-10-12T13:20:25Z</time>
      </trkpt>
      <trkpt lat="39.891642" lon="116.64546">
        <time>2021-10-12T13:20:30Z</time>
      </trkpt>
      <trkpt lat="39.891795" lon="116.645517">
        <time>2021-10-12T13:20:35Z</time>
      </trkpt>
      <trkpt lat="39.89192" lon="116.645575">
        <time>2021-10-12T13:20:40Z</time>
      </trkpt>
      <trkpt lat="39.892001" lon="116.645647">
        <time>2021-10-12T13:20:45Z</time>
      </trkpt>
      <trkpt lat="39.892135" lon="116.645745">
        <time>2021-10-12T13:20:50Z</time>
      </trkpt>
      <trkpt lat="39.89226" lon="116.645785">
        <time>2021-10-12T13:20:55Z</time>
      </trkpt>
      <trkpt lat="39.892334" lon="116.645807">
        <time>2021-10-12T13:21:00Z</time>
      </trkpt>
      <trkpt lat="39.892385" lon="116.645813">
        <time>2021-10-12T13:21:05Z</time>
      </trkpt>
      <trkpt lat="39.892434" lon="116.645814">
        <time>2021-10-12T13:21:10Z</time>
      </trkpt>
      <trkpt lat="39.892481" lon="116.645827">
        <time>2021-10-12T13:21:15Z</time>
      </trkpt>
      <trkpt lat="39.892547" lon="116.645861">
        <time>2021-10-12T13:21:20Z</time>
      </trkpt>
      <trkpt lat="39.89264" lon="116.645912">
        <time>2021-10-12T13:21:25Z</time>
      </trkpt>
      <trkpt lat="39.892744" lon="116.645958">
        <time>2021-10-12T13:21:30Z</time>
      </trkpt>
      <trkpt lat="39.892817" lon="116.645981">
        <time>2021-10-12T13:21:35Z</time>
      </trkpt>
      <trkpt lat="39.892892" lon="116.646016">
        <time>2021-10-12T13:21:40Z</time>
      </trkpt>
      <trkpt lat="39.892973" lon="116.646034">
        <time>2021-10-12T13:21:45Z</time>
      </trkpt>
      <trkpt lat="39.893055" lon="116.646083">
        <time>2021-10-12T13:21:50Z</time>
      </trkpt>
      <trkpt lat="39.893151" lon="116.646128">
        <time>2021-10-12T13:21:55Z</time>
      </trkpt>
      <trkpt lat="39.893248" lon="116.646161">
        <time>2021-10-12T13:22:00Z</time>
      </trkpt>
      <trkpt lat="39.893403" lon="116.646262">
        <time>2021-10-12T13:22:05Z</time>
      </trkpt>
      <trkpt lat="39.893464" lon="116.646293">
        <time>2021-10-12T13:22:10Z</time>
      </trkpt>
      <trkpt lat="39.893581" lon="116.646334">
        <time>2021-10-12T13:22:15Z</time>
      </trkpt>
      <trkpt lat="39.893631" lon="116.646382">
        <time>2021-10-12T13:22:20Z</time>
      </trkpt>
      <trkpt lat="39.893702" lon="116.646388">
        <time>2021-10-12T13:22:25Z</time>
      </trkpt>
      <trkpt lat="39.893778" lon="116.646349">
        <time>2021-10-12T13:22:30Z</time>
      </trkpt>
      <trkpt lat="39.893827" lon="116.646296">
        <time>2021-10-12T13:22:35Z</time>
      </trkpt>
      <trkpt lat="39.893896" lon="116.646214">
        <time>2021-10-12T13:22:40Z</time>
      </trkpt>
      <trkpt lat="39.893977" lon="116.64614">
        <time>2021-10-12T13:22:45Z</time>
      </trkpt>
      <trkpt lat="39.894033" lon="116.646049">
        <time>2021-10-12T13:22:50Z</time>
      </trkpt>
      <trkpt lat="39.894103" lon="116.646055">
        <time>2021-10-12T13:22:55Z</time>
      </trkpt>
      <trkpt lat="39.894247" lon="116.646104">
        <time>2021-10-12T13:23:00Z</time>
      </trkpt>
      <trkpt lat="39.894269" lon="116.646112">
        <time>2021-10-12T13:23:05Z</time>
      </trkpt>
      <trkpt lat="39.894337" lon="116.646124">
        <time>2021-10-12T13:23:10Z</time>
      </trkpt>
      <trkpt lat="39.894415" lon="116.646166">
        <time>2021-10-12T13:23:15Z</time>
      </trkpt>
      <trkpt lat="39.89452" lon="116.646216">
        <time>2021-10-12T13:23:20Z</time>
      </trkpt>
      <trkpt lat="39.894633" lon="116.646247">
        <time>2021-10-12T13:23:25Z</time>
      </trkpt>
      <trkpt lat="39.894731" lon="116.646276">
        <time>2021-10-12T13:23:30Z</time>
      </trkpt>
      <trkpt lat="39.89483" lon="116.646313">
        <time>2021-10-12T13:23:35Z</time>
      </trkpt>
      <trkpt lat="39.894953" lon="116.64639">
        <time>2021-10-12T13:23:40Z</time>
      </trkpt>
      <trkpt lat="39.895095" lon="116.646477">
        <time>2021-10-12T13:23:45Z</time>
      </trkpt>
      <trkpt lat="39.895251" lon="116.646548">
        <time>2021-10-12T13:23:50Z</time>
      </trkpt>
      <trkpt lat="39.895434" lon="116.646617">
        <time>2021-10-12T13:23:55Z</time>
      </trkpt>
      <trkpt lat="39.895552" lon="116.646662">
        <time>2021-10-12T13:24:00Z</time>
      </trkpt>
      <trkpt lat="39.895669" lon="116.646726">
        <time>2021-10-12T13:24:05Z</time>
      </trkpt>
      <trkpt lat="39.895802" lon="116.646781">
        <time>2021-10-12T13:24:10Z</time>
      </trkpt>
      <trkpt lat="39.895925" lon="116.646819">
        <time>2021-10-12T13:24:15Z</time>
      </trkpt>
      <trkpt lat="39.896048" lon="116.646847">
        <time>2021-10-12T13:24:20Z</time>
      </trkpt>
      <trkpt lat="39.896081" lon="116.646726">
        <time>2021-10-12T13:24:25Z</time>
      </trkpt>
      <trkpt lat="39.896077" lon="116.646558">
        <time>2021-10-12T13:24:30Z</time>
      </trkpt>
      <trkpt lat="39.896084" lon="116.646412">
        <time>2021-10-12T13:24:35Z</time>
      </trkpt>
      <trkpt lat="39.896097" lon="116.64625">
        <time>2021-10-12T13:24:40Z</time>
      </trkpt>
      <trkpt lat="39.896109" lon="116.646105">
        <time>2021-10-12T13:24:45Z</time>
      </trkpt>
      <trkpt lat="39.896114" lon="116.645942">
        <time>2021-10-12T13:24:50Z</time>
      </trkpt>
      <trkpt lat="39.896116" lon="116.645775">
        <time>2021-10-12T13:24:55Z</time>
      </trkpt>
      <trkpt lat="39.896124" lon="116.645592">
        <time>2021-10-12T13:25:00Z</time>
      </trkpt>
      <trkpt lat="39.896142" lon="116.645455">
        <time>2021-10-12T13:25:05Z</time>
      </trkpt>
      <trkpt lat="39.896157" lon="116.645316">
        <time>2021-10-12T13:25:10Z</time>
      </trkpt>
      <trkpt lat="39.896187" lon="116.645148">
        <time>2021-10-12T13:25:15Z</time>
      </trkpt>
      <trkpt lat="39.896189" lon="116.645091">
        <time>2021-10-12T13:25:20Z</time>
      </trkpt>
      <trkpt lat="39.896192" lon="116.64499">
        <time>2021-10-12T13:25:25Z</time>
      </trkpt>
      <trkpt lat="39.896201" lon="116.644886">
        <time>2021-10-12T13:25:30Z</time>
      </trkpt>
      <trkpt lat="39.896224" lon="116.644807">
        <time>2021-10-12T13:25:35Z</time>
      </trkpt>
      <trkpt lat="39.896224" lon="116.644667">
        <time>2021-10-12T13:25:40Z</time>
      </trkpt>
      <trkpt lat="39.896222" lon="116.644539">
        <time>2021-10-12T13:25:45Z</time>
      </trkpt>
      <trkpt lat="39.896214" lon="116.644367">
        <time>2021-10-12T13:25:50Z</time>
      </trkpt>
      <trkpt lat="39.896208" lon="116.644208">
        <time>2021-10-12T13:25:55Z</time>
      </trkpt>
      <trkpt lat="39.896215" lon="116.644035">
        <time>2021-10-12T13:26:00Z</time>
      </trkpt>
      <trkpt lat="39.896212" lon="116.643886">
        <time>2021-10-12T13:26:05Z</time>
      </trkpt>
      <trkpt lat="39.896221" lon="116.643698">
        <time>2021-10-12T13:26:10Z</time>
      </trkpt>
      <trkpt lat="39.896219" lon="116.643635">
        <time>2021-10-12T13:26:15Z</time>
      </trkpt>
      <trkpt lat="39.896229" lon="116.643534">
        <time>2021-10-12T13:26:20Z</time>
      </trkpt>
      <trkpt lat="39.896221" lon="116.643389">
        <time>2021-10-12T13:26:25Z</time>
      </trkpt>
      <trkpt lat="39.89621" lon="116.643206">
        <time>2021-10-12T13:26:30Z</time>
      </trkpt>
      <trkpt lat="39.896217" lon="116.643093">
        <time>2021-10-12T13:26:35Z</time>
      </trkpt>
      <trkpt lat="39.89622" lon="116.642949">
        <time>2021-10-12T13:26:40Z</time>
      </trkpt>
      <trkpt lat="39.89623" lon="116.642798">
        <time>2021-10-12T13:26:45Z</time>
      </trkpt>
      <trkpt lat="39.896238" lon="116.642699">
        <time>2021-10-12T13:26:50Z</time>
      </trkpt>
      <trkpt lat="39.896224" lon="116.64254">
        <time>2021-10-12T13:26:55Z</time>
      </trkpt>
      <trkpt lat="39.896237" lon="116.64239">
        <time>2021-10-12T13:27:00Z</time>
      </trkpt>
      <trkpt lat="39.896242" lon="116.642255">
        <time>2021-10-12T13:27:05Z</time>
      </trkpt>
      <trkpt lat="39.896216" lon="116.642097">
        <time>2021-10-12T13:27:10Z</time>
      </trkpt>
      <trkpt lat="39.896205" lon="116.64199">
        <time>2021-10-12T13:27:15Z</time>
      </trkpt>
      <trkpt lat="39.896193" lon="116.641867">
        <time>2021-10-12T13:27:20Z</time>
      </trkpt>
      <trkpt lat="39.896209" lon="116.641769">
        <time>2021-10-12T13:27:25Z</time>
      </trkpt>
      <trkpt lat="39.896222" lon="116.641662">
        <time>2021-10-12T13:27:30Z</time>
      </trkpt>
      <trkpt lat="39.896228" lon="116.641573">
        <time>2021-10-12T13:27:35Z</time>
      </trkpt>
      <trkpt lat="39.896239" lon="116.641441">
        <time>2021-10-12T13:27:40Z</time>
      </trkpt>
      <trkpt lat="39.896259" lon="116.641275">
        <time>2021-10-12T13:27:45Z</time>
      </trkpt>
      <trkpt lat="39.896255" lon="116.64111">
        <time>2021-10-12T13:27:50Z</time>
      </trkpt>
      <trkpt lat="39.896267" lon="116.640935">
        <time>2021-10-12T13:27:55Z</time>
      </trkpt>
      <trkpt lat="39.896272" lon="116.640783">
        <time>2021-10-12T13:28:00Z</time>
      </trkpt>
      <trkpt lat="39.89628" lon="116.640638">
        <time>2021-10-12T13:28:05Z</time>
      </trkpt>
      <trkpt lat="39.896275" lon="116.640475">
        <time>2021-10-12T13:28:10Z</time>
      </trkpt>
      <trkpt lat="39.896294" lon="116.640171">
        <time>2021-10-12T13:28:15Z</time>
      </trkpt>
      <trkpt lat="39.896296" lon="116.640093">
        <time>2021-10-12T13:28:20Z</time>
      </trkpt>
      <trkpt lat="39.896287" lon="116.639913">
        <time>2021-10-12T13:28:25Z</time>
      </trkpt>
      <trkpt lat="39.896267" lon="116.639737">
        <time>2021-10-12T13:28:30Z</time>
      </trkpt>
      <trkpt lat="39.896271" lon="116.639583">
        <time>2021-10-12T13:28:35Z</time>
      </trkpt>
      <trkpt lat="39.896222" lon="116.639292">
        <time>2021-10-12T13:28:40Z</time>
      </trkpt>
      <trkpt lat="39.896218" lon="116.639219">
        <time>2021-10-12T13:28:45Z</time>
      </trkpt>
      <trkpt lat="39.896209" lon="116.639057">
        <time>2021-10-12T13:28:50Z</time>
      </trkpt>
      <trkpt lat="39.896202" lon="116.638909">
        <time>2021-10-12T13:28:55Z</time>
      </trkpt>
      <trkpt lat="39.896188" lon="116.638775">
        <time>2021-10-12T13:29:00Z</time>
      </trkpt>
      <trkpt lat="39.896197" lon="116.638643">
        <time>2021-10-12T13:29:05Z</time>
      </trkpt>
      <trkpt lat="39.8962" lon="116.638587">
        <time>2021-10-12T13:29:10Z</time>
      </trkpt>
      <trkpt lat="39.896204" lon="116.638507">
        <time>2021-10-12T13:29:15Z</time>
      </trkpt>
      <trkpt lat="39.896209" lon="116.63841">
        <time>2021-10-12T13:29:20Z</time>
      </trkpt>
      <trkpt lat="39.896221" lon="116.638303">
        <time>2021-10-12T13:29:25Z</time>
      </trkpt>
      <trkpt lat="39.896211" lon="116.63819">
        <time>2021-10-12T13:29:30Z</time>
      </trkpt>
      <trkpt lat="39.896207" lon="116.638119">
        <time>2021-10-12T13:29:35Z</time>
      </trkpt>
      <trkpt lat="39.896221" lon="116.637999">
        <time>2021-10-12T13:29:40Z</time>
      </trkpt>
      <trkpt lat="39.896213" lon="116.63787">
        <time>2021-10-12T13:29:45Z</time>
      </trkpt>
      <trkpt lat="39.896224" lon="116.637749">
        <time>2021-10-12T13:29:50Z</time>
      </trkpt>
      <trkpt lat="39.896214" lon="116.637595">
        <time>2021-10-12T13:29:55Z</time>
      </trkpt>
      <trkpt lat="39.896202" lon="116.637437">
        <time>2021-10-12T13:30:00Z</time>
      </trkpt>
      <trkpt lat="39.896176" lon="116.63727">
        <time>2021-10-12T13:30:05Z</time>
      </trkpt>
      <trkpt lat="39.896163" lon="116.637139">
        <time>2021-10-12T13:30:10Z</time>
      </trkpt>
      <trkpt lat="39.896151" lon="116.63697">
        <time>2021-10-12T13:30:15Z</time>
      </trkpt>
      <trkpt lat="39.896069" lon="116.63671">
        <time>2021-10-12T13:30:20Z</time>
      </trkpt>
      <trkpt lat="39.896054" lon="116.636684">
        <time>2021-10-12T13:30:25Z</time>
      </trkpt>
      <trkpt lat="39.895972" lon="116.636591">
        <time>2021-10-12T13:30:30Z</time>
      </trkpt>
      <trkpt lat="39.895877" lon="116.636478">
        <time>2021-10-12T13:30:35Z</time>
      </trkpt>
      <trkpt lat="39.895928" lon="116.636354">
        <time>2021-10-12T13:30:40Z</time>
      </trkpt>
      <trkpt lat="39.896075" lon="116.636314">
        <time>2021-10-12T13:30:45Z</time>
      </trkpt>
      <trkpt lat="39.896192" lon="116.636274">
        <time>2021-10-12T13:30:50Z</time>
      </trkpt>
      <trkpt lat="39.896332" lon="116.636221">
        <time>2021-10-12T13:30:55Z</time>
      </trkpt>
      <trkpt lat="39.896452" lon="116.636134">
        <time>2021-10-12T13:31:00Z</time>
      </trkpt>
      <trkpt lat="39.896574" lon="116.636034">
        <time>2021-10-12T13:31:05Z</time>
      </trkpt>
      <trkpt lat="39.896701" lon="116.635966">
        <time>2021-10-12T13:31:10Z</time>
      </trkpt>
      <trkpt lat="39.896793" lon="116.635887">
        <time>2021-10-12T13:31:15Z</time>
      </trkpt>
      <trkpt lat="39.89686" lon="116.635818">
        <time>2021-10-12T13:31:20Z</time>
      </trkpt>
      <trkpt lat="39.896915" lon="116.635779">
        <time>2021-10-12T13:31:25Z</time>
      </trkpt>
      <trkpt lat="39.89697" lon="116.635763">
        <time>2021-10-12T13:31:30Z</time>
      </trkpt>
      <trkpt lat="39.897044" lon="116.635747">
        <time>2021-10-12T13:31:35Z</time>
      </trkpt>
      <trkpt lat="39.897128" lon="116.635715">
        <time>2021-10-12T13:31:40Z</time>
      </trkpt>
      <trkpt lat="39.897224" lon="116.635696">
        <time>2021-10-12T13:31:45Z</time>
      </trkpt>
      <trkpt lat="39.897323" lon="116.635623">
        <time>2021-10-12T13:31:50Z</time>
      </trkpt>
      <trkpt lat="39.897412" lon="116.635557">
        <time>2021-10-12T13:31:55Z</time>
      </trkpt>
      <trkpt lat="39.897511" lon="116.635493">
        <time>2021-10-12T13:32:00Z</time>
      </trkpt>
      <trkpt lat="39.897594" lon="116.635439">
        <time>2021-10-12T13:32:05Z</time>
      </trkpt>
      <trkpt lat="39.897703" lon="116.635399">
        <time>2021-10-12T13:32:10Z</time>
      </trkpt>
      <trkpt lat="39.897812" lon="116.6353">
        <time>2021-10-12T13:32:15Z</time>
      </trkpt>
      <trkpt lat="39.897928" lon="116.635191">
        <time>2021-10-12T13:32:20Z</time>
      </trkpt>
      <trkpt lat="39.898038" lon="116.635088">
        <time>2021-10-12T13:32:25Z</time>
      </trkpt>
      <trkpt lat="39.898162" lon="116.635007">
        <time>2021-10-12T13:32:30Z</time>
      </trkpt>
      <trkpt lat="39.898299" lon="116.634928">
        <time>2021-10-12T13:32:35Z</time>
      </trkpt>
      <trkpt lat="39.898388" lon="116.634856">
        <time>2021-10-12T13:32:40Z</time>
      </trkpt>
      <trkpt lat="39.898472" lon="116.634787">
        <time>2021-10-12T13:32:45Z</time>
      </trkpt>
      <trkpt lat="39.898527" lon="116.634754">
        <time>2021-10-12T13:32:50Z</time>
      </trkpt>
      <trkpt lat="39.898576" lon="116.634727">
        <time>2021-10-12T13:32:55Z</time>
      </trkpt>
      <trkpt lat="39.898625" lon="116.634706">
        <time>2021-10-12T13:33:00Z</time>
      </trkpt>
      <trkpt lat="39.8987" lon="116.634657">
        <time>2021-10-12T13:33:05Z</time>
      </trkpt>
      <trkpt lat="39.898783" lon="116.634594">
        <time>2021-10-12T13:33:10Z</time>
      </trkpt>
      <trkpt lat="39.898871" lon="116.634531">
        <time>2021-10-12T13:33:15Z</time>
      </trkpt>
      <trkpt lat="39.898978" lon="116.634467">
        <time>2021-10-12T13:33:20Z</time>
      </trkpt>
      <trkpt lat="39.8991" lon="116.634396">
        <time>2021-10-12T13:33:25Z</time>
      </trkpt>
      <trkpt lat="39.899206" lon="116.634338">
        <time>2021-10-12T13:33:30Z</time>
      </trkpt>
      <trkpt lat="39.899313" lon="116.634257">
        <time>2021-10-12T13:33:35Z</time>
      </trkpt>
      <trkpt lat="39.899427" lon="116.634196">
        <time>2021-10-12T13:33:40Z</time>
      </trkpt>
      <trkpt lat="39.899545" lon="116.634136">
        <time>2021-10-12T13:33:45Z</time>
      </trkpt>
      <trkpt lat="39.899672" lon="116.634079">
        <time>2021-10-12T13:33:50Z</time>
      </trkpt>
      <trkpt lat="39.899752" lon="116.634027">
        <time>2021-10-12T13:33:55Z</time>
      </trkpt>
      <trkpt lat="39.899806" lon="116.633997">
        <time>2021-10-12T13:34:00Z</time>
      </trkpt>
      <trkpt lat="39.899877" lon="116.633957">
        <time>2021-10-12T13:34:05Z</time>
      </trkpt>
      <trkpt lat="39.900003" lon="116.633883">
        <time>2021-10-12T13:34:10Z</time>
      </trkpt>
      <trkpt lat="39.900102" lon="116.633797">
        <time>2021-10-12T13:34:15Z</time>
      </trkpt>
      <trkpt lat="39.900185" lon="116.633783">
        <time>2021-10-12T13:34:20Z</time>
      </trkpt>
      <trkpt lat="39.900284" lon="116.63374">
        <time>2021-10-12T13:34:25Z</time>
      </trkpt>
      <trkpt lat="39.900447" lon="116.633638">
        <time>2021-10-12T13:34:30Z</time>
      </trkpt>
      <trkpt lat="39.900522" lon="116.633587">
        <time>2021-10-12T13:34:35Z</time>
      </trkpt>
      <trkpt lat="39.900618" lon="116.633504">
        <time>2021-10-12T13:34:40Z</time>
      </trkpt>
      <trkpt lat="39.90066" lon="116.63344">
        <time>2021-10-12T13:34:45Z</time>
      </trkpt>
      <trkpt lat="39.900723" lon="116.633373">
        <time>2021-10-12T13:34:50Z</time>
      </trkpt>
      <trkpt lat="39.900814" lon="116.633294">
        <time>2021-10-12T13:34:55Z</time>
      </trkpt>
      <trkpt lat="39.900939" lon="116.633243">
        <time>2021-10-12T13:35:00Z</time>
      </trkpt>
      <trkpt lat="39.900939" lon="116.633243">
        <time>2021-10-12T13:35:05Z</time>
      </trkpt>
      <trkpt lat="39.900999" lon="116.633228">
        <time>2021-10-12T13:35:10Z</time>
      </trkpt>
      <trkpt lat="39.900926" lon="116.632999">
        <time>2021-10-12T13:35:15Z</time>
      </trkpt>
      <trkpt lat="39.900839" lon="116.632803">
        <time>2021-10-12T13:35:20Z</time>
      </trkpt>
      <trkpt lat="39.900742" lon="116.632774">
        <time>2021-10-12T13:35:25Z</time>
      </trkpt>
      <trkpt lat="39.900621" lon="116.632885">
        <time>2021-10-12T13:35:30Z</time>
      </trkpt>
      <trkpt lat="39.900514" lon="116.632962">
        <time>2021-10-12T13:35:35Z</time>
      </trkpt>
      <trkpt lat="39.900411" lon="116.633027">
        <time>2021-10-12T13:35:40Z</time>
      </trkpt>
      <trkpt lat="39.900318" lon="116.633119">
        <time>2021-10-12T13:35:45Z</time>
      </trkpt>
      <trkpt lat="39.9002" lon="116.633192">
        <time>2021-10-12T13:35:50Z</time>
      </trkpt>
      <trkpt lat="39.900077" lon="116.633261">
        <time>2021-10-12T13:35:55Z</time>
      </trkpt>
      <trkpt lat="39.899933" lon="116.633342">
        <time>2021-10-12T13:36:00Z</time>
      </trkpt>
      <trkpt lat="39.8998" lon="116.633404">
        <time>2021-10-12T13:36:05Z</time>
      </trkpt>
      <trkpt lat="39.899679" lon="116.633515">
        <time>2021-10-12T13:36:10Z</time>
      </trkpt>
      <trkpt lat="39.899557" lon="116.63361">
        <time>2021-10-12T13:36:15Z</time>
      </trkpt>
      <trkpt lat="39.899441" lon="116.633657">
        <time>2021-10-12T13:36:20Z</time>
      </trkpt>
      <trkpt lat="39.899333" lon="116.633716">
        <time>2021-10-12T13:36:25Z</time>
      </trkpt>
      <trkpt lat="39.899242" lon="116.63381">
        <time>2021-10-12T13:36:30Z</time>
      </trkpt>
      <trkpt lat="39.899151" lon="116.633894">
        <time>2021-10-12T13:36:35Z</time>
      </trkpt>
      <trkpt lat="39.899058" lon="116.633974">
        <time>2021-10-12T13:36:40Z</time>
      </trkpt>
      <trkpt lat="39.898988" lon="116.634034">
        <time>2021-10-12T13:36:45Z</time>
      </trkpt>
      <trkpt lat="39.898863" lon="116.634093">
        <time>2021-10-12T13:36:50Z</time>
      </trkpt>
      <trkpt lat="39.89873" lon="116.634159">
        <time>2021-10-12T13:36:55Z</time>
      </trkpt>
      <trkpt lat="39.898505" lon="116.634322">
        <time>2021-10-12T13:37:00Z</time>
      </trkpt>
      <trkpt lat="39.898477" lon="116.634339">
        <time>2021-10-12T13:37:05Z</time>
      </trkpt>
      <trkpt lat="39.89834" lon="116.634414">
        <time>2021-10-12T13:37:10Z</time>
      </trkpt>
      <trkpt lat="39.898216" lon="116.634517">
        <time>2021-10-12T13:37:15Z</time>
      </trkpt>
      <trkpt lat="39.898075" lon="116.634574">
        <time>2021-10-12T13:37:20Z</time>
      </trkpt>
      <trkpt lat="39.897989" lon="116.634411">
        <time>2021-10-12T13:37:25Z</time>
      </trkpt>
      <trkpt lat="39.897925" lon="116.634264">
        <time>2021-10-12T13:37:30Z</time>
      </trkpt>
      <trkpt lat="39.897861" lon="116.634108">
        <time>2021-10-12T13:37:35Z</time>
      </trkpt>
      <trkpt lat="39.897773" lon="116.633966">
        <time>2021-10-12T13:37:40Z</time>
      </trkpt>
      <trkpt lat="39.897696" lon="116.633813">
        <time>2021-10-12T13:37:45Z</time>
      </trkpt>
      <trkpt lat="39.897608" lon="116.633678">
        <time>2021-10-12T13:37:50Z</time>
      </trkpt>
      <trkpt lat="39.897488" lon="116.633704">
        <time>2021-10-12T13:37:55Z</time>
      </trkpt>
      <trkpt lat="39.897429" lon="116.633819">
        <time>2021-10-12T13:38:00Z</time>
      </trkpt>
      <trkpt lat="39.897449" lon="116.633974">
        <time>2021-10-12T13:38:05Z</time>
      </trkpt>
      <trkpt lat="39.897456" lon="116.634135">
        <time>2021-10-12T13:38:10Z</time>
      </trkpt>
      <trkpt lat="39.897456" lon="116.634135">
        <time>2021-10-12T13:38:15Z</time>
      </trkpt>
      <trkpt lat="39.897456" lon="116.634135">
        <time>2021-10-12T13:38:54Z</time>
      </trkpt>
    </trkseg>
  </trk>
</gpx>