<?xml version="1.0" encoding="UTF-8"?>
<gpx xmlns="http://www.topografix.com/GPX/1/1" xmlns:gpxtpx="http://www.garmin.com/xmlschemas/TrackPointExtension/v1" xmlns:xsi="http://www.w3.org/2001/XMLSchema-instance" xsi:schemaLocation="http://www.topografix.com/GPX/1/1 http://www.topografix.com/GPX/1/1/gpx.xsd" version="1.1" creator="gpx.py -- https://github.com/tkrajina/gpxpy">
  <trk>
    <name>gpx from keep</name>
    <trkseg>
      <trkpt lat="39.897745" lon="116.633897">
        <time>2021-10-15T12:42:00Z</time>
      </trkpt>
      <trkpt lat="39.897745" lon="116.633897">
        <time>2021-10-15T12:42:05Z</time>
      </trkpt>
      <trkpt lat="39.897745" lon="116.633897">
        <time>2021-10-15T12:42:10Z</time>
      </trkpt>
      <trkpt lat="39.897756" lon="116.633918">
        <time>2021-10-15T12:42:15Z</time>
      </trkpt>
      <trkpt lat="39.897767" lon="116.633939">
        <time>2021-10-15T12:42:20Z</time>
      </trkpt>
      <trkpt lat="39.897778" lon="116.63396">
        <time>2021-10-15T12:42:25Z</time>
      </trkpt>
      <trkpt lat="39.897789" lon="116.633981">
        <time>2021-10-15T12:42:30Z</time>
      </trkpt>
      <trkpt lat="39.8978" lon="116.634002">
        <time>2021-10-15T12:42:35Z</time>
      </trkpt>
      <trkpt lat="39.897811" lon="116.634023">
        <time>2021-10-15T12:42:40Z</time>
      </trkpt>
      <trkpt lat="39.897794" lon="116.634057">
        <time>2021-10-15T12:42:45Z</time>
      </trkpt>
      <trkpt lat="39.897774" lon="116.634075">
        <time>2021-10-15T12:42:50Z</time>
      </trkpt>
      <trkpt lat="39.897756" lon="116.634104">
        <time>2021-10-15T12:42:55Z</time>
      </trkpt>
      <trkpt lat="39.897822" lon="116.63418">
        <time>2021-10-15T12:43:00Z</time>
      </trkpt>
      <trkpt lat="39.897848" lon="116.63429">
        <time>2021-10-15T12:43:05Z</time>
      </trkpt>
      <trkpt lat="39.897897" lon="116.634434">
        <time>2021-10-15T12:43:10Z</time>
      </trkpt>
      <trkpt lat="39.897965" lon="116.634584">
        <time>2021-10-15T12:43:15Z</time>
      </trkpt>
      <trkpt lat="39.898002" lon="116.634787">
        <time>2021-10-15T12:43:20Z</time>
      </trkpt>
      <trkpt lat="39.898008" lon="116.634797">
        <time>2021-10-15T12:43:25Z</time>
      </trkpt>
      <trkpt lat="39.898037" lon="116.634916">
        <time>2021-10-15T12:43:30Z</time>
      </trkpt>
      <trkpt lat="39.898018" lon="116.635087">
        <time>2021-10-15T12:43:35Z</time>
      </trkpt>
      <trkpt lat="39.897865" lon="116.63521">
        <time>2021-10-15T12:43:40Z</time>
      </trkpt>
      <trkpt lat="39.89775" lon="116.635294">
        <time>2021-10-15T12:43:45Z</time>
      </trkpt>
      <trkpt lat="39.897641" lon="116.635351">
        <time>2021-10-15T12:43:50Z</time>
      </trkpt>
      <trkpt lat="39.897498" lon="116.635403">
        <time>2021-10-15T12:43:55Z</time>
      </trkpt>
      <trkpt lat="39.897421" lon="116.635486">
        <time>2021-10-15T12:44:00Z</time>
      </trkpt>
      <trkpt lat="39.897316" lon="116.635577">
        <time>2021-10-15T12:44:05Z</time>
      </trkpt>
      <trkpt lat="39.897203" lon="116.635673">
        <time>2021-10-15T12:44:10Z</time>
      </trkpt>
      <trkpt lat="39.897079" lon="116.635745">
        <time>2021-10-15T12:44:15Z</time>
      </trkpt>
      <trkpt lat="39.896952" lon="116.635801">
        <time>2021-10-15T12:44:20Z</time>
      </trkpt>
      <trkpt lat="39.896829" lon="116.63585">
        <time>2021-10-15T12:44:25Z</time>
      </trkpt>
      <trkpt lat="39.896714" lon="116.635922">
        <time>2021-10-15T12:44:30Z</time>
      </trkpt>
      <trkpt lat="39.896529" lon="116.636036">
        <time>2021-10-15T12:44:35Z</time>
      </trkpt>
      <trkpt lat="39.896479" lon="116.63607">
        <time>2021-10-15T12:44:40Z</time>
      </trkpt>
      <trkpt lat="39.896339" lon="116.636137">
        <time>2021-10-15T12:44:45Z</time>
      </trkpt>
      <trkpt lat="39.896229" lon="116.636195">
        <time>2021-10-15T12:44:50Z</time>
      </trkpt>
      <trkpt lat="39.896132" lon="116.636291">
        <time>2021-10-15T12:44:55Z</time>
      </trkpt>
      <trkpt lat="39.89601" lon="116.636378">
        <time>2021-10-15T12:45:00Z</time>
      </trkpt>
      <trkpt lat="39.895892" lon="116.636441">
        <time>2021-10-15T12:45:05Z</time>
      </trkpt>
      <trkpt lat="39.895795" lon="116.636548">
        <time>2021-10-15T12:45:10Z</time>
      </trkpt>
      <trkpt lat="39.895868" lon="116.636699">
        <time>2021-10-15T12:45:15Z</time>
      </trkpt>
      <trkpt lat="39.895985" lon="116.636817">
        <time>2021-10-15T12:45:20Z</time>
      </trkpt>
      <trkpt lat="39.896055" lon="116.63697">
        <time>2021-10-15T12:45:25Z</time>
      </trkpt>
      <trkpt lat="39.896083" lon="116.637144">
        <time>2021-10-15T12:45:30Z</time>
      </trkpt>
      <trkpt lat="39.896091" lon="116.63731">
        <time>2021-10-15T12:45:35Z</time>
      </trkpt>
      <trkpt lat="39.896047" lon="116.637369">
        <time>2021-10-15T12:45:40Z</time>
      </trkpt>
      <trkpt lat="39.896024" lon="116.637327">
        <time>2021-10-15T12:45:45Z</time>
      </trkpt>
      <trkpt lat="39.896024" lon="116.637305">
        <time>2021-10-15T12:45:50Z</time>
      </trkpt>
      <trkpt lat="39.89601" lon="116.637309">
        <time>2021-10-15T12:45:55Z</time>
      </trkpt>
      <trkpt lat="39.895915" lon="116.637372">
        <time>2021-10-15T12:46:00Z</time>
      </trkpt>
      <trkpt lat="39.895917" lon="116.637358">
        <time>2021-10-15T12:46:05Z</time>
      </trkpt>
      <trkpt lat="39.895943" lon="116.637322">
        <time>2021-10-15T12:46:10Z</time>
      </trkpt>
      <trkpt lat="39.895962" lon="116.637309">
        <time>2021-10-15T12:46:15Z</time>
      </trkpt>
      <trkpt lat="39.895993" lon="116.637312">
        <time>2021-10-15T12:46:20Z</time>
      </trkpt>
      <trkpt lat="39.896026" lon="116.6373">
        <time>2021-10-15T12:46:25Z</time>
      </trkpt>
      <trkpt lat="39.896052" lon="116.63728">
        <time>2021-10-15T12:46:30Z</time>
      </trkpt>
      <trkpt lat="39.896085" lon="116.63727">
        <time>2021-10-15T12:46:35Z</time>
      </trkpt>
      <trkpt lat="39.896127" lon="116.637267">
        <time>2021-10-15T12:46:40Z</time>
      </trkpt>
      <trkpt lat="39.896156" lon="116.637273">
        <time>2021-10-15T12:46:45Z</time>
      </trkpt>
      <trkpt lat="39.896189" lon="116.637271">
        <time>2021-10-15T12:46:50Z</time>
      </trkpt>
      <trkpt lat="39.896175" lon="116.637277">
        <time>2021-10-15T12:46:55Z</time>
      </trkpt>
      <trkpt lat="39.896157" lon="116.637299">
        <time>2021-10-15T12:47:00Z</time>
      </trkpt>
      <trkpt lat="39.896169" lon="116.637401">
        <time>2021-10-15T12:47:05Z</time>
      </trkpt>
      <trkpt lat="39.896167" lon="116.637621">
        <time>2021-10-15T12:47:10Z</time>
      </trkpt>
      <trkpt lat="39.896151" lon="116.637834">
        <time>2021-10-15T12:47:15Z</time>
      </trkpt>
      <trkpt lat="39.896144" lon="116.63801">
        <time>2021-10-15T12:47:20Z</time>
      </trkpt>
      <trkpt lat="39.896143" lon="116.638157">
        <time>2021-10-15T12:47:25Z</time>
      </trkpt>
      <trkpt lat="39.896119" lon="116.638328">
        <time>2021-10-15T12:47:30Z</time>
      </trkpt>
      <trkpt lat="39.896121" lon="116.6385">
        <time>2021-10-15T12:47:35Z</time>
      </trkpt>
      <trkpt lat="39.896122" lon="116.638676">
        <time>2021-10-15T12:47:40Z</time>
      </trkpt>
      <trkpt lat="39.89613" lon="116.638821">
        <time>2021-10-15T12:47:45Z</time>
      </trkpt>
      <trkpt lat="39.896152" lon="116.638985">
        <time>2021-10-15T12:47:50Z</time>
      </trkpt>
      <trkpt lat="39.89617" lon="116.639149">
        <time>2021-10-15T12:47:55Z</time>
      </trkpt>
      <trkpt lat="39.89621" lon="116.639259">
        <time>2021-10-15T12:48:00Z</time>
      </trkpt>
      <trkpt lat="39.896228" lon="116.639368">
        <time>2021-10-15T12:48:05Z</time>
      </trkpt>
      <trkpt lat="39.896216" lon="116.639455">
        <time>2021-10-15T12:48:10Z</time>
      </trkpt>
      <trkpt lat="39.896213" lon="116.639706">
        <time>2021-10-15T12:48:15Z</time>
      </trkpt>
      <trkpt lat="39.896218" lon="116.639745">
        <time>2021-10-15T12:48:20Z</time>
      </trkpt>
      <trkpt lat="39.896241" lon="116.639895">
        <time>2021-10-15T12:48:25Z</time>
      </trkpt>
      <trkpt lat="39.896265" lon="116.640066">
        <time>2021-10-15T12:48:30Z</time>
      </trkpt>
      <trkpt lat="39.896276" lon="116.64023">
        <time>2021-10-15T12:48:35Z</time>
      </trkpt>
      <trkpt lat="39.896253" lon="116.640403">
        <time>2021-10-15T12:48:40Z</time>
      </trkpt>
      <trkpt lat="39.896237" lon="116.640592">
        <time>2021-10-15T12:48:45Z</time>
      </trkpt>
      <trkpt lat="39.896221" lon="116.640785">
        <time>2021-10-15T12:48:50Z</time>
      </trkpt>
      <trkpt lat="39.896231" lon="116.640918">
        <time>2021-10-15T12:48:55Z</time>
      </trkpt>
      <trkpt lat="39.896234" lon="116.641098">
        <time>2021-10-15T12:49:00Z</time>
      </trkpt>
      <trkpt lat="39.89624" lon="116.641291">
        <time>2021-10-15T12:49:05Z</time>
      </trkpt>
      <trkpt lat="39.896243" lon="116.641444">
        <time>2021-10-15T12:49:10Z</time>
      </trkpt>
      <trkpt lat="39.896223" lon="116.641586">
        <time>2021-10-15T12:49:15Z</time>
      </trkpt>
      <trkpt lat="39.896219" lon="116.641692">
        <time>2021-10-15T12:49:20Z</time>
      </trkpt>
      <trkpt lat="39.896202" lon="116.641847">
        <time>2021-10-15T12:49:25Z</time>
      </trkpt>
      <trkpt lat="39.896195" lon="116.642015">
        <time>2021-10-15T12:49:30Z</time>
      </trkpt>
      <trkpt lat="39.896194" lon="116.642185">
        <time>2021-10-15T12:49:35Z</time>
      </trkpt>
      <trkpt lat="39.896191" lon="116.642319">
        <time>2021-10-15T12:49:40Z</time>
      </trkpt>
      <trkpt lat="39.896169" lon="116.642484">
        <time>2021-10-15T12:49:45Z</time>
      </trkpt>
      <trkpt lat="39.896174" lon="116.642646">
        <time>2021-10-15T12:49:50Z</time>
      </trkpt>
      <trkpt lat="39.896171" lon="116.642767">
        <time>2021-10-15T12:49:55Z</time>
      </trkpt>
      <trkpt lat="39.89615" lon="116.643018">
        <time>2021-10-15T12:50:00Z</time>
      </trkpt>
      <trkpt lat="39.89615" lon="116.6431">
        <time>2021-10-15T12:50:05Z</time>
      </trkpt>
      <trkpt lat="39.896149" lon="116.643248">
        <time>2021-10-15T12:50:10Z</time>
      </trkpt>
      <trkpt lat="39.896137" lon="116.643483">
        <time>2021-10-15T12:50:15Z</time>
      </trkpt>
      <trkpt lat="39.896146" lon="116.643569">
        <time>2021-10-15T12:50:20Z</time>
      </trkpt>
      <trkpt lat="39.896173" lon="116.643707">
        <time>2021-10-15T12:50:25Z</time>
      </trkpt>
      <trkpt lat="39.896163" lon="116.643873">
        <time>2021-10-15T12:50:30Z</time>
      </trkpt>
      <trkpt lat="39.896156" lon="116.644049">
        <time>2021-10-15T12:50:35Z</time>
      </trkpt>
      <trkpt lat="39.896155" lon="116.644224">
        <time>2021-10-15T12:50:40Z</time>
      </trkpt>
      <trkpt lat="39.896165" lon="116.644378">
        <time>2021-10-15T12:50:45Z</time>
      </trkpt>
      <trkpt lat="39.896163" lon="116.644572">
        <time>2021-10-15T12:50:50Z</time>
      </trkpt>
      <trkpt lat="39.896165" lon="116.644655">
        <time>2021-10-15T12:50:55Z</time>
      </trkpt>
      <trkpt lat="39.89617" lon="116.644793">
        <time>2021-10-15T12:51:00Z</time>
      </trkpt>
      <trkpt lat="39.896179" lon="116.64496">
        <time>2021-10-15T12:51:05Z</time>
      </trkpt>
      <trkpt lat="39.896166" lon="116.645118">
        <time>2021-10-15T12:51:10Z</time>
      </trkpt>
      <trkpt lat="39.896164" lon="116.645294">
        <time>2021-10-15T12:51:15Z</time>
      </trkpt>
      <trkpt lat="39.896161" lon="116.645425">
        <time>2021-10-15T12:51:20Z</time>
      </trkpt>
      <trkpt lat="39.896142" lon="116.645573">
        <time>2021-10-15T12:51:25Z</time>
      </trkpt>
      <trkpt lat="39.896092" lon="116.645685">
        <time>2021-10-15T12:51:30Z</time>
      </trkpt>
      <trkpt lat="39.896057" lon="116.645849">
        <time>2021-10-15T12:51:35Z</time>
      </trkpt>
      <trkpt lat="39.896063" lon="116.64603">
        <time>2021-10-15T12:51:40Z</time>
      </trkpt>
      <trkpt lat="39.896067" lon="116.6462">
        <time>2021-10-15T12:51:45Z</time>
      </trkpt>
      <trkpt lat="39.896053" lon="116.646378">
        <time>2021-10-15T12:51:50Z</time>
      </trkpt>
      <trkpt lat="39.896049" lon="116.646519">
        <time>2021-10-15T12:51:55Z</time>
      </trkpt>
      <trkpt lat="39.896038" lon="116.646653">
        <time>2021-10-15T12:52:00Z</time>
      </trkpt>
      <trkpt lat="39.896004" lon="116.646812">
        <time>2021-10-15T12:52:05Z</time>
      </trkpt>
      <trkpt lat="39.895862" lon="116.646862">
        <time>2021-10-15T12:52:10Z</time>
      </trkpt>
      <trkpt lat="39.895732" lon="116.646796">
        <time>2021-10-15T12:52:15Z</time>
      </trkpt>
      <trkpt lat="39.895634" lon="116.646703">
        <time>2021-10-15T12:52:20Z</time>
      </trkpt>
      <trkpt lat="39.895523" lon="116.64665">
        <time>2021-10-15T12:52:25Z</time>
      </trkpt>
      <trkpt lat="39.895411" lon="116.646591">
        <time>2021-10-15T12:52:30Z</time>
      </trkpt>
      <trkpt lat="39.895288" lon="116.646547">
        <time>2021-10-15T12:52:35Z</time>
      </trkpt>
      <trkpt lat="39.89516" lon="116.646505">
        <time>2021-10-15T12:52:40Z</time>
      </trkpt>
      <trkpt lat="39.895039" lon="116.646444">
        <time>2021-10-15T12:52:45Z</time>
      </trkpt>
      <trkpt lat="39.894896" lon="116.646379">
        <time>2021-10-15T12:52:50Z</time>
      </trkpt>
      <trkpt lat="39.894799" lon="116.646326">
        <time>2021-10-15T12:52:55Z</time>
      </trkpt>
      <trkpt lat="39.894686" lon="116.646242">
        <time>2021-10-15T12:53:00Z</time>
      </trkpt>
      <trkpt lat="39.894593" lon="116.646176">
        <time>2021-10-15T12:53:05Z</time>
      </trkpt>
      <trkpt lat="39.894526" lon="116.646121">
        <time>2021-10-15T12:53:10Z</time>
      </trkpt>
      <trkpt lat="39.894475" lon="116.646077">
        <time>2021-10-15T12:53:15Z</time>
      </trkpt>
      <trkpt lat="39.8944" lon="116.646025">
        <time>2021-10-15T12:53:20Z</time>
      </trkpt>
      <trkpt lat="39.894322" lon="116.645994">
        <time>2021-10-15T12:53:25Z</time>
      </trkpt>
      <trkpt lat="39.894173" lon="116.645893">
        <time>2021-10-15T12:53:30Z</time>
      </trkpt>
      <trkpt lat="39.894153" lon="116.645874">
        <time>2021-10-15T12:53:35Z</time>
      </trkpt>
      <trkpt lat="39.894043" lon="116.645819">
        <time>2021-10-15T12:53:40Z</time>
      </trkpt>
      <trkpt lat="39.89392" lon="116.645896">
        <time>2021-10-15T12:53:45Z</time>
      </trkpt>
      <trkpt lat="39.893833" lon="116.646046">
        <time>2021-10-15T12:53:50Z</time>
      </trkpt>
      <trkpt lat="39.89377" lon="116.646159">
        <time>2021-10-15T12:53:55Z</time>
      </trkpt>
      <trkpt lat="39.893625" lon="116.646338">
        <time>2021-10-15T12:54:00Z</time>
      </trkpt>
      <trkpt lat="39.893577" lon="116.646335">
        <time>2021-10-15T12:54:05Z</time>
      </trkpt>
      <trkpt lat="39.893456" lon="116.646298">
        <time>2021-10-15T12:54:10Z</time>
      </trkpt>
      <trkpt lat="39.89336" lon="116.64623">
        <time>2021-10-15T12:54:15Z</time>
      </trkpt>
      <trkpt lat="39.893231" lon="116.646156">
        <time>2021-10-15T12:54:20Z</time>
      </trkpt>
      <trkpt lat="39.893099" lon="116.646094">
        <time>2021-10-15T12:54:25Z</time>
      </trkpt>
      <trkpt lat="39.892989" lon="116.64603">
        <time>2021-10-15T12:54:30Z</time>
      </trkpt>
      <trkpt lat="39.892873" lon="116.645994">
        <time>2021-10-15T12:54:35Z</time>
      </trkpt>
      <trkpt lat="39.892765" lon="116.645933">
        <time>2021-10-15T12:54:40Z</time>
      </trkpt>
      <trkpt lat="39.892687" lon="116.645875">
        <time>2021-10-15T12:54:45Z</time>
      </trkpt>
      <trkpt lat="39.89261" lon="116.645833">
        <time>2021-10-15T12:54:50Z</time>
      </trkpt>
      <trkpt lat="39.892539" lon="116.645793">
        <time>2021-10-15T12:54:55Z</time>
      </trkpt>
      <trkpt lat="39.892454" lon="116.645742">
        <time>2021-10-15T12:55:00Z</time>
      </trkpt>
      <trkpt lat="39.89235" lon="116.645702">
        <time>2021-10-15T12:55:05Z</time>
      </trkpt>
      <trkpt lat="39.892231" lon="116.645654">
        <time>2021-10-15T12:55:10Z</time>
      </trkpt>
      <trkpt lat="39.892118" lon="116.645597">
        <time>2021-10-15T12:55:15Z</time>
      </trkpt>
      <trkpt lat="39.892012" lon="116.645558">
        <time>2021-10-15T12:55:20Z</time>
      </trkpt>
      <trkpt lat="39.891895" lon="116.645482">
        <time>2021-10-15T12:55:25Z</time>
      </trkpt>
      <trkpt lat="39.891778" lon="116.645387">
        <time>2021-10-15T12:55:30Z</time>
      </trkpt>
      <trkpt lat="39.891652" lon="116.64531">
        <time>2021-10-15T12:55:35Z</time>
      </trkpt>
      <trkpt lat="39.89154" lon="116.645308">
        <time>2021-10-15T12:55:40Z</time>
      </trkpt>
      <trkpt lat="39.8916" lon="116.645396">
        <time>2021-10-15T12:55:45Z</time>
      </trkpt>
      <trkpt lat="39.891724" lon="116.645453">
        <time>2021-10-15T12:55:50Z</time>
      </trkpt>
      <trkpt lat="39.891827" lon="116.645524">
        <time>2021-10-15T12:55:55Z</time>
      </trkpt>
      <trkpt lat="39.891919" lon="116.645574">
        <time>2021-10-15T12:56:00Z</time>
      </trkpt>
      <trkpt lat="39.89201" lon="116.64563">
        <time>2021-10-15T12:56:05Z</time>
      </trkpt>
      <trkpt lat="39.892129" lon="116.645678">
        <time>2021-10-15T12:56:10Z</time>
      </trkpt>
      <trkpt lat="39.892259" lon="116.645723">
        <time>2021-10-15T12:56:15Z</time>
      </trkpt>
      <trkpt lat="39.892364" lon="116.645758">
        <time>2021-10-15T12:56:20Z</time>
      </trkpt>
      <trkpt lat="39.892482" lon="116.645802">
        <time>2021-10-15T12:56:25Z</time>
      </trkpt>
      <trkpt lat="39.892598" lon="116.645848">
        <time>2021-10-15T12:56:30Z</time>
      </trkpt>
      <trkpt lat="39.892726" lon="116.645903">
        <time>2021-10-15T12:56:35Z</time>
      </trkpt>
      <trkpt lat="39.892847" lon="116.645983">
        <time>2021-10-15T12:56:40Z</time>
      </trkpt>
      <trkpt lat="39.892961" lon="116.646009">
        <time>2021-10-15T12:56:45Z</time>
      </trkpt>
      <trkpt lat="39.893063" lon="116.646053">
        <time>2021-10-15T12:56:50Z</time>
      </trkpt>
      <trkpt lat="39.893147" lon="116.64611">
        <time>2021-10-15T12:56:55Z</time>
      </trkpt>
      <trkpt lat="39.893253" lon="116.646161">
        <time>2021-10-15T12:57:00Z</time>
      </trkpt>
      <trkpt lat="39.893398" lon="116.646201">
        <time>2021-10-15T12:57:05Z</time>
      </trkpt>
      <trkpt lat="39.893606" lon="116.646318">
        <time>2021-10-15T12:57:10Z</time>
      </trkpt>
      <trkpt lat="39.893631" lon="116.646335">
        <time>2021-10-15T12:57:15Z</time>
      </trkpt>
      <trkpt lat="39.893716" lon="116.646347">
        <time>2021-10-15T12:57:20Z</time>
      </trkpt>
      <trkpt lat="39.893788" lon="116.646241">
        <time>2021-10-15T12:57:25Z</time>
      </trkpt>
      <trkpt lat="39.893862" lon="116.646104">
        <time>2021-10-15T12:57:30Z</time>
      </trkpt>
      <trkpt lat="39.893907" lon="116.64595">
        <time>2021-10-15T12:57:35Z</time>
      </trkpt>
      <trkpt lat="39.893921" lon="116.64587">
        <time>2021-10-15T12:57:40Z</time>
      </trkpt>
      <trkpt lat="39.893997" lon="116.645841">
        <time>2021-10-15T12:57:45Z</time>
      </trkpt>
      <trkpt lat="39.894115" lon="116.645928">
        <time>2021-10-15T12:57:50Z</time>
      </trkpt>
      <trkpt lat="39.894288" lon="116.646017">
        <time>2021-10-15T12:57:55Z</time>
      </trkpt>
      <trkpt lat="39.894356" lon="116.646051">
        <time>2021-10-15T12:58:00Z</time>
      </trkpt>
      <trkpt lat="39.894458" lon="116.646108">
        <time>2021-10-15T12:58:05Z</time>
      </trkpt>
      <trkpt lat="39.894563" lon="116.646172">
        <time>2021-10-15T12:58:10Z</time>
      </trkpt>
      <trkpt lat="39.894669" lon="116.646232">
        <time>2021-10-15T12:58:15Z</time>
      </trkpt>
      <trkpt lat="39.894768" lon="116.646288">
        <time>2021-10-15T12:58:20Z</time>
      </trkpt>
      <trkpt lat="39.894848" lon="116.646364">
        <time>2021-10-15T12:58:25Z</time>
      </trkpt>
      <trkpt lat="39.894942" lon="116.646405">
        <time>2021-10-15T12:58:30Z</time>
      </trkpt>
      <trkpt lat="39.895071" lon="116.646433">
        <time>2021-10-15T12:58:35Z</time>
      </trkpt>
      <trkpt lat="39.895191" lon="116.646491">
        <time>2021-10-15T12:58:40Z</time>
      </trkpt>
      <trkpt lat="39.895307" lon="116.646547">
        <time>2021-10-15T12:58:45Z</time>
      </trkpt>
      <trkpt lat="39.895447" lon="116.646605">
        <time>2021-10-15T12:58:50Z</time>
      </trkpt>
      <trkpt lat="39.895552" lon="116.646631">
        <time>2021-10-15T12:58:55Z</time>
      </trkpt>
      <trkpt lat="39.895673" lon="116.646672">
        <time>2021-10-15T12:59:00Z</time>
      </trkpt>
      <trkpt lat="39.895798" lon="116.646743">
        <time>2021-10-15T12:59:05Z</time>
      </trkpt>
      <trkpt lat="39.895909" lon="116.646803">
        <time>2021-10-15T12:59:10Z</time>
      </trkpt>
      <trkpt lat="39.896034" lon="116.646815">
        <time>2021-10-15T12:59:15Z</time>
      </trkpt>
      <trkpt lat="39.896093" lon="116.646721">
        <time>2021-10-15T12:59:20Z</time>
      </trkpt>
      <trkpt lat="39.896084" lon="116.646564">
        <time>2021-10-15T12:59:25Z</time>
      </trkpt>
      <trkpt lat="39.896075" lon="116.646405">
        <time>2021-10-15T12:59:30Z</time>
      </trkpt>
      <trkpt lat="39.896058" lon="116.646231">
        <time>2021-10-15T12:59:35Z</time>
      </trkpt>
      <trkpt lat="39.89606" lon="116.646074">
        <time>2021-10-15T12:59:40Z</time>
      </trkpt>
      <trkpt lat="39.896076" lon="116.645913">
        <time>2021-10-15T12:59:45Z</time>
      </trkpt>
      <trkpt lat="39.896088" lon="116.64575">
        <time>2021-10-15T12:59:50Z</time>
      </trkpt>
      <trkpt lat="39.896121" lon="116.645659">
        <time>2021-10-15T12:59:55Z</time>
      </trkpt>
      <trkpt lat="39.896172" lon="116.645564">
        <time>2021-10-15T13:00:00Z</time>
      </trkpt>
      <trkpt lat="39.896192" lon="116.645379">
        <time>2021-10-15T13:00:05Z</time>
      </trkpt>
      <trkpt lat="39.896181" lon="116.645185">
        <time>2021-10-15T13:00:10Z</time>
      </trkpt>
      <trkpt lat="39.896179" lon="116.644957">
        <time>2021-10-15T13:00:15Z</time>
      </trkpt>
      <trkpt lat="39.89618" lon="116.644895">
        <time>2021-10-15T13:00:20Z</time>
      </trkpt>
      <trkpt lat="39.896178" lon="116.644741">
        <time>2021-10-15T13:00:25Z</time>
      </trkpt>
      <trkpt lat="39.896161" lon="116.644581">
        <time>2021-10-15T13:00:30Z</time>
      </trkpt>
      <trkpt lat="39.896163" lon="116.644475">
        <time>2021-10-15T13:00:35Z</time>
      </trkpt>
      <trkpt lat="39.896185" lon="116.644404">
        <time>2021-10-15T13:00:40Z</time>
      </trkpt>
      <trkpt lat="39.896198" lon="116.64433">
        <time>2021-10-15T13:00:45Z</time>
      </trkpt>
      <trkpt lat="39.896205" lon="116.644252">
        <time>2021-10-15T13:00:50Z</time>
      </trkpt>
      <trkpt lat="39.896201" lon="116.644165">
        <time>2021-10-15T13:00:55Z</time>
      </trkpt>
      <trkpt lat="39.896205" lon="116.644071">
        <time>2021-10-15T13:01:00Z</time>
      </trkpt>
      <trkpt lat="39.896211" lon="116.643973">
        <time>2021-10-15T13:01:05Z</time>
      </trkpt>
      <trkpt lat="39.896197" lon="116.643844">
        <time>2021-10-15T13:01:10Z</time>
      </trkpt>
      <trkpt lat="39.896198" lon="116.643714">
        <time>2021-10-15T13:01:15Z</time>
      </trkpt>
      <trkpt lat="39.896205" lon="116.643562">
        <time>2021-10-15T13:01:20Z</time>
      </trkpt>
      <trkpt lat="39.896203" lon="116.643391">
        <time>2021-10-15T13:01:25Z</time>
      </trkpt>
      <trkpt lat="39.896217" lon="116.643252">
        <time>2021-10-15T13:01:30Z</time>
      </trkpt>
      <trkpt lat="39.89622" lon="116.643105">
        <time>2021-10-15T13:01:35Z</time>
      </trkpt>
      <trkpt lat="39.896218" lon="116.642963">
        <time>2021-10-15T13:01:40Z</time>
      </trkpt>
      <trkpt lat="39.896228" lon="116.642824">
        <time>2021-10-15T13:01:45Z</time>
      </trkpt>
      <trkpt lat="39.896216" lon="116.642693">
        <time>2021-10-15T13:01:50Z</time>
      </trkpt>
      <trkpt lat="39.896231" lon="116.642557">
        <time>2021-10-15T13:01:55Z</time>
      </trkpt>
      <trkpt lat="39.896231" lon="116.642381">
        <time>2021-10-15T13:02:00Z</time>
      </trkpt>
      <trkpt lat="39.89623" lon="116.642216">
        <time>2021-10-15T13:02:05Z</time>
      </trkpt>
      <trkpt lat="39.896227" lon="116.642046">
        <time>2021-10-15T13:02:10Z</time>
      </trkpt>
      <trkpt lat="39.896217" lon="116.641869">
        <time>2021-10-15T13:02:15Z</time>
      </trkpt>
      <trkpt lat="39.896216" lon="116.641619">
        <time>2021-10-15T13:02:20Z</time>
      </trkpt>
      <trkpt lat="39.896222" lon="116.641553">
        <time>2021-10-15T13:02:25Z</time>
      </trkpt>
      <trkpt lat="39.896232" lon="116.641405">
        <time>2021-10-15T13:02:30Z</time>
      </trkpt>
      <trkpt lat="39.896239" lon="116.641285">
        <time>2021-10-15T13:02:35Z</time>
      </trkpt>
      <trkpt lat="39.896241" lon="116.64122">
        <time>2021-10-15T13:02:40Z</time>
      </trkpt>
      <trkpt lat="39.89624" lon="116.641189">
        <time>2021-10-15T13:02:45Z</time>
      </trkpt>
      <trkpt lat="39.896227" lon="116.641092">
        <time>2021-10-15T13:02:50Z</time>
      </trkpt>
      <trkpt lat="39.896256" lon="116.640996">
        <time>2021-10-15T13:02:55Z</time>
      </trkpt>
      <trkpt lat="39.896269" lon="116.640842">
        <time>2021-10-15T13:03:00Z</time>
      </trkpt>
      <trkpt lat="39.896269" lon="116.64069">
        <time>2021-10-15T13:03:05Z</time>
      </trkpt>
      <trkpt lat="39.896285" lon="116.640562">
        <time>2021-10-15T13:03:10Z</time>
      </trkpt>
      <trkpt lat="39.896296" lon="116.640417">
        <time>2021-10-15T13:03:15Z</time>
      </trkpt>
      <trkpt lat="39.896419" lon="116.640424">
        <time>2021-10-15T13:03:20Z</time>
      </trkpt>
      <trkpt lat="39.896517" lon="116.640455">
        <time>2021-10-15T13:03:25Z</time>
      </trkpt>
      <trkpt lat="39.896705" lon="116.640522">
        <time>2021-10-15T13:03:30Z</time>
      </trkpt>
      <trkpt lat="39.896866" lon="116.640574">
        <time>2021-10-15T13:03:35Z</time>
      </trkpt>
      <trkpt lat="39.896983" lon="116.640641">
        <time>2021-10-15T13:03:40Z</time>
      </trkpt>
      <trkpt lat="39.897076" lon="116.640675">
        <time>2021-10-15T13:03:45Z</time>
      </trkpt>
      <trkpt lat="39.897136" lon="116.640703">
        <time>2021-10-15T13:03:50Z</time>
      </trkpt>
      <trkpt lat="39.897167" lon="116.640763">
        <time>2021-10-15T13:03:55Z</time>
      </trkpt>
      <trkpt lat="39.897189" lon="116.640811">
        <time>2021-10-15T13:04:00Z</time>
      </trkpt>
      <trkpt lat="39.897226" lon="116.640823">
        <time>2021-10-15T13:04:05Z</time>
      </trkpt>
      <trkpt lat="39.897329" lon="116.640862">
        <time>2021-10-15T13:04:10Z</time>
      </trkpt>
      <trkpt lat="39.897456" lon="116.640924">
        <time>2021-10-15T13:04:15Z</time>
      </trkpt>
      <trkpt lat="39.897583" lon="116.641022">
        <time>2021-10-15T13:04:20Z</time>
      </trkpt>
      <trkpt lat="39.897684" lon="116.641076">
        <time>2021-10-15T13:04:25Z</time>
      </trkpt>
      <trkpt lat="39.897763" lon="116.641089">
        <time>2021-10-15T13:04:30Z</time>
      </trkpt>
      <trkpt lat="39.89785" lon="116.641129">
        <time>2021-10-15T13:04:35Z</time>
      </trkpt>
      <trkpt lat="39.898039" lon="116.641223">
        <time>2021-10-15T13:04:40Z</time>
      </trkpt>
      <trkpt lat="39.898176" lon="116.641279">
        <time>2021-10-15T13:04:45Z</time>
      </trkpt>
      <trkpt lat="39.898305" lon="116.641294">
        <time>2021-10-15T13:04:50Z</time>
      </trkpt>
      <trkpt lat="39.8984" lon="116.641339">
        <time>2021-10-15T13:04:55Z</time>
      </trkpt>
      <trkpt lat="39.898462" lon="116.641406">
        <time>2021-10-15T13:05:00Z</time>
      </trkpt>
      <trkpt lat="39.898457" lon="116.641532">
        <time>2021-10-15T13:05:05Z</time>
      </trkpt>
      <trkpt lat="39.898403" lon="116.641648">
        <time>2021-10-15T13:05:10Z</time>
      </trkpt>
      <trkpt lat="39.898368" lon="116.641762">
        <time>2021-10-15T13:05:15Z</time>
      </trkpt>
      <trkpt lat="39.898317" lon="116.641916">
        <time>2021-10-15T13:05:20Z</time>
      </trkpt>
      <trkpt lat="39.89829" lon="116.642101">
        <time>2021-10-15T13:05:25Z</time>
      </trkpt>
      <trkpt lat="39.898277" lon="116.642274">
        <time>2021-10-15T13:05:30Z</time>
      </trkpt>
      <trkpt lat="39.898291" lon="116.642462">
        <time>2021-10-15T13:05:35Z</time>
      </trkpt>
      <trkpt lat="39.898259" lon="116.642736">
        <time>2021-10-15T13:05:40Z</time>
      </trkpt>
      <trkpt lat="39.898252" lon="116.642826">
        <time>2021-10-15T13:05:45Z</time>
      </trkpt>
      <trkpt lat="39.898266" lon="116.642996">
        <time>2021-10-15T13:05:50Z</time>
      </trkpt>
      <trkpt lat="39.898266" lon="116.64318">
        <time>2021-10-15T13:05:55Z</time>
      </trkpt>
      <trkpt lat="39.898276" lon="116.643363">
        <time>2021-10-15T13:06:00Z</time>
      </trkpt>
      <trkpt lat="39.898283" lon="116.643539">
        <time>2021-10-15T13:06:05Z</time>
      </trkpt>
      <trkpt lat="39.898291" lon="116.643703">
        <time>2021-10-15T13:06:10Z</time>
      </trkpt>
      <trkpt lat="39.898267" lon="116.643878">
        <time>2021-10-15T13:06:15Z</time>
      </trkpt>
      <trkpt lat="39.898299" lon="116.644051">
        <time>2021-10-15T13:06:20Z</time>
      </trkpt>
      <trkpt lat="39.898319" lon="116.644233">
        <time>2021-10-15T13:06:25Z</time>
      </trkpt>
      <trkpt lat="39.898323" lon="116.644406">
        <time>2021-10-15T13:06:30Z</time>
      </trkpt>
      <trkpt lat="39.898357" lon="116.644562">
        <time>2021-10-15T13:06:35Z</time>
      </trkpt>
      <trkpt lat="39.898398" lon="116.644699">
        <time>2021-10-15T13:06:40Z</time>
      </trkpt>
      <trkpt lat="39.898434" lon="116.644819">
        <time>2021-10-15T13:06:45Z</time>
      </trkpt>
      <trkpt lat="39.898435" lon="116.644927">
        <time>2021-10-15T13:06:50Z</time>
      </trkpt>
      <trkpt lat="39.898452" lon="116.645058">
        <time>2021-10-15T13:06:55Z</time>
      </trkpt>
      <trkpt lat="39.898456" lon="116.645203">
        <time>2021-10-15T13:07:00Z</time>
      </trkpt>
      <trkpt lat="39.898467" lon="116.645392">
        <time>2021-10-15T13:07:05Z</time>
      </trkpt>
      <trkpt lat="39.898466" lon="116.645565">
        <time>2021-10-15T13:07:10Z</time>
      </trkpt>
      <trkpt lat="39.898492" lon="116.645717">
        <time>2021-10-15T13:07:15Z</time>
      </trkpt>
      <trkpt lat="39.898525" lon="116.64578">
        <time>2021-10-15T13:07:20Z</time>
      </trkpt>
      <trkpt lat="39.898522" lon="116.645811">
        <time>2021-10-15T13:07:25Z</time>
      </trkpt>
      <trkpt lat="39.898564" lon="116.645894">
        <time>2021-10-15T13:07:30Z</time>
      </trkpt>
      <trkpt lat="39.898597" lon="116.645998">
        <time>2021-10-15T13:07:35Z</time>
      </trkpt>
      <trkpt lat="39.898623" lon="116.646097">
        <time>2021-10-15T13:07:40Z</time>
      </trkpt>
      <trkpt lat="39.898654" lon="116.646187">
        <time>2021-10-15T13:07:45Z</time>
      </trkpt>
      <trkpt lat="39.898688" lon="116.646352">
        <time>2021-10-15T13:07:50Z</time>
      </trkpt>
      <trkpt lat="39.898698" lon="116.646432">
        <time>2021-10-15T13:07:55Z</time>
      </trkpt>
      <trkpt lat="39.898715" lon="116.646563">
        <time>2021-10-15T13:08:00Z</time>
      </trkpt>
      <trkpt lat="39.898756" lon="116.646723">
        <time>2021-10-15T13:08:05Z</time>
      </trkpt>
      <trkpt lat="39.898818" lon="116.646902">
        <time>2021-10-15T13:08:10Z</time>
      </trkpt>
      <trkpt lat="39.898892" lon="116.647073">
        <time>2021-10-15T13:08:15Z</time>
      </trkpt>
      <trkpt lat="39.898937" lon="116.647226">
        <time>2021-10-15T13:08:20Z</time>
      </trkpt>
      <trkpt lat="39.898962" lon="116.647385">
        <time>2021-10-15T13:08:25Z</time>
      </trkpt>
      <trkpt lat="39.898987" lon="116.647564">
        <time>2021-10-15T13:08:30Z</time>
      </trkpt>
      <trkpt lat="39.898994" lon="116.64772">
        <time>2021-10-15T13:08:35Z</time>
      </trkpt>
      <trkpt lat="39.899043" lon="116.647848">
        <time>2021-10-15T13:08:40Z</time>
      </trkpt>
      <trkpt lat="39.89909" lon="116.647963">
        <time>2021-10-15T13:08:45Z</time>
      </trkpt>
      <trkpt lat="39.899095" lon="116.648119">
        <time>2021-10-15T13:08:50Z</time>
      </trkpt>
      <trkpt lat="39.899079" lon="116.648287">
        <time>2021-10-15T13:08:55Z</time>
      </trkpt>
      <trkpt lat="39.899031" lon="116.64846">
        <time>2021-10-15T13:09:00Z</time>
      </trkpt>
      <trkpt lat="39.898983" lon="116.648756">
        <time>2021-10-15T13:09:05Z</time>
      </trkpt>
      <trkpt lat="39.898973" lon="116.648823">
        <time>2021-10-15T13:09:10Z</time>
      </trkpt>
      <trkpt lat="39.898959" lon="116.648957">
        <time>2021-10-15T13:09:15Z</time>
      </trkpt>
      <trkpt lat="39.898977" lon="116.649023">
        <time>2021-10-15T13:09:20Z</time>
      </trkpt>
      <trkpt lat="39.898986" lon="116.649113">
        <time>2021-10-15T13:09:25Z</time>
      </trkpt>
      <trkpt lat="39.898994" lon="116.649218">
        <time>2021-10-15T13:09:30Z</time>
      </trkpt>
      <trkpt lat="39.898998" lon="116.649341">
        <time>2021-10-15T13:09:35Z</time>
      </trkpt>
      <trkpt lat="39.898988" lon="116.649491">
        <time>2021-10-15T13:09:40Z</time>
      </trkpt>
      <trkpt lat="39.898947" lon="116.649625">
        <time>2021-10-15T13:09:45Z</time>
      </trkpt>
      <trkpt lat="39.898901" lon="116.649695">
        <time>2021-10-15T13:09:50Z</time>
      </trkpt>
      <trkpt lat="39.898891" lon="116.649759">
        <time>2021-10-15T13:09:55Z</time>
      </trkpt>
      <trkpt lat="39.898972" lon="116.649887">
        <time>2021-10-15T13:10:00Z</time>
      </trkpt>
      <trkpt lat="39.899009" lon="116.650023">
        <time>2021-10-15T13:10:05Z</time>
      </trkpt>
      <trkpt lat="39.898984" lon="116.650181">
        <time>2021-10-15T13:10:10Z</time>
      </trkpt>
      <trkpt lat="39.898954" lon="116.65032">
        <time>2021-10-15T13:10:15Z</time>
      </trkpt>
      <trkpt lat="39.898993" lon="116.65049">
        <time>2021-10-15T13:10:20Z</time>
      </trkpt>
      <trkpt lat="39.898993" lon="116.650661">
        <time>2021-10-15T13:10:25Z</time>
      </trkpt>
      <trkpt lat="39.899013" lon="116.650811">
        <time>2021-10-15T13:10:30Z</time>
      </trkpt>
      <trkpt lat="39.898994" lon="116.650957">
        <time>2021-10-15T13:10:35Z</time>
      </trkpt>
      <trkpt lat="39.898992" lon="116.651124">
        <time>2021-10-15T13:10:40Z</time>
      </trkpt>
      <trkpt lat="39.898956" lon="116.651396">
        <time>2021-10-15T13:10:45Z</time>
      </trkpt>
      <trkpt lat="39.898991" lon="116.651572">
        <time>2021-10-15T13:10:50Z</time>
      </trkpt>
      <trkpt lat="39.899011" lon="116.651578">
        <time>2021-10-15T13:10:55Z</time>
      </trkpt>
      <trkpt lat="39.899081" lon="116.651412">
        <time>2021-10-15T13:11:00Z</time>
      </trkpt>
      <trkpt lat="39.899037" lon="116.651167">
        <time>2021-10-15T13:11:05Z</time>
      </trkpt>
      <trkpt lat="39.899041" lon="116.650958">
        <time>2021-10-15T13:11:10Z</time>
      </trkpt>
      <trkpt lat="39.899104" lon="116.650789">
        <time>2021-10-15T13:11:15Z</time>
      </trkpt>
      <trkpt lat="39.899048" lon="116.650586">
        <time>2021-10-15T13:11:20Z</time>
      </trkpt>
      <trkpt lat="39.899" lon="116.650379">
        <time>2021-10-15T13:11:25Z</time>
      </trkpt>
      <trkpt lat="39.89901" lon="116.650194">
        <time>2021-10-15T13:11:30Z</time>
      </trkpt>
      <trkpt lat="39.89903" lon="116.650037">
        <time>2021-10-15T13:11:35Z</time>
      </trkpt>
      <trkpt lat="39.898993" lon="116.649955">
        <time>2021-10-15T13:11:40Z</time>
      </trkpt>
      <trkpt lat="39.899011" lon="116.649909">
        <time>2021-10-15T13:11:45Z</time>
      </trkpt>
      <trkpt lat="39.89893" lon="116.649827">
        <time>2021-10-15T13:11:50Z</time>
      </trkpt>
      <trkpt lat="39.89898" lon="116.649663">
        <time>2021-10-15T13:11:55Z</time>
      </trkpt>
      <trkpt lat="39.898923" lon="116.649493">
        <time>2021-10-15T13:12:00Z</time>
      </trkpt>
      <trkpt lat="39.898923" lon="116.649464">
        <time>2021-10-15T13:12:05Z</time>
      </trkpt>
      <trkpt lat="39.898939" lon="116.649173">
        <time>2021-10-15T13:12:10Z</time>
      </trkpt>
      <trkpt lat="39.89896" lon="116.649017">
        <time>2021-10-15T13:12:15Z</time>
      </trkpt>
      <trkpt lat="39.898971" lon="116.648864">
        <time>2021-10-15T13:12:20Z</time>
      </trkpt>
      <trkpt lat="39.898958" lon="116.64868">
        <time>2021-10-15T13:12:25Z</time>
      </trkpt>
      <trkpt lat="39.898922" lon="116.648518">
        <time>2021-10-15T13:12:30Z</time>
      </trkpt>
      <trkpt lat="39.898922" lon="116.64835">
        <time>2021-10-15T13:12:35Z</time>
      </trkpt>
      <trkpt lat="39.898921" lon="116.648205">
        <time>2021-10-15T13:12:40Z</time>
      </trkpt>
      <trkpt lat="39.898969" lon="116.648037">
        <time>2021-10-15T13:12:45Z</time>
      </trkpt>
      <trkpt lat="39.89897" lon="116.647856">
        <time>2021-10-15T13:12:50Z</time>
      </trkpt>
      <trkpt lat="39.899002" lon="116.647725">
        <time>2021-10-15T13:12:55Z</time>
      </trkpt>
      <trkpt lat="39.899044" lon="116.64756">
        <time>2021-10-15T13:13:00Z</time>
      </trkpt>
      <trkpt lat="39.899097" lon="116.6474">
        <time>2021-10-15T13:13:05Z</time>
      </trkpt>
      <trkpt lat="39.899062" lon="116.647235">
        <time>2021-10-15T13:13:10Z</time>
      </trkpt>
      <trkpt lat="39.898925" lon="116.647119">
        <time>2021-10-15T13:13:15Z</time>
      </trkpt>
      <trkpt lat="39.898807" lon="116.646972">
        <time>2021-10-15T13:13:20Z</time>
      </trkpt>
      <trkpt lat="39.898788" lon="116.64668">
        <time>2021-10-15T13:13:25Z</time>
      </trkpt>
      <trkpt lat="39.898785" lon="116.646653">
        <time>2021-10-15T13:13:30Z</time>
      </trkpt>
      <trkpt lat="39.898774" lon="116.646548">
        <time>2021-10-15T13:13:35Z</time>
      </trkpt>
      <trkpt lat="39.898778" lon="116.646491">
        <time>2021-10-15T13:13:40Z</time>
      </trkpt>
      <trkpt lat="39.898771" lon="116.646416">
        <time>2021-10-15T13:13:45Z</time>
      </trkpt>
      <trkpt lat="39.898767" lon="116.646327">
        <time>2021-10-15T13:13:50Z</time>
      </trkpt>
      <trkpt lat="39.898745" lon="116.646216">
        <time>2021-10-15T13:13:55Z</time>
      </trkpt>
      <trkpt lat="39.898717" lon="116.646084">
        <time>2021-10-15T13:14:00Z</time>
      </trkpt>
      <trkpt lat="39.898675" lon="116.645953">
        <time>2021-10-15T13:14:05Z</time>
      </trkpt>
      <trkpt lat="39.898597" lon="116.64582">
        <time>2021-10-15T13:14:10Z</time>
      </trkpt>
      <trkpt lat="39.898519" lon="116.645684">
        <time>2021-10-15T13:14:15Z</time>
      </trkpt>
      <trkpt lat="39.898472" lon="116.645526">
        <time>2021-10-15T13:14:20Z</time>
      </trkpt>
      <trkpt lat="39.898445" lon="116.645377">
        <time>2021-10-15T13:14:25Z</time>
      </trkpt>
      <trkpt lat="39.898396" lon="116.645233">
        <time>2021-10-15T13:14:30Z</time>
      </trkpt>
      <trkpt lat="39.898382" lon="116.645054">
        <time>2021-10-15T13:14:35Z</time>
      </trkpt>
      <trkpt lat="39.898383" lon="116.644893">
        <time>2021-10-15T13:14:40Z</time>
      </trkpt>
      <trkpt lat="39.898358" lon="116.644719">
        <time>2021-10-15T13:14:45Z</time>
      </trkpt>
      <trkpt lat="39.898353" lon="116.644568">
        <time>2021-10-15T13:14:50Z</time>
      </trkpt>
      <trkpt lat="39.898295" lon="116.644426">
        <time>2021-10-15T13:14:55Z</time>
      </trkpt>
      <trkpt lat="39.898267" lon="116.644243">
        <time>2021-10-15T13:15:00Z</time>
      </trkpt>
      <trkpt lat="39.898247" lon="116.644033">
        <time>2021-10-15T13:15:05Z</time>
      </trkpt>
      <trkpt lat="39.898266" lon="116.643843">
        <time>2021-10-15T13:15:10Z</time>
      </trkpt>
      <trkpt lat="39.898271" lon="116.643679">
        <time>2021-10-15T13:15:15Z</time>
      </trkpt>
      <trkpt lat="39.898274" lon="116.643497">
        <time>2021-10-15T13:15:20Z</time>
      </trkpt>
      <trkpt lat="39.898271" lon="116.643329">
        <time>2021-10-15T13:15:25Z</time>
      </trkpt>
      <trkpt lat="39.898288" lon="116.643116">
        <time>2021-10-15T13:15:30Z</time>
      </trkpt>
      <trkpt lat="39.8983" lon="116.642936">
        <time>2021-10-15T13:15:35Z</time>
      </trkpt>
      <trkpt lat="39.898308" lon="116.642764">
        <time>2021-10-15T13:15:40Z</time>
      </trkpt>
      <trkpt lat="39.898303" lon="116.642597">
        <time>2021-10-15T13:15:45Z</time>
      </trkpt>
      <trkpt lat="39.898289" lon="116.6424">
        <time>2021-10-15T13:15:50Z</time>
      </trkpt>
      <trkpt lat="39.898327" lon="116.642121">
        <time>2021-10-15T13:15:55Z</time>
      </trkpt>
      <trkpt lat="39.898334" lon="116.642089">
        <time>2021-10-15T13:16:00Z</time>
      </trkpt>
      <trkpt lat="39.898389" lon="116.642014">
        <time>2021-10-15T13:16:05Z</time>
      </trkpt>
      <trkpt lat="39.898402" lon="116.641837">
        <time>2021-10-15T13:16:10Z</time>
      </trkpt>
      <trkpt lat="39.898461" lon="116.641698">
        <time>2021-10-15T13:16:15Z</time>
      </trkpt>
      <trkpt lat="39.898488" lon="116.641577">
        <time>2021-10-15T13:16:20Z</time>
      </trkpt>
      <trkpt lat="39.898433" lon="116.641418">
        <time>2021-10-15T13:16:25Z</time>
      </trkpt>
      <trkpt lat="39.8983" lon="116.641294">
        <time>2021-10-15T13:16:30Z</time>
      </trkpt>
      <trkpt lat="39.898179" lon="116.641213">
        <time>2021-10-15T13:16:35Z</time>
      </trkpt>
      <trkpt lat="39.898059" lon="116.641175">
        <time>2021-10-15T13:16:40Z</time>
      </trkpt>
      <trkpt lat="39.897972" lon="116.641168">
        <time>2021-10-15T13:16:45Z</time>
      </trkpt>
      <trkpt lat="39.89792" lon="116.641123">
        <time>2021-10-15T13:16:50Z</time>
      </trkpt>
      <trkpt lat="39.897857" lon="116.64106">
        <time>2021-10-15T13:16:55Z</time>
      </trkpt>
      <trkpt lat="39.897767" lon="116.641004">
        <time>2021-10-15T13:17:00Z</time>
      </trkpt>
      <trkpt lat="39.897655" lon="116.640954">
        <time>2021-10-15T13:17:05Z</time>
      </trkpt>
      <trkpt lat="39.897494" lon="116.6409">
        <time>2021-10-15T13:17:10Z</time>
      </trkpt>
      <trkpt lat="39.897328" lon="116.640852">
        <time>2021-10-15T13:17:15Z</time>
      </trkpt>
      <trkpt lat="39.8972" lon="116.640807">
        <time>2021-10-15T13:17:20Z</time>
      </trkpt>
      <trkpt lat="39.897057" lon="116.640722">
        <time>2021-10-15T13:17:25Z</time>
      </trkpt>
      <trkpt lat="39.896986" lon="116.640672">
        <time>2021-10-15T13:17:30Z</time>
      </trkpt>
      <trkpt lat="39.896884" lon="116.640606">
        <time>2021-10-15T13:17:35Z</time>
      </trkpt>
      <trkpt lat="39.89676" lon="116.640566">
        <time>2021-10-15T13:17:40Z</time>
      </trkpt>
      <trkpt lat="39.896569" lon="116.64045">
        <time>2021-10-15T13:17:45Z</time>
      </trkpt>
      <trkpt lat="39.896516" lon="116.640426">
        <time>2021-10-15T13:17:50Z</time>
      </trkpt>
      <trkpt lat="39.896409" lon="116.640376">
        <time>2021-10-15T13:17:55Z</time>
      </trkpt>
      <trkpt lat="39.896299" lon="116.640303">
        <time>2021-10-15T13:18:00Z</time>
      </trkpt>
      <trkpt lat="39.896271" lon="116.640148">
        <time>2021-10-15T13:18:05Z</time>
      </trkpt>
      <trkpt lat="39.896275" lon="116.639992">
        <time>2021-10-15T13:18:10Z</time>
      </trkpt>
      <trkpt lat="39.896254" lon="116.639809">
        <time>2021-10-15T13:18:15Z</time>
      </trkpt>
      <trkpt lat="39.896251" lon="116.639612">
        <time>2021-10-15T13:18:20Z</time>
      </trkpt>
      <trkpt lat="39.896257" lon="116.639423">
        <time>2021-10-15T13:18:25Z</time>
      </trkpt>
      <trkpt lat="39.896249" lon="116.639277">
        <time>2021-10-15T13:18:30Z</time>
      </trkpt>
      <trkpt lat="39.89624" lon="116.639174">
        <time>2021-10-15T13:18:35Z</time>
      </trkpt>
      <trkpt lat="39.896221" lon="116.63905">
        <time>2021-10-15T13:18:40Z</time>
      </trkpt>
      <trkpt lat="39.896212" lon="116.638972">
        <time>2021-10-15T13:18:45Z</time>
      </trkpt>
      <trkpt lat="39.896187" lon="116.6389">
        <time>2021-10-15T13:18:50Z</time>
      </trkpt>
      <trkpt lat="39.896167" lon="116.638761">
        <time>2021-10-15T13:18:55Z</time>
      </trkpt>
      <trkpt lat="39.896174" lon="116.638608">
        <time>2021-10-15T13:19:00Z</time>
      </trkpt>
      <trkpt lat="39.896164" lon="116.638417">
        <time>2021-10-15T13:19:05Z</time>
      </trkpt>
      <trkpt lat="39.896167" lon="116.63824">
        <time>2021-10-15T13:19:10Z</time>
      </trkpt>
      <trkpt lat="39.896187" lon="116.638077">
        <time>2021-10-15T13:19:15Z</time>
      </trkpt>
      <trkpt lat="39.896212" lon="116.637902">
        <time>2021-10-15T13:19:20Z</time>
      </trkpt>
      <trkpt lat="39.896205" lon="116.63774">
        <time>2021-10-15T13:19:25Z</time>
      </trkpt>
      <trkpt lat="39.89617" lon="116.63753">
        <time>2021-10-15T13:19:30Z</time>
      </trkpt>
      <trkpt lat="39.896161" lon="116.637374">
        <time>2021-10-15T13:19:35Z</time>
      </trkpt>
      <trkpt lat="39.896144" lon="116.637176">
        <time>2021-10-15T13:19:40Z</time>
      </trkpt>
      <trkpt lat="39.896121" lon="116.63697">
        <time>2021-10-15T13:19:45Z</time>
      </trkpt>
      <trkpt lat="39.896061" lon="116.636752">
        <time>2021-10-15T13:19:50Z</time>
      </trkpt>
      <trkpt lat="39.896018" lon="116.636678">
        <time>2021-10-15T13:19:55Z</time>
      </trkpt>
      <trkpt lat="39.896002" lon="116.636757">
        <time>2021-10-15T13:20:00Z</time>
      </trkpt>
      <trkpt lat="39.896069" lon="116.636936">
        <time>2021-10-15T13:20:05Z</time>
      </trkpt>
      <trkpt lat="39.896105" lon="116.637118">
        <time>2021-10-15T13:20:10Z</time>
      </trkpt>
      <trkpt lat="39.896123" lon="116.637301">
        <time>2021-10-15T13:20:15Z</time>
      </trkpt>
      <trkpt lat="39.89614" lon="116.637483">
        <time>2021-10-15T13:20:20Z</time>
      </trkpt>
      <trkpt lat="39.896154" lon="116.637662">
        <time>2021-10-15T13:20:25Z</time>
      </trkpt>
      <trkpt lat="39.896156" lon="116.637768">
        <time>2021-10-15T13:20:30Z</time>
      </trkpt>
      <trkpt lat="39.896168" lon="116.63793">
        <time>2021-10-15T13:20:35Z</time>
      </trkpt>
      <trkpt lat="39.896188" lon="116.638111">
        <time>2021-10-15T13:20:40Z</time>
      </trkpt>
      <trkpt lat="39.896171" lon="116.638249">
        <time>2021-10-15T13:20:45Z</time>
      </trkpt>
      <trkpt lat="39.896169" lon="116.638326">
        <time>2021-10-15T13:20:50Z</time>
      </trkpt>
      <trkpt lat="39.896171" lon="116.638415">
        <time>2021-10-15T13:20:55Z</time>
      </trkpt>
      <trkpt lat="39.89618" lon="116.638531">
        <time>2021-10-15T13:21:00Z</time>
      </trkpt>
      <trkpt lat="39.896183" lon="116.638625">
        <time>2021-10-15T13:21:05Z</time>
      </trkpt>
      <trkpt lat="39.896181" lon="116.638742">
        <time>2021-10-15T13:21:10Z</time>
      </trkpt>
      <trkpt lat="39.896173" lon="116.638825">
        <time>2021-10-15T13:21:15Z</time>
      </trkpt>
      <trkpt lat="39.896188" lon="116.638947">
        <time>2021-10-15T13:21:20Z</time>
      </trkpt>
      <trkpt lat="39.896201" lon="116.639076">
        <time>2021-10-15T13:21:25Z</time>
      </trkpt>
      <trkpt lat="39.896222" lon="116.639166">
        <time>2021-10-15T13:21:30Z</time>
      </trkpt>
      <trkpt lat="39.896247" lon="116.639219">
        <time>2021-10-15T13:21:35Z</time>
      </trkpt>
      <trkpt lat="39.89624" lon="116.639284">
        <time>2021-10-15T13:21:40Z</time>
      </trkpt>
      <trkpt lat="39.896234" lon="116.639376">
        <time>2021-10-15T13:21:45Z</time>
      </trkpt>
      <trkpt lat="39.896252" lon="116.639518">
        <time>2021-10-15T13:21:50Z</time>
      </trkpt>
      <trkpt lat="39.89623" lon="116.639648">
        <time>2021-10-15T13:21:55Z</time>
      </trkpt>
      <trkpt lat="39.896203" lon="116.639799">
        <time>2021-10-15T13:22:00Z</time>
      </trkpt>
      <trkpt lat="39.896209" lon="116.639987">
        <time>2021-10-15T13:22:05Z</time>
      </trkpt>
      <trkpt lat="39.896238" lon="116.640174">
        <time>2021-10-15T13:22:10Z</time>
      </trkpt>
      <trkpt lat="39.896241" lon="116.640374">
        <time>2021-10-15T13:22:15Z</time>
      </trkpt>
      <trkpt lat="39.896226" lon="116.640595">
        <time>2021-10-15T13:22:20Z</time>
      </trkpt>
      <trkpt lat="39.896227" lon="116.64082">
        <time>2021-10-15T13:22:25Z</time>
      </trkpt>
      <trkpt lat="39.896223" lon="116.641028">
        <time>2021-10-15T13:22:30Z</time>
      </trkpt>
      <trkpt lat="39.896229" lon="116.641229">
        <time>2021-10-15T13:22:35Z</time>
      </trkpt>
      <trkpt lat="39.896214" lon="116.641447">
        <time>2021-10-15T13:22:40Z</time>
      </trkpt>
      <trkpt lat="39.896201" lon="116.64167">
        <time>2021-10-15T13:22:45Z</time>
      </trkpt>
      <trkpt lat="39.896171" lon="116.641874">
        <time>2021-10-15T13:22:50Z</time>
      </trkpt>
      <trkpt lat="39.896145" lon="116.64207">
        <time>2021-10-15T13:22:55Z</time>
      </trkpt>
      <trkpt lat="39.896148" lon="116.642249">
        <time>2021-10-15T13:23:00Z</time>
      </trkpt>
      <trkpt lat="39.896164" lon="116.642423">
        <time>2021-10-15T13:23:05Z</time>
      </trkpt>
      <trkpt lat="39.896175" lon="116.642584">
        <time>2021-10-15T13:23:10Z</time>
      </trkpt>
      <trkpt lat="39.896193" lon="116.642833">
        <time>2021-10-15T13:23:15Z</time>
      </trkpt>
      <trkpt lat="39.89618" lon="116.642941">
        <time>2021-10-15T13:23:20Z</time>
      </trkpt>
      <trkpt lat="39.896157" lon="116.643094">
        <time>2021-10-15T13:23:25Z</time>
      </trkpt>
      <trkpt lat="39.896163" lon="116.643216">
        <time>2021-10-15T13:23:30Z</time>
      </trkpt>
      <trkpt lat="39.896155" lon="116.643363">
        <time>2021-10-15T13:23:35Z</time>
      </trkpt>
      <trkpt lat="39.896162" lon="116.6434">
        <time>2021-10-15T13:23:40Z</time>
      </trkpt>
      <trkpt lat="39.896192" lon="116.643502">
        <time>2021-10-15T13:23:45Z</time>
      </trkpt>
      <trkpt lat="39.896199" lon="116.643611">
        <time>2021-10-15T13:23:50Z</time>
      </trkpt>
      <trkpt lat="39.896179" lon="116.643736">
        <time>2021-10-15T13:23:55Z</time>
      </trkpt>
      <trkpt lat="39.896172" lon="116.643856">
        <time>2021-10-15T13:24:00Z</time>
      </trkpt>
      <trkpt lat="39.896173" lon="116.644008">
        <time>2021-10-15T13:24:05Z</time>
      </trkpt>
      <trkpt lat="39.896171" lon="116.644158">
        <time>2021-10-15T13:24:10Z</time>
      </trkpt>
      <trkpt lat="39.896174" lon="116.644303">
        <time>2021-10-15T13:24:15Z</time>
      </trkpt>
      <trkpt lat="39.896181" lon="116.644519">
        <time>2021-10-15T13:24:20Z</time>
      </trkpt>
      <trkpt lat="39.896186" lon="116.644558">
        <time>2021-10-15T13:24:25Z</time>
      </trkpt>
      <trkpt lat="39.896197" lon="116.644682">
        <time>2021-10-15T13:24:30Z</time>
      </trkpt>
      <trkpt lat="39.896191" lon="116.644836">
        <time>2021-10-15T13:24:35Z</time>
      </trkpt>
      <trkpt lat="39.896191" lon="116.644978">
        <time>2021-10-15T13:24:40Z</time>
      </trkpt>
      <trkpt lat="39.896187" lon="116.645131">
        <time>2021-10-15T13:24:45Z</time>
      </trkpt>
      <trkpt lat="39.896168" lon="116.645268">
        <time>2021-10-15T13:24:50Z</time>
      </trkpt>
      <trkpt lat="39.896134" lon="116.645427">
        <time>2021-10-15T13:24:55Z</time>
      </trkpt>
      <trkpt lat="39.896099" lon="116.645561">
        <time>2021-10-15T13:25:00Z</time>
      </trkpt>
      <trkpt lat="39.896055" lon="116.645722">
        <time>2021-10-15T13:25:05Z</time>
      </trkpt>
      <trkpt lat="39.896049" lon="116.645883">
        <time>2021-10-15T13:25:10Z</time>
      </trkpt>
      <trkpt lat="39.89605" lon="116.646068">
        <time>2021-10-15T13:25:15Z</time>
      </trkpt>
      <trkpt lat="39.896045" lon="116.646243">
        <time>2021-10-15T13:25:20Z</time>
      </trkpt>
      <trkpt lat="39.896039" lon="116.646419">
        <time>2021-10-15T13:25:25Z</time>
      </trkpt>
      <trkpt lat="39.896039" lon="116.646574">
        <time>2021-10-15T13:25:30Z</time>
      </trkpt>
      <trkpt lat="39.896038" lon="116.646735">
        <time>2021-10-15T13:25:35Z</time>
      </trkpt>
      <trkpt lat="39.895908" lon="116.646805">
        <time>2021-10-15T13:25:40Z</time>
      </trkpt>
      <trkpt lat="39.895761" lon="116.646726">
        <time>2021-10-15T13:25:45Z</time>
      </trkpt>
      <trkpt lat="39.895628" lon="116.646649">
        <time>2021-10-15T13:25:50Z</time>
      </trkpt>
      <trkpt lat="39.895537" lon="116.646622">
        <time>2021-10-15T13:25:55Z</time>
      </trkpt>
      <trkpt lat="39.895472" lon="116.646608">
        <time>2021-10-15T13:26:00Z</time>
      </trkpt>
      <trkpt lat="39.895393" lon="116.646584">
        <time>2021-10-15T13:26:05Z</time>
      </trkpt>
      <trkpt lat="39.895314" lon="116.646549">
        <time>2021-10-15T13:26:10Z</time>
      </trkpt>
      <trkpt lat="39.895226" lon="116.646494">
        <time>2021-10-15T13:26:15Z</time>
      </trkpt>
      <trkpt lat="39.895152" lon="116.646408">
        <time>2021-10-15T13:26:20Z</time>
      </trkpt>
      <trkpt lat="39.894938" lon="116.646306">
        <time>2021-10-15T13:26:25Z</time>
      </trkpt>
      <trkpt lat="39.894888" lon="116.646297">
        <time>2021-10-15T13:26:30Z</time>
      </trkpt>
      <trkpt lat="39.894775" lon="116.646225">
        <time>2021-10-15T13:26:35Z</time>
      </trkpt>
      <trkpt lat="39.894653" lon="116.646164">
        <time>2021-10-15T13:26:40Z</time>
      </trkpt>
      <trkpt lat="39.894567" lon="116.646076">
        <time>2021-10-15T13:26:45Z</time>
      </trkpt>
      <trkpt lat="39.894437" lon="116.646022">
        <time>2021-10-15T13:26:50Z</time>
      </trkpt>
      <trkpt lat="39.894344" lon="116.645949">
        <time>2021-10-15T13:26:55Z</time>
      </trkpt>
      <trkpt lat="39.8942" lon="116.645831">
        <time>2021-10-15T13:27:00Z</time>
      </trkpt>
      <trkpt lat="39.894134" lon="116.645823">
        <time>2021-10-15T13:27:05Z</time>
      </trkpt>
      <trkpt lat="39.893979" lon="116.645837">
        <time>2021-10-15T13:27:10Z</time>
      </trkpt>
      <trkpt lat="39.893866" lon="116.64598">
        <time>2021-10-15T13:27:15Z</time>
      </trkpt>
      <trkpt lat="39.893759" lon="116.646133">
        <time>2021-10-15T13:27:20Z</time>
      </trkpt>
      <trkpt lat="39.893694" lon="116.646234">
        <time>2021-10-15T13:27:25Z</time>
      </trkpt>
      <trkpt lat="39.893615" lon="116.646327">
        <time>2021-10-15T13:27:30Z</time>
      </trkpt>
      <trkpt lat="39.893576" lon="116.646331">
        <time>2021-10-15T13:27:35Z</time>
      </trkpt>
      <trkpt lat="39.8935" lon="116.646286">
        <time>2021-10-15T13:27:40Z</time>
      </trkpt>
      <trkpt lat="39.89342" lon="116.646206">
        <time>2021-10-15T13:27:45Z</time>
      </trkpt>
      <trkpt lat="39.893286" lon="116.646133">
        <time>2021-10-15T13:27:50Z</time>
      </trkpt>
      <trkpt lat="39.893137" lon="116.646092">
        <time>2021-10-15T13:27:55Z</time>
      </trkpt>
      <trkpt lat="39.893018" lon="116.646053">
        <time>2021-10-15T13:28:00Z</time>
      </trkpt>
      <trkpt lat="39.892882" lon="116.645964">
        <time>2021-10-15T13:28:05Z</time>
      </trkpt>
      <trkpt lat="39.892736" lon="116.645875">
        <time>2021-10-15T13:28:10Z</time>
      </trkpt>
      <trkpt lat="39.892592" lon="116.645788">
        <time>2021-10-15T13:28:15Z</time>
      </trkpt>
      <trkpt lat="39.892444" lon="116.645732">
        <time>2021-10-15T13:28:20Z</time>
      </trkpt>
      <trkpt lat="39.892255" lon="116.645685">
        <time>2021-10-15T13:28:25Z</time>
      </trkpt>
      <trkpt lat="39.892229" lon="116.645677">
        <time>2021-10-15T13:28:30Z</time>
      </trkpt>
      <trkpt lat="39.89217" lon="116.645625">
        <time>2021-10-15T13:28:35Z</time>
      </trkpt>
      <trkpt lat="39.892093" lon="116.645566">
        <time>2021-10-15T13:28:40Z</time>
      </trkpt>
      <trkpt lat="39.891979" lon="116.64551">
        <time>2021-10-15T13:28:45Z</time>
      </trkpt>
      <trkpt lat="39.891834" lon="116.645408">
        <time>2021-10-15T13:28:50Z</time>
      </trkpt>
      <trkpt lat="39.891693" lon="116.645347">
        <time>2021-10-15T13:28:55Z</time>
      </trkpt>
      <trkpt lat="39.891566" lon="116.645316">
        <time>2021-10-15T13:29:00Z</time>
      </trkpt>
      <trkpt lat="39.891589" lon="116.645391">
        <time>2021-10-15T13:29:05Z</time>
      </trkpt>
      <trkpt lat="39.891738" lon="116.645457">
        <time>2021-10-15T13:29:10Z</time>
      </trkpt>
      <trkpt lat="39.891891" lon="116.645514">
        <time>2021-10-15T13:29:15Z</time>
      </trkpt>
      <trkpt lat="39.892027" lon="116.645573">
        <time>2021-10-15T13:29:20Z</time>
      </trkpt>
      <trkpt lat="39.892164" lon="116.645629">
        <time>2021-10-15T13:29:25Z</time>
      </trkpt>
      <trkpt lat="39.892293" lon="116.645704">
        <time>2021-10-15T13:29:30Z</time>
      </trkpt>
      <trkpt lat="39.892407" lon="116.645772">
        <time>2021-10-15T13:29:35Z</time>
      </trkpt>
      <trkpt lat="39.892535" lon="116.645858">
        <time>2021-10-15T13:29:40Z</time>
      </trkpt>
      <trkpt lat="39.892683" lon="116.645931">
        <time>2021-10-15T13:29:45Z</time>
      </trkpt>
      <trkpt lat="39.892819" lon="116.646">
        <time>2021-10-15T13:29:50Z</time>
      </trkpt>
      <trkpt lat="39.892953" lon="116.646053">
        <time>2021-10-15T13:29:55Z</time>
      </trkpt>
      <trkpt lat="39.893048" lon="116.646104">
        <time>2021-10-15T13:30:00Z</time>
      </trkpt>
      <trkpt lat="39.89317" lon="116.646125">
        <time>2021-10-15T13:30:05Z</time>
      </trkpt>
      <trkpt lat="39.893229" lon="116.646157">
        <time>2021-10-15T13:30:10Z</time>
      </trkpt>
      <trkpt lat="39.893339" lon="116.646257">
        <time>2021-10-15T13:30:15Z</time>
      </trkpt>
      <trkpt lat="39.893355" lon="116.646274">
        <time>2021-10-15T13:30:20Z</time>
      </trkpt>
      <trkpt lat="39.893429" lon="116.646307">
        <time>2021-10-15T13:30:25Z</time>
      </trkpt>
      <trkpt lat="39.893519" lon="116.646376">
        <time>2021-10-15T13:30:30Z</time>
      </trkpt>
      <trkpt lat="39.893636" lon="116.646405">
        <time>2021-10-15T13:30:35Z</time>
      </trkpt>
      <trkpt lat="39.893721" lon="116.646378">
        <time>2021-10-15T13:30:40Z</time>
      </trkpt>
      <trkpt lat="39.893785" lon="116.646288">
        <time>2021-10-15T13:30:45Z</time>
      </trkpt>
      <trkpt lat="39.893864" lon="116.646196">
        <time>2021-10-15T13:30:50Z</time>
      </trkpt>
      <trkpt lat="39.893931" lon="116.646094">
        <time>2021-10-15T13:30:55Z</time>
      </trkpt>
      <trkpt lat="39.894019" lon="116.646035">
        <time>2021-10-15T13:31:00Z</time>
      </trkpt>
      <trkpt lat="39.894077" lon="116.646023">
        <time>2021-10-15T13:31:05Z</time>
      </trkpt>
      <trkpt lat="39.894172" lon="116.646043">
        <time>2021-10-15T13:31:10Z</time>
      </trkpt>
      <trkpt lat="39.894258" lon="116.646086">
        <time>2021-10-15T13:31:15Z</time>
      </trkpt>
      <trkpt lat="39.894363" lon="116.646162">
        <time>2021-10-15T13:31:20Z</time>
      </trkpt>
      <trkpt lat="39.894479" lon="116.646231">
        <time>2021-10-15T13:31:25Z</time>
      </trkpt>
      <trkpt lat="39.894582" lon="116.646288">
        <time>2021-10-15T13:31:30Z</time>
      </trkpt>
      <trkpt lat="39.894686" lon="116.646344">
        <time>2021-10-15T13:31:35Z</time>
      </trkpt>
      <trkpt lat="39.894825" lon="116.646386">
        <time>2021-10-15T13:31:40Z</time>
      </trkpt>
      <trkpt lat="39.895009" lon="116.646433">
        <time>2021-10-15T13:31:45Z</time>
      </trkpt>
      <trkpt lat="39.895125" lon="116.646493">
        <time>2021-10-15T13:31:50Z</time>
      </trkpt>
      <trkpt lat="39.895259" lon="116.646538">
        <time>2021-10-15T13:31:55Z</time>
      </trkpt>
      <trkpt lat="39.895442" lon="116.646602">
        <time>2021-10-15T13:32:00Z</time>
      </trkpt>
      <trkpt lat="39.89548" lon="116.64662">
        <time>2021-10-15T13:32:05Z</time>
      </trkpt>
      <trkpt lat="39.895577" lon="116.646682">
        <time>2021-10-15T13:32:10Z</time>
      </trkpt>
      <trkpt lat="39.895676" lon="116.646729">
        <time>2021-10-15T13:32:15Z</time>
      </trkpt>
      <trkpt lat="39.895796" lon="116.646761">
        <time>2021-10-15T13:32:20Z</time>
      </trkpt>
      <trkpt lat="39.895908" lon="116.646805">
        <time>2021-10-15T13:32:25Z</time>
      </trkpt>
      <trkpt lat="39.896009" lon="116.64681">
        <time>2021-10-15T13:32:30Z</time>
      </trkpt>
      <trkpt lat="39.896076" lon="116.646704">
        <time>2021-10-15T13:32:35Z</time>
      </trkpt>
      <trkpt lat="39.896085" lon="116.646549">
        <time>2021-10-15T13:32:40Z</time>
      </trkpt>
      <trkpt lat="39.896065" lon="116.646376">
        <time>2021-10-15T13:32:45Z</time>
      </trkpt>
      <trkpt lat="39.896075" lon="116.646187">
        <time>2021-10-15T13:32:50Z</time>
      </trkpt>
      <trkpt lat="39.896088" lon="116.646018">
        <time>2021-10-15T13:32:55Z</time>
      </trkpt>
      <trkpt lat="39.896092" lon="116.645864">
        <time>2021-10-15T13:33:00Z</time>
      </trkpt>
      <trkpt lat="39.896114" lon="116.645696">
        <time>2021-10-15T13:33:05Z</time>
      </trkpt>
      <trkpt lat="39.89613" lon="116.645529">
        <time>2021-10-15T13:33:10Z</time>
      </trkpt>
      <trkpt lat="39.896136" lon="116.645355">
        <time>2021-10-15T13:33:15Z</time>
      </trkpt>
      <trkpt lat="39.896142" lon="116.645181">
        <time>2021-10-15T13:33:20Z</time>
      </trkpt>
      <trkpt lat="39.896167" lon="116.644925">
        <time>2021-10-15T13:33:25Z</time>
      </trkpt>
      <trkpt lat="39.896163" lon="116.644805">
        <time>2021-10-15T13:33:30Z</time>
      </trkpt>
      <trkpt lat="39.89617" lon="116.644607">
        <time>2021-10-15T13:33:35Z</time>
      </trkpt>
      <trkpt lat="39.896164" lon="116.644394">
        <time>2021-10-15T13:33:40Z</time>
      </trkpt>
      <trkpt lat="39.896201" lon="116.644152">
        <time>2021-10-15T13:33:45Z</time>
      </trkpt>
      <trkpt lat="39.896207" lon="116.644049">
        <time>2021-10-15T13:33:50Z</time>
      </trkpt>
      <trkpt lat="39.896207" lon="116.643865">
        <time>2021-10-15T13:33:55Z</time>
      </trkpt>
      <trkpt lat="39.896219" lon="116.643677">
        <time>2021-10-15T13:34:00Z</time>
      </trkpt>
      <trkpt lat="39.896221" lon="116.643517">
        <time>2021-10-15T13:34:05Z</time>
      </trkpt>
      <trkpt lat="39.896195" lon="116.64335">
        <time>2021-10-15T13:34:10Z</time>
      </trkpt>
      <trkpt lat="39.896178" lon="116.64325">
        <time>2021-10-15T13:34:15Z</time>
      </trkpt>
      <trkpt lat="39.896197" lon="116.64316">
        <time>2021-10-15T13:34:20Z</time>
      </trkpt>
      <trkpt lat="39.896207" lon="116.643054">
        <time>2021-10-15T13:34:25Z</time>
      </trkpt>
      <trkpt lat="39.896224" lon="116.642952">
        <time>2021-10-15T13:34:30Z</time>
      </trkpt>
      <trkpt lat="39.896241" lon="116.642862">
        <time>2021-10-15T13:34:35Z</time>
      </trkpt>
      <trkpt lat="39.896251" lon="116.642796">
        <time>2021-10-15T13:34:40Z</time>
      </trkpt>
      <trkpt lat="39.896258" lon="116.642685">
        <time>2021-10-15T13:34:45Z</time>
      </trkpt>
      <trkpt lat="39.896258" lon="116.642556">
        <time>2021-10-15T13:34:50Z</time>
      </trkpt>
      <trkpt lat="39.896245" lon="116.642433">
        <time>2021-10-15T13:34:55Z</time>
      </trkpt>
      <trkpt lat="39.896233" lon="116.642309">
        <time>2021-10-15T13:35:00Z</time>
      </trkpt>
      <trkpt lat="39.896226" lon="116.6422">
        <time>2021-10-15T13:35:05Z</time>
      </trkpt>
      <trkpt lat="39.89623" lon="116.642102">
        <time>2021-10-15T13:35:10Z</time>
      </trkpt>
      <trkpt lat="39.896243" lon="116.641979">
        <time>2021-10-15T13:35:15Z</time>
      </trkpt>
      <trkpt lat="39.896249" lon="116.641895">
        <time>2021-10-15T13:35:20Z</time>
      </trkpt>
      <trkpt lat="39.896236" lon="116.641733">
        <time>2021-10-15T13:35:25Z</time>
      </trkpt>
      <trkpt lat="39.896239" lon="116.641719">
        <time>2021-10-15T13:35:30Z</time>
      </trkpt>
      <trkpt lat="39.896233" lon="116.641618">
        <time>2021-10-15T13:35:35Z</time>
      </trkpt>
      <trkpt lat="39.896241" lon="116.641502">
        <time>2021-10-15T13:35:40Z</time>
      </trkpt>
      <trkpt lat="39.896248" lon="116.641412">
        <time>2021-10-15T13:35:45Z</time>
      </trkpt>
      <trkpt lat="39.896232" lon="116.641251">
        <time>2021-10-15T13:35:50Z</time>
      </trkpt>
      <trkpt lat="39.896228" lon="116.641065">
        <time>2021-10-15T13:35:55Z</time>
      </trkpt>
      <trkpt lat="39.896229" lon="116.640867">
        <time>2021-10-15T13:36:00Z</time>
      </trkpt>
      <trkpt lat="39.896218" lon="116.64065">
        <time>2021-10-15T13:36:05Z</time>
      </trkpt>
      <trkpt lat="39.896217" lon="116.640441">
        <time>2021-10-15T13:36:10Z</time>
      </trkpt>
      <trkpt lat="39.896251" lon="116.640107">
        <time>2021-10-15T13:36:15Z</time>
      </trkpt>
      <trkpt lat="39.896255" lon="116.64007">
        <time>2021-10-15T13:36:20Z</time>
      </trkpt>
      <trkpt lat="39.896256" lon="116.639875">
        <time>2021-10-15T13:36:25Z</time>
      </trkpt>
      <trkpt lat="39.896243" lon="116.639688">
        <time>2021-10-15T13:36:30Z</time>
      </trkpt>
      <trkpt lat="39.896228" lon="116.639529">
        <time>2021-10-15T13:36:35Z</time>
      </trkpt>
      <trkpt lat="39.896237" lon="116.639308">
        <time>2021-10-15T13:36:40Z</time>
      </trkpt>
      <trkpt lat="39.896238" lon="116.639198">
        <time>2021-10-15T13:36:45Z</time>
      </trkpt>
      <trkpt lat="39.896232" lon="116.639065">
        <time>2021-10-15T13:36:50Z</time>
      </trkpt>
      <trkpt lat="39.896216" lon="116.638999">
        <time>2021-10-15T13:36:55Z</time>
      </trkpt>
      <trkpt lat="39.896203" lon="116.638901">
        <time>2021-10-15T13:37:00Z</time>
      </trkpt>
      <trkpt lat="39.896217" lon="116.63883">
        <time>2021-10-15T13:37:05Z</time>
      </trkpt>
      <trkpt lat="39.896209" lon="116.638769">
        <time>2021-10-15T13:37:10Z</time>
      </trkpt>
      <trkpt lat="39.8962" lon="116.638649">
        <time>2021-10-15T13:37:15Z</time>
      </trkpt>
      <trkpt lat="39.896182" lon="116.63854">
        <time>2021-10-15T13:37:20Z</time>
      </trkpt>
      <trkpt lat="39.896164" lon="116.638416">
        <time>2021-10-15T13:37:25Z</time>
      </trkpt>
      <trkpt lat="39.896161" lon="116.638297">
        <time>2021-10-15T13:37:30Z</time>
      </trkpt>
      <trkpt lat="39.896176" lon="116.63817">
        <time>2021-10-15T13:37:35Z</time>
      </trkpt>
      <trkpt lat="39.896165" lon="116.638037">
        <time>2021-10-15T13:37:40Z</time>
      </trkpt>
      <trkpt lat="39.896167" lon="116.637885">
        <time>2021-10-15T13:37:45Z</time>
      </trkpt>
      <trkpt lat="39.896162" lon="116.637744">
        <time>2021-10-15T13:37:50Z</time>
      </trkpt>
      <trkpt lat="39.896158" lon="116.637584">
        <time>2021-10-15T13:37:55Z</time>
      </trkpt>
      <trkpt lat="39.896153" lon="116.637441">
        <time>2021-10-15T13:38:00Z</time>
      </trkpt>
      <trkpt lat="39.896146" lon="116.637299">
        <time>2021-10-15T13:38:05Z</time>
      </trkpt>
      <trkpt lat="39.896133" lon="116.637136">
        <time>2021-10-15T13:38:10Z</time>
      </trkpt>
      <trkpt lat="39.896126" lon="116.636997">
        <time>2021-10-15T13:38:15Z</time>
      </trkpt>
      <trkpt lat="39.896073" lon="116.636748">
        <time>2021-10-15T13:38:20Z</time>
      </trkpt>
      <trkpt lat="39.89605" lon="116.6367">
        <time>2021-10-15T13:38:25Z</time>
      </trkpt>
      <trkpt lat="39.895997" lon="116.636635">
        <time>2021-10-15T13:38:30Z</time>
      </trkpt>
      <trkpt lat="39.895925" lon="116.636569">
        <time>2021-10-15T13:38:35Z</time>
      </trkpt>
      <trkpt lat="39.89585" lon="116.636486">
        <time>2021-10-15T13:38:40Z</time>
      </trkpt>
      <trkpt lat="39.89591" lon="116.636368">
        <time>2021-10-15T13:38:45Z</time>
      </trkpt>
      <trkpt lat="39.896055" lon="116.636297">
        <time>2021-10-15T13:38:50Z</time>
      </trkpt>
      <trkpt lat="39.896147" lon="116.636244">
        <time>2021-10-15T13:38:55Z</time>
      </trkpt>
      <trkpt lat="39.896217" lon="116.636215">
        <time>2021-10-15T13:39:00Z</time>
      </trkpt>
      <trkpt lat="39.896282" lon="116.636154">
        <time>2021-10-15T13:39:05Z</time>
      </trkpt>
      <trkpt lat="39.896372" lon="116.636102">
        <time>2021-10-15T13:39:10Z</time>
      </trkpt>
      <trkpt lat="39.896476" lon="116.636029">
        <time>2021-10-15T13:39:15Z</time>
      </trkpt>
      <trkpt lat="39.896687" lon="116.635894">
        <time>2021-10-15T13:39:20Z</time>
      </trkpt>
      <trkpt lat="39.89671" lon="116.635883">
        <time>2021-10-15T13:39:25Z</time>
      </trkpt>
      <trkpt lat="39.896804" lon="116.635829">
        <time>2021-10-15T13:39:30Z</time>
      </trkpt>
      <trkpt lat="39.896875" lon="116.635757">
        <time>2021-10-15T13:39:35Z</time>
      </trkpt>
      <trkpt lat="39.896929" lon="116.635753">
        <time>2021-10-15T13:39:40Z</time>
      </trkpt>
      <trkpt lat="39.89704" lon="116.63573">
        <time>2021-10-15T13:39:45Z</time>
      </trkpt>
      <trkpt lat="39.897131" lon="116.635712">
        <time>2021-10-15T13:39:50Z</time>
      </trkpt>
      <trkpt lat="39.897227" lon="116.635672">
        <time>2021-10-15T13:39:55Z</time>
      </trkpt>
      <trkpt lat="39.897344" lon="116.635578">
        <time>2021-10-15T13:40:00Z</time>
      </trkpt>
      <trkpt lat="39.897431" lon="116.63549">
        <time>2021-10-15T13:40:05Z</time>
      </trkpt>
      <trkpt lat="39.897518" lon="116.635424">
        <time>2021-10-15T13:40:10Z</time>
      </trkpt>
      <trkpt lat="39.897615" lon="116.635369">
        <time>2021-10-15T13:40:15Z</time>
      </trkpt>
      <trkpt lat="39.897725" lon="116.63531">
        <time>2021-10-15T13:40:20Z</time>
      </trkpt>
      <trkpt lat="39.897892" lon="116.6352">
        <time>2021-10-15T13:40:25Z</time>
      </trkpt>
      <trkpt lat="39.898051" lon="116.635014">
        <time>2021-10-15T13:40:30Z</time>
      </trkpt>
      <trkpt lat="39.89821" lon="116.634906">
        <time>2021-10-15T13:40:35Z</time>
      </trkpt>
      <trkpt lat="39.898355" lon="116.634823">
        <time>2021-10-15T13:40:40Z</time>
      </trkpt>
      <trkpt lat="39.898503" lon="116.634739">
        <time>2021-10-15T13:40:45Z</time>
      </trkpt>
      <trkpt lat="39.898633" lon="116.634654">
        <time>2021-10-15T13:40:50Z</time>
      </trkpt>
      <trkpt lat="39.898768" lon="116.634595">
        <time>2021-10-15T13:40:55Z</time>
      </trkpt>
      <trkpt lat="39.898916" lon="116.634517">
        <time>2021-10-15T13:41:00Z</time>
      </trkpt>
      <trkpt lat="39.899036" lon="116.634449">
        <time>2021-10-15T13:41:05Z</time>
      </trkpt>
      <trkpt lat="39.89914" lon="116.63439">
        <time>2021-10-15T13:41:10Z</time>
      </trkpt>
      <trkpt lat="39.89921" lon="116.634366">
        <time>2021-10-15T13:41:15Z</time>
      </trkpt>
      <trkpt lat="39.899289" lon="116.634325">
        <time>2021-10-15T13:41:20Z</time>
      </trkpt>
      <trkpt lat="39.899357" lon="116.634264">
        <time>2021-10-15T13:41:25Z</time>
      </trkpt>
      <trkpt lat="39.899435" lon="116.634216">
        <time>2021-10-15T13:41:30Z</time>
      </trkpt>
      <trkpt lat="39.899518" lon="116.634194">
        <time>2021-10-15T13:41:35Z</time>
      </trkpt>
      <trkpt lat="39.899609" lon="116.634192">
        <time>2021-10-15T13:41:40Z</time>
      </trkpt>
      <trkpt lat="39.899704" lon="116.634106">
        <time>2021-10-15T13:41:45Z</time>
      </trkpt>
      <trkpt lat="39.8998" lon="116.634029">
        <time>2021-10-15T13:41:50Z</time>
      </trkpt>
      <trkpt lat="39.899906" lon="116.633939">
        <time>2021-10-15T13:41:55Z</time>
      </trkpt>
      <trkpt lat="39.900012" lon="116.633853">
        <time>2021-10-15T13:42:00Z</time>
      </trkpt>
      <trkpt lat="39.900122" lon="116.633738">
        <time>2021-10-15T13:42:05Z</time>
      </trkpt>
      <trkpt lat="39.90022" lon="116.633675">
        <time>2021-10-15T13:42:10Z</time>
      </trkpt>
      <trkpt lat="39.900379" lon="116.633546">
        <time>2021-10-15T13:42:15Z</time>
      </trkpt>
      <trkpt lat="39.900418" lon="116.633507">
        <time>2021-10-15T13:42:20Z</time>
      </trkpt>
      <trkpt lat="39.900497" lon="116.633456">
        <time>2021-10-15T13:42:25Z</time>
      </trkpt>
      <trkpt lat="39.900579" lon="116.633403">
        <time>2021-10-15T13:42:30Z</time>
      </trkpt>
      <trkpt lat="39.900622" lon="116.633367">
        <time>2021-10-15T13:42:35Z</time>
      </trkpt>
      <trkpt lat="39.900684" lon="116.63334">
        <time>2021-10-15T13:42:40Z</time>
      </trkpt>
      <trkpt lat="39.900741" lon="116.633327">
        <time>2021-10-15T13:42:45Z</time>
      </trkpt>
      <trkpt lat="39.900799" lon="116.633273">
        <time>2021-10-15T13:42:50Z</time>
      </trkpt>
      <trkpt lat="39.900866" lon="116.633233">
        <time>2021-10-15T13:42:55Z</time>
      </trkpt>
      <trkpt lat="39.900941" lon="116.633193">
        <time>2021-10-15T13:43:00Z</time>
      </trkpt>
      <trkpt lat="39.901025" lon="116.633245">
        <time>2021-10-15T13:43:05Z</time>
      </trkpt>
      <trkpt lat="39.901046" lon="116.633378">
        <time>2021-10-15T13:43:10Z</time>
      </trkpt>
      <trkpt lat="39.901024" lon="116.633505">
        <time>2021-10-15T13:43:15Z</time>
      </trkpt>
      <trkpt lat="39.900995" lon="116.633651">
        <time>2021-10-15T13:43:20Z</time>
      </trkpt>
      <trkpt lat="39.900978" lon="116.633825">
        <time>2021-10-15T13:43:25Z</time>
      </trkpt>
      <trkpt lat="39.900975" lon="116.633953">
        <time>2021-10-15T13:43:30Z</time>
      </trkpt>
      <trkpt lat="39.900916" lon="116.634036">
        <time>2021-10-15T13:43:35Z</time>
      </trkpt>
      <trkpt lat="39.900909" lon="116.634198">
        <time>2021-10-15T13:43:40Z</time>
      </trkpt>
      <trkpt lat="39.900971" lon="116.634162">
        <time>2021-10-15T13:43:45Z</time>
      </trkpt>
      <trkpt lat="39.901006" lon="116.63399">
        <time>2021-10-15T13:43:50Z</time>
      </trkpt>
      <trkpt lat="39.901034" lon="116.633834">
        <time>2021-10-15T13:43:55Z</time>
      </trkpt>
      <trkpt lat="39.90104" lon="116.633665">
        <time>2021-10-15T13:44:00Z</time>
      </trkpt>
      <trkpt lat="39.901051" lon="116.633505">
        <time>2021-10-15T13:44:05Z</time>
      </trkpt>
      <trkpt lat="39.901078" lon="116.633393">
        <time>2021-10-15T13:44:10Z</time>
      </trkpt>
      <trkpt lat="39.901073" lon="116.633272">
        <time>2021-10-15T13:44:15Z</time>
      </trkpt>
      <trkpt lat="39.90096" lon="116.633091">
        <time>2021-10-15T13:44:20Z</time>
      </trkpt>
      <trkpt lat="39.900889" lon="116.632951">
        <time>2021-10-15T13:44:25Z</time>
      </trkpt>
      <trkpt lat="39.900851" lon="116.632819">
        <time>2021-10-15T13:44:30Z</time>
      </trkpt>
      <trkpt lat="39.900736" lon="116.63278">
        <time>2021-10-15T13:44:35Z</time>
      </trkpt>
      <trkpt lat="39.900609" lon="116.632915">
        <time>2021-10-15T13:44:40Z</time>
      </trkpt>
      <trkpt lat="39.900505" lon="116.633022">
        <time>2021-10-15T13:44:45Z</time>
      </trkpt>
      <trkpt lat="39.900395" lon="116.633119">
        <time>2021-10-15T13:44:50Z</time>
      </trkpt>
      <trkpt lat="39.900257" lon="116.633215">
        <time>2021-10-15T13:44:55Z</time>
      </trkpt>
      <trkpt lat="39.900129" lon="116.633289">
        <time>2021-10-15T13:45:00Z</time>
      </trkpt>
      <trkpt lat="39.900029" lon="116.633339">
        <time>2021-10-15T13:45:05Z</time>
      </trkpt>
      <trkpt lat="39.899955" lon="116.633365">
        <time>2021-10-15T13:45:10Z</time>
      </trkpt>
      <trkpt lat="39.899894" lon="116.633408">
        <time>2021-10-15T13:45:15Z</time>
      </trkpt>
      <trkpt lat="39.899834" lon="116.633446">
        <time>2021-10-15T13:45:20Z</time>
      </trkpt>
      <trkpt lat="39.899755" lon="116.633514">
        <time>2021-10-15T13:45:25Z</time>
      </trkpt>
      <trkpt lat="39.899652" lon="116.633583">
        <time>2021-10-15T13:45:30Z</time>
      </trkpt>
      <trkpt lat="39.899526" lon="116.633719">
        <time>2021-10-15T13:45:35Z</time>
      </trkpt>
      <trkpt lat="39.899458" lon="116.633771">
        <time>2021-10-15T13:45:40Z</time>
      </trkpt>
      <trkpt lat="39.89935" lon="116.633857">
        <time>2021-10-15T13:45:45Z</time>
      </trkpt>
      <trkpt lat="39.899206" lon="116.633926">
        <time>2021-10-15T13:45:50Z</time>
      </trkpt>
      <trkpt lat="39.899121" lon="116.633978">
        <time>2021-10-15T13:45:55Z</time>
      </trkpt>
      <trkpt lat="39.899013" lon="116.634055">
        <time>2021-10-15T13:46:00Z</time>
      </trkpt>
      <trkpt lat="39.898906" lon="116.634118">
        <time>2021-10-15T13:46:05Z</time>
      </trkpt>
      <trkpt lat="39.898815" lon="116.634178">
        <time>2021-10-15T13:46:10Z</time>
      </trkpt>
      <trkpt lat="39.898711" lon="116.634206">
        <time>2021-10-15T13:46:15Z</time>
      </trkpt>
      <trkpt lat="39.898603" lon="116.634256">
        <time>2021-10-15T13:46:20Z</time>
      </trkpt>
      <trkpt lat="39.898498" lon="116.634326">
        <time>2021-10-15T13:46:25Z</time>
      </trkpt>
      <trkpt lat="39.898412" lon="116.634404">
        <time>2021-10-15T13:46:30Z</time>
      </trkpt>
      <trkpt lat="39.898311" lon="116.634471">
        <time>2021-10-15T13:46:35Z</time>
      </trkpt>
      <trkpt lat="39.898262" lon="116.634504">
        <time>2021-10-15T13:46:40Z</time>
      </trkpt>
      <trkpt lat="39.89819" lon="116.634563">
        <time>2021-10-15T13:46:45Z</time>
      </trkpt>
      <trkpt lat="39.898112" lon="116.634601">
        <time>2021-10-15T13:46:50Z</time>
      </trkpt>
      <trkpt lat="39.898043" lon="116.634563">
        <time>2021-10-15T13:46:55Z</time>
      </trkpt>
      <trkpt lat="39.897999" lon="116.634449">
        <time>2021-10-15T13:47:00Z</time>
      </trkpt>
      <trkpt lat="39.897966" lon="116.634335">
        <time>2021-10-15T13:47:05Z</time>
      </trkpt>
      <trkpt lat="39.897897" lon="116.634188">
        <time>2021-10-15T13:47:10Z</time>
      </trkpt>
      <trkpt lat="39.897777" lon="116.634011">
        <time>2021-10-15T13:47:15Z</time>
      </trkpt>
      <trkpt lat="39.897677" lon="116.633848">
        <time>2021-10-15T13:47:20Z</time>
      </trkpt>
      <trkpt lat="39.897601" lon="116.633688">
        <time>2021-10-15T13:47:25Z</time>
      </trkpt>
      <trkpt lat="39.897473" lon="116.63369">
        <time>2021-10-15T13:47:30Z</time>
      </trkpt>
      <trkpt lat="39.897393" lon="116.633778">
        <time>2021-10-15T13:47:35Z</time>
      </trkpt>
      <trkpt lat="39.897287" lon="116.633797">
        <time>2021-10-15T13:47:40Z</time>
      </trkpt>
      <trkpt lat="39.89726" lon="116.633673">
        <time>2021-10-15T13:47:45Z</time>
      </trkpt>
      <trkpt lat="39.89725" lon="116.633532">
        <time>2021-10-15T13:47:50Z</time>
      </trkpt>
      <trkpt lat="39.897215" lon="116.633371">
        <time>2021-10-15T13:47:55Z</time>
      </trkpt>
      <trkpt lat="39.897176" lon="116.633214">
        <time>2021-10-15T13:48:00Z</time>
      </trkpt>
      <trkpt lat="39.897071" lon="116.633033">
        <time>2021-10-15T13:48:05Z</time>
      </trkpt>
      <trkpt lat="39.897007" lon="116.632945">
        <time>2021-10-15T13:48:10Z</time>
      </trkpt>
      <trkpt lat="39.896862" lon="116.632869">
        <time>2021-10-15T13:48:15Z</time>
      </trkpt>
      <trkpt lat="39.896769" lon="116.63298">
        <time>2021-10-15T13:48:20Z</time>
      </trkpt>
      <trkpt lat="39.896803" lon="116.633105">
        <time>2021-10-15T13:48:25Z</time>
      </trkpt>
      <trkpt lat="39.896855" lon="116.633227">
        <time>2021-10-15T13:48:30Z</time>
      </trkpt>
      <trkpt lat="39.896909" lon="116.63336">
        <time>2021-10-15T13:48:35Z</time>
      </trkpt>
      <trkpt lat="39.897013" lon="116.633472">
        <time>2021-10-15T13:48:40Z</time>
      </trkpt>
      <trkpt lat="39.897086" lon="116.633578">
        <time>2021-10-15T13:48:45Z</time>
      </trkpt>
      <trkpt lat="39.897161" lon="116.633794">
        <time>2021-10-15T13:48:50Z</time>
      </trkpt>
      <trkpt lat="39.897204" lon="116.633946">
        <time>2021-10-15T13:48:55Z</time>
      </trkpt>
      <trkpt lat="39.897281" lon="116.634124">
        <time>2021-10-15T13:49:00Z</time>
      </trkpt>
      <trkpt lat="39.897416" lon="116.634199">
        <time>2021-10-15T13:49:05Z</time>
      </trkpt>
      <trkpt lat="39.897481" lon="116.634262">
        <time>2021-10-15T13:49:10Z</time>
      </trkpt>
      <trkpt lat="39.897481" lon="116.634262">
        <time>2021-10-15T13:50:40Z</time>
      </trkpt>
    </trkseg>
  </trk>
</gpx>