<?xml version="1.0" encoding="UTF-8"?>
<gpx xmlns="http://www.topografix.com/GPX/1/1" xmlns:gpxtpx="http://www.garmin.com/xmlschemas/TrackPointExtension/v1" xmlns:xsi="http://www.w3.org/2001/XMLSchema-instance" xsi:schemaLocation="http://www.topografix.com/GPX/1/1 http://www.topografix.com/GPX/1/1/gpx.xsd" version="1.1" creator="gpx.py -- https://github.com/tkrajina/gpxpy">
  <trk>
    <name>gpx from keep</name>
    <trkseg>
      <trkpt lat="39.898159" lon="116.634851">
        <time>2021-10-17T11:54:13Z</time>
      </trkpt>
      <trkpt lat="39.898159" lon="116.634851">
        <time>2021-10-17T11:54:18Z</time>
      </trkpt>
      <trkpt lat="39.898139" lon="116.634989">
        <time>2021-10-17T11:54:23Z</time>
      </trkpt>
      <trkpt lat="39.89812" lon="116.634839">
        <time>2021-10-17T11:54:28Z</time>
      </trkpt>
      <trkpt lat="39.898116" lon="116.634936">
        <time>2021-10-17T11:54:33Z</time>
      </trkpt>
      <trkpt lat="39.898112" lon="116.634985">
        <time>2021-10-17T11:54:38Z</time>
      </trkpt>
      <trkpt lat="39.897982" lon="116.635121">
        <time>2021-10-17T11:54:43Z</time>
      </trkpt>
      <trkpt lat="39.897863" lon="116.635205">
        <time>2021-10-17T11:54:48Z</time>
      </trkpt>
      <trkpt lat="39.897729" lon="116.63529">
        <time>2021-10-17T11:54:53Z</time>
      </trkpt>
      <trkpt lat="39.897586" lon="116.635388">
        <time>2021-10-17T11:54:58Z</time>
      </trkpt>
      <trkpt lat="39.897447" lon="116.635534">
        <time>2021-10-17T11:55:03Z</time>
      </trkpt>
      <trkpt lat="39.897334" lon="116.635607">
        <time>2021-10-17T11:55:08Z</time>
      </trkpt>
      <trkpt lat="39.897239" lon="116.635655">
        <time>2021-10-17T11:55:13Z</time>
      </trkpt>
      <trkpt lat="39.897136" lon="116.635715">
        <time>2021-10-17T11:55:18Z</time>
      </trkpt>
      <trkpt lat="39.897042" lon="116.635768">
        <time>2021-10-17T11:55:23Z</time>
      </trkpt>
      <trkpt lat="39.896939" lon="116.635789">
        <time>2021-10-17T11:55:28Z</time>
      </trkpt>
      <trkpt lat="39.896835" lon="116.635874">
        <time>2021-10-17T11:55:33Z</time>
      </trkpt>
      <trkpt lat="39.896724" lon="116.635958">
        <time>2021-10-17T11:55:38Z</time>
      </trkpt>
      <trkpt lat="39.896563" lon="116.63603">
        <time>2021-10-17T11:55:43Z</time>
      </trkpt>
      <trkpt lat="39.896501" lon="116.636065">
        <time>2021-10-17T11:55:48Z</time>
      </trkpt>
      <trkpt lat="39.896422" lon="116.63609">
        <time>2021-10-17T11:55:53Z</time>
      </trkpt>
      <trkpt lat="39.896336" lon="116.636161">
        <time>2021-10-17T11:55:58Z</time>
      </trkpt>
      <trkpt lat="39.896274" lon="116.636218">
        <time>2021-10-17T11:56:03Z</time>
      </trkpt>
      <trkpt lat="39.896192" lon="116.636331">
        <time>2021-10-17T11:56:08Z</time>
      </trkpt>
      <trkpt lat="39.89614" lon="116.636431">
        <time>2021-10-17T11:56:13Z</time>
      </trkpt>
      <trkpt lat="39.896132" lon="116.636477">
        <time>2021-10-17T11:56:18Z</time>
      </trkpt>
      <trkpt lat="39.896115" lon="116.636486">
        <time>2021-10-17T11:56:23Z</time>
      </trkpt>
      <trkpt lat="39.896122" lon="116.636485">
        <time>2021-10-17T11:56:28Z</time>
      </trkpt>
      <trkpt lat="39.896127" lon="116.636516">
        <time>2021-10-17T11:56:33Z</time>
      </trkpt>
      <trkpt lat="39.896108" lon="116.636547">
        <time>2021-10-17T11:56:38Z</time>
      </trkpt>
      <trkpt lat="39.896076" lon="116.636574">
        <time>2021-10-17T11:56:43Z</time>
      </trkpt>
      <trkpt lat="39.896021" lon="116.636644">
        <time>2021-10-17T11:56:48Z</time>
      </trkpt>
      <trkpt lat="39.896055" lon="116.636797">
        <time>2021-10-17T11:56:53Z</time>
      </trkpt>
      <trkpt lat="39.896073" lon="116.637031">
        <time>2021-10-17T11:56:58Z</time>
      </trkpt>
      <trkpt lat="39.896103" lon="116.637139">
        <time>2021-10-17T11:57:03Z</time>
      </trkpt>
      <trkpt lat="39.896173" lon="116.637315">
        <time>2021-10-17T11:57:08Z</time>
      </trkpt>
      <trkpt lat="39.896217" lon="116.637493">
        <time>2021-10-17T11:57:13Z</time>
      </trkpt>
      <trkpt lat="39.89622" lon="116.637631">
        <time>2021-10-17T11:57:18Z</time>
      </trkpt>
      <trkpt lat="39.896216" lon="116.63774">
        <time>2021-10-17T11:57:23Z</time>
      </trkpt>
      <trkpt lat="39.896229" lon="116.637929">
        <time>2021-10-17T11:57:28Z</time>
      </trkpt>
      <trkpt lat="39.89622" lon="116.638084">
        <time>2021-10-17T11:57:33Z</time>
      </trkpt>
      <trkpt lat="39.896217" lon="116.638203">
        <time>2021-10-17T11:57:38Z</time>
      </trkpt>
      <trkpt lat="39.896243" lon="116.63837">
        <time>2021-10-17T11:57:43Z</time>
      </trkpt>
      <trkpt lat="39.896225" lon="116.638552">
        <time>2021-10-17T11:57:48Z</time>
      </trkpt>
      <trkpt lat="39.89622" lon="116.63872">
        <time>2021-10-17T11:57:53Z</time>
      </trkpt>
      <trkpt lat="39.896225" lon="116.638858">
        <time>2021-10-17T11:57:58Z</time>
      </trkpt>
      <trkpt lat="39.896215" lon="116.638972">
        <time>2021-10-17T11:58:03Z</time>
      </trkpt>
      <trkpt lat="39.896205" lon="116.639117">
        <time>2021-10-17T11:58:08Z</time>
      </trkpt>
      <trkpt lat="39.896231" lon="116.639289">
        <time>2021-10-17T11:58:13Z</time>
      </trkpt>
      <trkpt lat="39.896272" lon="116.639433">
        <time>2021-10-17T11:58:18Z</time>
      </trkpt>
      <trkpt lat="39.89627" lon="116.639595">
        <time>2021-10-17T11:58:23Z</time>
      </trkpt>
      <trkpt lat="39.896261" lon="116.639726">
        <time>2021-10-17T11:58:28Z</time>
      </trkpt>
      <trkpt lat="39.896261" lon="116.639898">
        <time>2021-10-17T11:58:33Z</time>
      </trkpt>
      <trkpt lat="39.89626" lon="116.64006">
        <time>2021-10-17T11:58:38Z</time>
      </trkpt>
      <trkpt lat="39.896249" lon="116.640277">
        <time>2021-10-17T11:58:43Z</time>
      </trkpt>
      <trkpt lat="39.896246" lon="116.64049">
        <time>2021-10-17T11:58:48Z</time>
      </trkpt>
      <trkpt lat="39.896255" lon="116.640788">
        <time>2021-10-17T11:58:53Z</time>
      </trkpt>
      <trkpt lat="39.896254" lon="116.640859">
        <time>2021-10-17T11:58:58Z</time>
      </trkpt>
      <trkpt lat="39.896261" lon="116.641021">
        <time>2021-10-17T11:59:03Z</time>
      </trkpt>
      <trkpt lat="39.896256" lon="116.641173">
        <time>2021-10-17T11:59:08Z</time>
      </trkpt>
      <trkpt lat="39.896246" lon="116.641323">
        <time>2021-10-17T11:59:13Z</time>
      </trkpt>
      <trkpt lat="39.896224" lon="116.64147">
        <time>2021-10-17T11:59:18Z</time>
      </trkpt>
      <trkpt lat="39.896212" lon="116.641639">
        <time>2021-10-17T11:59:23Z</time>
      </trkpt>
      <trkpt lat="39.896208" lon="116.641794">
        <time>2021-10-17T11:59:28Z</time>
      </trkpt>
      <trkpt lat="39.896156" lon="116.641895">
        <time>2021-10-17T11:59:33Z</time>
      </trkpt>
      <trkpt lat="39.896131" lon="116.642039">
        <time>2021-10-17T11:59:38Z</time>
      </trkpt>
      <trkpt lat="39.896159" lon="116.642261">
        <time>2021-10-17T11:59:43Z</time>
      </trkpt>
      <trkpt lat="39.896169" lon="116.642361">
        <time>2021-10-17T11:59:48Z</time>
      </trkpt>
      <trkpt lat="39.896187" lon="116.642518">
        <time>2021-10-17T11:59:53Z</time>
      </trkpt>
      <trkpt lat="39.896212" lon="116.642672">
        <time>2021-10-17T11:59:58Z</time>
      </trkpt>
      <trkpt lat="39.896233" lon="116.642814">
        <time>2021-10-17T12:00:03Z</time>
      </trkpt>
      <trkpt lat="39.896218" lon="116.642956">
        <time>2021-10-17T12:00:08Z</time>
      </trkpt>
      <trkpt lat="39.896172" lon="116.643081">
        <time>2021-10-17T12:00:13Z</time>
      </trkpt>
      <trkpt lat="39.896173" lon="116.643328">
        <time>2021-10-17T12:00:18Z</time>
      </trkpt>
      <trkpt lat="39.896175" lon="116.643393">
        <time>2021-10-17T12:00:23Z</time>
      </trkpt>
      <trkpt lat="39.89619" lon="116.643529">
        <time>2021-10-17T12:00:28Z</time>
      </trkpt>
      <trkpt lat="39.896161" lon="116.643646">
        <time>2021-10-17T12:00:33Z</time>
      </trkpt>
      <trkpt lat="39.89614" lon="116.643808">
        <time>2021-10-17T12:00:38Z</time>
      </trkpt>
      <trkpt lat="39.896107" lon="116.643972">
        <time>2021-10-17T12:00:43Z</time>
      </trkpt>
      <trkpt lat="39.896133" lon="116.644144">
        <time>2021-10-17T12:00:48Z</time>
      </trkpt>
      <trkpt lat="39.896141" lon="116.644326">
        <time>2021-10-17T12:00:53Z</time>
      </trkpt>
      <trkpt lat="39.896145" lon="116.644589">
        <time>2021-10-17T12:00:58Z</time>
      </trkpt>
      <trkpt lat="39.896146" lon="116.644612">
        <time>2021-10-17T12:01:03Z</time>
      </trkpt>
      <trkpt lat="39.89616" lon="116.644772">
        <time>2021-10-17T12:01:08Z</time>
      </trkpt>
      <trkpt lat="39.896164" lon="116.644932">
        <time>2021-10-17T12:01:13Z</time>
      </trkpt>
      <trkpt lat="39.896166" lon="116.645088">
        <time>2021-10-17T12:01:18Z</time>
      </trkpt>
      <trkpt lat="39.896178" lon="116.645225">
        <time>2021-10-17T12:01:23Z</time>
      </trkpt>
      <trkpt lat="39.896193" lon="116.645366">
        <time>2021-10-17T12:01:28Z</time>
      </trkpt>
      <trkpt lat="39.896174" lon="116.645505">
        <time>2021-10-17T12:01:33Z</time>
      </trkpt>
      <trkpt lat="39.896148" lon="116.645643">
        <time>2021-10-17T12:01:38Z</time>
      </trkpt>
      <trkpt lat="39.896116" lon="116.645756">
        <time>2021-10-17T12:01:43Z</time>
      </trkpt>
      <trkpt lat="39.896089" lon="116.64585">
        <time>2021-10-17T12:01:48Z</time>
      </trkpt>
      <trkpt lat="39.896054" lon="116.645998">
        <time>2021-10-17T12:01:53Z</time>
      </trkpt>
      <trkpt lat="39.896054" lon="116.646208">
        <time>2021-10-17T12:01:58Z</time>
      </trkpt>
      <trkpt lat="39.896036" lon="116.6464">
        <time>2021-10-17T12:02:03Z</time>
      </trkpt>
      <trkpt lat="39.896037" lon="116.646566">
        <time>2021-10-17T12:02:08Z</time>
      </trkpt>
      <trkpt lat="39.895996" lon="116.646727">
        <time>2021-10-17T12:02:13Z</time>
      </trkpt>
      <trkpt lat="39.895881" lon="116.646783">
        <time>2021-10-17T12:02:18Z</time>
      </trkpt>
      <trkpt lat="39.895763" lon="116.646737">
        <time>2021-10-17T12:02:23Z</time>
      </trkpt>
      <trkpt lat="39.895639" lon="116.646679">
        <time>2021-10-17T12:02:28Z</time>
      </trkpt>
      <trkpt lat="39.89551" lon="116.646654">
        <time>2021-10-17T12:02:33Z</time>
      </trkpt>
      <trkpt lat="39.895403" lon="116.646584">
        <time>2021-10-17T12:02:38Z</time>
      </trkpt>
      <trkpt lat="39.895324" lon="116.646534">
        <time>2021-10-17T12:02:43Z</time>
      </trkpt>
      <trkpt lat="39.895244" lon="116.646499">
        <time>2021-10-17T12:02:48Z</time>
      </trkpt>
      <trkpt lat="39.895139" lon="116.64644">
        <time>2021-10-17T12:02:53Z</time>
      </trkpt>
      <trkpt lat="39.894908" lon="116.646365">
        <time>2021-10-17T12:02:58Z</time>
      </trkpt>
      <trkpt lat="39.894879" lon="116.646354">
        <time>2021-10-17T12:03:03Z</time>
      </trkpt>
      <trkpt lat="39.894742" lon="116.646293">
        <time>2021-10-17T12:03:08Z</time>
      </trkpt>
      <trkpt lat="39.894591" lon="116.646218">
        <time>2021-10-17T12:03:13Z</time>
      </trkpt>
      <trkpt lat="39.894469" lon="116.646181">
        <time>2021-10-17T12:03:18Z</time>
      </trkpt>
      <trkpt lat="39.894353" lon="116.646108">
        <time>2021-10-17T12:03:23Z</time>
      </trkpt>
      <trkpt lat="39.89429" lon="116.646054">
        <time>2021-10-17T12:03:28Z</time>
      </trkpt>
      <trkpt lat="39.894236" lon="116.64602">
        <time>2021-10-17T12:03:33Z</time>
      </trkpt>
      <trkpt lat="39.894167" lon="116.645969">
        <time>2021-10-17T12:03:38Z</time>
      </trkpt>
      <trkpt lat="39.894046" lon="116.645901">
        <time>2021-10-17T12:03:43Z</time>
      </trkpt>
      <trkpt lat="39.893983" lon="116.645851">
        <time>2021-10-17T12:03:48Z</time>
      </trkpt>
      <trkpt lat="39.893898" lon="116.64588">
        <time>2021-10-17T12:03:53Z</time>
      </trkpt>
      <trkpt lat="39.893833" lon="116.64604">
        <time>2021-10-17T12:03:58Z</time>
      </trkpt>
      <trkpt lat="39.893799" lon="116.646183">
        <time>2021-10-17T12:04:03Z</time>
      </trkpt>
      <trkpt lat="39.893717" lon="116.646357">
        <time>2021-10-17T12:04:08Z</time>
      </trkpt>
      <trkpt lat="39.893684" lon="116.646388">
        <time>2021-10-17T12:04:13Z</time>
      </trkpt>
      <trkpt lat="39.893573" lon="116.646397">
        <time>2021-10-17T12:04:18Z</time>
      </trkpt>
      <trkpt lat="39.893477" lon="116.646314">
        <time>2021-10-17T12:04:23Z</time>
      </trkpt>
      <trkpt lat="39.893357" lon="116.646258">
        <time>2021-10-17T12:04:28Z</time>
      </trkpt>
      <trkpt lat="39.893227" lon="116.64621">
        <time>2021-10-17T12:04:33Z</time>
      </trkpt>
      <trkpt lat="39.893135" lon="116.646137">
        <time>2021-10-17T12:04:38Z</time>
      </trkpt>
      <trkpt lat="39.893057" lon="116.646072">
        <time>2021-10-17T12:04:43Z</time>
      </trkpt>
      <trkpt lat="39.892965" lon="116.646037">
        <time>2021-10-17T12:04:48Z</time>
      </trkpt>
      <trkpt lat="39.892869" lon="116.645984">
        <time>2021-10-17T12:04:53Z</time>
      </trkpt>
      <trkpt lat="39.892795" lon="116.645914">
        <time>2021-10-17T12:04:58Z</time>
      </trkpt>
      <trkpt lat="39.892708" lon="116.645838">
        <time>2021-10-17T12:05:03Z</time>
      </trkpt>
      <trkpt lat="39.892589" lon="116.645796">
        <time>2021-10-17T12:05:08Z</time>
      </trkpt>
      <trkpt lat="39.892477" lon="116.645751">
        <time>2021-10-17T12:05:13Z</time>
      </trkpt>
      <trkpt lat="39.892351" lon="116.645691">
        <time>2021-10-17T12:05:18Z</time>
      </trkpt>
      <trkpt lat="39.89221" lon="116.64565">
        <time>2021-10-17T12:05:23Z</time>
      </trkpt>
      <trkpt lat="39.892092" lon="116.645596">
        <time>2021-10-17T12:05:28Z</time>
      </trkpt>
      <trkpt lat="39.891982" lon="116.64556">
        <time>2021-10-17T12:05:33Z</time>
      </trkpt>
      <trkpt lat="39.891887" lon="116.645523">
        <time>2021-10-17T12:05:38Z</time>
      </trkpt>
      <trkpt lat="39.891782" lon="116.645465">
        <time>2021-10-17T12:05:43Z</time>
      </trkpt>
      <trkpt lat="39.891666" lon="116.6454">
        <time>2021-10-17T12:05:48Z</time>
      </trkpt>
      <trkpt lat="39.891513" lon="116.645305">
        <time>2021-10-17T12:05:53Z</time>
      </trkpt>
      <trkpt lat="39.891486" lon="116.645337">
        <time>2021-10-17T12:05:58Z</time>
      </trkpt>
      <trkpt lat="39.891548" lon="116.6454">
        <time>2021-10-17T12:06:03Z</time>
      </trkpt>
      <trkpt lat="39.891841" lon="116.645553">
        <time>2021-10-17T12:06:08Z</time>
      </trkpt>
      <trkpt lat="39.892039" lon="116.64558">
        <time>2021-10-17T12:06:13Z</time>
      </trkpt>
      <trkpt lat="39.892181" lon="116.645607">
        <time>2021-10-17T12:06:18Z</time>
      </trkpt>
      <trkpt lat="39.892321" lon="116.645668">
        <time>2021-10-17T12:06:23Z</time>
      </trkpt>
      <trkpt lat="39.892434" lon="116.645725">
        <time>2021-10-17T12:06:28Z</time>
      </trkpt>
      <trkpt lat="39.892538" lon="116.645818">
        <time>2021-10-17T12:06:33Z</time>
      </trkpt>
      <trkpt lat="39.892671" lon="116.645905">
        <time>2021-10-17T12:06:38Z</time>
      </trkpt>
      <trkpt lat="39.892748" lon="116.645966">
        <time>2021-10-17T12:06:43Z</time>
      </trkpt>
      <trkpt lat="39.892872" lon="116.646035">
        <time>2021-10-17T12:06:48Z</time>
      </trkpt>
      <trkpt lat="39.893021" lon="116.646074">
        <time>2021-10-17T12:06:53Z</time>
      </trkpt>
      <trkpt lat="39.893126" lon="116.646142">
        <time>2021-10-17T12:06:58Z</time>
      </trkpt>
      <trkpt lat="39.893227" lon="116.64619">
        <time>2021-10-17T12:07:03Z</time>
      </trkpt>
      <trkpt lat="39.89334" lon="116.646207">
        <time>2021-10-17T12:07:08Z</time>
      </trkpt>
      <trkpt lat="39.893445" lon="116.646278">
        <time>2021-10-17T12:07:13Z</time>
      </trkpt>
      <trkpt lat="39.893568" lon="116.646381">
        <time>2021-10-17T12:07:18Z</time>
      </trkpt>
      <trkpt lat="39.89371" lon="116.646304">
        <time>2021-10-17T12:07:23Z</time>
      </trkpt>
      <trkpt lat="39.893777" lon="116.646158">
        <time>2021-10-17T12:07:28Z</time>
      </trkpt>
      <trkpt lat="39.893819" lon="116.646018">
        <time>2021-10-17T12:07:33Z</time>
      </trkpt>
      <trkpt lat="39.893906" lon="116.64589">
        <time>2021-10-17T12:07:38Z</time>
      </trkpt>
      <trkpt lat="39.893969" lon="116.645886">
        <time>2021-10-17T12:07:43Z</time>
      </trkpt>
      <trkpt lat="39.894046" lon="116.645946">
        <time>2021-10-17T12:07:48Z</time>
      </trkpt>
      <trkpt lat="39.89427" lon="116.646038">
        <time>2021-10-17T12:07:53Z</time>
      </trkpt>
      <trkpt lat="39.894325" lon="116.646063">
        <time>2021-10-17T12:07:58Z</time>
      </trkpt>
      <trkpt lat="39.894422" lon="116.646113">
        <time>2021-10-17T12:08:03Z</time>
      </trkpt>
      <trkpt lat="39.894537" lon="116.646183">
        <time>2021-10-17T12:08:08Z</time>
      </trkpt>
      <trkpt lat="39.894682" lon="116.646248">
        <time>2021-10-17T12:08:13Z</time>
      </trkpt>
      <trkpt lat="39.894798" lon="116.646309">
        <time>2021-10-17T12:08:18Z</time>
      </trkpt>
      <trkpt lat="39.894957" lon="116.646361">
        <time>2021-10-17T12:08:23Z</time>
      </trkpt>
      <trkpt lat="39.89512" lon="116.646414">
        <time>2021-10-17T12:08:28Z</time>
      </trkpt>
      <trkpt lat="39.895217" lon="116.64645">
        <time>2021-10-17T12:08:33Z</time>
      </trkpt>
      <trkpt lat="39.89528" lon="116.646524">
        <time>2021-10-17T12:08:38Z</time>
      </trkpt>
      <trkpt lat="39.895437" lon="116.646614">
        <time>2021-10-17T12:08:43Z</time>
      </trkpt>
      <trkpt lat="39.895471" lon="116.646638">
        <time>2021-10-17T12:08:48Z</time>
      </trkpt>
      <trkpt lat="39.895583" lon="116.646701">
        <time>2021-10-17T12:08:53Z</time>
      </trkpt>
      <trkpt lat="39.8957" lon="116.646765">
        <time>2021-10-17T12:08:58Z</time>
      </trkpt>
      <trkpt lat="39.895819" lon="116.646801">
        <time>2021-10-17T12:09:03Z</time>
      </trkpt>
      <trkpt lat="39.895896" lon="116.646802">
        <time>2021-10-17T12:09:08Z</time>
      </trkpt>
      <trkpt lat="39.896005" lon="116.64674">
        <time>2021-10-17T12:09:13Z</time>
      </trkpt>
      <trkpt lat="39.896052" lon="116.646594">
        <time>2021-10-17T12:09:18Z</time>
      </trkpt>
      <trkpt lat="39.89603" lon="116.646402">
        <time>2021-10-17T12:09:23Z</time>
      </trkpt>
      <trkpt lat="39.896015" lon="116.646211">
        <time>2021-10-17T12:09:28Z</time>
      </trkpt>
      <trkpt lat="39.896025" lon="116.646014">
        <time>2021-10-17T12:09:33Z</time>
      </trkpt>
      <trkpt lat="39.896054" lon="116.645854">
        <time>2021-10-17T12:09:38Z</time>
      </trkpt>
      <trkpt lat="39.896075" lon="116.645727">
        <time>2021-10-17T12:09:43Z</time>
      </trkpt>
      <trkpt lat="39.896088" lon="116.64557">
        <time>2021-10-17T12:09:48Z</time>
      </trkpt>
      <trkpt lat="39.896055" lon="116.645346">
        <time>2021-10-17T12:09:53Z</time>
      </trkpt>
      <trkpt lat="39.896078" lon="116.645248">
        <time>2021-10-17T12:09:58Z</time>
      </trkpt>
      <trkpt lat="39.896102" lon="116.645105">
        <time>2021-10-17T12:10:03Z</time>
      </trkpt>
      <trkpt lat="39.896112" lon="116.644975">
        <time>2021-10-17T12:10:08Z</time>
      </trkpt>
      <trkpt lat="39.896132" lon="116.644806">
        <time>2021-10-17T12:10:13Z</time>
      </trkpt>
      <trkpt lat="39.896128" lon="116.644661">
        <time>2021-10-17T12:10:18Z</time>
      </trkpt>
      <trkpt lat="39.896146" lon="116.644542">
        <time>2021-10-17T12:10:23Z</time>
      </trkpt>
      <trkpt lat="39.896155" lon="116.644393">
        <time>2021-10-17T12:10:28Z</time>
      </trkpt>
      <trkpt lat="39.896156" lon="116.644272">
        <time>2021-10-17T12:10:33Z</time>
      </trkpt>
      <trkpt lat="39.896166" lon="116.644089">
        <time>2021-10-17T12:10:38Z</time>
      </trkpt>
      <trkpt lat="39.896141" lon="116.643798">
        <time>2021-10-17T12:10:43Z</time>
      </trkpt>
      <trkpt lat="39.896136" lon="116.643775">
        <time>2021-10-17T12:10:48Z</time>
      </trkpt>
      <trkpt lat="39.896151" lon="116.643654">
        <time>2021-10-17T12:10:53Z</time>
      </trkpt>
      <trkpt lat="39.896162" lon="116.643545">
        <time>2021-10-17T12:10:58Z</time>
      </trkpt>
      <trkpt lat="39.896143" lon="116.643449">
        <time>2021-10-17T12:11:03Z</time>
      </trkpt>
      <trkpt lat="39.896148" lon="116.64332">
        <time>2021-10-17T12:11:08Z</time>
      </trkpt>
      <trkpt lat="39.896166" lon="116.643074">
        <time>2021-10-17T12:11:13Z</time>
      </trkpt>
      <trkpt lat="39.896159" lon="116.643007">
        <time>2021-10-17T12:11:18Z</time>
      </trkpt>
      <trkpt lat="39.896163" lon="116.64282">
        <time>2021-10-17T12:11:23Z</time>
      </trkpt>
      <trkpt lat="39.896182" lon="116.642603">
        <time>2021-10-17T12:11:28Z</time>
      </trkpt>
      <trkpt lat="39.896172" lon="116.642452">
        <time>2021-10-17T12:11:33Z</time>
      </trkpt>
      <trkpt lat="39.896162" lon="116.642273">
        <time>2021-10-17T12:11:38Z</time>
      </trkpt>
      <trkpt lat="39.896184" lon="116.642088">
        <time>2021-10-17T12:11:43Z</time>
      </trkpt>
      <trkpt lat="39.896208" lon="116.641929">
        <time>2021-10-17T12:11:48Z</time>
      </trkpt>
      <trkpt lat="39.896191" lon="116.641773">
        <time>2021-10-17T12:11:53Z</time>
      </trkpt>
      <trkpt lat="39.896188" lon="116.641572">
        <time>2021-10-17T12:11:58Z</time>
      </trkpt>
      <trkpt lat="39.896176" lon="116.641443">
        <time>2021-10-17T12:12:03Z</time>
      </trkpt>
      <trkpt lat="39.896173" lon="116.64131">
        <time>2021-10-17T12:12:08Z</time>
      </trkpt>
      <trkpt lat="39.896175" lon="116.641169">
        <time>2021-10-17T12:12:13Z</time>
      </trkpt>
      <trkpt lat="39.896187" lon="116.641005">
        <time>2021-10-17T12:12:18Z</time>
      </trkpt>
      <trkpt lat="39.896191" lon="116.640856">
        <time>2021-10-17T12:12:23Z</time>
      </trkpt>
      <trkpt lat="39.896206" lon="116.640738">
        <time>2021-10-17T12:12:28Z</time>
      </trkpt>
      <trkpt lat="39.896194" lon="116.640592">
        <time>2021-10-17T12:12:33Z</time>
      </trkpt>
      <trkpt lat="39.896206" lon="116.64044">
        <time>2021-10-17T12:12:38Z</time>
      </trkpt>
      <trkpt lat="39.896267" lon="116.640396">
        <time>2021-10-17T12:12:43Z</time>
      </trkpt>
      <trkpt lat="39.896447" lon="116.640511">
        <time>2021-10-17T12:12:48Z</time>
      </trkpt>
      <trkpt lat="39.896521" lon="116.640523">
        <time>2021-10-17T12:12:53Z</time>
      </trkpt>
      <trkpt lat="39.896692" lon="116.64056">
        <time>2021-10-17T12:12:58Z</time>
      </trkpt>
      <trkpt lat="39.896924" lon="116.640672">
        <time>2021-10-17T12:13:03Z</time>
      </trkpt>
      <trkpt lat="39.897078" lon="116.640761">
        <time>2021-10-17T12:13:08Z</time>
      </trkpt>
      <trkpt lat="39.897202" lon="116.640768">
        <time>2021-10-17T12:13:13Z</time>
      </trkpt>
      <trkpt lat="39.897318" lon="116.640802">
        <time>2021-10-17T12:13:18Z</time>
      </trkpt>
      <trkpt lat="39.897404" lon="116.640854">
        <time>2021-10-17T12:13:23Z</time>
      </trkpt>
      <trkpt lat="39.897522" lon="116.640951">
        <time>2021-10-17T12:13:28Z</time>
      </trkpt>
      <trkpt lat="39.897639" lon="116.640959">
        <time>2021-10-17T12:13:33Z</time>
      </trkpt>
      <trkpt lat="39.897678" lon="116.641015">
        <time>2021-10-17T12:13:38Z</time>
      </trkpt>
      <trkpt lat="39.89773" lon="116.641081">
        <time>2021-10-17T12:13:43Z</time>
      </trkpt>
      <trkpt lat="39.897797" lon="116.641085">
        <time>2021-10-17T12:13:48Z</time>
      </trkpt>
      <trkpt lat="39.897847" lon="116.641137">
        <time>2021-10-17T12:13:53Z</time>
      </trkpt>
      <trkpt lat="39.89794" lon="116.641192">
        <time>2021-10-17T12:13:58Z</time>
      </trkpt>
      <trkpt lat="39.89805" lon="116.641231">
        <time>2021-10-17T12:14:03Z</time>
      </trkpt>
      <trkpt lat="39.898141" lon="116.641295">
        <time>2021-10-17T12:14:08Z</time>
      </trkpt>
      <trkpt lat="39.898205" lon="116.641301">
        <time>2021-10-17T12:14:13Z</time>
      </trkpt>
      <trkpt lat="39.898252" lon="116.64143">
        <time>2021-10-17T12:14:18Z</time>
      </trkpt>
      <trkpt lat="39.898267" lon="116.641628">
        <time>2021-10-17T12:14:23Z</time>
      </trkpt>
      <trkpt lat="39.898245" lon="116.641817">
        <time>2021-10-17T12:14:28Z</time>
      </trkpt>
      <trkpt lat="39.898241" lon="116.641999">
        <time>2021-10-17T12:14:33Z</time>
      </trkpt>
      <trkpt lat="39.898239" lon="116.642214">
        <time>2021-10-17T12:14:38Z</time>
      </trkpt>
      <trkpt lat="39.898259" lon="116.642416">
        <time>2021-10-17T12:14:43Z</time>
      </trkpt>
      <trkpt lat="39.898288" lon="116.642765">
        <time>2021-10-17T12:14:48Z</time>
      </trkpt>
      <trkpt lat="39.898292" lon="116.642802">
        <time>2021-10-17T12:14:53Z</time>
      </trkpt>
      <trkpt lat="39.898277" lon="116.642969">
        <time>2021-10-17T12:14:58Z</time>
      </trkpt>
      <trkpt lat="39.898274" lon="116.643155">
        <time>2021-10-17T12:15:03Z</time>
      </trkpt>
      <trkpt lat="39.898265" lon="116.643316">
        <time>2021-10-17T12:15:08Z</time>
      </trkpt>
      <trkpt lat="39.898247" lon="116.643478">
        <time>2021-10-17T12:15:13Z</time>
      </trkpt>
      <trkpt lat="39.898161" lon="116.643612">
        <time>2021-10-17T12:15:18Z</time>
      </trkpt>
      <trkpt lat="39.898186" lon="116.643784">
        <time>2021-10-17T12:15:23Z</time>
      </trkpt>
      <trkpt lat="39.898237" lon="116.64397">
        <time>2021-10-17T12:15:28Z</time>
      </trkpt>
      <trkpt lat="39.898256" lon="116.644077">
        <time>2021-10-17T12:15:33Z</time>
      </trkpt>
      <trkpt lat="39.898286" lon="116.64421">
        <time>2021-10-17T12:15:38Z</time>
      </trkpt>
      <trkpt lat="39.898317" lon="116.644341">
        <time>2021-10-17T12:15:43Z</time>
      </trkpt>
      <trkpt lat="39.89831" lon="116.644506">
        <time>2021-10-17T12:15:48Z</time>
      </trkpt>
      <trkpt lat="39.898322" lon="116.644676">
        <time>2021-10-17T12:15:53Z</time>
      </trkpt>
      <trkpt lat="39.898383" lon="116.644836">
        <time>2021-10-17T12:15:58Z</time>
      </trkpt>
      <trkpt lat="39.898431" lon="116.64505">
        <time>2021-10-17T12:16:03Z</time>
      </trkpt>
      <trkpt lat="39.898449" lon="116.645123">
        <time>2021-10-17T12:16:08Z</time>
      </trkpt>
      <trkpt lat="39.898472" lon="116.64527">
        <time>2021-10-17T12:16:13Z</time>
      </trkpt>
      <trkpt lat="39.898498" lon="116.645435">
        <time>2021-10-17T12:16:18Z</time>
      </trkpt>
      <trkpt lat="39.898532" lon="116.645585">
        <time>2021-10-17T12:16:23Z</time>
      </trkpt>
      <trkpt lat="39.898537" lon="116.645719">
        <time>2021-10-17T12:16:28Z</time>
      </trkpt>
      <trkpt lat="39.898549" lon="116.645855">
        <time>2021-10-17T12:16:33Z</time>
      </trkpt>
      <trkpt lat="39.898598" lon="116.646025">
        <time>2021-10-17T12:16:38Z</time>
      </trkpt>
      <trkpt lat="39.898663" lon="116.646142">
        <time>2021-10-17T12:16:43Z</time>
      </trkpt>
      <trkpt lat="39.898721" lon="116.646232">
        <time>2021-10-17T12:16:48Z</time>
      </trkpt>
      <trkpt lat="39.898741" lon="116.646331">
        <time>2021-10-17T12:16:53Z</time>
      </trkpt>
      <trkpt lat="39.898754" lon="116.646456">
        <time>2021-10-17T12:16:58Z</time>
      </trkpt>
      <trkpt lat="39.898828" lon="116.646555">
        <time>2021-10-17T12:17:03Z</time>
      </trkpt>
      <trkpt lat="39.898877" lon="116.646738">
        <time>2021-10-17T12:17:08Z</time>
      </trkpt>
      <trkpt lat="39.898894" lon="116.646911">
        <time>2021-10-17T12:17:13Z</time>
      </trkpt>
      <trkpt lat="39.89894" lon="116.6471">
        <time>2021-10-17T12:17:18Z</time>
      </trkpt>
      <trkpt lat="39.898962" lon="116.647273">
        <time>2021-10-17T12:17:23Z</time>
      </trkpt>
      <trkpt lat="39.898993" lon="116.647438">
        <time>2021-10-17T12:17:28Z</time>
      </trkpt>
      <trkpt lat="39.898993" lon="116.647597">
        <time>2021-10-17T12:17:33Z</time>
      </trkpt>
      <trkpt lat="39.899032" lon="116.647792">
        <time>2021-10-17T12:17:38Z</time>
      </trkpt>
      <trkpt lat="39.899081" lon="116.647964">
        <time>2021-10-17T12:17:43Z</time>
      </trkpt>
      <trkpt lat="39.899071" lon="116.648122">
        <time>2021-10-17T12:17:48Z</time>
      </trkpt>
      <trkpt lat="39.89902" lon="116.648266">
        <time>2021-10-17T12:17:53Z</time>
      </trkpt>
      <trkpt lat="39.899004" lon="116.648455">
        <time>2021-10-17T12:17:58Z</time>
      </trkpt>
      <trkpt lat="39.899012" lon="116.648622">
        <time>2021-10-17T12:18:03Z</time>
      </trkpt>
      <trkpt lat="39.899021" lon="116.64878">
        <time>2021-10-17T12:18:08Z</time>
      </trkpt>
      <trkpt lat="39.899042" lon="116.648956">
        <time>2021-10-17T12:18:13Z</time>
      </trkpt>
      <trkpt lat="39.899091" lon="116.649143">
        <time>2021-10-17T12:18:18Z</time>
      </trkpt>
      <trkpt lat="39.899077" lon="116.64944">
        <time>2021-10-17T12:18:23Z</time>
      </trkpt>
      <trkpt lat="39.899065" lon="116.649506">
        <time>2021-10-17T12:18:28Z</time>
      </trkpt>
      <trkpt lat="39.899068" lon="116.649674">
        <time>2021-10-17T12:18:33Z</time>
      </trkpt>
      <trkpt lat="39.899085" lon="116.649832">
        <time>2021-10-17T12:18:38Z</time>
      </trkpt>
      <trkpt lat="39.899082" lon="116.649975">
        <time>2021-10-17T12:18:43Z</time>
      </trkpt>
      <trkpt lat="39.899085" lon="116.650132">
        <time>2021-10-17T12:18:48Z</time>
      </trkpt>
      <trkpt lat="39.899072" lon="116.650295">
        <time>2021-10-17T12:18:53Z</time>
      </trkpt>
      <trkpt lat="39.899082" lon="116.650439">
        <time>2021-10-17T12:18:58Z</time>
      </trkpt>
      <trkpt lat="39.899104" lon="116.650594">
        <time>2021-10-17T12:19:03Z</time>
      </trkpt>
      <trkpt lat="39.89909" lon="116.650773">
        <time>2021-10-17T12:19:08Z</time>
      </trkpt>
      <trkpt lat="39.8991" lon="116.650952">
        <time>2021-10-17T12:19:13Z</time>
      </trkpt>
      <trkpt lat="39.899101" lon="116.651125">
        <time>2021-10-17T12:19:18Z</time>
      </trkpt>
      <trkpt lat="39.899014" lon="116.65129">
        <time>2021-10-17T12:19:23Z</time>
      </trkpt>
      <trkpt lat="39.899001" lon="116.651464">
        <time>2021-10-17T12:19:28Z</time>
      </trkpt>
      <trkpt lat="39.899017" lon="116.651418">
        <time>2021-10-17T12:19:33Z</time>
      </trkpt>
      <trkpt lat="39.899031" lon="116.651241">
        <time>2021-10-17T12:19:38Z</time>
      </trkpt>
      <trkpt lat="39.899061" lon="116.651093">
        <time>2021-10-17T12:19:43Z</time>
      </trkpt>
      <trkpt lat="39.899027" lon="116.650911">
        <time>2021-10-17T12:19:48Z</time>
      </trkpt>
      <trkpt lat="39.898994" lon="116.650691">
        <time>2021-10-17T12:19:53Z</time>
      </trkpt>
      <trkpt lat="39.898979" lon="116.650564">
        <time>2021-10-17T12:19:58Z</time>
      </trkpt>
      <trkpt lat="39.898998" lon="116.650448">
        <time>2021-10-17T12:20:03Z</time>
      </trkpt>
      <trkpt lat="39.899004" lon="116.650257">
        <time>2021-10-17T12:20:08Z</time>
      </trkpt>
      <trkpt lat="39.899016" lon="116.650106">
        <time>2021-10-17T12:20:13Z</time>
      </trkpt>
      <trkpt lat="39.89898" lon="116.649946">
        <time>2021-10-17T12:20:18Z</time>
      </trkpt>
      <trkpt lat="39.898957" lon="116.649485">
        <time>2021-10-17T12:20:23Z</time>
      </trkpt>
      <trkpt lat="39.89897" lon="116.649447">
        <time>2021-10-17T12:20:28Z</time>
      </trkpt>
      <trkpt lat="39.899" lon="116.649157">
        <time>2021-10-17T12:20:33Z</time>
      </trkpt>
      <trkpt lat="39.899009" lon="116.6491">
        <time>2021-10-17T12:20:38Z</time>
      </trkpt>
      <trkpt lat="39.899035" lon="116.64893">
        <time>2021-10-17T12:20:43Z</time>
      </trkpt>
      <trkpt lat="39.899043" lon="116.648801">
        <time>2021-10-17T12:20:48Z</time>
      </trkpt>
      <trkpt lat="39.899055" lon="116.64864">
        <time>2021-10-17T12:20:53Z</time>
      </trkpt>
      <trkpt lat="39.899022" lon="116.648455">
        <time>2021-10-17T12:20:58Z</time>
      </trkpt>
      <trkpt lat="39.89904" lon="116.648223">
        <time>2021-10-17T12:21:03Z</time>
      </trkpt>
      <trkpt lat="39.899045" lon="116.647999">
        <time>2021-10-17T12:21:08Z</time>
      </trkpt>
      <trkpt lat="39.899024" lon="116.647795">
        <time>2021-10-17T12:21:13Z</time>
      </trkpt>
      <trkpt lat="39.89899" lon="116.647624">
        <time>2021-10-17T12:21:18Z</time>
      </trkpt>
      <trkpt lat="39.898994" lon="116.647462">
        <time>2021-10-17T12:21:23Z</time>
      </trkpt>
      <trkpt lat="39.898966" lon="116.647297">
        <time>2021-10-17T12:21:28Z</time>
      </trkpt>
      <trkpt lat="39.898885" lon="116.647195">
        <time>2021-10-17T12:21:33Z</time>
      </trkpt>
      <trkpt lat="39.8987" lon="116.64707">
        <time>2021-10-17T12:21:38Z</time>
      </trkpt>
      <trkpt lat="39.898665" lon="116.647046">
        <time>2021-10-17T12:21:43Z</time>
      </trkpt>
      <trkpt lat="39.898622" lon="116.646862">
        <time>2021-10-17T12:21:48Z</time>
      </trkpt>
      <trkpt lat="39.898646" lon="116.646685">
        <time>2021-10-17T12:21:53Z</time>
      </trkpt>
      <trkpt lat="39.898656" lon="116.646532">
        <time>2021-10-17T12:21:58Z</time>
      </trkpt>
      <trkpt lat="39.898665" lon="116.646228">
        <time>2021-10-17T12:22:03Z</time>
      </trkpt>
      <trkpt lat="39.898656" lon="116.646154">
        <time>2021-10-17T12:22:08Z</time>
      </trkpt>
      <trkpt lat="39.898624" lon="116.646002">
        <time>2021-10-17T12:22:13Z</time>
      </trkpt>
      <trkpt lat="39.898568" lon="116.645826">
        <time>2021-10-17T12:22:18Z</time>
      </trkpt>
      <trkpt lat="39.898544" lon="116.645672">
        <time>2021-10-17T12:22:23Z</time>
      </trkpt>
      <trkpt lat="39.898485" lon="116.645512">
        <time>2021-10-17T12:22:28Z</time>
      </trkpt>
      <trkpt lat="39.898455" lon="116.64535">
        <time>2021-10-17T12:22:33Z</time>
      </trkpt>
      <trkpt lat="39.898414" lon="116.645194">
        <time>2021-10-17T12:22:38Z</time>
      </trkpt>
      <trkpt lat="39.898406" lon="116.645093">
        <time>2021-10-17T12:22:43Z</time>
      </trkpt>
      <trkpt lat="39.898423" lon="116.644987">
        <time>2021-10-17T12:22:48Z</time>
      </trkpt>
      <trkpt lat="39.898404" lon="116.644821">
        <time>2021-10-17T12:22:53Z</time>
      </trkpt>
      <trkpt lat="39.898422" lon="116.644694">
        <time>2021-10-17T12:22:58Z</time>
      </trkpt>
      <trkpt lat="39.898396" lon="116.644552">
        <time>2021-10-17T12:23:03Z</time>
      </trkpt>
      <trkpt lat="39.898341" lon="116.644408">
        <time>2021-10-17T12:23:08Z</time>
      </trkpt>
      <trkpt lat="39.898262" lon="116.644282">
        <time>2021-10-17T12:23:13Z</time>
      </trkpt>
      <trkpt lat="39.898239" lon="116.644094">
        <time>2021-10-17T12:23:18Z</time>
      </trkpt>
      <trkpt lat="39.898237" lon="116.643882">
        <time>2021-10-17T12:23:23Z</time>
      </trkpt>
      <trkpt lat="39.898267" lon="116.643749">
        <time>2021-10-17T12:23:28Z</time>
      </trkpt>
      <trkpt lat="39.89828" lon="116.643608">
        <time>2021-10-17T12:23:33Z</time>
      </trkpt>
      <trkpt lat="39.898262" lon="116.643506">
        <time>2021-10-17T12:23:38Z</time>
      </trkpt>
      <trkpt lat="39.898258" lon="116.643363">
        <time>2021-10-17T12:23:43Z</time>
      </trkpt>
      <trkpt lat="39.898225" lon="116.643097">
        <time>2021-10-17T12:23:48Z</time>
      </trkpt>
      <trkpt lat="39.898222" lon="116.643077">
        <time>2021-10-17T12:23:53Z</time>
      </trkpt>
      <trkpt lat="39.898215" lon="116.642919">
        <time>2021-10-17T12:23:58Z</time>
      </trkpt>
      <trkpt lat="39.898228" lon="116.642661">
        <time>2021-10-17T12:24:03Z</time>
      </trkpt>
      <trkpt lat="39.898259" lon="116.642446">
        <time>2021-10-17T12:24:08Z</time>
      </trkpt>
      <trkpt lat="39.89829" lon="116.64234">
        <time>2021-10-17T12:24:13Z</time>
      </trkpt>
      <trkpt lat="39.898326" lon="116.642136">
        <time>2021-10-17T12:24:18Z</time>
      </trkpt>
      <trkpt lat="39.898324" lon="116.642082">
        <time>2021-10-17T12:24:23Z</time>
      </trkpt>
      <trkpt lat="39.898327" lon="116.641961">
        <time>2021-10-17T12:24:28Z</time>
      </trkpt>
      <trkpt lat="39.898335" lon="116.641849">
        <time>2021-10-17T12:24:33Z</time>
      </trkpt>
      <trkpt lat="39.898347" lon="116.64173">
        <time>2021-10-17T12:24:38Z</time>
      </trkpt>
      <trkpt lat="39.898378" lon="116.641637">
        <time>2021-10-17T12:24:43Z</time>
      </trkpt>
      <trkpt lat="39.898419" lon="116.641567">
        <time>2021-10-17T12:24:48Z</time>
      </trkpt>
      <trkpt lat="39.898369" lon="116.641476">
        <time>2021-10-17T12:24:53Z</time>
      </trkpt>
      <trkpt lat="39.898244" lon="116.641414">
        <time>2021-10-17T12:24:58Z</time>
      </trkpt>
      <trkpt lat="39.898141" lon="116.641348">
        <time>2021-10-17T12:25:03Z</time>
      </trkpt>
      <trkpt lat="39.898068" lon="116.641244">
        <time>2021-10-17T12:25:08Z</time>
      </trkpt>
      <trkpt lat="39.897974" lon="116.641187">
        <time>2021-10-17T12:25:13Z</time>
      </trkpt>
      <trkpt lat="39.897863" lon="116.641164">
        <time>2021-10-17T12:25:18Z</time>
      </trkpt>
      <trkpt lat="39.897789" lon="116.641098">
        <time>2021-10-17T12:25:23Z</time>
      </trkpt>
      <trkpt lat="39.897668" lon="116.641063">
        <time>2021-10-17T12:25:28Z</time>
      </trkpt>
      <trkpt lat="39.897564" lon="116.641032">
        <time>2021-10-17T12:25:33Z</time>
      </trkpt>
      <trkpt lat="39.897495" lon="116.641002">
        <time>2021-10-17T12:25:38Z</time>
      </trkpt>
      <trkpt lat="39.897403" lon="116.64098">
        <time>2021-10-17T12:25:43Z</time>
      </trkpt>
      <trkpt lat="39.897266" lon="116.640919">
        <time>2021-10-17T12:25:48Z</time>
      </trkpt>
      <trkpt lat="39.897121" lon="116.640828">
        <time>2021-10-17T12:25:53Z</time>
      </trkpt>
      <trkpt lat="39.896932" lon="116.640734">
        <time>2021-10-17T12:25:58Z</time>
      </trkpt>
      <trkpt lat="39.896761" lon="116.640659">
        <time>2021-10-17T12:26:03Z</time>
      </trkpt>
      <trkpt lat="39.896586" lon="116.640566">
        <time>2021-10-17T12:26:08Z</time>
      </trkpt>
      <trkpt lat="39.896475" lon="116.640523">
        <time>2021-10-17T12:26:13Z</time>
      </trkpt>
      <trkpt lat="39.896349" lon="116.640499">
        <time>2021-10-17T12:26:18Z</time>
      </trkpt>
      <trkpt lat="39.896264" lon="116.640144">
        <time>2021-10-17T12:26:23Z</time>
      </trkpt>
      <trkpt lat="39.896259" lon="116.640099">
        <time>2021-10-17T12:26:28Z</time>
      </trkpt>
      <trkpt lat="39.896233" lon="116.639892">
        <time>2021-10-17T12:26:33Z</time>
      </trkpt>
      <trkpt lat="39.8962" lon="116.639656">
        <time>2021-10-17T12:26:38Z</time>
      </trkpt>
      <trkpt lat="39.896157" lon="116.63929">
        <time>2021-10-17T12:26:43Z</time>
      </trkpt>
      <trkpt lat="39.896155" lon="116.639259">
        <time>2021-10-17T12:26:48Z</time>
      </trkpt>
      <trkpt lat="39.896138" lon="116.639093">
        <time>2021-10-17T12:26:53Z</time>
      </trkpt>
      <trkpt lat="39.896117" lon="116.638928">
        <time>2021-10-17T12:26:58Z</time>
      </trkpt>
      <trkpt lat="39.896126" lon="116.638761">
        <time>2021-10-17T12:27:03Z</time>
      </trkpt>
      <trkpt lat="39.896088" lon="116.638598">
        <time>2021-10-17T12:27:08Z</time>
      </trkpt>
      <trkpt lat="39.896081" lon="116.638451">
        <time>2021-10-17T12:27:13Z</time>
      </trkpt>
      <trkpt lat="39.896077" lon="116.638376">
        <time>2021-10-17T12:27:18Z</time>
      </trkpt>
      <trkpt lat="39.896061" lon="116.638289">
        <time>2021-10-17T12:27:23Z</time>
      </trkpt>
      <trkpt lat="39.896048" lon="116.63818">
        <time>2021-10-17T12:27:28Z</time>
      </trkpt>
      <trkpt lat="39.89605" lon="116.638006">
        <time>2021-10-17T12:27:33Z</time>
      </trkpt>
      <trkpt lat="39.896086" lon="116.637827">
        <time>2021-10-17T12:27:38Z</time>
      </trkpt>
      <trkpt lat="39.896109" lon="116.6377">
        <time>2021-10-17T12:27:43Z</time>
      </trkpt>
      <trkpt lat="39.896124" lon="116.637586">
        <time>2021-10-17T12:27:48Z</time>
      </trkpt>
      <trkpt lat="39.896149" lon="116.63746">
        <time>2021-10-17T12:27:53Z</time>
      </trkpt>
      <trkpt lat="39.896183" lon="116.637333">
        <time>2021-10-17T12:27:58Z</time>
      </trkpt>
      <trkpt lat="39.89617" lon="116.637173">
        <time>2021-10-17T12:28:03Z</time>
      </trkpt>
      <trkpt lat="39.896115" lon="116.637011">
        <time>2021-10-17T12:28:08Z</time>
      </trkpt>
      <trkpt lat="39.896046" lon="116.636796">
        <time>2021-10-17T12:28:13Z</time>
      </trkpt>
      <trkpt lat="39.89601" lon="116.636734">
        <time>2021-10-17T12:28:18Z</time>
      </trkpt>
      <trkpt lat="39.895952" lon="116.636633">
        <time>2021-10-17T12:28:23Z</time>
      </trkpt>
      <trkpt lat="39.895969" lon="116.636688">
        <time>2021-10-17T12:28:28Z</time>
      </trkpt>
      <trkpt lat="39.896071" lon="116.636839">
        <time>2021-10-17T12:28:33Z</time>
      </trkpt>
      <trkpt lat="39.896111" lon="116.637147">
        <time>2021-10-17T12:28:38Z</time>
      </trkpt>
      <trkpt lat="39.896111" lon="116.637209">
        <time>2021-10-17T12:28:43Z</time>
      </trkpt>
      <trkpt lat="39.896112" lon="116.637368">
        <time>2021-10-17T12:28:48Z</time>
      </trkpt>
      <trkpt lat="39.896128" lon="116.63752">
        <time>2021-10-17T12:28:53Z</time>
      </trkpt>
      <trkpt lat="39.896134" lon="116.637664">
        <time>2021-10-17T12:28:58Z</time>
      </trkpt>
      <trkpt lat="39.896137" lon="116.637797">
        <time>2021-10-17T12:29:03Z</time>
      </trkpt>
      <trkpt lat="39.896146" lon="116.63795">
        <time>2021-10-17T12:29:08Z</time>
      </trkpt>
      <trkpt lat="39.896148" lon="116.638076">
        <time>2021-10-17T12:29:13Z</time>
      </trkpt>
      <trkpt lat="39.896136" lon="116.638223">
        <time>2021-10-17T12:29:18Z</time>
      </trkpt>
      <trkpt lat="39.896115" lon="116.638371">
        <time>2021-10-17T12:29:23Z</time>
      </trkpt>
      <trkpt lat="39.896135" lon="116.63852">
        <time>2021-10-17T12:29:28Z</time>
      </trkpt>
      <trkpt lat="39.896138" lon="116.638665">
        <time>2021-10-17T12:29:33Z</time>
      </trkpt>
      <trkpt lat="39.896139" lon="116.638821">
        <time>2021-10-17T12:29:38Z</time>
      </trkpt>
      <trkpt lat="39.89613" lon="116.638942">
        <time>2021-10-17T12:29:43Z</time>
      </trkpt>
      <trkpt lat="39.896158" lon="116.639084">
        <time>2021-10-17T12:29:48Z</time>
      </trkpt>
      <trkpt lat="39.896182" lon="116.639246">
        <time>2021-10-17T12:29:53Z</time>
      </trkpt>
      <trkpt lat="39.896188" lon="116.639397">
        <time>2021-10-17T12:29:58Z</time>
      </trkpt>
      <trkpt lat="39.896198" lon="116.639502">
        <time>2021-10-17T12:30:03Z</time>
      </trkpt>
      <trkpt lat="39.896215" lon="116.639705">
        <time>2021-10-17T12:30:08Z</time>
      </trkpt>
      <trkpt lat="39.896212" lon="116.639753">
        <time>2021-10-17T12:30:13Z</time>
      </trkpt>
      <trkpt lat="39.896208" lon="116.639873">
        <time>2021-10-17T12:30:18Z</time>
      </trkpt>
      <trkpt lat="39.896225" lon="116.64004">
        <time>2021-10-17T12:30:23Z</time>
      </trkpt>
      <trkpt lat="39.896246" lon="116.640198">
        <time>2021-10-17T12:30:28Z</time>
      </trkpt>
      <trkpt lat="39.896242" lon="116.64036">
        <time>2021-10-17T12:30:33Z</time>
      </trkpt>
      <trkpt lat="39.896264" lon="116.640527">
        <time>2021-10-17T12:30:38Z</time>
      </trkpt>
      <trkpt lat="39.896259" lon="116.640793">
        <time>2021-10-17T12:30:43Z</time>
      </trkpt>
      <trkpt lat="39.896242" lon="116.640863">
        <time>2021-10-17T12:30:48Z</time>
      </trkpt>
      <trkpt lat="39.896219" lon="116.641025">
        <time>2021-10-17T12:30:53Z</time>
      </trkpt>
      <trkpt lat="39.896221" lon="116.641177">
        <time>2021-10-17T12:30:58Z</time>
      </trkpt>
      <trkpt lat="39.896228" lon="116.641345">
        <time>2021-10-17T12:31:03Z</time>
      </trkpt>
      <trkpt lat="39.896229" lon="116.641498">
        <time>2021-10-17T12:31:08Z</time>
      </trkpt>
      <trkpt lat="39.896228" lon="116.641665">
        <time>2021-10-17T12:31:13Z</time>
      </trkpt>
      <trkpt lat="39.89621" lon="116.641825">
        <time>2021-10-17T12:31:18Z</time>
      </trkpt>
      <trkpt lat="39.896199" lon="116.641941">
        <time>2021-10-17T12:31:23Z</time>
      </trkpt>
      <trkpt lat="39.896186" lon="116.64205">
        <time>2021-10-17T12:31:28Z</time>
      </trkpt>
      <trkpt lat="39.89619" lon="116.642186">
        <time>2021-10-17T12:31:33Z</time>
      </trkpt>
      <trkpt lat="39.89618" lon="116.642299">
        <time>2021-10-17T12:31:38Z</time>
      </trkpt>
      <trkpt lat="39.89616" lon="116.642453">
        <time>2021-10-17T12:31:43Z</time>
      </trkpt>
      <trkpt lat="39.896162" lon="116.642633">
        <time>2021-10-17T12:31:48Z</time>
      </trkpt>
      <trkpt lat="39.896157" lon="116.642776">
        <time>2021-10-17T12:31:53Z</time>
      </trkpt>
      <trkpt lat="39.896145" lon="116.643019">
        <time>2021-10-17T12:31:58Z</time>
      </trkpt>
      <trkpt lat="39.896149" lon="116.643088">
        <time>2021-10-17T12:32:03Z</time>
      </trkpt>
      <trkpt lat="39.896166" lon="116.643335">
        <time>2021-10-17T12:32:08Z</time>
      </trkpt>
      <trkpt lat="39.896178" lon="116.643419">
        <time>2021-10-17T12:32:13Z</time>
      </trkpt>
      <trkpt lat="39.896213" lon="116.643568">
        <time>2021-10-17T12:32:18Z</time>
      </trkpt>
      <trkpt lat="39.896199" lon="116.643817">
        <time>2021-10-17T12:32:23Z</time>
      </trkpt>
      <trkpt lat="39.896198" lon="116.643921">
        <time>2021-10-17T12:32:28Z</time>
      </trkpt>
      <trkpt lat="39.896196" lon="116.64408">
        <time>2021-10-17T12:32:33Z</time>
      </trkpt>
      <trkpt lat="39.896178" lon="116.644216">
        <time>2021-10-17T12:32:38Z</time>
      </trkpt>
      <trkpt lat="39.896179" lon="116.644382">
        <time>2021-10-17T12:32:43Z</time>
      </trkpt>
      <trkpt lat="39.896174" lon="116.644542">
        <time>2021-10-17T12:32:48Z</time>
      </trkpt>
      <trkpt lat="39.896186" lon="116.64462">
        <time>2021-10-17T12:32:53Z</time>
      </trkpt>
      <trkpt lat="39.896222" lon="116.644732">
        <time>2021-10-17T12:32:58Z</time>
      </trkpt>
      <trkpt lat="39.896251" lon="116.644876">
        <time>2021-10-17T12:33:03Z</time>
      </trkpt>
      <trkpt lat="39.896216" lon="116.645002">
        <time>2021-10-17T12:33:08Z</time>
      </trkpt>
      <trkpt lat="39.896172" lon="116.645143">
        <time>2021-10-17T12:33:13Z</time>
      </trkpt>
      <trkpt lat="39.896158" lon="116.645294">
        <time>2021-10-17T12:33:18Z</time>
      </trkpt>
      <trkpt lat="39.896151" lon="116.645466">
        <time>2021-10-17T12:33:23Z</time>
      </trkpt>
      <trkpt lat="39.896129" lon="116.645629">
        <time>2021-10-17T12:33:28Z</time>
      </trkpt>
      <trkpt lat="39.896097" lon="116.645769">
        <time>2021-10-17T12:33:33Z</time>
      </trkpt>
      <trkpt lat="39.896062" lon="116.645965">
        <time>2021-10-17T12:33:38Z</time>
      </trkpt>
      <trkpt lat="39.896043" lon="116.646134">
        <time>2021-10-17T12:33:43Z</time>
      </trkpt>
      <trkpt lat="39.896044" lon="116.646311">
        <time>2021-10-17T12:33:48Z</time>
      </trkpt>
      <trkpt lat="39.896044" lon="116.646418">
        <time>2021-10-17T12:33:53Z</time>
      </trkpt>
      <trkpt lat="39.896034" lon="116.646511">
        <time>2021-10-17T12:33:58Z</time>
      </trkpt>
      <trkpt lat="39.896031" lon="116.646623">
        <time>2021-10-17T12:34:03Z</time>
      </trkpt>
      <trkpt lat="39.895973" lon="116.646715">
        <time>2021-10-17T12:34:08Z</time>
      </trkpt>
      <trkpt lat="39.895863" lon="116.646714">
        <time>2021-10-17T12:34:13Z</time>
      </trkpt>
      <trkpt lat="39.895719" lon="116.646686">
        <time>2021-10-17T12:34:18Z</time>
      </trkpt>
      <trkpt lat="39.89558" lon="116.646638">
        <time>2021-10-17T12:34:23Z</time>
      </trkpt>
      <trkpt lat="39.895459" lon="116.646595">
        <time>2021-10-17T12:34:28Z</time>
      </trkpt>
      <trkpt lat="39.895349" lon="116.64655">
        <time>2021-10-17T12:34:33Z</time>
      </trkpt>
      <trkpt lat="39.895281" lon="116.646525">
        <time>2021-10-17T12:34:38Z</time>
      </trkpt>
      <trkpt lat="39.89521" lon="116.646496">
        <time>2021-10-17T12:34:43Z</time>
      </trkpt>
      <trkpt lat="39.895121" lon="116.64645">
        <time>2021-10-17T12:34:48Z</time>
      </trkpt>
      <trkpt lat="39.89503" lon="116.646363">
        <time>2021-10-17T12:34:53Z</time>
      </trkpt>
      <trkpt lat="39.894919" lon="116.646342">
        <time>2021-10-17T12:34:58Z</time>
      </trkpt>
      <trkpt lat="39.894785" lon="116.646339">
        <time>2021-10-17T12:35:03Z</time>
      </trkpt>
      <trkpt lat="39.894651" lon="116.646289">
        <time>2021-10-17T12:35:08Z</time>
      </trkpt>
      <trkpt lat="39.894528" lon="116.646224">
        <time>2021-10-17T12:35:13Z</time>
      </trkpt>
      <trkpt lat="39.894428" lon="116.646154">
        <time>2021-10-17T12:35:18Z</time>
      </trkpt>
      <trkpt lat="39.89435" lon="116.646111">
        <time>2021-10-17T12:35:23Z</time>
      </trkpt>
      <trkpt lat="39.894275" lon="116.64608">
        <time>2021-10-17T12:35:28Z</time>
      </trkpt>
      <trkpt lat="39.894206" lon="116.646047">
        <time>2021-10-17T12:35:33Z</time>
      </trkpt>
      <trkpt lat="39.894133" lon="116.645969">
        <time>2021-10-17T12:35:38Z</time>
      </trkpt>
      <trkpt lat="39.89404" lon="116.645882">
        <time>2021-10-17T12:35:43Z</time>
      </trkpt>
      <trkpt lat="39.893907" lon="116.645886">
        <time>2021-10-17T12:35:48Z</time>
      </trkpt>
      <trkpt lat="39.893821" lon="116.645971">
        <time>2021-10-17T12:35:53Z</time>
      </trkpt>
      <trkpt lat="39.893754" lon="116.646094">
        <time>2021-10-17T12:35:58Z</time>
      </trkpt>
      <trkpt lat="39.893679" lon="116.646175">
        <time>2021-10-17T12:36:03Z</time>
      </trkpt>
      <trkpt lat="39.893607" lon="116.64632">
        <time>2021-10-17T12:36:08Z</time>
      </trkpt>
      <trkpt lat="39.893504" lon="116.64633">
        <time>2021-10-17T12:36:13Z</time>
      </trkpt>
      <trkpt lat="39.893415" lon="116.646244">
        <time>2021-10-17T12:36:18Z</time>
      </trkpt>
      <trkpt lat="39.893276" lon="116.646206">
        <time>2021-10-17T12:36:23Z</time>
      </trkpt>
      <trkpt lat="39.893153" lon="116.646134">
        <time>2021-10-17T12:36:28Z</time>
      </trkpt>
      <trkpt lat="39.893011" lon="116.646067">
        <time>2021-10-17T12:36:33Z</time>
      </trkpt>
      <trkpt lat="39.892863" lon="116.645999">
        <time>2021-10-17T12:36:38Z</time>
      </trkpt>
      <trkpt lat="39.892749" lon="116.645952">
        <time>2021-10-17T12:36:43Z</time>
      </trkpt>
      <trkpt lat="39.892678" lon="116.645913">
        <time>2021-10-17T12:36:48Z</time>
      </trkpt>
      <trkpt lat="39.892605" lon="116.645875">
        <time>2021-10-17T12:36:53Z</time>
      </trkpt>
      <trkpt lat="39.892534" lon="116.645843">
        <time>2021-10-17T12:36:58Z</time>
      </trkpt>
      <trkpt lat="39.892463" lon="116.645799">
        <time>2021-10-17T12:37:03Z</time>
      </trkpt>
      <trkpt lat="39.892376" lon="116.645746">
        <time>2021-10-17T12:37:08Z</time>
      </trkpt>
      <trkpt lat="39.892238" lon="116.645676">
        <time>2021-10-17T12:37:13Z</time>
      </trkpt>
      <trkpt lat="39.892149" lon="116.64564">
        <time>2021-10-17T12:37:18Z</time>
      </trkpt>
      <trkpt lat="39.89204" lon="116.645589">
        <time>2021-10-17T12:37:23Z</time>
      </trkpt>
      <trkpt lat="39.891925" lon="116.64549">
        <time>2021-10-17T12:37:28Z</time>
      </trkpt>
      <trkpt lat="39.891788" lon="116.645428">
        <time>2021-10-17T12:37:33Z</time>
      </trkpt>
      <trkpt lat="39.89165" lon="116.645392">
        <time>2021-10-17T12:37:38Z</time>
      </trkpt>
      <trkpt lat="39.891507" lon="116.645329">
        <time>2021-10-17T12:37:43Z</time>
      </trkpt>
      <trkpt lat="39.891489" lon="116.64538">
        <time>2021-10-17T12:37:48Z</time>
      </trkpt>
      <trkpt lat="39.891585" lon="116.645467">
        <time>2021-10-17T12:37:53Z</time>
      </trkpt>
      <trkpt lat="39.891656" lon="116.645569">
        <time>2021-10-17T12:37:58Z</time>
      </trkpt>
      <trkpt lat="39.891809" lon="116.645626">
        <time>2021-10-17T12:38:03Z</time>
      </trkpt>
      <trkpt lat="39.891959" lon="116.645639">
        <time>2021-10-17T12:38:08Z</time>
      </trkpt>
      <trkpt lat="39.892087" lon="116.645679">
        <time>2021-10-17T12:38:13Z</time>
      </trkpt>
      <trkpt lat="39.892203" lon="116.645728">
        <time>2021-10-17T12:38:18Z</time>
      </trkpt>
      <trkpt lat="39.892327" lon="116.645798">
        <time>2021-10-17T12:38:23Z</time>
      </trkpt>
      <trkpt lat="39.892499" lon="116.645847">
        <time>2021-10-17T12:38:28Z</time>
      </trkpt>
      <trkpt lat="39.892637" lon="116.645903">
        <time>2021-10-17T12:38:33Z</time>
      </trkpt>
      <trkpt lat="39.892803" lon="116.645951">
        <time>2021-10-17T12:38:38Z</time>
      </trkpt>
      <trkpt lat="39.892924" lon="116.646011">
        <time>2021-10-17T12:38:43Z</time>
      </trkpt>
      <trkpt lat="39.892995" lon="116.646043">
        <time>2021-10-17T12:38:48Z</time>
      </trkpt>
      <trkpt lat="39.89308" lon="116.646091">
        <time>2021-10-17T12:38:53Z</time>
      </trkpt>
      <trkpt lat="39.893211" lon="116.646147">
        <time>2021-10-17T12:38:58Z</time>
      </trkpt>
      <trkpt lat="39.893325" lon="116.646204">
        <time>2021-10-17T12:39:03Z</time>
      </trkpt>
      <trkpt lat="39.893452" lon="116.64628">
        <time>2021-10-17T12:39:08Z</time>
      </trkpt>
      <trkpt lat="39.893515" lon="116.646323">
        <time>2021-10-17T12:39:13Z</time>
      </trkpt>
      <trkpt lat="39.893606" lon="116.646353">
        <time>2021-10-17T12:39:18Z</time>
      </trkpt>
      <trkpt lat="39.893678" lon="116.646353">
        <time>2021-10-17T12:39:23Z</time>
      </trkpt>
      <trkpt lat="39.893756" lon="116.646273">
        <time>2021-10-17T12:39:28Z</time>
      </trkpt>
      <trkpt lat="39.893841" lon="116.646171">
        <time>2021-10-17T12:39:33Z</time>
      </trkpt>
      <trkpt lat="39.893927" lon="116.646064">
        <time>2021-10-17T12:39:38Z</time>
      </trkpt>
      <trkpt lat="39.893994" lon="116.645974">
        <time>2021-10-17T12:39:43Z</time>
      </trkpt>
      <trkpt lat="39.894071" lon="116.645973">
        <time>2021-10-17T12:39:48Z</time>
      </trkpt>
      <trkpt lat="39.894277" lon="116.64603">
        <time>2021-10-17T12:39:53Z</time>
      </trkpt>
      <trkpt lat="39.894338" lon="116.646045">
        <time>2021-10-17T12:39:58Z</time>
      </trkpt>
      <trkpt lat="39.894448" lon="116.646098">
        <time>2021-10-17T12:40:03Z</time>
      </trkpt>
      <trkpt lat="39.894518" lon="116.64617">
        <time>2021-10-17T12:40:08Z</time>
      </trkpt>
      <trkpt lat="39.894627" lon="116.646239">
        <time>2021-10-17T12:40:13Z</time>
      </trkpt>
      <trkpt lat="39.894756" lon="116.646276">
        <time>2021-10-17T12:40:18Z</time>
      </trkpt>
      <trkpt lat="39.894861" lon="116.646331">
        <time>2021-10-17T12:40:23Z</time>
      </trkpt>
      <trkpt lat="39.894943" lon="116.646362">
        <time>2021-10-17T12:40:28Z</time>
      </trkpt>
      <trkpt lat="39.895072" lon="116.646405">
        <time>2021-10-17T12:40:33Z</time>
      </trkpt>
      <trkpt lat="39.895217" lon="116.646432">
        <time>2021-10-17T12:40:38Z</time>
      </trkpt>
      <trkpt lat="39.895337" lon="116.646465">
        <time>2021-10-17T12:40:43Z</time>
      </trkpt>
      <trkpt lat="39.89546" lon="116.646551">
        <time>2021-10-17T12:40:48Z</time>
      </trkpt>
      <trkpt lat="39.895534" lon="116.646608">
        <time>2021-10-17T12:40:53Z</time>
      </trkpt>
      <trkpt lat="39.895655" lon="116.646652">
        <time>2021-10-17T12:40:58Z</time>
      </trkpt>
      <trkpt lat="39.895734" lon="116.646696">
        <time>2021-10-17T12:41:03Z</time>
      </trkpt>
      <trkpt lat="39.895782" lon="116.646735">
        <time>2021-10-17T12:41:08Z</time>
      </trkpt>
      <trkpt lat="39.895847" lon="116.646773">
        <time>2021-10-17T12:41:13Z</time>
      </trkpt>
      <trkpt lat="39.895913" lon="116.646783">
        <time>2021-10-17T12:41:18Z</time>
      </trkpt>
      <trkpt lat="39.896006" lon="116.646805">
        <time>2021-10-17T12:41:23Z</time>
      </trkpt>
      <trkpt lat="39.896066" lon="116.646679">
        <time>2021-10-17T12:41:28Z</time>
      </trkpt>
      <trkpt lat="39.896075" lon="116.646538">
        <time>2021-10-17T12:41:33Z</time>
      </trkpt>
      <trkpt lat="39.896073" lon="116.646387">
        <time>2021-10-17T12:41:38Z</time>
      </trkpt>
      <trkpt lat="39.896087" lon="116.646215">
        <time>2021-10-17T12:41:43Z</time>
      </trkpt>
      <trkpt lat="39.896088" lon="116.646025">
        <time>2021-10-17T12:41:48Z</time>
      </trkpt>
      <trkpt lat="39.896081" lon="116.64584">
        <time>2021-10-17T12:41:53Z</time>
      </trkpt>
      <trkpt lat="39.896088" lon="116.645686">
        <time>2021-10-17T12:41:58Z</time>
      </trkpt>
      <trkpt lat="39.896118" lon="116.645549">
        <time>2021-10-17T12:42:03Z</time>
      </trkpt>
      <trkpt lat="39.896134" lon="116.645425">
        <time>2021-10-17T12:42:08Z</time>
      </trkpt>
      <trkpt lat="39.896144" lon="116.645283">
        <time>2021-10-17T12:42:13Z</time>
      </trkpt>
      <trkpt lat="39.896186" lon="116.64501">
        <time>2021-10-17T12:42:18Z</time>
      </trkpt>
      <trkpt lat="39.896189" lon="116.644977">
        <time>2021-10-17T12:42:23Z</time>
      </trkpt>
      <trkpt lat="39.896194" lon="116.644804">
        <time>2021-10-17T12:42:28Z</time>
      </trkpt>
      <trkpt lat="39.896201" lon="116.644641">
        <time>2021-10-17T12:42:33Z</time>
      </trkpt>
      <trkpt lat="39.896201" lon="116.644466">
        <time>2021-10-17T12:42:38Z</time>
      </trkpt>
      <trkpt lat="39.8962" lon="116.644148">
        <time>2021-10-17T12:42:43Z</time>
      </trkpt>
      <trkpt lat="39.896202" lon="116.644117">
        <time>2021-10-17T12:42:48Z</time>
      </trkpt>
      <trkpt lat="39.89622" lon="116.643971">
        <time>2021-10-17T12:42:53Z</time>
      </trkpt>
      <trkpt lat="39.896179" lon="116.643749">
        <time>2021-10-17T12:42:58Z</time>
      </trkpt>
      <trkpt lat="39.896167" lon="116.643659">
        <time>2021-10-17T12:43:03Z</time>
      </trkpt>
      <trkpt lat="39.896161" lon="116.643509">
        <time>2021-10-17T12:43:08Z</time>
      </trkpt>
      <trkpt lat="39.896157" lon="116.643412">
        <time>2021-10-17T12:43:13Z</time>
      </trkpt>
      <trkpt lat="39.896162" lon="116.643328">
        <time>2021-10-17T12:43:18Z</time>
      </trkpt>
      <trkpt lat="39.896206" lon="116.643184">
        <time>2021-10-17T12:43:23Z</time>
      </trkpt>
      <trkpt lat="39.896234" lon="116.643157">
        <time>2021-10-17T12:43:28Z</time>
      </trkpt>
      <trkpt lat="39.896223" lon="116.642975">
        <time>2021-10-17T12:43:33Z</time>
      </trkpt>
      <trkpt lat="39.89623" lon="116.642809">
        <time>2021-10-17T12:43:38Z</time>
      </trkpt>
      <trkpt lat="39.896226" lon="116.642592">
        <time>2021-10-17T12:43:43Z</time>
      </trkpt>
      <trkpt lat="39.896223" lon="116.642387">
        <time>2021-10-17T12:43:48Z</time>
      </trkpt>
      <trkpt lat="39.896219" lon="116.642192">
        <time>2021-10-17T12:43:53Z</time>
      </trkpt>
      <trkpt lat="39.896227" lon="116.641994">
        <time>2021-10-17T12:43:58Z</time>
      </trkpt>
      <trkpt lat="39.896195" lon="116.641781">
        <time>2021-10-17T12:44:03Z</time>
      </trkpt>
      <trkpt lat="39.896187" lon="116.641576">
        <time>2021-10-17T12:44:08Z</time>
      </trkpt>
      <trkpt lat="39.896198" lon="116.641431">
        <time>2021-10-17T12:44:13Z</time>
      </trkpt>
      <trkpt lat="39.896202" lon="116.641238">
        <time>2021-10-17T12:44:18Z</time>
      </trkpt>
      <trkpt lat="39.896191" lon="116.641055">
        <time>2021-10-17T12:44:23Z</time>
      </trkpt>
      <trkpt lat="39.896178" lon="116.640898">
        <time>2021-10-17T12:44:28Z</time>
      </trkpt>
      <trkpt lat="39.896192" lon="116.640799">
        <time>2021-10-17T12:44:33Z</time>
      </trkpt>
      <trkpt lat="39.896199" lon="116.640707">
        <time>2021-10-17T12:44:38Z</time>
      </trkpt>
      <trkpt lat="39.896207" lon="116.640606">
        <time>2021-10-17T12:44:43Z</time>
      </trkpt>
      <trkpt lat="39.89621" lon="116.640503">
        <time>2021-10-17T12:44:48Z</time>
      </trkpt>
      <trkpt lat="39.896209" lon="116.640367">
        <time>2021-10-17T12:44:53Z</time>
      </trkpt>
      <trkpt lat="39.896235" lon="116.640088">
        <time>2021-10-17T12:44:58Z</time>
      </trkpt>
      <trkpt lat="39.896229" lon="116.63994">
        <time>2021-10-17T12:45:03Z</time>
      </trkpt>
      <trkpt lat="39.896206" lon="116.639708">
        <time>2021-10-17T12:45:08Z</time>
      </trkpt>
      <trkpt lat="39.896183" lon="116.639504">
        <time>2021-10-17T12:45:13Z</time>
      </trkpt>
      <trkpt lat="39.896172" lon="116.639283">
        <time>2021-10-17T12:45:18Z</time>
      </trkpt>
      <trkpt lat="39.896138" lon="116.639149">
        <time>2021-10-17T12:45:23Z</time>
      </trkpt>
      <trkpt lat="39.896113" lon="116.639029">
        <time>2021-10-17T12:45:28Z</time>
      </trkpt>
      <trkpt lat="39.896086" lon="116.638942">
        <time>2021-10-17T12:45:33Z</time>
      </trkpt>
      <trkpt lat="39.896087" lon="116.638844">
        <time>2021-10-17T12:45:38Z</time>
      </trkpt>
      <trkpt lat="39.896053" lon="116.63869">
        <time>2021-10-17T12:45:43Z</time>
      </trkpt>
      <trkpt lat="39.896034" lon="116.638536">
        <time>2021-10-17T12:45:48Z</time>
      </trkpt>
      <trkpt lat="39.89601" lon="116.638382">
        <time>2021-10-17T12:45:53Z</time>
      </trkpt>
      <trkpt lat="39.896054" lon="116.638213">
        <time>2021-10-17T12:45:58Z</time>
      </trkpt>
      <trkpt lat="39.89608" lon="116.638048">
        <time>2021-10-17T12:46:03Z</time>
      </trkpt>
      <trkpt lat="39.896094" lon="116.637903">
        <time>2021-10-17T12:46:08Z</time>
      </trkpt>
      <trkpt lat="39.896091" lon="116.637778">
        <time>2021-10-17T12:46:13Z</time>
      </trkpt>
      <trkpt lat="39.896101" lon="116.637687">
        <time>2021-10-17T12:46:18Z</time>
      </trkpt>
      <trkpt lat="39.89611" lon="116.637569">
        <time>2021-10-17T12:46:23Z</time>
      </trkpt>
      <trkpt lat="39.89613" lon="116.637452">
        <time>2021-10-17T12:46:28Z</time>
      </trkpt>
      <trkpt lat="39.896149" lon="116.637337">
        <time>2021-10-17T12:46:33Z</time>
      </trkpt>
      <trkpt lat="39.89611" lon="116.637159">
        <time>2021-10-17T12:46:38Z</time>
      </trkpt>
      <trkpt lat="39.896083" lon="116.636986">
        <time>2021-10-17T12:46:43Z</time>
      </trkpt>
      <trkpt lat="39.896037" lon="116.636832">
        <time>2021-10-17T12:46:48Z</time>
      </trkpt>
      <trkpt lat="39.895975" lon="116.636725">
        <time>2021-10-17T12:46:53Z</time>
      </trkpt>
      <trkpt lat="39.895891" lon="116.636613">
        <time>2021-10-17T12:46:58Z</time>
      </trkpt>
      <trkpt lat="39.895808" lon="116.636496">
        <time>2021-10-17T12:47:03Z</time>
      </trkpt>
      <trkpt lat="39.895924" lon="116.636321">
        <time>2021-10-17T12:47:08Z</time>
      </trkpt>
      <trkpt lat="39.896077" lon="116.636222">
        <time>2021-10-17T12:47:13Z</time>
      </trkpt>
      <trkpt lat="39.896192" lon="116.636152">
        <time>2021-10-17T12:47:18Z</time>
      </trkpt>
      <trkpt lat="39.896286" lon="116.636027">
        <time>2021-10-17T12:47:23Z</time>
      </trkpt>
      <trkpt lat="39.896419" lon="116.635943">
        <time>2021-10-17T12:47:28Z</time>
      </trkpt>
      <trkpt lat="39.896568" lon="116.63585">
        <time>2021-10-17T12:47:33Z</time>
      </trkpt>
      <trkpt lat="39.896659" lon="116.635778">
        <time>2021-10-17T12:47:38Z</time>
      </trkpt>
      <trkpt lat="39.896764" lon="116.635735">
        <time>2021-10-17T12:47:43Z</time>
      </trkpt>
      <trkpt lat="39.896856" lon="116.635703">
        <time>2021-10-17T12:47:48Z</time>
      </trkpt>
      <trkpt lat="39.896959" lon="116.635659">
        <time>2021-10-17T12:47:53Z</time>
      </trkpt>
      <trkpt lat="39.896993" lon="116.635647">
        <time>2021-10-17T12:47:58Z</time>
      </trkpt>
      <trkpt lat="39.897076" lon="116.635624">
        <time>2021-10-17T12:48:03Z</time>
      </trkpt>
      <trkpt lat="39.897178" lon="116.635583">
        <time>2021-10-17T12:48:08Z</time>
      </trkpt>
      <trkpt lat="39.897284" lon="116.635515">
        <time>2021-10-17T12:48:13Z</time>
      </trkpt>
      <trkpt lat="39.897452" lon="116.635419">
        <time>2021-10-17T12:48:18Z</time>
      </trkpt>
      <trkpt lat="39.897487" lon="116.635377">
        <time>2021-10-17T12:48:23Z</time>
      </trkpt>
      <trkpt lat="39.897593" lon="116.635276">
        <time>2021-10-17T12:48:28Z</time>
      </trkpt>
      <trkpt lat="39.897687" lon="116.635182">
        <time>2021-10-17T12:48:33Z</time>
      </trkpt>
      <trkpt lat="39.897755" lon="116.635146">
        <time>2021-10-17T12:48:38Z</time>
      </trkpt>
      <trkpt lat="39.897827" lon="116.635105">
        <time>2021-10-17T12:48:43Z</time>
      </trkpt>
      <trkpt lat="39.897943" lon="116.635058">
        <time>2021-10-17T12:48:48Z</time>
      </trkpt>
      <trkpt lat="39.897974" lon="116.635041">
        <time>2021-10-17T12:48:53Z</time>
      </trkpt>
      <trkpt lat="39.898043" lon="116.635006">
        <time>2021-10-17T12:48:58Z</time>
      </trkpt>
      <trkpt lat="39.898133" lon="116.634961">
        <time>2021-10-17T12:49:03Z</time>
      </trkpt>
      <trkpt lat="39.89827" lon="116.634871">
        <time>2021-10-17T12:49:08Z</time>
      </trkpt>
      <trkpt lat="39.898383" lon="116.634831">
        <time>2021-10-17T12:49:13Z</time>
      </trkpt>
      <trkpt lat="39.898493" lon="116.634771">
        <time>2021-10-17T12:49:18Z</time>
      </trkpt>
      <trkpt lat="39.898614" lon="116.634688">
        <time>2021-10-17T12:49:23Z</time>
      </trkpt>
      <trkpt lat="39.898742" lon="116.634598">
        <time>2021-10-17T12:49:28Z</time>
      </trkpt>
      <trkpt lat="39.898841" lon="116.634497">
        <time>2021-10-17T12:49:33Z</time>
      </trkpt>
      <trkpt lat="39.898942" lon="116.634425">
        <time>2021-10-17T12:49:38Z</time>
      </trkpt>
      <trkpt lat="39.899034" lon="116.634337">
        <time>2021-10-17T12:49:43Z</time>
      </trkpt>
      <trkpt lat="39.899157" lon="116.634292">
        <time>2021-10-17T12:49:48Z</time>
      </trkpt>
      <trkpt lat="39.899285" lon="116.634259">
        <time>2021-10-17T12:49:53Z</time>
      </trkpt>
      <trkpt lat="39.899372" lon="116.634203">
        <time>2021-10-17T12:49:58Z</time>
      </trkpt>
      <trkpt lat="39.899451" lon="116.634152">
        <time>2021-10-17T12:50:03Z</time>
      </trkpt>
      <trkpt lat="39.899517" lon="116.63413">
        <time>2021-10-17T12:50:08Z</time>
      </trkpt>
      <trkpt lat="39.899591" lon="116.634115">
        <time>2021-10-17T12:50:13Z</time>
      </trkpt>
      <trkpt lat="39.899654" lon="116.634079">
        <time>2021-10-17T12:50:18Z</time>
      </trkpt>
      <trkpt lat="39.899737" lon="116.634027">
        <time>2021-10-17T12:50:23Z</time>
      </trkpt>
      <trkpt lat="39.899821" lon="116.63399">
        <time>2021-10-17T12:50:28Z</time>
      </trkpt>
      <trkpt lat="39.899933" lon="116.633949">
        <time>2021-10-17T12:50:33Z</time>
      </trkpt>
      <trkpt lat="39.900028" lon="116.633864">
        <time>2021-10-17T12:50:38Z</time>
      </trkpt>
      <trkpt lat="39.900106" lon="116.63376">
        <time>2021-10-17T12:50:43Z</time>
      </trkpt>
      <trkpt lat="39.900211" lon="116.633667">
        <time>2021-10-17T12:50:48Z</time>
      </trkpt>
      <trkpt lat="39.9004" lon="116.633579">
        <time>2021-10-17T12:50:53Z</time>
      </trkpt>
      <trkpt lat="39.900421" lon="116.633563">
        <time>2021-10-17T12:50:58Z</time>
      </trkpt>
      <trkpt lat="39.900516" lon="116.633483">
        <time>2021-10-17T12:51:03Z</time>
      </trkpt>
      <trkpt lat="39.900577" lon="116.633404">
        <time>2021-10-17T12:51:08Z</time>
      </trkpt>
      <trkpt lat="39.900651" lon="116.633373">
        <time>2021-10-17T12:51:13Z</time>
      </trkpt>
      <trkpt lat="39.900726" lon="116.633342">
        <time>2021-10-17T12:51:18Z</time>
      </trkpt>
      <trkpt lat="39.900805" lon="116.633285">
        <time>2021-10-17T12:51:23Z</time>
      </trkpt>
      <trkpt lat="39.900903" lon="116.633204">
        <time>2021-10-17T12:51:28Z</time>
      </trkpt>
      <trkpt lat="39.900987" lon="116.633274">
        <time>2021-10-17T12:51:33Z</time>
      </trkpt>
      <trkpt lat="39.90099" lon="116.633432">
        <time>2021-10-17T12:51:38Z</time>
      </trkpt>
      <trkpt lat="39.900989" lon="116.633594">
        <time>2021-10-17T12:51:43Z</time>
      </trkpt>
      <trkpt lat="39.901001" lon="116.63376">
        <time>2021-10-17T12:51:48Z</time>
      </trkpt>
      <trkpt lat="39.900996" lon="116.633918">
        <time>2021-10-17T12:51:53Z</time>
      </trkpt>
      <trkpt lat="39.900967" lon="116.634081">
        <time>2021-10-17T12:51:58Z</time>
      </trkpt>
      <trkpt lat="39.900976" lon="116.634243">
        <time>2021-10-17T12:52:03Z</time>
      </trkpt>
      <trkpt lat="39.900946" lon="116.634365">
        <time>2021-10-17T12:52:08Z</time>
      </trkpt>
      <trkpt lat="39.900928" lon="116.634478">
        <time>2021-10-17T12:52:13Z</time>
      </trkpt>
      <trkpt lat="39.900908" lon="116.634463">
        <time>2021-10-17T12:52:18Z</time>
      </trkpt>
      <trkpt lat="39.900881" lon="116.634492">
        <time>2021-10-17T12:52:23Z</time>
      </trkpt>
      <trkpt lat="39.900832" lon="116.63455">
        <time>2021-10-17T12:52:28Z</time>
      </trkpt>
      <trkpt lat="39.900831" lon="116.634637">
        <time>2021-10-17T12:52:33Z</time>
      </trkpt>
      <trkpt lat="39.900862" lon="116.634533">
        <time>2021-10-17T12:52:38Z</time>
      </trkpt>
      <trkpt lat="39.900894" lon="116.634386">
        <time>2021-10-17T12:52:43Z</time>
      </trkpt>
      <trkpt lat="39.900893" lon="116.634322">
        <time>2021-10-17T12:52:48Z</time>
      </trkpt>
      <trkpt lat="39.900917" lon="116.634144">
        <time>2021-10-17T12:52:53Z</time>
      </trkpt>
      <trkpt lat="39.900918" lon="116.633963">
        <time>2021-10-17T12:52:58Z</time>
      </trkpt>
      <trkpt lat="39.900965" lon="116.633753">
        <time>2021-10-17T12:53:03Z</time>
      </trkpt>
      <trkpt lat="39.900994" lon="116.633636">
        <time>2021-10-17T12:53:08Z</time>
      </trkpt>
      <trkpt lat="39.901017" lon="116.633568">
        <time>2021-10-17T12:53:13Z</time>
      </trkpt>
      <trkpt lat="39.901053" lon="116.633414">
        <time>2021-10-17T12:53:18Z</time>
      </trkpt>
      <trkpt lat="39.901018" lon="116.633277">
        <time>2021-10-17T12:53:23Z</time>
      </trkpt>
      <trkpt lat="39.901018" lon="116.633277">
        <time>2021-10-17T12:53:28Z</time>
      </trkpt>
      <trkpt lat="39.90095" lon="116.633222">
        <time>2021-10-17T12:53:33Z</time>
      </trkpt>
      <trkpt lat="39.900874" lon="116.63298">
        <time>2021-10-17T12:53:38Z</time>
      </trkpt>
      <trkpt lat="39.900776" lon="116.632895">
        <time>2021-10-17T12:53:43Z</time>
      </trkpt>
      <trkpt lat="39.900638" lon="116.632911">
        <time>2021-10-17T12:53:48Z</time>
      </trkpt>
      <trkpt lat="39.900492" lon="116.633001">
        <time>2021-10-17T12:53:53Z</time>
      </trkpt>
      <trkpt lat="39.900374" lon="116.63309">
        <time>2021-10-17T12:53:58Z</time>
      </trkpt>
      <trkpt lat="39.900305" lon="116.633152">
        <time>2021-10-17T12:54:03Z</time>
      </trkpt>
      <trkpt lat="39.900255" lon="116.633202">
        <time>2021-10-17T12:54:08Z</time>
      </trkpt>
      <trkpt lat="39.900191" lon="116.633242">
        <time>2021-10-17T12:54:13Z</time>
      </trkpt>
      <trkpt lat="39.90012" lon="116.633294">
        <time>2021-10-17T12:54:18Z</time>
      </trkpt>
      <trkpt lat="39.900051" lon="116.633351">
        <time>2021-10-17T12:54:23Z</time>
      </trkpt>
      <trkpt lat="39.899991" lon="116.633416">
        <time>2021-10-17T12:54:28Z</time>
      </trkpt>
      <trkpt lat="39.899902" lon="116.633488">
        <time>2021-10-17T12:54:33Z</time>
      </trkpt>
      <trkpt lat="39.899803" lon="116.633607">
        <time>2021-10-17T12:54:38Z</time>
      </trkpt>
      <trkpt lat="39.899734" lon="116.633644">
        <time>2021-10-17T12:54:43Z</time>
      </trkpt>
      <trkpt lat="39.899585" lon="116.633721">
        <time>2021-10-17T12:54:48Z</time>
      </trkpt>
      <trkpt lat="39.899411" lon="116.633848">
        <time>2021-10-17T12:54:53Z</time>
      </trkpt>
      <trkpt lat="39.899184" lon="116.63399">
        <time>2021-10-17T12:54:58Z</time>
      </trkpt>
      <trkpt lat="39.89913" lon="116.634026">
        <time>2021-10-17T12:55:03Z</time>
      </trkpt>
      <trkpt lat="39.899017" lon="116.634071">
        <time>2021-10-17T12:55:08Z</time>
      </trkpt>
      <trkpt lat="39.8989" lon="116.634122">
        <time>2021-10-17T12:55:13Z</time>
      </trkpt>
      <trkpt lat="39.898812" lon="116.634174">
        <time>2021-10-17T12:55:18Z</time>
      </trkpt>
      <trkpt lat="39.898763" lon="116.634104">
        <time>2021-10-17T12:55:23Z</time>
      </trkpt>
      <trkpt lat="39.898675" lon="116.634071">
        <time>2021-10-17T12:55:28Z</time>
      </trkpt>
      <trkpt lat="39.898545" lon="116.634107">
        <time>2021-10-17T12:55:33Z</time>
      </trkpt>
      <trkpt lat="39.898419" lon="116.63418">
        <time>2021-10-17T12:55:38Z</time>
      </trkpt>
      <trkpt lat="39.898327" lon="116.634274">
        <time>2021-10-17T12:55:43Z</time>
      </trkpt>
      <trkpt lat="39.898255" lon="116.634327">
        <time>2021-10-17T12:55:48Z</time>
      </trkpt>
      <trkpt lat="39.898187" lon="116.634362">
        <time>2021-10-17T12:55:53Z</time>
      </trkpt>
      <trkpt lat="39.898062" lon="116.6344">
        <time>2021-10-17T12:55:58Z</time>
      </trkpt>
      <trkpt lat="39.897968" lon="116.634465">
        <time>2021-10-17T12:56:03Z</time>
      </trkpt>
      <trkpt lat="39.897917" lon="116.634445">
        <time>2021-10-17T12:56:08Z</time>
      </trkpt>
      <trkpt lat="39.897884" lon="116.634344">
        <time>2021-10-17T12:56:13Z</time>
      </trkpt>
      <trkpt lat="39.897842" lon="116.634254">
        <time>2021-10-17T12:56:18Z</time>
      </trkpt>
      <trkpt lat="39.897792" lon="116.634178">
        <time>2021-10-17T12:56:23Z</time>
      </trkpt>
      <trkpt lat="39.897747" lon="116.634102">
        <time>2021-10-17T12:56:28Z</time>
      </trkpt>
      <trkpt lat="39.897676" lon="116.634023">
        <time>2021-10-17T12:56:33Z</time>
      </trkpt>
      <trkpt lat="39.897617" lon="116.633911">
        <time>2021-10-17T12:56:38Z</time>
      </trkpt>
      <trkpt lat="39.897617" lon="116.633911">
        <time>2021-10-17T12:56:43Z</time>
      </trkpt>
      <trkpt lat="39.897564" lon="116.633792">
        <time>2021-10-17T12:56:48Z</time>
      </trkpt>
      <trkpt lat="39.897504" lon="116.63376">
        <time>2021-10-17T12:56:53Z</time>
      </trkpt>
      <trkpt lat="39.897428" lon="116.633769">
        <time>2021-10-17T12:56:58Z</time>
      </trkpt>
      <trkpt lat="39.897299" lon="116.633766">
        <time>2021-10-17T12:57:03Z</time>
      </trkpt>
      <trkpt lat="39.89728" lon="116.633629">
        <time>2021-10-17T12:57:08Z</time>
      </trkpt>
      <trkpt lat="39.897227" lon="116.633482">
        <time>2021-10-17T12:57:13Z</time>
      </trkpt>
      <trkpt lat="39.897132" lon="116.633326">
        <time>2021-10-17T12:57:18Z</time>
      </trkpt>
      <trkpt lat="39.897128" lon="116.633312">
        <time>2021-10-17T12:57:23Z</time>
      </trkpt>
      <trkpt lat="39.897063" lon="116.633146">
        <time>2021-10-17T12:57:28Z</time>
      </trkpt>
      <trkpt lat="39.897031" lon="116.633113">
        <time>2021-10-17T12:57:33Z</time>
      </trkpt>
      <trkpt lat="39.896969" lon="116.633014">
        <time>2021-10-17T12:57:38Z</time>
      </trkpt>
      <trkpt lat="39.896916" lon="116.632978">
        <time>2021-10-17T12:57:43Z</time>
      </trkpt>
      <trkpt lat="39.896833" lon="116.633021">
        <time>2021-10-17T12:57:48Z</time>
      </trkpt>
      <trkpt lat="39.896829" lon="116.633132">
        <time>2021-10-17T12:57:53Z</time>
      </trkpt>
      <trkpt lat="39.896883" lon="116.633259">
        <time>2021-10-17T12:57:58Z</time>
      </trkpt>
      <trkpt lat="39.896951" lon="116.633367">
        <time>2021-10-17T12:58:03Z</time>
      </trkpt>
      <trkpt lat="39.896941" lon="116.633504">
        <time>2021-10-17T12:58:08Z</time>
      </trkpt>
      <trkpt lat="39.896966" lon="116.633604">
        <time>2021-10-17T12:58:13Z</time>
      </trkpt>
      <trkpt lat="39.896975" lon="116.633683">
        <time>2021-10-17T12:58:18Z</time>
      </trkpt>
      <trkpt lat="39.897016" lon="116.633823">
        <time>2021-10-17T12:58:23Z</time>
      </trkpt>
      <trkpt lat="39.897068" lon="116.633932">
        <time>2021-10-17T12:58:28Z</time>
      </trkpt>
      <trkpt lat="39.897209" lon="116.63412">
        <time>2021-10-17T12:58:33Z</time>
      </trkpt>
      <trkpt lat="39.897272" lon="116.634169">
        <time>2021-10-17T12:58:38Z</time>
      </trkpt>
      <trkpt lat="39.897359" lon="116.634141">
        <time>2021-10-17T12:58:43Z</time>
      </trkpt>
      <trkpt lat="39.897337" lon="116.633979">
        <time>2021-10-17T12:58:48Z</time>
      </trkpt>
      <trkpt lat="39.897313" lon="116.633804">
        <time>2021-10-17T12:58:53Z</time>
      </trkpt>
      <trkpt lat="39.897267" lon="116.633672">
        <time>2021-10-17T12:58:58Z</time>
      </trkpt>
      <trkpt lat="39.897204" lon="116.633526">
        <time>2021-10-17T12:59:03Z</time>
      </trkpt>
      <trkpt lat="39.897123" lon="116.633378">
        <time>2021-10-17T12:59:08Z</time>
      </trkpt>
      <trkpt lat="39.897057" lon="116.633242">
        <time>2021-10-17T12:59:13Z</time>
      </trkpt>
      <trkpt lat="39.897008" lon="116.633076">
        <time>2021-10-17T12:59:18Z</time>
      </trkpt>
      <trkpt lat="39.896982" lon="116.632926">
        <time>2021-10-17T12:59:23Z</time>
      </trkpt>
      <trkpt lat="39.896913" lon="116.632816">
        <time>2021-10-17T12:59:28Z</time>
      </trkpt>
      <trkpt lat="39.896777" lon="116.632852">
        <time>2021-10-17T12:59:33Z</time>
      </trkpt>
      <trkpt lat="39.896737" lon="116.632995">
        <time>2021-10-17T12:59:38Z</time>
      </trkpt>
      <trkpt lat="39.896767" lon="116.633105">
        <time>2021-10-17T12:59:43Z</time>
      </trkpt>
      <trkpt lat="39.896802" lon="116.633227">
        <time>2021-10-17T12:59:48Z</time>
      </trkpt>
      <trkpt lat="39.896836" lon="116.633277">
        <time>2021-10-17T12:59:53Z</time>
      </trkpt>
      <trkpt lat="39.896891" lon="116.633411">
        <time>2021-10-17T12:59:58Z</time>
      </trkpt>
      <trkpt lat="39.896973" lon="116.633547">
        <time>2021-10-17T13:00:03Z</time>
      </trkpt>
      <trkpt lat="39.897101" lon="116.633774">
        <time>2021-10-17T13:00:08Z</time>
      </trkpt>
      <trkpt lat="39.897213" lon="116.63402">
        <time>2021-10-17T13:00:13Z</time>
      </trkpt>
      <trkpt lat="39.897313" lon="116.634186">
        <time>2021-10-17T13:01:33Z</time>
      </trkpt>
    </trkseg>
  </trk>
</gpx>