<?xml version="1.0" encoding="UTF-8"?>
<gpx xmlns="http://www.topografix.com/GPX/1/1" xmlns:gpxtpx="http://www.garmin.com/xmlschemas/TrackPointExtension/v1" xmlns:xsi="http://www.w3.org/2001/XMLSchema-instance" xsi:schemaLocation="http://www.topografix.com/GPX/1/1 http://www.topografix.com/GPX/1/1/gpx.xsd" version="1.1" creator="gpx.py -- https://github.com/tkrajina/gpxpy">
  <trk>
    <name>gpx from keep</name>
    <trkseg>
      <trkpt lat="39.897756" lon="116.633909">
        <time>2021-10-23T12:28:00Z</time>
      </trkpt>
      <trkpt lat="39.897756" lon="116.633909">
        <time>2021-10-23T12:28:05Z</time>
      </trkpt>
      <trkpt lat="39.897923" lon="116.634088">
        <time>2021-10-23T12:28:10Z</time>
      </trkpt>
      <trkpt lat="39.898078" lon="116.634111">
        <time>2021-10-23T12:28:15Z</time>
      </trkpt>
      <trkpt lat="39.897918" lon="116.634307">
        <time>2021-10-23T12:28:20Z</time>
      </trkpt>
      <trkpt lat="39.897885" lon="116.634533">
        <time>2021-10-23T12:28:25Z</time>
      </trkpt>
      <trkpt lat="39.897966" lon="116.634675">
        <time>2021-10-23T12:28:30Z</time>
      </trkpt>
      <trkpt lat="39.897987" lon="116.634716">
        <time>2021-10-23T12:28:35Z</time>
      </trkpt>
      <trkpt lat="39.897978" lon="116.634768">
        <time>2021-10-23T12:28:40Z</time>
      </trkpt>
      <trkpt lat="39.898009" lon="116.634874">
        <time>2021-10-23T12:28:45Z</time>
      </trkpt>
      <trkpt lat="39.898071" lon="116.635022">
        <time>2021-10-23T12:28:50Z</time>
      </trkpt>
      <trkpt lat="39.898044" lon="116.635154">
        <time>2021-10-23T12:28:55Z</time>
      </trkpt>
      <trkpt lat="39.897914" lon="116.635214">
        <time>2021-10-23T12:29:00Z</time>
      </trkpt>
      <trkpt lat="39.897811" lon="116.635264">
        <time>2021-10-23T12:29:05Z</time>
      </trkpt>
      <trkpt lat="39.89771" lon="116.635321">
        <time>2021-10-23T12:29:10Z</time>
      </trkpt>
      <trkpt lat="39.897614" lon="116.635372">
        <time>2021-10-23T12:29:15Z</time>
      </trkpt>
      <trkpt lat="39.89751" lon="116.635446">
        <time>2021-10-23T12:29:20Z</time>
      </trkpt>
      <trkpt lat="39.897409" lon="116.635515">
        <time>2021-10-23T12:29:25Z</time>
      </trkpt>
      <trkpt lat="39.897302" lon="116.635561">
        <time>2021-10-23T12:29:30Z</time>
      </trkpt>
      <trkpt lat="39.897198" lon="116.63562">
        <time>2021-10-23T12:29:35Z</time>
      </trkpt>
      <trkpt lat="39.897082" lon="116.635705">
        <time>2021-10-23T12:29:40Z</time>
      </trkpt>
      <trkpt lat="39.896959" lon="116.635804">
        <time>2021-10-23T12:29:45Z</time>
      </trkpt>
      <trkpt lat="39.896845" lon="116.635878">
        <time>2021-10-23T12:29:50Z</time>
      </trkpt>
      <trkpt lat="39.896724" lon="116.635945">
        <time>2021-10-23T12:29:55Z</time>
      </trkpt>
      <trkpt lat="39.896603" lon="116.636032">
        <time>2021-10-23T12:30:00Z</time>
      </trkpt>
      <trkpt lat="39.896516" lon="116.636098">
        <time>2021-10-23T12:30:05Z</time>
      </trkpt>
      <trkpt lat="39.896412" lon="116.636151">
        <time>2021-10-23T12:30:10Z</time>
      </trkpt>
      <trkpt lat="39.896317" lon="116.636183">
        <time>2021-10-23T12:30:15Z</time>
      </trkpt>
      <trkpt lat="39.896217" lon="116.636234">
        <time>2021-10-23T12:30:20Z</time>
      </trkpt>
      <trkpt lat="39.896115" lon="116.636293">
        <time>2021-10-23T12:30:25Z</time>
      </trkpt>
      <trkpt lat="39.896027" lon="116.636364">
        <time>2021-10-23T12:30:30Z</time>
      </trkpt>
      <trkpt lat="39.89595" lon="116.636405">
        <time>2021-10-23T12:30:35Z</time>
      </trkpt>
      <trkpt lat="39.895848" lon="116.636485">
        <time>2021-10-23T12:30:40Z</time>
      </trkpt>
      <trkpt lat="39.895847" lon="116.63663">
        <time>2021-10-23T12:30:45Z</time>
      </trkpt>
      <trkpt lat="39.895928" lon="116.636752">
        <time>2021-10-23T12:30:50Z</time>
      </trkpt>
      <trkpt lat="39.896011" lon="116.636857">
        <time>2021-10-23T12:30:55Z</time>
      </trkpt>
      <trkpt lat="39.896058" lon="116.636995">
        <time>2021-10-23T12:31:00Z</time>
      </trkpt>
      <trkpt lat="39.89607" lon="116.63714">
        <time>2021-10-23T12:31:05Z</time>
      </trkpt>
      <trkpt lat="39.89603" lon="116.637203">
        <time>2021-10-23T12:31:10Z</time>
      </trkpt>
      <trkpt lat="39.896015" lon="116.637201">
        <time>2021-10-23T12:31:15Z</time>
      </trkpt>
      <trkpt lat="39.895987" lon="116.637204">
        <time>2021-10-23T12:31:20Z</time>
      </trkpt>
      <trkpt lat="39.895998" lon="116.637206">
        <time>2021-10-23T12:31:25Z</time>
      </trkpt>
      <trkpt lat="39.896003" lon="116.637222">
        <time>2021-10-23T12:31:30Z</time>
      </trkpt>
      <trkpt lat="39.895994" lon="116.637215">
        <time>2021-10-23T12:31:35Z</time>
      </trkpt>
      <trkpt lat="39.895981" lon="116.637251">
        <time>2021-10-23T12:31:40Z</time>
      </trkpt>
      <trkpt lat="39.895959" lon="116.637279">
        <time>2021-10-23T12:31:45Z</time>
      </trkpt>
      <trkpt lat="39.895951" lon="116.637284">
        <time>2021-10-23T12:31:50Z</time>
      </trkpt>
      <trkpt lat="39.895929" lon="116.637283">
        <time>2021-10-23T12:31:55Z</time>
      </trkpt>
      <trkpt lat="39.895948" lon="116.637296">
        <time>2021-10-23T12:32:00Z</time>
      </trkpt>
      <trkpt lat="39.895979" lon="116.637321">
        <time>2021-10-23T12:32:05Z</time>
      </trkpt>
      <trkpt lat="39.895989" lon="116.637351">
        <time>2021-10-23T12:32:10Z</time>
      </trkpt>
      <trkpt lat="39.896019" lon="116.637371">
        <time>2021-10-23T12:32:15Z</time>
      </trkpt>
      <trkpt lat="39.896075" lon="116.637363">
        <time>2021-10-23T12:32:20Z</time>
      </trkpt>
      <trkpt lat="39.896148" lon="116.63744">
        <time>2021-10-23T12:32:25Z</time>
      </trkpt>
      <trkpt lat="39.89614" lon="116.637571">
        <time>2021-10-23T12:32:30Z</time>
      </trkpt>
      <trkpt lat="39.896138" lon="116.637712">
        <time>2021-10-23T12:32:35Z</time>
      </trkpt>
      <trkpt lat="39.896125" lon="116.637882">
        <time>2021-10-23T12:32:40Z</time>
      </trkpt>
      <trkpt lat="39.896119" lon="116.638026">
        <time>2021-10-23T12:32:45Z</time>
      </trkpt>
      <trkpt lat="39.896137" lon="116.638202">
        <time>2021-10-23T12:32:50Z</time>
      </trkpt>
      <trkpt lat="39.896132" lon="116.638335">
        <time>2021-10-23T12:32:55Z</time>
      </trkpt>
      <trkpt lat="39.896139" lon="116.638508">
        <time>2021-10-23T12:33:00Z</time>
      </trkpt>
      <trkpt lat="39.896149" lon="116.638638">
        <time>2021-10-23T12:33:05Z</time>
      </trkpt>
      <trkpt lat="39.896149" lon="116.638787">
        <time>2021-10-23T12:33:10Z</time>
      </trkpt>
      <trkpt lat="39.896167" lon="116.638944">
        <time>2021-10-23T12:33:15Z</time>
      </trkpt>
      <trkpt lat="39.896162" lon="116.639065">
        <time>2021-10-23T12:33:20Z</time>
      </trkpt>
      <trkpt lat="39.896186" lon="116.639227">
        <time>2021-10-23T12:33:25Z</time>
      </trkpt>
      <trkpt lat="39.896192" lon="116.639329">
        <time>2021-10-23T12:33:30Z</time>
      </trkpt>
      <trkpt lat="39.896196" lon="116.639461">
        <time>2021-10-23T12:33:35Z</time>
      </trkpt>
      <trkpt lat="39.896188" lon="116.6396">
        <time>2021-10-23T12:33:40Z</time>
      </trkpt>
      <trkpt lat="39.896183" lon="116.639781">
        <time>2021-10-23T12:33:45Z</time>
      </trkpt>
      <trkpt lat="39.896179" lon="116.639885">
        <time>2021-10-23T12:33:50Z</time>
      </trkpt>
      <trkpt lat="39.896207" lon="116.640037">
        <time>2021-10-23T12:33:55Z</time>
      </trkpt>
      <trkpt lat="39.896213" lon="116.640193">
        <time>2021-10-23T12:34:00Z</time>
      </trkpt>
      <trkpt lat="39.896213" lon="116.640355">
        <time>2021-10-23T12:34:05Z</time>
      </trkpt>
      <trkpt lat="39.896177" lon="116.640518">
        <time>2021-10-23T12:34:10Z</time>
      </trkpt>
      <trkpt lat="39.896182" lon="116.640673">
        <time>2021-10-23T12:34:15Z</time>
      </trkpt>
      <trkpt lat="39.896183" lon="116.640814">
        <time>2021-10-23T12:34:20Z</time>
      </trkpt>
      <trkpt lat="39.896194" lon="116.640953">
        <time>2021-10-23T12:34:25Z</time>
      </trkpt>
      <trkpt lat="39.896189" lon="116.641096">
        <time>2021-10-23T12:34:30Z</time>
      </trkpt>
      <trkpt lat="39.896182" lon="116.641251">
        <time>2021-10-23T12:34:35Z</time>
      </trkpt>
      <trkpt lat="39.896185" lon="116.641394">
        <time>2021-10-23T12:34:40Z</time>
      </trkpt>
      <trkpt lat="39.89617" lon="116.641533">
        <time>2021-10-23T12:34:45Z</time>
      </trkpt>
      <trkpt lat="39.896176" lon="116.6417">
        <time>2021-10-23T12:34:50Z</time>
      </trkpt>
      <trkpt lat="39.896169" lon="116.641838">
        <time>2021-10-23T12:34:55Z</time>
      </trkpt>
      <trkpt lat="39.896153" lon="116.642006">
        <time>2021-10-23T12:35:00Z</time>
      </trkpt>
      <trkpt lat="39.896154" lon="116.642253">
        <time>2021-10-23T12:35:05Z</time>
      </trkpt>
      <trkpt lat="39.896155" lon="116.642277">
        <time>2021-10-23T12:35:10Z</time>
      </trkpt>
      <trkpt lat="39.896166" lon="116.642423">
        <time>2021-10-23T12:35:15Z</time>
      </trkpt>
      <trkpt lat="39.896163" lon="116.642575">
        <time>2021-10-23T12:35:20Z</time>
      </trkpt>
      <trkpt lat="39.896162" lon="116.64272">
        <time>2021-10-23T12:35:25Z</time>
      </trkpt>
      <trkpt lat="39.896166" lon="116.642819">
        <time>2021-10-23T12:35:30Z</time>
      </trkpt>
      <trkpt lat="39.896167" lon="116.642951">
        <time>2021-10-23T12:35:35Z</time>
      </trkpt>
      <trkpt lat="39.896151" lon="116.643106">
        <time>2021-10-23T12:35:40Z</time>
      </trkpt>
      <trkpt lat="39.896137" lon="116.643237">
        <time>2021-10-23T12:35:45Z</time>
      </trkpt>
      <trkpt lat="39.896137" lon="116.643495">
        <time>2021-10-23T12:35:50Z</time>
      </trkpt>
      <trkpt lat="39.896143" lon="116.643523">
        <time>2021-10-23T12:35:55Z</time>
      </trkpt>
      <trkpt lat="39.896162" lon="116.643693">
        <time>2021-10-23T12:36:00Z</time>
      </trkpt>
      <trkpt lat="39.896163" lon="116.643865">
        <time>2021-10-23T12:36:05Z</time>
      </trkpt>
      <trkpt lat="39.896166" lon="116.643984">
        <time>2021-10-23T12:36:10Z</time>
      </trkpt>
      <trkpt lat="39.896158" lon="116.644114">
        <time>2021-10-23T12:36:15Z</time>
      </trkpt>
      <trkpt lat="39.896156" lon="116.644259">
        <time>2021-10-23T12:36:20Z</time>
      </trkpt>
      <trkpt lat="39.896163" lon="116.644375">
        <time>2021-10-23T12:36:25Z</time>
      </trkpt>
      <trkpt lat="39.896172" lon="116.644553">
        <time>2021-10-23T12:36:30Z</time>
      </trkpt>
      <trkpt lat="39.896181" lon="116.644658">
        <time>2021-10-23T12:36:35Z</time>
      </trkpt>
      <trkpt lat="39.896186" lon="116.644816">
        <time>2021-10-23T12:36:40Z</time>
      </trkpt>
      <trkpt lat="39.89617" lon="116.644954">
        <time>2021-10-23T12:36:45Z</time>
      </trkpt>
      <trkpt lat="39.896156" lon="116.64511">
        <time>2021-10-23T12:36:50Z</time>
      </trkpt>
      <trkpt lat="39.896157" lon="116.645283">
        <time>2021-10-23T12:36:55Z</time>
      </trkpt>
      <trkpt lat="39.896159" lon="116.645358">
        <time>2021-10-23T12:37:00Z</time>
      </trkpt>
      <trkpt lat="39.896135" lon="116.645467">
        <time>2021-10-23T12:37:05Z</time>
      </trkpt>
      <trkpt lat="39.896088" lon="116.645596">
        <time>2021-10-23T12:37:10Z</time>
      </trkpt>
      <trkpt lat="39.896046" lon="116.645744">
        <time>2021-10-23T12:37:15Z</time>
      </trkpt>
      <trkpt lat="39.896019" lon="116.645917">
        <time>2021-10-23T12:37:20Z</time>
      </trkpt>
      <trkpt lat="39.895994" lon="116.646104">
        <time>2021-10-23T12:37:25Z</time>
      </trkpt>
      <trkpt lat="39.89598" lon="116.646266">
        <time>2021-10-23T12:37:30Z</time>
      </trkpt>
      <trkpt lat="39.895978" lon="116.646409">
        <time>2021-10-23T12:37:35Z</time>
      </trkpt>
      <trkpt lat="39.895986" lon="116.646546">
        <time>2021-10-23T12:37:40Z</time>
      </trkpt>
      <trkpt lat="39.895978" lon="116.646707">
        <time>2021-10-23T12:37:45Z</time>
      </trkpt>
      <trkpt lat="39.895924" lon="116.646834">
        <time>2021-10-23T12:37:50Z</time>
      </trkpt>
      <trkpt lat="39.895684" lon="116.646785">
        <time>2021-10-23T12:37:55Z</time>
      </trkpt>
      <trkpt lat="39.895665" lon="116.64677">
        <time>2021-10-23T12:38:00Z</time>
      </trkpt>
      <trkpt lat="39.895563" lon="116.646688">
        <time>2021-10-23T12:38:05Z</time>
      </trkpt>
      <trkpt lat="39.895466" lon="116.646635">
        <time>2021-10-23T12:38:10Z</time>
      </trkpt>
      <trkpt lat="39.89538" lon="116.64657">
        <time>2021-10-23T12:38:15Z</time>
      </trkpt>
      <trkpt lat="39.895277" lon="116.646529">
        <time>2021-10-23T12:38:20Z</time>
      </trkpt>
      <trkpt lat="39.895172" lon="116.646475">
        <time>2021-10-23T12:38:25Z</time>
      </trkpt>
      <trkpt lat="39.895069" lon="116.646409">
        <time>2021-10-23T12:38:30Z</time>
      </trkpt>
      <trkpt lat="39.894945" lon="116.646332">
        <time>2021-10-23T12:38:35Z</time>
      </trkpt>
      <trkpt lat="39.894893" lon="116.646289">
        <time>2021-10-23T12:38:40Z</time>
      </trkpt>
      <trkpt lat="39.894799" lon="116.646249">
        <time>2021-10-23T12:38:45Z</time>
      </trkpt>
      <trkpt lat="39.894679" lon="116.646218">
        <time>2021-10-23T12:38:50Z</time>
      </trkpt>
      <trkpt lat="39.894578" lon="116.646176">
        <time>2021-10-23T12:38:55Z</time>
      </trkpt>
      <trkpt lat="39.894476" lon="116.64612">
        <time>2021-10-23T12:39:00Z</time>
      </trkpt>
      <trkpt lat="39.894391" lon="116.646059">
        <time>2021-10-23T12:39:05Z</time>
      </trkpt>
      <trkpt lat="39.894292" lon="116.645992">
        <time>2021-10-23T12:39:10Z</time>
      </trkpt>
      <trkpt lat="39.894209" lon="116.645939">
        <time>2021-10-23T12:39:15Z</time>
      </trkpt>
      <trkpt lat="39.894117" lon="116.645874">
        <time>2021-10-23T12:39:20Z</time>
      </trkpt>
      <trkpt lat="39.894002" lon="116.64585">
        <time>2021-10-23T12:39:25Z</time>
      </trkpt>
      <trkpt lat="39.893923" lon="116.645849">
        <time>2021-10-23T12:39:30Z</time>
      </trkpt>
      <trkpt lat="39.893849" lon="116.645978">
        <time>2021-10-23T12:39:35Z</time>
      </trkpt>
      <trkpt lat="39.893783" lon="116.646099">
        <time>2021-10-23T12:39:40Z</time>
      </trkpt>
      <trkpt lat="39.893702" lon="116.646207">
        <time>2021-10-23T12:39:45Z</time>
      </trkpt>
      <trkpt lat="39.893608" lon="116.646326">
        <time>2021-10-23T12:39:50Z</time>
      </trkpt>
      <trkpt lat="39.89351" lon="116.646317">
        <time>2021-10-23T12:39:55Z</time>
      </trkpt>
      <trkpt lat="39.893404" lon="116.646284">
        <time>2021-10-23T12:40:00Z</time>
      </trkpt>
      <trkpt lat="39.893319" lon="116.646207">
        <time>2021-10-23T12:40:05Z</time>
      </trkpt>
      <trkpt lat="39.893202" lon="116.646156">
        <time>2021-10-23T12:40:10Z</time>
      </trkpt>
      <trkpt lat="39.893109" lon="116.646101">
        <time>2021-10-23T12:40:15Z</time>
      </trkpt>
      <trkpt lat="39.892987" lon="116.64605">
        <time>2021-10-23T12:40:20Z</time>
      </trkpt>
      <trkpt lat="39.892886" lon="116.645973">
        <time>2021-10-23T12:40:25Z</time>
      </trkpt>
      <trkpt lat="39.892781" lon="116.645917">
        <time>2021-10-23T12:40:30Z</time>
      </trkpt>
      <trkpt lat="39.89267" lon="116.645861">
        <time>2021-10-23T12:40:35Z</time>
      </trkpt>
      <trkpt lat="39.892538" lon="116.645799">
        <time>2021-10-23T12:40:40Z</time>
      </trkpt>
      <trkpt lat="39.892432" lon="116.645736">
        <time>2021-10-23T12:40:45Z</time>
      </trkpt>
      <trkpt lat="39.89234" lon="116.645678">
        <time>2021-10-23T12:40:50Z</time>
      </trkpt>
      <trkpt lat="39.892222" lon="116.64563">
        <time>2021-10-23T12:40:55Z</time>
      </trkpt>
      <trkpt lat="39.892104" lon="116.645552">
        <time>2021-10-23T12:41:00Z</time>
      </trkpt>
      <trkpt lat="39.892007" lon="116.645522">
        <time>2021-10-23T12:41:05Z</time>
      </trkpt>
      <trkpt lat="39.891951" lon="116.645479">
        <time>2021-10-23T12:41:10Z</time>
      </trkpt>
      <trkpt lat="39.891876" lon="116.645434">
        <time>2021-10-23T12:41:15Z</time>
      </trkpt>
      <trkpt lat="39.891766" lon="116.645394">
        <time>2021-10-23T12:41:20Z</time>
      </trkpt>
      <trkpt lat="39.891658" lon="116.645349">
        <time>2021-10-23T12:41:25Z</time>
      </trkpt>
      <trkpt lat="39.891526" lon="116.645278">
        <time>2021-10-23T12:41:30Z</time>
      </trkpt>
      <trkpt lat="39.891495" lon="116.64535">
        <time>2021-10-23T12:41:35Z</time>
      </trkpt>
      <trkpt lat="39.891587" lon="116.645417">
        <time>2021-10-23T12:41:40Z</time>
      </trkpt>
      <trkpt lat="39.891725" lon="116.645455">
        <time>2021-10-23T12:41:45Z</time>
      </trkpt>
      <trkpt lat="39.891851" lon="116.645519">
        <time>2021-10-23T12:41:50Z</time>
      </trkpt>
      <trkpt lat="39.891956" lon="116.645552">
        <time>2021-10-23T12:41:55Z</time>
      </trkpt>
      <trkpt lat="39.892059" lon="116.645601">
        <time>2021-10-23T12:42:00Z</time>
      </trkpt>
      <trkpt lat="39.892182" lon="116.645651">
        <time>2021-10-23T12:42:05Z</time>
      </trkpt>
      <trkpt lat="39.89231" lon="116.645717">
        <time>2021-10-23T12:42:10Z</time>
      </trkpt>
      <trkpt lat="39.892416" lon="116.645773">
        <time>2021-10-23T12:42:15Z</time>
      </trkpt>
      <trkpt lat="39.892509" lon="116.645826">
        <time>2021-10-23T12:42:20Z</time>
      </trkpt>
      <trkpt lat="39.892642" lon="116.645876">
        <time>2021-10-23T12:42:25Z</time>
      </trkpt>
      <trkpt lat="39.892761" lon="116.645932">
        <time>2021-10-23T12:42:30Z</time>
      </trkpt>
      <trkpt lat="39.892912" lon="116.645976">
        <time>2021-10-23T12:42:35Z</time>
      </trkpt>
      <trkpt lat="39.893038" lon="116.646022">
        <time>2021-10-23T12:42:40Z</time>
      </trkpt>
      <trkpt lat="39.893167" lon="116.646073">
        <time>2021-10-23T12:42:45Z</time>
      </trkpt>
      <trkpt lat="39.893264" lon="116.646137">
        <time>2021-10-23T12:42:50Z</time>
      </trkpt>
      <trkpt lat="39.893375" lon="116.646213">
        <time>2021-10-23T12:42:55Z</time>
      </trkpt>
      <trkpt lat="39.893474" lon="116.646252">
        <time>2021-10-23T12:43:00Z</time>
      </trkpt>
      <trkpt lat="39.893527" lon="116.646279">
        <time>2021-10-23T12:43:05Z</time>
      </trkpt>
      <trkpt lat="39.893599" lon="116.646337">
        <time>2021-10-23T12:43:10Z</time>
      </trkpt>
      <trkpt lat="39.89366" lon="116.646347">
        <time>2021-10-23T12:43:15Z</time>
      </trkpt>
      <trkpt lat="39.893774" lon="116.646246">
        <time>2021-10-23T12:43:20Z</time>
      </trkpt>
      <trkpt lat="39.893864" lon="116.646165">
        <time>2021-10-23T12:43:25Z</time>
      </trkpt>
      <trkpt lat="39.893948" lon="116.646041">
        <time>2021-10-23T12:43:30Z</time>
      </trkpt>
      <trkpt lat="39.894028" lon="116.645953">
        <time>2021-10-23T12:43:35Z</time>
      </trkpt>
      <trkpt lat="39.894152" lon="116.645944">
        <time>2021-10-23T12:43:40Z</time>
      </trkpt>
      <trkpt lat="39.894292" lon="116.646007">
        <time>2021-10-23T12:43:45Z</time>
      </trkpt>
      <trkpt lat="39.894322" lon="116.646021">
        <time>2021-10-23T12:43:50Z</time>
      </trkpt>
      <trkpt lat="39.894423" lon="116.646069">
        <time>2021-10-23T12:43:55Z</time>
      </trkpt>
      <trkpt lat="39.89454" lon="116.646131">
        <time>2021-10-23T12:44:00Z</time>
      </trkpt>
      <trkpt lat="39.894621" lon="116.646215">
        <time>2021-10-23T12:44:05Z</time>
      </trkpt>
      <trkpt lat="39.894708" lon="116.646299">
        <time>2021-10-23T12:44:10Z</time>
      </trkpt>
      <trkpt lat="39.89484" lon="116.646339">
        <time>2021-10-23T12:44:15Z</time>
      </trkpt>
      <trkpt lat="39.894931" lon="116.646342">
        <time>2021-10-23T12:44:20Z</time>
      </trkpt>
      <trkpt lat="39.895015" lon="116.646376">
        <time>2021-10-23T12:44:25Z</time>
      </trkpt>
      <trkpt lat="39.895126" lon="116.646417">
        <time>2021-10-23T12:44:30Z</time>
      </trkpt>
      <trkpt lat="39.895227" lon="116.646486">
        <time>2021-10-23T12:44:35Z</time>
      </trkpt>
      <trkpt lat="39.895333" lon="116.646536">
        <time>2021-10-23T12:44:40Z</time>
      </trkpt>
      <trkpt lat="39.895453" lon="116.646593">
        <time>2021-10-23T12:44:45Z</time>
      </trkpt>
      <trkpt lat="39.895544" lon="116.646647">
        <time>2021-10-23T12:44:50Z</time>
      </trkpt>
      <trkpt lat="39.895657" lon="116.646697">
        <time>2021-10-23T12:44:55Z</time>
      </trkpt>
      <trkpt lat="39.895771" lon="116.646754">
        <time>2021-10-23T12:45:00Z</time>
      </trkpt>
      <trkpt lat="39.895882" lon="116.646801">
        <time>2021-10-23T12:45:05Z</time>
      </trkpt>
      <trkpt lat="39.895995" lon="116.646823">
        <time>2021-10-23T12:45:10Z</time>
      </trkpt>
      <trkpt lat="39.896096" lon="116.64677">
        <time>2021-10-23T12:45:15Z</time>
      </trkpt>
      <trkpt lat="39.896104" lon="116.646622">
        <time>2021-10-23T12:45:20Z</time>
      </trkpt>
      <trkpt lat="39.896095" lon="116.646465">
        <time>2021-10-23T12:45:25Z</time>
      </trkpt>
      <trkpt lat="39.896067" lon="116.646345">
        <time>2021-10-23T12:45:30Z</time>
      </trkpt>
      <trkpt lat="39.896068" lon="116.646216">
        <time>2021-10-23T12:45:35Z</time>
      </trkpt>
      <trkpt lat="39.896068" lon="116.646057">
        <time>2021-10-23T12:45:40Z</time>
      </trkpt>
      <trkpt lat="39.896099" lon="116.6459">
        <time>2021-10-23T12:45:45Z</time>
      </trkpt>
      <trkpt lat="39.896108" lon="116.645785">
        <time>2021-10-23T12:45:50Z</time>
      </trkpt>
      <trkpt lat="39.896136" lon="116.645627">
        <time>2021-10-23T12:45:55Z</time>
      </trkpt>
      <trkpt lat="39.896169" lon="116.645501">
        <time>2021-10-23T12:46:00Z</time>
      </trkpt>
      <trkpt lat="39.896172" lon="116.645352">
        <time>2021-10-23T12:46:05Z</time>
      </trkpt>
      <trkpt lat="39.896181" lon="116.645214">
        <time>2021-10-23T12:46:10Z</time>
      </trkpt>
      <trkpt lat="39.896187" lon="116.645068">
        <time>2021-10-23T12:46:15Z</time>
      </trkpt>
      <trkpt lat="39.896188" lon="116.645008">
        <time>2021-10-23T12:46:20Z</time>
      </trkpt>
      <trkpt lat="39.896203" lon="116.644902">
        <time>2021-10-23T12:46:25Z</time>
      </trkpt>
      <trkpt lat="39.896222" lon="116.644768">
        <time>2021-10-23T12:46:30Z</time>
      </trkpt>
      <trkpt lat="39.896227" lon="116.644635">
        <time>2021-10-23T12:46:35Z</time>
      </trkpt>
      <trkpt lat="39.896208" lon="116.644482">
        <time>2021-10-23T12:46:40Z</time>
      </trkpt>
      <trkpt lat="39.896202" lon="116.644357">
        <time>2021-10-23T12:46:45Z</time>
      </trkpt>
      <trkpt lat="39.896203" lon="116.644172">
        <time>2021-10-23T12:46:50Z</time>
      </trkpt>
      <trkpt lat="39.896211" lon="116.644079">
        <time>2021-10-23T12:46:55Z</time>
      </trkpt>
      <trkpt lat="39.896214" lon="116.643947">
        <time>2021-10-23T12:47:00Z</time>
      </trkpt>
      <trkpt lat="39.896207" lon="116.643822">
        <time>2021-10-23T12:47:05Z</time>
      </trkpt>
      <trkpt lat="39.896215" lon="116.643673">
        <time>2021-10-23T12:47:10Z</time>
      </trkpt>
      <trkpt lat="39.89622" lon="116.643517">
        <time>2021-10-23T12:47:15Z</time>
      </trkpt>
      <trkpt lat="39.896215" lon="116.643375">
        <time>2021-10-23T12:47:20Z</time>
      </trkpt>
      <trkpt lat="39.896207" lon="116.64321">
        <time>2021-10-23T12:47:25Z</time>
      </trkpt>
      <trkpt lat="39.896209" lon="116.643163">
        <time>2021-10-23T12:47:30Z</time>
      </trkpt>
      <trkpt lat="39.89622" lon="116.643082">
        <time>2021-10-23T12:47:35Z</time>
      </trkpt>
      <trkpt lat="39.896225" lon="116.642982">
        <time>2021-10-23T12:47:40Z</time>
      </trkpt>
      <trkpt lat="39.896234" lon="116.642858">
        <time>2021-10-23T12:47:45Z</time>
      </trkpt>
      <trkpt lat="39.896254" lon="116.642705">
        <time>2021-10-23T12:47:50Z</time>
      </trkpt>
      <trkpt lat="39.896259" lon="116.642554">
        <time>2021-10-23T12:47:55Z</time>
      </trkpt>
      <trkpt lat="39.896245" lon="116.642415">
        <time>2021-10-23T12:48:00Z</time>
      </trkpt>
      <trkpt lat="39.896242" lon="116.642287">
        <time>2021-10-23T12:48:05Z</time>
      </trkpt>
      <trkpt lat="39.896232" lon="116.642141">
        <time>2021-10-23T12:48:10Z</time>
      </trkpt>
      <trkpt lat="39.896234" lon="116.642032">
        <time>2021-10-23T12:48:15Z</time>
      </trkpt>
      <trkpt lat="39.896251" lon="116.641841">
        <time>2021-10-23T12:48:20Z</time>
      </trkpt>
      <trkpt lat="39.896258" lon="116.641773">
        <time>2021-10-23T12:48:25Z</time>
      </trkpt>
      <trkpt lat="39.896258" lon="116.64162">
        <time>2021-10-23T12:48:30Z</time>
      </trkpt>
      <trkpt lat="39.896248" lon="116.641481">
        <time>2021-10-23T12:48:35Z</time>
      </trkpt>
      <trkpt lat="39.896251" lon="116.641345">
        <time>2021-10-23T12:48:40Z</time>
      </trkpt>
      <trkpt lat="39.896248" lon="116.641268">
        <time>2021-10-23T12:48:45Z</time>
      </trkpt>
      <trkpt lat="39.896243" lon="116.641158">
        <time>2021-10-23T12:48:50Z</time>
      </trkpt>
      <trkpt lat="39.896256" lon="116.641032">
        <time>2021-10-23T12:48:55Z</time>
      </trkpt>
      <trkpt lat="39.896252" lon="116.640909">
        <time>2021-10-23T12:49:00Z</time>
      </trkpt>
      <trkpt lat="39.896252" lon="116.640772">
        <time>2021-10-23T12:49:05Z</time>
      </trkpt>
      <trkpt lat="39.896266" lon="116.640638">
        <time>2021-10-23T12:49:10Z</time>
      </trkpt>
      <trkpt lat="39.896286" lon="116.640499">
        <time>2021-10-23T12:49:15Z</time>
      </trkpt>
      <trkpt lat="39.896374" lon="116.64029">
        <time>2021-10-23T12:49:20Z</time>
      </trkpt>
      <trkpt lat="39.896429" lon="116.64028">
        <time>2021-10-23T12:49:25Z</time>
      </trkpt>
      <trkpt lat="39.896602" lon="116.640374">
        <time>2021-10-23T12:49:30Z</time>
      </trkpt>
      <trkpt lat="39.896732" lon="116.640467">
        <time>2021-10-23T12:49:35Z</time>
      </trkpt>
      <trkpt lat="39.896884" lon="116.640578">
        <time>2021-10-23T12:49:40Z</time>
      </trkpt>
      <trkpt lat="39.896991" lon="116.640646">
        <time>2021-10-23T12:49:45Z</time>
      </trkpt>
      <trkpt lat="39.897134" lon="116.640759">
        <time>2021-10-23T12:49:50Z</time>
      </trkpt>
      <trkpt lat="39.897175" lon="116.6408">
        <time>2021-10-23T12:49:55Z</time>
      </trkpt>
      <trkpt lat="39.897303" lon="116.640796">
        <time>2021-10-23T12:50:00Z</time>
      </trkpt>
      <trkpt lat="39.89736" lon="116.640806">
        <time>2021-10-23T12:50:05Z</time>
      </trkpt>
      <trkpt lat="39.897402" lon="116.640866">
        <time>2021-10-23T12:50:10Z</time>
      </trkpt>
      <trkpt lat="39.897465" lon="116.640922">
        <time>2021-10-23T12:50:15Z</time>
      </trkpt>
      <trkpt lat="39.897551" lon="116.641">
        <time>2021-10-23T12:50:20Z</time>
      </trkpt>
      <trkpt lat="39.897643" lon="116.641034">
        <time>2021-10-23T12:50:25Z</time>
      </trkpt>
      <trkpt lat="39.897729" lon="116.641092">
        <time>2021-10-23T12:50:30Z</time>
      </trkpt>
      <trkpt lat="39.897817" lon="116.641115">
        <time>2021-10-23T12:50:35Z</time>
      </trkpt>
      <trkpt lat="39.897925" lon="116.641163">
        <time>2021-10-23T12:50:40Z</time>
      </trkpt>
      <trkpt lat="39.898072" lon="116.641198">
        <time>2021-10-23T12:50:45Z</time>
      </trkpt>
      <trkpt lat="39.898191" lon="116.641273">
        <time>2021-10-23T12:50:50Z</time>
      </trkpt>
      <trkpt lat="39.898278" lon="116.641318">
        <time>2021-10-23T12:50:55Z</time>
      </trkpt>
      <trkpt lat="39.8983" lon="116.641343">
        <time>2021-10-23T12:51:00Z</time>
      </trkpt>
      <trkpt lat="39.898348" lon="116.641365">
        <time>2021-10-23T12:51:05Z</time>
      </trkpt>
      <trkpt lat="39.898367" lon="116.641472">
        <time>2021-10-23T12:51:10Z</time>
      </trkpt>
      <trkpt lat="39.898335" lon="116.641597">
        <time>2021-10-23T12:51:15Z</time>
      </trkpt>
      <trkpt lat="39.8983" lon="116.64174">
        <time>2021-10-23T12:51:20Z</time>
      </trkpt>
      <trkpt lat="39.898292" lon="116.641885">
        <time>2021-10-23T12:51:25Z</time>
      </trkpt>
      <trkpt lat="39.898264" lon="116.642055">
        <time>2021-10-23T12:51:30Z</time>
      </trkpt>
      <trkpt lat="39.898242" lon="116.642249">
        <time>2021-10-23T12:51:35Z</time>
      </trkpt>
      <trkpt lat="39.898243" lon="116.642376">
        <time>2021-10-23T12:51:40Z</time>
      </trkpt>
      <trkpt lat="39.89825" lon="116.642481">
        <time>2021-10-23T12:51:45Z</time>
      </trkpt>
      <trkpt lat="39.898236" lon="116.64258">
        <time>2021-10-23T12:51:50Z</time>
      </trkpt>
      <trkpt lat="39.898232" lon="116.642682">
        <time>2021-10-23T12:51:55Z</time>
      </trkpt>
      <trkpt lat="39.898242" lon="116.642823">
        <time>2021-10-23T12:52:00Z</time>
      </trkpt>
      <trkpt lat="39.898231" lon="116.642961">
        <time>2021-10-23T12:52:05Z</time>
      </trkpt>
      <trkpt lat="39.898225" lon="116.643091">
        <time>2021-10-23T12:52:10Z</time>
      </trkpt>
      <trkpt lat="39.898232" lon="116.643266">
        <time>2021-10-23T12:52:15Z</time>
      </trkpt>
      <trkpt lat="39.898244" lon="116.643412">
        <time>2021-10-23T12:52:20Z</time>
      </trkpt>
      <trkpt lat="39.898258" lon="116.643565">
        <time>2021-10-23T12:52:25Z</time>
      </trkpt>
      <trkpt lat="39.898269" lon="116.643732">
        <time>2021-10-23T12:52:30Z</time>
      </trkpt>
      <trkpt lat="39.89827" lon="116.643865">
        <time>2021-10-23T12:52:35Z</time>
      </trkpt>
      <trkpt lat="39.898281" lon="116.644011">
        <time>2021-10-23T12:52:40Z</time>
      </trkpt>
      <trkpt lat="39.898292" lon="116.64415">
        <time>2021-10-23T12:52:45Z</time>
      </trkpt>
      <trkpt lat="39.898273" lon="116.644269">
        <time>2021-10-23T12:52:50Z</time>
      </trkpt>
      <trkpt lat="39.898308" lon="116.644431">
        <time>2021-10-23T12:52:55Z</time>
      </trkpt>
      <trkpt lat="39.898347" lon="116.644571">
        <time>2021-10-23T12:53:00Z</time>
      </trkpt>
      <trkpt lat="39.898392" lon="116.644718">
        <time>2021-10-23T12:53:05Z</time>
      </trkpt>
      <trkpt lat="39.898408" lon="116.644872">
        <time>2021-10-23T12:53:10Z</time>
      </trkpt>
      <trkpt lat="39.898382" lon="116.64505">
        <time>2021-10-23T12:53:15Z</time>
      </trkpt>
      <trkpt lat="39.898402" lon="116.645151">
        <time>2021-10-23T12:53:20Z</time>
      </trkpt>
      <trkpt lat="39.898416" lon="116.645259">
        <time>2021-10-23T12:53:25Z</time>
      </trkpt>
      <trkpt lat="39.898454" lon="116.645414">
        <time>2021-10-23T12:53:30Z</time>
      </trkpt>
      <trkpt lat="39.898499" lon="116.645561">
        <time>2021-10-23T12:53:35Z</time>
      </trkpt>
      <trkpt lat="39.898524" lon="116.645711">
        <time>2021-10-23T12:53:40Z</time>
      </trkpt>
      <trkpt lat="39.898587" lon="116.645866">
        <time>2021-10-23T12:53:45Z</time>
      </trkpt>
      <trkpt lat="39.898643" lon="116.646009">
        <time>2021-10-23T12:53:50Z</time>
      </trkpt>
      <trkpt lat="39.898674" lon="116.646146">
        <time>2021-10-23T12:53:55Z</time>
      </trkpt>
      <trkpt lat="39.898678" lon="116.646214">
        <time>2021-10-23T12:54:00Z</time>
      </trkpt>
      <trkpt lat="39.898687" lon="116.64629">
        <time>2021-10-23T12:54:05Z</time>
      </trkpt>
      <trkpt lat="39.898708" lon="116.64634">
        <time>2021-10-23T12:54:10Z</time>
      </trkpt>
      <trkpt lat="39.898729" lon="116.646467">
        <time>2021-10-23T12:54:15Z</time>
      </trkpt>
      <trkpt lat="39.898739" lon="116.646542">
        <time>2021-10-23T12:54:20Z</time>
      </trkpt>
      <trkpt lat="39.898765" lon="116.646646">
        <time>2021-10-23T12:54:25Z</time>
      </trkpt>
      <trkpt lat="39.898814" lon="116.646813">
        <time>2021-10-23T12:54:30Z</time>
      </trkpt>
      <trkpt lat="39.898829" lon="116.646896">
        <time>2021-10-23T12:54:35Z</time>
      </trkpt>
      <trkpt lat="39.898824" lon="116.646997">
        <time>2021-10-23T12:54:40Z</time>
      </trkpt>
      <trkpt lat="39.898834" lon="116.647112">
        <time>2021-10-23T12:54:45Z</time>
      </trkpt>
      <trkpt lat="39.898858" lon="116.647265">
        <time>2021-10-23T12:54:50Z</time>
      </trkpt>
      <trkpt lat="39.898907" lon="116.647446">
        <time>2021-10-23T12:54:55Z</time>
      </trkpt>
      <trkpt lat="39.898951" lon="116.647635">
        <time>2021-10-23T12:55:00Z</time>
      </trkpt>
      <trkpt lat="39.89898" lon="116.647797">
        <time>2021-10-23T12:55:05Z</time>
      </trkpt>
      <trkpt lat="39.898989" lon="116.647942">
        <time>2021-10-23T12:55:10Z</time>
      </trkpt>
      <trkpt lat="39.898987" lon="116.648143">
        <time>2021-10-23T12:55:15Z</time>
      </trkpt>
      <trkpt lat="39.898995" lon="116.648232">
        <time>2021-10-23T12:55:20Z</time>
      </trkpt>
      <trkpt lat="39.899002" lon="116.648371">
        <time>2021-10-23T12:55:25Z</time>
      </trkpt>
      <trkpt lat="39.89899" lon="116.648528">
        <time>2021-10-23T12:55:30Z</time>
      </trkpt>
      <trkpt lat="39.899005" lon="116.648617">
        <time>2021-10-23T12:55:35Z</time>
      </trkpt>
      <trkpt lat="39.899012" lon="116.648758">
        <time>2021-10-23T12:55:40Z</time>
      </trkpt>
      <trkpt lat="39.899005" lon="116.648869">
        <time>2021-10-23T12:55:45Z</time>
      </trkpt>
      <trkpt lat="39.899029" lon="116.649006">
        <time>2021-10-23T12:55:50Z</time>
      </trkpt>
      <trkpt lat="39.89902" lon="116.649178">
        <time>2021-10-23T12:55:55Z</time>
      </trkpt>
      <trkpt lat="39.898984" lon="116.64934">
        <time>2021-10-23T12:56:00Z</time>
      </trkpt>
      <trkpt lat="39.898987" lon="116.649422">
        <time>2021-10-23T12:56:05Z</time>
      </trkpt>
      <trkpt lat="39.898979" lon="116.649545">
        <time>2021-10-23T12:56:10Z</time>
      </trkpt>
      <trkpt lat="39.898913" lon="116.64966">
        <time>2021-10-23T12:56:15Z</time>
      </trkpt>
      <trkpt lat="39.898917" lon="116.649819">
        <time>2021-10-23T12:56:20Z</time>
      </trkpt>
      <trkpt lat="39.89889" lon="116.649971">
        <time>2021-10-23T12:56:25Z</time>
      </trkpt>
      <trkpt lat="39.898891" lon="116.650138">
        <time>2021-10-23T12:56:30Z</time>
      </trkpt>
      <trkpt lat="39.898913" lon="116.650315">
        <time>2021-10-23T12:56:35Z</time>
      </trkpt>
      <trkpt lat="39.898938" lon="116.650435">
        <time>2021-10-23T12:56:40Z</time>
      </trkpt>
      <trkpt lat="39.89894" lon="116.650617">
        <time>2021-10-23T12:56:45Z</time>
      </trkpt>
      <trkpt lat="39.89897" lon="116.650761">
        <time>2021-10-23T12:56:50Z</time>
      </trkpt>
      <trkpt lat="39.899006" lon="116.650944">
        <time>2021-10-23T12:56:55Z</time>
      </trkpt>
      <trkpt lat="39.899017" lon="116.651092">
        <time>2021-10-23T12:57:00Z</time>
      </trkpt>
      <trkpt lat="39.899003" lon="116.65126">
        <time>2021-10-23T12:57:05Z</time>
      </trkpt>
      <trkpt lat="39.89895" lon="116.651381">
        <time>2021-10-23T12:57:10Z</time>
      </trkpt>
      <trkpt lat="39.898922" lon="116.651459">
        <time>2021-10-23T12:57:15Z</time>
      </trkpt>
      <trkpt lat="39.898957" lon="116.6515">
        <time>2021-10-23T12:57:20Z</time>
      </trkpt>
      <trkpt lat="39.899001" lon="116.651448">
        <time>2021-10-23T12:57:25Z</time>
      </trkpt>
      <trkpt lat="39.899004" lon="116.651262">
        <time>2021-10-23T12:57:30Z</time>
      </trkpt>
      <trkpt lat="39.898995" lon="116.651071">
        <time>2021-10-23T12:57:35Z</time>
      </trkpt>
      <trkpt lat="39.898998" lon="116.650886">
        <time>2021-10-23T12:57:40Z</time>
      </trkpt>
      <trkpt lat="39.899036" lon="116.650711">
        <time>2021-10-23T12:57:45Z</time>
      </trkpt>
      <trkpt lat="39.899046" lon="116.650541">
        <time>2021-10-23T12:57:50Z</time>
      </trkpt>
      <trkpt lat="39.899062" lon="116.650402">
        <time>2021-10-23T12:57:55Z</time>
      </trkpt>
      <trkpt lat="39.899073" lon="116.650268">
        <time>2021-10-23T12:58:00Z</time>
      </trkpt>
      <trkpt lat="39.899056" lon="116.650105">
        <time>2021-10-23T12:58:05Z</time>
      </trkpt>
      <trkpt lat="39.899051" lon="116.649965">
        <time>2021-10-23T12:58:10Z</time>
      </trkpt>
      <trkpt lat="39.899073" lon="116.649844">
        <time>2021-10-23T12:58:15Z</time>
      </trkpt>
      <trkpt lat="39.899071" lon="116.649733">
        <time>2021-10-23T12:58:20Z</time>
      </trkpt>
      <trkpt lat="39.899121" lon="116.649627">
        <time>2021-10-23T12:58:25Z</time>
      </trkpt>
      <trkpt lat="39.899087" lon="116.649594">
        <time>2021-10-23T12:58:30Z</time>
      </trkpt>
      <trkpt lat="39.89903" lon="116.649519">
        <time>2021-10-23T12:58:35Z</time>
      </trkpt>
      <trkpt lat="39.899041" lon="116.649462">
        <time>2021-10-23T12:58:40Z</time>
      </trkpt>
      <trkpt lat="39.899036" lon="116.649362">
        <time>2021-10-23T12:58:45Z</time>
      </trkpt>
      <trkpt lat="39.899024" lon="116.649194">
        <time>2021-10-23T12:58:50Z</time>
      </trkpt>
      <trkpt lat="39.899029" lon="116.649078">
        <time>2021-10-23T12:58:55Z</time>
      </trkpt>
      <trkpt lat="39.899033" lon="116.648941">
        <time>2021-10-23T12:59:00Z</time>
      </trkpt>
      <trkpt lat="39.899024" lon="116.648803">
        <time>2021-10-23T12:59:05Z</time>
      </trkpt>
      <trkpt lat="39.898987" lon="116.648672">
        <time>2021-10-23T12:59:10Z</time>
      </trkpt>
      <trkpt lat="39.898984" lon="116.648528">
        <time>2021-10-23T12:59:15Z</time>
      </trkpt>
      <trkpt lat="39.899027" lon="116.648408">
        <time>2021-10-23T12:59:20Z</time>
      </trkpt>
      <trkpt lat="39.899017" lon="116.648303">
        <time>2021-10-23T12:59:25Z</time>
      </trkpt>
      <trkpt lat="39.899039" lon="116.648135">
        <time>2021-10-23T12:59:30Z</time>
      </trkpt>
      <trkpt lat="39.899036" lon="116.647974">
        <time>2021-10-23T12:59:35Z</time>
      </trkpt>
      <trkpt lat="39.899026" lon="116.647808">
        <time>2021-10-23T12:59:40Z</time>
      </trkpt>
      <trkpt lat="39.899035" lon="116.64764">
        <time>2021-10-23T12:59:45Z</time>
      </trkpt>
      <trkpt lat="39.899034" lon="116.647496">
        <time>2021-10-23T12:59:50Z</time>
      </trkpt>
      <trkpt lat="39.899021" lon="116.647369">
        <time>2021-10-23T12:59:55Z</time>
      </trkpt>
      <trkpt lat="39.899018" lon="116.647278">
        <time>2021-10-23T13:00:00Z</time>
      </trkpt>
      <trkpt lat="39.899009" lon="116.647171">
        <time>2021-10-23T13:00:05Z</time>
      </trkpt>
      <trkpt lat="39.898996" lon="116.646965">
        <time>2021-10-23T13:00:10Z</time>
      </trkpt>
      <trkpt lat="39.89891" lon="116.646872">
        <time>2021-10-23T13:00:15Z</time>
      </trkpt>
      <trkpt lat="39.898829" lon="116.646619">
        <time>2021-10-23T13:00:20Z</time>
      </trkpt>
      <trkpt lat="39.898806" lon="116.646559">
        <time>2021-10-23T13:00:25Z</time>
      </trkpt>
      <trkpt lat="39.898785" lon="116.646476">
        <time>2021-10-23T13:00:30Z</time>
      </trkpt>
      <trkpt lat="39.898748" lon="116.646401">
        <time>2021-10-23T13:00:35Z</time>
      </trkpt>
      <trkpt lat="39.898706" lon="116.64631">
        <time>2021-10-23T13:00:40Z</time>
      </trkpt>
      <trkpt lat="39.89869" lon="116.646254">
        <time>2021-10-23T13:00:45Z</time>
      </trkpt>
      <trkpt lat="39.898686" lon="116.646133">
        <time>2021-10-23T13:00:50Z</time>
      </trkpt>
      <trkpt lat="39.898642" lon="116.646009">
        <time>2021-10-23T13:00:55Z</time>
      </trkpt>
      <trkpt lat="39.898589" lon="116.645878">
        <time>2021-10-23T13:01:00Z</time>
      </trkpt>
      <trkpt lat="39.898552" lon="116.645731">
        <time>2021-10-23T13:01:05Z</time>
      </trkpt>
      <trkpt lat="39.898526" lon="116.645593">
        <time>2021-10-23T13:01:10Z</time>
      </trkpt>
      <trkpt lat="39.898464" lon="116.645437">
        <time>2021-10-23T13:01:15Z</time>
      </trkpt>
      <trkpt lat="39.898464" lon="116.645326">
        <time>2021-10-23T13:01:20Z</time>
      </trkpt>
      <trkpt lat="39.898479" lon="116.645201">
        <time>2021-10-23T13:01:25Z</time>
      </trkpt>
      <trkpt lat="39.898452" lon="116.645072">
        <time>2021-10-23T13:01:30Z</time>
      </trkpt>
      <trkpt lat="39.89843" lon="116.644982">
        <time>2021-10-23T13:01:35Z</time>
      </trkpt>
      <trkpt lat="39.898424" lon="116.64492">
        <time>2021-10-23T13:01:40Z</time>
      </trkpt>
      <trkpt lat="39.898436" lon="116.644822">
        <time>2021-10-23T13:01:45Z</time>
      </trkpt>
      <trkpt lat="39.898423" lon="116.64472">
        <time>2021-10-23T13:01:50Z</time>
      </trkpt>
      <trkpt lat="39.8984" lon="116.644626">
        <time>2021-10-23T13:01:55Z</time>
      </trkpt>
      <trkpt lat="39.898372" lon="116.644511">
        <time>2021-10-23T13:02:00Z</time>
      </trkpt>
      <trkpt lat="39.898334" lon="116.644387">
        <time>2021-10-23T13:02:05Z</time>
      </trkpt>
      <trkpt lat="39.898315" lon="116.644232">
        <time>2021-10-23T13:02:10Z</time>
      </trkpt>
      <trkpt lat="39.898306" lon="116.644051">
        <time>2021-10-23T13:02:15Z</time>
      </trkpt>
      <trkpt lat="39.898281" lon="116.643826">
        <time>2021-10-23T13:02:20Z</time>
      </trkpt>
      <trkpt lat="39.898251" lon="116.643673">
        <time>2021-10-23T13:02:25Z</time>
      </trkpt>
      <trkpt lat="39.898262" lon="116.643601">
        <time>2021-10-23T13:02:30Z</time>
      </trkpt>
      <trkpt lat="39.898288" lon="116.643488">
        <time>2021-10-23T13:02:35Z</time>
      </trkpt>
      <trkpt lat="39.898291" lon="116.643303">
        <time>2021-10-23T13:02:40Z</time>
      </trkpt>
      <trkpt lat="39.898301" lon="116.643101">
        <time>2021-10-23T13:02:45Z</time>
      </trkpt>
      <trkpt lat="39.898306" lon="116.642892">
        <time>2021-10-23T13:02:50Z</time>
      </trkpt>
      <trkpt lat="39.898339" lon="116.642677">
        <time>2021-10-23T13:02:55Z</time>
      </trkpt>
      <trkpt lat="39.898327" lon="116.642515">
        <time>2021-10-23T13:03:00Z</time>
      </trkpt>
      <trkpt lat="39.898335" lon="116.642371">
        <time>2021-10-23T13:03:05Z</time>
      </trkpt>
      <trkpt lat="39.898344" lon="116.642277">
        <time>2021-10-23T13:03:10Z</time>
      </trkpt>
      <trkpt lat="39.89836" lon="116.642138">
        <time>2021-10-23T13:03:15Z</time>
      </trkpt>
      <trkpt lat="39.898381" lon="116.642067">
        <time>2021-10-23T13:03:20Z</time>
      </trkpt>
      <trkpt lat="39.898402" lon="116.641913">
        <time>2021-10-23T13:03:25Z</time>
      </trkpt>
      <trkpt lat="39.898419" lon="116.641766">
        <time>2021-10-23T13:03:30Z</time>
      </trkpt>
      <trkpt lat="39.898435" lon="116.641674">
        <time>2021-10-23T13:03:35Z</time>
      </trkpt>
      <trkpt lat="39.898434" lon="116.641478">
        <time>2021-10-23T13:03:40Z</time>
      </trkpt>
      <trkpt lat="39.898324" lon="116.641329">
        <time>2021-10-23T13:03:45Z</time>
      </trkpt>
      <trkpt lat="39.898195" lon="116.641252">
        <time>2021-10-23T13:03:50Z</time>
      </trkpt>
      <trkpt lat="39.898066" lon="116.6412">
        <time>2021-10-23T13:03:55Z</time>
      </trkpt>
      <trkpt lat="39.897929" lon="116.64116">
        <time>2021-10-23T13:04:00Z</time>
      </trkpt>
      <trkpt lat="39.897818" lon="116.64109">
        <time>2021-10-23T13:04:05Z</time>
      </trkpt>
      <trkpt lat="39.897731" lon="116.640991">
        <time>2021-10-23T13:04:10Z</time>
      </trkpt>
      <trkpt lat="39.897589" lon="116.640922">
        <time>2021-10-23T13:04:15Z</time>
      </trkpt>
      <trkpt lat="39.89745" lon="116.640842">
        <time>2021-10-23T13:04:20Z</time>
      </trkpt>
      <trkpt lat="39.897321" lon="116.640749">
        <time>2021-10-23T13:04:25Z</time>
      </trkpt>
      <trkpt lat="39.897192" lon="116.640648">
        <time>2021-10-23T13:04:30Z</time>
      </trkpt>
      <trkpt lat="39.897111" lon="116.64067">
        <time>2021-10-23T13:04:35Z</time>
      </trkpt>
      <trkpt lat="39.897055" lon="116.640664">
        <time>2021-10-23T13:04:40Z</time>
      </trkpt>
      <trkpt lat="39.896981" lon="116.640646">
        <time>2021-10-23T13:04:45Z</time>
      </trkpt>
      <trkpt lat="39.896903" lon="116.640612">
        <time>2021-10-23T13:04:50Z</time>
      </trkpt>
      <trkpt lat="39.896824" lon="116.640581">
        <time>2021-10-23T13:04:55Z</time>
      </trkpt>
      <trkpt lat="39.896726" lon="116.640536">
        <time>2021-10-23T13:05:00Z</time>
      </trkpt>
      <trkpt lat="39.896558" lon="116.640409">
        <time>2021-10-23T13:05:05Z</time>
      </trkpt>
      <trkpt lat="39.896531" lon="116.640403">
        <time>2021-10-23T13:05:10Z</time>
      </trkpt>
      <trkpt lat="39.896419" lon="116.640384">
        <time>2021-10-23T13:05:15Z</time>
      </trkpt>
      <trkpt lat="39.896292" lon="116.640167">
        <time>2021-10-23T13:05:20Z</time>
      </trkpt>
      <trkpt lat="39.89629" lon="116.640134">
        <time>2021-10-23T13:05:25Z</time>
      </trkpt>
      <trkpt lat="39.896285" lon="116.63999">
        <time>2021-10-23T13:05:30Z</time>
      </trkpt>
      <trkpt lat="39.896278" lon="116.639871">
        <time>2021-10-23T13:05:35Z</time>
      </trkpt>
      <trkpt lat="39.896267" lon="116.639752">
        <time>2021-10-23T13:05:40Z</time>
      </trkpt>
      <trkpt lat="39.89625" lon="116.639669">
        <time>2021-10-23T13:05:45Z</time>
      </trkpt>
      <trkpt lat="39.896261" lon="116.639578">
        <time>2021-10-23T13:05:50Z</time>
      </trkpt>
      <trkpt lat="39.896265" lon="116.639472">
        <time>2021-10-23T13:05:55Z</time>
      </trkpt>
      <trkpt lat="39.89626" lon="116.639366">
        <time>2021-10-23T13:06:00Z</time>
      </trkpt>
      <trkpt lat="39.896253" lon="116.639236">
        <time>2021-10-23T13:06:05Z</time>
      </trkpt>
      <trkpt lat="39.896256" lon="116.639078">
        <time>2021-10-23T13:06:10Z</time>
      </trkpt>
      <trkpt lat="39.896246" lon="116.638937">
        <time>2021-10-23T13:06:15Z</time>
      </trkpt>
      <trkpt lat="39.896229" lon="116.638769">
        <time>2021-10-23T13:06:20Z</time>
      </trkpt>
      <trkpt lat="39.896224" lon="116.638622">
        <time>2021-10-23T13:06:25Z</time>
      </trkpt>
      <trkpt lat="39.896209" lon="116.638472">
        <time>2021-10-23T13:06:30Z</time>
      </trkpt>
      <trkpt lat="39.896206" lon="116.638314">
        <time>2021-10-23T13:06:35Z</time>
      </trkpt>
      <trkpt lat="39.896177" lon="116.638184">
        <time>2021-10-23T13:06:40Z</time>
      </trkpt>
      <trkpt lat="39.896188" lon="116.638054">
        <time>2021-10-23T13:06:45Z</time>
      </trkpt>
      <trkpt lat="39.896208" lon="116.637909">
        <time>2021-10-23T13:06:50Z</time>
      </trkpt>
      <trkpt lat="39.896219" lon="116.637763">
        <time>2021-10-23T13:06:55Z</time>
      </trkpt>
      <trkpt lat="39.896212" lon="116.637618">
        <time>2021-10-23T13:07:00Z</time>
      </trkpt>
      <trkpt lat="39.896194" lon="116.637501">
        <time>2021-10-23T13:07:05Z</time>
      </trkpt>
      <trkpt lat="39.896185" lon="116.637351">
        <time>2021-10-23T13:07:10Z</time>
      </trkpt>
      <trkpt lat="39.896174" lon="116.637261">
        <time>2021-10-23T13:07:15Z</time>
      </trkpt>
      <trkpt lat="39.896174" lon="116.637151">
        <time>2021-10-23T13:07:20Z</time>
      </trkpt>
      <trkpt lat="39.896147" lon="116.637003">
        <time>2021-10-23T13:07:25Z</time>
      </trkpt>
      <trkpt lat="39.896081" lon="116.636729">
        <time>2021-10-23T13:07:30Z</time>
      </trkpt>
      <trkpt lat="39.896068" lon="116.636706">
        <time>2021-10-23T13:07:35Z</time>
      </trkpt>
      <trkpt lat="39.896005" lon="116.636719">
        <time>2021-10-23T13:07:40Z</time>
      </trkpt>
      <trkpt lat="39.896057" lon="116.636875">
        <time>2021-10-23T13:07:45Z</time>
      </trkpt>
      <trkpt lat="39.896096" lon="116.637107">
        <time>2021-10-23T13:07:50Z</time>
      </trkpt>
      <trkpt lat="39.896101" lon="116.6372">
        <time>2021-10-23T13:07:55Z</time>
      </trkpt>
      <trkpt lat="39.896114" lon="116.637365">
        <time>2021-10-23T13:08:00Z</time>
      </trkpt>
      <trkpt lat="39.896127" lon="116.637521">
        <time>2021-10-23T13:08:05Z</time>
      </trkpt>
      <trkpt lat="39.896136" lon="116.63768">
        <time>2021-10-23T13:08:10Z</time>
      </trkpt>
      <trkpt lat="39.896143" lon="116.637838">
        <time>2021-10-23T13:08:15Z</time>
      </trkpt>
      <trkpt lat="39.896149" lon="116.638021">
        <time>2021-10-23T13:08:20Z</time>
      </trkpt>
      <trkpt lat="39.896158" lon="116.638178">
        <time>2021-10-23T13:08:25Z</time>
      </trkpt>
      <trkpt lat="39.89617" lon="116.638325">
        <time>2021-10-23T13:08:30Z</time>
      </trkpt>
      <trkpt lat="39.896174" lon="116.638523">
        <time>2021-10-23T13:08:35Z</time>
      </trkpt>
      <trkpt lat="39.896185" lon="116.638682">
        <time>2021-10-23T13:08:40Z</time>
      </trkpt>
      <trkpt lat="39.896189" lon="116.638828">
        <time>2021-10-23T13:08:45Z</time>
      </trkpt>
      <trkpt lat="39.896197" lon="116.638927">
        <time>2021-10-23T13:08:50Z</time>
      </trkpt>
      <trkpt lat="39.896215" lon="116.639007">
        <time>2021-10-23T13:08:55Z</time>
      </trkpt>
      <trkpt lat="39.896234" lon="116.639091">
        <time>2021-10-23T13:09:00Z</time>
      </trkpt>
      <trkpt lat="39.89624" lon="116.639185">
        <time>2021-10-23T13:09:05Z</time>
      </trkpt>
      <trkpt lat="39.896236" lon="116.63927">
        <time>2021-10-23T13:09:10Z</time>
      </trkpt>
      <trkpt lat="39.896233" lon="116.639381">
        <time>2021-10-23T13:09:15Z</time>
      </trkpt>
      <trkpt lat="39.896228" lon="116.639501">
        <time>2021-10-23T13:09:20Z</time>
      </trkpt>
      <trkpt lat="39.896228" lon="116.639663">
        <time>2021-10-23T13:09:25Z</time>
      </trkpt>
      <trkpt lat="39.896232" lon="116.639746">
        <time>2021-10-23T13:09:30Z</time>
      </trkpt>
      <trkpt lat="39.89624" lon="116.639895">
        <time>2021-10-23T13:09:35Z</time>
      </trkpt>
      <trkpt lat="39.89624" lon="116.640062">
        <time>2021-10-23T13:09:40Z</time>
      </trkpt>
      <trkpt lat="39.896239" lon="116.6402">
        <time>2021-10-23T13:09:45Z</time>
      </trkpt>
      <trkpt lat="39.896239" lon="116.6402">
        <time>2021-10-23T13:09:50Z</time>
      </trkpt>
      <trkpt lat="39.896253" lon="116.640203">
        <time>2021-10-23T13:09:55Z</time>
      </trkpt>
      <trkpt lat="39.896224" lon="116.640431">
        <time>2021-10-23T13:10:00Z</time>
      </trkpt>
      <trkpt lat="39.896232" lon="116.64078">
        <time>2021-10-23T13:10:05Z</time>
      </trkpt>
      <trkpt lat="39.896238" lon="116.640859">
        <time>2021-10-23T13:10:10Z</time>
      </trkpt>
      <trkpt lat="39.89624" lon="116.641047">
        <time>2021-10-23T13:10:15Z</time>
      </trkpt>
      <trkpt lat="39.896236" lon="116.641238">
        <time>2021-10-23T13:10:20Z</time>
      </trkpt>
      <trkpt lat="39.896236" lon="116.6414">
        <time>2021-10-23T13:10:25Z</time>
      </trkpt>
      <trkpt lat="39.896225" lon="116.641544">
        <time>2021-10-23T13:10:30Z</time>
      </trkpt>
      <trkpt lat="39.896227" lon="116.641647">
        <time>2021-10-23T13:10:35Z</time>
      </trkpt>
      <trkpt lat="39.896226" lon="116.641751">
        <time>2021-10-23T13:10:40Z</time>
      </trkpt>
      <trkpt lat="39.896218" lon="116.641889">
        <time>2021-10-23T13:10:45Z</time>
      </trkpt>
      <trkpt lat="39.896209" lon="116.642124">
        <time>2021-10-23T13:10:50Z</time>
      </trkpt>
      <trkpt lat="39.896203" lon="116.642194">
        <time>2021-10-23T13:10:55Z</time>
      </trkpt>
      <trkpt lat="39.896178" lon="116.642331">
        <time>2021-10-23T13:11:00Z</time>
      </trkpt>
      <trkpt lat="39.896161" lon="116.642503">
        <time>2021-10-23T13:11:05Z</time>
      </trkpt>
      <trkpt lat="39.896181" lon="116.642639">
        <time>2021-10-23T13:11:10Z</time>
      </trkpt>
      <trkpt lat="39.896169" lon="116.642776">
        <time>2021-10-23T13:11:15Z</time>
      </trkpt>
      <trkpt lat="39.896156" lon="116.642988">
        <time>2021-10-23T13:11:20Z</time>
      </trkpt>
      <trkpt lat="39.896155" lon="116.643072">
        <time>2021-10-23T13:11:25Z</time>
      </trkpt>
      <trkpt lat="39.896149" lon="116.643385">
        <time>2021-10-23T13:11:30Z</time>
      </trkpt>
      <trkpt lat="39.896151" lon="116.643417">
        <time>2021-10-23T13:11:35Z</time>
      </trkpt>
      <trkpt lat="39.896174" lon="116.643555">
        <time>2021-10-23T13:11:40Z</time>
      </trkpt>
      <trkpt lat="39.896174" lon="116.643718">
        <time>2021-10-23T13:11:45Z</time>
      </trkpt>
      <trkpt lat="39.89617" lon="116.643909">
        <time>2021-10-23T13:11:50Z</time>
      </trkpt>
      <trkpt lat="39.896174" lon="116.644057">
        <time>2021-10-23T13:11:55Z</time>
      </trkpt>
      <trkpt lat="39.896178" lon="116.644173">
        <time>2021-10-23T13:12:00Z</time>
      </trkpt>
      <trkpt lat="39.896176" lon="116.644265">
        <time>2021-10-23T13:12:05Z</time>
      </trkpt>
      <trkpt lat="39.896173" lon="116.644399">
        <time>2021-10-23T13:12:10Z</time>
      </trkpt>
      <trkpt lat="39.896162" lon="116.644592">
        <time>2021-10-23T13:12:15Z</time>
      </trkpt>
      <trkpt lat="39.89617" lon="116.644667">
        <time>2021-10-23T13:12:20Z</time>
      </trkpt>
      <trkpt lat="39.896163" lon="116.644807">
        <time>2021-10-23T13:12:25Z</time>
      </trkpt>
      <trkpt lat="39.896155" lon="116.644962">
        <time>2021-10-23T13:12:30Z</time>
      </trkpt>
      <trkpt lat="39.896154" lon="116.645122">
        <time>2021-10-23T13:12:35Z</time>
      </trkpt>
      <trkpt lat="39.896151" lon="116.645268">
        <time>2021-10-23T13:12:40Z</time>
      </trkpt>
      <trkpt lat="39.896157" lon="116.645348">
        <time>2021-10-23T13:12:45Z</time>
      </trkpt>
      <trkpt lat="39.896137" lon="116.645462">
        <time>2021-10-23T13:12:50Z</time>
      </trkpt>
      <trkpt lat="39.896106" lon="116.645591">
        <time>2021-10-23T13:12:55Z</time>
      </trkpt>
      <trkpt lat="39.896091" lon="116.64573">
        <time>2021-10-23T13:13:00Z</time>
      </trkpt>
      <trkpt lat="39.896083" lon="116.64586">
        <time>2021-10-23T13:13:05Z</time>
      </trkpt>
      <trkpt lat="39.896072" lon="116.646005">
        <time>2021-10-23T13:13:10Z</time>
      </trkpt>
      <trkpt lat="39.896054" lon="116.646176">
        <time>2021-10-23T13:13:15Z</time>
      </trkpt>
      <trkpt lat="39.896031" lon="116.64636">
        <time>2021-10-23T13:13:20Z</time>
      </trkpt>
      <trkpt lat="39.896022" lon="116.646574">
        <time>2021-10-23T13:13:25Z</time>
      </trkpt>
      <trkpt lat="39.895986" lon="116.646773">
        <time>2021-10-23T13:13:30Z</time>
      </trkpt>
      <trkpt lat="39.895797" lon="116.646788">
        <time>2021-10-23T13:13:35Z</time>
      </trkpt>
      <trkpt lat="39.895654" lon="116.6467">
        <time>2021-10-23T13:13:40Z</time>
      </trkpt>
      <trkpt lat="39.895549" lon="116.646642">
        <time>2021-10-23T13:13:45Z</time>
      </trkpt>
      <trkpt lat="39.8955" lon="116.646594">
        <time>2021-10-23T13:13:50Z</time>
      </trkpt>
      <trkpt lat="39.895419" lon="116.646555">
        <time>2021-10-23T13:13:55Z</time>
      </trkpt>
      <trkpt lat="39.895354" lon="116.646534">
        <time>2021-10-23T13:14:00Z</time>
      </trkpt>
      <trkpt lat="39.895282" lon="116.646521">
        <time>2021-10-23T13:14:05Z</time>
      </trkpt>
      <trkpt lat="39.895221" lon="116.646471">
        <time>2021-10-23T13:14:10Z</time>
      </trkpt>
      <trkpt lat="39.895161" lon="116.646419">
        <time>2021-10-23T13:14:15Z</time>
      </trkpt>
      <trkpt lat="39.895077" lon="116.646357">
        <time>2021-10-23T13:14:20Z</time>
      </trkpt>
      <trkpt lat="39.894957" lon="116.64628">
        <time>2021-10-23T13:14:25Z</time>
      </trkpt>
      <trkpt lat="39.894885" lon="116.646233">
        <time>2021-10-23T13:14:30Z</time>
      </trkpt>
      <trkpt lat="39.894745" lon="116.646203">
        <time>2021-10-23T13:14:35Z</time>
      </trkpt>
      <trkpt lat="39.894615" lon="116.646135">
        <time>2021-10-23T13:14:40Z</time>
      </trkpt>
      <trkpt lat="39.894505" lon="116.646098">
        <time>2021-10-23T13:14:45Z</time>
      </trkpt>
      <trkpt lat="39.894399" lon="116.646051">
        <time>2021-10-23T13:14:50Z</time>
      </trkpt>
      <trkpt lat="39.894244" lon="116.646021">
        <time>2021-10-23T13:14:55Z</time>
      </trkpt>
      <trkpt lat="39.894123" lon="116.645929">
        <time>2021-10-23T13:15:00Z</time>
      </trkpt>
      <trkpt lat="39.893991" lon="116.645857">
        <time>2021-10-23T13:15:05Z</time>
      </trkpt>
      <trkpt lat="39.893871" lon="116.645923">
        <time>2021-10-23T13:15:10Z</time>
      </trkpt>
      <trkpt lat="39.893782" lon="116.646104">
        <time>2021-10-23T13:15:15Z</time>
      </trkpt>
      <trkpt lat="39.893616" lon="116.646319">
        <time>2021-10-23T13:15:20Z</time>
      </trkpt>
      <trkpt lat="39.893527" lon="116.646323">
        <time>2021-10-23T13:15:25Z</time>
      </trkpt>
      <trkpt lat="39.893433" lon="116.646255">
        <time>2021-10-23T13:15:30Z</time>
      </trkpt>
      <trkpt lat="39.893375" lon="116.646229">
        <time>2021-10-23T13:15:35Z</time>
      </trkpt>
      <trkpt lat="39.89332" lon="116.646184">
        <time>2021-10-23T13:15:40Z</time>
      </trkpt>
      <trkpt lat="39.893265" lon="116.646144">
        <time>2021-10-23T13:15:45Z</time>
      </trkpt>
      <trkpt lat="39.893199" lon="116.646114">
        <time>2021-10-23T13:15:50Z</time>
      </trkpt>
      <trkpt lat="39.893135" lon="116.646087">
        <time>2021-10-23T13:15:55Z</time>
      </trkpt>
      <trkpt lat="39.89305" lon="116.646048">
        <time>2021-10-23T13:16:00Z</time>
      </trkpt>
      <trkpt lat="39.892958" lon="116.645996">
        <time>2021-10-23T13:16:05Z</time>
      </trkpt>
      <trkpt lat="39.892867" lon="116.645924">
        <time>2021-10-23T13:16:10Z</time>
      </trkpt>
      <trkpt lat="39.892762" lon="116.645874">
        <time>2021-10-23T13:16:15Z</time>
      </trkpt>
      <trkpt lat="39.892711" lon="116.645851">
        <time>2021-10-23T13:16:20Z</time>
      </trkpt>
      <trkpt lat="39.892567" lon="116.645795">
        <time>2021-10-23T13:16:25Z</time>
      </trkpt>
      <trkpt lat="39.892471" lon="116.645747">
        <time>2021-10-23T13:16:30Z</time>
      </trkpt>
      <trkpt lat="39.892362" lon="116.645679">
        <time>2021-10-23T13:16:35Z</time>
      </trkpt>
      <trkpt lat="39.892225" lon="116.645628">
        <time>2021-10-23T13:16:40Z</time>
      </trkpt>
      <trkpt lat="39.892084" lon="116.645577">
        <time>2021-10-23T13:16:45Z</time>
      </trkpt>
      <trkpt lat="39.891972" lon="116.64552">
        <time>2021-10-23T13:16:50Z</time>
      </trkpt>
      <trkpt lat="39.891833" lon="116.645454">
        <time>2021-10-23T13:16:55Z</time>
      </trkpt>
      <trkpt lat="39.891678" lon="116.645404">
        <time>2021-10-23T13:17:00Z</time>
      </trkpt>
      <trkpt lat="39.891514" lon="116.645295">
        <time>2021-10-23T13:17:05Z</time>
      </trkpt>
      <trkpt lat="39.891492" lon="116.645336">
        <time>2021-10-23T13:17:10Z</time>
      </trkpt>
      <trkpt lat="39.891592" lon="116.645464">
        <time>2021-10-23T13:17:15Z</time>
      </trkpt>
      <trkpt lat="39.891744" lon="116.645525">
        <time>2021-10-23T13:17:20Z</time>
      </trkpt>
      <trkpt lat="39.891868" lon="116.645565">
        <time>2021-10-23T13:17:25Z</time>
      </trkpt>
      <trkpt lat="39.892012" lon="116.645622">
        <time>2021-10-23T13:17:30Z</time>
      </trkpt>
      <trkpt lat="39.892159" lon="116.645684">
        <time>2021-10-23T13:17:35Z</time>
      </trkpt>
      <trkpt lat="39.892284" lon="116.645734">
        <time>2021-10-23T13:17:40Z</time>
      </trkpt>
      <trkpt lat="39.892424" lon="116.645813">
        <time>2021-10-23T13:17:45Z</time>
      </trkpt>
      <trkpt lat="39.892554" lon="116.645863">
        <time>2021-10-23T13:17:50Z</time>
      </trkpt>
      <trkpt lat="39.892656" lon="116.645928">
        <time>2021-10-23T13:17:55Z</time>
      </trkpt>
      <trkpt lat="39.892793" lon="116.645973">
        <time>2021-10-23T13:18:00Z</time>
      </trkpt>
      <trkpt lat="39.892944" lon="116.645994">
        <time>2021-10-23T13:18:05Z</time>
      </trkpt>
      <trkpt lat="39.893092" lon="116.646062">
        <time>2021-10-23T13:18:10Z</time>
      </trkpt>
      <trkpt lat="39.893228" lon="116.646124">
        <time>2021-10-23T13:18:15Z</time>
      </trkpt>
      <trkpt lat="39.893467" lon="116.64627">
        <time>2021-10-23T13:18:20Z</time>
      </trkpt>
      <trkpt lat="39.893611" lon="116.646328">
        <time>2021-10-23T13:18:25Z</time>
      </trkpt>
      <trkpt lat="39.893632" lon="116.646335">
        <time>2021-10-23T13:18:30Z</time>
      </trkpt>
      <trkpt lat="39.893741" lon="116.646299">
        <time>2021-10-23T13:18:35Z</time>
      </trkpt>
      <trkpt lat="39.893857" lon="116.646168">
        <time>2021-10-23T13:18:40Z</time>
      </trkpt>
      <trkpt lat="39.893946" lon="116.646017">
        <time>2021-10-23T13:18:45Z</time>
      </trkpt>
      <trkpt lat="39.894051" lon="116.64591">
        <time>2021-10-23T13:18:50Z</time>
      </trkpt>
      <trkpt lat="39.89428" lon="116.646043">
        <time>2021-10-23T13:18:55Z</time>
      </trkpt>
      <trkpt lat="39.89429" lon="116.646062">
        <time>2021-10-23T13:19:00Z</time>
      </trkpt>
      <trkpt lat="39.894315" lon="116.64611">
        <time>2021-10-23T13:19:05Z</time>
      </trkpt>
      <trkpt lat="39.894422" lon="116.646132">
        <time>2021-10-23T13:19:10Z</time>
      </trkpt>
      <trkpt lat="39.894541" lon="116.646168">
        <time>2021-10-23T13:19:15Z</time>
      </trkpt>
      <trkpt lat="39.894681" lon="116.646247">
        <time>2021-10-23T13:19:20Z</time>
      </trkpt>
      <trkpt lat="39.894878" lon="116.646308">
        <time>2021-10-23T13:19:25Z</time>
      </trkpt>
      <trkpt lat="39.895044" lon="116.646372">
        <time>2021-10-23T13:19:30Z</time>
      </trkpt>
      <trkpt lat="39.8952" lon="116.646443">
        <time>2021-10-23T13:19:35Z</time>
      </trkpt>
      <trkpt lat="39.895467" lon="116.646597">
        <time>2021-10-23T13:19:40Z</time>
      </trkpt>
      <trkpt lat="39.895499" lon="116.646612">
        <time>2021-10-23T13:19:45Z</time>
      </trkpt>
      <trkpt lat="39.89567" lon="116.64668">
        <time>2021-10-23T13:19:50Z</time>
      </trkpt>
      <trkpt lat="39.89582" lon="116.646767">
        <time>2021-10-23T13:19:55Z</time>
      </trkpt>
      <trkpt lat="39.895968" lon="116.646832">
        <time>2021-10-23T13:20:00Z</time>
      </trkpt>
      <trkpt lat="39.896067" lon="116.646728">
        <time>2021-10-23T13:20:05Z</time>
      </trkpt>
      <trkpt lat="39.896077" lon="116.646555">
        <time>2021-10-23T13:20:10Z</time>
      </trkpt>
      <trkpt lat="39.896067" lon="116.646436">
        <time>2021-10-23T13:20:15Z</time>
      </trkpt>
      <trkpt lat="39.896058" lon="116.646353">
        <time>2021-10-23T13:20:20Z</time>
      </trkpt>
      <trkpt lat="39.896073" lon="116.646272">
        <time>2021-10-23T13:20:25Z</time>
      </trkpt>
      <trkpt lat="39.896095" lon="116.646176">
        <time>2021-10-23T13:20:30Z</time>
      </trkpt>
      <trkpt lat="39.896107" lon="116.646059">
        <time>2021-10-23T13:20:35Z</time>
      </trkpt>
      <trkpt lat="39.89611" lon="116.645972">
        <time>2021-10-23T13:20:40Z</time>
      </trkpt>
      <trkpt lat="39.896135" lon="116.645848">
        <time>2021-10-23T13:20:45Z</time>
      </trkpt>
      <trkpt lat="39.896146" lon="116.645708">
        <time>2021-10-23T13:20:50Z</time>
      </trkpt>
      <trkpt lat="39.896151" lon="116.645532">
        <time>2021-10-23T13:20:55Z</time>
      </trkpt>
      <trkpt lat="39.89616" lon="116.645316">
        <time>2021-10-23T13:21:00Z</time>
      </trkpt>
      <trkpt lat="39.896174" lon="116.644952">
        <time>2021-10-23T13:21:05Z</time>
      </trkpt>
      <trkpt lat="39.896174" lon="116.644899">
        <time>2021-10-23T13:21:10Z</time>
      </trkpt>
      <trkpt lat="39.896176" lon="116.644679">
        <time>2021-10-23T13:21:15Z</time>
      </trkpt>
      <trkpt lat="39.896182" lon="116.644566">
        <time>2021-10-23T13:21:20Z</time>
      </trkpt>
      <trkpt lat="39.896194" lon="116.644477">
        <time>2021-10-23T13:21:25Z</time>
      </trkpt>
      <trkpt lat="39.8962" lon="116.644376">
        <time>2021-10-23T13:21:30Z</time>
      </trkpt>
      <trkpt lat="39.896208" lon="116.644207">
        <time>2021-10-23T13:21:35Z</time>
      </trkpt>
      <trkpt lat="39.896206" lon="116.644153">
        <time>2021-10-23T13:21:40Z</time>
      </trkpt>
      <trkpt lat="39.896205" lon="116.644012">
        <time>2021-10-23T13:21:45Z</time>
      </trkpt>
      <trkpt lat="39.896218" lon="116.643864">
        <time>2021-10-23T13:21:50Z</time>
      </trkpt>
      <trkpt lat="39.896231" lon="116.643667">
        <time>2021-10-23T13:21:55Z</time>
      </trkpt>
      <trkpt lat="39.896225" lon="116.643532">
        <time>2021-10-23T13:22:00Z</time>
      </trkpt>
      <trkpt lat="39.89621" lon="116.64334">
        <time>2021-10-23T13:22:05Z</time>
      </trkpt>
      <trkpt lat="39.896203" lon="116.643146">
        <time>2021-10-23T13:22:10Z</time>
      </trkpt>
      <trkpt lat="39.896202" lon="116.642975">
        <time>2021-10-23T13:22:15Z</time>
      </trkpt>
      <trkpt lat="39.896204" lon="116.642871">
        <time>2021-10-23T13:22:20Z</time>
      </trkpt>
      <trkpt lat="39.896205" lon="116.642812">
        <time>2021-10-23T13:22:25Z</time>
      </trkpt>
      <trkpt lat="39.8962" lon="116.642717">
        <time>2021-10-23T13:22:30Z</time>
      </trkpt>
      <trkpt lat="39.896201" lon="116.642608">
        <time>2021-10-23T13:22:35Z</time>
      </trkpt>
      <trkpt lat="39.896206" lon="116.642509">
        <time>2021-10-23T13:22:40Z</time>
      </trkpt>
      <trkpt lat="39.896215" lon="116.642401">
        <time>2021-10-23T13:22:45Z</time>
      </trkpt>
      <trkpt lat="39.896245" lon="116.642295">
        <time>2021-10-23T13:22:50Z</time>
      </trkpt>
      <trkpt lat="39.896251" lon="116.642179">
        <time>2021-10-23T13:22:55Z</time>
      </trkpt>
      <trkpt lat="39.896268" lon="116.64205">
        <time>2021-10-23T13:23:00Z</time>
      </trkpt>
      <trkpt lat="39.896255" lon="116.641894">
        <time>2021-10-23T13:23:05Z</time>
      </trkpt>
      <trkpt lat="39.896257" lon="116.641727">
        <time>2021-10-23T13:23:10Z</time>
      </trkpt>
      <trkpt lat="39.896257" lon="116.641573">
        <time>2021-10-23T13:23:15Z</time>
      </trkpt>
      <trkpt lat="39.896246" lon="116.641387">
        <time>2021-10-23T13:23:20Z</time>
      </trkpt>
      <trkpt lat="39.89623" lon="116.641209">
        <time>2021-10-23T13:23:25Z</time>
      </trkpt>
      <trkpt lat="39.896252" lon="116.641071">
        <time>2021-10-23T13:23:30Z</time>
      </trkpt>
      <trkpt lat="39.896266" lon="116.640922">
        <time>2021-10-23T13:23:35Z</time>
      </trkpt>
      <trkpt lat="39.896269" lon="116.640725">
        <time>2021-10-23T13:23:40Z</time>
      </trkpt>
      <trkpt lat="39.896267" lon="116.640577">
        <time>2021-10-23T13:23:45Z</time>
      </trkpt>
      <trkpt lat="39.896278" lon="116.640366">
        <time>2021-10-23T13:23:50Z</time>
      </trkpt>
      <trkpt lat="39.896288" lon="116.640164">
        <time>2021-10-23T13:23:55Z</time>
      </trkpt>
      <trkpt lat="39.896298" lon="116.640054">
        <time>2021-10-23T13:24:00Z</time>
      </trkpt>
      <trkpt lat="39.89629" lon="116.639841">
        <time>2021-10-23T13:24:05Z</time>
      </trkpt>
      <trkpt lat="39.896268" lon="116.639648">
        <time>2021-10-23T13:24:10Z</time>
      </trkpt>
      <trkpt lat="39.896257" lon="116.639468">
        <time>2021-10-23T13:24:15Z</time>
      </trkpt>
      <trkpt lat="39.896259" lon="116.6393">
        <time>2021-10-23T13:24:20Z</time>
      </trkpt>
      <trkpt lat="39.896249" lon="116.639109">
        <time>2021-10-23T13:24:25Z</time>
      </trkpt>
      <trkpt lat="39.896234" lon="116.638911">
        <time>2021-10-23T13:24:30Z</time>
      </trkpt>
      <trkpt lat="39.896217" lon="116.638711">
        <time>2021-10-23T13:24:35Z</time>
      </trkpt>
      <trkpt lat="39.896213" lon="116.638526">
        <time>2021-10-23T13:24:40Z</time>
      </trkpt>
      <trkpt lat="39.896192" lon="116.638375">
        <time>2021-10-23T13:24:45Z</time>
      </trkpt>
      <trkpt lat="39.896189" lon="116.63824">
        <time>2021-10-23T13:24:50Z</time>
      </trkpt>
      <trkpt lat="39.89618" lon="116.638137">
        <time>2021-10-23T13:24:55Z</time>
      </trkpt>
      <trkpt lat="39.896196" lon="116.638033">
        <time>2021-10-23T13:25:00Z</time>
      </trkpt>
      <trkpt lat="39.896211" lon="116.637919">
        <time>2021-10-23T13:25:05Z</time>
      </trkpt>
      <trkpt lat="39.896233" lon="116.63781">
        <time>2021-10-23T13:25:10Z</time>
      </trkpt>
      <trkpt lat="39.896234" lon="116.637686">
        <time>2021-10-23T13:25:15Z</time>
      </trkpt>
      <trkpt lat="39.89621" lon="116.637508">
        <time>2021-10-23T13:25:20Z</time>
      </trkpt>
      <trkpt lat="39.896195" lon="116.637402">
        <time>2021-10-23T13:25:25Z</time>
      </trkpt>
      <trkpt lat="39.896188" lon="116.637315">
        <time>2021-10-23T13:25:30Z</time>
      </trkpt>
      <trkpt lat="39.896184" lon="116.637231">
        <time>2021-10-23T13:25:35Z</time>
      </trkpt>
      <trkpt lat="39.896178" lon="116.637137">
        <time>2021-10-23T13:25:40Z</time>
      </trkpt>
      <trkpt lat="39.896166" lon="116.637007">
        <time>2021-10-23T13:25:45Z</time>
      </trkpt>
      <trkpt lat="39.896137" lon="116.636878">
        <time>2021-10-23T13:25:50Z</time>
      </trkpt>
      <trkpt lat="39.896074" lon="116.636705">
        <time>2021-10-23T13:25:55Z</time>
      </trkpt>
      <trkpt lat="39.896028" lon="116.636633">
        <time>2021-10-23T13:26:00Z</time>
      </trkpt>
      <trkpt lat="39.895906" lon="116.636515">
        <time>2021-10-23T13:26:05Z</time>
      </trkpt>
      <trkpt lat="39.89594" lon="116.636362">
        <time>2021-10-23T13:26:10Z</time>
      </trkpt>
      <trkpt lat="39.896156" lon="116.636268">
        <time>2021-10-23T13:26:15Z</time>
      </trkpt>
      <trkpt lat="39.896317" lon="116.636155">
        <time>2021-10-23T13:26:20Z</time>
      </trkpt>
      <trkpt lat="39.89651" lon="116.636019">
        <time>2021-10-23T13:26:25Z</time>
      </trkpt>
      <trkpt lat="39.896714" lon="116.635894">
        <time>2021-10-23T13:26:30Z</time>
      </trkpt>
      <trkpt lat="39.896905" lon="116.635795">
        <time>2021-10-23T13:26:35Z</time>
      </trkpt>
      <trkpt lat="39.89705" lon="116.635714">
        <time>2021-10-23T13:26:40Z</time>
      </trkpt>
      <trkpt lat="39.897223" lon="116.635662">
        <time>2021-10-23T13:26:45Z</time>
      </trkpt>
      <trkpt lat="39.897355" lon="116.635538">
        <time>2021-10-23T13:26:50Z</time>
      </trkpt>
      <trkpt lat="39.897525" lon="116.635415">
        <time>2021-10-23T13:26:55Z</time>
      </trkpt>
      <trkpt lat="39.897614" lon="116.635346">
        <time>2021-10-23T13:27:00Z</time>
      </trkpt>
      <trkpt lat="39.897739" lon="116.63526">
        <time>2021-10-23T13:27:05Z</time>
      </trkpt>
      <trkpt lat="39.897868" lon="116.635128">
        <time>2021-10-23T13:27:10Z</time>
      </trkpt>
      <trkpt lat="39.89801" lon="116.635063">
        <time>2021-10-23T13:27:15Z</time>
      </trkpt>
      <trkpt lat="39.898137" lon="116.634987">
        <time>2021-10-23T13:27:20Z</time>
      </trkpt>
      <trkpt lat="39.89826" lon="116.634949">
        <time>2021-10-23T13:27:25Z</time>
      </trkpt>
      <trkpt lat="39.898363" lon="116.634888">
        <time>2021-10-23T13:27:30Z</time>
      </trkpt>
      <trkpt lat="39.898486" lon="116.63481">
        <time>2021-10-23T13:27:35Z</time>
      </trkpt>
      <trkpt lat="39.898554" lon="116.634776">
        <time>2021-10-23T13:27:40Z</time>
      </trkpt>
      <trkpt lat="39.898622" lon="116.634732">
        <time>2021-10-23T13:27:45Z</time>
      </trkpt>
      <trkpt lat="39.898671" lon="116.634687">
        <time>2021-10-23T13:27:50Z</time>
      </trkpt>
      <trkpt lat="39.898742" lon="116.634643">
        <time>2021-10-23T13:27:55Z</time>
      </trkpt>
      <trkpt lat="39.898851" lon="116.634573">
        <time>2021-10-23T13:28:00Z</time>
      </trkpt>
      <trkpt lat="39.898976" lon="116.634495">
        <time>2021-10-23T13:28:05Z</time>
      </trkpt>
      <trkpt lat="39.899091" lon="116.634411">
        <time>2021-10-23T13:28:10Z</time>
      </trkpt>
      <trkpt lat="39.899154" lon="116.634371">
        <time>2021-10-23T13:28:15Z</time>
      </trkpt>
      <trkpt lat="39.899218" lon="116.634322">
        <time>2021-10-23T13:28:20Z</time>
      </trkpt>
      <trkpt lat="39.899265" lon="116.634307">
        <time>2021-10-23T13:28:25Z</time>
      </trkpt>
      <trkpt lat="39.89935" lon="116.63427">
        <time>2021-10-23T13:28:30Z</time>
      </trkpt>
      <trkpt lat="39.899445" lon="116.634221">
        <time>2021-10-23T13:28:35Z</time>
      </trkpt>
      <trkpt lat="39.89955" lon="116.634156">
        <time>2021-10-23T13:28:40Z</time>
      </trkpt>
      <trkpt lat="39.899678" lon="116.634053">
        <time>2021-10-23T13:28:45Z</time>
      </trkpt>
      <trkpt lat="39.899794" lon="116.633964">
        <time>2021-10-23T13:28:50Z</time>
      </trkpt>
      <trkpt lat="39.899913" lon="116.633912">
        <time>2021-10-23T13:28:55Z</time>
      </trkpt>
      <trkpt lat="39.900042" lon="116.63385">
        <time>2021-10-23T13:29:00Z</time>
      </trkpt>
      <trkpt lat="39.900151" lon="116.633772">
        <time>2021-10-23T13:29:05Z</time>
      </trkpt>
      <trkpt lat="39.900262" lon="116.633695">
        <time>2021-10-23T13:29:10Z</time>
      </trkpt>
      <trkpt lat="39.900409" lon="116.63361">
        <time>2021-10-23T13:29:15Z</time>
      </trkpt>
      <trkpt lat="39.900484" lon="116.633532">
        <time>2021-10-23T13:29:20Z</time>
      </trkpt>
      <trkpt lat="39.90059" lon="116.633428">
        <time>2021-10-23T13:29:25Z</time>
      </trkpt>
      <trkpt lat="39.90071" lon="116.633319">
        <time>2021-10-23T13:29:30Z</time>
      </trkpt>
      <trkpt lat="39.90078" lon="116.633305">
        <time>2021-10-23T13:29:35Z</time>
      </trkpt>
      <trkpt lat="39.90087" lon="116.633278">
        <time>2021-10-23T13:29:40Z</time>
      </trkpt>
      <trkpt lat="39.900964" lon="116.633219">
        <time>2021-10-23T13:29:45Z</time>
      </trkpt>
      <trkpt lat="39.901054" lon="116.633198">
        <time>2021-10-23T13:29:50Z</time>
      </trkpt>
      <trkpt lat="39.901102" lon="116.633309">
        <time>2021-10-23T13:29:55Z</time>
      </trkpt>
      <trkpt lat="39.901047" lon="116.633477">
        <time>2021-10-23T13:30:00Z</time>
      </trkpt>
      <trkpt lat="39.901028" lon="116.633595">
        <time>2021-10-23T13:30:05Z</time>
      </trkpt>
      <trkpt lat="39.901001" lon="116.633707">
        <time>2021-10-23T13:30:10Z</time>
      </trkpt>
      <trkpt lat="39.901069" lon="116.633642">
        <time>2021-10-23T13:30:15Z</time>
      </trkpt>
      <trkpt lat="39.901088" lon="116.633454">
        <time>2021-10-23T13:30:20Z</time>
      </trkpt>
      <trkpt lat="39.901079" lon="116.63326">
        <time>2021-10-23T13:30:25Z</time>
      </trkpt>
      <trkpt lat="39.900978" lon="116.633154">
        <time>2021-10-23T13:30:30Z</time>
      </trkpt>
      <trkpt lat="39.90093" lon="116.633111">
        <time>2021-10-23T13:30:35Z</time>
      </trkpt>
      <trkpt lat="39.900885" lon="116.632981">
        <time>2021-10-23T13:30:40Z</time>
      </trkpt>
      <trkpt lat="39.900875" lon="116.632925">
        <time>2021-10-23T13:30:45Z</time>
      </trkpt>
      <trkpt lat="39.90088" lon="116.632877">
        <time>2021-10-23T13:30:50Z</time>
      </trkpt>
      <trkpt lat="39.900869" lon="116.632817">
        <time>2021-10-23T13:30:55Z</time>
      </trkpt>
      <trkpt lat="39.900788" lon="116.63279">
        <time>2021-10-23T13:31:00Z</time>
      </trkpt>
      <trkpt lat="39.900649" lon="116.63287">
        <time>2021-10-23T13:31:05Z</time>
      </trkpt>
      <trkpt lat="39.90053" lon="116.632953">
        <time>2021-10-23T13:31:10Z</time>
      </trkpt>
      <trkpt lat="39.900413" lon="116.633032">
        <time>2021-10-23T13:31:15Z</time>
      </trkpt>
      <trkpt lat="39.900257" lon="116.633138">
        <time>2021-10-23T13:31:20Z</time>
      </trkpt>
      <trkpt lat="39.900091" lon="116.633236">
        <time>2021-10-23T13:31:25Z</time>
      </trkpt>
      <trkpt lat="39.899938" lon="116.63332">
        <time>2021-10-23T13:31:30Z</time>
      </trkpt>
      <trkpt lat="39.899792" lon="116.633398">
        <time>2021-10-23T13:31:35Z</time>
      </trkpt>
      <trkpt lat="39.899633" lon="116.633504">
        <time>2021-10-23T13:31:40Z</time>
      </trkpt>
      <trkpt lat="39.899487" lon="116.633624">
        <time>2021-10-23T13:31:45Z</time>
      </trkpt>
      <trkpt lat="39.899356" lon="116.633714">
        <time>2021-10-23T13:31:50Z</time>
      </trkpt>
      <trkpt lat="39.899233" lon="116.633793">
        <time>2021-10-23T13:31:55Z</time>
      </trkpt>
      <trkpt lat="39.899167" lon="116.633873">
        <time>2021-10-23T13:32:00Z</time>
      </trkpt>
      <trkpt lat="39.899101" lon="116.633908">
        <time>2021-10-23T13:32:05Z</time>
      </trkpt>
      <trkpt lat="39.899039" lon="116.633964">
        <time>2021-10-23T13:32:10Z</time>
      </trkpt>
      <trkpt lat="39.898932" lon="116.634052">
        <time>2021-10-23T13:32:15Z</time>
      </trkpt>
      <trkpt lat="39.898855" lon="116.634102">
        <time>2021-10-23T13:32:20Z</time>
      </trkpt>
      <trkpt lat="39.898733" lon="116.634175">
        <time>2021-10-23T13:32:25Z</time>
      </trkpt>
      <trkpt lat="39.898517" lon="116.634327">
        <time>2021-10-23T13:32:30Z</time>
      </trkpt>
      <trkpt lat="39.898494" lon="116.634352">
        <time>2021-10-23T13:32:35Z</time>
      </trkpt>
      <trkpt lat="39.898372" lon="116.634438">
        <time>2021-10-23T13:32:40Z</time>
      </trkpt>
      <trkpt lat="39.898256" lon="116.634503">
        <time>2021-10-23T13:32:45Z</time>
      </trkpt>
      <trkpt lat="39.898164" lon="116.634604">
        <time>2021-10-23T13:32:50Z</time>
      </trkpt>
      <trkpt lat="39.898087" lon="116.634629">
        <time>2021-10-23T13:32:55Z</time>
      </trkpt>
      <trkpt lat="39.89799" lon="116.634523">
        <time>2021-10-23T13:33:00Z</time>
      </trkpt>
      <trkpt lat="39.897901" lon="116.634367">
        <time>2021-10-23T13:33:05Z</time>
      </trkpt>
      <trkpt lat="39.897873" lon="116.634201">
        <time>2021-10-23T13:33:10Z</time>
      </trkpt>
      <trkpt lat="39.897837" lon="116.634074">
        <time>2021-10-23T13:33:15Z</time>
      </trkpt>
      <trkpt lat="39.897741" lon="116.633909">
        <time>2021-10-23T13:33:20Z</time>
      </trkpt>
      <trkpt lat="39.897681" lon="116.633763">
        <time>2021-10-23T13:33:25Z</time>
      </trkpt>
      <trkpt lat="39.897546" lon="116.633682">
        <time>2021-10-23T13:33:30Z</time>
      </trkpt>
      <trkpt lat="39.897464" lon="116.63359">
        <time>2021-10-23T13:33:35Z</time>
      </trkpt>
      <trkpt lat="39.897357" lon="116.633625">
        <time>2021-10-23T13:33:40Z</time>
      </trkpt>
      <trkpt lat="39.897285" lon="116.633795">
        <time>2021-10-23T13:33:45Z</time>
      </trkpt>
      <trkpt lat="39.897343" lon="116.633988">
        <time>2021-10-23T13:33:50Z</time>
      </trkpt>
      <trkpt lat="39.897418" lon="116.634152">
        <time>2021-10-23T13:33:55Z</time>
      </trkpt>
      <trkpt lat="39.897418" lon="116.634152">
        <time>2021-10-23T13:34:00Z</time>
      </trkpt>
      <trkpt lat="39.897423" lon="116.634255">
        <time>2021-10-23T13:34:05Z</time>
      </trkpt>
      <trkpt lat="39.897287" lon="116.634103">
        <time>2021-10-23T13:34:10Z</time>
      </trkpt>
      <trkpt lat="39.897225" lon="116.633959">
        <time>2021-10-23T13:34:15Z</time>
      </trkpt>
      <trkpt lat="39.897082" lon="116.633669">
        <time>2021-10-23T13:34:20Z</time>
      </trkpt>
      <trkpt lat="39.897063" lon="116.633637">
        <time>2021-10-23T13:34:25Z</time>
      </trkpt>
      <trkpt lat="39.896965" lon="116.633475">
        <time>2021-10-23T13:34:30Z</time>
      </trkpt>
      <trkpt lat="39.896901" lon="116.633314">
        <time>2021-10-23T13:34:35Z</time>
      </trkpt>
      <trkpt lat="39.896801" lon="116.63323">
        <time>2021-10-23T13:34:40Z</time>
      </trkpt>
      <trkpt lat="39.89677" lon="116.633032">
        <time>2021-10-23T13:34:45Z</time>
      </trkpt>
      <trkpt lat="39.896822" lon="116.632854">
        <time>2021-10-23T13:34:50Z</time>
      </trkpt>
      <trkpt lat="39.896902" lon="116.632813">
        <time>2021-10-23T13:34:55Z</time>
      </trkpt>
      <trkpt lat="39.897015" lon="116.633009">
        <time>2021-10-23T13:35:00Z</time>
      </trkpt>
      <trkpt lat="39.897131" lon="116.633376">
        <time>2021-10-23T13:35:05Z</time>
      </trkpt>
      <trkpt lat="39.897197" lon="116.633446">
        <time>2021-10-23T13:35:10Z</time>
      </trkpt>
      <trkpt lat="39.897295" lon="116.633559">
        <time>2021-10-23T13:35:15Z</time>
      </trkpt>
      <trkpt lat="39.897364" lon="116.6337">
        <time>2021-10-23T13:35:20Z</time>
      </trkpt>
      <trkpt lat="39.897425" lon="116.633866">
        <time>2021-10-23T13:35:25Z</time>
      </trkpt>
      <trkpt lat="39.897482" lon="116.634032">
        <time>2021-10-23T13:35:30Z</time>
      </trkpt>
      <trkpt lat="39.89747" lon="116.634214">
        <time>2021-10-23T13:36:07Z</time>
      </trkpt>
    </trkseg>
  </trk>
</gpx>