<?xml version="1.0" encoding="UTF-8"?>
<gpx xmlns="http://www.topografix.com/GPX/1/1" xmlns:gpxtpx="http://www.garmin.com/xmlschemas/TrackPointExtension/v1" xmlns:xsi="http://www.w3.org/2001/XMLSchema-instance" xsi:schemaLocation="http://www.topografix.com/GPX/1/1 http://www.topografix.com/GPX/1/1/gpx.xsd" version="1.1" creator="gpx.py -- https://github.com/tkrajina/gpxpy">
  <trk>
    <name>gpx from keep</name>
    <trkseg>
      <trkpt lat="39.897317" lon="116.633812">
        <time>2021-11-19T13:14:48Z</time>
      </trkpt>
      <trkpt lat="39.897317" lon="116.633812">
        <time>2021-11-19T13:14:53Z</time>
      </trkpt>
      <trkpt lat="39.89737" lon="116.633782">
        <time>2021-11-19T13:14:58Z</time>
      </trkpt>
      <trkpt lat="39.897422" lon="116.633689">
        <time>2021-11-19T13:15:03Z</time>
      </trkpt>
      <trkpt lat="39.897547" lon="116.633736">
        <time>2021-11-19T13:15:08Z</time>
      </trkpt>
      <trkpt lat="39.897622" lon="116.633866">
        <time>2021-11-19T13:15:13Z</time>
      </trkpt>
      <trkpt lat="39.897716" lon="116.634015">
        <time>2021-11-19T13:15:18Z</time>
      </trkpt>
      <trkpt lat="39.897778" lon="116.634146">
        <time>2021-11-19T13:15:23Z</time>
      </trkpt>
      <trkpt lat="39.897807" lon="116.634321">
        <time>2021-11-19T13:15:28Z</time>
      </trkpt>
      <trkpt lat="39.89788" lon="116.634504">
        <time>2021-11-19T13:15:33Z</time>
      </trkpt>
      <trkpt lat="39.897993" lon="116.634705">
        <time>2021-11-19T13:15:38Z</time>
      </trkpt>
      <trkpt lat="39.898008" lon="116.634774">
        <time>2021-11-19T13:15:43Z</time>
      </trkpt>
      <trkpt lat="39.898072" lon="116.634935">
        <time>2021-11-19T13:15:48Z</time>
      </trkpt>
      <trkpt lat="39.898091" lon="116.635083">
        <time>2021-11-19T13:15:53Z</time>
      </trkpt>
      <trkpt lat="39.89796" lon="116.63517">
        <time>2021-11-19T13:15:58Z</time>
      </trkpt>
      <trkpt lat="39.897823" lon="116.635241">
        <time>2021-11-19T13:16:03Z</time>
      </trkpt>
      <trkpt lat="39.897697" lon="116.635313">
        <time>2021-11-19T13:16:08Z</time>
      </trkpt>
      <trkpt lat="39.897569" lon="116.635376">
        <time>2021-11-19T13:16:13Z</time>
      </trkpt>
      <trkpt lat="39.897446" lon="116.63545">
        <time>2021-11-19T13:16:18Z</time>
      </trkpt>
      <trkpt lat="39.897317" lon="116.635502">
        <time>2021-11-19T13:16:23Z</time>
      </trkpt>
      <trkpt lat="39.89721" lon="116.63556">
        <time>2021-11-19T13:16:28Z</time>
      </trkpt>
      <trkpt lat="39.897003" lon="116.63569">
        <time>2021-11-19T13:16:33Z</time>
      </trkpt>
      <trkpt lat="39.896928" lon="116.635722">
        <time>2021-11-19T13:16:38Z</time>
      </trkpt>
      <trkpt lat="39.896828" lon="116.63578">
        <time>2021-11-19T13:16:43Z</time>
      </trkpt>
      <trkpt lat="39.8967" lon="116.635879">
        <time>2021-11-19T13:16:48Z</time>
      </trkpt>
      <trkpt lat="39.896529" lon="116.636029">
        <time>2021-11-19T13:16:53Z</time>
      </trkpt>
      <trkpt lat="39.896505" lon="116.636045">
        <time>2021-11-19T13:16:58Z</time>
      </trkpt>
      <trkpt lat="39.896394" lon="116.636079">
        <time>2021-11-19T13:17:03Z</time>
      </trkpt>
      <trkpt lat="39.896318" lon="116.63602">
        <time>2021-11-19T13:17:08Z</time>
      </trkpt>
      <trkpt lat="39.896284" lon="116.635996">
        <time>2021-11-19T13:17:13Z</time>
      </trkpt>
      <trkpt lat="39.896242" lon="116.636091">
        <time>2021-11-19T13:17:18Z</time>
      </trkpt>
      <trkpt lat="39.8962" lon="116.636159">
        <time>2021-11-19T13:17:23Z</time>
      </trkpt>
      <trkpt lat="39.896162" lon="116.636283">
        <time>2021-11-19T13:17:28Z</time>
      </trkpt>
      <trkpt lat="39.896102" lon="116.636396">
        <time>2021-11-19T13:17:33Z</time>
      </trkpt>
      <trkpt lat="39.896042" lon="116.636525">
        <time>2021-11-19T13:17:38Z</time>
      </trkpt>
      <trkpt lat="39.896022" lon="116.636644">
        <time>2021-11-19T13:17:43Z</time>
      </trkpt>
      <trkpt lat="39.896033" lon="116.63679">
        <time>2021-11-19T13:17:48Z</time>
      </trkpt>
      <trkpt lat="39.896078" lon="116.636915">
        <time>2021-11-19T13:17:53Z</time>
      </trkpt>
      <trkpt lat="39.896129" lon="116.637164">
        <time>2021-11-19T13:17:58Z</time>
      </trkpt>
      <trkpt lat="39.896131" lon="116.637196">
        <time>2021-11-19T13:18:03Z</time>
      </trkpt>
      <trkpt lat="39.896138" lon="116.637354">
        <time>2021-11-19T13:18:08Z</time>
      </trkpt>
      <trkpt lat="39.89615" lon="116.63749">
        <time>2021-11-19T13:18:13Z</time>
      </trkpt>
      <trkpt lat="39.896171" lon="116.637622">
        <time>2021-11-19T13:18:18Z</time>
      </trkpt>
      <trkpt lat="39.896175" lon="116.637761">
        <time>2021-11-19T13:18:23Z</time>
      </trkpt>
      <trkpt lat="39.896166" lon="116.637903">
        <time>2021-11-19T13:18:28Z</time>
      </trkpt>
      <trkpt lat="39.896186" lon="116.638038">
        <time>2021-11-19T13:18:33Z</time>
      </trkpt>
      <trkpt lat="39.896207" lon="116.638131">
        <time>2021-11-19T13:18:38Z</time>
      </trkpt>
      <trkpt lat="39.896224" lon="116.638265">
        <time>2021-11-19T13:18:43Z</time>
      </trkpt>
      <trkpt lat="39.896239" lon="116.638384">
        <time>2021-11-19T13:18:48Z</time>
      </trkpt>
      <trkpt lat="39.896225" lon="116.638547">
        <time>2021-11-19T13:18:53Z</time>
      </trkpt>
      <trkpt lat="39.896215" lon="116.638716">
        <time>2021-11-19T13:18:58Z</time>
      </trkpt>
      <trkpt lat="39.896204" lon="116.638829">
        <time>2021-11-19T13:19:03Z</time>
      </trkpt>
      <trkpt lat="39.896206" lon="116.638941">
        <time>2021-11-19T13:19:08Z</time>
      </trkpt>
      <trkpt lat="39.896198" lon="116.639036">
        <time>2021-11-19T13:19:13Z</time>
      </trkpt>
      <trkpt lat="39.896221" lon="116.63915">
        <time>2021-11-19T13:19:18Z</time>
      </trkpt>
      <trkpt lat="39.896216" lon="116.639265">
        <time>2021-11-19T13:19:23Z</time>
      </trkpt>
      <trkpt lat="39.896227" lon="116.639431">
        <time>2021-11-19T13:19:28Z</time>
      </trkpt>
      <trkpt lat="39.896206" lon="116.639531">
        <time>2021-11-19T13:19:33Z</time>
      </trkpt>
      <trkpt lat="39.896159" lon="116.639566">
        <time>2021-11-19T13:19:38Z</time>
      </trkpt>
      <trkpt lat="39.896159" lon="116.639566">
        <time>2021-11-19T13:19:43Z</time>
      </trkpt>
      <trkpt lat="39.896159" lon="116.639566">
        <time>2021-11-19T13:19:48Z</time>
      </trkpt>
      <trkpt lat="39.896281" lon="116.63957">
        <time>2021-11-19T13:19:53Z</time>
      </trkpt>
      <trkpt lat="39.896278" lon="116.639616">
        <time>2021-11-19T13:19:58Z</time>
      </trkpt>
      <trkpt lat="39.896258" lon="116.639758">
        <time>2021-11-19T13:20:03Z</time>
      </trkpt>
      <trkpt lat="39.896257" lon="116.639869">
        <time>2021-11-19T13:20:08Z</time>
      </trkpt>
      <trkpt lat="39.896251" lon="116.640054">
        <time>2021-11-19T13:20:13Z</time>
      </trkpt>
      <trkpt lat="39.896241" lon="116.64024">
        <time>2021-11-19T13:20:18Z</time>
      </trkpt>
      <trkpt lat="39.896254" lon="116.640365">
        <time>2021-11-19T13:20:23Z</time>
      </trkpt>
      <trkpt lat="39.896236" lon="116.640523">
        <time>2021-11-19T13:20:28Z</time>
      </trkpt>
      <trkpt lat="39.896223" lon="116.640805">
        <time>2021-11-19T13:20:33Z</time>
      </trkpt>
      <trkpt lat="39.896224" lon="116.640873">
        <time>2021-11-19T13:20:38Z</time>
      </trkpt>
      <trkpt lat="39.896216" lon="116.641019">
        <time>2021-11-19T13:20:43Z</time>
      </trkpt>
      <trkpt lat="39.896203" lon="116.641207">
        <time>2021-11-19T13:20:48Z</time>
      </trkpt>
      <trkpt lat="39.896214" lon="116.641363">
        <time>2021-11-19T13:20:53Z</time>
      </trkpt>
      <trkpt lat="39.896212" lon="116.641461">
        <time>2021-11-19T13:20:58Z</time>
      </trkpt>
      <trkpt lat="39.89621" lon="116.641555">
        <time>2021-11-19T13:21:03Z</time>
      </trkpt>
      <trkpt lat="39.89621" lon="116.641685">
        <time>2021-11-19T13:21:08Z</time>
      </trkpt>
      <trkpt lat="39.896207" lon="116.641813">
        <time>2021-11-19T13:21:13Z</time>
      </trkpt>
      <trkpt lat="39.896215" lon="116.641953">
        <time>2021-11-19T13:21:18Z</time>
      </trkpt>
      <trkpt lat="39.896207" lon="116.642128">
        <time>2021-11-19T13:21:23Z</time>
      </trkpt>
      <trkpt lat="39.896178" lon="116.642332">
        <time>2021-11-19T13:21:28Z</time>
      </trkpt>
      <trkpt lat="39.896179" lon="116.642475">
        <time>2021-11-19T13:21:33Z</time>
      </trkpt>
      <trkpt lat="39.896193" lon="116.64261">
        <time>2021-11-19T13:21:38Z</time>
      </trkpt>
      <trkpt lat="39.896197" lon="116.642747">
        <time>2021-11-19T13:21:43Z</time>
      </trkpt>
      <trkpt lat="39.896189" lon="116.64289">
        <time>2021-11-19T13:21:48Z</time>
      </trkpt>
      <trkpt lat="39.896174" lon="116.643044">
        <time>2021-11-19T13:21:53Z</time>
      </trkpt>
      <trkpt lat="39.89615" lon="116.643222">
        <time>2021-11-19T13:21:58Z</time>
      </trkpt>
      <trkpt lat="39.896128" lon="116.643528">
        <time>2021-11-19T13:22:03Z</time>
      </trkpt>
      <trkpt lat="39.896141" lon="116.643586">
        <time>2021-11-19T13:22:08Z</time>
      </trkpt>
      <trkpt lat="39.896167" lon="116.643626">
        <time>2021-11-19T13:22:13Z</time>
      </trkpt>
      <trkpt lat="39.896182" lon="116.643751">
        <time>2021-11-19T13:22:18Z</time>
      </trkpt>
      <trkpt lat="39.896191" lon="116.643882">
        <time>2021-11-19T13:22:23Z</time>
      </trkpt>
      <trkpt lat="39.89622" lon="116.643933">
        <time>2021-11-19T13:22:28Z</time>
      </trkpt>
      <trkpt lat="39.896243" lon="116.644099">
        <time>2021-11-19T13:22:33Z</time>
      </trkpt>
      <trkpt lat="39.896232" lon="116.644288">
        <time>2021-11-19T13:22:38Z</time>
      </trkpt>
      <trkpt lat="39.896241" lon="116.644412">
        <time>2021-11-19T13:22:43Z</time>
      </trkpt>
      <trkpt lat="39.896253" lon="116.644535">
        <time>2021-11-19T13:22:48Z</time>
      </trkpt>
      <trkpt lat="39.896225" lon="116.644729">
        <time>2021-11-19T13:22:53Z</time>
      </trkpt>
      <trkpt lat="39.896195" lon="116.644911">
        <time>2021-11-19T13:22:58Z</time>
      </trkpt>
      <trkpt lat="39.896161" lon="116.645098">
        <time>2021-11-19T13:23:03Z</time>
      </trkpt>
      <trkpt lat="39.896145" lon="116.645255">
        <time>2021-11-19T13:23:08Z</time>
      </trkpt>
      <trkpt lat="39.896148" lon="116.645373">
        <time>2021-11-19T13:23:13Z</time>
      </trkpt>
      <trkpt lat="39.896152" lon="116.645524">
        <time>2021-11-19T13:23:18Z</time>
      </trkpt>
      <trkpt lat="39.896112" lon="116.645687">
        <time>2021-11-19T13:23:23Z</time>
      </trkpt>
      <trkpt lat="39.896066" lon="116.64586">
        <time>2021-11-19T13:23:28Z</time>
      </trkpt>
      <trkpt lat="39.896024" lon="116.646017">
        <time>2021-11-19T13:23:33Z</time>
      </trkpt>
      <trkpt lat="39.896006" lon="116.646155">
        <time>2021-11-19T13:23:38Z</time>
      </trkpt>
      <trkpt lat="39.896007" lon="116.646287">
        <time>2021-11-19T13:23:43Z</time>
      </trkpt>
      <trkpt lat="39.895992" lon="116.646404">
        <time>2021-11-19T13:23:48Z</time>
      </trkpt>
      <trkpt lat="39.895982" lon="116.646549">
        <time>2021-11-19T13:23:53Z</time>
      </trkpt>
      <trkpt lat="39.895958" lon="116.646719">
        <time>2021-11-19T13:23:58Z</time>
      </trkpt>
      <trkpt lat="39.89591" lon="116.646823">
        <time>2021-11-19T13:24:03Z</time>
      </trkpt>
      <trkpt lat="39.895795" lon="116.646788">
        <time>2021-11-19T13:24:08Z</time>
      </trkpt>
      <trkpt lat="39.895682" lon="116.646711">
        <time>2021-11-19T13:24:13Z</time>
      </trkpt>
      <trkpt lat="39.895568" lon="116.646632">
        <time>2021-11-19T13:24:18Z</time>
      </trkpt>
      <trkpt lat="39.895523" lon="116.646605">
        <time>2021-11-19T13:24:23Z</time>
      </trkpt>
      <trkpt lat="39.895523" lon="116.646605">
        <time>2021-11-19T13:24:28Z</time>
      </trkpt>
      <trkpt lat="39.895376" lon="116.646511">
        <time>2021-11-19T13:24:33Z</time>
      </trkpt>
      <trkpt lat="39.895252" lon="116.646461">
        <time>2021-11-19T13:24:38Z</time>
      </trkpt>
      <trkpt lat="39.895124" lon="116.646403">
        <time>2021-11-19T13:24:43Z</time>
      </trkpt>
      <trkpt lat="39.894903" lon="116.646357">
        <time>2021-11-19T13:24:48Z</time>
      </trkpt>
      <trkpt lat="39.894883" lon="116.646349">
        <time>2021-11-19T13:24:53Z</time>
      </trkpt>
      <trkpt lat="39.894758" lon="116.646353">
        <time>2021-11-19T13:24:58Z</time>
      </trkpt>
      <trkpt lat="39.894719" lon="116.646315">
        <time>2021-11-19T13:25:03Z</time>
      </trkpt>
      <trkpt lat="39.894634" lon="116.646231">
        <time>2021-11-19T13:25:08Z</time>
      </trkpt>
      <trkpt lat="39.894544" lon="116.646123">
        <time>2021-11-19T13:25:13Z</time>
      </trkpt>
      <trkpt lat="39.894427" lon="116.646061">
        <time>2021-11-19T13:25:18Z</time>
      </trkpt>
      <trkpt lat="39.894306" lon="116.646127">
        <time>2021-11-19T13:25:23Z</time>
      </trkpt>
      <trkpt lat="39.894177" lon="116.646151">
        <time>2021-11-19T13:25:28Z</time>
      </trkpt>
      <trkpt lat="39.894068" lon="116.646072">
        <time>2021-11-19T13:25:33Z</time>
      </trkpt>
      <trkpt lat="39.894016" lon="116.645983">
        <time>2021-11-19T13:25:38Z</time>
      </trkpt>
      <trkpt lat="39.893935" lon="116.645916">
        <time>2021-11-19T13:25:43Z</time>
      </trkpt>
      <trkpt lat="39.893849" lon="116.645975">
        <time>2021-11-19T13:25:48Z</time>
      </trkpt>
      <trkpt lat="39.893794" lon="116.646084">
        <time>2021-11-19T13:25:53Z</time>
      </trkpt>
      <trkpt lat="39.893725" lon="116.64621">
        <time>2021-11-19T13:25:58Z</time>
      </trkpt>
      <trkpt lat="39.893653" lon="116.646333">
        <time>2021-11-19T13:26:03Z</time>
      </trkpt>
      <trkpt lat="39.89359" lon="116.646357">
        <time>2021-11-19T13:26:08Z</time>
      </trkpt>
      <trkpt lat="39.893484" lon="116.646322">
        <time>2021-11-19T13:26:13Z</time>
      </trkpt>
      <trkpt lat="39.89339" lon="116.646254">
        <time>2021-11-19T13:26:18Z</time>
      </trkpt>
      <trkpt lat="39.893298" lon="116.646197">
        <time>2021-11-19T13:26:23Z</time>
      </trkpt>
      <trkpt lat="39.893194" lon="116.646124">
        <time>2021-11-19T13:26:28Z</time>
      </trkpt>
      <trkpt lat="39.893091" lon="116.646061">
        <time>2021-11-19T13:26:33Z</time>
      </trkpt>
      <trkpt lat="39.892967" lon="116.645977">
        <time>2021-11-19T13:26:38Z</time>
      </trkpt>
      <trkpt lat="39.892852" lon="116.645927">
        <time>2021-11-19T13:26:43Z</time>
      </trkpt>
      <trkpt lat="39.892744" lon="116.645865">
        <time>2021-11-19T13:26:48Z</time>
      </trkpt>
      <trkpt lat="39.892647" lon="116.645814">
        <time>2021-11-19T13:26:53Z</time>
      </trkpt>
      <trkpt lat="39.892538" lon="116.645743">
        <time>2021-11-19T13:26:58Z</time>
      </trkpt>
      <trkpt lat="39.892399" lon="116.645689">
        <time>2021-11-19T13:27:03Z</time>
      </trkpt>
      <trkpt lat="39.892332" lon="116.645674">
        <time>2021-11-19T13:27:08Z</time>
      </trkpt>
      <trkpt lat="39.892254" lon="116.645642">
        <time>2021-11-19T13:27:13Z</time>
      </trkpt>
      <trkpt lat="39.892191" lon="116.645609">
        <time>2021-11-19T13:27:18Z</time>
      </trkpt>
      <trkpt lat="39.892112" lon="116.645589">
        <time>2021-11-19T13:27:23Z</time>
      </trkpt>
      <trkpt lat="39.89202" lon="116.645563">
        <time>2021-11-19T13:27:28Z</time>
      </trkpt>
      <trkpt lat="39.891905" lon="116.645493">
        <time>2021-11-19T13:27:33Z</time>
      </trkpt>
      <trkpt lat="39.891806" lon="116.645439">
        <time>2021-11-19T13:27:38Z</time>
      </trkpt>
      <trkpt lat="39.891711" lon="116.645396">
        <time>2021-11-19T13:27:43Z</time>
      </trkpt>
      <trkpt lat="39.891629" lon="116.645308">
        <time>2021-11-19T13:27:48Z</time>
      </trkpt>
      <trkpt lat="39.891538" lon="116.645294">
        <time>2021-11-19T13:27:53Z</time>
      </trkpt>
      <trkpt lat="39.891575" lon="116.645387">
        <time>2021-11-19T13:27:58Z</time>
      </trkpt>
      <trkpt lat="39.891703" lon="116.645445">
        <time>2021-11-19T13:28:03Z</time>
      </trkpt>
      <trkpt lat="39.891812" lon="116.645488">
        <time>2021-11-19T13:28:08Z</time>
      </trkpt>
      <trkpt lat="39.891904" lon="116.645477">
        <time>2021-11-19T13:28:13Z</time>
      </trkpt>
      <trkpt lat="39.892023" lon="116.645544">
        <time>2021-11-19T13:28:18Z</time>
      </trkpt>
      <trkpt lat="39.892147" lon="116.645631">
        <time>2021-11-19T13:28:23Z</time>
      </trkpt>
      <trkpt lat="39.892255" lon="116.645713">
        <time>2021-11-19T13:28:28Z</time>
      </trkpt>
      <trkpt lat="39.89236" lon="116.645783">
        <time>2021-11-19T13:28:33Z</time>
      </trkpt>
      <trkpt lat="39.892483" lon="116.645838">
        <time>2021-11-19T13:28:38Z</time>
      </trkpt>
      <trkpt lat="39.892594" lon="116.645875">
        <time>2021-11-19T13:28:43Z</time>
      </trkpt>
      <trkpt lat="39.892711" lon="116.645954">
        <time>2021-11-19T13:28:48Z</time>
      </trkpt>
      <trkpt lat="39.892808" lon="116.646013">
        <time>2021-11-19T13:28:53Z</time>
      </trkpt>
      <trkpt lat="39.892926" lon="116.646042">
        <time>2021-11-19T13:28:58Z</time>
      </trkpt>
      <trkpt lat="39.893052" lon="116.646048">
        <time>2021-11-19T13:29:03Z</time>
      </trkpt>
      <trkpt lat="39.893177" lon="116.6461">
        <time>2021-11-19T13:29:08Z</time>
      </trkpt>
      <trkpt lat="39.893274" lon="116.646144">
        <time>2021-11-19T13:29:13Z</time>
      </trkpt>
      <trkpt lat="39.893377" lon="116.646196">
        <time>2021-11-19T13:29:18Z</time>
      </trkpt>
      <trkpt lat="39.893474" lon="116.646228">
        <time>2021-11-19T13:29:23Z</time>
      </trkpt>
      <trkpt lat="39.89362" lon="116.646328">
        <time>2021-11-19T13:29:28Z</time>
      </trkpt>
      <trkpt lat="39.893658" lon="116.64635">
        <time>2021-11-19T13:29:33Z</time>
      </trkpt>
      <trkpt lat="39.893783" lon="116.646341">
        <time>2021-11-19T13:29:38Z</time>
      </trkpt>
      <trkpt lat="39.893868" lon="116.646233">
        <time>2021-11-19T13:29:43Z</time>
      </trkpt>
      <trkpt lat="39.89393" lon="116.646123">
        <time>2021-11-19T13:29:48Z</time>
      </trkpt>
      <trkpt lat="39.893939" lon="116.646014">
        <time>2021-11-19T13:29:53Z</time>
      </trkpt>
      <trkpt lat="39.893968" lon="116.645896">
        <time>2021-11-19T13:29:58Z</time>
      </trkpt>
      <trkpt lat="39.894114" lon="116.645912">
        <time>2021-11-19T13:30:03Z</time>
      </trkpt>
      <trkpt lat="39.894279" lon="116.646021">
        <time>2021-11-19T13:30:08Z</time>
      </trkpt>
      <trkpt lat="39.894325" lon="116.646044">
        <time>2021-11-19T13:30:13Z</time>
      </trkpt>
      <trkpt lat="39.894426" lon="116.646096">
        <time>2021-11-19T13:30:18Z</time>
      </trkpt>
      <trkpt lat="39.894547" lon="116.646179">
        <time>2021-11-19T13:30:23Z</time>
      </trkpt>
      <trkpt lat="39.894662" lon="116.64626">
        <time>2021-11-19T13:30:28Z</time>
      </trkpt>
      <trkpt lat="39.894773" lon="116.646324">
        <time>2021-11-19T13:30:33Z</time>
      </trkpt>
      <trkpt lat="39.894881" lon="116.646392">
        <time>2021-11-19T13:30:38Z</time>
      </trkpt>
      <trkpt lat="39.894941" lon="116.646404">
        <time>2021-11-19T13:30:43Z</time>
      </trkpt>
      <trkpt lat="39.895016" lon="116.646397">
        <time>2021-11-19T13:30:48Z</time>
      </trkpt>
      <trkpt lat="39.895106" lon="116.646441">
        <time>2021-11-19T13:30:53Z</time>
      </trkpt>
      <trkpt lat="39.895211" lon="116.646488">
        <time>2021-11-19T13:30:58Z</time>
      </trkpt>
      <trkpt lat="39.895313" lon="116.64654">
        <time>2021-11-19T13:31:03Z</time>
      </trkpt>
      <trkpt lat="39.895443" lon="116.646631">
        <time>2021-11-19T13:31:08Z</time>
      </trkpt>
      <trkpt lat="39.895503" lon="116.646668">
        <time>2021-11-19T13:31:13Z</time>
      </trkpt>
      <trkpt lat="39.895607" lon="116.646718">
        <time>2021-11-19T13:31:18Z</time>
      </trkpt>
      <trkpt lat="39.895721" lon="116.64677">
        <time>2021-11-19T13:31:23Z</time>
      </trkpt>
      <trkpt lat="39.895832" lon="116.646809">
        <time>2021-11-19T13:31:28Z</time>
      </trkpt>
      <trkpt lat="39.895939" lon="116.646837">
        <time>2021-11-19T13:31:33Z</time>
      </trkpt>
      <trkpt lat="39.896021" lon="116.646843">
        <time>2021-11-19T13:31:38Z</time>
      </trkpt>
      <trkpt lat="39.896068" lon="116.64676">
        <time>2021-11-19T13:31:43Z</time>
      </trkpt>
      <trkpt lat="39.896061" lon="116.646596">
        <time>2021-11-19T13:31:48Z</time>
      </trkpt>
      <trkpt lat="39.896055" lon="116.646453">
        <time>2021-11-19T13:31:53Z</time>
      </trkpt>
      <trkpt lat="39.896067" lon="116.646293">
        <time>2021-11-19T13:31:58Z</time>
      </trkpt>
      <trkpt lat="39.896088" lon="116.64612">
        <time>2021-11-19T13:32:03Z</time>
      </trkpt>
      <trkpt lat="39.896101" lon="116.645944">
        <time>2021-11-19T13:32:08Z</time>
      </trkpt>
      <trkpt lat="39.896124" lon="116.645787">
        <time>2021-11-19T13:32:13Z</time>
      </trkpt>
      <trkpt lat="39.896139" lon="116.645659">
        <time>2021-11-19T13:32:18Z</time>
      </trkpt>
      <trkpt lat="39.896137" lon="116.645528">
        <time>2021-11-19T13:32:23Z</time>
      </trkpt>
      <trkpt lat="39.896158" lon="116.645401">
        <time>2021-11-19T13:32:28Z</time>
      </trkpt>
      <trkpt lat="39.896163" lon="116.64526">
        <time>2021-11-19T13:32:33Z</time>
      </trkpt>
      <trkpt lat="39.896175" lon="116.64516">
        <time>2021-11-19T13:32:38Z</time>
      </trkpt>
      <trkpt lat="39.896186" lon="116.645017">
        <time>2021-11-19T13:32:43Z</time>
      </trkpt>
      <trkpt lat="39.896212" lon="116.644944">
        <time>2021-11-19T13:32:48Z</time>
      </trkpt>
      <trkpt lat="39.896211" lon="116.644868">
        <time>2021-11-19T13:32:53Z</time>
      </trkpt>
      <trkpt lat="39.896206" lon="116.644747">
        <time>2021-11-19T13:32:58Z</time>
      </trkpt>
      <trkpt lat="39.896218" lon="116.644621">
        <time>2021-11-19T13:33:03Z</time>
      </trkpt>
      <trkpt lat="39.896198" lon="116.644522">
        <time>2021-11-19T13:33:08Z</time>
      </trkpt>
      <trkpt lat="39.896215" lon="116.644238">
        <time>2021-11-19T13:33:13Z</time>
      </trkpt>
      <trkpt lat="39.896222" lon="116.644213">
        <time>2021-11-19T13:33:18Z</time>
      </trkpt>
      <trkpt lat="39.896242" lon="116.64408">
        <time>2021-11-19T13:33:23Z</time>
      </trkpt>
      <trkpt lat="39.896235" lon="116.643926">
        <time>2021-11-19T13:33:28Z</time>
      </trkpt>
      <trkpt lat="39.896238" lon="116.643792">
        <time>2021-11-19T13:33:33Z</time>
      </trkpt>
      <trkpt lat="39.896235" lon="116.643666">
        <time>2021-11-19T13:33:38Z</time>
      </trkpt>
      <trkpt lat="39.896234" lon="116.64353">
        <time>2021-11-19T13:33:43Z</time>
      </trkpt>
      <trkpt lat="39.896225" lon="116.643364">
        <time>2021-11-19T13:33:48Z</time>
      </trkpt>
      <trkpt lat="39.896224" lon="116.643221">
        <time>2021-11-19T13:33:53Z</time>
      </trkpt>
      <trkpt lat="39.896207" lon="116.643081">
        <time>2021-11-19T13:33:58Z</time>
      </trkpt>
      <trkpt lat="39.896177" lon="116.642941">
        <time>2021-11-19T13:34:03Z</time>
      </trkpt>
      <trkpt lat="39.896187" lon="116.642823">
        <time>2021-11-19T13:34:08Z</time>
      </trkpt>
      <trkpt lat="39.89617" lon="116.642689">
        <time>2021-11-19T13:34:13Z</time>
      </trkpt>
      <trkpt lat="39.896173" lon="116.642511">
        <time>2021-11-19T13:34:18Z</time>
      </trkpt>
      <trkpt lat="39.896196" lon="116.642395">
        <time>2021-11-19T13:34:23Z</time>
      </trkpt>
      <trkpt lat="39.896219" lon="116.642239">
        <time>2021-11-19T13:34:28Z</time>
      </trkpt>
      <trkpt lat="39.896244" lon="116.642103">
        <time>2021-11-19T13:34:33Z</time>
      </trkpt>
      <trkpt lat="39.896262" lon="116.64196">
        <time>2021-11-19T13:34:38Z</time>
      </trkpt>
      <trkpt lat="39.896255" lon="116.641812">
        <time>2021-11-19T13:34:43Z</time>
      </trkpt>
      <trkpt lat="39.896269" lon="116.641652">
        <time>2021-11-19T13:34:48Z</time>
      </trkpt>
      <trkpt lat="39.896275" lon="116.641516">
        <time>2021-11-19T13:34:53Z</time>
      </trkpt>
      <trkpt lat="39.896271" lon="116.641388">
        <time>2021-11-19T13:34:58Z</time>
      </trkpt>
      <trkpt lat="39.896289" lon="116.641305">
        <time>2021-11-19T13:35:03Z</time>
      </trkpt>
      <trkpt lat="39.896292" lon="116.641242">
        <time>2021-11-19T13:35:08Z</time>
      </trkpt>
      <trkpt lat="39.896287" lon="116.641149">
        <time>2021-11-19T13:35:13Z</time>
      </trkpt>
      <trkpt lat="39.896286" lon="116.64104">
        <time>2021-11-19T13:35:18Z</time>
      </trkpt>
      <trkpt lat="39.896294" lon="116.640923">
        <time>2021-11-19T13:35:23Z</time>
      </trkpt>
      <trkpt lat="39.896301" lon="116.640783">
        <time>2021-11-19T13:35:28Z</time>
      </trkpt>
      <trkpt lat="39.896302" lon="116.640633">
        <time>2021-11-19T13:35:33Z</time>
      </trkpt>
      <trkpt lat="39.89629" lon="116.640511">
        <time>2021-11-19T13:35:38Z</time>
      </trkpt>
      <trkpt lat="39.89634" lon="116.640374">
        <time>2021-11-19T13:35:43Z</time>
      </trkpt>
      <trkpt lat="39.896418" lon="116.640452">
        <time>2021-11-19T13:35:48Z</time>
      </trkpt>
      <trkpt lat="39.89653" lon="116.640502">
        <time>2021-11-19T13:35:53Z</time>
      </trkpt>
      <trkpt lat="39.896662" lon="116.640532">
        <time>2021-11-19T13:35:58Z</time>
      </trkpt>
      <trkpt lat="39.896795" lon="116.640577">
        <time>2021-11-19T13:36:03Z</time>
      </trkpt>
      <trkpt lat="39.896905" lon="116.640628">
        <time>2021-11-19T13:36:08Z</time>
      </trkpt>
      <trkpt lat="39.897034" lon="116.640693">
        <time>2021-11-19T13:36:13Z</time>
      </trkpt>
      <trkpt lat="39.897137" lon="116.640739">
        <time>2021-11-19T13:36:18Z</time>
      </trkpt>
      <trkpt lat="39.897186" lon="116.640771">
        <time>2021-11-19T13:36:23Z</time>
      </trkpt>
      <trkpt lat="39.89731" lon="116.640859">
        <time>2021-11-19T13:36:28Z</time>
      </trkpt>
      <trkpt lat="39.897405" lon="116.64092">
        <time>2021-11-19T13:36:33Z</time>
      </trkpt>
      <trkpt lat="39.897484" lon="116.640988">
        <time>2021-11-19T13:36:38Z</time>
      </trkpt>
      <trkpt lat="39.897595" lon="116.641057">
        <time>2021-11-19T13:36:43Z</time>
      </trkpt>
      <trkpt lat="39.897724" lon="116.641099">
        <time>2021-11-19T13:36:48Z</time>
      </trkpt>
      <trkpt lat="39.897819" lon="116.641145">
        <time>2021-11-19T13:36:53Z</time>
      </trkpt>
      <trkpt lat="39.897935" lon="116.641224">
        <time>2021-11-19T13:36:58Z</time>
      </trkpt>
      <trkpt lat="39.898041" lon="116.641266">
        <time>2021-11-19T13:37:03Z</time>
      </trkpt>
      <trkpt lat="39.898179" lon="116.64132">
        <time>2021-11-19T13:37:08Z</time>
      </trkpt>
      <trkpt lat="39.898309" lon="116.641361">
        <time>2021-11-19T13:37:13Z</time>
      </trkpt>
      <trkpt lat="39.898405" lon="116.641341">
        <time>2021-11-19T13:37:18Z</time>
      </trkpt>
      <trkpt lat="39.898468" lon="116.641414">
        <time>2021-11-19T13:37:23Z</time>
      </trkpt>
      <trkpt lat="39.898438" lon="116.641554">
        <time>2021-11-19T13:37:28Z</time>
      </trkpt>
      <trkpt lat="39.898369" lon="116.641678">
        <time>2021-11-19T13:37:33Z</time>
      </trkpt>
      <trkpt lat="39.898313" lon="116.641841">
        <time>2021-11-19T13:37:38Z</time>
      </trkpt>
      <trkpt lat="39.898304" lon="116.641982">
        <time>2021-11-19T13:37:43Z</time>
      </trkpt>
      <trkpt lat="39.898286" lon="116.642129">
        <time>2021-11-19T13:37:48Z</time>
      </trkpt>
      <trkpt lat="39.89828" lon="116.642269">
        <time>2021-11-19T13:37:53Z</time>
      </trkpt>
      <trkpt lat="39.898292" lon="116.642406">
        <time>2021-11-19T13:37:58Z</time>
      </trkpt>
      <trkpt lat="39.898285" lon="116.642574">
        <time>2021-11-19T13:38:03Z</time>
      </trkpt>
      <trkpt lat="39.898269" lon="116.642732">
        <time>2021-11-19T13:38:08Z</time>
      </trkpt>
      <trkpt lat="39.898298" lon="116.642824">
        <time>2021-11-19T13:38:13Z</time>
      </trkpt>
      <trkpt lat="39.898294" lon="116.642931">
        <time>2021-11-19T13:38:18Z</time>
      </trkpt>
      <trkpt lat="39.898256" lon="116.642942">
        <time>2021-11-19T13:38:23Z</time>
      </trkpt>
      <trkpt lat="39.898254" lon="116.643145">
        <time>2021-11-19T13:38:28Z</time>
      </trkpt>
      <trkpt lat="39.898321" lon="116.643296">
        <time>2021-11-19T13:38:33Z</time>
      </trkpt>
      <trkpt lat="39.89831" lon="116.643537">
        <time>2021-11-19T13:38:38Z</time>
      </trkpt>
      <trkpt lat="39.898263" lon="116.643722">
        <time>2021-11-19T13:38:43Z</time>
      </trkpt>
      <trkpt lat="39.898235" lon="116.643877">
        <time>2021-11-19T13:38:48Z</time>
      </trkpt>
      <trkpt lat="39.898256" lon="116.643912">
        <time>2021-11-19T13:38:53Z</time>
      </trkpt>
      <trkpt lat="39.898303" lon="116.644109">
        <time>2021-11-19T13:38:58Z</time>
      </trkpt>
      <trkpt lat="39.898279" lon="116.644234">
        <time>2021-11-19T13:39:03Z</time>
      </trkpt>
      <trkpt lat="39.898342" lon="116.64433">
        <time>2021-11-19T13:39:08Z</time>
      </trkpt>
      <trkpt lat="39.898374" lon="116.644506">
        <time>2021-11-19T13:39:13Z</time>
      </trkpt>
      <trkpt lat="39.898378" lon="116.644712">
        <time>2021-11-19T13:39:18Z</time>
      </trkpt>
      <trkpt lat="39.898399" lon="116.644859">
        <time>2021-11-19T13:39:23Z</time>
      </trkpt>
      <trkpt lat="39.898407" lon="116.645054">
        <time>2021-11-19T13:39:28Z</time>
      </trkpt>
      <trkpt lat="39.898414" lon="116.645113">
        <time>2021-11-19T13:39:33Z</time>
      </trkpt>
      <trkpt lat="39.898452" lon="116.645288">
        <time>2021-11-19T13:39:38Z</time>
      </trkpt>
      <trkpt lat="39.898492" lon="116.645446">
        <time>2021-11-19T13:39:43Z</time>
      </trkpt>
      <trkpt lat="39.898492" lon="116.645617">
        <time>2021-11-19T13:39:48Z</time>
      </trkpt>
      <trkpt lat="39.898529" lon="116.645781">
        <time>2021-11-19T13:39:53Z</time>
      </trkpt>
      <trkpt lat="39.898603" lon="116.645974">
        <time>2021-11-19T13:39:58Z</time>
      </trkpt>
      <trkpt lat="39.898656" lon="116.646169">
        <time>2021-11-19T13:40:03Z</time>
      </trkpt>
      <trkpt lat="39.898689" lon="116.646327">
        <time>2021-11-19T13:40:08Z</time>
      </trkpt>
      <trkpt lat="39.898758" lon="116.646417">
        <time>2021-11-19T13:40:13Z</time>
      </trkpt>
      <trkpt lat="39.898803" lon="116.646511">
        <time>2021-11-19T13:40:18Z</time>
      </trkpt>
      <trkpt lat="39.898859" lon="116.646526">
        <time>2021-11-19T13:40:23Z</time>
      </trkpt>
      <trkpt lat="39.8989" lon="116.646642">
        <time>2021-11-19T13:40:28Z</time>
      </trkpt>
      <trkpt lat="39.898914" lon="116.646883">
        <time>2021-11-19T13:40:33Z</time>
      </trkpt>
      <trkpt lat="39.898937" lon="116.647122">
        <time>2021-11-19T13:40:38Z</time>
      </trkpt>
      <trkpt lat="39.898952" lon="116.647333">
        <time>2021-11-19T13:40:43Z</time>
      </trkpt>
      <trkpt lat="39.898981" lon="116.647556">
        <time>2021-11-19T13:40:48Z</time>
      </trkpt>
      <trkpt lat="39.899044" lon="116.647761">
        <time>2021-11-19T13:40:53Z</time>
      </trkpt>
      <trkpt lat="39.899029" lon="116.647947">
        <time>2021-11-19T13:40:58Z</time>
      </trkpt>
      <trkpt lat="39.898968" lon="116.648132">
        <time>2021-11-19T13:41:03Z</time>
      </trkpt>
      <trkpt lat="39.898941" lon="116.648269">
        <time>2021-11-19T13:41:08Z</time>
      </trkpt>
      <trkpt lat="39.898961" lon="116.6484">
        <time>2021-11-19T13:41:13Z</time>
      </trkpt>
      <trkpt lat="39.898955" lon="116.64853">
        <time>2021-11-19T13:41:18Z</time>
      </trkpt>
      <trkpt lat="39.89899" lon="116.64877">
        <time>2021-11-19T13:41:23Z</time>
      </trkpt>
      <trkpt lat="39.898989" lon="116.648841">
        <time>2021-11-19T13:41:28Z</time>
      </trkpt>
      <trkpt lat="39.898976" lon="116.649016">
        <time>2021-11-19T13:41:33Z</time>
      </trkpt>
      <trkpt lat="39.898985" lon="116.649149">
        <time>2021-11-19T13:41:38Z</time>
      </trkpt>
      <trkpt lat="39.898989" lon="116.649324">
        <time>2021-11-19T13:41:43Z</time>
      </trkpt>
      <trkpt lat="39.898949" lon="116.649432">
        <time>2021-11-19T13:41:48Z</time>
      </trkpt>
      <trkpt lat="39.898949" lon="116.649549">
        <time>2021-11-19T13:41:53Z</time>
      </trkpt>
      <trkpt lat="39.898985" lon="116.649696">
        <time>2021-11-19T13:41:58Z</time>
      </trkpt>
      <trkpt lat="39.898995" lon="116.649855">
        <time>2021-11-19T13:42:03Z</time>
      </trkpt>
      <trkpt lat="39.899005" lon="116.650045">
        <time>2021-11-19T13:42:08Z</time>
      </trkpt>
      <trkpt lat="39.899022" lon="116.650192">
        <time>2021-11-19T13:42:13Z</time>
      </trkpt>
      <trkpt lat="39.89902" lon="116.650325">
        <time>2021-11-19T13:42:18Z</time>
      </trkpt>
      <trkpt lat="39.899017" lon="116.650476">
        <time>2021-11-19T13:42:23Z</time>
      </trkpt>
      <trkpt lat="39.899005" lon="116.650586">
        <time>2021-11-19T13:42:28Z</time>
      </trkpt>
      <trkpt lat="39.899014" lon="116.650717">
        <time>2021-11-19T13:42:33Z</time>
      </trkpt>
      <trkpt lat="39.899048" lon="116.650895">
        <time>2021-11-19T13:42:38Z</time>
      </trkpt>
      <trkpt lat="39.899017" lon="116.651056">
        <time>2021-11-19T13:42:43Z</time>
      </trkpt>
      <trkpt lat="39.899017" lon="116.651056">
        <time>2021-11-19T13:42:48Z</time>
      </trkpt>
      <trkpt lat="39.899023" lon="116.651241">
        <time>2021-11-19T13:42:53Z</time>
      </trkpt>
      <trkpt lat="39.898957" lon="116.651428">
        <time>2021-11-19T13:42:58Z</time>
      </trkpt>
      <trkpt lat="39.898977" lon="116.651412">
        <time>2021-11-19T13:43:03Z</time>
      </trkpt>
      <trkpt lat="39.898956" lon="116.651337">
        <time>2021-11-19T13:43:08Z</time>
      </trkpt>
      <trkpt lat="39.898969" lon="116.651181">
        <time>2021-11-19T13:43:13Z</time>
      </trkpt>
      <trkpt lat="39.898965" lon="116.651049">
        <time>2021-11-19T13:43:18Z</time>
      </trkpt>
      <trkpt lat="39.899003" lon="116.65087">
        <time>2021-11-19T13:43:23Z</time>
      </trkpt>
      <trkpt lat="39.899047" lon="116.650688">
        <time>2021-11-19T13:43:28Z</time>
      </trkpt>
      <trkpt lat="39.899069" lon="116.650512">
        <time>2021-11-19T13:43:33Z</time>
      </trkpt>
      <trkpt lat="39.89909" lon="116.650368">
        <time>2021-11-19T13:43:38Z</time>
      </trkpt>
      <trkpt lat="39.89912" lon="116.650306">
        <time>2021-11-19T13:43:43Z</time>
      </trkpt>
      <trkpt lat="39.899145" lon="116.650202">
        <time>2021-11-19T13:43:48Z</time>
      </trkpt>
      <trkpt lat="39.899139" lon="116.650066">
        <time>2021-11-19T13:43:53Z</time>
      </trkpt>
      <trkpt lat="39.899142" lon="116.649942">
        <time>2021-11-19T13:43:58Z</time>
      </trkpt>
      <trkpt lat="39.899085" lon="116.649784">
        <time>2021-11-19T13:44:03Z</time>
      </trkpt>
      <trkpt lat="39.899029" lon="116.649627">
        <time>2021-11-19T13:44:08Z</time>
      </trkpt>
      <trkpt lat="39.899028" lon="116.649502">
        <time>2021-11-19T13:44:13Z</time>
      </trkpt>
      <trkpt lat="39.899026" lon="116.649403">
        <time>2021-11-19T13:44:18Z</time>
      </trkpt>
      <trkpt lat="39.899028" lon="116.649302">
        <time>2021-11-19T13:44:23Z</time>
      </trkpt>
      <trkpt lat="39.899024" lon="116.6492">
        <time>2021-11-19T13:44:28Z</time>
      </trkpt>
      <trkpt lat="39.899019" lon="116.649121">
        <time>2021-11-19T13:44:33Z</time>
      </trkpt>
      <trkpt lat="39.899021" lon="116.648879">
        <time>2021-11-19T13:44:38Z</time>
      </trkpt>
      <trkpt lat="39.899024" lon="116.648681">
        <time>2021-11-19T13:44:43Z</time>
      </trkpt>
      <trkpt lat="39.899008" lon="116.648599">
        <time>2021-11-19T13:44:48Z</time>
      </trkpt>
      <trkpt lat="39.899023" lon="116.648462">
        <time>2021-11-19T13:44:53Z</time>
      </trkpt>
      <trkpt lat="39.899044" lon="116.648339">
        <time>2021-11-19T13:44:58Z</time>
      </trkpt>
      <trkpt lat="39.899025" lon="116.648203">
        <time>2021-11-19T13:45:03Z</time>
      </trkpt>
      <trkpt lat="39.899062" lon="116.648044">
        <time>2021-11-19T13:45:08Z</time>
      </trkpt>
      <trkpt lat="39.899069" lon="116.64793">
        <time>2021-11-19T13:45:13Z</time>
      </trkpt>
      <trkpt lat="39.899036" lon="116.647865">
        <time>2021-11-19T13:45:18Z</time>
      </trkpt>
      <trkpt lat="39.899023" lon="116.647732">
        <time>2021-11-19T13:45:23Z</time>
      </trkpt>
      <trkpt lat="39.898988" lon="116.647608">
        <time>2021-11-19T13:45:28Z</time>
      </trkpt>
      <trkpt lat="39.898987" lon="116.647499">
        <time>2021-11-19T13:45:33Z</time>
      </trkpt>
      <trkpt lat="39.898944" lon="116.647363">
        <time>2021-11-19T13:45:38Z</time>
      </trkpt>
      <trkpt lat="39.89895" lon="116.647184">
        <time>2021-11-19T13:45:43Z</time>
      </trkpt>
      <trkpt lat="39.89894" lon="116.647036">
        <time>2021-11-19T13:45:48Z</time>
      </trkpt>
      <trkpt lat="39.898908" lon="116.646909">
        <time>2021-11-19T13:45:53Z</time>
      </trkpt>
      <trkpt lat="39.898876" lon="116.646745">
        <time>2021-11-19T13:45:58Z</time>
      </trkpt>
      <trkpt lat="39.898812" lon="116.646645">
        <time>2021-11-19T13:46:03Z</time>
      </trkpt>
      <trkpt lat="39.898744" lon="116.64656">
        <time>2021-11-19T13:46:08Z</time>
      </trkpt>
      <trkpt lat="39.898756" lon="116.646427">
        <time>2021-11-19T13:46:13Z</time>
      </trkpt>
      <trkpt lat="39.898745" lon="116.646294">
        <time>2021-11-19T13:46:18Z</time>
      </trkpt>
      <trkpt lat="39.898696" lon="116.646173">
        <time>2021-11-19T13:46:23Z</time>
      </trkpt>
      <trkpt lat="39.898655" lon="116.646033">
        <time>2021-11-19T13:46:28Z</time>
      </trkpt>
      <trkpt lat="39.898607" lon="116.645906">
        <time>2021-11-19T13:46:33Z</time>
      </trkpt>
      <trkpt lat="39.89856" lon="116.645769">
        <time>2021-11-19T13:46:38Z</time>
      </trkpt>
      <trkpt lat="39.898524" lon="116.645641">
        <time>2021-11-19T13:46:43Z</time>
      </trkpt>
      <trkpt lat="39.898466" lon="116.645506">
        <time>2021-11-19T13:46:48Z</time>
      </trkpt>
      <trkpt lat="39.898414" lon="116.645393">
        <time>2021-11-19T13:46:53Z</time>
      </trkpt>
      <trkpt lat="39.898389" lon="116.645254">
        <time>2021-11-19T13:46:58Z</time>
      </trkpt>
      <trkpt lat="39.898384" lon="116.645101">
        <time>2021-11-19T13:47:03Z</time>
      </trkpt>
      <trkpt lat="39.898419" lon="116.644951">
        <time>2021-11-19T13:47:08Z</time>
      </trkpt>
      <trkpt lat="39.898435" lon="116.64481">
        <time>2021-11-19T13:47:13Z</time>
      </trkpt>
      <trkpt lat="39.898357" lon="116.644691">
        <time>2021-11-19T13:47:18Z</time>
      </trkpt>
      <trkpt lat="39.898306" lon="116.644559">
        <time>2021-11-19T13:47:23Z</time>
      </trkpt>
      <trkpt lat="39.8983" lon="116.644394">
        <time>2021-11-19T13:47:28Z</time>
      </trkpt>
      <trkpt lat="39.898323" lon="116.644262">
        <time>2021-11-19T13:47:33Z</time>
      </trkpt>
      <trkpt lat="39.898347" lon="116.644134">
        <time>2021-11-19T13:47:38Z</time>
      </trkpt>
      <trkpt lat="39.898346" lon="116.643997">
        <time>2021-11-19T13:47:43Z</time>
      </trkpt>
      <trkpt lat="39.898326" lon="116.643928">
        <time>2021-11-19T13:47:48Z</time>
      </trkpt>
      <trkpt lat="39.898293" lon="116.643788">
        <time>2021-11-19T13:47:53Z</time>
      </trkpt>
      <trkpt lat="39.898299" lon="116.64365">
        <time>2021-11-19T13:47:58Z</time>
      </trkpt>
      <trkpt lat="39.898287" lon="116.643503">
        <time>2021-11-19T13:48:03Z</time>
      </trkpt>
      <trkpt lat="39.898312" lon="116.643338">
        <time>2021-11-19T13:48:08Z</time>
      </trkpt>
      <trkpt lat="39.898304" lon="116.643106">
        <time>2021-11-19T13:48:13Z</time>
      </trkpt>
      <trkpt lat="39.898306" lon="116.643042">
        <time>2021-11-19T13:48:18Z</time>
      </trkpt>
      <trkpt lat="39.898308" lon="116.642879">
        <time>2021-11-19T13:48:23Z</time>
      </trkpt>
      <trkpt lat="39.898379" lon="116.642735">
        <time>2021-11-19T13:48:28Z</time>
      </trkpt>
      <trkpt lat="39.898344" lon="116.64257">
        <time>2021-11-19T13:48:33Z</time>
      </trkpt>
      <trkpt lat="39.898337" lon="116.64244">
        <time>2021-11-19T13:48:38Z</time>
      </trkpt>
      <trkpt lat="39.898383" lon="116.642371">
        <time>2021-11-19T13:48:43Z</time>
      </trkpt>
      <trkpt lat="39.898393" lon="116.642153">
        <time>2021-11-19T13:48:48Z</time>
      </trkpt>
      <trkpt lat="39.898392" lon="116.642113">
        <time>2021-11-19T13:48:53Z</time>
      </trkpt>
      <trkpt lat="39.898411" lon="116.641925">
        <time>2021-11-19T13:48:58Z</time>
      </trkpt>
      <trkpt lat="39.898404" lon="116.641739">
        <time>2021-11-19T13:49:03Z</time>
      </trkpt>
      <trkpt lat="39.898417" lon="116.641554">
        <time>2021-11-19T13:49:08Z</time>
      </trkpt>
      <trkpt lat="39.898407" lon="116.641498">
        <time>2021-11-19T13:49:13Z</time>
      </trkpt>
      <trkpt lat="39.898421" lon="116.641509">
        <time>2021-11-19T13:49:18Z</time>
      </trkpt>
      <trkpt lat="39.898426" lon="116.641402">
        <time>2021-11-19T13:49:23Z</time>
      </trkpt>
      <trkpt lat="39.89834" lon="116.641308">
        <time>2021-11-19T13:49:28Z</time>
      </trkpt>
      <trkpt lat="39.898271" lon="116.641311">
        <time>2021-11-19T13:49:33Z</time>
      </trkpt>
      <trkpt lat="39.898243" lon="116.64128">
        <time>2021-11-19T13:49:38Z</time>
      </trkpt>
      <trkpt lat="39.898153" lon="116.641245">
        <time>2021-11-19T13:49:43Z</time>
      </trkpt>
      <trkpt lat="39.898036" lon="116.641233">
        <time>2021-11-19T13:49:48Z</time>
      </trkpt>
      <trkpt lat="39.897955" lon="116.641204">
        <time>2021-11-19T13:49:53Z</time>
      </trkpt>
      <trkpt lat="39.897918" lon="116.641176">
        <time>2021-11-19T13:49:58Z</time>
      </trkpt>
      <trkpt lat="39.897822" lon="116.641101">
        <time>2021-11-19T13:50:03Z</time>
      </trkpt>
      <trkpt lat="39.897694" lon="116.641028">
        <time>2021-11-19T13:50:08Z</time>
      </trkpt>
      <trkpt lat="39.897599" lon="116.640983">
        <time>2021-11-19T13:50:13Z</time>
      </trkpt>
      <trkpt lat="39.897435" lon="116.640902">
        <time>2021-11-19T13:50:18Z</time>
      </trkpt>
      <trkpt lat="39.897236" lon="116.640788">
        <time>2021-11-19T13:50:23Z</time>
      </trkpt>
      <trkpt lat="39.897073" lon="116.64068">
        <time>2021-11-19T13:50:28Z</time>
      </trkpt>
      <trkpt lat="39.89693" lon="116.640598">
        <time>2021-11-19T13:50:33Z</time>
      </trkpt>
      <trkpt lat="39.896809" lon="116.64053">
        <time>2021-11-19T13:50:38Z</time>
      </trkpt>
      <trkpt lat="39.89671" lon="116.640481">
        <time>2021-11-19T13:50:43Z</time>
      </trkpt>
      <trkpt lat="39.896565" lon="116.640421">
        <time>2021-11-19T13:50:48Z</time>
      </trkpt>
      <trkpt lat="39.896526" lon="116.640416">
        <time>2021-11-19T13:50:53Z</time>
      </trkpt>
      <trkpt lat="39.896469" lon="116.640407">
        <time>2021-11-19T13:50:58Z</time>
      </trkpt>
      <trkpt lat="39.896464" lon="116.640364">
        <time>2021-11-19T13:51:03Z</time>
      </trkpt>
      <trkpt lat="39.896357" lon="116.640305">
        <time>2021-11-19T13:51:08Z</time>
      </trkpt>
      <trkpt lat="39.896264" lon="116.640463">
        <time>2021-11-19T13:51:13Z</time>
      </trkpt>
      <trkpt lat="39.896252" lon="116.640795">
        <time>2021-11-19T13:51:18Z</time>
      </trkpt>
      <trkpt lat="39.896251" lon="116.640872">
        <time>2021-11-19T13:51:23Z</time>
      </trkpt>
      <trkpt lat="39.896236" lon="116.641058">
        <time>2021-11-19T13:51:28Z</time>
      </trkpt>
      <trkpt lat="39.896186" lon="116.64126">
        <time>2021-11-19T13:51:33Z</time>
      </trkpt>
      <trkpt lat="39.896162" lon="116.641424">
        <time>2021-11-19T13:51:38Z</time>
      </trkpt>
      <trkpt lat="39.896162" lon="116.641572">
        <time>2021-11-19T13:51:43Z</time>
      </trkpt>
      <trkpt lat="39.896166" lon="116.641669">
        <time>2021-11-19T13:51:48Z</time>
      </trkpt>
      <trkpt lat="39.896169" lon="116.641771">
        <time>2021-11-19T13:51:53Z</time>
      </trkpt>
      <trkpt lat="39.896179" lon="116.641896">
        <time>2021-11-19T13:51:58Z</time>
      </trkpt>
      <trkpt lat="39.896201" lon="116.642153">
        <time>2021-11-19T13:52:03Z</time>
      </trkpt>
      <trkpt lat="39.896225" lon="116.642239">
        <time>2021-11-19T13:52:08Z</time>
      </trkpt>
      <trkpt lat="39.896192" lon="116.642413">
        <time>2021-11-19T13:52:13Z</time>
      </trkpt>
      <trkpt lat="39.896155" lon="116.642568">
        <time>2021-11-19T13:52:18Z</time>
      </trkpt>
      <trkpt lat="39.896151" lon="116.642724">
        <time>2021-11-19T13:52:23Z</time>
      </trkpt>
      <trkpt lat="39.896183" lon="116.642903">
        <time>2021-11-19T13:52:28Z</time>
      </trkpt>
      <trkpt lat="39.896184" lon="116.642976">
        <time>2021-11-19T13:52:33Z</time>
      </trkpt>
      <trkpt lat="39.896155" lon="116.643153">
        <time>2021-11-19T13:52:38Z</time>
      </trkpt>
      <trkpt lat="39.896172" lon="116.643356">
        <time>2021-11-19T13:52:43Z</time>
      </trkpt>
      <trkpt lat="39.896175" lon="116.64346">
        <time>2021-11-19T13:52:48Z</time>
      </trkpt>
      <trkpt lat="39.896164" lon="116.643653">
        <time>2021-11-19T13:52:53Z</time>
      </trkpt>
      <trkpt lat="39.896155" lon="116.643818">
        <time>2021-11-19T13:52:58Z</time>
      </trkpt>
      <trkpt lat="39.896173" lon="116.643951">
        <time>2021-11-19T13:53:03Z</time>
      </trkpt>
      <trkpt lat="39.896174" lon="116.644105">
        <time>2021-11-19T13:53:08Z</time>
      </trkpt>
      <trkpt lat="39.896167" lon="116.644272">
        <time>2021-11-19T13:53:13Z</time>
      </trkpt>
      <trkpt lat="39.896182" lon="116.644517">
        <time>2021-11-19T13:53:18Z</time>
      </trkpt>
      <trkpt lat="39.896188" lon="116.644595">
        <time>2021-11-19T13:53:23Z</time>
      </trkpt>
      <trkpt lat="39.896208" lon="116.644757">
        <time>2021-11-19T13:53:28Z</time>
      </trkpt>
      <trkpt lat="39.896212" lon="116.644906">
        <time>2021-11-19T13:53:33Z</time>
      </trkpt>
      <trkpt lat="39.896171" lon="116.645277">
        <time>2021-11-19T13:53:38Z</time>
      </trkpt>
      <trkpt lat="39.896173" lon="116.645312">
        <time>2021-11-19T13:53:43Z</time>
      </trkpt>
      <trkpt lat="39.896156" lon="116.645466">
        <time>2021-11-19T13:53:48Z</time>
      </trkpt>
      <trkpt lat="39.896141" lon="116.645628">
        <time>2021-11-19T13:53:53Z</time>
      </trkpt>
      <trkpt lat="39.896095" lon="116.645793">
        <time>2021-11-19T13:53:58Z</time>
      </trkpt>
      <trkpt lat="39.896063" lon="116.645958">
        <time>2021-11-19T13:54:03Z</time>
      </trkpt>
      <trkpt lat="39.896028" lon="116.646144">
        <time>2021-11-19T13:54:08Z</time>
      </trkpt>
      <trkpt lat="39.896005" lon="116.646308">
        <time>2021-11-19T13:54:13Z</time>
      </trkpt>
      <trkpt lat="39.896" lon="116.646489">
        <time>2021-11-19T13:54:18Z</time>
      </trkpt>
      <trkpt lat="39.896009" lon="116.646616">
        <time>2021-11-19T13:54:23Z</time>
      </trkpt>
      <trkpt lat="39.895996" lon="116.646706">
        <time>2021-11-19T13:54:28Z</time>
      </trkpt>
      <trkpt lat="39.895943" lon="116.646775">
        <time>2021-11-19T13:54:33Z</time>
      </trkpt>
      <trkpt lat="39.89581" lon="116.646744">
        <time>2021-11-19T13:54:38Z</time>
      </trkpt>
      <trkpt lat="39.8957" lon="116.646698">
        <time>2021-11-19T13:54:43Z</time>
      </trkpt>
      <trkpt lat="39.895584" lon="116.646628">
        <time>2021-11-19T13:54:48Z</time>
      </trkpt>
      <trkpt lat="39.895462" lon="116.646559">
        <time>2021-11-19T13:54:53Z</time>
      </trkpt>
      <trkpt lat="39.895341" lon="116.646497">
        <time>2021-11-19T13:54:58Z</time>
      </trkpt>
      <trkpt lat="39.895216" lon="116.646434">
        <time>2021-11-19T13:55:03Z</time>
      </trkpt>
      <trkpt lat="39.895105" lon="116.646378">
        <time>2021-11-19T13:55:08Z</time>
      </trkpt>
      <trkpt lat="39.894941" lon="116.646284">
        <time>2021-11-19T13:55:13Z</time>
      </trkpt>
      <trkpt lat="39.894863" lon="116.646262">
        <time>2021-11-19T13:55:18Z</time>
      </trkpt>
      <trkpt lat="39.894737" lon="116.646217">
        <time>2021-11-19T13:55:23Z</time>
      </trkpt>
      <trkpt lat="39.894612" lon="116.646148">
        <time>2021-11-19T13:55:28Z</time>
      </trkpt>
      <trkpt lat="39.894466" lon="116.646096">
        <time>2021-11-19T13:55:33Z</time>
      </trkpt>
      <trkpt lat="39.894339" lon="116.646013">
        <time>2021-11-19T13:55:38Z</time>
      </trkpt>
      <trkpt lat="39.894225" lon="116.645984">
        <time>2021-11-19T13:55:43Z</time>
      </trkpt>
      <trkpt lat="39.894111" lon="116.645939">
        <time>2021-11-19T13:55:48Z</time>
      </trkpt>
      <trkpt lat="39.894049" lon="116.64588">
        <time>2021-11-19T13:55:53Z</time>
      </trkpt>
      <trkpt lat="39.894007" lon="116.645843">
        <time>2021-11-19T13:55:58Z</time>
      </trkpt>
      <trkpt lat="39.893947" lon="116.645892">
        <time>2021-11-19T13:56:03Z</time>
      </trkpt>
      <trkpt lat="39.893883" lon="116.645976">
        <time>2021-11-19T13:56:08Z</time>
      </trkpt>
      <trkpt lat="39.893816" lon="116.646067">
        <time>2021-11-19T13:56:13Z</time>
      </trkpt>
      <trkpt lat="39.893725" lon="116.646196">
        <time>2021-11-19T13:56:18Z</time>
      </trkpt>
      <trkpt lat="39.893627" lon="116.646319">
        <time>2021-11-19T13:56:23Z</time>
      </trkpt>
      <trkpt lat="39.893516" lon="116.646325">
        <time>2021-11-19T13:56:28Z</time>
      </trkpt>
      <trkpt lat="39.893402" lon="116.646273">
        <time>2021-11-19T13:56:33Z</time>
      </trkpt>
      <trkpt lat="39.893329" lon="116.646234">
        <time>2021-11-19T13:56:38Z</time>
      </trkpt>
      <trkpt lat="39.893244" lon="116.646171">
        <time>2021-11-19T13:56:43Z</time>
      </trkpt>
      <trkpt lat="39.893152" lon="116.64611">
        <time>2021-11-19T13:56:48Z</time>
      </trkpt>
      <trkpt lat="39.893051" lon="116.64605">
        <time>2021-11-19T13:56:53Z</time>
      </trkpt>
      <trkpt lat="39.892941" lon="116.645977">
        <time>2021-11-19T13:56:58Z</time>
      </trkpt>
      <trkpt lat="39.892831" lon="116.645915">
        <time>2021-11-19T13:57:03Z</time>
      </trkpt>
      <trkpt lat="39.892729" lon="116.64587">
        <time>2021-11-19T13:57:08Z</time>
      </trkpt>
      <trkpt lat="39.892602" lon="116.645829">
        <time>2021-11-19T13:57:13Z</time>
      </trkpt>
      <trkpt lat="39.892468" lon="116.645735">
        <time>2021-11-19T13:57:18Z</time>
      </trkpt>
      <trkpt lat="39.892355" lon="116.645672">
        <time>2021-11-19T13:57:23Z</time>
      </trkpt>
      <trkpt lat="39.892243" lon="116.645634">
        <time>2021-11-19T13:57:28Z</time>
      </trkpt>
      <trkpt lat="39.892125" lon="116.645603">
        <time>2021-11-19T13:57:33Z</time>
      </trkpt>
      <trkpt lat="39.892039" lon="116.645537">
        <time>2021-11-19T13:57:38Z</time>
      </trkpt>
      <trkpt lat="39.8919" lon="116.64544">
        <time>2021-11-19T13:57:43Z</time>
      </trkpt>
      <trkpt lat="39.891767" lon="116.645365">
        <time>2021-11-19T13:57:48Z</time>
      </trkpt>
      <trkpt lat="39.891633" lon="116.6453">
        <time>2021-11-19T13:57:53Z</time>
      </trkpt>
      <trkpt lat="39.891539" lon="116.645267">
        <time>2021-11-19T13:57:58Z</time>
      </trkpt>
      <trkpt lat="39.891533" lon="116.645329">
        <time>2021-11-19T13:58:03Z</time>
      </trkpt>
      <trkpt lat="39.891622" lon="116.645382">
        <time>2021-11-19T13:58:08Z</time>
      </trkpt>
      <trkpt lat="39.891761" lon="116.645439">
        <time>2021-11-19T13:58:13Z</time>
      </trkpt>
      <trkpt lat="39.891874" lon="116.645512">
        <time>2021-11-19T13:58:18Z</time>
      </trkpt>
      <trkpt lat="39.892001" lon="116.645585">
        <time>2021-11-19T13:58:23Z</time>
      </trkpt>
      <trkpt lat="39.892113" lon="116.645652">
        <time>2021-11-19T13:58:28Z</time>
      </trkpt>
      <trkpt lat="39.89222" lon="116.645741">
        <time>2021-11-19T13:58:33Z</time>
      </trkpt>
      <trkpt lat="39.892323" lon="116.645785">
        <time>2021-11-19T13:58:38Z</time>
      </trkpt>
      <trkpt lat="39.892433" lon="116.645813">
        <time>2021-11-19T13:58:43Z</time>
      </trkpt>
      <trkpt lat="39.892533" lon="116.645869">
        <time>2021-11-19T13:58:48Z</time>
      </trkpt>
      <trkpt lat="39.892599" lon="116.645907">
        <time>2021-11-19T13:58:53Z</time>
      </trkpt>
      <trkpt lat="39.892663" lon="116.645943">
        <time>2021-11-19T13:58:58Z</time>
      </trkpt>
      <trkpt lat="39.892733" lon="116.645965">
        <time>2021-11-19T13:59:03Z</time>
      </trkpt>
      <trkpt lat="39.892804" lon="116.645985">
        <time>2021-11-19T13:59:08Z</time>
      </trkpt>
      <trkpt lat="39.892907" lon="116.645976">
        <time>2021-11-19T13:59:13Z</time>
      </trkpt>
      <trkpt lat="39.893003" lon="116.646012">
        <time>2021-11-19T13:59:18Z</time>
      </trkpt>
      <trkpt lat="39.893101" lon="116.646065">
        <time>2021-11-19T13:59:23Z</time>
      </trkpt>
      <trkpt lat="39.893187" lon="116.646123">
        <time>2021-11-19T13:59:28Z</time>
      </trkpt>
      <trkpt lat="39.893294" lon="116.646158">
        <time>2021-11-19T13:59:33Z</time>
      </trkpt>
      <trkpt lat="39.893432" lon="116.646215">
        <time>2021-11-19T13:59:38Z</time>
      </trkpt>
      <trkpt lat="39.893544" lon="116.646331">
        <time>2021-11-19T13:59:43Z</time>
      </trkpt>
      <trkpt lat="39.893631" lon="116.646415">
        <time>2021-11-19T13:59:48Z</time>
      </trkpt>
      <trkpt lat="39.893745" lon="116.646352">
        <time>2021-11-19T13:59:53Z</time>
      </trkpt>
      <trkpt lat="39.893835" lon="116.64622">
        <time>2021-11-19T13:59:58Z</time>
      </trkpt>
      <trkpt lat="39.893904" lon="116.646088">
        <time>2021-11-19T14:00:03Z</time>
      </trkpt>
      <trkpt lat="39.893993" lon="116.645936">
        <time>2021-11-19T14:00:08Z</time>
      </trkpt>
      <trkpt lat="39.894113" lon="116.645919">
        <time>2021-11-19T14:00:13Z</time>
      </trkpt>
      <trkpt lat="39.894299" lon="116.64599">
        <time>2021-11-19T14:00:18Z</time>
      </trkpt>
      <trkpt lat="39.894371" lon="116.64602">
        <time>2021-11-19T14:00:23Z</time>
      </trkpt>
      <trkpt lat="39.894474" lon="116.646098">
        <time>2021-11-19T14:00:28Z</time>
      </trkpt>
      <trkpt lat="39.894567" lon="116.646218">
        <time>2021-11-19T14:00:33Z</time>
      </trkpt>
      <trkpt lat="39.894671" lon="116.646293">
        <time>2021-11-19T14:00:38Z</time>
      </trkpt>
      <trkpt lat="39.894781" lon="116.64633">
        <time>2021-11-19T14:00:43Z</time>
      </trkpt>
      <trkpt lat="39.894885" lon="116.64635">
        <time>2021-11-19T14:00:48Z</time>
      </trkpt>
      <trkpt lat="39.895032" lon="116.646419">
        <time>2021-11-19T14:00:53Z</time>
      </trkpt>
      <trkpt lat="39.895125" lon="116.646451">
        <time>2021-11-19T14:00:58Z</time>
      </trkpt>
      <trkpt lat="39.895234" lon="116.646516">
        <time>2021-11-19T14:01:03Z</time>
      </trkpt>
      <trkpt lat="39.895443" lon="116.646594">
        <time>2021-11-19T14:01:08Z</time>
      </trkpt>
      <trkpt lat="39.895466" lon="116.646602">
        <time>2021-11-19T14:01:13Z</time>
      </trkpt>
      <trkpt lat="39.895586" lon="116.646665">
        <time>2021-11-19T14:01:18Z</time>
      </trkpt>
      <trkpt lat="39.895713" lon="116.646744">
        <time>2021-11-19T14:01:23Z</time>
      </trkpt>
      <trkpt lat="39.895845" lon="116.646786">
        <time>2021-11-19T14:01:28Z</time>
      </trkpt>
      <trkpt lat="39.895919" lon="116.64681">
        <time>2021-11-19T14:01:33Z</time>
      </trkpt>
      <trkpt lat="39.895975" lon="116.646777">
        <time>2021-11-19T14:01:38Z</time>
      </trkpt>
      <trkpt lat="39.896046" lon="116.646714">
        <time>2021-11-19T14:01:43Z</time>
      </trkpt>
      <trkpt lat="39.89608" lon="116.646639">
        <time>2021-11-19T14:01:48Z</time>
      </trkpt>
      <trkpt lat="39.896094" lon="116.646544">
        <time>2021-11-19T14:01:53Z</time>
      </trkpt>
      <trkpt lat="39.896082" lon="116.646444">
        <time>2021-11-19T14:01:58Z</time>
      </trkpt>
      <trkpt lat="39.896105" lon="116.646356">
        <time>2021-11-19T14:02:03Z</time>
      </trkpt>
      <trkpt lat="39.896115" lon="116.646254">
        <time>2021-11-19T14:02:08Z</time>
      </trkpt>
      <trkpt lat="39.896125" lon="116.64615">
        <time>2021-11-19T14:02:13Z</time>
      </trkpt>
      <trkpt lat="39.896137" lon="116.646042">
        <time>2021-11-19T14:02:18Z</time>
      </trkpt>
      <trkpt lat="39.896142" lon="116.645918">
        <time>2021-11-19T14:02:23Z</time>
      </trkpt>
      <trkpt lat="39.896145" lon="116.645754">
        <time>2021-11-19T14:02:28Z</time>
      </trkpt>
      <trkpt lat="39.896129" lon="116.6456">
        <time>2021-11-19T14:02:33Z</time>
      </trkpt>
      <trkpt lat="39.896142" lon="116.645458">
        <time>2021-11-19T14:02:38Z</time>
      </trkpt>
      <trkpt lat="39.896191" lon="116.645343">
        <time>2021-11-19T14:02:43Z</time>
      </trkpt>
      <trkpt lat="39.896235" lon="116.645203">
        <time>2021-11-19T14:02:48Z</time>
      </trkpt>
      <trkpt lat="39.896259" lon="116.645044">
        <time>2021-11-19T14:02:53Z</time>
      </trkpt>
      <trkpt lat="39.896314" lon="116.644898">
        <time>2021-11-19T14:02:58Z</time>
      </trkpt>
      <trkpt lat="39.896319" lon="116.644716">
        <time>2021-11-19T14:03:03Z</time>
      </trkpt>
      <trkpt lat="39.896326" lon="116.644556">
        <time>2021-11-19T14:03:08Z</time>
      </trkpt>
      <trkpt lat="39.896324" lon="116.644432">
        <time>2021-11-19T14:03:13Z</time>
      </trkpt>
      <trkpt lat="39.896323" lon="116.644277">
        <time>2021-11-19T14:03:18Z</time>
      </trkpt>
      <trkpt lat="39.89631" lon="116.644138">
        <time>2021-11-19T14:03:23Z</time>
      </trkpt>
      <trkpt lat="39.896307" lon="116.643977">
        <time>2021-11-19T14:03:28Z</time>
      </trkpt>
      <trkpt lat="39.896297" lon="116.643804">
        <time>2021-11-19T14:03:33Z</time>
      </trkpt>
      <trkpt lat="39.896283" lon="116.643637">
        <time>2021-11-19T14:03:38Z</time>
      </trkpt>
      <trkpt lat="39.896263" lon="116.643491">
        <time>2021-11-19T14:03:43Z</time>
      </trkpt>
      <trkpt lat="39.896236" lon="116.643394">
        <time>2021-11-19T14:03:48Z</time>
      </trkpt>
      <trkpt lat="39.896218" lon="116.643282">
        <time>2021-11-19T14:03:53Z</time>
      </trkpt>
      <trkpt lat="39.896234" lon="116.643168">
        <time>2021-11-19T14:03:58Z</time>
      </trkpt>
      <trkpt lat="39.896256" lon="116.643084">
        <time>2021-11-19T14:04:03Z</time>
      </trkpt>
      <trkpt lat="39.896244" lon="116.642936">
        <time>2021-11-19T14:04:08Z</time>
      </trkpt>
      <trkpt lat="39.89624" lon="116.6428">
        <time>2021-11-19T14:04:13Z</time>
      </trkpt>
      <trkpt lat="39.89626" lon="116.642658">
        <time>2021-11-19T14:04:18Z</time>
      </trkpt>
      <trkpt lat="39.896277" lon="116.642476">
        <time>2021-11-19T14:04:23Z</time>
      </trkpt>
      <trkpt lat="39.896297" lon="116.642328">
        <time>2021-11-19T14:04:28Z</time>
      </trkpt>
      <trkpt lat="39.896314" lon="116.642187">
        <time>2021-11-19T14:04:33Z</time>
      </trkpt>
      <trkpt lat="39.896299" lon="116.642001">
        <time>2021-11-19T14:04:38Z</time>
      </trkpt>
      <trkpt lat="39.89629" lon="116.641864">
        <time>2021-11-19T14:04:43Z</time>
      </trkpt>
      <trkpt lat="39.896274" lon="116.641708">
        <time>2021-11-19T14:04:48Z</time>
      </trkpt>
      <trkpt lat="39.896246" lon="116.64157">
        <time>2021-11-19T14:04:53Z</time>
      </trkpt>
      <trkpt lat="39.896254" lon="116.641409">
        <time>2021-11-19T14:04:58Z</time>
      </trkpt>
      <trkpt lat="39.8963" lon="116.641247">
        <time>2021-11-19T14:05:03Z</time>
      </trkpt>
      <trkpt lat="39.896347" lon="116.641118">
        <time>2021-11-19T14:05:08Z</time>
      </trkpt>
      <trkpt lat="39.896359" lon="116.641031">
        <time>2021-11-19T14:05:13Z</time>
      </trkpt>
      <trkpt lat="39.89636" lon="116.640898">
        <time>2021-11-19T14:05:18Z</time>
      </trkpt>
      <trkpt lat="39.896322" lon="116.640754">
        <time>2021-11-19T14:05:23Z</time>
      </trkpt>
      <trkpt lat="39.896299" lon="116.640637">
        <time>2021-11-19T14:05:28Z</time>
      </trkpt>
      <trkpt lat="39.896313" lon="116.640546">
        <time>2021-11-19T14:05:33Z</time>
      </trkpt>
      <trkpt lat="39.896311" lon="116.6404">
        <time>2021-11-19T14:05:38Z</time>
      </trkpt>
      <trkpt lat="39.896302" lon="116.640171">
        <time>2021-11-19T14:05:43Z</time>
      </trkpt>
      <trkpt lat="39.896311" lon="116.639993">
        <time>2021-11-19T14:05:48Z</time>
      </trkpt>
      <trkpt lat="39.896311" lon="116.639833">
        <time>2021-11-19T14:05:53Z</time>
      </trkpt>
      <trkpt lat="39.896303" lon="116.639694">
        <time>2021-11-19T14:05:58Z</time>
      </trkpt>
      <trkpt lat="39.896289" lon="116.639492">
        <time>2021-11-19T14:06:03Z</time>
      </trkpt>
      <trkpt lat="39.896298" lon="116.639392">
        <time>2021-11-19T14:06:08Z</time>
      </trkpt>
      <trkpt lat="39.896288" lon="116.639286">
        <time>2021-11-19T14:06:13Z</time>
      </trkpt>
      <trkpt lat="39.896275" lon="116.639175">
        <time>2021-11-19T14:06:18Z</time>
      </trkpt>
      <trkpt lat="39.896251" lon="116.639084">
        <time>2021-11-19T14:06:23Z</time>
      </trkpt>
      <trkpt lat="39.896261" lon="116.638968">
        <time>2021-11-19T14:06:28Z</time>
      </trkpt>
      <trkpt lat="39.896279" lon="116.638857">
        <time>2021-11-19T14:06:33Z</time>
      </trkpt>
      <trkpt lat="39.896286" lon="116.638723">
        <time>2021-11-19T14:06:38Z</time>
      </trkpt>
      <trkpt lat="39.89627" lon="116.638583">
        <time>2021-11-19T14:06:43Z</time>
      </trkpt>
      <trkpt lat="39.896274" lon="116.638438">
        <time>2021-11-19T14:06:48Z</time>
      </trkpt>
      <trkpt lat="39.896265" lon="116.638288">
        <time>2021-11-19T14:06:53Z</time>
      </trkpt>
      <trkpt lat="39.896265" lon="116.638134">
        <time>2021-11-19T14:06:58Z</time>
      </trkpt>
      <trkpt lat="39.896247" lon="116.63797">
        <time>2021-11-19T14:07:03Z</time>
      </trkpt>
      <trkpt lat="39.896258" lon="116.637865">
        <time>2021-11-19T14:07:08Z</time>
      </trkpt>
      <trkpt lat="39.896239" lon="116.637696">
        <time>2021-11-19T14:07:13Z</time>
      </trkpt>
      <trkpt lat="39.896229" lon="116.637593">
        <time>2021-11-19T14:07:18Z</time>
      </trkpt>
      <trkpt lat="39.896217" lon="116.637499">
        <time>2021-11-19T14:07:23Z</time>
      </trkpt>
      <trkpt lat="39.896187" lon="116.637384">
        <time>2021-11-19T14:07:28Z</time>
      </trkpt>
      <trkpt lat="39.896178" lon="116.637285">
        <time>2021-11-19T14:07:33Z</time>
      </trkpt>
      <trkpt lat="39.896175" lon="116.63716">
        <time>2021-11-19T14:07:38Z</time>
      </trkpt>
      <trkpt lat="39.896144" lon="116.636971">
        <time>2021-11-19T14:07:43Z</time>
      </trkpt>
      <trkpt lat="39.896163" lon="116.636884">
        <time>2021-11-19T14:07:48Z</time>
      </trkpt>
      <trkpt lat="39.896072" lon="116.636732">
        <time>2021-11-19T14:07:53Z</time>
      </trkpt>
      <trkpt lat="39.895975" lon="116.636626">
        <time>2021-11-19T14:07:58Z</time>
      </trkpt>
      <trkpt lat="39.895913" lon="116.636545">
        <time>2021-11-19T14:08:03Z</time>
      </trkpt>
      <trkpt lat="39.895925" lon="116.636412">
        <time>2021-11-19T14:08:08Z</time>
      </trkpt>
      <trkpt lat="39.896132" lon="116.636312">
        <time>2021-11-19T14:08:13Z</time>
      </trkpt>
      <trkpt lat="39.896235" lon="116.636209">
        <time>2021-11-19T14:08:18Z</time>
      </trkpt>
      <trkpt lat="39.896307" lon="116.636104">
        <time>2021-11-19T14:08:23Z</time>
      </trkpt>
      <trkpt lat="39.89646" lon="116.636019">
        <time>2021-11-19T14:08:28Z</time>
      </trkpt>
      <trkpt lat="39.896708" lon="116.635891">
        <time>2021-11-19T14:08:33Z</time>
      </trkpt>
      <trkpt lat="39.896812" lon="116.635841">
        <time>2021-11-19T14:08:38Z</time>
      </trkpt>
      <trkpt lat="39.896961" lon="116.635758">
        <time>2021-11-19T14:08:43Z</time>
      </trkpt>
      <trkpt lat="39.897087" lon="116.635706">
        <time>2021-11-19T14:08:48Z</time>
      </trkpt>
      <trkpt lat="39.897151" lon="116.635636">
        <time>2021-11-19T14:08:53Z</time>
      </trkpt>
      <trkpt lat="39.897214" lon="116.635553">
        <time>2021-11-19T14:08:58Z</time>
      </trkpt>
      <trkpt lat="39.897507" lon="116.635392">
        <time>2021-11-19T14:09:03Z</time>
      </trkpt>
      <trkpt lat="39.897551" lon="116.63538">
        <time>2021-11-19T14:09:08Z</time>
      </trkpt>
      <trkpt lat="39.897677" lon="116.635349">
        <time>2021-11-19T14:09:13Z</time>
      </trkpt>
      <trkpt lat="39.897743" lon="116.635306">
        <time>2021-11-19T14:09:18Z</time>
      </trkpt>
      <trkpt lat="39.897807" lon="116.635249">
        <time>2021-11-19T14:09:23Z</time>
      </trkpt>
      <trkpt lat="39.897922" lon="116.635175">
        <time>2021-11-19T14:09:28Z</time>
      </trkpt>
      <trkpt lat="39.897996" lon="116.635101">
        <time>2021-11-19T14:09:33Z</time>
      </trkpt>
      <trkpt lat="39.898095" lon="116.63503">
        <time>2021-11-19T14:09:38Z</time>
      </trkpt>
      <trkpt lat="39.898253" lon="116.634954">
        <time>2021-11-19T14:09:43Z</time>
      </trkpt>
      <trkpt lat="39.898369" lon="116.634881">
        <time>2021-11-19T14:09:48Z</time>
      </trkpt>
      <trkpt lat="39.89846" lon="116.634809">
        <time>2021-11-19T14:09:53Z</time>
      </trkpt>
      <trkpt lat="39.898535" lon="116.634764">
        <time>2021-11-19T14:09:58Z</time>
      </trkpt>
      <trkpt lat="39.898583" lon="116.634707">
        <time>2021-11-19T14:10:03Z</time>
      </trkpt>
      <trkpt lat="39.898695" lon="116.634632">
        <time>2021-11-19T14:10:08Z</time>
      </trkpt>
      <trkpt lat="39.898823" lon="116.634565">
        <time>2021-11-19T14:10:13Z</time>
      </trkpt>
      <trkpt lat="39.898991" lon="116.634482">
        <time>2021-11-19T14:10:18Z</time>
      </trkpt>
      <trkpt lat="39.899155" lon="116.634389">
        <time>2021-11-19T14:10:23Z</time>
      </trkpt>
      <trkpt lat="39.899305" lon="116.634313">
        <time>2021-11-19T14:10:28Z</time>
      </trkpt>
      <trkpt lat="39.899444" lon="116.634261">
        <time>2021-11-19T14:10:33Z</time>
      </trkpt>
      <trkpt lat="39.899528" lon="116.634224">
        <time>2021-11-19T14:10:38Z</time>
      </trkpt>
      <trkpt lat="39.899565" lon="116.634182">
        <time>2021-11-19T14:10:43Z</time>
      </trkpt>
      <trkpt lat="39.899585" lon="116.634138">
        <time>2021-11-19T14:10:48Z</time>
      </trkpt>
      <trkpt lat="39.899643" lon="116.634086">
        <time>2021-11-19T14:10:53Z</time>
      </trkpt>
      <trkpt lat="39.899699" lon="116.633988">
        <time>2021-11-19T14:10:58Z</time>
      </trkpt>
      <trkpt lat="39.899779" lon="116.633939">
        <time>2021-11-19T14:11:03Z</time>
      </trkpt>
      <trkpt lat="39.899902" lon="116.633878">
        <time>2021-11-19T14:11:08Z</time>
      </trkpt>
      <trkpt lat="39.900033" lon="116.633839">
        <time>2021-11-19T14:11:13Z</time>
      </trkpt>
      <trkpt lat="39.900156" lon="116.633785">
        <time>2021-11-19T14:11:18Z</time>
      </trkpt>
      <trkpt lat="39.900407" lon="116.633606">
        <time>2021-11-19T14:11:23Z</time>
      </trkpt>
      <trkpt lat="39.900436" lon="116.633584">
        <time>2021-11-19T14:11:28Z</time>
      </trkpt>
      <trkpt lat="39.900544" lon="116.633484">
        <time>2021-11-19T14:11:33Z</time>
      </trkpt>
      <trkpt lat="39.900647" lon="116.633378">
        <time>2021-11-19T14:11:38Z</time>
      </trkpt>
      <trkpt lat="39.900704" lon="116.633308">
        <time>2021-11-19T14:11:43Z</time>
      </trkpt>
      <trkpt lat="39.900792" lon="116.633241">
        <time>2021-11-19T14:11:48Z</time>
      </trkpt>
      <trkpt lat="39.900924" lon="116.633216">
        <time>2021-11-19T14:11:53Z</time>
      </trkpt>
      <trkpt lat="39.901035" lon="116.633216">
        <time>2021-11-19T14:11:58Z</time>
      </trkpt>
      <trkpt lat="39.901021" lon="116.633151">
        <time>2021-11-19T14:12:03Z</time>
      </trkpt>
      <trkpt lat="39.90099" lon="116.633035">
        <time>2021-11-19T14:12:08Z</time>
      </trkpt>
      <trkpt lat="39.900926" lon="116.632981">
        <time>2021-11-19T14:12:13Z</time>
      </trkpt>
      <trkpt lat="39.90083" lon="116.632986">
        <time>2021-11-19T14:12:18Z</time>
      </trkpt>
      <trkpt lat="39.900689" lon="116.63302">
        <time>2021-11-19T14:12:23Z</time>
      </trkpt>
      <trkpt lat="39.900527" lon="116.633135">
        <time>2021-11-19T14:12:28Z</time>
      </trkpt>
      <trkpt lat="39.900388" lon="116.633211">
        <time>2021-11-19T14:12:33Z</time>
      </trkpt>
      <trkpt lat="39.900259" lon="116.633272">
        <time>2021-11-19T14:12:38Z</time>
      </trkpt>
      <trkpt lat="39.90012" lon="116.633363">
        <time>2021-11-19T14:12:43Z</time>
      </trkpt>
      <trkpt lat="39.899997" lon="116.633453">
        <time>2021-11-19T14:12:48Z</time>
      </trkpt>
      <trkpt lat="39.899882" lon="116.633523">
        <time>2021-11-19T14:12:53Z</time>
      </trkpt>
      <trkpt lat="39.89974" lon="116.633576">
        <time>2021-11-19T14:12:58Z</time>
      </trkpt>
      <trkpt lat="39.899641" lon="116.633647">
        <time>2021-11-19T14:13:03Z</time>
      </trkpt>
      <trkpt lat="39.899519" lon="116.633737">
        <time>2021-11-19T14:13:08Z</time>
      </trkpt>
      <trkpt lat="39.899399" lon="116.633797">
        <time>2021-11-19T14:13:13Z</time>
      </trkpt>
      <trkpt lat="39.899262" lon="116.633844">
        <time>2021-11-19T14:13:18Z</time>
      </trkpt>
      <trkpt lat="39.899127" lon="116.63392">
        <time>2021-11-19T14:13:23Z</time>
      </trkpt>
      <trkpt lat="39.899022" lon="116.634016">
        <time>2021-11-19T14:13:28Z</time>
      </trkpt>
      <trkpt lat="39.898925" lon="116.634081">
        <time>2021-11-19T14:13:33Z</time>
      </trkpt>
      <trkpt lat="39.898812" lon="116.634181">
        <time>2021-11-19T14:13:38Z</time>
      </trkpt>
      <trkpt lat="39.898662" lon="116.63425">
        <time>2021-11-19T14:13:43Z</time>
      </trkpt>
      <trkpt lat="39.898475" lon="116.634312">
        <time>2021-11-19T14:13:48Z</time>
      </trkpt>
      <trkpt lat="39.898313" lon="116.634465">
        <time>2021-11-19T14:13:53Z</time>
      </trkpt>
      <trkpt lat="39.898297" lon="116.634502">
        <time>2021-11-19T14:13:58Z</time>
      </trkpt>
      <trkpt lat="39.898168" lon="116.634586">
        <time>2021-11-19T14:14:03Z</time>
      </trkpt>
      <trkpt lat="39.898068" lon="116.634629">
        <time>2021-11-19T14:14:08Z</time>
      </trkpt>
      <trkpt lat="39.898015" lon="116.634559">
        <time>2021-11-19T14:14:13Z</time>
      </trkpt>
      <trkpt lat="39.897981" lon="116.634431">
        <time>2021-11-19T14:14:18Z</time>
      </trkpt>
      <trkpt lat="39.897995" lon="116.634338">
        <time>2021-11-19T14:14:23Z</time>
      </trkpt>
      <trkpt lat="39.897998" lon="116.634283">
        <time>2021-11-19T14:14:28Z</time>
      </trkpt>
      <trkpt lat="39.897743" lon="116.63403">
        <time>2021-11-19T14:14:33Z</time>
      </trkpt>
      <trkpt lat="39.897696" lon="116.63394">
        <time>2021-11-19T14:14:38Z</time>
      </trkpt>
      <trkpt lat="39.897653" lon="116.633845">
        <time>2021-11-19T14:14:43Z</time>
      </trkpt>
      <trkpt lat="39.8976" lon="116.633814">
        <time>2021-11-19T14:14:48Z</time>
      </trkpt>
      <trkpt lat="39.897502" lon="116.633811">
        <time>2021-11-19T14:14:53Z</time>
      </trkpt>
      <trkpt lat="39.897403" lon="116.633945">
        <time>2021-11-19T14:14:58Z</time>
      </trkpt>
      <trkpt lat="39.897438" lon="116.634107">
        <time>2021-11-19T14:15:03Z</time>
      </trkpt>
      <trkpt lat="39.897368" lon="116.634267">
        <time>2021-11-19T14:23:08Z</time>
      </trkpt>
    </trkseg>
  </trk>
</gpx>