<?xml version="1.0" encoding="UTF-8"?>
<gpx xmlns="http://www.topografix.com/GPX/1/1" xmlns:gpxtpx="http://www.garmin.com/xmlschemas/TrackPointExtension/v1" xmlns:xsi="http://www.w3.org/2001/XMLSchema-instance" xsi:schemaLocation="http://www.topografix.com/GPX/1/1 http://www.topografix.com/GPX/1/1/gpx.xsd" version="1.1" creator="gpx.py -- https://github.com/tkrajina/gpxpy">
  <trk>
    <name>gpx from keep</name>
    <trkseg>
      <trkpt lat="39.897389" lon="116.633697">
        <time>2021-11-28T09:38:08Z</time>
      </trkpt>
      <trkpt lat="39.897389" lon="116.633697">
        <time>2021-11-28T09:38:13Z</time>
      </trkpt>
      <trkpt lat="39.897539" lon="116.633854">
        <time>2021-11-28T09:38:18Z</time>
      </trkpt>
      <trkpt lat="39.89762" lon="116.633946">
        <time>2021-11-28T09:38:23Z</time>
      </trkpt>
      <trkpt lat="39.897944" lon="116.63418">
        <time>2021-11-28T09:38:28Z</time>
      </trkpt>
      <trkpt lat="39.897922" lon="116.634227">
        <time>2021-11-28T09:38:33Z</time>
      </trkpt>
      <trkpt lat="39.897845" lon="116.634265">
        <time>2021-11-28T09:38:38Z</time>
      </trkpt>
      <trkpt lat="39.897884" lon="116.63438">
        <time>2021-11-28T09:38:43Z</time>
      </trkpt>
      <trkpt lat="39.89793" lon="116.634522">
        <time>2021-11-28T09:38:48Z</time>
      </trkpt>
      <trkpt lat="39.898026" lon="116.634702">
        <time>2021-11-28T09:38:53Z</time>
      </trkpt>
      <trkpt lat="39.898079" lon="116.634815">
        <time>2021-11-28T09:38:58Z</time>
      </trkpt>
      <trkpt lat="39.898124" lon="116.634937">
        <time>2021-11-28T09:39:03Z</time>
      </trkpt>
      <trkpt lat="39.898095" lon="116.635079">
        <time>2021-11-28T09:39:08Z</time>
      </trkpt>
      <trkpt lat="39.897975" lon="116.635161">
        <time>2021-11-28T09:39:13Z</time>
      </trkpt>
      <trkpt lat="39.897839" lon="116.635239">
        <time>2021-11-28T09:39:18Z</time>
      </trkpt>
      <trkpt lat="39.897693" lon="116.635332">
        <time>2021-11-28T09:39:23Z</time>
      </trkpt>
      <trkpt lat="39.897566" lon="116.635411">
        <time>2021-11-28T09:39:28Z</time>
      </trkpt>
      <trkpt lat="39.897452" lon="116.635481">
        <time>2021-11-28T09:39:33Z</time>
      </trkpt>
      <trkpt lat="39.897318" lon="116.635531">
        <time>2021-11-28T09:39:38Z</time>
      </trkpt>
      <trkpt lat="39.897229" lon="116.635586">
        <time>2021-11-28T09:39:43Z</time>
      </trkpt>
      <trkpt lat="39.897126" lon="116.635659">
        <time>2021-11-28T09:39:48Z</time>
      </trkpt>
      <trkpt lat="39.897005" lon="116.635746">
        <time>2021-11-28T09:39:53Z</time>
      </trkpt>
      <trkpt lat="39.896869" lon="116.635833">
        <time>2021-11-28T09:39:58Z</time>
      </trkpt>
      <trkpt lat="39.896869" lon="116.635818">
        <time>2021-11-28T09:40:03Z</time>
      </trkpt>
      <trkpt lat="39.896732" lon="116.635893">
        <time>2021-11-28T09:40:08Z</time>
      </trkpt>
      <trkpt lat="39.896559" lon="116.636033">
        <time>2021-11-28T09:40:13Z</time>
      </trkpt>
      <trkpt lat="39.896487" lon="116.636084">
        <time>2021-11-28T09:40:18Z</time>
      </trkpt>
      <trkpt lat="39.896373" lon="116.636141">
        <time>2021-11-28T09:40:23Z</time>
      </trkpt>
      <trkpt lat="39.896306" lon="116.636219">
        <time>2021-11-28T09:40:28Z</time>
      </trkpt>
      <trkpt lat="39.896194" lon="116.6363">
        <time>2021-11-28T09:40:33Z</time>
      </trkpt>
      <trkpt lat="39.896077" lon="116.636362">
        <time>2021-11-28T09:40:38Z</time>
      </trkpt>
      <trkpt lat="39.895962" lon="116.636423">
        <time>2021-11-28T09:40:43Z</time>
      </trkpt>
      <trkpt lat="39.895859" lon="116.636499">
        <time>2021-11-28T09:40:48Z</time>
      </trkpt>
      <trkpt lat="39.895858" lon="116.636614">
        <time>2021-11-28T09:40:53Z</time>
      </trkpt>
      <trkpt lat="39.89595" lon="116.636718">
        <time>2021-11-28T09:40:58Z</time>
      </trkpt>
      <trkpt lat="39.896034" lon="116.636837">
        <time>2021-11-28T09:41:03Z</time>
      </trkpt>
      <trkpt lat="39.89609" lon="116.637095">
        <time>2021-11-28T09:41:08Z</time>
      </trkpt>
      <trkpt lat="39.896092" lon="116.637127">
        <time>2021-11-28T09:41:13Z</time>
      </trkpt>
      <trkpt lat="39.896092" lon="116.637273">
        <time>2021-11-28T09:41:18Z</time>
      </trkpt>
      <trkpt lat="39.896048" lon="116.637373">
        <time>2021-11-28T09:41:23Z</time>
      </trkpt>
      <trkpt lat="39.896025" lon="116.637351">
        <time>2021-11-28T09:41:28Z</time>
      </trkpt>
      <trkpt lat="39.896027" lon="116.637354">
        <time>2021-11-28T09:41:33Z</time>
      </trkpt>
      <trkpt lat="39.896015" lon="116.637343">
        <time>2021-11-28T09:41:38Z</time>
      </trkpt>
      <trkpt lat="39.896017" lon="116.637343">
        <time>2021-11-28T09:41:43Z</time>
      </trkpt>
      <trkpt lat="39.896034" lon="116.637334">
        <time>2021-11-28T09:41:48Z</time>
      </trkpt>
      <trkpt lat="39.896009" lon="116.637322">
        <time>2021-11-28T09:41:53Z</time>
      </trkpt>
      <trkpt lat="39.895993" lon="116.637301">
        <time>2021-11-28T09:41:58Z</time>
      </trkpt>
      <trkpt lat="39.895963" lon="116.637276">
        <time>2021-11-28T09:42:03Z</time>
      </trkpt>
      <trkpt lat="39.895963" lon="116.637276">
        <time>2021-11-28T09:42:08Z</time>
      </trkpt>
      <trkpt lat="39.89596" lon="116.637289">
        <time>2021-11-28T09:42:13Z</time>
      </trkpt>
      <trkpt lat="39.89599" lon="116.637285">
        <time>2021-11-28T09:42:18Z</time>
      </trkpt>
      <trkpt lat="39.896025" lon="116.637301">
        <time>2021-11-28T09:42:23Z</time>
      </trkpt>
      <trkpt lat="39.896101" lon="116.637402">
        <time>2021-11-28T09:42:28Z</time>
      </trkpt>
      <trkpt lat="39.896125" lon="116.637546">
        <time>2021-11-28T09:42:33Z</time>
      </trkpt>
      <trkpt lat="39.896126" lon="116.637693">
        <time>2021-11-28T09:42:38Z</time>
      </trkpt>
      <trkpt lat="39.896123" lon="116.637844">
        <time>2021-11-28T09:42:43Z</time>
      </trkpt>
      <trkpt lat="39.896133" lon="116.638025">
        <time>2021-11-28T09:42:48Z</time>
      </trkpt>
      <trkpt lat="39.896123" lon="116.638167">
        <time>2021-11-28T09:42:53Z</time>
      </trkpt>
      <trkpt lat="39.896118" lon="116.638296">
        <time>2021-11-28T09:42:58Z</time>
      </trkpt>
      <trkpt lat="39.896124" lon="116.638442">
        <time>2021-11-28T09:43:03Z</time>
      </trkpt>
      <trkpt lat="39.896117" lon="116.638615">
        <time>2021-11-28T09:43:08Z</time>
      </trkpt>
      <trkpt lat="39.896124" lon="116.638767">
        <time>2021-11-28T09:43:13Z</time>
      </trkpt>
      <trkpt lat="39.896138" lon="116.638945">
        <time>2021-11-28T09:43:18Z</time>
      </trkpt>
      <trkpt lat="39.896132" lon="116.639082">
        <time>2021-11-28T09:43:23Z</time>
      </trkpt>
      <trkpt lat="39.896155" lon="116.639234">
        <time>2021-11-28T09:43:28Z</time>
      </trkpt>
      <trkpt lat="39.896169" lon="116.639358">
        <time>2021-11-28T09:43:33Z</time>
      </trkpt>
      <trkpt lat="39.896179" lon="116.639523">
        <time>2021-11-28T09:43:38Z</time>
      </trkpt>
      <trkpt lat="39.896194" lon="116.639763">
        <time>2021-11-28T09:43:43Z</time>
      </trkpt>
      <trkpt lat="39.896197" lon="116.639785">
        <time>2021-11-28T09:43:48Z</time>
      </trkpt>
      <trkpt lat="39.896207" lon="116.639919">
        <time>2021-11-28T09:43:53Z</time>
      </trkpt>
      <trkpt lat="39.896209" lon="116.640091">
        <time>2021-11-28T09:43:58Z</time>
      </trkpt>
      <trkpt lat="39.896205" lon="116.640271">
        <time>2021-11-28T09:44:03Z</time>
      </trkpt>
      <trkpt lat="39.896195" lon="116.640426">
        <time>2021-11-28T09:44:08Z</time>
      </trkpt>
      <trkpt lat="39.896196" lon="116.640591">
        <time>2021-11-28T09:44:13Z</time>
      </trkpt>
      <trkpt lat="39.89621" lon="116.640795">
        <time>2021-11-28T09:44:18Z</time>
      </trkpt>
      <trkpt lat="39.896209" lon="116.640914">
        <time>2021-11-28T09:44:23Z</time>
      </trkpt>
      <trkpt lat="39.896206" lon="116.641048">
        <time>2021-11-28T09:44:28Z</time>
      </trkpt>
      <trkpt lat="39.896195" lon="116.641185">
        <time>2021-11-28T09:44:33Z</time>
      </trkpt>
      <trkpt lat="39.896192" lon="116.641327">
        <time>2021-11-28T09:44:38Z</time>
      </trkpt>
      <trkpt lat="39.896175" lon="116.641464">
        <time>2021-11-28T09:44:43Z</time>
      </trkpt>
      <trkpt lat="39.896177" lon="116.641589">
        <time>2021-11-28T09:44:48Z</time>
      </trkpt>
      <trkpt lat="39.896175" lon="116.641687">
        <time>2021-11-28T09:44:53Z</time>
      </trkpt>
      <trkpt lat="39.896175" lon="116.641836">
        <time>2021-11-28T09:44:58Z</time>
      </trkpt>
      <trkpt lat="39.896162" lon="116.641929">
        <time>2021-11-28T09:45:03Z</time>
      </trkpt>
      <trkpt lat="39.896143" lon="116.642075">
        <time>2021-11-28T09:45:08Z</time>
      </trkpt>
      <trkpt lat="39.896158" lon="116.642254">
        <time>2021-11-28T09:45:13Z</time>
      </trkpt>
      <trkpt lat="39.896145" lon="116.642344">
        <time>2021-11-28T09:45:18Z</time>
      </trkpt>
      <trkpt lat="39.896122" lon="116.642479">
        <time>2021-11-28T09:45:23Z</time>
      </trkpt>
      <trkpt lat="39.89612" lon="116.642626">
        <time>2021-11-28T09:45:28Z</time>
      </trkpt>
      <trkpt lat="39.896123" lon="116.642752">
        <time>2021-11-28T09:45:33Z</time>
      </trkpt>
      <trkpt lat="39.896131" lon="116.64288">
        <time>2021-11-28T09:45:38Z</time>
      </trkpt>
      <trkpt lat="39.896129" lon="116.643019">
        <time>2021-11-28T09:45:43Z</time>
      </trkpt>
      <trkpt lat="39.896113" lon="116.643165">
        <time>2021-11-28T09:45:48Z</time>
      </trkpt>
      <trkpt lat="39.896117" lon="116.643305">
        <time>2021-11-28T09:45:53Z</time>
      </trkpt>
      <trkpt lat="39.89614" lon="116.64348">
        <time>2021-11-28T09:45:58Z</time>
      </trkpt>
      <trkpt lat="39.896163" lon="116.64356">
        <time>2021-11-28T09:46:03Z</time>
      </trkpt>
      <trkpt lat="39.896156" lon="116.643673">
        <time>2021-11-28T09:46:08Z</time>
      </trkpt>
      <trkpt lat="39.896132" lon="116.643799">
        <time>2021-11-28T09:46:13Z</time>
      </trkpt>
      <trkpt lat="39.89613" lon="116.643904">
        <time>2021-11-28T09:46:18Z</time>
      </trkpt>
      <trkpt lat="39.896129" lon="116.644052">
        <time>2021-11-28T09:46:23Z</time>
      </trkpt>
      <trkpt lat="39.896131" lon="116.644166">
        <time>2021-11-28T09:46:28Z</time>
      </trkpt>
      <trkpt lat="39.896135" lon="116.644286">
        <time>2021-11-28T09:46:33Z</time>
      </trkpt>
      <trkpt lat="39.89615" lon="116.644424">
        <time>2021-11-28T09:46:38Z</time>
      </trkpt>
      <trkpt lat="39.896154" lon="116.644601">
        <time>2021-11-28T09:46:43Z</time>
      </trkpt>
      <trkpt lat="39.89616" lon="116.644733">
        <time>2021-11-28T09:46:48Z</time>
      </trkpt>
      <trkpt lat="39.896158" lon="116.644858">
        <time>2021-11-28T09:46:53Z</time>
      </trkpt>
      <trkpt lat="39.896153" lon="116.644994">
        <time>2021-11-28T09:46:58Z</time>
      </trkpt>
      <trkpt lat="39.896151" lon="116.645166">
        <time>2021-11-28T09:47:03Z</time>
      </trkpt>
      <trkpt lat="39.896165" lon="116.645299">
        <time>2021-11-28T09:47:08Z</time>
      </trkpt>
      <trkpt lat="39.896138" lon="116.645422">
        <time>2021-11-28T09:47:13Z</time>
      </trkpt>
      <trkpt lat="39.896122" lon="116.645569">
        <time>2021-11-28T09:47:18Z</time>
      </trkpt>
      <trkpt lat="39.89608" lon="116.645708">
        <time>2021-11-28T09:47:23Z</time>
      </trkpt>
      <trkpt lat="39.896058" lon="116.645859">
        <time>2021-11-28T09:47:28Z</time>
      </trkpt>
      <trkpt lat="39.896029" lon="116.64603">
        <time>2021-11-28T09:47:33Z</time>
      </trkpt>
      <trkpt lat="39.896022" lon="116.646167">
        <time>2021-11-28T09:47:38Z</time>
      </trkpt>
      <trkpt lat="39.896012" lon="116.646297">
        <time>2021-11-28T09:47:43Z</time>
      </trkpt>
      <trkpt lat="39.895998" lon="116.646442">
        <time>2021-11-28T09:47:48Z</time>
      </trkpt>
      <trkpt lat="39.896" lon="116.646583">
        <time>2021-11-28T09:47:53Z</time>
      </trkpt>
      <trkpt lat="39.895967" lon="116.646748">
        <time>2021-11-28T09:47:58Z</time>
      </trkpt>
      <trkpt lat="39.895863" lon="116.646824">
        <time>2021-11-28T09:48:03Z</time>
      </trkpt>
      <trkpt lat="39.895749" lon="116.646767">
        <time>2021-11-28T09:48:08Z</time>
      </trkpt>
      <trkpt lat="39.895651" lon="116.646715">
        <time>2021-11-28T09:48:13Z</time>
      </trkpt>
      <trkpt lat="39.895549" lon="116.646648">
        <time>2021-11-28T09:48:18Z</time>
      </trkpt>
      <trkpt lat="39.895439" lon="116.646587">
        <time>2021-11-28T09:48:23Z</time>
      </trkpt>
      <trkpt lat="39.895332" lon="116.646543">
        <time>2021-11-28T09:48:28Z</time>
      </trkpt>
      <trkpt lat="39.895217" lon="116.646485">
        <time>2021-11-28T09:48:33Z</time>
      </trkpt>
      <trkpt lat="39.895109" lon="116.646435">
        <time>2021-11-28T09:48:38Z</time>
      </trkpt>
      <trkpt lat="39.895012" lon="116.646381">
        <time>2021-11-28T09:48:43Z</time>
      </trkpt>
      <trkpt lat="39.894921" lon="116.646332">
        <time>2021-11-28T09:48:48Z</time>
      </trkpt>
      <trkpt lat="39.894811" lon="116.646274">
        <time>2021-11-28T09:48:53Z</time>
      </trkpt>
      <trkpt lat="39.894705" lon="116.646233">
        <time>2021-11-28T09:48:58Z</time>
      </trkpt>
      <trkpt lat="39.894609" lon="116.646182">
        <time>2021-11-28T09:49:03Z</time>
      </trkpt>
      <trkpt lat="39.894509" lon="116.646127">
        <time>2021-11-28T09:49:08Z</time>
      </trkpt>
      <trkpt lat="39.894418" lon="116.646054">
        <time>2021-11-28T09:49:13Z</time>
      </trkpt>
      <trkpt lat="39.89431" lon="116.646024">
        <time>2021-11-28T09:49:18Z</time>
      </trkpt>
      <trkpt lat="39.894191" lon="116.646">
        <time>2021-11-28T09:49:23Z</time>
      </trkpt>
      <trkpt lat="39.894073" lon="116.645952">
        <time>2021-11-28T09:49:28Z</time>
      </trkpt>
      <trkpt lat="39.893973" lon="116.645888">
        <time>2021-11-28T09:49:33Z</time>
      </trkpt>
      <trkpt lat="39.893869" lon="116.645907">
        <time>2021-11-28T09:49:38Z</time>
      </trkpt>
      <trkpt lat="39.893801" lon="116.646044">
        <time>2021-11-28T09:49:43Z</time>
      </trkpt>
      <trkpt lat="39.893724" lon="116.646153">
        <time>2021-11-28T09:49:48Z</time>
      </trkpt>
      <trkpt lat="39.893614" lon="116.646335">
        <time>2021-11-28T09:49:53Z</time>
      </trkpt>
      <trkpt lat="39.893538" lon="116.646364">
        <time>2021-11-28T09:49:58Z</time>
      </trkpt>
      <trkpt lat="39.893441" lon="116.646309">
        <time>2021-11-28T09:50:03Z</time>
      </trkpt>
      <trkpt lat="39.893335" lon="116.646242">
        <time>2021-11-28T09:50:08Z</time>
      </trkpt>
      <trkpt lat="39.893237" lon="116.646178">
        <time>2021-11-28T09:50:13Z</time>
      </trkpt>
      <trkpt lat="39.89315" lon="116.646127">
        <time>2021-11-28T09:50:18Z</time>
      </trkpt>
      <trkpt lat="39.893068" lon="116.646083">
        <time>2021-11-28T09:50:23Z</time>
      </trkpt>
      <trkpt lat="39.892983" lon="116.646033">
        <time>2021-11-28T09:50:28Z</time>
      </trkpt>
      <trkpt lat="39.892903" lon="116.645974">
        <time>2021-11-28T09:50:33Z</time>
      </trkpt>
      <trkpt lat="39.892809" lon="116.645928">
        <time>2021-11-28T09:50:38Z</time>
      </trkpt>
      <trkpt lat="39.892711" lon="116.64588">
        <time>2021-11-28T09:50:43Z</time>
      </trkpt>
      <trkpt lat="39.892582" lon="116.645864">
        <time>2021-11-28T09:50:48Z</time>
      </trkpt>
      <trkpt lat="39.892486" lon="116.645799">
        <time>2021-11-28T09:50:53Z</time>
      </trkpt>
      <trkpt lat="39.892412" lon="116.645732">
        <time>2021-11-28T09:50:58Z</time>
      </trkpt>
      <trkpt lat="39.892361" lon="116.645648">
        <time>2021-11-28T09:51:03Z</time>
      </trkpt>
      <trkpt lat="39.892221" lon="116.645592">
        <time>2021-11-28T09:51:08Z</time>
      </trkpt>
      <trkpt lat="39.892134" lon="116.645572">
        <time>2021-11-28T09:51:13Z</time>
      </trkpt>
      <trkpt lat="39.89202" lon="116.645536">
        <time>2021-11-28T09:51:18Z</time>
      </trkpt>
      <trkpt lat="39.891928" lon="116.645468">
        <time>2021-11-28T09:51:23Z</time>
      </trkpt>
      <trkpt lat="39.89184" lon="116.645397">
        <time>2021-11-28T09:51:28Z</time>
      </trkpt>
      <trkpt lat="39.891733" lon="116.645367">
        <time>2021-11-28T09:51:33Z</time>
      </trkpt>
      <trkpt lat="39.891622" lon="116.645302">
        <time>2021-11-28T09:51:38Z</time>
      </trkpt>
      <trkpt lat="39.891566" lon="116.645369">
        <time>2021-11-28T09:51:43Z</time>
      </trkpt>
      <trkpt lat="39.891655" lon="116.645434">
        <time>2021-11-28T09:51:48Z</time>
      </trkpt>
      <trkpt lat="39.891768" lon="116.645496">
        <time>2021-11-28T09:51:53Z</time>
      </trkpt>
      <trkpt lat="39.891888" lon="116.645555">
        <time>2021-11-28T09:51:58Z</time>
      </trkpt>
      <trkpt lat="39.892008" lon="116.645611">
        <time>2021-11-28T09:52:03Z</time>
      </trkpt>
      <trkpt lat="39.892108" lon="116.645671">
        <time>2021-11-28T09:52:08Z</time>
      </trkpt>
      <trkpt lat="39.892239" lon="116.645707">
        <time>2021-11-28T09:52:13Z</time>
      </trkpt>
      <trkpt lat="39.892357" lon="116.645769">
        <time>2021-11-28T09:52:18Z</time>
      </trkpt>
      <trkpt lat="39.892464" lon="116.645823">
        <time>2021-11-28T09:52:23Z</time>
      </trkpt>
      <trkpt lat="39.892548" lon="116.645854">
        <time>2021-11-28T09:52:28Z</time>
      </trkpt>
      <trkpt lat="39.892642" lon="116.645907">
        <time>2021-11-28T09:52:33Z</time>
      </trkpt>
      <trkpt lat="39.892752" lon="116.645956">
        <time>2021-11-28T09:52:38Z</time>
      </trkpt>
      <trkpt lat="39.892872" lon="116.645987">
        <time>2021-11-28T09:52:43Z</time>
      </trkpt>
      <trkpt lat="39.892983" lon="116.64604">
        <time>2021-11-28T09:52:48Z</time>
      </trkpt>
      <trkpt lat="39.893095" lon="116.646086">
        <time>2021-11-28T09:52:53Z</time>
      </trkpt>
      <trkpt lat="39.893211" lon="116.646149">
        <time>2021-11-28T09:52:58Z</time>
      </trkpt>
      <trkpt lat="39.893286" lon="116.646189">
        <time>2021-11-28T09:53:03Z</time>
      </trkpt>
      <trkpt lat="39.893465" lon="116.646282">
        <time>2021-11-28T09:53:08Z</time>
      </trkpt>
      <trkpt lat="39.893488" lon="116.646297">
        <time>2021-11-28T09:53:13Z</time>
      </trkpt>
      <trkpt lat="39.893584" lon="116.64636">
        <time>2021-11-28T09:53:18Z</time>
      </trkpt>
      <trkpt lat="39.893715" lon="116.646335">
        <time>2021-11-28T09:53:23Z</time>
      </trkpt>
      <trkpt lat="39.893777" lon="116.646251">
        <time>2021-11-28T09:53:28Z</time>
      </trkpt>
      <trkpt lat="39.893842" lon="116.646181">
        <time>2021-11-28T09:53:33Z</time>
      </trkpt>
      <trkpt lat="39.893908" lon="116.64607">
        <time>2021-11-28T09:53:38Z</time>
      </trkpt>
      <trkpt lat="39.89397" lon="116.645959">
        <time>2021-11-28T09:53:43Z</time>
      </trkpt>
      <trkpt lat="39.894049" lon="116.645967">
        <time>2021-11-28T09:53:48Z</time>
      </trkpt>
      <trkpt lat="39.894126" lon="116.646005">
        <time>2021-11-28T09:53:53Z</time>
      </trkpt>
      <trkpt lat="39.894264" lon="116.64607">
        <time>2021-11-28T09:53:58Z</time>
      </trkpt>
      <trkpt lat="39.894388" lon="116.646116">
        <time>2021-11-28T09:54:03Z</time>
      </trkpt>
      <trkpt lat="39.894496" lon="116.646172">
        <time>2021-11-28T09:54:08Z</time>
      </trkpt>
      <trkpt lat="39.894589" lon="116.646227">
        <time>2021-11-28T09:54:13Z</time>
      </trkpt>
      <trkpt lat="39.894651" lon="116.646258">
        <time>2021-11-28T09:54:18Z</time>
      </trkpt>
      <trkpt lat="39.894726" lon="116.646289">
        <time>2021-11-28T09:54:23Z</time>
      </trkpt>
      <trkpt lat="39.894826" lon="116.646337">
        <time>2021-11-28T09:54:28Z</time>
      </trkpt>
      <trkpt lat="39.894931" lon="116.646391">
        <time>2021-11-28T09:54:33Z</time>
      </trkpt>
      <trkpt lat="39.895077" lon="116.64645">
        <time>2021-11-28T09:54:38Z</time>
      </trkpt>
      <trkpt lat="39.895189" lon="116.646505">
        <time>2021-11-28T09:54:43Z</time>
      </trkpt>
      <trkpt lat="39.895323" lon="116.646541">
        <time>2021-11-28T09:54:48Z</time>
      </trkpt>
      <trkpt lat="39.895466" lon="116.646599">
        <time>2021-11-28T09:54:53Z</time>
      </trkpt>
      <trkpt lat="39.895583" lon="116.646666">
        <time>2021-11-28T09:54:58Z</time>
      </trkpt>
      <trkpt lat="39.895721" lon="116.646725">
        <time>2021-11-28T09:55:03Z</time>
      </trkpt>
      <trkpt lat="39.89584" lon="116.646784">
        <time>2021-11-28T09:55:08Z</time>
      </trkpt>
      <trkpt lat="39.895939" lon="116.646838">
        <time>2021-11-28T09:55:13Z</time>
      </trkpt>
      <trkpt lat="39.896006" lon="116.646873">
        <time>2021-11-28T09:55:18Z</time>
      </trkpt>
      <trkpt lat="39.896074" lon="116.646803">
        <time>2021-11-28T09:55:23Z</time>
      </trkpt>
      <trkpt lat="39.896073" lon="116.646655">
        <time>2021-11-28T09:55:28Z</time>
      </trkpt>
      <trkpt lat="39.896071" lon="116.646496">
        <time>2021-11-28T09:55:33Z</time>
      </trkpt>
      <trkpt lat="39.896085" lon="116.646343">
        <time>2021-11-28T09:55:38Z</time>
      </trkpt>
      <trkpt lat="39.8961" lon="116.646203">
        <time>2021-11-28T09:55:43Z</time>
      </trkpt>
      <trkpt lat="39.896114" lon="116.646052">
        <time>2021-11-28T09:55:48Z</time>
      </trkpt>
      <trkpt lat="39.896119" lon="116.64589">
        <time>2021-11-28T09:55:53Z</time>
      </trkpt>
      <trkpt lat="39.896127" lon="116.645745">
        <time>2021-11-28T09:55:58Z</time>
      </trkpt>
      <trkpt lat="39.896147" lon="116.645578">
        <time>2021-11-28T09:56:03Z</time>
      </trkpt>
      <trkpt lat="39.896175" lon="116.645468">
        <time>2021-11-28T09:56:08Z</time>
      </trkpt>
      <trkpt lat="39.896187" lon="116.645346">
        <time>2021-11-28T09:56:13Z</time>
      </trkpt>
      <trkpt lat="39.896188" lon="116.645199">
        <time>2021-11-28T09:56:18Z</time>
      </trkpt>
      <trkpt lat="39.896191" lon="116.645039">
        <time>2021-11-28T09:56:23Z</time>
      </trkpt>
      <trkpt lat="39.896193" lon="116.644889">
        <time>2021-11-28T09:56:28Z</time>
      </trkpt>
      <trkpt lat="39.896206" lon="116.644745">
        <time>2021-11-28T09:56:33Z</time>
      </trkpt>
      <trkpt lat="39.896197" lon="116.644597">
        <time>2021-11-28T09:56:38Z</time>
      </trkpt>
      <trkpt lat="39.89619" lon="116.644469">
        <time>2021-11-28T09:56:43Z</time>
      </trkpt>
      <trkpt lat="39.896189" lon="116.644335">
        <time>2021-11-28T09:56:48Z</time>
      </trkpt>
      <trkpt lat="39.89619" lon="116.644114">
        <time>2021-11-28T09:56:53Z</time>
      </trkpt>
      <trkpt lat="39.896191" lon="116.644089">
        <time>2021-11-28T09:56:58Z</time>
      </trkpt>
      <trkpt lat="39.89619" lon="116.643917">
        <time>2021-11-28T09:57:03Z</time>
      </trkpt>
      <trkpt lat="39.896188" lon="116.643738">
        <time>2021-11-28T09:57:08Z</time>
      </trkpt>
      <trkpt lat="39.896195" lon="116.643618">
        <time>2021-11-28T09:57:13Z</time>
      </trkpt>
      <trkpt lat="39.896193" lon="116.643484">
        <time>2021-11-28T09:57:18Z</time>
      </trkpt>
      <trkpt lat="39.896182" lon="116.643326">
        <time>2021-11-28T09:57:23Z</time>
      </trkpt>
      <trkpt lat="39.896184" lon="116.643154">
        <time>2021-11-28T09:57:28Z</time>
      </trkpt>
      <trkpt lat="39.896194" lon="116.643072">
        <time>2021-11-28T09:57:33Z</time>
      </trkpt>
      <trkpt lat="39.8962" lon="116.642942">
        <time>2021-11-28T09:57:38Z</time>
      </trkpt>
      <trkpt lat="39.896205" lon="116.642827">
        <time>2021-11-28T09:57:43Z</time>
      </trkpt>
      <trkpt lat="39.896221" lon="116.642738">
        <time>2021-11-28T09:57:48Z</time>
      </trkpt>
      <trkpt lat="39.896221" lon="116.642588">
        <time>2021-11-28T09:57:53Z</time>
      </trkpt>
      <trkpt lat="39.896225" lon="116.642416">
        <time>2021-11-28T09:57:58Z</time>
      </trkpt>
      <trkpt lat="39.896227" lon="116.642262">
        <time>2021-11-28T09:58:03Z</time>
      </trkpt>
      <trkpt lat="39.896229" lon="116.642135">
        <time>2021-11-28T09:58:08Z</time>
      </trkpt>
      <trkpt lat="39.896238" lon="116.641974">
        <time>2021-11-28T09:58:13Z</time>
      </trkpt>
      <trkpt lat="39.896235" lon="116.641699">
        <time>2021-11-28T09:58:18Z</time>
      </trkpt>
      <trkpt lat="39.896236" lon="116.641677">
        <time>2021-11-28T09:58:23Z</time>
      </trkpt>
      <trkpt lat="39.896238" lon="116.641553">
        <time>2021-11-28T09:58:28Z</time>
      </trkpt>
      <trkpt lat="39.896241" lon="116.641433">
        <time>2021-11-28T09:58:33Z</time>
      </trkpt>
      <trkpt lat="39.896252" lon="116.641307">
        <time>2021-11-28T09:58:38Z</time>
      </trkpt>
      <trkpt lat="39.896265" lon="116.641144">
        <time>2021-11-28T09:58:43Z</time>
      </trkpt>
      <trkpt lat="39.896273" lon="116.640978">
        <time>2021-11-28T09:58:48Z</time>
      </trkpt>
      <trkpt lat="39.896286" lon="116.640852">
        <time>2021-11-28T09:58:53Z</time>
      </trkpt>
      <trkpt lat="39.896284" lon="116.640705">
        <time>2021-11-28T09:58:58Z</time>
      </trkpt>
      <trkpt lat="39.896278" lon="116.640557">
        <time>2021-11-28T09:59:03Z</time>
      </trkpt>
      <trkpt lat="39.896292" lon="116.640443">
        <time>2021-11-28T09:59:08Z</time>
      </trkpt>
      <trkpt lat="39.896336" lon="116.640414">
        <time>2021-11-28T09:59:13Z</time>
      </trkpt>
      <trkpt lat="39.896426" lon="116.640456">
        <time>2021-11-28T09:59:18Z</time>
      </trkpt>
      <trkpt lat="39.896519" lon="116.640494">
        <time>2021-11-28T09:59:23Z</time>
      </trkpt>
      <trkpt lat="39.896661" lon="116.640548">
        <time>2021-11-28T09:59:28Z</time>
      </trkpt>
      <trkpt lat="39.896776" lon="116.640613">
        <time>2021-11-28T09:59:33Z</time>
      </trkpt>
      <trkpt lat="39.896919" lon="116.640682">
        <time>2021-11-28T09:59:38Z</time>
      </trkpt>
      <trkpt lat="39.897143" lon="116.640779">
        <time>2021-11-28T09:59:43Z</time>
      </trkpt>
      <trkpt lat="39.897189" lon="116.640803">
        <time>2021-11-28T09:59:48Z</time>
      </trkpt>
      <trkpt lat="39.897252" lon="116.640855">
        <time>2021-11-28T09:59:53Z</time>
      </trkpt>
      <trkpt lat="39.897364" lon="116.640879">
        <time>2021-11-28T09:59:58Z</time>
      </trkpt>
      <trkpt lat="39.897494" lon="116.640952">
        <time>2021-11-28T10:00:03Z</time>
      </trkpt>
      <trkpt lat="39.897632" lon="116.641035">
        <time>2021-11-28T10:00:08Z</time>
      </trkpt>
      <trkpt lat="39.897768" lon="116.641109">
        <time>2021-11-28T10:00:13Z</time>
      </trkpt>
      <trkpt lat="39.897857" lon="116.641148">
        <time>2021-11-28T10:00:18Z</time>
      </trkpt>
      <trkpt lat="39.897899" lon="116.641161">
        <time>2021-11-28T10:00:23Z</time>
      </trkpt>
      <trkpt lat="39.897941" lon="116.641185">
        <time>2021-11-28T10:00:28Z</time>
      </trkpt>
      <trkpt lat="39.898022" lon="116.641245">
        <time>2021-11-28T10:00:33Z</time>
      </trkpt>
      <trkpt lat="39.898124" lon="116.641285">
        <time>2021-11-28T10:00:38Z</time>
      </trkpt>
      <trkpt lat="39.898252" lon="116.641358">
        <time>2021-11-28T10:00:43Z</time>
      </trkpt>
      <trkpt lat="39.898372" lon="116.641406">
        <time>2021-11-28T10:00:48Z</time>
      </trkpt>
      <trkpt lat="39.898388" lon="116.641522">
        <time>2021-11-28T10:00:53Z</time>
      </trkpt>
      <trkpt lat="39.898352" lon="116.641625">
        <time>2021-11-28T10:00:58Z</time>
      </trkpt>
      <trkpt lat="39.898316" lon="116.641773">
        <time>2021-11-28T10:01:03Z</time>
      </trkpt>
      <trkpt lat="39.898301" lon="116.64198">
        <time>2021-11-28T10:01:08Z</time>
      </trkpt>
      <trkpt lat="39.898276" lon="116.642148">
        <time>2021-11-28T10:01:13Z</time>
      </trkpt>
      <trkpt lat="39.89826" lon="116.642336">
        <time>2021-11-28T10:01:18Z</time>
      </trkpt>
      <trkpt lat="39.898242" lon="116.642493">
        <time>2021-11-28T10:01:23Z</time>
      </trkpt>
      <trkpt lat="39.898208" lon="116.642702">
        <time>2021-11-28T10:01:28Z</time>
      </trkpt>
      <trkpt lat="39.898207" lon="116.642807">
        <time>2021-11-28T10:01:33Z</time>
      </trkpt>
      <trkpt lat="39.898207" lon="116.642807">
        <time>2021-11-28T10:01:38Z</time>
      </trkpt>
      <trkpt lat="39.898224" lon="116.642861">
        <time>2021-11-28T10:01:43Z</time>
      </trkpt>
      <trkpt lat="39.898221" lon="116.643004">
        <time>2021-11-28T10:01:48Z</time>
      </trkpt>
      <trkpt lat="39.898226" lon="116.643144">
        <time>2021-11-28T10:01:53Z</time>
      </trkpt>
      <trkpt lat="39.898217" lon="116.643296">
        <time>2021-11-28T10:01:58Z</time>
      </trkpt>
      <trkpt lat="39.898228" lon="116.643508">
        <time>2021-11-28T10:02:03Z</time>
      </trkpt>
      <trkpt lat="39.89825" lon="116.643689">
        <time>2021-11-28T10:02:08Z</time>
      </trkpt>
      <trkpt lat="39.898282" lon="116.643844">
        <time>2021-11-28T10:02:13Z</time>
      </trkpt>
      <trkpt lat="39.898281" lon="116.644004">
        <time>2021-11-28T10:02:18Z</time>
      </trkpt>
      <trkpt lat="39.898276" lon="116.644145">
        <time>2021-11-28T10:02:23Z</time>
      </trkpt>
      <trkpt lat="39.89828" lon="116.64428">
        <time>2021-11-28T10:02:28Z</time>
      </trkpt>
      <trkpt lat="39.898319" lon="116.644405">
        <time>2021-11-28T10:02:33Z</time>
      </trkpt>
      <trkpt lat="39.898382" lon="116.644562">
        <time>2021-11-28T10:02:38Z</time>
      </trkpt>
      <trkpt lat="39.898404" lon="116.644688">
        <time>2021-11-28T10:02:43Z</time>
      </trkpt>
      <trkpt lat="39.898428" lon="116.644804">
        <time>2021-11-28T10:02:48Z</time>
      </trkpt>
      <trkpt lat="39.898443" lon="116.645085">
        <time>2021-11-28T10:02:53Z</time>
      </trkpt>
      <trkpt lat="39.898445" lon="116.645122">
        <time>2021-11-28T10:02:58Z</time>
      </trkpt>
      <trkpt lat="39.89847" lon="116.645285">
        <time>2021-11-28T10:03:03Z</time>
      </trkpt>
      <trkpt lat="39.89847" lon="116.645437">
        <time>2021-11-28T10:03:08Z</time>
      </trkpt>
      <trkpt lat="39.898507" lon="116.645582">
        <time>2021-11-28T10:03:13Z</time>
      </trkpt>
      <trkpt lat="39.898547" lon="116.645725">
        <time>2021-11-28T10:03:18Z</time>
      </trkpt>
      <trkpt lat="39.898557" lon="116.645911">
        <time>2021-11-28T10:03:23Z</time>
      </trkpt>
      <trkpt lat="39.898579" lon="116.64604">
        <time>2021-11-28T10:03:28Z</time>
      </trkpt>
      <trkpt lat="39.898627" lon="116.64615">
        <time>2021-11-28T10:03:33Z</time>
      </trkpt>
      <trkpt lat="39.898681" lon="116.646213">
        <time>2021-11-28T10:03:38Z</time>
      </trkpt>
      <trkpt lat="39.898693" lon="116.646327">
        <time>2021-11-28T10:03:43Z</time>
      </trkpt>
      <trkpt lat="39.89876" lon="116.646521">
        <time>2021-11-28T10:03:48Z</time>
      </trkpt>
      <trkpt lat="39.898839" lon="116.646677">
        <time>2021-11-28T10:03:53Z</time>
      </trkpt>
      <trkpt lat="39.898891" lon="116.646845">
        <time>2021-11-28T10:03:58Z</time>
      </trkpt>
      <trkpt lat="39.89894" lon="116.647011">
        <time>2021-11-28T10:04:03Z</time>
      </trkpt>
      <trkpt lat="39.899025" lon="116.647161">
        <time>2021-11-28T10:04:08Z</time>
      </trkpt>
      <trkpt lat="39.899076" lon="116.647308">
        <time>2021-11-28T10:04:13Z</time>
      </trkpt>
      <trkpt lat="39.899053" lon="116.647445">
        <time>2021-11-28T10:04:18Z</time>
      </trkpt>
      <trkpt lat="39.899066" lon="116.64758">
        <time>2021-11-28T10:04:23Z</time>
      </trkpt>
      <trkpt lat="39.899075" lon="116.647706">
        <time>2021-11-28T10:04:28Z</time>
      </trkpt>
      <trkpt lat="39.89905" lon="116.647827">
        <time>2021-11-28T10:04:33Z</time>
      </trkpt>
      <trkpt lat="39.899016" lon="116.647956">
        <time>2021-11-28T10:04:38Z</time>
      </trkpt>
      <trkpt lat="39.899014" lon="116.648114">
        <time>2021-11-28T10:04:43Z</time>
      </trkpt>
      <trkpt lat="39.898976" lon="116.648271">
        <time>2021-11-28T10:04:48Z</time>
      </trkpt>
      <trkpt lat="39.898957" lon="116.648431">
        <time>2021-11-28T10:04:53Z</time>
      </trkpt>
      <trkpt lat="39.898949" lon="116.648745">
        <time>2021-11-28T10:04:58Z</time>
      </trkpt>
      <trkpt lat="39.898942" lon="116.648773">
        <time>2021-11-28T10:05:03Z</time>
      </trkpt>
      <trkpt lat="39.898924" lon="116.648904">
        <time>2021-11-28T10:05:08Z</time>
      </trkpt>
      <trkpt lat="39.898947" lon="116.649035">
        <time>2021-11-28T10:05:13Z</time>
      </trkpt>
      <trkpt lat="39.89894" lon="116.649144">
        <time>2021-11-28T10:05:18Z</time>
      </trkpt>
      <trkpt lat="39.898985" lon="116.649343">
        <time>2021-11-28T10:05:23Z</time>
      </trkpt>
      <trkpt lat="39.898974" lon="116.649428">
        <time>2021-11-28T10:05:28Z</time>
      </trkpt>
      <trkpt lat="39.898968" lon="116.649585">
        <time>2021-11-28T10:05:33Z</time>
      </trkpt>
      <trkpt lat="39.898962" lon="116.6497">
        <time>2021-11-28T10:05:38Z</time>
      </trkpt>
      <trkpt lat="39.89898" lon="116.649768">
        <time>2021-11-28T10:05:43Z</time>
      </trkpt>
      <trkpt lat="39.899014" lon="116.64991">
        <time>2021-11-28T10:05:48Z</time>
      </trkpt>
      <trkpt lat="39.899026" lon="116.650014">
        <time>2021-11-28T10:05:53Z</time>
      </trkpt>
      <trkpt lat="39.899039" lon="116.650123">
        <time>2021-11-28T10:05:58Z</time>
      </trkpt>
      <trkpt lat="39.899025" lon="116.650232">
        <time>2021-11-28T10:06:03Z</time>
      </trkpt>
      <trkpt lat="39.899012" lon="116.650365">
        <time>2021-11-28T10:06:08Z</time>
      </trkpt>
      <trkpt lat="39.898992" lon="116.650536">
        <time>2021-11-28T10:06:13Z</time>
      </trkpt>
      <trkpt lat="39.898993" lon="116.650721">
        <time>2021-11-28T10:06:18Z</time>
      </trkpt>
      <trkpt lat="39.899003" lon="116.650897">
        <time>2021-11-28T10:06:23Z</time>
      </trkpt>
      <trkpt lat="39.899004" lon="116.651075">
        <time>2021-11-28T10:06:28Z</time>
      </trkpt>
      <trkpt lat="39.899022" lon="116.651198">
        <time>2021-11-28T10:06:33Z</time>
      </trkpt>
      <trkpt lat="39.898948" lon="116.6514">
        <time>2021-11-28T10:06:38Z</time>
      </trkpt>
      <trkpt lat="39.898956" lon="116.651419">
        <time>2021-11-28T10:06:43Z</time>
      </trkpt>
      <trkpt lat="39.898996" lon="116.651315">
        <time>2021-11-28T10:06:48Z</time>
      </trkpt>
      <trkpt lat="39.899" lon="116.651282">
        <time>2021-11-28T10:06:53Z</time>
      </trkpt>
      <trkpt lat="39.899004" lon="116.651117">
        <time>2021-11-28T10:06:58Z</time>
      </trkpt>
      <trkpt lat="39.898988" lon="116.650901">
        <time>2021-11-28T10:07:03Z</time>
      </trkpt>
      <trkpt lat="39.89898" lon="116.650717">
        <time>2021-11-28T10:07:08Z</time>
      </trkpt>
      <trkpt lat="39.89896" lon="116.650511">
        <time>2021-11-28T10:07:13Z</time>
      </trkpt>
      <trkpt lat="39.898957" lon="116.650359">
        <time>2021-11-28T10:07:18Z</time>
      </trkpt>
      <trkpt lat="39.898986" lon="116.65028">
        <time>2021-11-28T10:07:23Z</time>
      </trkpt>
      <trkpt lat="39.898992" lon="116.650104">
        <time>2021-11-28T10:07:28Z</time>
      </trkpt>
      <trkpt lat="39.899002" lon="116.649897">
        <time>2021-11-28T10:07:33Z</time>
      </trkpt>
      <trkpt lat="39.899009" lon="116.649695">
        <time>2021-11-28T10:07:38Z</time>
      </trkpt>
      <trkpt lat="39.898988" lon="116.649503">
        <time>2021-11-28T10:07:43Z</time>
      </trkpt>
      <trkpt lat="39.898982" lon="116.649431">
        <time>2021-11-28T10:07:48Z</time>
      </trkpt>
      <trkpt lat="39.89899" lon="116.649327">
        <time>2021-11-28T10:07:53Z</time>
      </trkpt>
      <trkpt lat="39.898986" lon="116.649174">
        <time>2021-11-28T10:07:58Z</time>
      </trkpt>
      <trkpt lat="39.898997" lon="116.649077">
        <time>2021-11-28T10:08:03Z</time>
      </trkpt>
      <trkpt lat="39.899022" lon="116.648897">
        <time>2021-11-28T10:08:08Z</time>
      </trkpt>
      <trkpt lat="39.899047" lon="116.6487">
        <time>2021-11-28T10:08:13Z</time>
      </trkpt>
      <trkpt lat="39.899051" lon="116.648508">
        <time>2021-11-28T10:08:18Z</time>
      </trkpt>
      <trkpt lat="39.899053" lon="116.648312">
        <time>2021-11-28T10:08:23Z</time>
      </trkpt>
      <trkpt lat="39.89906" lon="116.648142">
        <time>2021-11-28T10:08:28Z</time>
      </trkpt>
      <trkpt lat="39.899047" lon="116.647941">
        <time>2021-11-28T10:08:33Z</time>
      </trkpt>
      <trkpt lat="39.89903" lon="116.647795">
        <time>2021-11-28T10:08:38Z</time>
      </trkpt>
      <trkpt lat="39.898996" lon="116.647674">
        <time>2021-11-28T10:08:43Z</time>
      </trkpt>
      <trkpt lat="39.899" lon="116.64751">
        <time>2021-11-28T10:08:48Z</time>
      </trkpt>
      <trkpt lat="39.898996" lon="116.647358">
        <time>2021-11-28T10:08:53Z</time>
      </trkpt>
      <trkpt lat="39.898968" lon="116.647229">
        <time>2021-11-28T10:08:58Z</time>
      </trkpt>
      <trkpt lat="39.898954" lon="116.647104">
        <time>2021-11-28T10:09:03Z</time>
      </trkpt>
      <trkpt lat="39.89893" lon="116.64701">
        <time>2021-11-28T10:09:08Z</time>
      </trkpt>
      <trkpt lat="39.898897" lon="116.646891">
        <time>2021-11-28T10:09:13Z</time>
      </trkpt>
      <trkpt lat="39.898866" lon="116.64677">
        <time>2021-11-28T10:09:18Z</time>
      </trkpt>
      <trkpt lat="39.898827" lon="116.646597">
        <time>2021-11-28T10:09:23Z</time>
      </trkpt>
      <trkpt lat="39.898793" lon="116.646465">
        <time>2021-11-28T10:09:28Z</time>
      </trkpt>
      <trkpt lat="39.898732" lon="116.646303">
        <time>2021-11-28T10:09:33Z</time>
      </trkpt>
      <trkpt lat="39.898665" lon="116.646137">
        <time>2021-11-28T10:09:38Z</time>
      </trkpt>
      <trkpt lat="39.8986" lon="116.645978">
        <time>2021-11-28T10:09:43Z</time>
      </trkpt>
      <trkpt lat="39.898538" lon="116.645821">
        <time>2021-11-28T10:09:48Z</time>
      </trkpt>
      <trkpt lat="39.898515" lon="116.645653">
        <time>2021-11-28T10:09:53Z</time>
      </trkpt>
      <trkpt lat="39.898491" lon="116.64547">
        <time>2021-11-28T10:09:58Z</time>
      </trkpt>
      <trkpt lat="39.898467" lon="116.645296">
        <time>2021-11-28T10:10:03Z</time>
      </trkpt>
      <trkpt lat="39.898434" lon="116.645153">
        <time>2021-11-28T10:10:08Z</time>
      </trkpt>
      <trkpt lat="39.8984" lon="116.645026">
        <time>2021-11-28T10:10:13Z</time>
      </trkpt>
      <trkpt lat="39.898381" lon="116.644917">
        <time>2021-11-28T10:10:18Z</time>
      </trkpt>
      <trkpt lat="39.898375" lon="116.644802">
        <time>2021-11-28T10:10:23Z</time>
      </trkpt>
      <trkpt lat="39.89836" lon="116.644671">
        <time>2021-11-28T10:10:28Z</time>
      </trkpt>
      <trkpt lat="39.898343" lon="116.644539">
        <time>2021-11-28T10:10:33Z</time>
      </trkpt>
      <trkpt lat="39.898311" lon="116.644399">
        <time>2021-11-28T10:10:38Z</time>
      </trkpt>
      <trkpt lat="39.898303" lon="116.644244">
        <time>2021-11-28T10:10:43Z</time>
      </trkpt>
      <trkpt lat="39.898304" lon="116.644091">
        <time>2021-11-28T10:10:48Z</time>
      </trkpt>
      <trkpt lat="39.898289" lon="116.643956">
        <time>2021-11-28T10:10:53Z</time>
      </trkpt>
      <trkpt lat="39.89826" lon="116.643775">
        <time>2021-11-28T10:10:58Z</time>
      </trkpt>
      <trkpt lat="39.898241" lon="116.643678">
        <time>2021-11-28T10:11:03Z</time>
      </trkpt>
      <trkpt lat="39.898236" lon="116.643523">
        <time>2021-11-28T10:11:08Z</time>
      </trkpt>
      <trkpt lat="39.898212" lon="116.643392">
        <time>2021-11-28T10:11:13Z</time>
      </trkpt>
      <trkpt lat="39.898239" lon="116.643106">
        <time>2021-11-28T10:11:18Z</time>
      </trkpt>
      <trkpt lat="39.898256" lon="116.642974">
        <time>2021-11-28T10:11:23Z</time>
      </trkpt>
      <trkpt lat="39.898274" lon="116.642809">
        <time>2021-11-28T10:11:28Z</time>
      </trkpt>
      <trkpt lat="39.898288" lon="116.642682">
        <time>2021-11-28T10:11:33Z</time>
      </trkpt>
      <trkpt lat="39.898295" lon="116.64257">
        <time>2021-11-28T10:11:38Z</time>
      </trkpt>
      <trkpt lat="39.898303" lon="116.642458">
        <time>2021-11-28T10:11:43Z</time>
      </trkpt>
      <trkpt lat="39.898287" lon="116.642336">
        <time>2021-11-28T10:11:48Z</time>
      </trkpt>
      <trkpt lat="39.89829" lon="116.642257">
        <time>2021-11-28T10:11:53Z</time>
      </trkpt>
      <trkpt lat="39.898344" lon="116.642137">
        <time>2021-11-28T10:11:58Z</time>
      </trkpt>
      <trkpt lat="39.898383" lon="116.642042">
        <time>2021-11-28T10:12:03Z</time>
      </trkpt>
      <trkpt lat="39.898386" lon="116.641904">
        <time>2021-11-28T10:12:08Z</time>
      </trkpt>
      <trkpt lat="39.898401" lon="116.641686">
        <time>2021-11-28T10:12:13Z</time>
      </trkpt>
      <trkpt lat="39.898392" lon="116.64153">
        <time>2021-11-28T10:12:18Z</time>
      </trkpt>
      <trkpt lat="39.898352" lon="116.641308">
        <time>2021-11-28T10:12:23Z</time>
      </trkpt>
      <trkpt lat="39.898239" lon="116.641232">
        <time>2021-11-28T10:12:28Z</time>
      </trkpt>
      <trkpt lat="39.898122" lon="116.64119">
        <time>2021-11-28T10:12:33Z</time>
      </trkpt>
      <trkpt lat="39.898006" lon="116.641125">
        <time>2021-11-28T10:12:38Z</time>
      </trkpt>
      <trkpt lat="39.897879" lon="116.641052">
        <time>2021-11-28T10:12:43Z</time>
      </trkpt>
      <trkpt lat="39.897817" lon="116.641025">
        <time>2021-11-28T10:12:48Z</time>
      </trkpt>
      <trkpt lat="39.897707" lon="116.640994">
        <time>2021-11-28T10:12:53Z</time>
      </trkpt>
      <trkpt lat="39.897546" lon="116.64093">
        <time>2021-11-28T10:12:58Z</time>
      </trkpt>
      <trkpt lat="39.897414" lon="116.640885">
        <time>2021-11-28T10:13:03Z</time>
      </trkpt>
      <trkpt lat="39.897294" lon="116.640805">
        <time>2021-11-28T10:13:08Z</time>
      </trkpt>
      <trkpt lat="39.897149" lon="116.640753">
        <time>2021-11-28T10:13:13Z</time>
      </trkpt>
      <trkpt lat="39.897014" lon="116.640702">
        <time>2021-11-28T10:13:18Z</time>
      </trkpt>
      <trkpt lat="39.89685" lon="116.640615">
        <time>2021-11-28T10:13:23Z</time>
      </trkpt>
      <trkpt lat="39.896767" lon="116.640567">
        <time>2021-11-28T10:13:28Z</time>
      </trkpt>
      <trkpt lat="39.896703" lon="116.640532">
        <time>2021-11-28T10:13:33Z</time>
      </trkpt>
      <trkpt lat="39.896569" lon="116.640469">
        <time>2021-11-28T10:13:38Z</time>
      </trkpt>
      <trkpt lat="39.896522" lon="116.640428">
        <time>2021-11-28T10:13:43Z</time>
      </trkpt>
      <trkpt lat="39.896448" lon="116.640353">
        <time>2021-11-28T10:13:48Z</time>
      </trkpt>
      <trkpt lat="39.896335" lon="116.640312">
        <time>2021-11-28T10:13:53Z</time>
      </trkpt>
      <trkpt lat="39.896293" lon="116.640183">
        <time>2021-11-28T10:13:58Z</time>
      </trkpt>
      <trkpt lat="39.896291" lon="116.640026">
        <time>2021-11-28T10:14:03Z</time>
      </trkpt>
      <trkpt lat="39.896269" lon="116.639863">
        <time>2021-11-28T10:14:08Z</time>
      </trkpt>
      <trkpt lat="39.896259" lon="116.639747">
        <time>2021-11-28T10:14:13Z</time>
      </trkpt>
      <trkpt lat="39.896247" lon="116.639612">
        <time>2021-11-28T10:14:18Z</time>
      </trkpt>
      <trkpt lat="39.896246" lon="116.639309">
        <time>2021-11-28T10:14:23Z</time>
      </trkpt>
      <trkpt lat="39.896243" lon="116.639276">
        <time>2021-11-28T10:14:28Z</time>
      </trkpt>
      <trkpt lat="39.896238" lon="116.639116">
        <time>2021-11-28T10:14:33Z</time>
      </trkpt>
      <trkpt lat="39.896232" lon="116.638935">
        <time>2021-11-28T10:14:38Z</time>
      </trkpt>
      <trkpt lat="39.89623" lon="116.638777">
        <time>2021-11-28T10:14:43Z</time>
      </trkpt>
      <trkpt lat="39.896226" lon="116.638581">
        <time>2021-11-28T10:14:48Z</time>
      </trkpt>
      <trkpt lat="39.896229" lon="116.638384">
        <time>2021-11-28T10:14:53Z</time>
      </trkpt>
      <trkpt lat="39.896216" lon="116.638199">
        <time>2021-11-28T10:14:58Z</time>
      </trkpt>
      <trkpt lat="39.8962" lon="116.638022">
        <time>2021-11-28T10:15:03Z</time>
      </trkpt>
      <trkpt lat="39.896185" lon="116.63784">
        <time>2021-11-28T10:15:08Z</time>
      </trkpt>
      <trkpt lat="39.896181" lon="116.637712">
        <time>2021-11-28T10:15:13Z</time>
      </trkpt>
      <trkpt lat="39.896187" lon="116.637606">
        <time>2021-11-28T10:15:18Z</time>
      </trkpt>
      <trkpt lat="39.896174" lon="116.6375">
        <time>2021-11-28T10:15:23Z</time>
      </trkpt>
      <trkpt lat="39.896174" lon="116.637377">
        <time>2021-11-28T10:15:28Z</time>
      </trkpt>
      <trkpt lat="39.896166" lon="116.637246">
        <time>2021-11-28T10:15:33Z</time>
      </trkpt>
      <trkpt lat="39.896129" lon="116.637049">
        <time>2021-11-28T10:15:38Z</time>
      </trkpt>
      <trkpt lat="39.896068" lon="116.636725">
        <time>2021-11-28T10:15:43Z</time>
      </trkpt>
      <trkpt lat="39.896057" lon="116.636696">
        <time>2021-11-28T10:15:48Z</time>
      </trkpt>
      <trkpt lat="39.895982" lon="116.636564">
        <time>2021-11-28T10:15:53Z</time>
      </trkpt>
      <trkpt lat="39.895889" lon="116.636524">
        <time>2021-11-28T10:15:58Z</time>
      </trkpt>
      <trkpt lat="39.895948" lon="116.636698">
        <time>2021-11-28T10:16:03Z</time>
      </trkpt>
      <trkpt lat="39.89605" lon="116.636857">
        <time>2021-11-28T10:16:08Z</time>
      </trkpt>
      <trkpt lat="39.896106" lon="116.637112">
        <time>2021-11-28T10:16:13Z</time>
      </trkpt>
      <trkpt lat="39.896119" lon="116.637195">
        <time>2021-11-28T10:16:18Z</time>
      </trkpt>
      <trkpt lat="39.896129" lon="116.637365">
        <time>2021-11-28T10:16:23Z</time>
      </trkpt>
      <trkpt lat="39.896136" lon="116.637517">
        <time>2021-11-28T10:16:28Z</time>
      </trkpt>
      <trkpt lat="39.896139" lon="116.637701">
        <time>2021-11-28T10:16:33Z</time>
      </trkpt>
      <trkpt lat="39.896161" lon="116.637909">
        <time>2021-11-28T10:16:38Z</time>
      </trkpt>
      <trkpt lat="39.896169" lon="116.638053">
        <time>2021-11-28T10:16:43Z</time>
      </trkpt>
      <trkpt lat="39.896156" lon="116.638201">
        <time>2021-11-28T10:16:48Z</time>
      </trkpt>
      <trkpt lat="39.896163" lon="116.638387">
        <time>2021-11-28T10:16:53Z</time>
      </trkpt>
      <trkpt lat="39.896171" lon="116.638581">
        <time>2021-11-28T10:16:58Z</time>
      </trkpt>
      <trkpt lat="39.896186" lon="116.638786">
        <time>2021-11-28T10:17:03Z</time>
      </trkpt>
      <trkpt lat="39.896213" lon="116.639017">
        <time>2021-11-28T10:17:08Z</time>
      </trkpt>
      <trkpt lat="39.896236" lon="116.639159">
        <time>2021-11-28T10:17:13Z</time>
      </trkpt>
      <trkpt lat="39.896234" lon="116.63931">
        <time>2021-11-28T10:17:18Z</time>
      </trkpt>
      <trkpt lat="39.896218" lon="116.639403">
        <time>2021-11-28T10:17:23Z</time>
      </trkpt>
      <trkpt lat="39.896222" lon="116.639493">
        <time>2021-11-28T10:17:28Z</time>
      </trkpt>
      <trkpt lat="39.89623" lon="116.639633">
        <time>2021-11-28T10:17:33Z</time>
      </trkpt>
      <trkpt lat="39.896225" lon="116.639704">
        <time>2021-11-28T10:17:38Z</time>
      </trkpt>
      <trkpt lat="39.89623" lon="116.639822">
        <time>2021-11-28T10:17:43Z</time>
      </trkpt>
      <trkpt lat="39.896232" lon="116.639944">
        <time>2021-11-28T10:17:48Z</time>
      </trkpt>
      <trkpt lat="39.896242" lon="116.640063">
        <time>2021-11-28T10:17:53Z</time>
      </trkpt>
      <trkpt lat="39.896241" lon="116.640236">
        <time>2021-11-28T10:17:58Z</time>
      </trkpt>
      <trkpt lat="39.896239" lon="116.640408">
        <time>2021-11-28T10:18:03Z</time>
      </trkpt>
      <trkpt lat="39.896224" lon="116.640602">
        <time>2021-11-28T10:18:08Z</time>
      </trkpt>
      <trkpt lat="39.896213" lon="116.640818">
        <time>2021-11-28T10:18:13Z</time>
      </trkpt>
      <trkpt lat="39.896205" lon="116.640989">
        <time>2021-11-28T10:18:18Z</time>
      </trkpt>
      <trkpt lat="39.896193" lon="116.641224">
        <time>2021-11-28T10:18:23Z</time>
      </trkpt>
      <trkpt lat="39.896184" lon="116.641415">
        <time>2021-11-28T10:18:28Z</time>
      </trkpt>
      <trkpt lat="39.896184" lon="116.641568">
        <time>2021-11-28T10:18:33Z</time>
      </trkpt>
      <trkpt lat="39.896201" lon="116.641765">
        <time>2021-11-28T10:18:38Z</time>
      </trkpt>
      <trkpt lat="39.896188" lon="116.641948">
        <time>2021-11-28T10:18:43Z</time>
      </trkpt>
      <trkpt lat="39.896174" lon="116.642142">
        <time>2021-11-28T10:18:48Z</time>
      </trkpt>
      <trkpt lat="39.896173" lon="116.642212">
        <time>2021-11-28T10:18:53Z</time>
      </trkpt>
      <trkpt lat="39.896169" lon="116.642332">
        <time>2021-11-28T10:18:58Z</time>
      </trkpt>
      <trkpt lat="39.896159" lon="116.642475">
        <time>2021-11-28T10:19:03Z</time>
      </trkpt>
      <trkpt lat="39.896172" lon="116.642618">
        <time>2021-11-28T10:19:08Z</time>
      </trkpt>
      <trkpt lat="39.896159" lon="116.642765">
        <time>2021-11-28T10:19:13Z</time>
      </trkpt>
      <trkpt lat="39.896152" lon="116.643021">
        <time>2021-11-28T10:19:18Z</time>
      </trkpt>
      <trkpt lat="39.896146" lon="116.6431">
        <time>2021-11-28T10:19:23Z</time>
      </trkpt>
      <trkpt lat="39.896127" lon="116.64328">
        <time>2021-11-28T10:19:28Z</time>
      </trkpt>
      <trkpt lat="39.896148" lon="116.643397">
        <time>2021-11-28T10:19:33Z</time>
      </trkpt>
      <trkpt lat="39.896164" lon="116.643485">
        <time>2021-11-28T10:19:38Z</time>
      </trkpt>
      <trkpt lat="39.89619" lon="116.643637">
        <time>2021-11-28T10:19:43Z</time>
      </trkpt>
      <trkpt lat="39.896177" lon="116.643832">
        <time>2021-11-28T10:19:48Z</time>
      </trkpt>
      <trkpt lat="39.896174" lon="116.643945">
        <time>2021-11-28T10:19:53Z</time>
      </trkpt>
      <trkpt lat="39.896173" lon="116.644072">
        <time>2021-11-28T10:19:58Z</time>
      </trkpt>
      <trkpt lat="39.896166" lon="116.644229">
        <time>2021-11-28T10:20:03Z</time>
      </trkpt>
      <trkpt lat="39.896157" lon="116.644372">
        <time>2021-11-28T10:20:08Z</time>
      </trkpt>
      <trkpt lat="39.896164" lon="116.644582">
        <time>2021-11-28T10:20:13Z</time>
      </trkpt>
      <trkpt lat="39.896166" lon="116.644668">
        <time>2021-11-28T10:20:18Z</time>
      </trkpt>
      <trkpt lat="39.89617" lon="116.64479">
        <time>2021-11-28T10:20:23Z</time>
      </trkpt>
      <trkpt lat="39.896159" lon="116.644911">
        <time>2021-11-28T10:20:28Z</time>
      </trkpt>
      <trkpt lat="39.896148" lon="116.645044">
        <time>2021-11-28T10:20:33Z</time>
      </trkpt>
      <trkpt lat="39.896133" lon="116.645264">
        <time>2021-11-28T10:20:38Z</time>
      </trkpt>
      <trkpt lat="39.896127" lon="116.645328">
        <time>2021-11-28T10:20:43Z</time>
      </trkpt>
      <trkpt lat="39.896094" lon="116.645463">
        <time>2021-11-28T10:20:48Z</time>
      </trkpt>
      <trkpt lat="39.896087" lon="116.645626">
        <time>2021-11-28T10:20:53Z</time>
      </trkpt>
      <trkpt lat="39.89605" lon="116.645806">
        <time>2021-11-28T10:20:58Z</time>
      </trkpt>
      <trkpt lat="39.896019" lon="116.645978">
        <time>2021-11-28T10:21:03Z</time>
      </trkpt>
      <trkpt lat="39.896005" lon="116.646117">
        <time>2021-11-28T10:21:08Z</time>
      </trkpt>
      <trkpt lat="39.895983" lon="116.646289">
        <time>2021-11-28T10:21:13Z</time>
      </trkpt>
      <trkpt lat="39.895961" lon="116.646436">
        <time>2021-11-28T10:21:18Z</time>
      </trkpt>
      <trkpt lat="39.895953" lon="116.64659">
        <time>2021-11-28T10:21:23Z</time>
      </trkpt>
      <trkpt lat="39.895946" lon="116.64676">
        <time>2021-11-28T10:21:28Z</time>
      </trkpt>
      <trkpt lat="39.895881" lon="116.64684">
        <time>2021-11-28T10:21:33Z</time>
      </trkpt>
      <trkpt lat="39.895784" lon="116.646798">
        <time>2021-11-28T10:21:38Z</time>
      </trkpt>
      <trkpt lat="39.895719" lon="116.646745">
        <time>2021-11-28T10:21:43Z</time>
      </trkpt>
      <trkpt lat="39.895612" lon="116.646682">
        <time>2021-11-28T10:21:48Z</time>
      </trkpt>
      <trkpt lat="39.89552" lon="116.646627">
        <time>2021-11-28T10:21:53Z</time>
      </trkpt>
      <trkpt lat="39.895411" lon="116.646577">
        <time>2021-11-28T10:21:58Z</time>
      </trkpt>
      <trkpt lat="39.895284" lon="116.646519">
        <time>2021-11-28T10:22:03Z</time>
      </trkpt>
      <trkpt lat="39.895165" lon="116.646457">
        <time>2021-11-28T10:22:08Z</time>
      </trkpt>
      <trkpt lat="39.895042" lon="116.646397">
        <time>2021-11-28T10:22:13Z</time>
      </trkpt>
      <trkpt lat="39.894924" lon="116.646353">
        <time>2021-11-28T10:22:18Z</time>
      </trkpt>
      <trkpt lat="39.894789" lon="116.646272">
        <time>2021-11-28T10:22:23Z</time>
      </trkpt>
      <trkpt lat="39.894675" lon="116.646201">
        <time>2021-11-28T10:22:28Z</time>
      </trkpt>
      <trkpt lat="39.894558" lon="116.646141">
        <time>2021-11-28T10:22:33Z</time>
      </trkpt>
      <trkpt lat="39.894448" lon="116.646101">
        <time>2021-11-28T10:22:38Z</time>
      </trkpt>
      <trkpt lat="39.894329" lon="116.646049">
        <time>2021-11-28T10:22:43Z</time>
      </trkpt>
      <trkpt lat="39.894209" lon="116.645993">
        <time>2021-11-28T10:22:48Z</time>
      </trkpt>
      <trkpt lat="39.894084" lon="116.645928">
        <time>2021-11-28T10:22:53Z</time>
      </trkpt>
      <trkpt lat="39.893963" lon="116.64589">
        <time>2021-11-28T10:22:58Z</time>
      </trkpt>
      <trkpt lat="39.893844" lon="116.645889">
        <time>2021-11-28T10:23:03Z</time>
      </trkpt>
      <trkpt lat="39.893792" lon="116.645967">
        <time>2021-11-28T10:23:08Z</time>
      </trkpt>
      <trkpt lat="39.893757" lon="116.646051">
        <time>2021-11-28T10:23:13Z</time>
      </trkpt>
      <trkpt lat="39.893702" lon="116.646183">
        <time>2021-11-28T10:23:18Z</time>
      </trkpt>
      <trkpt lat="39.893601" lon="116.646323">
        <time>2021-11-28T10:23:23Z</time>
      </trkpt>
      <trkpt lat="39.893507" lon="116.646321">
        <time>2021-11-28T10:23:28Z</time>
      </trkpt>
      <trkpt lat="39.89342" lon="116.646243">
        <time>2021-11-28T10:23:33Z</time>
      </trkpt>
      <trkpt lat="39.893361" lon="116.646199">
        <time>2021-11-28T10:23:38Z</time>
      </trkpt>
      <trkpt lat="39.893297" lon="116.646157">
        <time>2021-11-28T10:23:43Z</time>
      </trkpt>
      <trkpt lat="39.893211" lon="116.646116">
        <time>2021-11-28T10:23:48Z</time>
      </trkpt>
      <trkpt lat="39.893108" lon="116.646062">
        <time>2021-11-28T10:23:53Z</time>
      </trkpt>
      <trkpt lat="39.892976" lon="116.646034">
        <time>2021-11-28T10:23:58Z</time>
      </trkpt>
      <trkpt lat="39.89286" lon="116.645973">
        <time>2021-11-28T10:24:03Z</time>
      </trkpt>
      <trkpt lat="39.892739" lon="116.645914">
        <time>2021-11-28T10:24:08Z</time>
      </trkpt>
      <trkpt lat="39.892632" lon="116.645847">
        <time>2021-11-28T10:24:13Z</time>
      </trkpt>
      <trkpt lat="39.892492" lon="116.645772">
        <time>2021-11-28T10:24:18Z</time>
      </trkpt>
      <trkpt lat="39.89235" lon="116.645706">
        <time>2021-11-28T10:24:23Z</time>
      </trkpt>
      <trkpt lat="39.892224" lon="116.645616">
        <time>2021-11-28T10:24:28Z</time>
      </trkpt>
      <trkpt lat="39.892113" lon="116.645574">
        <time>2021-11-28T10:24:33Z</time>
      </trkpt>
      <trkpt lat="39.891982" lon="116.645528">
        <time>2021-11-28T10:24:38Z</time>
      </trkpt>
      <trkpt lat="39.89186" lon="116.645461">
        <time>2021-11-28T10:24:43Z</time>
      </trkpt>
      <trkpt lat="39.891728" lon="116.645388">
        <time>2021-11-28T10:24:48Z</time>
      </trkpt>
      <trkpt lat="39.891622" lon="116.645333">
        <time>2021-11-28T10:24:53Z</time>
      </trkpt>
      <trkpt lat="39.891515" lon="116.64532">
        <time>2021-11-28T10:24:58Z</time>
      </trkpt>
      <trkpt lat="39.89151" lon="116.64535">
        <time>2021-11-28T10:25:03Z</time>
      </trkpt>
      <trkpt lat="39.891587" lon="116.645415">
        <time>2021-11-28T10:25:08Z</time>
      </trkpt>
      <trkpt lat="39.891691" lon="116.645489">
        <time>2021-11-28T10:25:13Z</time>
      </trkpt>
      <trkpt lat="39.891818" lon="116.645544">
        <time>2021-11-28T10:25:18Z</time>
      </trkpt>
      <trkpt lat="39.891952" lon="116.645601">
        <time>2021-11-28T10:25:23Z</time>
      </trkpt>
      <trkpt lat="39.892088" lon="116.645653">
        <time>2021-11-28T10:25:28Z</time>
      </trkpt>
      <trkpt lat="39.892216" lon="116.645704">
        <time>2021-11-28T10:25:33Z</time>
      </trkpt>
      <trkpt lat="39.892315" lon="116.645768">
        <time>2021-11-28T10:25:38Z</time>
      </trkpt>
      <trkpt lat="39.892397" lon="116.645809">
        <time>2021-11-28T10:25:43Z</time>
      </trkpt>
      <trkpt lat="39.892469" lon="116.64582">
        <time>2021-11-28T10:25:48Z</time>
      </trkpt>
      <trkpt lat="39.892528" lon="116.645842">
        <time>2021-11-28T10:25:53Z</time>
      </trkpt>
      <trkpt lat="39.892616" lon="116.645898">
        <time>2021-11-28T10:25:58Z</time>
      </trkpt>
      <trkpt lat="39.892708" lon="116.645947">
        <time>2021-11-28T10:26:03Z</time>
      </trkpt>
      <trkpt lat="39.892847" lon="116.645993">
        <time>2021-11-28T10:26:08Z</time>
      </trkpt>
      <trkpt lat="39.892995" lon="116.646082">
        <time>2021-11-28T10:26:13Z</time>
      </trkpt>
      <trkpt lat="39.893102" lon="116.64612">
        <time>2021-11-28T10:26:18Z</time>
      </trkpt>
      <trkpt lat="39.893162" lon="116.646165">
        <time>2021-11-28T10:26:23Z</time>
      </trkpt>
      <trkpt lat="39.893277" lon="116.646181">
        <time>2021-11-28T10:26:28Z</time>
      </trkpt>
      <trkpt lat="39.893426" lon="116.646251">
        <time>2021-11-28T10:26:33Z</time>
      </trkpt>
      <trkpt lat="39.893593" lon="116.646337">
        <time>2021-11-28T10:26:38Z</time>
      </trkpt>
      <trkpt lat="39.893734" lon="116.646331">
        <time>2021-11-28T10:26:43Z</time>
      </trkpt>
      <trkpt lat="39.893829" lon="116.646205">
        <time>2021-11-28T10:26:48Z</time>
      </trkpt>
      <trkpt lat="39.893892" lon="116.646084">
        <time>2021-11-28T10:26:53Z</time>
      </trkpt>
      <trkpt lat="39.893981" lon="116.64598">
        <time>2021-11-28T10:26:58Z</time>
      </trkpt>
      <trkpt lat="39.894107" lon="116.645993">
        <time>2021-11-28T10:27:03Z</time>
      </trkpt>
      <trkpt lat="39.894169" lon="116.646023">
        <time>2021-11-28T10:27:08Z</time>
      </trkpt>
      <trkpt lat="39.89427" lon="116.646068">
        <time>2021-11-28T10:27:13Z</time>
      </trkpt>
      <trkpt lat="39.894351" lon="116.646104">
        <time>2021-11-28T10:27:18Z</time>
      </trkpt>
      <trkpt lat="39.894423" lon="116.646138">
        <time>2021-11-28T10:27:23Z</time>
      </trkpt>
      <trkpt lat="39.894462" lon="116.646166">
        <time>2021-11-28T10:27:28Z</time>
      </trkpt>
      <trkpt lat="39.894527" lon="116.646204">
        <time>2021-11-28T10:27:33Z</time>
      </trkpt>
      <trkpt lat="39.894663" lon="116.646282">
        <time>2021-11-28T10:27:38Z</time>
      </trkpt>
      <trkpt lat="39.894734" lon="116.646314">
        <time>2021-11-28T10:27:43Z</time>
      </trkpt>
      <trkpt lat="39.894817" lon="116.646389">
        <time>2021-11-28T10:27:48Z</time>
      </trkpt>
      <trkpt lat="39.894956" lon="116.646444">
        <time>2021-11-28T10:27:53Z</time>
      </trkpt>
      <trkpt lat="39.895122" lon="116.646505">
        <time>2021-11-28T10:27:58Z</time>
      </trkpt>
      <trkpt lat="39.895278" lon="116.646574">
        <time>2021-11-28T10:28:03Z</time>
      </trkpt>
      <trkpt lat="39.895448" lon="116.646645">
        <time>2021-11-28T10:28:08Z</time>
      </trkpt>
      <trkpt lat="39.895558" lon="116.646676">
        <time>2021-11-28T10:28:13Z</time>
      </trkpt>
      <trkpt lat="39.895688" lon="116.64674">
        <time>2021-11-28T10:28:18Z</time>
      </trkpt>
      <trkpt lat="39.895826" lon="116.6468">
        <time>2021-11-28T10:28:23Z</time>
      </trkpt>
      <trkpt lat="39.895939" lon="116.646846">
        <time>2021-11-28T10:28:28Z</time>
      </trkpt>
      <trkpt lat="39.896078" lon="116.646832">
        <time>2021-11-28T10:28:33Z</time>
      </trkpt>
      <trkpt lat="39.896118" lon="116.646704">
        <time>2021-11-28T10:28:38Z</time>
      </trkpt>
      <trkpt lat="39.896092" lon="116.646487">
        <time>2021-11-28T10:28:43Z</time>
      </trkpt>
      <trkpt lat="39.896083" lon="116.64629">
        <time>2021-11-28T10:28:48Z</time>
      </trkpt>
      <trkpt lat="39.896094" lon="116.646105">
        <time>2021-11-28T10:28:53Z</time>
      </trkpt>
      <trkpt lat="39.896119" lon="116.64591">
        <time>2021-11-28T10:28:58Z</time>
      </trkpt>
      <trkpt lat="39.896126" lon="116.645719">
        <time>2021-11-28T10:29:03Z</time>
      </trkpt>
      <trkpt lat="39.896141" lon="116.645608">
        <time>2021-11-28T10:29:08Z</time>
      </trkpt>
      <trkpt lat="39.896159" lon="116.64553">
        <time>2021-11-28T10:29:13Z</time>
      </trkpt>
      <trkpt lat="39.896179" lon="116.645435">
        <time>2021-11-28T10:29:18Z</time>
      </trkpt>
      <trkpt lat="39.896176" lon="116.645339">
        <time>2021-11-28T10:29:23Z</time>
      </trkpt>
      <trkpt lat="39.896184" lon="116.64524">
        <time>2021-11-28T10:29:28Z</time>
      </trkpt>
      <trkpt lat="39.896194" lon="116.645159">
        <time>2021-11-28T10:29:33Z</time>
      </trkpt>
      <trkpt lat="39.896205" lon="116.64505">
        <time>2021-11-28T10:29:38Z</time>
      </trkpt>
      <trkpt lat="39.896205" lon="116.644929">
        <time>2021-11-28T10:29:43Z</time>
      </trkpt>
      <trkpt lat="39.896209" lon="116.644815">
        <time>2021-11-28T10:29:48Z</time>
      </trkpt>
      <trkpt lat="39.896213" lon="116.644693">
        <time>2021-11-28T10:29:53Z</time>
      </trkpt>
      <trkpt lat="39.896209" lon="116.644549">
        <time>2021-11-28T10:29:58Z</time>
      </trkpt>
      <trkpt lat="39.896213" lon="116.644395">
        <time>2021-11-28T10:30:03Z</time>
      </trkpt>
      <trkpt lat="39.896208" lon="116.644206">
        <time>2021-11-28T10:30:08Z</time>
      </trkpt>
      <trkpt lat="39.896201" lon="116.644086">
        <time>2021-11-28T10:30:13Z</time>
      </trkpt>
      <trkpt lat="39.896197" lon="116.64395">
        <time>2021-11-28T10:30:18Z</time>
      </trkpt>
      <trkpt lat="39.896197" lon="116.643842">
        <time>2021-11-28T10:30:23Z</time>
      </trkpt>
      <trkpt lat="39.896189" lon="116.643729">
        <time>2021-11-28T10:30:28Z</time>
      </trkpt>
      <trkpt lat="39.896195" lon="116.643627">
        <time>2021-11-28T10:30:33Z</time>
      </trkpt>
      <trkpt lat="39.896195" lon="116.643548">
        <time>2021-11-28T10:30:38Z</time>
      </trkpt>
      <trkpt lat="39.896199" lon="116.643424">
        <time>2021-11-28T10:30:43Z</time>
      </trkpt>
      <trkpt lat="39.896218" lon="116.643304">
        <time>2021-11-28T10:30:48Z</time>
      </trkpt>
      <trkpt lat="39.896227" lon="116.643124">
        <time>2021-11-28T10:30:53Z</time>
      </trkpt>
      <trkpt lat="39.896213" lon="116.642894">
        <time>2021-11-28T10:30:58Z</time>
      </trkpt>
      <trkpt lat="39.89624" lon="116.642782">
        <time>2021-11-28T10:31:03Z</time>
      </trkpt>
      <trkpt lat="39.89624" lon="116.642568">
        <time>2021-11-28T10:31:08Z</time>
      </trkpt>
      <trkpt lat="39.896241" lon="116.642358">
        <time>2021-11-28T10:31:13Z</time>
      </trkpt>
      <trkpt lat="39.896225" lon="116.642134">
        <time>2021-11-28T10:31:18Z</time>
      </trkpt>
      <trkpt lat="39.89622" lon="116.641948">
        <time>2021-11-28T10:31:23Z</time>
      </trkpt>
      <trkpt lat="39.896243" lon="116.641746">
        <time>2021-11-28T10:31:28Z</time>
      </trkpt>
      <trkpt lat="39.896248" lon="116.641659">
        <time>2021-11-28T10:31:33Z</time>
      </trkpt>
      <trkpt lat="39.896253" lon="116.641474">
        <time>2021-11-28T10:31:38Z</time>
      </trkpt>
      <trkpt lat="39.896247" lon="116.641286">
        <time>2021-11-28T10:31:43Z</time>
      </trkpt>
      <trkpt lat="39.896252" lon="116.641163">
        <time>2021-11-28T10:31:48Z</time>
      </trkpt>
      <trkpt lat="39.896257" lon="116.640996">
        <time>2021-11-28T10:31:53Z</time>
      </trkpt>
      <trkpt lat="39.89625" lon="116.640838">
        <time>2021-11-28T10:31:58Z</time>
      </trkpt>
      <trkpt lat="39.896253" lon="116.640665">
        <time>2021-11-28T10:32:03Z</time>
      </trkpt>
      <trkpt lat="39.896252" lon="116.64048">
        <time>2021-11-28T10:32:08Z</time>
      </trkpt>
      <trkpt lat="39.896274" lon="116.640163">
        <time>2021-11-28T10:32:13Z</time>
      </trkpt>
      <trkpt lat="39.896277" lon="116.640128">
        <time>2021-11-28T10:32:18Z</time>
      </trkpt>
      <trkpt lat="39.896272" lon="116.639964">
        <time>2021-11-28T10:32:23Z</time>
      </trkpt>
      <trkpt lat="39.896248" lon="116.639757">
        <time>2021-11-28T10:32:28Z</time>
      </trkpt>
      <trkpt lat="39.896242" lon="116.639587">
        <time>2021-11-28T10:32:33Z</time>
      </trkpt>
      <trkpt lat="39.896239" lon="116.639318">
        <time>2021-11-28T10:32:38Z</time>
      </trkpt>
      <trkpt lat="39.896233" lon="116.639248">
        <time>2021-11-28T10:32:43Z</time>
      </trkpt>
      <trkpt lat="39.896227" lon="116.639146">
        <time>2021-11-28T10:32:48Z</time>
      </trkpt>
      <trkpt lat="39.896229" lon="116.639044">
        <time>2021-11-28T10:32:53Z</time>
      </trkpt>
      <trkpt lat="39.896236" lon="116.638951">
        <time>2021-11-28T10:32:58Z</time>
      </trkpt>
      <trkpt lat="39.896248" lon="116.638878">
        <time>2021-11-28T10:33:03Z</time>
      </trkpt>
      <trkpt lat="39.896242" lon="116.638751">
        <time>2021-11-28T10:33:08Z</time>
      </trkpt>
      <trkpt lat="39.896241" lon="116.638624">
        <time>2021-11-28T10:33:13Z</time>
      </trkpt>
      <trkpt lat="39.896244" lon="116.638513">
        <time>2021-11-28T10:33:18Z</time>
      </trkpt>
      <trkpt lat="39.896244" lon="116.638419">
        <time>2021-11-28T10:33:23Z</time>
      </trkpt>
      <trkpt lat="39.896233" lon="116.638319">
        <time>2021-11-28T10:33:28Z</time>
      </trkpt>
      <trkpt lat="39.896227" lon="116.638223">
        <time>2021-11-28T10:33:33Z</time>
      </trkpt>
      <trkpt lat="39.896229" lon="116.638142">
        <time>2021-11-28T10:33:38Z</time>
      </trkpt>
      <trkpt lat="39.896219" lon="116.638052">
        <time>2021-11-28T10:33:43Z</time>
      </trkpt>
      <trkpt lat="39.896215" lon="116.637919">
        <time>2021-11-28T10:33:48Z</time>
      </trkpt>
      <trkpt lat="39.896206" lon="116.637826">
        <time>2021-11-28T10:33:53Z</time>
      </trkpt>
      <trkpt lat="39.896197" lon="116.637698">
        <time>2021-11-28T10:33:58Z</time>
      </trkpt>
      <trkpt lat="39.896192" lon="116.637564">
        <time>2021-11-28T10:34:03Z</time>
      </trkpt>
      <trkpt lat="39.896164" lon="116.637385">
        <time>2021-11-28T10:34:08Z</time>
      </trkpt>
      <trkpt lat="39.896162" lon="116.637306">
        <time>2021-11-28T10:34:13Z</time>
      </trkpt>
      <trkpt lat="39.896167" lon="116.637163">
        <time>2021-11-28T10:34:18Z</time>
      </trkpt>
      <trkpt lat="39.896147" lon="116.636988">
        <time>2021-11-28T10:34:23Z</time>
      </trkpt>
      <trkpt lat="39.896076" lon="116.636729">
        <time>2021-11-28T10:34:28Z</time>
      </trkpt>
      <trkpt lat="39.896033" lon="116.636651">
        <time>2021-11-28T10:34:33Z</time>
      </trkpt>
      <trkpt lat="39.895925" lon="116.63652">
        <time>2021-11-28T10:34:38Z</time>
      </trkpt>
      <trkpt lat="39.895849" lon="116.636403">
        <time>2021-11-28T10:34:43Z</time>
      </trkpt>
      <trkpt lat="39.895988" lon="116.636326">
        <time>2021-11-28T10:34:48Z</time>
      </trkpt>
      <trkpt lat="39.896137" lon="116.636269">
        <time>2021-11-28T10:34:53Z</time>
      </trkpt>
      <trkpt lat="39.896291" lon="116.636214">
        <time>2021-11-28T10:34:58Z</time>
      </trkpt>
      <trkpt lat="39.896437" lon="116.636181">
        <time>2021-11-28T10:35:03Z</time>
      </trkpt>
      <trkpt lat="39.896568" lon="116.636077">
        <time>2021-11-28T10:35:08Z</time>
      </trkpt>
      <trkpt lat="39.896637" lon="116.636007">
        <time>2021-11-28T10:35:13Z</time>
      </trkpt>
      <trkpt lat="39.896715" lon="116.635932">
        <time>2021-11-28T10:35:18Z</time>
      </trkpt>
      <trkpt lat="39.896803" lon="116.635891">
        <time>2021-11-28T10:35:23Z</time>
      </trkpt>
      <trkpt lat="39.896892" lon="116.635837">
        <time>2021-11-28T10:35:28Z</time>
      </trkpt>
      <trkpt lat="39.896982" lon="116.635774">
        <time>2021-11-28T10:35:33Z</time>
      </trkpt>
      <trkpt lat="39.897095" lon="116.635716">
        <time>2021-11-28T10:35:38Z</time>
      </trkpt>
      <trkpt lat="39.89719" lon="116.635679">
        <time>2021-11-28T10:35:43Z</time>
      </trkpt>
      <trkpt lat="39.897269" lon="116.635613">
        <time>2021-11-28T10:35:48Z</time>
      </trkpt>
      <trkpt lat="39.897374" lon="116.635549">
        <time>2021-11-28T10:35:53Z</time>
      </trkpt>
      <trkpt lat="39.897507" lon="116.635415">
        <time>2021-11-28T10:35:58Z</time>
      </trkpt>
      <trkpt lat="39.897564" lon="116.635359">
        <time>2021-11-28T10:36:03Z</time>
      </trkpt>
      <trkpt lat="39.897683" lon="116.635282">
        <time>2021-11-28T10:36:08Z</time>
      </trkpt>
      <trkpt lat="39.897805" lon="116.635231">
        <time>2021-11-28T10:36:13Z</time>
      </trkpt>
      <trkpt lat="39.897899" lon="116.635169">
        <time>2021-11-28T10:36:18Z</time>
      </trkpt>
      <trkpt lat="39.898009" lon="116.635103">
        <time>2021-11-28T10:36:23Z</time>
      </trkpt>
      <trkpt lat="39.898113" lon="116.635045">
        <time>2021-11-28T10:36:28Z</time>
      </trkpt>
      <trkpt lat="39.89821" lon="116.634961">
        <time>2021-11-28T10:36:33Z</time>
      </trkpt>
      <trkpt lat="39.898321" lon="116.634892">
        <time>2021-11-28T10:36:38Z</time>
      </trkpt>
      <trkpt lat="39.89846" lon="116.634838">
        <time>2021-11-28T10:36:43Z</time>
      </trkpt>
      <trkpt lat="39.898565" lon="116.634763">
        <time>2021-11-28T10:36:48Z</time>
      </trkpt>
      <trkpt lat="39.898644" lon="116.634708">
        <time>2021-11-28T10:36:53Z</time>
      </trkpt>
      <trkpt lat="39.898707" lon="116.63465">
        <time>2021-11-28T10:36:58Z</time>
      </trkpt>
      <trkpt lat="39.898782" lon="116.634602">
        <time>2021-11-28T10:37:03Z</time>
      </trkpt>
      <trkpt lat="39.89886" lon="116.634543">
        <time>2021-11-28T10:37:08Z</time>
      </trkpt>
      <trkpt lat="39.898967" lon="116.63446">
        <time>2021-11-28T10:37:13Z</time>
      </trkpt>
      <trkpt lat="39.89907" lon="116.634381">
        <time>2021-11-28T10:37:18Z</time>
      </trkpt>
      <trkpt lat="39.899229" lon="116.634349">
        <time>2021-11-28T10:37:23Z</time>
      </trkpt>
      <trkpt lat="39.899355" lon="116.634287">
        <time>2021-11-28T10:37:28Z</time>
      </trkpt>
      <trkpt lat="39.899432" lon="116.634241">
        <time>2021-11-28T10:37:33Z</time>
      </trkpt>
      <trkpt lat="39.899505" lon="116.634215">
        <time>2021-11-28T10:37:38Z</time>
      </trkpt>
      <trkpt lat="39.899587" lon="116.634157">
        <time>2021-11-28T10:37:43Z</time>
      </trkpt>
      <trkpt lat="39.899654" lon="116.634121">
        <time>2021-11-28T10:37:48Z</time>
      </trkpt>
      <trkpt lat="39.899725" lon="116.634051">
        <time>2021-11-28T10:37:53Z</time>
      </trkpt>
      <trkpt lat="39.899816" lon="116.633963">
        <time>2021-11-28T10:37:58Z</time>
      </trkpt>
      <trkpt lat="39.899921" lon="116.633917">
        <time>2021-11-28T10:38:03Z</time>
      </trkpt>
      <trkpt lat="39.90001" lon="116.63382">
        <time>2021-11-28T10:38:08Z</time>
      </trkpt>
      <trkpt lat="39.900101" lon="116.633754">
        <time>2021-11-28T10:38:13Z</time>
      </trkpt>
      <trkpt lat="39.900234" lon="116.633693">
        <time>2021-11-28T10:38:18Z</time>
      </trkpt>
      <trkpt lat="39.900414" lon="116.633576">
        <time>2021-11-28T10:38:23Z</time>
      </trkpt>
      <trkpt lat="39.900445" lon="116.633546">
        <time>2021-11-28T10:38:28Z</time>
      </trkpt>
      <trkpt lat="39.900557" lon="116.633491">
        <time>2021-11-28T10:38:33Z</time>
      </trkpt>
      <trkpt lat="39.900622" lon="116.633452">
        <time>2021-11-28T10:38:38Z</time>
      </trkpt>
      <trkpt lat="39.9007" lon="116.633416">
        <time>2021-11-28T10:38:43Z</time>
      </trkpt>
      <trkpt lat="39.900776" lon="116.633359">
        <time>2021-11-28T10:38:48Z</time>
      </trkpt>
      <trkpt lat="39.900831" lon="116.633283">
        <time>2021-11-28T10:38:53Z</time>
      </trkpt>
      <trkpt lat="39.90091" lon="116.633222">
        <time>2021-11-28T10:38:58Z</time>
      </trkpt>
      <trkpt lat="39.900996" lon="116.633191">
        <time>2021-11-28T10:39:03Z</time>
      </trkpt>
      <trkpt lat="39.90107" lon="116.633245">
        <time>2021-11-28T10:39:08Z</time>
      </trkpt>
      <trkpt lat="39.901072" lon="116.633406">
        <time>2021-11-28T10:39:13Z</time>
      </trkpt>
      <trkpt lat="39.901032" lon="116.633582">
        <time>2021-11-28T10:39:18Z</time>
      </trkpt>
      <trkpt lat="39.901002" lon="116.633759">
        <time>2021-11-28T10:39:23Z</time>
      </trkpt>
      <trkpt lat="39.900917" lon="116.633928">
        <time>2021-11-28T10:39:28Z</time>
      </trkpt>
      <trkpt lat="39.900872" lon="116.634049">
        <time>2021-11-28T10:39:33Z</time>
      </trkpt>
      <trkpt lat="39.900823" lon="116.634211">
        <time>2021-11-28T10:39:38Z</time>
      </trkpt>
      <trkpt lat="39.9009" lon="116.634116">
        <time>2021-11-28T10:39:43Z</time>
      </trkpt>
      <trkpt lat="39.90097" lon="116.633924">
        <time>2021-11-28T10:39:48Z</time>
      </trkpt>
      <trkpt lat="39.901012" lon="116.633763">
        <time>2021-11-28T10:39:53Z</time>
      </trkpt>
      <trkpt lat="39.901047" lon="116.633614">
        <time>2021-11-28T10:39:58Z</time>
      </trkpt>
      <trkpt lat="39.90109" lon="116.633445">
        <time>2021-11-28T10:40:03Z</time>
      </trkpt>
      <trkpt lat="39.901086" lon="116.633262">
        <time>2021-11-28T10:40:08Z</time>
      </trkpt>
      <trkpt lat="39.901086" lon="116.633262">
        <time>2021-11-28T10:40:13Z</time>
      </trkpt>
      <trkpt lat="39.901003" lon="116.633232">
        <time>2021-11-28T10:40:18Z</time>
      </trkpt>
      <trkpt lat="39.900905" lon="116.632957">
        <time>2021-11-28T10:40:23Z</time>
      </trkpt>
      <trkpt lat="39.900867" lon="116.632904">
        <time>2021-11-28T10:40:28Z</time>
      </trkpt>
      <trkpt lat="39.9008" lon="116.632859">
        <time>2021-11-28T10:40:33Z</time>
      </trkpt>
      <trkpt lat="39.900678" lon="116.632928">
        <time>2021-11-28T10:40:38Z</time>
      </trkpt>
      <trkpt lat="39.900549" lon="116.632999">
        <time>2021-11-28T10:40:43Z</time>
      </trkpt>
      <trkpt lat="39.900429" lon="116.633063">
        <time>2021-11-28T10:40:48Z</time>
      </trkpt>
      <trkpt lat="39.900311" lon="116.633133">
        <time>2021-11-28T10:40:53Z</time>
      </trkpt>
      <trkpt lat="39.900191" lon="116.633192">
        <time>2021-11-28T10:40:58Z</time>
      </trkpt>
      <trkpt lat="39.900069" lon="116.633272">
        <time>2021-11-28T10:41:03Z</time>
      </trkpt>
      <trkpt lat="39.899929" lon="116.633368">
        <time>2021-11-28T10:41:08Z</time>
      </trkpt>
      <trkpt lat="39.899816" lon="116.633458">
        <time>2021-11-28T10:41:13Z</time>
      </trkpt>
      <trkpt lat="39.899697" lon="116.633528">
        <time>2021-11-28T10:41:18Z</time>
      </trkpt>
      <trkpt lat="39.899578" lon="116.633604">
        <time>2021-11-28T10:41:23Z</time>
      </trkpt>
      <trkpt lat="39.899461" lon="116.633625">
        <time>2021-11-28T10:41:28Z</time>
      </trkpt>
      <trkpt lat="39.89938" lon="116.633706">
        <time>2021-11-28T10:41:33Z</time>
      </trkpt>
      <trkpt lat="39.899281" lon="116.633786">
        <time>2021-11-28T10:41:38Z</time>
      </trkpt>
      <trkpt lat="39.899183" lon="116.633873">
        <time>2021-11-28T10:41:43Z</time>
      </trkpt>
      <trkpt lat="39.899086" lon="116.633941">
        <time>2021-11-28T10:41:48Z</time>
      </trkpt>
      <trkpt lat="39.898911" lon="116.634045">
        <time>2021-11-28T10:41:53Z</time>
      </trkpt>
      <trkpt lat="39.898863" lon="116.634075">
        <time>2021-11-28T10:41:58Z</time>
      </trkpt>
      <trkpt lat="39.898749" lon="116.634162">
        <time>2021-11-28T10:42:03Z</time>
      </trkpt>
      <trkpt lat="39.898634" lon="116.634248">
        <time>2021-11-28T10:42:08Z</time>
      </trkpt>
      <trkpt lat="39.898505" lon="116.634313">
        <time>2021-11-28T10:42:13Z</time>
      </trkpt>
      <trkpt lat="39.898293" lon="116.634469">
        <time>2021-11-28T10:42:18Z</time>
      </trkpt>
      <trkpt lat="39.89827" lon="116.63449">
        <time>2021-11-28T10:42:23Z</time>
      </trkpt>
      <trkpt lat="39.898159" lon="116.634556">
        <time>2021-11-28T10:42:28Z</time>
      </trkpt>
      <trkpt lat="39.898033" lon="116.634607">
        <time>2021-11-28T10:42:33Z</time>
      </trkpt>
      <trkpt lat="39.897952" lon="116.634467">
        <time>2021-11-28T10:42:38Z</time>
      </trkpt>
      <trkpt lat="39.897911" lon="116.634339">
        <time>2021-11-28T10:42:43Z</time>
      </trkpt>
      <trkpt lat="39.897876" lon="116.634208">
        <time>2021-11-28T10:42:48Z</time>
      </trkpt>
      <trkpt lat="39.897775" lon="116.634006">
        <time>2021-11-28T10:42:53Z</time>
      </trkpt>
      <trkpt lat="39.897752" lon="116.633917">
        <time>2021-11-28T10:42:58Z</time>
      </trkpt>
      <trkpt lat="39.897668" lon="116.633765">
        <time>2021-11-28T10:43:03Z</time>
      </trkpt>
      <trkpt lat="39.897539" lon="116.633676">
        <time>2021-11-28T10:43:08Z</time>
      </trkpt>
      <trkpt lat="39.897489" lon="116.633641">
        <time>2021-11-28T10:43:13Z</time>
      </trkpt>
      <trkpt lat="39.897403" lon="116.633681">
        <time>2021-11-28T10:43:18Z</time>
      </trkpt>
      <trkpt lat="39.897334" lon="116.633614">
        <time>2021-11-28T10:43:23Z</time>
      </trkpt>
      <trkpt lat="39.897297" lon="116.63353">
        <time>2021-11-28T10:43:28Z</time>
      </trkpt>
      <trkpt lat="39.897247" lon="116.633428">
        <time>2021-11-28T10:43:33Z</time>
      </trkpt>
      <trkpt lat="39.897186" lon="116.633339">
        <time>2021-11-28T10:43:38Z</time>
      </trkpt>
      <trkpt lat="39.897089" lon="116.633171">
        <time>2021-11-28T10:43:43Z</time>
      </trkpt>
      <trkpt lat="39.89705" lon="116.63312">
        <time>2021-11-28T10:43:48Z</time>
      </trkpt>
      <trkpt lat="39.896935" lon="116.632956">
        <time>2021-11-28T10:43:53Z</time>
      </trkpt>
      <trkpt lat="39.896774" lon="116.632945">
        <time>2021-11-28T10:43:58Z</time>
      </trkpt>
      <trkpt lat="39.896735" lon="116.633098">
        <time>2021-11-28T10:44:03Z</time>
      </trkpt>
      <trkpt lat="39.896789" lon="116.633229">
        <time>2021-11-28T10:44:08Z</time>
      </trkpt>
      <trkpt lat="39.896864" lon="116.633363">
        <time>2021-11-28T10:44:13Z</time>
      </trkpt>
      <trkpt lat="39.896951" lon="116.633465">
        <time>2021-11-28T10:44:18Z</time>
      </trkpt>
      <trkpt lat="39.897011" lon="116.633592">
        <time>2021-11-28T10:44:23Z</time>
      </trkpt>
      <trkpt lat="39.897049" lon="116.633776">
        <time>2021-11-28T10:44:28Z</time>
      </trkpt>
      <trkpt lat="39.897155" lon="116.63402">
        <time>2021-11-28T10:44:33Z</time>
      </trkpt>
      <trkpt lat="39.897202" lon="116.634093">
        <time>2021-11-28T10:44:38Z</time>
      </trkpt>
      <trkpt lat="39.89727" lon="116.634179">
        <time>2021-11-28T10:44:43Z</time>
      </trkpt>
      <trkpt lat="39.897356" lon="116.634217">
        <time>2021-11-28T10:44:48Z</time>
      </trkpt>
      <trkpt lat="39.897411" lon="116.634202">
        <time>2021-11-28T10:44:53Z</time>
      </trkpt>
      <trkpt lat="39.897424" lon="116.634126">
        <time>2021-11-28T10:44:58Z</time>
      </trkpt>
      <trkpt lat="39.897368" lon="116.633991">
        <time>2021-11-28T10:45:03Z</time>
      </trkpt>
      <trkpt lat="39.897309" lon="116.633827">
        <time>2021-11-28T10:45:08Z</time>
      </trkpt>
      <trkpt lat="39.897219" lon="116.633645">
        <time>2021-11-28T10:45:13Z</time>
      </trkpt>
      <trkpt lat="39.897161" lon="116.633498">
        <time>2021-11-28T10:45:18Z</time>
      </trkpt>
      <trkpt lat="39.897015" lon="116.633517">
        <time>2021-11-28T10:45:23Z</time>
      </trkpt>
      <trkpt lat="39.896958" lon="116.633712">
        <time>2021-11-28T10:45:28Z</time>
      </trkpt>
      <trkpt lat="39.897202" lon="116.634029">
        <time>2021-11-28T10:45:33Z</time>
      </trkpt>
      <trkpt lat="39.897222" lon="116.634062">
        <time>2021-11-28T10:45:38Z</time>
      </trkpt>
      <trkpt lat="39.897327" lon="116.634201">
        <time>2021-11-28T10:46:49Z</time>
      </trkpt>
    </trkseg>
  </trk>
</gpx>