<?xml version="1.0" encoding="UTF-8"?>
<gpx xmlns="http://www.topografix.com/GPX/1/1" xmlns:gpxtpx="http://www.garmin.com/xmlschemas/TrackPointExtension/v1" xmlns:xsi="http://www.w3.org/2001/XMLSchema-instance" xsi:schemaLocation="http://www.topografix.com/GPX/1/1 http://www.topografix.com/GPX/1/1/gpx.xsd" version="1.1" creator="gpx.py -- https://github.com/tkrajina/gpxpy">
  <trk>
    <name>gpx from keep</name>
    <trkseg>
      <trkpt lat="39.897379" lon="116.634226">
        <time>2021-12-05T10:59:37Z</time>
      </trkpt>
      <trkpt lat="39.897379" lon="116.634226">
        <time>2021-12-05T10:59:42Z</time>
      </trkpt>
      <trkpt lat="39.897276" lon="116.634008">
        <time>2021-12-05T10:59:47Z</time>
      </trkpt>
      <trkpt lat="39.897345" lon="116.633905">
        <time>2021-12-05T10:59:52Z</time>
      </trkpt>
      <trkpt lat="39.897323" lon="116.633807">
        <time>2021-12-05T10:59:57Z</time>
      </trkpt>
      <trkpt lat="39.897363" lon="116.633799">
        <time>2021-12-05T11:00:02Z</time>
      </trkpt>
      <trkpt lat="39.897396" lon="116.633838">
        <time>2021-12-05T11:00:07Z</time>
      </trkpt>
      <trkpt lat="39.897441" lon="116.633846">
        <time>2021-12-05T11:00:12Z</time>
      </trkpt>
      <trkpt lat="39.897522" lon="116.633918">
        <time>2021-12-05T11:00:17Z</time>
      </trkpt>
      <trkpt lat="39.897629" lon="116.634037">
        <time>2021-12-05T11:00:22Z</time>
      </trkpt>
      <trkpt lat="39.897718" lon="116.634152">
        <time>2021-12-05T11:00:27Z</time>
      </trkpt>
      <trkpt lat="39.897766" lon="116.634214">
        <time>2021-12-05T11:00:32Z</time>
      </trkpt>
      <trkpt lat="39.897805" lon="116.634309">
        <time>2021-12-05T11:00:37Z</time>
      </trkpt>
      <trkpt lat="39.897881" lon="116.634453">
        <time>2021-12-05T11:00:42Z</time>
      </trkpt>
      <trkpt lat="39.897964" lon="116.634675">
        <time>2021-12-05T11:00:47Z</time>
      </trkpt>
      <trkpt lat="39.897981" lon="116.634759">
        <time>2021-12-05T11:00:52Z</time>
      </trkpt>
      <trkpt lat="39.898054" lon="116.634918">
        <time>2021-12-05T11:00:57Z</time>
      </trkpt>
      <trkpt lat="39.89813" lon="116.635048">
        <time>2021-12-05T11:01:02Z</time>
      </trkpt>
      <trkpt lat="39.898053" lon="116.635122">
        <time>2021-12-05T11:01:07Z</time>
      </trkpt>
      <trkpt lat="39.897939" lon="116.635205">
        <time>2021-12-05T11:01:12Z</time>
      </trkpt>
      <trkpt lat="39.897828" lon="116.63528">
        <time>2021-12-05T11:01:17Z</time>
      </trkpt>
      <trkpt lat="39.897715" lon="116.635351">
        <time>2021-12-05T11:01:22Z</time>
      </trkpt>
      <trkpt lat="39.89762" lon="116.635412">
        <time>2021-12-05T11:01:27Z</time>
      </trkpt>
      <trkpt lat="39.897546" lon="116.635444">
        <time>2021-12-05T11:01:32Z</time>
      </trkpt>
      <trkpt lat="39.897432" lon="116.63549">
        <time>2021-12-05T11:01:37Z</time>
      </trkpt>
      <trkpt lat="39.897328" lon="116.635555">
        <time>2021-12-05T11:01:42Z</time>
      </trkpt>
      <trkpt lat="39.897225" lon="116.635614">
        <time>2021-12-05T11:01:47Z</time>
      </trkpt>
      <trkpt lat="39.897078" lon="116.635706">
        <time>2021-12-05T11:01:52Z</time>
      </trkpt>
      <trkpt lat="39.896951" lon="116.635776">
        <time>2021-12-05T11:01:57Z</time>
      </trkpt>
      <trkpt lat="39.896855" lon="116.635828">
        <time>2021-12-05T11:02:02Z</time>
      </trkpt>
      <trkpt lat="39.896751" lon="116.635903">
        <time>2021-12-05T11:02:07Z</time>
      </trkpt>
      <trkpt lat="39.896615" lon="116.635986">
        <time>2021-12-05T11:02:12Z</time>
      </trkpt>
      <trkpt lat="39.896533" lon="116.636033">
        <time>2021-12-05T11:02:17Z</time>
      </trkpt>
      <trkpt lat="39.896438" lon="116.636109">
        <time>2021-12-05T11:02:22Z</time>
      </trkpt>
      <trkpt lat="39.896326" lon="116.636142">
        <time>2021-12-05T11:02:27Z</time>
      </trkpt>
      <trkpt lat="39.896221" lon="116.636193">
        <time>2021-12-05T11:02:32Z</time>
      </trkpt>
      <trkpt lat="39.896118" lon="116.636298">
        <time>2021-12-05T11:02:37Z</time>
      </trkpt>
      <trkpt lat="39.896032" lon="116.636369">
        <time>2021-12-05T11:02:42Z</time>
      </trkpt>
      <trkpt lat="39.895919" lon="116.636445">
        <time>2021-12-05T11:02:47Z</time>
      </trkpt>
      <trkpt lat="39.895846" lon="116.636531">
        <time>2021-12-05T11:02:52Z</time>
      </trkpt>
      <trkpt lat="39.895865" lon="116.636598">
        <time>2021-12-05T11:02:57Z</time>
      </trkpt>
      <trkpt lat="39.895972" lon="116.636735">
        <time>2021-12-05T11:03:02Z</time>
      </trkpt>
      <trkpt lat="39.896033" lon="116.636847">
        <time>2021-12-05T11:03:07Z</time>
      </trkpt>
      <trkpt lat="39.896081" lon="116.636987">
        <time>2021-12-05T11:03:12Z</time>
      </trkpt>
      <trkpt lat="39.896098" lon="116.63712">
        <time>2021-12-05T11:03:17Z</time>
      </trkpt>
      <trkpt lat="39.896079" lon="116.637266">
        <time>2021-12-05T11:03:22Z</time>
      </trkpt>
      <trkpt lat="39.896052" lon="116.637318">
        <time>2021-12-05T11:03:27Z</time>
      </trkpt>
      <trkpt lat="39.896025" lon="116.637299">
        <time>2021-12-05T11:03:32Z</time>
      </trkpt>
      <trkpt lat="39.89605" lon="116.637297">
        <time>2021-12-05T11:03:37Z</time>
      </trkpt>
      <trkpt lat="39.896064" lon="116.63731">
        <time>2021-12-05T11:03:42Z</time>
      </trkpt>
      <trkpt lat="39.896055" lon="116.637299">
        <time>2021-12-05T11:03:47Z</time>
      </trkpt>
      <trkpt lat="39.896028" lon="116.637289">
        <time>2021-12-05T11:03:52Z</time>
      </trkpt>
      <trkpt lat="39.89601" lon="116.637285">
        <time>2021-12-05T11:03:57Z</time>
      </trkpt>
      <trkpt lat="39.896011" lon="116.637276">
        <time>2021-12-05T11:04:02Z</time>
      </trkpt>
      <trkpt lat="39.896016" lon="116.637258">
        <time>2021-12-05T11:04:07Z</time>
      </trkpt>
      <trkpt lat="39.896019" lon="116.63724">
        <time>2021-12-05T11:04:12Z</time>
      </trkpt>
      <trkpt lat="39.896117" lon="116.637291">
        <time>2021-12-05T11:04:17Z</time>
      </trkpt>
      <trkpt lat="39.896152" lon="116.637417">
        <time>2021-12-05T11:04:22Z</time>
      </trkpt>
      <trkpt lat="39.896148" lon="116.637604">
        <time>2021-12-05T11:04:27Z</time>
      </trkpt>
      <trkpt lat="39.896139" lon="116.637716">
        <time>2021-12-05T11:04:32Z</time>
      </trkpt>
      <trkpt lat="39.896143" lon="116.637844">
        <time>2021-12-05T11:04:37Z</time>
      </trkpt>
      <trkpt lat="39.896154" lon="116.637974">
        <time>2021-12-05T11:04:42Z</time>
      </trkpt>
      <trkpt lat="39.896162" lon="116.638087">
        <time>2021-12-05T11:04:47Z</time>
      </trkpt>
      <trkpt lat="39.896173" lon="116.638211">
        <time>2021-12-05T11:04:52Z</time>
      </trkpt>
      <trkpt lat="39.896168" lon="116.638342">
        <time>2021-12-05T11:04:57Z</time>
      </trkpt>
      <trkpt lat="39.896184" lon="116.638467">
        <time>2021-12-05T11:05:02Z</time>
      </trkpt>
      <trkpt lat="39.896188" lon="116.638603">
        <time>2021-12-05T11:05:07Z</time>
      </trkpt>
      <trkpt lat="39.8962" lon="116.638734">
        <time>2021-12-05T11:05:12Z</time>
      </trkpt>
      <trkpt lat="39.89623" lon="116.638852">
        <time>2021-12-05T11:05:17Z</time>
      </trkpt>
      <trkpt lat="39.896243" lon="116.638996">
        <time>2021-12-05T11:05:22Z</time>
      </trkpt>
      <trkpt lat="39.896263" lon="116.639162">
        <time>2021-12-05T11:05:27Z</time>
      </trkpt>
      <trkpt lat="39.896255" lon="116.639289">
        <time>2021-12-05T11:05:32Z</time>
      </trkpt>
      <trkpt lat="39.896249" lon="116.639433">
        <time>2021-12-05T11:05:37Z</time>
      </trkpt>
      <trkpt lat="39.896248" lon="116.63958">
        <time>2021-12-05T11:05:42Z</time>
      </trkpt>
      <trkpt lat="39.896243" lon="116.639722">
        <time>2021-12-05T11:05:47Z</time>
      </trkpt>
      <trkpt lat="39.896249" lon="116.639873">
        <time>2021-12-05T11:05:52Z</time>
      </trkpt>
      <trkpt lat="39.896252" lon="116.640012">
        <time>2021-12-05T11:05:57Z</time>
      </trkpt>
      <trkpt lat="39.896246" lon="116.640169">
        <time>2021-12-05T11:06:02Z</time>
      </trkpt>
      <trkpt lat="39.896254" lon="116.640373">
        <time>2021-12-05T11:06:07Z</time>
      </trkpt>
      <trkpt lat="39.89623" lon="116.640501">
        <time>2021-12-05T11:06:12Z</time>
      </trkpt>
      <trkpt lat="39.896247" lon="116.64063">
        <time>2021-12-05T11:06:17Z</time>
      </trkpt>
      <trkpt lat="39.896232" lon="116.64079">
        <time>2021-12-05T11:06:22Z</time>
      </trkpt>
      <trkpt lat="39.896243" lon="116.64095">
        <time>2021-12-05T11:06:27Z</time>
      </trkpt>
      <trkpt lat="39.896246" lon="116.641034">
        <time>2021-12-05T11:06:32Z</time>
      </trkpt>
      <trkpt lat="39.89624" lon="116.641165">
        <time>2021-12-05T11:06:37Z</time>
      </trkpt>
      <trkpt lat="39.896231" lon="116.641308">
        <time>2021-12-05T11:06:42Z</time>
      </trkpt>
      <trkpt lat="39.896232" lon="116.64146">
        <time>2021-12-05T11:06:47Z</time>
      </trkpt>
      <trkpt lat="39.896234" lon="116.641604">
        <time>2021-12-05T11:06:52Z</time>
      </trkpt>
      <trkpt lat="39.896237" lon="116.641735">
        <time>2021-12-05T11:06:57Z</time>
      </trkpt>
      <trkpt lat="39.89623" lon="116.641871">
        <time>2021-12-05T11:07:02Z</time>
      </trkpt>
      <trkpt lat="39.896231" lon="116.642055">
        <time>2021-12-05T11:07:07Z</time>
      </trkpt>
      <trkpt lat="39.896235" lon="116.642135">
        <time>2021-12-05T11:07:12Z</time>
      </trkpt>
      <trkpt lat="39.896216" lon="116.642282">
        <time>2021-12-05T11:07:17Z</time>
      </trkpt>
      <trkpt lat="39.896215" lon="116.642446">
        <time>2021-12-05T11:07:22Z</time>
      </trkpt>
      <trkpt lat="39.896213" lon="116.64265">
        <time>2021-12-05T11:07:27Z</time>
      </trkpt>
      <trkpt lat="39.896213" lon="116.642725">
        <time>2021-12-05T11:07:32Z</time>
      </trkpt>
      <trkpt lat="39.896188" lon="116.642871">
        <time>2021-12-05T11:07:37Z</time>
      </trkpt>
      <trkpt lat="39.896179" lon="116.643017">
        <time>2021-12-05T11:07:42Z</time>
      </trkpt>
      <trkpt lat="39.896167" lon="116.643173">
        <time>2021-12-05T11:07:47Z</time>
      </trkpt>
      <trkpt lat="39.89616" lon="116.643353">
        <time>2021-12-05T11:07:52Z</time>
      </trkpt>
      <trkpt lat="39.896173" lon="116.643469">
        <time>2021-12-05T11:07:57Z</time>
      </trkpt>
      <trkpt lat="39.896155" lon="116.643595">
        <time>2021-12-05T11:08:02Z</time>
      </trkpt>
      <trkpt lat="39.89617" lon="116.643732">
        <time>2021-12-05T11:08:07Z</time>
      </trkpt>
      <trkpt lat="39.89616" lon="116.643863">
        <time>2021-12-05T11:08:12Z</time>
      </trkpt>
      <trkpt lat="39.896165" lon="116.644013">
        <time>2021-12-05T11:08:17Z</time>
      </trkpt>
      <trkpt lat="39.896171" lon="116.644152">
        <time>2021-12-05T11:08:22Z</time>
      </trkpt>
      <trkpt lat="39.896179" lon="116.64432">
        <time>2021-12-05T11:08:27Z</time>
      </trkpt>
      <trkpt lat="39.896199" lon="116.644467">
        <time>2021-12-05T11:08:32Z</time>
      </trkpt>
      <trkpt lat="39.896211" lon="116.644537">
        <time>2021-12-05T11:08:37Z</time>
      </trkpt>
      <trkpt lat="39.896213" lon="116.644624">
        <time>2021-12-05T11:08:42Z</time>
      </trkpt>
      <trkpt lat="39.896194" lon="116.644769">
        <time>2021-12-05T11:08:47Z</time>
      </trkpt>
      <trkpt lat="39.896183" lon="116.64493">
        <time>2021-12-05T11:08:52Z</time>
      </trkpt>
      <trkpt lat="39.896185" lon="116.645159">
        <time>2021-12-05T11:08:57Z</time>
      </trkpt>
      <trkpt lat="39.896192" lon="116.645251">
        <time>2021-12-05T11:09:02Z</time>
      </trkpt>
      <trkpt lat="39.8962" lon="116.645384">
        <time>2021-12-05T11:09:07Z</time>
      </trkpt>
      <trkpt lat="39.896195" lon="116.645525">
        <time>2021-12-05T11:09:12Z</time>
      </trkpt>
      <trkpt lat="39.896166" lon="116.645663">
        <time>2021-12-05T11:09:17Z</time>
      </trkpt>
      <trkpt lat="39.896114" lon="116.645822">
        <time>2021-12-05T11:09:22Z</time>
      </trkpt>
      <trkpt lat="39.896106" lon="116.645955">
        <time>2021-12-05T11:09:27Z</time>
      </trkpt>
      <trkpt lat="39.896092" lon="116.646077">
        <time>2021-12-05T11:09:32Z</time>
      </trkpt>
      <trkpt lat="39.896077" lon="116.646215">
        <time>2021-12-05T11:09:37Z</time>
      </trkpt>
      <trkpt lat="39.896074" lon="116.646375">
        <time>2021-12-05T11:09:42Z</time>
      </trkpt>
      <trkpt lat="39.896076" lon="116.646535">
        <time>2021-12-05T11:09:47Z</time>
      </trkpt>
      <trkpt lat="39.89606" lon="116.64671">
        <time>2021-12-05T11:09:52Z</time>
      </trkpt>
      <trkpt lat="39.895985" lon="116.646778">
        <time>2021-12-05T11:09:57Z</time>
      </trkpt>
      <trkpt lat="39.895834" lon="116.646749">
        <time>2021-12-05T11:10:02Z</time>
      </trkpt>
      <trkpt lat="39.89571" lon="116.646671">
        <time>2021-12-05T11:10:07Z</time>
      </trkpt>
      <trkpt lat="39.895592" lon="116.64663">
        <time>2021-12-05T11:10:12Z</time>
      </trkpt>
      <trkpt lat="39.895474" lon="116.64661">
        <time>2021-12-05T11:10:17Z</time>
      </trkpt>
      <trkpt lat="39.895359" lon="116.646559">
        <time>2021-12-05T11:10:22Z</time>
      </trkpt>
      <trkpt lat="39.895239" lon="116.646501">
        <time>2021-12-05T11:10:27Z</time>
      </trkpt>
      <trkpt lat="39.895148" lon="116.646438">
        <time>2021-12-05T11:10:32Z</time>
      </trkpt>
      <trkpt lat="39.895042" lon="116.646393">
        <time>2021-12-05T11:10:37Z</time>
      </trkpt>
      <trkpt lat="39.894922" lon="116.646347">
        <time>2021-12-05T11:10:42Z</time>
      </trkpt>
      <trkpt lat="39.894883" lon="116.646331">
        <time>2021-12-05T11:10:47Z</time>
      </trkpt>
      <trkpt lat="39.894783" lon="116.646291">
        <time>2021-12-05T11:10:52Z</time>
      </trkpt>
      <trkpt lat="39.894682" lon="116.646228">
        <time>2021-12-05T11:10:57Z</time>
      </trkpt>
      <trkpt lat="39.894575" lon="116.646177">
        <time>2021-12-05T11:11:02Z</time>
      </trkpt>
      <trkpt lat="39.894486" lon="116.646147">
        <time>2021-12-05T11:11:07Z</time>
      </trkpt>
      <trkpt lat="39.894404" lon="116.646099">
        <time>2021-12-05T11:11:12Z</time>
      </trkpt>
      <trkpt lat="39.894321" lon="116.646046">
        <time>2021-12-05T11:11:17Z</time>
      </trkpt>
      <trkpt lat="39.894236" lon="116.646018">
        <time>2021-12-05T11:11:22Z</time>
      </trkpt>
      <trkpt lat="39.894136" lon="116.645982">
        <time>2021-12-05T11:11:27Z</time>
      </trkpt>
      <trkpt lat="39.894045" lon="116.645934">
        <time>2021-12-05T11:11:32Z</time>
      </trkpt>
      <trkpt lat="39.893928" lon="116.645907">
        <time>2021-12-05T11:11:37Z</time>
      </trkpt>
      <trkpt lat="39.893835" lon="116.645965">
        <time>2021-12-05T11:11:42Z</time>
      </trkpt>
      <trkpt lat="39.893779" lon="116.646085">
        <time>2021-12-05T11:11:47Z</time>
      </trkpt>
      <trkpt lat="39.893736" lon="116.646168">
        <time>2021-12-05T11:11:52Z</time>
      </trkpt>
      <trkpt lat="39.893652" lon="116.646327">
        <time>2021-12-05T11:11:57Z</time>
      </trkpt>
      <trkpt lat="39.893611" lon="116.646336">
        <time>2021-12-05T11:12:02Z</time>
      </trkpt>
      <trkpt lat="39.893504" lon="116.646312">
        <time>2021-12-05T11:12:07Z</time>
      </trkpt>
      <trkpt lat="39.893402" lon="116.64627">
        <time>2021-12-05T11:12:12Z</time>
      </trkpt>
      <trkpt lat="39.89331" lon="116.646233">
        <time>2021-12-05T11:12:17Z</time>
      </trkpt>
      <trkpt lat="39.893212" lon="116.64618">
        <time>2021-12-05T11:12:22Z</time>
      </trkpt>
      <trkpt lat="39.893118" lon="116.646142">
        <time>2021-12-05T11:12:27Z</time>
      </trkpt>
      <trkpt lat="39.893018" lon="116.6461">
        <time>2021-12-05T11:12:32Z</time>
      </trkpt>
      <trkpt lat="39.892925" lon="116.64605">
        <time>2021-12-05T11:12:37Z</time>
      </trkpt>
      <trkpt lat="39.892832" lon="116.646002">
        <time>2021-12-05T11:12:42Z</time>
      </trkpt>
      <trkpt lat="39.892742" lon="116.645951">
        <time>2021-12-05T11:12:47Z</time>
      </trkpt>
      <trkpt lat="39.892643" lon="116.645913">
        <time>2021-12-05T11:12:52Z</time>
      </trkpt>
      <trkpt lat="39.892549" lon="116.645876">
        <time>2021-12-05T11:12:57Z</time>
      </trkpt>
      <trkpt lat="39.892491" lon="116.645812">
        <time>2021-12-05T11:13:02Z</time>
      </trkpt>
      <trkpt lat="39.892392" lon="116.645792">
        <time>2021-12-05T11:13:07Z</time>
      </trkpt>
      <trkpt lat="39.892232" lon="116.645707">
        <time>2021-12-05T11:13:12Z</time>
      </trkpt>
      <trkpt lat="39.89221" lon="116.645689">
        <time>2021-12-05T11:13:17Z</time>
      </trkpt>
      <trkpt lat="39.892117" lon="116.645643">
        <time>2021-12-05T11:13:22Z</time>
      </trkpt>
      <trkpt lat="39.892029" lon="116.645605">
        <time>2021-12-05T11:13:27Z</time>
      </trkpt>
      <trkpt lat="39.891918" lon="116.645564">
        <time>2021-12-05T11:13:32Z</time>
      </trkpt>
      <trkpt lat="39.891816" lon="116.645509">
        <time>2021-12-05T11:13:37Z</time>
      </trkpt>
      <trkpt lat="39.891722" lon="116.645462">
        <time>2021-12-05T11:13:42Z</time>
      </trkpt>
      <trkpt lat="39.891645" lon="116.645395">
        <time>2021-12-05T11:13:47Z</time>
      </trkpt>
      <trkpt lat="39.891526" lon="116.645273">
        <time>2021-12-05T11:13:52Z</time>
      </trkpt>
      <trkpt lat="39.891511" lon="116.645258">
        <time>2021-12-05T11:13:57Z</time>
      </trkpt>
      <trkpt lat="39.891523" lon="116.645334">
        <time>2021-12-05T11:14:02Z</time>
      </trkpt>
      <trkpt lat="39.891592" lon="116.645387">
        <time>2021-12-05T11:14:07Z</time>
      </trkpt>
      <trkpt lat="39.891681" lon="116.645438">
        <time>2021-12-05T11:14:12Z</time>
      </trkpt>
      <trkpt lat="39.891789" lon="116.645493">
        <time>2021-12-05T11:14:17Z</time>
      </trkpt>
      <trkpt lat="39.891908" lon="116.64553">
        <time>2021-12-05T11:14:22Z</time>
      </trkpt>
      <trkpt lat="39.892014" lon="116.645574">
        <time>2021-12-05T11:14:27Z</time>
      </trkpt>
      <trkpt lat="39.892095" lon="116.645633">
        <time>2021-12-05T11:14:32Z</time>
      </trkpt>
      <trkpt lat="39.892222" lon="116.645678">
        <time>2021-12-05T11:14:37Z</time>
      </trkpt>
      <trkpt lat="39.892328" lon="116.645708">
        <time>2021-12-05T11:14:42Z</time>
      </trkpt>
      <trkpt lat="39.892439" lon="116.645753">
        <time>2021-12-05T11:14:47Z</time>
      </trkpt>
      <trkpt lat="39.892508" lon="116.645805">
        <time>2021-12-05T11:14:52Z</time>
      </trkpt>
      <trkpt lat="39.892605" lon="116.645849">
        <time>2021-12-05T11:14:57Z</time>
      </trkpt>
      <trkpt lat="39.892706" lon="116.645897">
        <time>2021-12-05T11:15:02Z</time>
      </trkpt>
      <trkpt lat="39.892823" lon="116.645945">
        <time>2021-12-05T11:15:07Z</time>
      </trkpt>
      <trkpt lat="39.892934" lon="116.645981">
        <time>2021-12-05T11:15:12Z</time>
      </trkpt>
      <trkpt lat="39.893048" lon="116.646023">
        <time>2021-12-05T11:15:17Z</time>
      </trkpt>
      <trkpt lat="39.893145" lon="116.646075">
        <time>2021-12-05T11:15:22Z</time>
      </trkpt>
      <trkpt lat="39.893223" lon="116.646122">
        <time>2021-12-05T11:15:27Z</time>
      </trkpt>
      <trkpt lat="39.893301" lon="116.646155">
        <time>2021-12-05T11:15:32Z</time>
      </trkpt>
      <trkpt lat="39.893384" lon="116.646202">
        <time>2021-12-05T11:15:37Z</time>
      </trkpt>
      <trkpt lat="39.893495" lon="116.646267">
        <time>2021-12-05T11:15:42Z</time>
      </trkpt>
      <trkpt lat="39.893596" lon="116.646332">
        <time>2021-12-05T11:15:47Z</time>
      </trkpt>
      <trkpt lat="39.893694" lon="116.646374">
        <time>2021-12-05T11:15:52Z</time>
      </trkpt>
      <trkpt lat="39.893797" lon="116.646299">
        <time>2021-12-05T11:15:57Z</time>
      </trkpt>
      <trkpt lat="39.893846" lon="116.646155">
        <time>2021-12-05T11:16:02Z</time>
      </trkpt>
      <trkpt lat="39.893897" lon="116.646042">
        <time>2021-12-05T11:16:07Z</time>
      </trkpt>
      <trkpt lat="39.89394" lon="116.645961">
        <time>2021-12-05T11:16:12Z</time>
      </trkpt>
      <trkpt lat="39.894012" lon="116.645866">
        <time>2021-12-05T11:16:17Z</time>
      </trkpt>
      <trkpt lat="39.894072" lon="116.645922">
        <time>2021-12-05T11:16:22Z</time>
      </trkpt>
      <trkpt lat="39.894142" lon="116.645986">
        <time>2021-12-05T11:16:27Z</time>
      </trkpt>
      <trkpt lat="39.894192" lon="116.646046">
        <time>2021-12-05T11:16:32Z</time>
      </trkpt>
      <trkpt lat="39.894249" lon="116.646113">
        <time>2021-12-05T11:16:37Z</time>
      </trkpt>
      <trkpt lat="39.894357" lon="116.6462">
        <time>2021-12-05T11:16:42Z</time>
      </trkpt>
      <trkpt lat="39.894492" lon="116.646239">
        <time>2021-12-05T11:16:47Z</time>
      </trkpt>
      <trkpt lat="39.894659" lon="116.646281">
        <time>2021-12-05T11:16:52Z</time>
      </trkpt>
      <trkpt lat="39.894751" lon="116.646314">
        <time>2021-12-05T11:16:57Z</time>
      </trkpt>
      <trkpt lat="39.894818" lon="116.646337">
        <time>2021-12-05T11:17:02Z</time>
      </trkpt>
      <trkpt lat="39.894942" lon="116.646374">
        <time>2021-12-05T11:17:07Z</time>
      </trkpt>
      <trkpt lat="39.895098" lon="116.646428">
        <time>2021-12-05T11:17:12Z</time>
      </trkpt>
      <trkpt lat="39.895242" lon="116.646476">
        <time>2021-12-05T11:17:17Z</time>
      </trkpt>
      <trkpt lat="39.89545" lon="116.646593">
        <time>2021-12-05T11:17:22Z</time>
      </trkpt>
      <trkpt lat="39.895467" lon="116.646605">
        <time>2021-12-05T11:17:27Z</time>
      </trkpt>
      <trkpt lat="39.895549" lon="116.646653">
        <time>2021-12-05T11:17:32Z</time>
      </trkpt>
      <trkpt lat="39.895635" lon="116.646684">
        <time>2021-12-05T11:17:37Z</time>
      </trkpt>
      <trkpt lat="39.895748" lon="116.646737">
        <time>2021-12-05T11:17:42Z</time>
      </trkpt>
      <trkpt lat="39.895864" lon="116.646786">
        <time>2021-12-05T11:17:47Z</time>
      </trkpt>
      <trkpt lat="39.895983" lon="116.646831">
        <time>2021-12-05T11:17:52Z</time>
      </trkpt>
      <trkpt lat="39.896075" lon="116.64678">
        <time>2021-12-05T11:17:57Z</time>
      </trkpt>
      <trkpt lat="39.896091" lon="116.646629">
        <time>2021-12-05T11:18:02Z</time>
      </trkpt>
      <trkpt lat="39.896073" lon="116.646467">
        <time>2021-12-05T11:18:07Z</time>
      </trkpt>
      <trkpt lat="39.896077" lon="116.646327">
        <time>2021-12-05T11:18:12Z</time>
      </trkpt>
      <trkpt lat="39.896078" lon="116.646154">
        <time>2021-12-05T11:18:17Z</time>
      </trkpt>
      <trkpt lat="39.896085" lon="116.646037">
        <time>2021-12-05T11:18:22Z</time>
      </trkpt>
      <trkpt lat="39.896099" lon="116.64587">
        <time>2021-12-05T11:18:27Z</time>
      </trkpt>
      <trkpt lat="39.896102" lon="116.645718">
        <time>2021-12-05T11:18:32Z</time>
      </trkpt>
      <trkpt lat="39.896127" lon="116.645566">
        <time>2021-12-05T11:18:37Z</time>
      </trkpt>
      <trkpt lat="39.896148" lon="116.645451">
        <time>2021-12-05T11:18:42Z</time>
      </trkpt>
      <trkpt lat="39.896161" lon="116.645333">
        <time>2021-12-05T11:18:47Z</time>
      </trkpt>
      <trkpt lat="39.896176" lon="116.645205">
        <time>2021-12-05T11:18:52Z</time>
      </trkpt>
      <trkpt lat="39.896185" lon="116.644994">
        <time>2021-12-05T11:18:57Z</time>
      </trkpt>
      <trkpt lat="39.896191" lon="116.644934">
        <time>2021-12-05T11:19:02Z</time>
      </trkpt>
      <trkpt lat="39.896208" lon="116.644778">
        <time>2021-12-05T11:19:07Z</time>
      </trkpt>
      <trkpt lat="39.896212" lon="116.644609">
        <time>2021-12-05T11:19:12Z</time>
      </trkpt>
      <trkpt lat="39.896209" lon="116.644473">
        <time>2021-12-05T11:19:17Z</time>
      </trkpt>
      <trkpt lat="39.896176" lon="116.64431">
        <time>2021-12-05T11:19:22Z</time>
      </trkpt>
      <trkpt lat="39.896168" lon="116.644159">
        <time>2021-12-05T11:19:27Z</time>
      </trkpt>
      <trkpt lat="39.896177" lon="116.644017">
        <time>2021-12-05T11:19:32Z</time>
      </trkpt>
      <trkpt lat="39.89619" lon="116.643899">
        <time>2021-12-05T11:19:37Z</time>
      </trkpt>
      <trkpt lat="39.896197" lon="116.643729">
        <time>2021-12-05T11:19:42Z</time>
      </trkpt>
      <trkpt lat="39.896198" lon="116.643667">
        <time>2021-12-05T11:19:47Z</time>
      </trkpt>
      <trkpt lat="39.896198" lon="116.643572">
        <time>2021-12-05T11:19:52Z</time>
      </trkpt>
      <trkpt lat="39.896173" lon="116.643485">
        <time>2021-12-05T11:19:57Z</time>
      </trkpt>
      <trkpt lat="39.896158" lon="116.643368">
        <time>2021-12-05T11:20:02Z</time>
      </trkpt>
      <trkpt lat="39.89614" lon="116.643256">
        <time>2021-12-05T11:20:07Z</time>
      </trkpt>
      <trkpt lat="39.896176" lon="116.64311">
        <time>2021-12-05T11:20:12Z</time>
      </trkpt>
      <trkpt lat="39.896181" lon="116.643037">
        <time>2021-12-05T11:20:17Z</time>
      </trkpt>
      <trkpt lat="39.896197" lon="116.642923">
        <time>2021-12-05T11:20:22Z</time>
      </trkpt>
      <trkpt lat="39.896201" lon="116.642806">
        <time>2021-12-05T11:20:27Z</time>
      </trkpt>
      <trkpt lat="39.896205" lon="116.642694">
        <time>2021-12-05T11:20:32Z</time>
      </trkpt>
      <trkpt lat="39.89621" lon="116.642575">
        <time>2021-12-05T11:20:37Z</time>
      </trkpt>
      <trkpt lat="39.896225" lon="116.642461">
        <time>2021-12-05T11:20:42Z</time>
      </trkpt>
      <trkpt lat="39.89624" lon="116.642342">
        <time>2021-12-05T11:20:47Z</time>
      </trkpt>
      <trkpt lat="39.896235" lon="116.642217">
        <time>2021-12-05T11:20:52Z</time>
      </trkpt>
      <trkpt lat="39.896235" lon="116.642099">
        <time>2021-12-05T11:20:57Z</time>
      </trkpt>
      <trkpt lat="39.896239" lon="116.641975">
        <time>2021-12-05T11:21:02Z</time>
      </trkpt>
      <trkpt lat="39.896239" lon="116.641863">
        <time>2021-12-05T11:21:07Z</time>
      </trkpt>
      <trkpt lat="39.896237" lon="116.641722">
        <time>2021-12-05T11:21:12Z</time>
      </trkpt>
      <trkpt lat="39.896249" lon="116.641625">
        <time>2021-12-05T11:21:17Z</time>
      </trkpt>
      <trkpt lat="39.896253" lon="116.641507">
        <time>2021-12-05T11:21:22Z</time>
      </trkpt>
      <trkpt lat="39.896251" lon="116.641385">
        <time>2021-12-05T11:21:27Z</time>
      </trkpt>
      <trkpt lat="39.896245" lon="116.641261">
        <time>2021-12-05T11:21:32Z</time>
      </trkpt>
      <trkpt lat="39.896241" lon="116.641126">
        <time>2021-12-05T11:21:37Z</time>
      </trkpt>
      <trkpt lat="39.896247" lon="116.640972">
        <time>2021-12-05T11:21:42Z</time>
      </trkpt>
      <trkpt lat="39.896266" lon="116.640834">
        <time>2021-12-05T11:21:47Z</time>
      </trkpt>
      <trkpt lat="39.896275" lon="116.640669">
        <time>2021-12-05T11:21:52Z</time>
      </trkpt>
      <trkpt lat="39.896291" lon="116.640489">
        <time>2021-12-05T11:21:57Z</time>
      </trkpt>
      <trkpt lat="39.896305" lon="116.640383">
        <time>2021-12-05T11:22:02Z</time>
      </trkpt>
      <trkpt lat="39.896309" lon="116.64019">
        <time>2021-12-05T11:22:07Z</time>
      </trkpt>
      <trkpt lat="39.896295" lon="116.640061">
        <time>2021-12-05T11:22:12Z</time>
      </trkpt>
      <trkpt lat="39.896266" lon="116.639881">
        <time>2021-12-05T11:22:17Z</time>
      </trkpt>
      <trkpt lat="39.896243" lon="116.639729">
        <time>2021-12-05T11:22:22Z</time>
      </trkpt>
      <trkpt lat="39.896267" lon="116.639589">
        <time>2021-12-05T11:22:27Z</time>
      </trkpt>
      <trkpt lat="39.896264" lon="116.639439">
        <time>2021-12-05T11:22:32Z</time>
      </trkpt>
      <trkpt lat="39.896263" lon="116.639311">
        <time>2021-12-05T11:22:37Z</time>
      </trkpt>
      <trkpt lat="39.896248" lon="116.63917">
        <time>2021-12-05T11:22:42Z</time>
      </trkpt>
      <trkpt lat="39.896235" lon="116.639027">
        <time>2021-12-05T11:22:47Z</time>
      </trkpt>
      <trkpt lat="39.896228" lon="116.638884">
        <time>2021-12-05T11:22:52Z</time>
      </trkpt>
      <trkpt lat="39.896212" lon="116.638733">
        <time>2021-12-05T11:22:57Z</time>
      </trkpt>
      <trkpt lat="39.896199" lon="116.6386">
        <time>2021-12-05T11:23:02Z</time>
      </trkpt>
      <trkpt lat="39.896187" lon="116.638458">
        <time>2021-12-05T11:23:07Z</time>
      </trkpt>
      <trkpt lat="39.896187" lon="116.638345">
        <time>2021-12-05T11:23:12Z</time>
      </trkpt>
      <trkpt lat="39.896183" lon="116.638264">
        <time>2021-12-05T11:23:17Z</time>
      </trkpt>
      <trkpt lat="39.896169" lon="116.638169">
        <time>2021-12-05T11:23:22Z</time>
      </trkpt>
      <trkpt lat="39.896174" lon="116.638056">
        <time>2021-12-05T11:23:27Z</time>
      </trkpt>
      <trkpt lat="39.896179" lon="116.637929">
        <time>2021-12-05T11:23:32Z</time>
      </trkpt>
      <trkpt lat="39.896174" lon="116.637806">
        <time>2021-12-05T11:23:37Z</time>
      </trkpt>
      <trkpt lat="39.896174" lon="116.637693">
        <time>2021-12-05T11:23:42Z</time>
      </trkpt>
      <trkpt lat="39.896166" lon="116.637551">
        <time>2021-12-05T11:23:47Z</time>
      </trkpt>
      <trkpt lat="39.896161" lon="116.637386">
        <time>2021-12-05T11:23:52Z</time>
      </trkpt>
      <trkpt lat="39.896158" lon="116.637266">
        <time>2021-12-05T11:23:57Z</time>
      </trkpt>
      <trkpt lat="39.896135" lon="116.6371">
        <time>2021-12-05T11:24:02Z</time>
      </trkpt>
      <trkpt lat="39.896123" lon="116.636953">
        <time>2021-12-05T11:24:07Z</time>
      </trkpt>
      <trkpt lat="39.896063" lon="116.636747">
        <time>2021-12-05T11:24:12Z</time>
      </trkpt>
      <trkpt lat="39.896033" lon="116.63668">
        <time>2021-12-05T11:24:17Z</time>
      </trkpt>
      <trkpt lat="39.895948" lon="116.636586">
        <time>2021-12-05T11:24:22Z</time>
      </trkpt>
      <trkpt lat="39.895911" lon="116.636617">
        <time>2021-12-05T11:24:27Z</time>
      </trkpt>
      <trkpt lat="39.89602" lon="116.636732">
        <time>2021-12-05T11:24:32Z</time>
      </trkpt>
      <trkpt lat="39.896082" lon="116.636878">
        <time>2021-12-05T11:24:37Z</time>
      </trkpt>
      <trkpt lat="39.896089" lon="116.637083">
        <time>2021-12-05T11:24:42Z</time>
      </trkpt>
      <trkpt lat="39.896089" lon="116.637164">
        <time>2021-12-05T11:24:47Z</time>
      </trkpt>
      <trkpt lat="39.896104" lon="116.637271">
        <time>2021-12-05T11:24:52Z</time>
      </trkpt>
      <trkpt lat="39.896121" lon="116.637364">
        <time>2021-12-05T11:24:57Z</time>
      </trkpt>
      <trkpt lat="39.896116" lon="116.637466">
        <time>2021-12-05T11:25:02Z</time>
      </trkpt>
      <trkpt lat="39.896131" lon="116.637586">
        <time>2021-12-05T11:25:07Z</time>
      </trkpt>
      <trkpt lat="39.896147" lon="116.637734">
        <time>2021-12-05T11:25:12Z</time>
      </trkpt>
      <trkpt lat="39.89615" lon="116.637807">
        <time>2021-12-05T11:25:17Z</time>
      </trkpt>
      <trkpt lat="39.896156" lon="116.637953">
        <time>2021-12-05T11:25:22Z</time>
      </trkpt>
      <trkpt lat="39.896173" lon="116.638091">
        <time>2021-12-05T11:25:27Z</time>
      </trkpt>
      <trkpt lat="39.896188" lon="116.638233">
        <time>2021-12-05T11:25:32Z</time>
      </trkpt>
      <trkpt lat="39.896197" lon="116.638383">
        <time>2021-12-05T11:25:37Z</time>
      </trkpt>
      <trkpt lat="39.896196" lon="116.638524">
        <time>2021-12-05T11:25:42Z</time>
      </trkpt>
      <trkpt lat="39.896214" lon="116.638652">
        <time>2021-12-05T11:25:47Z</time>
      </trkpt>
      <trkpt lat="39.896219" lon="116.638785">
        <time>2021-12-05T11:25:52Z</time>
      </trkpt>
      <trkpt lat="39.896228" lon="116.638915">
        <time>2021-12-05T11:25:57Z</time>
      </trkpt>
      <trkpt lat="39.896236" lon="116.639036">
        <time>2021-12-05T11:26:02Z</time>
      </trkpt>
      <trkpt lat="39.896255" lon="116.639144">
        <time>2021-12-05T11:26:07Z</time>
      </trkpt>
      <trkpt lat="39.896254" lon="116.639289">
        <time>2021-12-05T11:26:12Z</time>
      </trkpt>
      <trkpt lat="39.89625" lon="116.639431">
        <time>2021-12-05T11:26:17Z</time>
      </trkpt>
      <trkpt lat="39.896242" lon="116.639565">
        <time>2021-12-05T11:26:22Z</time>
      </trkpt>
      <trkpt lat="39.896249" lon="116.639707">
        <time>2021-12-05T11:26:27Z</time>
      </trkpt>
      <trkpt lat="39.896233" lon="116.63986">
        <time>2021-12-05T11:26:32Z</time>
      </trkpt>
      <trkpt lat="39.896226" lon="116.64002">
        <time>2021-12-05T11:26:37Z</time>
      </trkpt>
      <trkpt lat="39.896243" lon="116.640188">
        <time>2021-12-05T11:26:42Z</time>
      </trkpt>
      <trkpt lat="39.896263" lon="116.64035">
        <time>2021-12-05T11:26:47Z</time>
      </trkpt>
      <trkpt lat="39.896316" lon="116.640455">
        <time>2021-12-05T11:26:52Z</time>
      </trkpt>
      <trkpt lat="39.896417" lon="116.640499">
        <time>2021-12-05T11:26:57Z</time>
      </trkpt>
      <trkpt lat="39.896592" lon="116.640519">
        <time>2021-12-05T11:27:02Z</time>
      </trkpt>
      <trkpt lat="39.89672" lon="116.640562">
        <time>2021-12-05T11:27:07Z</time>
      </trkpt>
      <trkpt lat="39.896922" lon="116.640655">
        <time>2021-12-05T11:27:12Z</time>
      </trkpt>
      <trkpt lat="39.896999" lon="116.640692">
        <time>2021-12-05T11:27:17Z</time>
      </trkpt>
      <trkpt lat="39.8971" lon="116.640752">
        <time>2021-12-05T11:27:22Z</time>
      </trkpt>
      <trkpt lat="39.897187" lon="116.640788">
        <time>2021-12-05T11:27:27Z</time>
      </trkpt>
      <trkpt lat="39.897254" lon="116.640794">
        <time>2021-12-05T11:27:32Z</time>
      </trkpt>
      <trkpt lat="39.897303" lon="116.640848">
        <time>2021-12-05T11:27:37Z</time>
      </trkpt>
      <trkpt lat="39.897378" lon="116.640906">
        <time>2021-12-05T11:27:42Z</time>
      </trkpt>
      <trkpt lat="39.897477" lon="116.640948">
        <time>2021-12-05T11:27:47Z</time>
      </trkpt>
      <trkpt lat="39.897582" lon="116.640983">
        <time>2021-12-05T11:27:52Z</time>
      </trkpt>
      <trkpt lat="39.8977" lon="116.641019">
        <time>2021-12-05T11:27:57Z</time>
      </trkpt>
      <trkpt lat="39.897821" lon="116.641098">
        <time>2021-12-05T11:28:02Z</time>
      </trkpt>
      <trkpt lat="39.897871" lon="116.64115">
        <time>2021-12-05T11:28:07Z</time>
      </trkpt>
      <trkpt lat="39.897935" lon="116.641185">
        <time>2021-12-05T11:28:12Z</time>
      </trkpt>
      <trkpt lat="39.898031" lon="116.641225">
        <time>2021-12-05T11:28:17Z</time>
      </trkpt>
      <trkpt lat="39.898116" lon="116.641267">
        <time>2021-12-05T11:28:22Z</time>
      </trkpt>
      <trkpt lat="39.89819" lon="116.641294">
        <time>2021-12-05T11:28:27Z</time>
      </trkpt>
      <trkpt lat="39.898281" lon="116.641332">
        <time>2021-12-05T11:28:32Z</time>
      </trkpt>
      <trkpt lat="39.898374" lon="116.641406">
        <time>2021-12-05T11:28:37Z</time>
      </trkpt>
      <trkpt lat="39.898394" lon="116.641539">
        <time>2021-12-05T11:28:42Z</time>
      </trkpt>
      <trkpt lat="39.898378" lon="116.641706">
        <time>2021-12-05T11:28:47Z</time>
      </trkpt>
      <trkpt lat="39.898352" lon="116.641849">
        <time>2021-12-05T11:28:52Z</time>
      </trkpt>
      <trkpt lat="39.898316" lon="116.642111">
        <time>2021-12-05T11:28:57Z</time>
      </trkpt>
      <trkpt lat="39.898311" lon="116.642131">
        <time>2021-12-05T11:29:02Z</time>
      </trkpt>
      <trkpt lat="39.898312" lon="116.642234">
        <time>2021-12-05T11:29:07Z</time>
      </trkpt>
      <trkpt lat="39.898314" lon="116.642418">
        <time>2021-12-05T11:29:12Z</time>
      </trkpt>
      <trkpt lat="39.89832" lon="116.642545">
        <time>2021-12-05T11:29:17Z</time>
      </trkpt>
      <trkpt lat="39.898298" lon="116.642783">
        <time>2021-12-05T11:29:22Z</time>
      </trkpt>
      <trkpt lat="39.898277" lon="116.64284">
        <time>2021-12-05T11:29:27Z</time>
      </trkpt>
      <trkpt lat="39.898263" lon="116.642981">
        <time>2021-12-05T11:29:32Z</time>
      </trkpt>
      <trkpt lat="39.898266" lon="116.643147">
        <time>2021-12-05T11:29:37Z</time>
      </trkpt>
      <trkpt lat="39.89828" lon="116.643329">
        <time>2021-12-05T11:29:42Z</time>
      </trkpt>
      <trkpt lat="39.898303" lon="116.643498">
        <time>2021-12-05T11:29:47Z</time>
      </trkpt>
      <trkpt lat="39.898311" lon="116.643661">
        <time>2021-12-05T11:29:52Z</time>
      </trkpt>
      <trkpt lat="39.898322" lon="116.64382">
        <time>2021-12-05T11:29:57Z</time>
      </trkpt>
      <trkpt lat="39.898345" lon="116.643994">
        <time>2021-12-05T11:30:02Z</time>
      </trkpt>
      <trkpt lat="39.898351" lon="116.644156">
        <time>2021-12-05T11:30:07Z</time>
      </trkpt>
      <trkpt lat="39.89832" lon="116.644306">
        <time>2021-12-05T11:30:12Z</time>
      </trkpt>
      <trkpt lat="39.898354" lon="116.64446">
        <time>2021-12-05T11:30:17Z</time>
      </trkpt>
      <trkpt lat="39.898385" lon="116.644577">
        <time>2021-12-05T11:30:22Z</time>
      </trkpt>
      <trkpt lat="39.898391" lon="116.644695">
        <time>2021-12-05T11:30:27Z</time>
      </trkpt>
      <trkpt lat="39.898406" lon="116.644783">
        <time>2021-12-05T11:30:32Z</time>
      </trkpt>
      <trkpt lat="39.898449" lon="116.644879">
        <time>2021-12-05T11:30:37Z</time>
      </trkpt>
      <trkpt lat="39.898484" lon="116.645089">
        <time>2021-12-05T11:30:42Z</time>
      </trkpt>
      <trkpt lat="39.898486" lon="116.645111">
        <time>2021-12-05T11:30:47Z</time>
      </trkpt>
      <trkpt lat="39.898498" lon="116.645222">
        <time>2021-12-05T11:30:52Z</time>
      </trkpt>
      <trkpt lat="39.89852" lon="116.645325">
        <time>2021-12-05T11:30:57Z</time>
      </trkpt>
      <trkpt lat="39.898552" lon="116.64544">
        <time>2021-12-05T11:31:02Z</time>
      </trkpt>
      <trkpt lat="39.898566" lon="116.645568">
        <time>2021-12-05T11:31:07Z</time>
      </trkpt>
      <trkpt lat="39.898591" lon="116.645698">
        <time>2021-12-05T11:31:12Z</time>
      </trkpt>
      <trkpt lat="39.898604" lon="116.64586">
        <time>2021-12-05T11:31:17Z</time>
      </trkpt>
      <trkpt lat="39.898617" lon="116.646021">
        <time>2021-12-05T11:31:22Z</time>
      </trkpt>
      <trkpt lat="39.898651" lon="116.646166">
        <time>2021-12-05T11:31:27Z</time>
      </trkpt>
      <trkpt lat="39.898713" lon="116.646314">
        <time>2021-12-05T11:31:32Z</time>
      </trkpt>
      <trkpt lat="39.89874" lon="116.646458">
        <time>2021-12-05T11:31:37Z</time>
      </trkpt>
      <trkpt lat="39.898789" lon="116.646597">
        <time>2021-12-05T11:31:42Z</time>
      </trkpt>
      <trkpt lat="39.898827" lon="116.646704">
        <time>2021-12-05T11:31:47Z</time>
      </trkpt>
      <trkpt lat="39.898859" lon="116.646837">
        <time>2021-12-05T11:31:52Z</time>
      </trkpt>
      <trkpt lat="39.898898" lon="116.646945">
        <time>2021-12-05T11:31:57Z</time>
      </trkpt>
      <trkpt lat="39.898908" lon="116.647014">
        <time>2021-12-05T11:32:02Z</time>
      </trkpt>
      <trkpt lat="39.898884" lon="116.647093">
        <time>2021-12-05T11:32:07Z</time>
      </trkpt>
      <trkpt lat="39.898853" lon="116.647201">
        <time>2021-12-05T11:32:12Z</time>
      </trkpt>
      <trkpt lat="39.898864" lon="116.64734">
        <time>2021-12-05T11:32:17Z</time>
      </trkpt>
      <trkpt lat="39.89888" lon="116.647467">
        <time>2021-12-05T11:32:22Z</time>
      </trkpt>
      <trkpt lat="39.898913" lon="116.647621">
        <time>2021-12-05T11:32:27Z</time>
      </trkpt>
      <trkpt lat="39.898943" lon="116.647768">
        <time>2021-12-05T11:32:32Z</time>
      </trkpt>
      <trkpt lat="39.898966" lon="116.647903">
        <time>2021-12-05T11:32:37Z</time>
      </trkpt>
      <trkpt lat="39.898988" lon="116.648147">
        <time>2021-12-05T11:32:42Z</time>
      </trkpt>
      <trkpt lat="39.898987" lon="116.64821">
        <time>2021-12-05T11:32:47Z</time>
      </trkpt>
      <trkpt lat="39.898959" lon="116.648355">
        <time>2021-12-05T11:32:52Z</time>
      </trkpt>
      <trkpt lat="39.898976" lon="116.648559">
        <time>2021-12-05T11:32:57Z</time>
      </trkpt>
      <trkpt lat="39.898957" lon="116.64875">
        <time>2021-12-05T11:33:02Z</time>
      </trkpt>
      <trkpt lat="39.898951" lon="116.648831">
        <time>2021-12-05T11:33:07Z</time>
      </trkpt>
      <trkpt lat="39.898945" lon="116.648967">
        <time>2021-12-05T11:33:12Z</time>
      </trkpt>
      <trkpt lat="39.898966" lon="116.649095">
        <time>2021-12-05T11:33:17Z</time>
      </trkpt>
      <trkpt lat="39.898983" lon="116.649192">
        <time>2021-12-05T11:33:22Z</time>
      </trkpt>
      <trkpt lat="39.898995" lon="116.649336">
        <time>2021-12-05T11:33:27Z</time>
      </trkpt>
      <trkpt lat="39.898995" lon="116.649358">
        <time>2021-12-05T11:33:32Z</time>
      </trkpt>
      <trkpt lat="39.898984" lon="116.649484">
        <time>2021-12-05T11:33:37Z</time>
      </trkpt>
      <trkpt lat="39.898968" lon="116.64962">
        <time>2021-12-05T11:33:42Z</time>
      </trkpt>
      <trkpt lat="39.898967" lon="116.649757">
        <time>2021-12-05T11:33:47Z</time>
      </trkpt>
      <trkpt lat="39.898972" lon="116.649902">
        <time>2021-12-05T11:33:52Z</time>
      </trkpt>
      <trkpt lat="39.898959" lon="116.650046">
        <time>2021-12-05T11:33:57Z</time>
      </trkpt>
      <trkpt lat="39.898939" lon="116.65022">
        <time>2021-12-05T11:34:02Z</time>
      </trkpt>
      <trkpt lat="39.898939" lon="116.650316">
        <time>2021-12-05T11:34:07Z</time>
      </trkpt>
      <trkpt lat="39.898949" lon="116.650389">
        <time>2021-12-05T11:34:12Z</time>
      </trkpt>
      <trkpt lat="39.898945" lon="116.650473">
        <time>2021-12-05T11:34:17Z</time>
      </trkpt>
      <trkpt lat="39.898933" lon="116.650559">
        <time>2021-12-05T11:34:22Z</time>
      </trkpt>
      <trkpt lat="39.898938" lon="116.650686">
        <time>2021-12-05T11:34:27Z</time>
      </trkpt>
      <trkpt lat="39.898955" lon="116.650799">
        <time>2021-12-05T11:34:32Z</time>
      </trkpt>
      <trkpt lat="39.898991" lon="116.650922">
        <time>2021-12-05T11:34:37Z</time>
      </trkpt>
      <trkpt lat="39.899015" lon="116.65106">
        <time>2021-12-05T11:34:42Z</time>
      </trkpt>
      <trkpt lat="39.899035" lon="116.651191">
        <time>2021-12-05T11:34:47Z</time>
      </trkpt>
      <trkpt lat="39.899005" lon="116.651373">
        <time>2021-12-05T11:34:52Z</time>
      </trkpt>
      <trkpt lat="39.899041" lon="116.651361">
        <time>2021-12-05T11:34:57Z</time>
      </trkpt>
      <trkpt lat="39.899073" lon="116.651243">
        <time>2021-12-05T11:35:02Z</time>
      </trkpt>
      <trkpt lat="39.89903" lon="116.651088">
        <time>2021-12-05T11:35:07Z</time>
      </trkpt>
      <trkpt lat="39.899018" lon="116.650996">
        <time>2021-12-05T11:35:12Z</time>
      </trkpt>
      <trkpt lat="39.899021" lon="116.650839">
        <time>2021-12-05T11:35:17Z</time>
      </trkpt>
      <trkpt lat="39.899009" lon="116.650694">
        <time>2021-12-05T11:35:22Z</time>
      </trkpt>
      <trkpt lat="39.899003" lon="116.650529">
        <time>2021-12-05T11:35:27Z</time>
      </trkpt>
      <trkpt lat="39.899027" lon="116.650366">
        <time>2021-12-05T11:35:32Z</time>
      </trkpt>
      <trkpt lat="39.899007" lon="116.650179">
        <time>2021-12-05T11:35:37Z</time>
      </trkpt>
      <trkpt lat="39.899022" lon="116.650034">
        <time>2021-12-05T11:35:42Z</time>
      </trkpt>
      <trkpt lat="39.899027" lon="116.649855">
        <time>2021-12-05T11:35:47Z</time>
      </trkpt>
      <trkpt lat="39.898976" lon="116.649694">
        <time>2021-12-05T11:35:52Z</time>
      </trkpt>
      <trkpt lat="39.898919" lon="116.649482">
        <time>2021-12-05T11:35:57Z</time>
      </trkpt>
      <trkpt lat="39.898902" lon="116.649416">
        <time>2021-12-05T11:36:02Z</time>
      </trkpt>
      <trkpt lat="39.898874" lon="116.649302">
        <time>2021-12-05T11:36:07Z</time>
      </trkpt>
      <trkpt lat="39.898906" lon="116.649166">
        <time>2021-12-05T11:36:12Z</time>
      </trkpt>
      <trkpt lat="39.898938" lon="116.649104">
        <time>2021-12-05T11:36:17Z</time>
      </trkpt>
      <trkpt lat="39.898995" lon="116.648935">
        <time>2021-12-05T11:36:22Z</time>
      </trkpt>
      <trkpt lat="39.899047" lon="116.648758">
        <time>2021-12-05T11:36:27Z</time>
      </trkpt>
      <trkpt lat="39.89909" lon="116.648578">
        <time>2021-12-05T11:36:32Z</time>
      </trkpt>
      <trkpt lat="39.899011" lon="116.648425">
        <time>2021-12-05T11:36:37Z</time>
      </trkpt>
      <trkpt lat="39.898975" lon="116.648297">
        <time>2021-12-05T11:36:42Z</time>
      </trkpt>
      <trkpt lat="39.898942" lon="116.648225">
        <time>2021-12-05T11:36:47Z</time>
      </trkpt>
      <trkpt lat="39.898935" lon="116.648068">
        <time>2021-12-05T11:36:52Z</time>
      </trkpt>
      <trkpt lat="39.898943" lon="116.647913">
        <time>2021-12-05T11:36:57Z</time>
      </trkpt>
      <trkpt lat="39.898937" lon="116.647804">
        <time>2021-12-05T11:37:02Z</time>
      </trkpt>
      <trkpt lat="39.898918" lon="116.647707">
        <time>2021-12-05T11:37:07Z</time>
      </trkpt>
      <trkpt lat="39.89891" lon="116.647605">
        <time>2021-12-05T11:37:12Z</time>
      </trkpt>
      <trkpt lat="39.898916" lon="116.647526">
        <time>2021-12-05T11:37:17Z</time>
      </trkpt>
      <trkpt lat="39.898915" lon="116.647428">
        <time>2021-12-05T11:37:22Z</time>
      </trkpt>
      <trkpt lat="39.898909" lon="116.647339">
        <time>2021-12-05T11:37:27Z</time>
      </trkpt>
      <trkpt lat="39.898906" lon="116.647249">
        <time>2021-12-05T11:37:32Z</time>
      </trkpt>
      <trkpt lat="39.8989" lon="116.647161">
        <time>2021-12-05T11:37:37Z</time>
      </trkpt>
      <trkpt lat="39.898882" lon="116.647096">
        <time>2021-12-05T11:37:42Z</time>
      </trkpt>
      <trkpt lat="39.89887" lon="116.647043">
        <time>2021-12-05T11:37:47Z</time>
      </trkpt>
      <trkpt lat="39.89881" lon="116.646977">
        <time>2021-12-05T11:37:52Z</time>
      </trkpt>
      <trkpt lat="39.898765" lon="116.646721">
        <time>2021-12-05T11:37:57Z</time>
      </trkpt>
      <trkpt lat="39.898752" lon="116.646646">
        <time>2021-12-05T11:38:02Z</time>
      </trkpt>
      <trkpt lat="39.898734" lon="116.646475">
        <time>2021-12-05T11:38:07Z</time>
      </trkpt>
      <trkpt lat="39.898715" lon="116.646363">
        <time>2021-12-05T11:38:12Z</time>
      </trkpt>
      <trkpt lat="39.898666" lon="116.646201">
        <time>2021-12-05T11:38:17Z</time>
      </trkpt>
      <trkpt lat="39.898587" lon="116.646038">
        <time>2021-12-05T11:38:22Z</time>
      </trkpt>
      <trkpt lat="39.89853" lon="116.645902">
        <time>2021-12-05T11:38:27Z</time>
      </trkpt>
      <trkpt lat="39.898492" lon="116.645813">
        <time>2021-12-05T11:38:32Z</time>
      </trkpt>
      <trkpt lat="39.89847" lon="116.645738">
        <time>2021-12-05T11:38:37Z</time>
      </trkpt>
      <trkpt lat="39.898461" lon="116.645642">
        <time>2021-12-05T11:38:42Z</time>
      </trkpt>
      <trkpt lat="39.898431" lon="116.645495">
        <time>2021-12-05T11:38:47Z</time>
      </trkpt>
      <trkpt lat="39.898414" lon="116.645364">
        <time>2021-12-05T11:38:52Z</time>
      </trkpt>
      <trkpt lat="39.898387" lon="116.645213">
        <time>2021-12-05T11:38:57Z</time>
      </trkpt>
      <trkpt lat="39.89838" lon="116.645084">
        <time>2021-12-05T11:39:02Z</time>
      </trkpt>
      <trkpt lat="39.898364" lon="116.644935">
        <time>2021-12-05T11:39:07Z</time>
      </trkpt>
      <trkpt lat="39.898354" lon="116.644769">
        <time>2021-12-05T11:39:12Z</time>
      </trkpt>
      <trkpt lat="39.898365" lon="116.644649">
        <time>2021-12-05T11:39:17Z</time>
      </trkpt>
      <trkpt lat="39.898343" lon="116.644457">
        <time>2021-12-05T11:39:22Z</time>
      </trkpt>
      <trkpt lat="39.898313" lon="116.644264">
        <time>2021-12-05T11:39:27Z</time>
      </trkpt>
      <trkpt lat="39.898298" lon="116.644125">
        <time>2021-12-05T11:39:32Z</time>
      </trkpt>
      <trkpt lat="39.898281" lon="116.643981">
        <time>2021-12-05T11:39:37Z</time>
      </trkpt>
      <trkpt lat="39.898271" lon="116.643827">
        <time>2021-12-05T11:39:42Z</time>
      </trkpt>
      <trkpt lat="39.898257" lon="116.643669">
        <time>2021-12-05T11:39:47Z</time>
      </trkpt>
      <trkpt lat="39.898265" lon="116.643504">
        <time>2021-12-05T11:39:52Z</time>
      </trkpt>
      <trkpt lat="39.898283" lon="116.64334">
        <time>2021-12-05T11:39:57Z</time>
      </trkpt>
      <trkpt lat="39.898322" lon="116.643119">
        <time>2021-12-05T11:40:02Z</time>
      </trkpt>
      <trkpt lat="39.898322" lon="116.642975">
        <time>2021-12-05T11:40:07Z</time>
      </trkpt>
      <trkpt lat="39.898323" lon="116.642811">
        <time>2021-12-05T11:40:12Z</time>
      </trkpt>
      <trkpt lat="39.898314" lon="116.642678">
        <time>2021-12-05T11:40:17Z</time>
      </trkpt>
      <trkpt lat="39.898325" lon="116.642573">
        <time>2021-12-05T11:40:22Z</time>
      </trkpt>
      <trkpt lat="39.898324" lon="116.642471">
        <time>2021-12-05T11:40:27Z</time>
      </trkpt>
      <trkpt lat="39.89832" lon="116.642364">
        <time>2021-12-05T11:40:32Z</time>
      </trkpt>
      <trkpt lat="39.898327" lon="116.642132">
        <time>2021-12-05T11:40:37Z</time>
      </trkpt>
      <trkpt lat="39.898338" lon="116.642107">
        <time>2021-12-05T11:40:42Z</time>
      </trkpt>
      <trkpt lat="39.898345" lon="116.641975">
        <time>2021-12-05T11:40:47Z</time>
      </trkpt>
      <trkpt lat="39.898348" lon="116.64188">
        <time>2021-12-05T11:40:52Z</time>
      </trkpt>
      <trkpt lat="39.898361" lon="116.641792">
        <time>2021-12-05T11:40:57Z</time>
      </trkpt>
      <trkpt lat="39.898379" lon="116.641691">
        <time>2021-12-05T11:41:02Z</time>
      </trkpt>
      <trkpt lat="39.898411" lon="116.641608">
        <time>2021-12-05T11:41:07Z</time>
      </trkpt>
      <trkpt lat="39.898439" lon="116.641498">
        <time>2021-12-05T11:41:12Z</time>
      </trkpt>
      <trkpt lat="39.898427" lon="116.641396">
        <time>2021-12-05T11:41:17Z</time>
      </trkpt>
      <trkpt lat="39.898381" lon="116.641353">
        <time>2021-12-05T11:41:22Z</time>
      </trkpt>
      <trkpt lat="39.898314" lon="116.641305">
        <time>2021-12-05T11:41:27Z</time>
      </trkpt>
      <trkpt lat="39.898242" lon="116.641247">
        <time>2021-12-05T11:41:32Z</time>
      </trkpt>
      <trkpt lat="39.898127" lon="116.641212">
        <time>2021-12-05T11:41:37Z</time>
      </trkpt>
      <trkpt lat="39.897979" lon="116.641163">
        <time>2021-12-05T11:41:42Z</time>
      </trkpt>
      <trkpt lat="39.897887" lon="116.641108">
        <time>2021-12-05T11:41:47Z</time>
      </trkpt>
      <trkpt lat="39.897767" lon="116.641055">
        <time>2021-12-05T11:41:52Z</time>
      </trkpt>
      <trkpt lat="39.897646" lon="116.641012">
        <time>2021-12-05T11:41:57Z</time>
      </trkpt>
      <trkpt lat="39.897556" lon="116.640985">
        <time>2021-12-05T11:42:02Z</time>
      </trkpt>
      <trkpt lat="39.897521" lon="116.640951">
        <time>2021-12-05T11:42:07Z</time>
      </trkpt>
      <trkpt lat="39.897456" lon="116.640907">
        <time>2021-12-05T11:42:12Z</time>
      </trkpt>
      <trkpt lat="39.897336" lon="116.64085">
        <time>2021-12-05T11:42:17Z</time>
      </trkpt>
      <trkpt lat="39.897199" lon="116.640778">
        <time>2021-12-05T11:42:22Z</time>
      </trkpt>
      <trkpt lat="39.897033" lon="116.640711">
        <time>2021-12-05T11:42:27Z</time>
      </trkpt>
      <trkpt lat="39.896937" lon="116.640665">
        <time>2021-12-05T11:42:32Z</time>
      </trkpt>
      <trkpt lat="39.896823" lon="116.640616">
        <time>2021-12-05T11:42:37Z</time>
      </trkpt>
      <trkpt lat="39.896693" lon="116.640547">
        <time>2021-12-05T11:42:42Z</time>
      </trkpt>
      <trkpt lat="39.896573" lon="116.640471">
        <time>2021-12-05T11:42:47Z</time>
      </trkpt>
      <trkpt lat="39.896458" lon="116.640412">
        <time>2021-12-05T11:42:52Z</time>
      </trkpt>
      <trkpt lat="39.89638" lon="116.640317">
        <time>2021-12-05T11:42:57Z</time>
      </trkpt>
      <trkpt lat="39.896309" lon="116.640191">
        <time>2021-12-05T11:43:02Z</time>
      </trkpt>
      <trkpt lat="39.896305" lon="116.640147">
        <time>2021-12-05T11:43:07Z</time>
      </trkpt>
      <trkpt lat="39.896289" lon="116.640035">
        <time>2021-12-05T11:43:12Z</time>
      </trkpt>
      <trkpt lat="39.896286" lon="116.63994">
        <time>2021-12-05T11:43:17Z</time>
      </trkpt>
      <trkpt lat="39.896272" lon="116.639844">
        <time>2021-12-05T11:43:22Z</time>
      </trkpt>
      <trkpt lat="39.896267" lon="116.639736">
        <time>2021-12-05T11:43:27Z</time>
      </trkpt>
      <trkpt lat="39.896251" lon="116.639594">
        <time>2021-12-05T11:43:32Z</time>
      </trkpt>
      <trkpt lat="39.896248" lon="116.639384">
        <time>2021-12-05T11:43:37Z</time>
      </trkpt>
      <trkpt lat="39.896248" lon="116.639333">
        <time>2021-12-05T11:43:42Z</time>
      </trkpt>
      <trkpt lat="39.896241" lon="116.639186">
        <time>2021-12-05T11:43:47Z</time>
      </trkpt>
      <trkpt lat="39.896241" lon="116.639186">
        <time>2021-12-05T11:43:52Z</time>
      </trkpt>
      <trkpt lat="39.896234" lon="116.639064">
        <time>2021-12-05T11:43:57Z</time>
      </trkpt>
      <trkpt lat="39.896181" lon="116.638787">
        <time>2021-12-05T11:44:02Z</time>
      </trkpt>
      <trkpt lat="39.896193" lon="116.638612">
        <time>2021-12-05T11:44:07Z</time>
      </trkpt>
      <trkpt lat="39.896195" lon="116.638486">
        <time>2021-12-05T11:44:12Z</time>
      </trkpt>
      <trkpt lat="39.896184" lon="116.638344">
        <time>2021-12-05T11:44:17Z</time>
      </trkpt>
      <trkpt lat="39.896176" lon="116.638168">
        <time>2021-12-05T11:44:22Z</time>
      </trkpt>
      <trkpt lat="39.896177" lon="116.638004">
        <time>2021-12-05T11:44:27Z</time>
      </trkpt>
      <trkpt lat="39.896182" lon="116.637869">
        <time>2021-12-05T11:44:32Z</time>
      </trkpt>
      <trkpt lat="39.896186" lon="116.637762">
        <time>2021-12-05T11:44:37Z</time>
      </trkpt>
      <trkpt lat="39.896179" lon="116.637668">
        <time>2021-12-05T11:44:42Z</time>
      </trkpt>
      <trkpt lat="39.896175" lon="116.63757">
        <time>2021-12-05T11:44:47Z</time>
      </trkpt>
      <trkpt lat="39.896173" lon="116.63747">
        <time>2021-12-05T11:44:52Z</time>
      </trkpt>
      <trkpt lat="39.896162" lon="116.637371">
        <time>2021-12-05T11:44:57Z</time>
      </trkpt>
      <trkpt lat="39.896148" lon="116.637265">
        <time>2021-12-05T11:45:02Z</time>
      </trkpt>
      <trkpt lat="39.896143" lon="116.637162">
        <time>2021-12-05T11:45:07Z</time>
      </trkpt>
      <trkpt lat="39.896133" lon="116.637066">
        <time>2021-12-05T11:45:12Z</time>
      </trkpt>
      <trkpt lat="39.896114" lon="116.636956">
        <time>2021-12-05T11:45:17Z</time>
      </trkpt>
      <trkpt lat="39.896046" lon="116.636767">
        <time>2021-12-05T11:45:22Z</time>
      </trkpt>
      <trkpt lat="39.896006" lon="116.636735">
        <time>2021-12-05T11:45:27Z</time>
      </trkpt>
      <trkpt lat="39.896007" lon="116.636878">
        <time>2021-12-05T11:45:32Z</time>
      </trkpt>
      <trkpt lat="39.896083" lon="116.637064">
        <time>2021-12-05T11:45:37Z</time>
      </trkpt>
      <trkpt lat="39.896102" lon="116.63716">
        <time>2021-12-05T11:45:42Z</time>
      </trkpt>
      <trkpt lat="39.896125" lon="116.637308">
        <time>2021-12-05T11:45:47Z</time>
      </trkpt>
      <trkpt lat="39.896132" lon="116.637446">
        <time>2021-12-05T11:45:52Z</time>
      </trkpt>
      <trkpt lat="39.896163" lon="116.637605">
        <time>2021-12-05T11:45:57Z</time>
      </trkpt>
      <trkpt lat="39.89617" lon="116.637752">
        <time>2021-12-05T11:46:02Z</time>
      </trkpt>
      <trkpt lat="39.896177" lon="116.637887">
        <time>2021-12-05T11:46:07Z</time>
      </trkpt>
      <trkpt lat="39.896193" lon="116.637978">
        <time>2021-12-05T11:46:12Z</time>
      </trkpt>
      <trkpt lat="39.896196" lon="116.638083">
        <time>2021-12-05T11:46:17Z</time>
      </trkpt>
      <trkpt lat="39.896198" lon="116.638177">
        <time>2021-12-05T11:46:22Z</time>
      </trkpt>
      <trkpt lat="39.8962" lon="116.638279">
        <time>2021-12-05T11:46:27Z</time>
      </trkpt>
      <trkpt lat="39.896187" lon="116.63839">
        <time>2021-12-05T11:46:32Z</time>
      </trkpt>
      <trkpt lat="39.896188" lon="116.638526">
        <time>2021-12-05T11:46:37Z</time>
      </trkpt>
      <trkpt lat="39.896184" lon="116.638667">
        <time>2021-12-05T11:46:42Z</time>
      </trkpt>
      <trkpt lat="39.896215" lon="116.638835">
        <time>2021-12-05T11:46:47Z</time>
      </trkpt>
      <trkpt lat="39.896208" lon="116.638987">
        <time>2021-12-05T11:46:52Z</time>
      </trkpt>
      <trkpt lat="39.896206" lon="116.639139">
        <time>2021-12-05T11:46:57Z</time>
      </trkpt>
      <trkpt lat="39.896218" lon="116.639319">
        <time>2021-12-05T11:47:02Z</time>
      </trkpt>
      <trkpt lat="39.896217" lon="116.639497">
        <time>2021-12-05T11:47:07Z</time>
      </trkpt>
      <trkpt lat="39.896226" lon="116.63965">
        <time>2021-12-05T11:47:12Z</time>
      </trkpt>
      <trkpt lat="39.896228" lon="116.639761">
        <time>2021-12-05T11:47:17Z</time>
      </trkpt>
      <trkpt lat="39.896233" lon="116.639868">
        <time>2021-12-05T11:47:22Z</time>
      </trkpt>
      <trkpt lat="39.896239" lon="116.639993">
        <time>2021-12-05T11:47:27Z</time>
      </trkpt>
      <trkpt lat="39.896245" lon="116.64015">
        <time>2021-12-05T11:47:32Z</time>
      </trkpt>
      <trkpt lat="39.896205" lon="116.640297">
        <time>2021-12-05T11:47:37Z</time>
      </trkpt>
      <trkpt lat="39.896208" lon="116.640497">
        <time>2021-12-05T11:47:42Z</time>
      </trkpt>
      <trkpt lat="39.896224" lon="116.640807">
        <time>2021-12-05T11:47:47Z</time>
      </trkpt>
      <trkpt lat="39.896225" lon="116.640914">
        <time>2021-12-05T11:47:52Z</time>
      </trkpt>
      <trkpt lat="39.89623" lon="116.641065">
        <time>2021-12-05T11:47:57Z</time>
      </trkpt>
      <trkpt lat="39.896218" lon="116.641232">
        <time>2021-12-05T11:48:02Z</time>
      </trkpt>
      <trkpt lat="39.896225" lon="116.641407">
        <time>2021-12-05T11:48:07Z</time>
      </trkpt>
      <trkpt lat="39.896228" lon="116.641558">
        <time>2021-12-05T11:48:12Z</time>
      </trkpt>
      <trkpt lat="39.896232" lon="116.641706">
        <time>2021-12-05T11:48:17Z</time>
      </trkpt>
      <trkpt lat="39.896225" lon="116.641814">
        <time>2021-12-05T11:48:22Z</time>
      </trkpt>
      <trkpt lat="39.896215" lon="116.64192">
        <time>2021-12-05T11:48:27Z</time>
      </trkpt>
      <trkpt lat="39.896229" lon="116.642065">
        <time>2021-12-05T11:48:32Z</time>
      </trkpt>
      <trkpt lat="39.896221" lon="116.642144">
        <time>2021-12-05T11:48:37Z</time>
      </trkpt>
      <trkpt lat="39.8962" lon="116.642299">
        <time>2021-12-05T11:48:42Z</time>
      </trkpt>
      <trkpt lat="39.896198" lon="116.642463">
        <time>2021-12-05T11:48:47Z</time>
      </trkpt>
      <trkpt lat="39.896209" lon="116.642638">
        <time>2021-12-05T11:48:52Z</time>
      </trkpt>
      <trkpt lat="39.89622" lon="116.642792">
        <time>2021-12-05T11:48:57Z</time>
      </trkpt>
      <trkpt lat="39.896197" lon="116.642957">
        <time>2021-12-05T11:49:02Z</time>
      </trkpt>
      <trkpt lat="39.896168" lon="116.643129">
        <time>2021-12-05T11:49:07Z</time>
      </trkpt>
      <trkpt lat="39.896163" lon="116.643221">
        <time>2021-12-05T11:49:12Z</time>
      </trkpt>
      <trkpt lat="39.896153" lon="116.643366">
        <time>2021-12-05T11:49:17Z</time>
      </trkpt>
      <trkpt lat="39.896168" lon="116.64343">
        <time>2021-12-05T11:49:22Z</time>
      </trkpt>
      <trkpt lat="39.896191" lon="116.643529">
        <time>2021-12-05T11:49:27Z</time>
      </trkpt>
      <trkpt lat="39.896203" lon="116.643622">
        <time>2021-12-05T11:49:32Z</time>
      </trkpt>
      <trkpt lat="39.896192" lon="116.643738">
        <time>2021-12-05T11:49:37Z</time>
      </trkpt>
      <trkpt lat="39.896186" lon="116.643868">
        <time>2021-12-05T11:49:42Z</time>
      </trkpt>
      <trkpt lat="39.896196" lon="116.644025">
        <time>2021-12-05T11:49:47Z</time>
      </trkpt>
      <trkpt lat="39.896189" lon="116.644195">
        <time>2021-12-05T11:49:52Z</time>
      </trkpt>
      <trkpt lat="39.896187" lon="116.644356">
        <time>2021-12-05T11:49:57Z</time>
      </trkpt>
      <trkpt lat="39.896193" lon="116.644487">
        <time>2021-12-05T11:50:02Z</time>
      </trkpt>
      <trkpt lat="39.896205" lon="116.644564">
        <time>2021-12-05T11:50:07Z</time>
      </trkpt>
      <trkpt lat="39.896213" lon="116.644665">
        <time>2021-12-05T11:50:12Z</time>
      </trkpt>
      <trkpt lat="39.896208" lon="116.644791">
        <time>2021-12-05T11:50:17Z</time>
      </trkpt>
      <trkpt lat="39.896186" lon="116.644969">
        <time>2021-12-05T11:50:22Z</time>
      </trkpt>
      <trkpt lat="39.896171" lon="116.645275">
        <time>2021-12-05T11:50:27Z</time>
      </trkpt>
      <trkpt lat="39.896146" lon="116.645395">
        <time>2021-12-05T11:50:32Z</time>
      </trkpt>
      <trkpt lat="39.896092" lon="116.645562">
        <time>2021-12-05T11:50:37Z</time>
      </trkpt>
      <trkpt lat="39.896064" lon="116.64576">
        <time>2021-12-05T11:50:42Z</time>
      </trkpt>
      <trkpt lat="39.896059" lon="116.646">
        <time>2021-12-05T11:50:47Z</time>
      </trkpt>
      <trkpt lat="39.896043" lon="116.646193">
        <time>2021-12-05T11:50:52Z</time>
      </trkpt>
      <trkpt lat="39.896033" lon="116.64632">
        <time>2021-12-05T11:50:57Z</time>
      </trkpt>
      <trkpt lat="39.896027" lon="116.646424">
        <time>2021-12-05T11:51:02Z</time>
      </trkpt>
      <trkpt lat="39.896021" lon="116.646578">
        <time>2021-12-05T11:51:07Z</time>
      </trkpt>
      <trkpt lat="39.895987" lon="116.646729">
        <time>2021-12-05T11:51:12Z</time>
      </trkpt>
      <trkpt lat="39.895833" lon="116.646779">
        <time>2021-12-05T11:51:17Z</time>
      </trkpt>
      <trkpt lat="39.895735" lon="116.646716">
        <time>2021-12-05T11:51:22Z</time>
      </trkpt>
      <trkpt lat="39.89567" lon="116.646682">
        <time>2021-12-05T11:51:27Z</time>
      </trkpt>
      <trkpt lat="39.895607" lon="116.646652">
        <time>2021-12-05T11:51:32Z</time>
      </trkpt>
      <trkpt lat="39.895532" lon="116.646633">
        <time>2021-12-05T11:51:37Z</time>
      </trkpt>
      <trkpt lat="39.895451" lon="116.646601">
        <time>2021-12-05T11:51:42Z</time>
      </trkpt>
      <trkpt lat="39.895375" lon="116.646561">
        <time>2021-12-05T11:51:47Z</time>
      </trkpt>
      <trkpt lat="39.895296" lon="116.646516">
        <time>2021-12-05T11:51:52Z</time>
      </trkpt>
      <trkpt lat="39.89524" lon="116.6465">
        <time>2021-12-05T11:51:57Z</time>
      </trkpt>
      <trkpt lat="39.89516" lon="116.646485">
        <time>2021-12-05T11:52:02Z</time>
      </trkpt>
      <trkpt lat="39.895075" lon="116.646436">
        <time>2021-12-05T11:52:07Z</time>
      </trkpt>
      <trkpt lat="39.895003" lon="116.64639">
        <time>2021-12-05T11:52:12Z</time>
      </trkpt>
      <trkpt lat="39.894943" lon="116.646332">
        <time>2021-12-05T11:52:17Z</time>
      </trkpt>
      <trkpt lat="39.89485" lon="116.646304">
        <time>2021-12-05T11:52:22Z</time>
      </trkpt>
      <trkpt lat="39.894749" lon="116.646294">
        <time>2021-12-05T11:52:27Z</time>
      </trkpt>
      <trkpt lat="39.894647" lon="116.646259">
        <time>2021-12-05T11:52:32Z</time>
      </trkpt>
      <trkpt lat="39.894537" lon="116.646199">
        <time>2021-12-05T11:52:37Z</time>
      </trkpt>
      <trkpt lat="39.894424" lon="116.64611">
        <time>2021-12-05T11:52:42Z</time>
      </trkpt>
      <trkpt lat="39.894309" lon="116.646046">
        <time>2021-12-05T11:52:47Z</time>
      </trkpt>
      <trkpt lat="39.894212" lon="116.645951">
        <time>2021-12-05T11:52:52Z</time>
      </trkpt>
      <trkpt lat="39.894106" lon="116.645918">
        <time>2021-12-05T11:52:57Z</time>
      </trkpt>
      <trkpt lat="39.893996" lon="116.645861">
        <time>2021-12-05T11:53:02Z</time>
      </trkpt>
      <trkpt lat="39.893876" lon="116.645904">
        <time>2021-12-05T11:53:07Z</time>
      </trkpt>
      <trkpt lat="39.893802" lon="116.646055">
        <time>2021-12-05T11:53:12Z</time>
      </trkpt>
      <trkpt lat="39.893718" lon="116.646181">
        <time>2021-12-05T11:53:17Z</time>
      </trkpt>
      <trkpt lat="39.893604" lon="116.646324">
        <time>2021-12-05T11:53:22Z</time>
      </trkpt>
      <trkpt lat="39.89354" lon="116.64633">
        <time>2021-12-05T11:53:27Z</time>
      </trkpt>
      <trkpt lat="39.893436" lon="116.646273">
        <time>2021-12-05T11:53:32Z</time>
      </trkpt>
      <trkpt lat="39.893378" lon="116.646232">
        <time>2021-12-05T11:53:37Z</time>
      </trkpt>
      <trkpt lat="39.893302" lon="116.646211">
        <time>2021-12-05T11:53:42Z</time>
      </trkpt>
      <trkpt lat="39.893229" lon="116.646184">
        <time>2021-12-05T11:53:47Z</time>
      </trkpt>
      <trkpt lat="39.893149" lon="116.646159">
        <time>2021-12-05T11:53:52Z</time>
      </trkpt>
      <trkpt lat="39.893092" lon="116.646104">
        <time>2021-12-05T11:53:57Z</time>
      </trkpt>
      <trkpt lat="39.893034" lon="116.646063">
        <time>2021-12-05T11:54:02Z</time>
      </trkpt>
      <trkpt lat="39.892949" lon="116.646027">
        <time>2021-12-05T11:54:07Z</time>
      </trkpt>
      <trkpt lat="39.892876" lon="116.64601">
        <time>2021-12-05T11:54:12Z</time>
      </trkpt>
      <trkpt lat="39.892794" lon="116.64597">
        <time>2021-12-05T11:54:17Z</time>
      </trkpt>
      <trkpt lat="39.892711" lon="116.645901">
        <time>2021-12-05T11:54:22Z</time>
      </trkpt>
      <trkpt lat="39.892591" lon="116.645828">
        <time>2021-12-05T11:54:27Z</time>
      </trkpt>
      <trkpt lat="39.892443" lon="116.645786">
        <time>2021-12-05T11:54:32Z</time>
      </trkpt>
      <trkpt lat="39.892305" lon="116.645726">
        <time>2021-12-05T11:54:37Z</time>
      </trkpt>
      <trkpt lat="39.892179" lon="116.645656">
        <time>2021-12-05T11:54:42Z</time>
      </trkpt>
      <trkpt lat="39.892071" lon="116.645552">
        <time>2021-12-05T11:54:47Z</time>
      </trkpt>
      <trkpt lat="39.89196" lon="116.645468">
        <time>2021-12-05T11:54:52Z</time>
      </trkpt>
      <trkpt lat="39.891811" lon="116.6454">
        <time>2021-12-05T11:54:57Z</time>
      </trkpt>
      <trkpt lat="39.891649" lon="116.645308">
        <time>2021-12-05T11:55:02Z</time>
      </trkpt>
      <trkpt lat="39.891562" lon="116.64531">
        <time>2021-12-05T11:55:07Z</time>
      </trkpt>
      <trkpt lat="39.891627" lon="116.6454">
        <time>2021-12-05T11:55:12Z</time>
      </trkpt>
      <trkpt lat="39.891761" lon="116.645489">
        <time>2021-12-05T11:55:17Z</time>
      </trkpt>
      <trkpt lat="39.891903" lon="116.645559">
        <time>2021-12-05T11:55:22Z</time>
      </trkpt>
      <trkpt lat="39.892019" lon="116.645623">
        <time>2021-12-05T11:55:27Z</time>
      </trkpt>
      <trkpt lat="39.892105" lon="116.645658">
        <time>2021-12-05T11:55:32Z</time>
      </trkpt>
      <trkpt lat="39.892199" lon="116.645675">
        <time>2021-12-05T11:55:37Z</time>
      </trkpt>
      <trkpt lat="39.892255" lon="116.645727">
        <time>2021-12-05T11:55:42Z</time>
      </trkpt>
      <trkpt lat="39.892329" lon="116.645716">
        <time>2021-12-05T11:55:47Z</time>
      </trkpt>
      <trkpt lat="39.892401" lon="116.645763">
        <time>2021-12-05T11:55:52Z</time>
      </trkpt>
      <trkpt lat="39.892479" lon="116.645811">
        <time>2021-12-05T11:55:57Z</time>
      </trkpt>
      <trkpt lat="39.892556" lon="116.645831">
        <time>2021-12-05T11:56:02Z</time>
      </trkpt>
      <trkpt lat="39.89263" lon="116.645874">
        <time>2021-12-05T11:56:07Z</time>
      </trkpt>
      <trkpt lat="39.892704" lon="116.645912">
        <time>2021-12-05T11:56:12Z</time>
      </trkpt>
      <trkpt lat="39.892771" lon="116.645961">
        <time>2021-12-05T11:56:17Z</time>
      </trkpt>
      <trkpt lat="39.892851" lon="116.645992">
        <time>2021-12-05T11:56:22Z</time>
      </trkpt>
      <trkpt lat="39.892929" lon="116.646016">
        <time>2021-12-05T11:56:27Z</time>
      </trkpt>
      <trkpt lat="39.892996" lon="116.646058">
        <time>2021-12-05T11:56:32Z</time>
      </trkpt>
      <trkpt lat="39.893073" lon="116.646127">
        <time>2021-12-05T11:56:37Z</time>
      </trkpt>
      <trkpt lat="39.893175" lon="116.646191">
        <time>2021-12-05T11:56:42Z</time>
      </trkpt>
      <trkpt lat="39.893265" lon="116.646214">
        <time>2021-12-05T11:56:47Z</time>
      </trkpt>
      <trkpt lat="39.893364" lon="116.646264">
        <time>2021-12-05T11:56:52Z</time>
      </trkpt>
      <trkpt lat="39.893431" lon="116.646294">
        <time>2021-12-05T11:56:57Z</time>
      </trkpt>
      <trkpt lat="39.893513" lon="116.646321">
        <time>2021-12-05T11:57:02Z</time>
      </trkpt>
      <trkpt lat="39.893614" lon="116.646361">
        <time>2021-12-05T11:57:07Z</time>
      </trkpt>
      <trkpt lat="39.893678" lon="116.646383">
        <time>2021-12-05T11:57:12Z</time>
      </trkpt>
      <trkpt lat="39.893755" lon="116.646371">
        <time>2021-12-05T11:57:17Z</time>
      </trkpt>
      <trkpt lat="39.893798" lon="116.6463">
        <time>2021-12-05T11:57:22Z</time>
      </trkpt>
      <trkpt lat="39.893843" lon="116.646211">
        <time>2021-12-05T11:57:27Z</time>
      </trkpt>
      <trkpt lat="39.89389" lon="116.646127">
        <time>2021-12-05T11:57:32Z</time>
      </trkpt>
      <trkpt lat="39.893945" lon="116.64601">
        <time>2021-12-05T11:57:37Z</time>
      </trkpt>
      <trkpt lat="39.894026" lon="116.645926">
        <time>2021-12-05T11:57:42Z</time>
      </trkpt>
      <trkpt lat="39.894117" lon="116.645977">
        <time>2021-12-05T11:57:47Z</time>
      </trkpt>
      <trkpt lat="39.894279" lon="116.646063">
        <time>2021-12-05T11:57:52Z</time>
      </trkpt>
      <trkpt lat="39.894396" lon="116.646086">
        <time>2021-12-05T11:57:57Z</time>
      </trkpt>
      <trkpt lat="39.894541" lon="116.646144">
        <time>2021-12-05T11:58:02Z</time>
      </trkpt>
      <trkpt lat="39.894686" lon="116.646218">
        <time>2021-12-05T11:58:07Z</time>
      </trkpt>
      <trkpt lat="39.894841" lon="116.64632">
        <time>2021-12-05T11:58:12Z</time>
      </trkpt>
      <trkpt lat="39.894928" lon="116.646382">
        <time>2021-12-05T11:58:17Z</time>
      </trkpt>
      <trkpt lat="39.895083" lon="116.646453">
        <time>2021-12-05T11:58:22Z</time>
      </trkpt>
      <trkpt lat="39.895248" lon="116.646528">
        <time>2021-12-05T11:58:27Z</time>
      </trkpt>
      <trkpt lat="39.89545" lon="116.646621">
        <time>2021-12-05T11:58:32Z</time>
      </trkpt>
      <trkpt lat="39.895531" lon="116.646659">
        <time>2021-12-05T11:58:37Z</time>
      </trkpt>
      <trkpt lat="39.895639" lon="116.646701">
        <time>2021-12-05T11:58:42Z</time>
      </trkpt>
      <trkpt lat="39.895753" lon="116.646746">
        <time>2021-12-05T11:58:47Z</time>
      </trkpt>
      <trkpt lat="39.895845" lon="116.646791">
        <time>2021-12-05T11:58:52Z</time>
      </trkpt>
      <trkpt lat="39.895932" lon="116.646841">
        <time>2021-12-05T11:58:57Z</time>
      </trkpt>
      <trkpt lat="39.896049" lon="116.64682">
        <time>2021-12-05T11:59:02Z</time>
      </trkpt>
      <trkpt lat="39.89608" lon="116.646684">
        <time>2021-12-05T11:59:07Z</time>
      </trkpt>
      <trkpt lat="39.896076" lon="116.64653">
        <time>2021-12-05T11:59:12Z</time>
      </trkpt>
      <trkpt lat="39.896077" lon="116.646386">
        <time>2021-12-05T11:59:17Z</time>
      </trkpt>
      <trkpt lat="39.896093" lon="116.646215">
        <time>2021-12-05T11:59:22Z</time>
      </trkpt>
      <trkpt lat="39.896109" lon="116.646023">
        <time>2021-12-05T11:59:27Z</time>
      </trkpt>
      <trkpt lat="39.896128" lon="116.645816">
        <time>2021-12-05T11:59:32Z</time>
      </trkpt>
      <trkpt lat="39.89615" lon="116.645703">
        <time>2021-12-05T11:59:37Z</time>
      </trkpt>
      <trkpt lat="39.896149" lon="116.6456">
        <time>2021-12-05T11:59:42Z</time>
      </trkpt>
      <trkpt lat="39.896174" lon="116.645493">
        <time>2021-12-05T11:59:47Z</time>
      </trkpt>
      <trkpt lat="39.896179" lon="116.645393">
        <time>2021-12-05T11:59:52Z</time>
      </trkpt>
      <trkpt lat="39.896189" lon="116.645291">
        <time>2021-12-05T11:59:57Z</time>
      </trkpt>
      <trkpt lat="39.896196" lon="116.645186">
        <time>2021-12-05T12:00:02Z</time>
      </trkpt>
      <trkpt lat="39.896193" lon="116.645069">
        <time>2021-12-05T12:00:07Z</time>
      </trkpt>
      <trkpt lat="39.896223" lon="116.644916">
        <time>2021-12-05T12:00:12Z</time>
      </trkpt>
      <trkpt lat="39.896225" lon="116.644778">
        <time>2021-12-05T12:00:17Z</time>
      </trkpt>
      <trkpt lat="39.896226" lon="116.644596">
        <time>2021-12-05T12:00:22Z</time>
      </trkpt>
      <trkpt lat="39.896222" lon="116.644389">
        <time>2021-12-05T12:00:27Z</time>
      </trkpt>
      <trkpt lat="39.896223" lon="116.644182">
        <time>2021-12-05T12:00:32Z</time>
      </trkpt>
      <trkpt lat="39.89623" lon="116.643967">
        <time>2021-12-05T12:00:37Z</time>
      </trkpt>
      <trkpt lat="39.896237" lon="116.643668">
        <time>2021-12-05T12:00:42Z</time>
      </trkpt>
      <trkpt lat="39.896235" lon="116.643541">
        <time>2021-12-05T12:00:47Z</time>
      </trkpt>
      <trkpt lat="39.896222" lon="116.643316">
        <time>2021-12-05T12:00:52Z</time>
      </trkpt>
      <trkpt lat="39.896223" lon="116.643097">
        <time>2021-12-05T12:00:57Z</time>
      </trkpt>
      <trkpt lat="39.896235" lon="116.642896">
        <time>2021-12-05T12:01:02Z</time>
      </trkpt>
      <trkpt lat="39.896227" lon="116.64268">
        <time>2021-12-05T12:01:07Z</time>
      </trkpt>
      <trkpt lat="39.896239" lon="116.642474">
        <time>2021-12-05T12:01:12Z</time>
      </trkpt>
      <trkpt lat="39.896266" lon="116.6423">
        <time>2021-12-05T12:01:17Z</time>
      </trkpt>
      <trkpt lat="39.896256" lon="116.642195">
        <time>2021-12-05T12:01:22Z</time>
      </trkpt>
      <trkpt lat="39.896253" lon="116.64211">
        <time>2021-12-05T12:01:27Z</time>
      </trkpt>
      <trkpt lat="39.896257" lon="116.642006">
        <time>2021-12-05T12:01:32Z</time>
      </trkpt>
      <trkpt lat="39.896263" lon="116.641901">
        <time>2021-12-05T12:01:37Z</time>
      </trkpt>
      <trkpt lat="39.896256" lon="116.641798">
        <time>2021-12-05T12:01:42Z</time>
      </trkpt>
      <trkpt lat="39.896263" lon="116.641692">
        <time>2021-12-05T12:01:47Z</time>
      </trkpt>
      <trkpt lat="39.896276" lon="116.641598">
        <time>2021-12-05T12:01:52Z</time>
      </trkpt>
      <trkpt lat="39.896281" lon="116.641496">
        <time>2021-12-05T12:01:57Z</time>
      </trkpt>
      <trkpt lat="39.896291" lon="116.641398">
        <time>2021-12-05T12:02:02Z</time>
      </trkpt>
      <trkpt lat="39.896278" lon="116.641252">
        <time>2021-12-05T12:02:07Z</time>
      </trkpt>
      <trkpt lat="39.896274" lon="116.641098">
        <time>2021-12-05T12:02:12Z</time>
      </trkpt>
      <trkpt lat="39.896279" lon="116.640941">
        <time>2021-12-05T12:02:17Z</time>
      </trkpt>
      <trkpt lat="39.896276" lon="116.640776">
        <time>2021-12-05T12:02:22Z</time>
      </trkpt>
      <trkpt lat="39.896277" lon="116.640619">
        <time>2021-12-05T12:02:27Z</time>
      </trkpt>
      <trkpt lat="39.896287" lon="116.640431">
        <time>2021-12-05T12:02:32Z</time>
      </trkpt>
      <trkpt lat="39.896295" lon="116.640169">
        <time>2021-12-05T12:02:37Z</time>
      </trkpt>
      <trkpt lat="39.896301" lon="116.640004">
        <time>2021-12-05T12:02:42Z</time>
      </trkpt>
      <trkpt lat="39.896285" lon="116.639784">
        <time>2021-12-05T12:02:47Z</time>
      </trkpt>
      <trkpt lat="39.896276" lon="116.639608">
        <time>2021-12-05T12:02:52Z</time>
      </trkpt>
      <trkpt lat="39.89628" lon="116.639459">
        <time>2021-12-05T12:02:57Z</time>
      </trkpt>
      <trkpt lat="39.896256" lon="116.639338">
        <time>2021-12-05T12:03:02Z</time>
      </trkpt>
      <trkpt lat="39.896249" lon="116.639223">
        <time>2021-12-05T12:03:07Z</time>
      </trkpt>
      <trkpt lat="39.896263" lon="116.639114">
        <time>2021-12-05T12:03:12Z</time>
      </trkpt>
      <trkpt lat="39.896255" lon="116.639006">
        <time>2021-12-05T12:03:17Z</time>
      </trkpt>
      <trkpt lat="39.896255" lon="116.639006">
        <time>2021-12-05T12:03:22Z</time>
      </trkpt>
      <trkpt lat="39.896244" lon="116.638901">
        <time>2021-12-05T12:03:27Z</time>
      </trkpt>
      <trkpt lat="39.89622" lon="116.638644">
        <time>2021-12-05T12:03:32Z</time>
      </trkpt>
      <trkpt lat="39.896208" lon="116.638476">
        <time>2021-12-05T12:03:37Z</time>
      </trkpt>
      <trkpt lat="39.896207" lon="116.638344">
        <time>2021-12-05T12:03:42Z</time>
      </trkpt>
      <trkpt lat="39.896215" lon="116.638232">
        <time>2021-12-05T12:03:47Z</time>
      </trkpt>
      <trkpt lat="39.896207" lon="116.638153">
        <time>2021-12-05T12:03:52Z</time>
      </trkpt>
      <trkpt lat="39.896213" lon="116.638065">
        <time>2021-12-05T12:03:57Z</time>
      </trkpt>
      <trkpt lat="39.896219" lon="116.637961">
        <time>2021-12-05T12:04:02Z</time>
      </trkpt>
      <trkpt lat="39.896214" lon="116.63786">
        <time>2021-12-05T12:04:07Z</time>
      </trkpt>
      <trkpt lat="39.896212" lon="116.637762">
        <time>2021-12-05T12:04:12Z</time>
      </trkpt>
      <trkpt lat="39.896196" lon="116.637673">
        <time>2021-12-05T12:04:17Z</time>
      </trkpt>
      <trkpt lat="39.896192" lon="116.637562">
        <time>2021-12-05T12:04:22Z</time>
      </trkpt>
      <trkpt lat="39.896184" lon="116.637443">
        <time>2021-12-05T12:04:27Z</time>
      </trkpt>
      <trkpt lat="39.896188" lon="116.637333">
        <time>2021-12-05T12:04:32Z</time>
      </trkpt>
      <trkpt lat="39.896191" lon="116.637235">
        <time>2021-12-05T12:04:37Z</time>
      </trkpt>
      <trkpt lat="39.896185" lon="116.637133">
        <time>2021-12-05T12:04:42Z</time>
      </trkpt>
      <trkpt lat="39.896171" lon="116.637021">
        <time>2021-12-05T12:04:47Z</time>
      </trkpt>
      <trkpt lat="39.896151" lon="116.636919">
        <time>2021-12-05T12:04:52Z</time>
      </trkpt>
      <trkpt lat="39.896066" lon="116.63674">
        <time>2021-12-05T12:04:57Z</time>
      </trkpt>
      <trkpt lat="39.896028" lon="116.63669">
        <time>2021-12-05T12:05:02Z</time>
      </trkpt>
      <trkpt lat="39.895908" lon="116.636579">
        <time>2021-12-05T12:05:07Z</time>
      </trkpt>
      <trkpt lat="39.89592" lon="116.636418">
        <time>2021-12-05T12:05:12Z</time>
      </trkpt>
      <trkpt lat="39.896095" lon="116.63633">
        <time>2021-12-05T12:05:17Z</time>
      </trkpt>
      <trkpt lat="39.896295" lon="116.63619">
        <time>2021-12-05T12:05:22Z</time>
      </trkpt>
      <trkpt lat="39.896463" lon="116.636085">
        <time>2021-12-05T12:05:27Z</time>
      </trkpt>
      <trkpt lat="39.896587" lon="116.636025">
        <time>2021-12-05T12:05:32Z</time>
      </trkpt>
      <trkpt lat="39.896674" lon="116.635991">
        <time>2021-12-05T12:05:37Z</time>
      </trkpt>
      <trkpt lat="39.896744" lon="116.635937">
        <time>2021-12-05T12:05:42Z</time>
      </trkpt>
      <trkpt lat="39.896824" lon="116.635888">
        <time>2021-12-05T12:05:47Z</time>
      </trkpt>
      <trkpt lat="39.896893" lon="116.635864">
        <time>2021-12-05T12:05:52Z</time>
      </trkpt>
      <trkpt lat="39.896965" lon="116.635795">
        <time>2021-12-05T12:05:57Z</time>
      </trkpt>
      <trkpt lat="39.897037" lon="116.635723">
        <time>2021-12-05T12:06:02Z</time>
      </trkpt>
      <trkpt lat="39.897135" lon="116.635696">
        <time>2021-12-05T12:06:07Z</time>
      </trkpt>
      <trkpt lat="39.897219" lon="116.63563">
        <time>2021-12-05T12:06:12Z</time>
      </trkpt>
      <trkpt lat="39.897316" lon="116.635558">
        <time>2021-12-05T12:06:17Z</time>
      </trkpt>
      <trkpt lat="39.897423" lon="116.635482">
        <time>2021-12-05T12:06:22Z</time>
      </trkpt>
      <trkpt lat="39.89757" lon="116.635426">
        <time>2021-12-05T12:06:27Z</time>
      </trkpt>
      <trkpt lat="39.89763" lon="116.635425">
        <time>2021-12-05T12:06:32Z</time>
      </trkpt>
      <trkpt lat="39.897736" lon="116.635424">
        <time>2021-12-05T12:06:37Z</time>
      </trkpt>
      <trkpt lat="39.89785" lon="116.63535">
        <time>2021-12-05T12:06:42Z</time>
      </trkpt>
      <trkpt lat="39.897967" lon="116.635263">
        <time>2021-12-05T12:06:47Z</time>
      </trkpt>
      <trkpt lat="39.898088" lon="116.6352">
        <time>2021-12-05T12:06:52Z</time>
      </trkpt>
      <trkpt lat="39.898199" lon="116.635116">
        <time>2021-12-05T12:06:57Z</time>
      </trkpt>
      <trkpt lat="39.898297" lon="116.634982">
        <time>2021-12-05T12:07:02Z</time>
      </trkpt>
      <trkpt lat="39.89841" lon="116.634857">
        <time>2021-12-05T12:07:07Z</time>
      </trkpt>
      <trkpt lat="39.898535" lon="116.634769">
        <time>2021-12-05T12:07:12Z</time>
      </trkpt>
      <trkpt lat="39.898659" lon="116.634715">
        <time>2021-12-05T12:07:17Z</time>
      </trkpt>
      <trkpt lat="39.898789" lon="116.634676">
        <time>2021-12-05T12:07:22Z</time>
      </trkpt>
      <trkpt lat="39.898924" lon="116.63459">
        <time>2021-12-05T12:07:27Z</time>
      </trkpt>
      <trkpt lat="39.899044" lon="116.634487">
        <time>2021-12-05T12:07:32Z</time>
      </trkpt>
      <trkpt lat="39.899121" lon="116.634365">
        <time>2021-12-05T12:07:37Z</time>
      </trkpt>
      <trkpt lat="39.899188" lon="116.634296">
        <time>2021-12-05T12:07:42Z</time>
      </trkpt>
      <trkpt lat="39.899257" lon="116.634242">
        <time>2021-12-05T12:07:47Z</time>
      </trkpt>
      <trkpt lat="39.899322" lon="116.634232">
        <time>2021-12-05T12:07:52Z</time>
      </trkpt>
      <trkpt lat="39.899379" lon="116.63419">
        <time>2021-12-05T12:07:57Z</time>
      </trkpt>
      <trkpt lat="39.899449" lon="116.634128">
        <time>2021-12-05T12:08:02Z</time>
      </trkpt>
      <trkpt lat="39.899519" lon="116.634083">
        <time>2021-12-05T12:08:07Z</time>
      </trkpt>
      <trkpt lat="39.899596" lon="116.634056">
        <time>2021-12-05T12:08:12Z</time>
      </trkpt>
      <trkpt lat="39.89969" lon="116.634011">
        <time>2021-12-05T12:08:17Z</time>
      </trkpt>
      <trkpt lat="39.899809" lon="116.633978">
        <time>2021-12-05T12:08:22Z</time>
      </trkpt>
      <trkpt lat="39.899901" lon="116.633914">
        <time>2021-12-05T12:08:27Z</time>
      </trkpt>
      <trkpt lat="39.900011" lon="116.63385">
        <time>2021-12-05T12:08:32Z</time>
      </trkpt>
      <trkpt lat="39.900129" lon="116.633781">
        <time>2021-12-05T12:08:37Z</time>
      </trkpt>
      <trkpt lat="39.900238" lon="116.633708">
        <time>2021-12-05T12:08:42Z</time>
      </trkpt>
      <trkpt lat="39.900419" lon="116.633625">
        <time>2021-12-05T12:08:47Z</time>
      </trkpt>
      <trkpt lat="39.900458" lon="116.633589">
        <time>2021-12-05T12:08:52Z</time>
      </trkpt>
      <trkpt lat="39.900553" lon="116.633497">
        <time>2021-12-05T12:08:57Z</time>
      </trkpt>
      <trkpt lat="39.900652" lon="116.633411">
        <time>2021-12-05T12:09:02Z</time>
      </trkpt>
      <trkpt lat="39.900756" lon="116.633304">
        <time>2021-12-05T12:09:07Z</time>
      </trkpt>
      <trkpt lat="39.900862" lon="116.633201">
        <time>2021-12-05T12:09:12Z</time>
      </trkpt>
      <trkpt lat="39.90096" lon="116.633148">
        <time>2021-12-05T12:09:17Z</time>
      </trkpt>
      <trkpt lat="39.901008" lon="116.633167">
        <time>2021-12-05T12:09:22Z</time>
      </trkpt>
      <trkpt lat="39.900973" lon="116.633095">
        <time>2021-12-05T12:09:27Z</time>
      </trkpt>
      <trkpt lat="39.900946" lon="116.633">
        <time>2021-12-05T12:09:32Z</time>
      </trkpt>
      <trkpt lat="39.900853" lon="116.632853">
        <time>2021-12-05T12:09:37Z</time>
      </trkpt>
      <trkpt lat="39.900742" lon="116.632779">
        <time>2021-12-05T12:09:42Z</time>
      </trkpt>
      <trkpt lat="39.900615" lon="116.632853">
        <time>2021-12-05T12:09:47Z</time>
      </trkpt>
      <trkpt lat="39.900483" lon="116.632961">
        <time>2021-12-05T12:09:52Z</time>
      </trkpt>
      <trkpt lat="39.900361" lon="116.633069">
        <time>2021-12-05T12:09:57Z</time>
      </trkpt>
      <trkpt lat="39.900239" lon="116.633181">
        <time>2021-12-05T12:10:02Z</time>
      </trkpt>
      <trkpt lat="39.900128" lon="116.633271">
        <time>2021-12-05T12:10:07Z</time>
      </trkpt>
      <trkpt lat="39.900013" lon="116.633365">
        <time>2021-12-05T12:10:12Z</time>
      </trkpt>
      <trkpt lat="39.899889" lon="116.633441">
        <time>2021-12-05T12:10:17Z</time>
      </trkpt>
      <trkpt lat="39.899777" lon="116.633493">
        <time>2021-12-05T12:10:22Z</time>
      </trkpt>
      <trkpt lat="39.899651" lon="116.633553">
        <time>2021-12-05T12:10:27Z</time>
      </trkpt>
      <trkpt lat="39.899524" lon="116.633615">
        <time>2021-12-05T12:10:32Z</time>
      </trkpt>
      <trkpt lat="39.89943" lon="116.633682">
        <time>2021-12-05T12:10:37Z</time>
      </trkpt>
      <trkpt lat="39.899382" lon="116.633749">
        <time>2021-12-05T12:10:42Z</time>
      </trkpt>
      <trkpt lat="39.899312" lon="116.633793">
        <time>2021-12-05T12:10:47Z</time>
      </trkpt>
      <trkpt lat="39.899274" lon="116.63382">
        <time>2021-12-05T12:10:52Z</time>
      </trkpt>
      <trkpt lat="39.899214" lon="116.633872">
        <time>2021-12-05T12:10:57Z</time>
      </trkpt>
      <trkpt lat="39.899139" lon="116.633905">
        <time>2021-12-05T12:11:02Z</time>
      </trkpt>
      <trkpt lat="39.899065" lon="116.633958">
        <time>2021-12-05T12:11:07Z</time>
      </trkpt>
      <trkpt lat="39.899002" lon="116.634011">
        <time>2021-12-05T12:11:12Z</time>
      </trkpt>
      <trkpt lat="39.898905" lon="116.634053">
        <time>2021-12-05T12:11:17Z</time>
      </trkpt>
      <trkpt lat="39.898798" lon="116.634136">
        <time>2021-12-05T12:11:22Z</time>
      </trkpt>
      <trkpt lat="39.898679" lon="116.634205">
        <time>2021-12-05T12:11:27Z</time>
      </trkpt>
      <trkpt lat="39.898496" lon="116.634322">
        <time>2021-12-05T12:11:32Z</time>
      </trkpt>
      <trkpt lat="39.898397" lon="116.634374">
        <time>2021-12-05T12:11:37Z</time>
      </trkpt>
      <trkpt lat="39.898287" lon="116.634452">
        <time>2021-12-05T12:11:42Z</time>
      </trkpt>
      <trkpt lat="39.89818" lon="116.63458">
        <time>2021-12-05T12:11:47Z</time>
      </trkpt>
      <trkpt lat="39.89806" lon="116.634645">
        <time>2021-12-05T12:11:52Z</time>
      </trkpt>
      <trkpt lat="39.897982" lon="116.634529">
        <time>2021-12-05T12:11:57Z</time>
      </trkpt>
      <trkpt lat="39.897919" lon="116.634386">
        <time>2021-12-05T12:12:02Z</time>
      </trkpt>
      <trkpt lat="39.89784" lon="116.634282">
        <time>2021-12-05T12:12:07Z</time>
      </trkpt>
      <trkpt lat="39.897746" lon="116.63418">
        <time>2021-12-05T12:12:12Z</time>
      </trkpt>
      <trkpt lat="39.897647" lon="116.634031">
        <time>2021-12-05T12:12:17Z</time>
      </trkpt>
      <trkpt lat="39.897601" lon="116.633938">
        <time>2021-12-05T12:12:22Z</time>
      </trkpt>
      <trkpt lat="39.897562" lon="116.633858">
        <time>2021-12-05T12:12:27Z</time>
      </trkpt>
      <trkpt lat="39.897537" lon="116.633826">
        <time>2021-12-05T12:12:32Z</time>
      </trkpt>
      <trkpt lat="39.897518" lon="116.633739">
        <time>2021-12-05T12:12:37Z</time>
      </trkpt>
      <trkpt lat="39.89748" lon="116.633686">
        <time>2021-12-05T12:12:42Z</time>
      </trkpt>
      <trkpt lat="39.897454" lon="116.633691">
        <time>2021-12-05T12:12:47Z</time>
      </trkpt>
      <trkpt lat="39.897434" lon="116.633805">
        <time>2021-12-05T12:12:52Z</time>
      </trkpt>
      <trkpt lat="39.897473" lon="116.633931">
        <time>2021-12-05T12:12:57Z</time>
      </trkpt>
      <trkpt lat="39.897496" lon="116.634026">
        <time>2021-12-05T12:13:44Z</time>
      </trkpt>
    </trkseg>
  </trk>
</gpx>