<?xml version="1.0" encoding="UTF-8"?>
<gpx xmlns="http://www.topografix.com/GPX/1/1" xmlns:gpxtpx="http://www.garmin.com/xmlschemas/TrackPointExtension/v1" xmlns:xsi="http://www.w3.org/2001/XMLSchema-instance" xsi:schemaLocation="http://www.topografix.com/GPX/1/1 http://www.topografix.com/GPX/1/1/gpx.xsd" version="1.1" creator="gpx.py -- https://github.com/tkrajina/gpxpy">
  <trk>
    <name>gpx from keep</name>
    <trkseg>
      <trkpt lat="39.897983" lon="116.634524">
        <time>2021-11-30T13:29:51Z</time>
      </trkpt>
      <trkpt lat="39.897983" lon="116.634524">
        <time>2021-11-30T13:29:56Z</time>
      </trkpt>
      <trkpt lat="39.897983" lon="116.634524">
        <time>2021-11-30T13:30:01Z</time>
      </trkpt>
      <trkpt lat="39.897973" lon="116.634586">
        <time>2021-11-30T13:30:06Z</time>
      </trkpt>
      <trkpt lat="39.898035" lon="116.634711">
        <time>2021-11-30T13:30:11Z</time>
      </trkpt>
      <trkpt lat="39.898027" lon="116.634746">
        <time>2021-11-30T13:30:16Z</time>
      </trkpt>
      <trkpt lat="39.898022" lon="116.634752">
        <time>2021-11-30T13:30:21Z</time>
      </trkpt>
      <trkpt lat="39.898027" lon="116.634774">
        <time>2021-11-30T13:30:26Z</time>
      </trkpt>
      <trkpt lat="39.898029" lon="116.634784">
        <time>2021-11-30T13:30:31Z</time>
      </trkpt>
      <trkpt lat="39.898031" lon="116.634787">
        <time>2021-11-30T13:30:36Z</time>
      </trkpt>
      <trkpt lat="39.898024" lon="116.634731">
        <time>2021-11-30T13:30:41Z</time>
      </trkpt>
      <trkpt lat="39.898018" lon="116.63471">
        <time>2021-11-30T13:30:46Z</time>
      </trkpt>
      <trkpt lat="39.898013" lon="116.634716">
        <time>2021-11-30T13:30:51Z</time>
      </trkpt>
      <trkpt lat="39.898005" lon="116.634686">
        <time>2021-11-30T13:30:56Z</time>
      </trkpt>
      <trkpt lat="39.898005" lon="116.634686">
        <time>2021-11-30T13:31:01Z</time>
      </trkpt>
      <trkpt lat="39.898011" lon="116.63468">
        <time>2021-11-30T13:31:06Z</time>
      </trkpt>
      <trkpt lat="39.898028" lon="116.634686">
        <time>2021-11-30T13:31:11Z</time>
      </trkpt>
      <trkpt lat="39.898034" lon="116.634701">
        <time>2021-11-30T13:31:16Z</time>
      </trkpt>
      <trkpt lat="39.898063" lon="116.634755">
        <time>2021-11-30T13:31:21Z</time>
      </trkpt>
      <trkpt lat="39.898108" lon="116.634836">
        <time>2021-11-30T13:31:26Z</time>
      </trkpt>
      <trkpt lat="39.898107" lon="116.634984">
        <time>2021-11-30T13:31:31Z</time>
      </trkpt>
      <trkpt lat="39.898016" lon="116.635141">
        <time>2021-11-30T13:31:36Z</time>
      </trkpt>
      <trkpt lat="39.897915" lon="116.635213">
        <time>2021-11-30T13:31:41Z</time>
      </trkpt>
      <trkpt lat="39.897793" lon="116.635257">
        <time>2021-11-30T13:31:46Z</time>
      </trkpt>
      <trkpt lat="39.8977" lon="116.6353">
        <time>2021-11-30T13:31:51Z</time>
      </trkpt>
      <trkpt lat="39.897552" lon="116.635413">
        <time>2021-11-30T13:31:56Z</time>
      </trkpt>
      <trkpt lat="39.897405" lon="116.635507">
        <time>2021-11-30T13:32:01Z</time>
      </trkpt>
      <trkpt lat="39.897283" lon="116.635565">
        <time>2021-11-30T13:32:06Z</time>
      </trkpt>
      <trkpt lat="39.897166" lon="116.635614">
        <time>2021-11-30T13:32:11Z</time>
      </trkpt>
      <trkpt lat="39.897069" lon="116.63568">
        <time>2021-11-30T13:32:16Z</time>
      </trkpt>
      <trkpt lat="39.896917" lon="116.635753">
        <time>2021-11-30T13:32:21Z</time>
      </trkpt>
      <trkpt lat="39.896712" lon="116.635892">
        <time>2021-11-30T13:32:26Z</time>
      </trkpt>
      <trkpt lat="39.896669" lon="116.635917">
        <time>2021-11-30T13:32:31Z</time>
      </trkpt>
      <trkpt lat="39.896538" lon="116.636002">
        <time>2021-11-30T13:32:36Z</time>
      </trkpt>
      <trkpt lat="39.896452" lon="116.636051">
        <time>2021-11-30T13:32:41Z</time>
      </trkpt>
      <trkpt lat="39.896359" lon="116.636098">
        <time>2021-11-30T13:32:46Z</time>
      </trkpt>
      <trkpt lat="39.896248" lon="116.636109">
        <time>2021-11-30T13:32:51Z</time>
      </trkpt>
      <trkpt lat="39.896126" lon="116.636186">
        <time>2021-11-30T13:32:56Z</time>
      </trkpt>
      <trkpt lat="39.896024" lon="116.636296">
        <time>2021-11-30T13:33:01Z</time>
      </trkpt>
      <trkpt lat="39.895942" lon="116.63636">
        <time>2021-11-30T13:33:06Z</time>
      </trkpt>
      <trkpt lat="39.895854" lon="116.636439">
        <time>2021-11-30T13:33:11Z</time>
      </trkpt>
      <trkpt lat="39.895857" lon="116.636599">
        <time>2021-11-30T13:33:16Z</time>
      </trkpt>
      <trkpt lat="39.895974" lon="116.636715">
        <time>2021-11-30T13:33:21Z</time>
      </trkpt>
      <trkpt lat="39.896047" lon="116.636873">
        <time>2021-11-30T13:33:26Z</time>
      </trkpt>
      <trkpt lat="39.896121" lon="116.637162">
        <time>2021-11-30T13:33:31Z</time>
      </trkpt>
      <trkpt lat="39.896126" lon="116.637198">
        <time>2021-11-30T13:33:36Z</time>
      </trkpt>
      <trkpt lat="39.896141" lon="116.637359">
        <time>2021-11-30T13:33:41Z</time>
      </trkpt>
      <trkpt lat="39.896148" lon="116.637524">
        <time>2021-11-30T13:33:46Z</time>
      </trkpt>
      <trkpt lat="39.896151" lon="116.637697">
        <time>2021-11-30T13:33:51Z</time>
      </trkpt>
      <trkpt lat="39.896144" lon="116.637871">
        <time>2021-11-30T13:33:56Z</time>
      </trkpt>
      <trkpt lat="39.89616" lon="116.638029">
        <time>2021-11-30T13:34:01Z</time>
      </trkpt>
      <trkpt lat="39.896164" lon="116.638165">
        <time>2021-11-30T13:34:06Z</time>
      </trkpt>
      <trkpt lat="39.896174" lon="116.638326">
        <time>2021-11-30T13:34:11Z</time>
      </trkpt>
      <trkpt lat="39.896175" lon="116.638488">
        <time>2021-11-30T13:34:16Z</time>
      </trkpt>
      <trkpt lat="39.896183" lon="116.638603">
        <time>2021-11-30T13:34:21Z</time>
      </trkpt>
      <trkpt lat="39.896196" lon="116.638737">
        <time>2021-11-30T13:34:26Z</time>
      </trkpt>
      <trkpt lat="39.8962" lon="116.638891">
        <time>2021-11-30T13:34:31Z</time>
      </trkpt>
      <trkpt lat="39.896203" lon="116.639022">
        <time>2021-11-30T13:34:36Z</time>
      </trkpt>
      <trkpt lat="39.896215" lon="116.639149">
        <time>2021-11-30T13:34:41Z</time>
      </trkpt>
      <trkpt lat="39.896216" lon="116.639287">
        <time>2021-11-30T13:34:46Z</time>
      </trkpt>
      <trkpt lat="39.896217" lon="116.639425">
        <time>2021-11-30T13:34:51Z</time>
      </trkpt>
      <trkpt lat="39.896225" lon="116.639661">
        <time>2021-11-30T13:34:56Z</time>
      </trkpt>
      <trkpt lat="39.896259" lon="116.639721">
        <time>2021-11-30T13:35:01Z</time>
      </trkpt>
      <trkpt lat="39.896253" lon="116.63986">
        <time>2021-11-30T13:35:06Z</time>
      </trkpt>
      <trkpt lat="39.896248" lon="116.640014">
        <time>2021-11-30T13:35:11Z</time>
      </trkpt>
      <trkpt lat="39.896245" lon="116.640197">
        <time>2021-11-30T13:35:16Z</time>
      </trkpt>
      <trkpt lat="39.89626" lon="116.640355">
        <time>2021-11-30T13:35:21Z</time>
      </trkpt>
      <trkpt lat="39.896261" lon="116.640511">
        <time>2021-11-30T13:35:26Z</time>
      </trkpt>
      <trkpt lat="39.896242" lon="116.640802">
        <time>2021-11-30T13:35:31Z</time>
      </trkpt>
      <trkpt lat="39.896244" lon="116.640839">
        <time>2021-11-30T13:35:36Z</time>
      </trkpt>
      <trkpt lat="39.89625" lon="116.641023">
        <time>2021-11-30T13:35:41Z</time>
      </trkpt>
      <trkpt lat="39.896226" lon="116.641203">
        <time>2021-11-30T13:35:46Z</time>
      </trkpt>
      <trkpt lat="39.896219" lon="116.641365">
        <time>2021-11-30T13:35:51Z</time>
      </trkpt>
      <trkpt lat="39.896209" lon="116.641499">
        <time>2021-11-30T13:35:56Z</time>
      </trkpt>
      <trkpt lat="39.896211" lon="116.641629">
        <time>2021-11-30T13:36:01Z</time>
      </trkpt>
      <trkpt lat="39.896208" lon="116.641774">
        <time>2021-11-30T13:36:06Z</time>
      </trkpt>
      <trkpt lat="39.8962" lon="116.641926">
        <time>2021-11-30T13:36:11Z</time>
      </trkpt>
      <trkpt lat="39.896178" lon="116.642204">
        <time>2021-11-30T13:36:16Z</time>
      </trkpt>
      <trkpt lat="39.896172" lon="116.642233">
        <time>2021-11-30T13:36:21Z</time>
      </trkpt>
      <trkpt lat="39.896147" lon="116.642412">
        <time>2021-11-30T13:36:26Z</time>
      </trkpt>
      <trkpt lat="39.896149" lon="116.642583">
        <time>2021-11-30T13:36:31Z</time>
      </trkpt>
      <trkpt lat="39.896163" lon="116.642739">
        <time>2021-11-30T13:36:36Z</time>
      </trkpt>
      <trkpt lat="39.896168" lon="116.642944">
        <time>2021-11-30T13:36:41Z</time>
      </trkpt>
      <trkpt lat="39.896177" lon="116.643035">
        <time>2021-11-30T13:36:46Z</time>
      </trkpt>
      <trkpt lat="39.896167" lon="116.643158">
        <time>2021-11-30T13:36:51Z</time>
      </trkpt>
      <trkpt lat="39.896151" lon="116.643375">
        <time>2021-11-30T13:36:56Z</time>
      </trkpt>
      <trkpt lat="39.896156" lon="116.643468">
        <time>2021-11-30T13:37:01Z</time>
      </trkpt>
      <trkpt lat="39.896169" lon="116.643608">
        <time>2021-11-30T13:37:06Z</time>
      </trkpt>
      <trkpt lat="39.896166" lon="116.643757">
        <time>2021-11-30T13:37:11Z</time>
      </trkpt>
      <trkpt lat="39.896169" lon="116.643941">
        <time>2021-11-30T13:37:16Z</time>
      </trkpt>
      <trkpt lat="39.896167" lon="116.644116">
        <time>2021-11-30T13:37:21Z</time>
      </trkpt>
      <trkpt lat="39.896164" lon="116.644281">
        <time>2021-11-30T13:37:26Z</time>
      </trkpt>
      <trkpt lat="39.896182" lon="116.64454">
        <time>2021-11-30T13:37:31Z</time>
      </trkpt>
      <trkpt lat="39.896186" lon="116.644569">
        <time>2021-11-30T13:37:36Z</time>
      </trkpt>
      <trkpt lat="39.896202" lon="116.644695">
        <time>2021-11-30T13:37:41Z</time>
      </trkpt>
      <trkpt lat="39.896194" lon="116.644868">
        <time>2021-11-30T13:37:46Z</time>
      </trkpt>
      <trkpt lat="39.896185" lon="116.645016">
        <time>2021-11-30T13:37:51Z</time>
      </trkpt>
      <trkpt lat="39.896166" lon="116.645286">
        <time>2021-11-30T13:37:56Z</time>
      </trkpt>
      <trkpt lat="39.896165" lon="116.645315">
        <time>2021-11-30T13:38:01Z</time>
      </trkpt>
      <trkpt lat="39.896152" lon="116.645437">
        <time>2021-11-30T13:38:06Z</time>
      </trkpt>
      <trkpt lat="39.896114" lon="116.645585">
        <time>2021-11-30T13:38:11Z</time>
      </trkpt>
      <trkpt lat="39.896091" lon="116.645758">
        <time>2021-11-30T13:38:16Z</time>
      </trkpt>
      <trkpt lat="39.896076" lon="116.645928">
        <time>2021-11-30T13:38:21Z</time>
      </trkpt>
      <trkpt lat="39.896046" lon="116.646121">
        <time>2021-11-30T13:38:26Z</time>
      </trkpt>
      <trkpt lat="39.896026" lon="116.646312">
        <time>2021-11-30T13:38:31Z</time>
      </trkpt>
      <trkpt lat="39.896027" lon="116.646504">
        <time>2021-11-30T13:38:36Z</time>
      </trkpt>
      <trkpt lat="39.896019" lon="116.646665">
        <time>2021-11-30T13:38:41Z</time>
      </trkpt>
      <trkpt lat="39.896002" lon="116.646744">
        <time>2021-11-30T13:38:46Z</time>
      </trkpt>
      <trkpt lat="39.895927" lon="116.64683">
        <time>2021-11-30T13:38:51Z</time>
      </trkpt>
      <trkpt lat="39.895834" lon="116.646868">
        <time>2021-11-30T13:38:56Z</time>
      </trkpt>
      <trkpt lat="39.895675" lon="116.646793">
        <time>2021-11-30T13:39:01Z</time>
      </trkpt>
      <trkpt lat="39.895582" lon="116.646727">
        <time>2021-11-30T13:39:06Z</time>
      </trkpt>
      <trkpt lat="39.895471" lon="116.646671">
        <time>2021-11-30T13:39:11Z</time>
      </trkpt>
      <trkpt lat="39.895362" lon="116.646601">
        <time>2021-11-30T13:39:16Z</time>
      </trkpt>
      <trkpt lat="39.895253" lon="116.646549">
        <time>2021-11-30T13:39:21Z</time>
      </trkpt>
      <trkpt lat="39.89513" lon="116.646494">
        <time>2021-11-30T13:39:26Z</time>
      </trkpt>
      <trkpt lat="39.895013" lon="116.646421">
        <time>2021-11-30T13:39:31Z</time>
      </trkpt>
      <trkpt lat="39.894908" lon="116.646367">
        <time>2021-11-30T13:39:36Z</time>
      </trkpt>
      <trkpt lat="39.894778" lon="116.646311">
        <time>2021-11-30T13:39:41Z</time>
      </trkpt>
      <trkpt lat="39.894653" lon="116.64623">
        <time>2021-11-30T13:39:46Z</time>
      </trkpt>
      <trkpt lat="39.894529" lon="116.646151">
        <time>2021-11-30T13:39:51Z</time>
      </trkpt>
      <trkpt lat="39.894422" lon="116.64608">
        <time>2021-11-30T13:39:56Z</time>
      </trkpt>
      <trkpt lat="39.894292" lon="116.646021">
        <time>2021-11-30T13:40:01Z</time>
      </trkpt>
      <trkpt lat="39.894184" lon="116.645963">
        <time>2021-11-30T13:40:06Z</time>
      </trkpt>
      <trkpt lat="39.894077" lon="116.64588">
        <time>2021-11-30T13:40:11Z</time>
      </trkpt>
      <trkpt lat="39.893929" lon="116.645864">
        <time>2021-11-30T13:40:16Z</time>
      </trkpt>
      <trkpt lat="39.893824" lon="116.645973">
        <time>2021-11-30T13:40:21Z</time>
      </trkpt>
      <trkpt lat="39.893741" lon="116.64612">
        <time>2021-11-30T13:40:26Z</time>
      </trkpt>
      <trkpt lat="39.893628" lon="116.646319">
        <time>2021-11-30T13:40:31Z</time>
      </trkpt>
      <trkpt lat="39.893581" lon="116.646343">
        <time>2021-11-30T13:40:36Z</time>
      </trkpt>
      <trkpt lat="39.89344" lon="116.646271">
        <time>2021-11-30T13:40:41Z</time>
      </trkpt>
      <trkpt lat="39.893339" lon="116.646199">
        <time>2021-11-30T13:40:46Z</time>
      </trkpt>
      <trkpt lat="39.893235" lon="116.646136">
        <time>2021-11-30T13:40:51Z</time>
      </trkpt>
      <trkpt lat="39.893121" lon="116.646073">
        <time>2021-11-30T13:40:56Z</time>
      </trkpt>
      <trkpt lat="39.893" lon="116.646018">
        <time>2021-11-30T13:41:01Z</time>
      </trkpt>
      <trkpt lat="39.892884" lon="116.645977">
        <time>2021-11-30T13:41:06Z</time>
      </trkpt>
      <trkpt lat="39.89277" lon="116.645956">
        <time>2021-11-30T13:41:11Z</time>
      </trkpt>
      <trkpt lat="39.892649" lon="116.645891">
        <time>2021-11-30T13:41:16Z</time>
      </trkpt>
      <trkpt lat="39.892533" lon="116.645795">
        <time>2021-11-30T13:41:21Z</time>
      </trkpt>
      <trkpt lat="39.892421" lon="116.645733">
        <time>2021-11-30T13:41:26Z</time>
      </trkpt>
      <trkpt lat="39.892308" lon="116.645668">
        <time>2021-11-30T13:41:31Z</time>
      </trkpt>
      <trkpt lat="39.892188" lon="116.645606">
        <time>2021-11-30T13:41:36Z</time>
      </trkpt>
      <trkpt lat="39.892062" lon="116.645545">
        <time>2021-11-30T13:41:41Z</time>
      </trkpt>
      <trkpt lat="39.891942" lon="116.645478">
        <time>2021-11-30T13:41:46Z</time>
      </trkpt>
      <trkpt lat="39.891841" lon="116.645417">
        <time>2021-11-30T13:41:51Z</time>
      </trkpt>
      <trkpt lat="39.891704" lon="116.645367">
        <time>2021-11-30T13:41:56Z</time>
      </trkpt>
      <trkpt lat="39.891544" lon="116.645263">
        <time>2021-11-30T13:42:01Z</time>
      </trkpt>
      <trkpt lat="39.891528" lon="116.645326">
        <time>2021-11-30T13:42:06Z</time>
      </trkpt>
      <trkpt lat="39.891646" lon="116.645407">
        <time>2021-11-30T13:42:11Z</time>
      </trkpt>
      <trkpt lat="39.891784" lon="116.645486">
        <time>2021-11-30T13:42:16Z</time>
      </trkpt>
      <trkpt lat="39.891917" lon="116.645548">
        <time>2021-11-30T13:42:21Z</time>
      </trkpt>
      <trkpt lat="39.892046" lon="116.645597">
        <time>2021-11-30T13:42:26Z</time>
      </trkpt>
      <trkpt lat="39.892165" lon="116.645648">
        <time>2021-11-30T13:42:31Z</time>
      </trkpt>
      <trkpt lat="39.892293" lon="116.64571">
        <time>2021-11-30T13:42:36Z</time>
      </trkpt>
      <trkpt lat="39.892393" lon="116.645751">
        <time>2021-11-30T13:42:41Z</time>
      </trkpt>
      <trkpt lat="39.89252" lon="116.645809">
        <time>2021-11-30T13:42:46Z</time>
      </trkpt>
      <trkpt lat="39.892607" lon="116.645886">
        <time>2021-11-30T13:42:51Z</time>
      </trkpt>
      <trkpt lat="39.89272" lon="116.64592">
        <time>2021-11-30T13:42:56Z</time>
      </trkpt>
      <trkpt lat="39.892827" lon="116.645975">
        <time>2021-11-30T13:43:01Z</time>
      </trkpt>
      <trkpt lat="39.892941" lon="116.646008">
        <time>2021-11-30T13:43:06Z</time>
      </trkpt>
      <trkpt lat="39.893074" lon="116.646033">
        <time>2021-11-30T13:43:11Z</time>
      </trkpt>
      <trkpt lat="39.893206" lon="116.646073">
        <time>2021-11-30T13:43:16Z</time>
      </trkpt>
      <trkpt lat="39.893305" lon="116.646128">
        <time>2021-11-30T13:43:21Z</time>
      </trkpt>
      <trkpt lat="39.893411" lon="116.646178">
        <time>2021-11-30T13:43:26Z</time>
      </trkpt>
      <trkpt lat="39.893519" lon="116.646216">
        <time>2021-11-30T13:43:31Z</time>
      </trkpt>
      <trkpt lat="39.893621" lon="116.646275">
        <time>2021-11-30T13:43:36Z</time>
      </trkpt>
      <trkpt lat="39.893688" lon="116.646289">
        <time>2021-11-30T13:43:41Z</time>
      </trkpt>
      <trkpt lat="39.893814" lon="116.646186">
        <time>2021-11-30T13:43:46Z</time>
      </trkpt>
      <trkpt lat="39.893916" lon="116.646097">
        <time>2021-11-30T13:43:51Z</time>
      </trkpt>
      <trkpt lat="39.893944" lon="116.645979">
        <time>2021-11-30T13:43:56Z</time>
      </trkpt>
      <trkpt lat="39.894041" lon="116.645858">
        <time>2021-11-30T13:44:01Z</time>
      </trkpt>
      <trkpt lat="39.894286" lon="116.646014">
        <time>2021-11-30T13:44:06Z</time>
      </trkpt>
      <trkpt lat="39.894312" lon="116.646031">
        <time>2021-11-30T13:44:11Z</time>
      </trkpt>
      <trkpt lat="39.894424" lon="116.646085">
        <time>2021-11-30T13:44:16Z</time>
      </trkpt>
      <trkpt lat="39.894539" lon="116.646147">
        <time>2021-11-30T13:44:21Z</time>
      </trkpt>
      <trkpt lat="39.89466" lon="116.646219">
        <time>2021-11-30T13:44:26Z</time>
      </trkpt>
      <trkpt lat="39.894772" lon="116.646298">
        <time>2021-11-30T13:44:31Z</time>
      </trkpt>
      <trkpt lat="39.894885" lon="116.646378">
        <time>2021-11-30T13:44:36Z</time>
      </trkpt>
      <trkpt lat="39.895005" lon="116.646436">
        <time>2021-11-30T13:44:41Z</time>
      </trkpt>
      <trkpt lat="39.895145" lon="116.64648">
        <time>2021-11-30T13:44:46Z</time>
      </trkpt>
      <trkpt lat="39.895263" lon="116.646533">
        <time>2021-11-30T13:44:51Z</time>
      </trkpt>
      <trkpt lat="39.895441" lon="116.646615">
        <time>2021-11-30T13:44:56Z</time>
      </trkpt>
      <trkpt lat="39.895507" lon="116.646647">
        <time>2021-11-30T13:45:01Z</time>
      </trkpt>
      <trkpt lat="39.895642" lon="116.646706">
        <time>2021-11-30T13:45:06Z</time>
      </trkpt>
      <trkpt lat="39.895766" lon="116.646755">
        <time>2021-11-30T13:45:11Z</time>
      </trkpt>
      <trkpt lat="39.895898" lon="116.646801">
        <time>2021-11-30T13:45:16Z</time>
      </trkpt>
      <trkpt lat="39.896028" lon="116.646828">
        <time>2021-11-30T13:45:21Z</time>
      </trkpt>
      <trkpt lat="39.89611" lon="116.64673">
        <time>2021-11-30T13:45:26Z</time>
      </trkpt>
      <trkpt lat="39.89611" lon="116.646534">
        <time>2021-11-30T13:45:31Z</time>
      </trkpt>
      <trkpt lat="39.896108" lon="116.646366">
        <time>2021-11-30T13:45:36Z</time>
      </trkpt>
      <trkpt lat="39.896103" lon="116.646204">
        <time>2021-11-30T13:45:41Z</time>
      </trkpt>
      <trkpt lat="39.896113" lon="116.646038">
        <time>2021-11-30T13:45:46Z</time>
      </trkpt>
      <trkpt lat="39.896136" lon="116.64588">
        <time>2021-11-30T13:45:51Z</time>
      </trkpt>
      <trkpt lat="39.896163" lon="116.645759">
        <time>2021-11-30T13:45:56Z</time>
      </trkpt>
      <trkpt lat="39.896186" lon="116.645543">
        <time>2021-11-30T13:46:01Z</time>
      </trkpt>
      <trkpt lat="39.896201" lon="116.645372">
        <time>2021-11-30T13:46:06Z</time>
      </trkpt>
      <trkpt lat="39.896199" lon="116.6452">
        <time>2021-11-30T13:46:11Z</time>
      </trkpt>
      <trkpt lat="39.89621" lon="116.645029">
        <time>2021-11-30T13:46:16Z</time>
      </trkpt>
      <trkpt lat="39.896208" lon="116.644864">
        <time>2021-11-30T13:46:21Z</time>
      </trkpt>
      <trkpt lat="39.896231" lon="116.644692">
        <time>2021-11-30T13:46:26Z</time>
      </trkpt>
      <trkpt lat="39.896234" lon="116.644499">
        <time>2021-11-30T13:46:31Z</time>
      </trkpt>
      <trkpt lat="39.896226" lon="116.644339">
        <time>2021-11-30T13:46:36Z</time>
      </trkpt>
      <trkpt lat="39.896227" lon="116.64422">
        <time>2021-11-30T13:46:41Z</time>
      </trkpt>
      <trkpt lat="39.896225" lon="116.644099">
        <time>2021-11-30T13:46:46Z</time>
      </trkpt>
      <trkpt lat="39.896229" lon="116.643974">
        <time>2021-11-30T13:46:51Z</time>
      </trkpt>
      <trkpt lat="39.896227" lon="116.643826">
        <time>2021-11-30T13:46:56Z</time>
      </trkpt>
      <trkpt lat="39.896236" lon="116.643669">
        <time>2021-11-30T13:47:01Z</time>
      </trkpt>
      <trkpt lat="39.896237" lon="116.643514">
        <time>2021-11-30T13:47:06Z</time>
      </trkpt>
      <trkpt lat="39.89621" lon="116.643358">
        <time>2021-11-30T13:47:11Z</time>
      </trkpt>
      <trkpt lat="39.896218" lon="116.64321">
        <time>2021-11-30T13:47:16Z</time>
      </trkpt>
      <trkpt lat="39.896244" lon="116.643053">
        <time>2021-11-30T13:47:21Z</time>
      </trkpt>
      <trkpt lat="39.896246" lon="116.642885">
        <time>2021-11-30T13:47:26Z</time>
      </trkpt>
      <trkpt lat="39.896242" lon="116.642726">
        <time>2021-11-30T13:47:31Z</time>
      </trkpt>
      <trkpt lat="39.896248" lon="116.64255">
        <time>2021-11-30T13:47:36Z</time>
      </trkpt>
      <trkpt lat="39.896258" lon="116.642378">
        <time>2021-11-30T13:47:41Z</time>
      </trkpt>
      <trkpt lat="39.896276" lon="116.642234">
        <time>2021-11-30T13:47:46Z</time>
      </trkpt>
      <trkpt lat="39.89627" lon="116.642064">
        <time>2021-11-30T13:47:51Z</time>
      </trkpt>
      <trkpt lat="39.896266" lon="116.641921">
        <time>2021-11-30T13:47:56Z</time>
      </trkpt>
      <trkpt lat="39.896273" lon="116.641782">
        <time>2021-11-30T13:48:01Z</time>
      </trkpt>
      <trkpt lat="39.896281" lon="116.641686">
        <time>2021-11-30T13:48:06Z</time>
      </trkpt>
      <trkpt lat="39.896278" lon="116.641588">
        <time>2021-11-30T13:48:11Z</time>
      </trkpt>
      <trkpt lat="39.896275" lon="116.641473">
        <time>2021-11-30T13:48:16Z</time>
      </trkpt>
      <trkpt lat="39.896279" lon="116.641307">
        <time>2021-11-30T13:48:21Z</time>
      </trkpt>
      <trkpt lat="39.896271" lon="116.641175">
        <time>2021-11-30T13:48:26Z</time>
      </trkpt>
      <trkpt lat="39.896275" lon="116.64103">
        <time>2021-11-30T13:48:31Z</time>
      </trkpt>
      <trkpt lat="39.896282" lon="116.640877">
        <time>2021-11-30T13:48:36Z</time>
      </trkpt>
      <trkpt lat="39.896285" lon="116.640721">
        <time>2021-11-30T13:48:41Z</time>
      </trkpt>
      <trkpt lat="39.896279" lon="116.640535">
        <time>2021-11-30T13:48:46Z</time>
      </trkpt>
      <trkpt lat="39.896375" lon="116.640317">
        <time>2021-11-30T13:48:51Z</time>
      </trkpt>
      <trkpt lat="39.896396" lon="116.640302">
        <time>2021-11-30T13:48:56Z</time>
      </trkpt>
      <trkpt lat="39.896536" lon="116.640348">
        <time>2021-11-30T13:49:01Z</time>
      </trkpt>
      <trkpt lat="39.896681" lon="116.640471">
        <time>2021-11-30T13:49:06Z</time>
      </trkpt>
      <trkpt lat="39.896815" lon="116.640553">
        <time>2021-11-30T13:49:11Z</time>
      </trkpt>
      <trkpt lat="39.896934" lon="116.640636">
        <time>2021-11-30T13:49:16Z</time>
      </trkpt>
      <trkpt lat="39.897045" lon="116.640703">
        <time>2021-11-30T13:49:21Z</time>
      </trkpt>
      <trkpt lat="39.897153" lon="116.640756">
        <time>2021-11-30T13:49:26Z</time>
      </trkpt>
      <trkpt lat="39.897267" lon="116.640795">
        <time>2021-11-30T13:49:31Z</time>
      </trkpt>
      <trkpt lat="39.89739" lon="116.640844">
        <time>2021-11-30T13:49:36Z</time>
      </trkpt>
      <trkpt lat="39.897525" lon="116.640917">
        <time>2021-11-30T13:49:41Z</time>
      </trkpt>
      <trkpt lat="39.897636" lon="116.640992">
        <time>2021-11-30T13:49:46Z</time>
      </trkpt>
      <trkpt lat="39.897774" lon="116.641036">
        <time>2021-11-30T13:49:51Z</time>
      </trkpt>
      <trkpt lat="39.897876" lon="116.641078">
        <time>2021-11-30T13:49:56Z</time>
      </trkpt>
      <trkpt lat="39.897965" lon="116.64115">
        <time>2021-11-30T13:50:01Z</time>
      </trkpt>
      <trkpt lat="39.898095" lon="116.641166">
        <time>2021-11-30T13:50:06Z</time>
      </trkpt>
      <trkpt lat="39.898191" lon="116.641213">
        <time>2021-11-30T13:50:11Z</time>
      </trkpt>
      <trkpt lat="39.898248" lon="116.641254">
        <time>2021-11-30T13:50:16Z</time>
      </trkpt>
      <trkpt lat="39.898325" lon="116.641277">
        <time>2021-11-30T13:50:21Z</time>
      </trkpt>
      <trkpt lat="39.898384" lon="116.641333">
        <time>2021-11-30T13:50:26Z</time>
      </trkpt>
      <trkpt lat="39.898423" lon="116.641489">
        <time>2021-11-30T13:50:31Z</time>
      </trkpt>
      <trkpt lat="39.898361" lon="116.641652">
        <time>2021-11-30T13:50:36Z</time>
      </trkpt>
      <trkpt lat="39.89831" lon="116.641814">
        <time>2021-11-30T13:50:41Z</time>
      </trkpt>
      <trkpt lat="39.898305" lon="116.64199">
        <time>2021-11-30T13:50:46Z</time>
      </trkpt>
      <trkpt lat="39.898284" lon="116.642166">
        <time>2021-11-30T13:50:51Z</time>
      </trkpt>
      <trkpt lat="39.898262" lon="116.642371">
        <time>2021-11-30T13:50:56Z</time>
      </trkpt>
      <trkpt lat="39.898278" lon="116.642552">
        <time>2021-11-30T13:51:01Z</time>
      </trkpt>
      <trkpt lat="39.898286" lon="116.642753">
        <time>2021-11-30T13:51:06Z</time>
      </trkpt>
      <trkpt lat="39.898283" lon="116.642905">
        <time>2021-11-30T13:51:11Z</time>
      </trkpt>
      <trkpt lat="39.898273" lon="116.643012">
        <time>2021-11-30T13:51:16Z</time>
      </trkpt>
      <trkpt lat="39.898278" lon="116.643147">
        <time>2021-11-30T13:51:21Z</time>
      </trkpt>
      <trkpt lat="39.898297" lon="116.643312">
        <time>2021-11-30T13:51:26Z</time>
      </trkpt>
      <trkpt lat="39.898279" lon="116.64351">
        <time>2021-11-30T13:51:31Z</time>
      </trkpt>
      <trkpt lat="39.898292" lon="116.643592">
        <time>2021-11-30T13:51:36Z</time>
      </trkpt>
      <trkpt lat="39.898304" lon="116.643743">
        <time>2021-11-30T13:51:41Z</time>
      </trkpt>
      <trkpt lat="39.8983" lon="116.643918">
        <time>2021-11-30T13:51:46Z</time>
      </trkpt>
      <trkpt lat="39.898316" lon="116.64405">
        <time>2021-11-30T13:51:51Z</time>
      </trkpt>
      <trkpt lat="39.89831" lon="116.644211">
        <time>2021-11-30T13:51:56Z</time>
      </trkpt>
      <trkpt lat="39.89834" lon="116.644318">
        <time>2021-11-30T13:52:01Z</time>
      </trkpt>
      <trkpt lat="39.898359" lon="116.644464">
        <time>2021-11-30T13:52:06Z</time>
      </trkpt>
      <trkpt lat="39.898372" lon="116.644603">
        <time>2021-11-30T13:52:11Z</time>
      </trkpt>
      <trkpt lat="39.898387" lon="116.644792">
        <time>2021-11-30T13:52:16Z</time>
      </trkpt>
      <trkpt lat="39.898412" lon="116.645064">
        <time>2021-11-30T13:52:21Z</time>
      </trkpt>
      <trkpt lat="39.898411" lon="116.645129">
        <time>2021-11-30T13:52:26Z</time>
      </trkpt>
      <trkpt lat="39.898427" lon="116.645244">
        <time>2021-11-30T13:52:31Z</time>
      </trkpt>
      <trkpt lat="39.898454" lon="116.645317">
        <time>2021-11-30T13:52:36Z</time>
      </trkpt>
      <trkpt lat="39.898479" lon="116.645429">
        <time>2021-11-30T13:52:41Z</time>
      </trkpt>
      <trkpt lat="39.898537" lon="116.645522">
        <time>2021-11-30T13:52:46Z</time>
      </trkpt>
      <trkpt lat="39.898568" lon="116.645628">
        <time>2021-11-30T13:52:51Z</time>
      </trkpt>
      <trkpt lat="39.89861" lon="116.645809">
        <time>2021-11-30T13:52:56Z</time>
      </trkpt>
      <trkpt lat="39.898636" lon="116.645991">
        <time>2021-11-30T13:53:01Z</time>
      </trkpt>
      <trkpt lat="39.898671" lon="116.646093">
        <time>2021-11-30T13:53:06Z</time>
      </trkpt>
      <trkpt lat="39.898719" lon="116.646257">
        <time>2021-11-30T13:53:11Z</time>
      </trkpt>
      <trkpt lat="39.898752" lon="116.646369">
        <time>2021-11-30T13:53:16Z</time>
      </trkpt>
      <trkpt lat="39.898812" lon="116.646504">
        <time>2021-11-30T13:53:21Z</time>
      </trkpt>
      <trkpt lat="39.898853" lon="116.6467">
        <time>2021-11-30T13:53:26Z</time>
      </trkpt>
      <trkpt lat="39.898892" lon="116.646851">
        <time>2021-11-30T13:53:31Z</time>
      </trkpt>
      <trkpt lat="39.898957" lon="116.646983">
        <time>2021-11-30T13:53:36Z</time>
      </trkpt>
      <trkpt lat="39.898991" lon="116.647141">
        <time>2021-11-30T13:53:41Z</time>
      </trkpt>
      <trkpt lat="39.898998" lon="116.647312">
        <time>2021-11-30T13:53:46Z</time>
      </trkpt>
      <trkpt lat="39.899031" lon="116.6475">
        <time>2021-11-30T13:53:51Z</time>
      </trkpt>
      <trkpt lat="39.899041" lon="116.647676">
        <time>2021-11-30T13:53:56Z</time>
      </trkpt>
      <trkpt lat="39.899027" lon="116.647856">
        <time>2021-11-30T13:54:01Z</time>
      </trkpt>
      <trkpt lat="39.899028" lon="116.648046">
        <time>2021-11-30T13:54:06Z</time>
      </trkpt>
      <trkpt lat="39.899043" lon="116.648234">
        <time>2021-11-30T13:54:11Z</time>
      </trkpt>
      <trkpt lat="39.899057" lon="116.648394">
        <time>2021-11-30T13:54:16Z</time>
      </trkpt>
      <trkpt lat="39.899045" lon="116.648569">
        <time>2021-11-30T13:54:21Z</time>
      </trkpt>
      <trkpt lat="39.899011" lon="116.648762">
        <time>2021-11-30T13:54:26Z</time>
      </trkpt>
      <trkpt lat="39.899008" lon="116.648868">
        <time>2021-11-30T13:54:31Z</time>
      </trkpt>
      <trkpt lat="39.899011" lon="116.648964">
        <time>2021-11-30T13:54:36Z</time>
      </trkpt>
      <trkpt lat="39.899009" lon="116.649089">
        <time>2021-11-30T13:54:41Z</time>
      </trkpt>
      <trkpt lat="39.899" lon="116.64921">
        <time>2021-11-30T13:54:46Z</time>
      </trkpt>
      <trkpt lat="39.899038" lon="116.649401">
        <time>2021-11-30T13:54:51Z</time>
      </trkpt>
      <trkpt lat="39.899042" lon="116.649468">
        <time>2021-11-30T13:54:56Z</time>
      </trkpt>
      <trkpt lat="39.899043" lon="116.649655">
        <time>2021-11-30T13:55:01Z</time>
      </trkpt>
      <trkpt lat="39.899046" lon="116.649771">
        <time>2021-11-30T13:55:06Z</time>
      </trkpt>
      <trkpt lat="39.899051" lon="116.649923">
        <time>2021-11-30T13:55:11Z</time>
      </trkpt>
      <trkpt lat="39.899041" lon="116.650099">
        <time>2021-11-30T13:55:16Z</time>
      </trkpt>
      <trkpt lat="39.899044" lon="116.650274">
        <time>2021-11-30T13:55:21Z</time>
      </trkpt>
      <trkpt lat="39.899026" lon="116.650444">
        <time>2021-11-30T13:55:26Z</time>
      </trkpt>
      <trkpt lat="39.899011" lon="116.650611">
        <time>2021-11-30T13:55:31Z</time>
      </trkpt>
      <trkpt lat="39.899023" lon="116.650729">
        <time>2021-11-30T13:55:36Z</time>
      </trkpt>
      <trkpt lat="39.899032" lon="116.650844">
        <time>2021-11-30T13:55:41Z</time>
      </trkpt>
      <trkpt lat="39.899036" lon="116.650974">
        <time>2021-11-30T13:55:46Z</time>
      </trkpt>
      <trkpt lat="39.899034" lon="116.651086">
        <time>2021-11-30T13:55:51Z</time>
      </trkpt>
      <trkpt lat="39.899039" lon="116.651192">
        <time>2021-11-30T13:55:56Z</time>
      </trkpt>
      <trkpt lat="39.89903" lon="116.651274">
        <time>2021-11-30T13:56:01Z</time>
      </trkpt>
      <trkpt lat="39.899008" lon="116.651457">
        <time>2021-11-30T13:56:06Z</time>
      </trkpt>
      <trkpt lat="39.899043" lon="116.651458">
        <time>2021-11-30T13:56:11Z</time>
      </trkpt>
      <trkpt lat="39.899069" lon="116.651363">
        <time>2021-11-30T13:56:16Z</time>
      </trkpt>
      <trkpt lat="39.899061" lon="116.651144">
        <time>2021-11-30T13:56:21Z</time>
      </trkpt>
      <trkpt lat="39.899079" lon="116.650943">
        <time>2021-11-30T13:56:26Z</time>
      </trkpt>
      <trkpt lat="39.899068" lon="116.65079">
        <time>2021-11-30T13:56:31Z</time>
      </trkpt>
      <trkpt lat="39.89909" lon="116.650629">
        <time>2021-11-30T13:56:36Z</time>
      </trkpt>
      <trkpt lat="39.899108" lon="116.650468">
        <time>2021-11-30T13:56:41Z</time>
      </trkpt>
      <trkpt lat="39.899131" lon="116.650369">
        <time>2021-11-30T13:56:46Z</time>
      </trkpt>
      <trkpt lat="39.899115" lon="116.650214">
        <time>2021-11-30T13:56:51Z</time>
      </trkpt>
      <trkpt lat="39.899082" lon="116.650007">
        <time>2021-11-30T13:56:56Z</time>
      </trkpt>
      <trkpt lat="39.899083" lon="116.649844">
        <time>2021-11-30T13:57:01Z</time>
      </trkpt>
      <trkpt lat="39.899044" lon="116.649699">
        <time>2021-11-30T13:57:06Z</time>
      </trkpt>
      <trkpt lat="39.898996" lon="116.649482">
        <time>2021-11-30T13:57:11Z</time>
      </trkpt>
      <trkpt lat="39.898986" lon="116.64939">
        <time>2021-11-30T13:57:16Z</time>
      </trkpt>
      <trkpt lat="39.898956" lon="116.649299">
        <time>2021-11-30T13:57:21Z</time>
      </trkpt>
      <trkpt lat="39.898959" lon="116.649162">
        <time>2021-11-30T13:57:26Z</time>
      </trkpt>
      <trkpt lat="39.898989" lon="116.648987">
        <time>2021-11-30T13:57:31Z</time>
      </trkpt>
      <trkpt lat="39.899027" lon="116.648847">
        <time>2021-11-30T13:57:36Z</time>
      </trkpt>
      <trkpt lat="39.899034" lon="116.648742">
        <time>2021-11-30T13:57:41Z</time>
      </trkpt>
      <trkpt lat="39.898977" lon="116.648628">
        <time>2021-11-30T13:57:46Z</time>
      </trkpt>
      <trkpt lat="39.898942" lon="116.648551">
        <time>2021-11-30T13:57:51Z</time>
      </trkpt>
      <trkpt lat="39.898959" lon="116.648388">
        <time>2021-11-30T13:57:56Z</time>
      </trkpt>
      <trkpt lat="39.899005" lon="116.648202">
        <time>2021-11-30T13:58:01Z</time>
      </trkpt>
      <trkpt lat="39.899035" lon="116.648019">
        <time>2021-11-30T13:58:06Z</time>
      </trkpt>
      <trkpt lat="39.899003" lon="116.647835">
        <time>2021-11-30T13:58:11Z</time>
      </trkpt>
      <trkpt lat="39.898962" lon="116.647684">
        <time>2021-11-30T13:58:16Z</time>
      </trkpt>
      <trkpt lat="39.898936" lon="116.647559">
        <time>2021-11-30T13:58:21Z</time>
      </trkpt>
      <trkpt lat="39.898907" lon="116.647381">
        <time>2021-11-30T13:58:26Z</time>
      </trkpt>
      <trkpt lat="39.898899" lon="116.64723">
        <time>2021-11-30T13:58:31Z</time>
      </trkpt>
      <trkpt lat="39.898905" lon="116.64708">
        <time>2021-11-30T13:58:36Z</time>
      </trkpt>
      <trkpt lat="39.898895" lon="116.646945">
        <time>2021-11-30T13:58:41Z</time>
      </trkpt>
      <trkpt lat="39.898866" lon="116.646818">
        <time>2021-11-30T13:58:46Z</time>
      </trkpt>
      <trkpt lat="39.898815" lon="116.64664">
        <time>2021-11-30T13:58:51Z</time>
      </trkpt>
      <trkpt lat="39.898784" lon="116.646547">
        <time>2021-11-30T13:58:56Z</time>
      </trkpt>
      <trkpt lat="39.898744" lon="116.646363">
        <time>2021-11-30T13:59:01Z</time>
      </trkpt>
      <trkpt lat="39.898707" lon="116.646197">
        <time>2021-11-30T13:59:06Z</time>
      </trkpt>
      <trkpt lat="39.898673" lon="116.64608">
        <time>2021-11-30T13:59:11Z</time>
      </trkpt>
      <trkpt lat="39.898659" lon="116.646066">
        <time>2021-11-30T13:59:16Z</time>
      </trkpt>
      <trkpt lat="39.898598" lon="116.645918">
        <time>2021-11-30T13:59:21Z</time>
      </trkpt>
      <trkpt lat="39.898524" lon="116.645778">
        <time>2021-11-30T13:59:26Z</time>
      </trkpt>
      <trkpt lat="39.898467" lon="116.645589">
        <time>2021-11-30T13:59:31Z</time>
      </trkpt>
      <trkpt lat="39.898434" lon="116.645426">
        <time>2021-11-30T13:59:36Z</time>
      </trkpt>
      <trkpt lat="39.898419" lon="116.645245">
        <time>2021-11-30T13:59:41Z</time>
      </trkpt>
      <trkpt lat="39.898419" lon="116.645137">
        <time>2021-11-30T13:59:46Z</time>
      </trkpt>
      <trkpt lat="39.898412" lon="116.645001">
        <time>2021-11-30T13:59:51Z</time>
      </trkpt>
      <trkpt lat="39.89838" lon="116.644872">
        <time>2021-11-30T13:59:56Z</time>
      </trkpt>
      <trkpt lat="39.898364" lon="116.644756">
        <time>2021-11-30T14:00:01Z</time>
      </trkpt>
      <trkpt lat="39.89836" lon="116.644693">
        <time>2021-11-30T14:00:06Z</time>
      </trkpt>
      <trkpt lat="39.898362" lon="116.644605">
        <time>2021-11-30T14:00:11Z</time>
      </trkpt>
      <trkpt lat="39.898366" lon="116.644498">
        <time>2021-11-30T14:00:16Z</time>
      </trkpt>
      <trkpt lat="39.898342" lon="116.644364">
        <time>2021-11-30T14:00:21Z</time>
      </trkpt>
      <trkpt lat="39.898302" lon="116.644244">
        <time>2021-11-30T14:00:26Z</time>
      </trkpt>
      <trkpt lat="39.898299" lon="116.644099">
        <time>2021-11-30T14:00:31Z</time>
      </trkpt>
      <trkpt lat="39.898306" lon="116.643944">
        <time>2021-11-30T14:00:36Z</time>
      </trkpt>
      <trkpt lat="39.898313" lon="116.643778">
        <time>2021-11-30T14:00:41Z</time>
      </trkpt>
      <trkpt lat="39.898317" lon="116.643619">
        <time>2021-11-30T14:00:46Z</time>
      </trkpt>
      <trkpt lat="39.898317" lon="116.643484">
        <time>2021-11-30T14:00:51Z</time>
      </trkpt>
      <trkpt lat="39.898297" lon="116.643311">
        <time>2021-11-30T14:00:56Z</time>
      </trkpt>
      <trkpt lat="39.898307" lon="116.643084">
        <time>2021-11-30T14:01:01Z</time>
      </trkpt>
      <trkpt lat="39.898307" lon="116.642933">
        <time>2021-11-30T14:01:06Z</time>
      </trkpt>
      <trkpt lat="39.898306" lon="116.642764">
        <time>2021-11-30T14:01:11Z</time>
      </trkpt>
      <trkpt lat="39.898317" lon="116.642603">
        <time>2021-11-30T14:01:16Z</time>
      </trkpt>
      <trkpt lat="39.898324" lon="116.642496">
        <time>2021-11-30T14:01:21Z</time>
      </trkpt>
      <trkpt lat="39.898329" lon="116.642419">
        <time>2021-11-30T14:01:26Z</time>
      </trkpt>
      <trkpt lat="39.898335" lon="116.642328">
        <time>2021-11-30T14:01:31Z</time>
      </trkpt>
      <trkpt lat="39.898353" lon="116.642268">
        <time>2021-11-30T14:01:36Z</time>
      </trkpt>
      <trkpt lat="39.898358" lon="116.642126">
        <time>2021-11-30T14:01:41Z</time>
      </trkpt>
      <trkpt lat="39.898355" lon="116.641978">
        <time>2021-11-30T14:01:46Z</time>
      </trkpt>
      <trkpt lat="39.898373" lon="116.641812">
        <time>2021-11-30T14:01:51Z</time>
      </trkpt>
      <trkpt lat="39.898404" lon="116.641621">
        <time>2021-11-30T14:01:56Z</time>
      </trkpt>
      <trkpt lat="39.898427" lon="116.641471">
        <time>2021-11-30T14:02:01Z</time>
      </trkpt>
      <trkpt lat="39.898385" lon="116.641373">
        <time>2021-11-30T14:02:06Z</time>
      </trkpt>
      <trkpt lat="39.898279" lon="116.641291">
        <time>2021-11-30T14:02:11Z</time>
      </trkpt>
      <trkpt lat="39.89814" lon="116.64123">
        <time>2021-11-30T14:02:16Z</time>
      </trkpt>
      <trkpt lat="39.898043" lon="116.641174">
        <time>2021-11-30T14:02:21Z</time>
      </trkpt>
      <trkpt lat="39.897948" lon="116.641176">
        <time>2021-11-30T14:02:26Z</time>
      </trkpt>
      <trkpt lat="39.897845" lon="116.641125">
        <time>2021-11-30T14:02:31Z</time>
      </trkpt>
      <trkpt lat="39.897741" lon="116.641054">
        <time>2021-11-30T14:02:36Z</time>
      </trkpt>
      <trkpt lat="39.897613" lon="116.640984">
        <time>2021-11-30T14:02:41Z</time>
      </trkpt>
      <trkpt lat="39.897492" lon="116.640938">
        <time>2021-11-30T14:02:46Z</time>
      </trkpt>
      <trkpt lat="39.897372" lon="116.640878">
        <time>2021-11-30T14:02:51Z</time>
      </trkpt>
      <trkpt lat="39.897243" lon="116.640814">
        <time>2021-11-30T14:02:56Z</time>
      </trkpt>
      <trkpt lat="39.897156" lon="116.640709">
        <time>2021-11-30T14:03:01Z</time>
      </trkpt>
      <trkpt lat="39.897046" lon="116.640647">
        <time>2021-11-30T14:03:06Z</time>
      </trkpt>
      <trkpt lat="39.896922" lon="116.640591">
        <time>2021-11-30T14:03:11Z</time>
      </trkpt>
      <trkpt lat="39.896794" lon="116.640523">
        <time>2021-11-30T14:03:16Z</time>
      </trkpt>
      <trkpt lat="39.896669" lon="116.640472">
        <time>2021-11-30T14:03:21Z</time>
      </trkpt>
      <trkpt lat="39.896557" lon="116.640416">
        <time>2021-11-30T14:03:26Z</time>
      </trkpt>
      <trkpt lat="39.896493" lon="116.640393">
        <time>2021-11-30T14:03:31Z</time>
      </trkpt>
      <trkpt lat="39.896449" lon="116.6404">
        <time>2021-11-30T14:03:36Z</time>
      </trkpt>
      <trkpt lat="39.896414" lon="116.640414">
        <time>2021-11-30T14:03:41Z</time>
      </trkpt>
      <trkpt lat="39.896324" lon="116.640345">
        <time>2021-11-30T14:03:46Z</time>
      </trkpt>
      <trkpt lat="39.896293" lon="116.640175">
        <time>2021-11-30T14:03:51Z</time>
      </trkpt>
      <trkpt lat="39.896295" lon="116.640119">
        <time>2021-11-30T14:03:56Z</time>
      </trkpt>
      <trkpt lat="39.896293" lon="116.639981">
        <time>2021-11-30T14:04:01Z</time>
      </trkpt>
      <trkpt lat="39.896288" lon="116.639847">
        <time>2021-11-30T14:04:06Z</time>
      </trkpt>
      <trkpt lat="39.896282" lon="116.639713">
        <time>2021-11-30T14:04:11Z</time>
      </trkpt>
      <trkpt lat="39.89628" lon="116.639609">
        <time>2021-11-30T14:04:16Z</time>
      </trkpt>
      <trkpt lat="39.896275" lon="116.639472">
        <time>2021-11-30T14:04:21Z</time>
      </trkpt>
      <trkpt lat="39.896261" lon="116.639344">
        <time>2021-11-30T14:04:26Z</time>
      </trkpt>
      <trkpt lat="39.896264" lon="116.639241">
        <time>2021-11-30T14:04:31Z</time>
      </trkpt>
      <trkpt lat="39.896252" lon="116.639131">
        <time>2021-11-30T14:04:36Z</time>
      </trkpt>
      <trkpt lat="39.896253" lon="116.639028">
        <time>2021-11-30T14:04:41Z</time>
      </trkpt>
      <trkpt lat="39.896244" lon="116.638938">
        <time>2021-11-30T14:04:46Z</time>
      </trkpt>
      <trkpt lat="39.896221" lon="116.638831">
        <time>2021-11-30T14:04:51Z</time>
      </trkpt>
      <trkpt lat="39.896213" lon="116.638688">
        <time>2021-11-30T14:04:56Z</time>
      </trkpt>
      <trkpt lat="39.896201" lon="116.63857">
        <time>2021-11-30T14:05:01Z</time>
      </trkpt>
      <trkpt lat="39.896197" lon="116.638489">
        <time>2021-11-30T14:05:06Z</time>
      </trkpt>
      <trkpt lat="39.8962" lon="116.638388">
        <time>2021-11-30T14:05:11Z</time>
      </trkpt>
      <trkpt lat="39.896205" lon="116.638274">
        <time>2021-11-30T14:05:16Z</time>
      </trkpt>
      <trkpt lat="39.896205" lon="116.638176">
        <time>2021-11-30T14:05:21Z</time>
      </trkpt>
      <trkpt lat="39.896209" lon="116.638068">
        <time>2021-11-30T14:05:26Z</time>
      </trkpt>
      <trkpt lat="39.896206" lon="116.637937">
        <time>2021-11-30T14:05:31Z</time>
      </trkpt>
      <trkpt lat="39.896203" lon="116.637797">
        <time>2021-11-30T14:05:36Z</time>
      </trkpt>
      <trkpt lat="39.896189" lon="116.637665">
        <time>2021-11-30T14:05:41Z</time>
      </trkpt>
      <trkpt lat="39.89618" lon="116.637511">
        <time>2021-11-30T14:05:46Z</time>
      </trkpt>
      <trkpt lat="39.896174" lon="116.637346">
        <time>2021-11-30T14:05:51Z</time>
      </trkpt>
      <trkpt lat="39.896169" lon="116.637199">
        <time>2021-11-30T14:05:56Z</time>
      </trkpt>
      <trkpt lat="39.896158" lon="116.637019">
        <time>2021-11-30T14:06:01Z</time>
      </trkpt>
      <trkpt lat="39.896129" lon="116.636852">
        <time>2021-11-30T14:06:06Z</time>
      </trkpt>
      <trkpt lat="39.896081" lon="116.6367">
        <time>2021-11-30T14:06:11Z</time>
      </trkpt>
      <trkpt lat="39.896011" lon="116.636567">
        <time>2021-11-30T14:06:16Z</time>
      </trkpt>
      <trkpt lat="39.895926" lon="116.636492">
        <time>2021-11-30T14:06:21Z</time>
      </trkpt>
      <trkpt lat="39.895874" lon="116.636452">
        <time>2021-11-30T14:06:26Z</time>
      </trkpt>
      <trkpt lat="39.895922" lon="116.636332">
        <time>2021-11-30T14:06:31Z</time>
      </trkpt>
      <trkpt lat="39.896046" lon="116.636279">
        <time>2021-11-30T14:06:36Z</time>
      </trkpt>
      <trkpt lat="39.89616" lon="116.636221">
        <time>2021-11-30T14:06:41Z</time>
      </trkpt>
      <trkpt lat="39.89626" lon="116.636121">
        <time>2021-11-30T14:06:46Z</time>
      </trkpt>
      <trkpt lat="39.896451" lon="116.636031">
        <time>2021-11-30T14:06:51Z</time>
      </trkpt>
      <trkpt lat="39.896549" lon="116.635965">
        <time>2021-11-30T14:06:56Z</time>
      </trkpt>
      <trkpt lat="39.896668" lon="116.6359">
        <time>2021-11-30T14:07:01Z</time>
      </trkpt>
      <trkpt lat="39.896758" lon="116.635846">
        <time>2021-11-30T14:07:06Z</time>
      </trkpt>
      <trkpt lat="39.896936" lon="116.635726">
        <time>2021-11-30T14:07:11Z</time>
      </trkpt>
      <trkpt lat="39.896963" lon="116.635715">
        <time>2021-11-30T14:07:16Z</time>
      </trkpt>
      <trkpt lat="39.897088" lon="116.635661">
        <time>2021-11-30T14:07:21Z</time>
      </trkpt>
      <trkpt lat="39.897208" lon="116.63561">
        <time>2021-11-30T14:07:26Z</time>
      </trkpt>
      <trkpt lat="39.897316" lon="116.63554">
        <time>2021-11-30T14:07:31Z</time>
      </trkpt>
      <trkpt lat="39.897393" lon="116.63547">
        <time>2021-11-30T14:07:36Z</time>
      </trkpt>
      <trkpt lat="39.897505" lon="116.635419">
        <time>2021-11-30T14:07:41Z</time>
      </trkpt>
      <trkpt lat="39.897531" lon="116.635401">
        <time>2021-11-30T14:07:46Z</time>
      </trkpt>
      <trkpt lat="39.897591" lon="116.63537">
        <time>2021-11-30T14:07:51Z</time>
      </trkpt>
      <trkpt lat="39.897662" lon="116.635326">
        <time>2021-11-30T14:07:56Z</time>
      </trkpt>
      <trkpt lat="39.89775" lon="116.635244">
        <time>2021-11-30T14:08:01Z</time>
      </trkpt>
      <trkpt lat="39.897847" lon="116.635152">
        <time>2021-11-30T14:08:06Z</time>
      </trkpt>
      <trkpt lat="39.897931" lon="116.635056">
        <time>2021-11-30T14:08:11Z</time>
      </trkpt>
      <trkpt lat="39.89807" lon="116.63499">
        <time>2021-11-30T14:08:16Z</time>
      </trkpt>
      <trkpt lat="39.89807" lon="116.63499">
        <time>2021-11-30T14:08:21Z</time>
      </trkpt>
      <trkpt lat="39.898162" lon="116.634967">
        <time>2021-11-30T14:08:26Z</time>
      </trkpt>
      <trkpt lat="39.898098" lon="116.634747">
        <time>2021-11-30T14:08:31Z</time>
      </trkpt>
      <trkpt lat="39.898042" lon="116.634637">
        <time>2021-11-30T14:08:36Z</time>
      </trkpt>
      <trkpt lat="39.897975" lon="116.634505">
        <time>2021-11-30T14:08:41Z</time>
      </trkpt>
      <trkpt lat="39.897894" lon="116.634347">
        <time>2021-11-30T14:08:46Z</time>
      </trkpt>
      <trkpt lat="39.897844" lon="116.634244">
        <time>2021-11-30T14:08:51Z</time>
      </trkpt>
      <trkpt lat="39.897809" lon="116.634168">
        <time>2021-11-30T14:08:56Z</time>
      </trkpt>
      <trkpt lat="39.897771" lon="116.63411">
        <time>2021-11-30T14:09:01Z</time>
      </trkpt>
      <trkpt lat="39.897726" lon="116.634056">
        <time>2021-11-30T14:09:06Z</time>
      </trkpt>
      <trkpt lat="39.897707" lon="116.633965">
        <time>2021-11-30T14:09:11Z</time>
      </trkpt>
      <trkpt lat="39.897655" lon="116.633825">
        <time>2021-11-30T14:09:16Z</time>
      </trkpt>
      <trkpt lat="39.897604" lon="116.633741">
        <time>2021-11-30T14:09:21Z</time>
      </trkpt>
      <trkpt lat="39.897607" lon="116.633653">
        <time>2021-11-30T14:09:26Z</time>
      </trkpt>
      <trkpt lat="39.897584" lon="116.633635">
        <time>2021-11-30T14:09:31Z</time>
      </trkpt>
      <trkpt lat="39.897536" lon="116.633718">
        <time>2021-11-30T14:09:36Z</time>
      </trkpt>
      <trkpt lat="39.897483" lon="116.63382">
        <time>2021-11-30T14:09:41Z</time>
      </trkpt>
      <trkpt lat="39.897503" lon="116.63388">
        <time>2021-11-30T14:09:46Z</time>
      </trkpt>
      <trkpt lat="39.897548" lon="116.633952">
        <time>2021-11-30T14:09:51Z</time>
      </trkpt>
      <trkpt lat="39.897558" lon="116.634053">
        <time>2021-11-30T14:09:56Z</time>
      </trkpt>
      <trkpt lat="39.897565" lon="116.634148">
        <time>2021-11-30T14:10:01Z</time>
      </trkpt>
      <trkpt lat="39.897592" lon="116.6342">
        <time>2021-11-30T14:10:06Z</time>
      </trkpt>
      <trkpt lat="39.897558" lon="116.63422">
        <time>2021-11-30T14:10:11Z</time>
      </trkpt>
      <trkpt lat="39.897542" lon="116.634293">
        <time>2021-11-30T14:11:35Z</time>
      </trkpt>
    </trkseg>
  </trk>
</gpx>