<?xml version="1.0" encoding="UTF-8"?>
<gpx xmlns="http://www.topografix.com/GPX/1/1" xmlns:gpxtpx="http://www.garmin.com/xmlschemas/TrackPointExtension/v1" xmlns:xsi="http://www.w3.org/2001/XMLSchema-instance" xsi:schemaLocation="http://www.topografix.com/GPX/1/1 http://www.topografix.com/GPX/1/1/gpx.xsd" version="1.1" creator="gpx.py -- https://github.com/tkrajina/gpxpy">
  <trk>
    <name>gpx from keep</name>
    <trkseg>
      <trkpt lat="34.316347" lon="108.780786">
        <time>2022-01-19T13:11:10Z</time>
      </trkpt>
      <trkpt lat="34.316347" lon="108.780786">
        <time>2022-01-19T13:11:15Z</time>
      </trkpt>
      <trkpt lat="34.316393" lon="108.780765">
        <time>2022-01-19T13:11:20Z</time>
      </trkpt>
      <trkpt lat="34.316413" lon="108.780635">
        <time>2022-01-19T13:11:25Z</time>
      </trkpt>
      <trkpt lat="34.316445" lon="108.780485">
        <time>2022-01-19T13:11:30Z</time>
      </trkpt>
      <trkpt lat="34.316442" lon="108.780342">
        <time>2022-01-19T13:11:35Z</time>
      </trkpt>
      <trkpt lat="34.316403" lon="108.780268">
        <time>2022-01-19T13:11:40Z</time>
      </trkpt>
      <trkpt lat="34.316475" lon="108.780152">
        <time>2022-01-19T13:11:45Z</time>
      </trkpt>
      <trkpt lat="34.316535" lon="108.780001">
        <time>2022-01-19T13:11:50Z</time>
      </trkpt>
      <trkpt lat="34.316603" lon="108.779874">
        <time>2022-01-19T13:11:55Z</time>
      </trkpt>
      <trkpt lat="34.316681" lon="108.779754">
        <time>2022-01-19T13:12:00Z</time>
      </trkpt>
      <trkpt lat="34.316751" lon="108.779618">
        <time>2022-01-19T13:12:05Z</time>
      </trkpt>
      <trkpt lat="34.31681" lon="108.779486">
        <time>2022-01-19T13:12:10Z</time>
      </trkpt>
      <trkpt lat="34.316868" lon="108.7794">
        <time>2022-01-19T13:12:15Z</time>
      </trkpt>
      <trkpt lat="34.316952" lon="108.779429">
        <time>2022-01-19T13:12:20Z</time>
      </trkpt>
      <trkpt lat="34.317011" lon="108.77939">
        <time>2022-01-19T13:12:25Z</time>
      </trkpt>
      <trkpt lat="34.317059" lon="108.779264">
        <time>2022-01-19T13:12:30Z</time>
      </trkpt>
      <trkpt lat="34.317106" lon="108.779131">
        <time>2022-01-19T13:12:35Z</time>
      </trkpt>
      <trkpt lat="34.317108" lon="108.77897">
        <time>2022-01-19T13:12:40Z</time>
      </trkpt>
      <trkpt lat="34.317062" lon="108.778819">
        <time>2022-01-19T13:12:45Z</time>
      </trkpt>
      <trkpt lat="34.317109" lon="108.778676">
        <time>2022-01-19T13:12:50Z</time>
      </trkpt>
      <trkpt lat="34.317167" lon="108.778561">
        <time>2022-01-19T13:12:55Z</time>
      </trkpt>
      <trkpt lat="34.31718" lon="108.778388">
        <time>2022-01-19T13:13:00Z</time>
      </trkpt>
      <trkpt lat="34.317233" lon="108.778251">
        <time>2022-01-19T13:13:05Z</time>
      </trkpt>
      <trkpt lat="34.317383" lon="108.778145">
        <time>2022-01-19T13:13:10Z</time>
      </trkpt>
      <trkpt lat="34.31747" lon="108.778087">
        <time>2022-01-19T13:13:15Z</time>
      </trkpt>
      <trkpt lat="34.317531" lon="108.777999">
        <time>2022-01-19T13:13:20Z</time>
      </trkpt>
      <trkpt lat="34.317601" lon="108.777977">
        <time>2022-01-19T13:13:25Z</time>
      </trkpt>
      <trkpt lat="34.317666" lon="108.777915">
        <time>2022-01-19T13:13:30Z</time>
      </trkpt>
      <trkpt lat="34.317705" lon="108.777781">
        <time>2022-01-19T13:13:35Z</time>
      </trkpt>
      <trkpt lat="34.317736" lon="108.777651">
        <time>2022-01-19T13:13:40Z</time>
      </trkpt>
      <trkpt lat="34.317777" lon="108.77751">
        <time>2022-01-19T13:13:45Z</time>
      </trkpt>
      <trkpt lat="34.317809" lon="108.777334">
        <time>2022-01-19T13:13:50Z</time>
      </trkpt>
      <trkpt lat="34.317801" lon="108.777155">
        <time>2022-01-19T13:13:55Z</time>
      </trkpt>
      <trkpt lat="34.317687" lon="108.777044">
        <time>2022-01-19T13:14:00Z</time>
      </trkpt>
      <trkpt lat="34.317556" lon="108.777042">
        <time>2022-01-19T13:14:05Z</time>
      </trkpt>
      <trkpt lat="34.317435" lon="108.777055">
        <time>2022-01-19T13:14:10Z</time>
      </trkpt>
      <trkpt lat="34.317308" lon="108.777045">
        <time>2022-01-19T13:14:15Z</time>
      </trkpt>
      <trkpt lat="34.317201" lon="108.777057">
        <time>2022-01-19T13:14:20Z</time>
      </trkpt>
      <trkpt lat="34.31708" lon="108.777047">
        <time>2022-01-19T13:14:25Z</time>
      </trkpt>
      <trkpt lat="34.316979" lon="108.777051">
        <time>2022-01-19T13:14:30Z</time>
      </trkpt>
      <trkpt lat="34.316857" lon="108.777036">
        <time>2022-01-19T13:14:35Z</time>
      </trkpt>
      <trkpt lat="34.316749" lon="108.777043">
        <time>2022-01-19T13:14:40Z</time>
      </trkpt>
      <trkpt lat="34.316624" lon="108.777048">
        <time>2022-01-19T13:14:45Z</time>
      </trkpt>
      <trkpt lat="34.316516" lon="108.777042">
        <time>2022-01-19T13:14:50Z</time>
      </trkpt>
      <trkpt lat="34.3164" lon="108.777055">
        <time>2022-01-19T13:14:55Z</time>
      </trkpt>
      <trkpt lat="34.316291" lon="108.777055">
        <time>2022-01-19T13:15:00Z</time>
      </trkpt>
      <trkpt lat="34.316172" lon="108.777058">
        <time>2022-01-19T13:15:05Z</time>
      </trkpt>
      <trkpt lat="34.316081" lon="108.777156">
        <time>2022-01-19T13:15:10Z</time>
      </trkpt>
      <trkpt lat="34.316026" lon="108.777291">
        <time>2022-01-19T13:15:15Z</time>
      </trkpt>
      <trkpt lat="34.315973" lon="108.777428">
        <time>2022-01-19T13:15:20Z</time>
      </trkpt>
      <trkpt lat="34.315927" lon="108.777548">
        <time>2022-01-19T13:15:25Z</time>
      </trkpt>
      <trkpt lat="34.31587" lon="108.777696">
        <time>2022-01-19T13:15:30Z</time>
      </trkpt>
      <trkpt lat="34.315793" lon="108.777762">
        <time>2022-01-19T13:15:35Z</time>
      </trkpt>
      <trkpt lat="34.315743" lon="108.777871">
        <time>2022-01-19T13:15:40Z</time>
      </trkpt>
      <trkpt lat="34.315709" lon="108.778009">
        <time>2022-01-19T13:15:45Z</time>
      </trkpt>
      <trkpt lat="34.315634" lon="108.778122">
        <time>2022-01-19T13:15:50Z</time>
      </trkpt>
      <trkpt lat="34.315557" lon="108.778233">
        <time>2022-01-19T13:15:55Z</time>
      </trkpt>
      <trkpt lat="34.315546" lon="108.778383">
        <time>2022-01-19T13:16:00Z</time>
      </trkpt>
      <trkpt lat="34.315558" lon="108.778522">
        <time>2022-01-19T13:16:05Z</time>
      </trkpt>
      <trkpt lat="34.315514" lon="108.778593">
        <time>2022-01-19T13:16:10Z</time>
      </trkpt>
      <trkpt lat="34.31547" lon="108.778689">
        <time>2022-01-19T13:16:15Z</time>
      </trkpt>
      <trkpt lat="34.315381" lon="108.778807">
        <time>2022-01-19T13:16:20Z</time>
      </trkpt>
      <trkpt lat="34.315305" lon="108.778907">
        <time>2022-01-19T13:16:25Z</time>
      </trkpt>
      <trkpt lat="34.315227" lon="108.778991">
        <time>2022-01-19T13:16:30Z</time>
      </trkpt>
      <trkpt lat="34.315168" lon="108.779088">
        <time>2022-01-19T13:16:35Z</time>
      </trkpt>
      <trkpt lat="34.315162" lon="108.7792">
        <time>2022-01-19T13:16:40Z</time>
      </trkpt>
      <trkpt lat="34.315198" lon="108.779342">
        <time>2022-01-19T13:16:45Z</time>
      </trkpt>
      <trkpt lat="34.315213" lon="108.779494">
        <time>2022-01-19T13:16:50Z</time>
      </trkpt>
      <trkpt lat="34.315305" lon="108.779612">
        <time>2022-01-19T13:16:55Z</time>
      </trkpt>
      <trkpt lat="34.315415" lon="108.779678">
        <time>2022-01-19T13:17:00Z</time>
      </trkpt>
      <trkpt lat="34.315488" lon="108.779778">
        <time>2022-01-19T13:17:05Z</time>
      </trkpt>
      <trkpt lat="34.315565" lon="108.779854">
        <time>2022-01-19T13:17:10Z</time>
      </trkpt>
      <trkpt lat="34.315632" lon="108.77991">
        <time>2022-01-19T13:17:15Z</time>
      </trkpt>
      <trkpt lat="34.315708" lon="108.779931">
        <time>2022-01-19T13:17:20Z</time>
      </trkpt>
      <trkpt lat="34.315837" lon="108.779972">
        <time>2022-01-19T13:17:25Z</time>
      </trkpt>
      <trkpt lat="34.315985" lon="108.780066">
        <time>2022-01-19T13:17:30Z</time>
      </trkpt>
      <trkpt lat="34.316093" lon="108.780153">
        <time>2022-01-19T13:17:35Z</time>
      </trkpt>
      <trkpt lat="34.316207" lon="108.780216">
        <time>2022-01-19T13:17:40Z</time>
      </trkpt>
      <trkpt lat="34.316287" lon="108.780258">
        <time>2022-01-19T13:17:45Z</time>
      </trkpt>
      <trkpt lat="34.316326" lon="108.78028">
        <time>2022-01-19T13:17:50Z</time>
      </trkpt>
      <trkpt lat="34.316383" lon="108.780302">
        <time>2022-01-19T13:17:55Z</time>
      </trkpt>
      <trkpt lat="34.316495" lon="108.780181">
        <time>2022-01-19T13:18:00Z</time>
      </trkpt>
      <trkpt lat="34.316578" lon="108.780028">
        <time>2022-01-19T13:18:05Z</time>
      </trkpt>
      <trkpt lat="34.316648" lon="108.77989">
        <time>2022-01-19T13:18:10Z</time>
      </trkpt>
      <trkpt lat="34.31673" lon="108.779768">
        <time>2022-01-19T13:18:15Z</time>
      </trkpt>
      <trkpt lat="34.316797" lon="108.779634">
        <time>2022-01-19T13:18:20Z</time>
      </trkpt>
      <trkpt lat="34.316865" lon="108.779518">
        <time>2022-01-19T13:18:25Z</time>
      </trkpt>
      <trkpt lat="34.31693" lon="108.779426">
        <time>2022-01-19T13:18:30Z</time>
      </trkpt>
      <trkpt lat="34.317007" lon="108.779445">
        <time>2022-01-19T13:18:35Z</time>
      </trkpt>
      <trkpt lat="34.317045" lon="108.779389">
        <time>2022-01-19T13:18:40Z</time>
      </trkpt>
      <trkpt lat="34.317093" lon="108.779254">
        <time>2022-01-19T13:18:45Z</time>
      </trkpt>
      <trkpt lat="34.31709" lon="108.77911">
        <time>2022-01-19T13:18:50Z</time>
      </trkpt>
      <trkpt lat="34.31709" lon="108.779003">
        <time>2022-01-19T13:18:55Z</time>
      </trkpt>
      <trkpt lat="34.317099" lon="108.778835">
        <time>2022-01-19T13:19:00Z</time>
      </trkpt>
      <trkpt lat="34.317172" lon="108.778713">
        <time>2022-01-19T13:19:05Z</time>
      </trkpt>
      <trkpt lat="34.317194" lon="108.778548">
        <time>2022-01-19T13:19:10Z</time>
      </trkpt>
      <trkpt lat="34.317185" lon="108.778403">
        <time>2022-01-19T13:19:15Z</time>
      </trkpt>
      <trkpt lat="34.317234" lon="108.778269">
        <time>2022-01-19T13:19:20Z</time>
      </trkpt>
      <trkpt lat="34.317377" lon="108.778206">
        <time>2022-01-19T13:19:25Z</time>
      </trkpt>
      <trkpt lat="34.317468" lon="108.778115">
        <time>2022-01-19T13:19:30Z</time>
      </trkpt>
      <trkpt lat="34.317531" lon="108.778005">
        <time>2022-01-19T13:19:35Z</time>
      </trkpt>
      <trkpt lat="34.317586" lon="108.777889">
        <time>2022-01-19T13:19:40Z</time>
      </trkpt>
      <trkpt lat="34.317631" lon="108.777748">
        <time>2022-01-19T13:19:45Z</time>
      </trkpt>
      <trkpt lat="34.317693" lon="108.777635">
        <time>2022-01-19T13:19:50Z</time>
      </trkpt>
      <trkpt lat="34.317753" lon="108.777523">
        <time>2022-01-19T13:19:55Z</time>
      </trkpt>
      <trkpt lat="34.317792" lon="108.777395">
        <time>2022-01-19T13:20:00Z</time>
      </trkpt>
      <trkpt lat="34.317789" lon="108.77726">
        <time>2022-01-19T13:20:05Z</time>
      </trkpt>
      <trkpt lat="34.317784" lon="108.77712">
        <time>2022-01-19T13:20:10Z</time>
      </trkpt>
      <trkpt lat="34.317699" lon="108.77703">
        <time>2022-01-19T13:20:15Z</time>
      </trkpt>
      <trkpt lat="34.317594" lon="108.777035">
        <time>2022-01-19T13:20:20Z</time>
      </trkpt>
      <trkpt lat="34.31748" lon="108.777049">
        <time>2022-01-19T13:20:25Z</time>
      </trkpt>
      <trkpt lat="34.317364" lon="108.777058">
        <time>2022-01-19T13:20:30Z</time>
      </trkpt>
      <trkpt lat="34.317244" lon="108.777075">
        <time>2022-01-19T13:20:35Z</time>
      </trkpt>
      <trkpt lat="34.317117" lon="108.777063">
        <time>2022-01-19T13:20:40Z</time>
      </trkpt>
      <trkpt lat="34.317022" lon="108.777058">
        <time>2022-01-19T13:20:45Z</time>
      </trkpt>
      <trkpt lat="34.316919" lon="108.777053">
        <time>2022-01-19T13:20:50Z</time>
      </trkpt>
      <trkpt lat="34.316809" lon="108.777061">
        <time>2022-01-19T13:20:55Z</time>
      </trkpt>
      <trkpt lat="34.316713" lon="108.777067">
        <time>2022-01-19T13:21:00Z</time>
      </trkpt>
      <trkpt lat="34.316597" lon="108.777077">
        <time>2022-01-19T13:21:05Z</time>
      </trkpt>
      <trkpt lat="34.316482" lon="108.777079">
        <time>2022-01-19T13:21:10Z</time>
      </trkpt>
      <trkpt lat="34.316373" lon="108.777082">
        <time>2022-01-19T13:21:15Z</time>
      </trkpt>
      <trkpt lat="34.316267" lon="108.777081">
        <time>2022-01-19T13:21:20Z</time>
      </trkpt>
      <trkpt lat="34.316159" lon="108.777122">
        <time>2022-01-19T13:21:25Z</time>
      </trkpt>
      <trkpt lat="34.316112" lon="108.777207">
        <time>2022-01-19T13:21:30Z</time>
      </trkpt>
      <trkpt lat="34.316062" lon="108.777306">
        <time>2022-01-19T13:21:35Z</time>
      </trkpt>
      <trkpt lat="34.316033" lon="108.777416">
        <time>2022-01-19T13:21:40Z</time>
      </trkpt>
      <trkpt lat="34.315992" lon="108.777526">
        <time>2022-01-19T13:21:45Z</time>
      </trkpt>
      <trkpt lat="34.315957" lon="108.77765">
        <time>2022-01-19T13:21:50Z</time>
      </trkpt>
      <trkpt lat="34.31588" lon="108.777798">
        <time>2022-01-19T13:21:55Z</time>
      </trkpt>
      <trkpt lat="34.315818" lon="108.777945">
        <time>2022-01-19T13:22:00Z</time>
      </trkpt>
      <trkpt lat="34.315725" lon="108.778062">
        <time>2022-01-19T13:22:05Z</time>
      </trkpt>
      <trkpt lat="34.315654" lon="108.778197">
        <time>2022-01-19T13:22:10Z</time>
      </trkpt>
      <trkpt lat="34.315598" lon="108.778332">
        <time>2022-01-19T13:22:15Z</time>
      </trkpt>
      <trkpt lat="34.315568" lon="108.778494">
        <time>2022-01-19T13:22:20Z</time>
      </trkpt>
      <trkpt lat="34.315501" lon="108.778604">
        <time>2022-01-19T13:22:25Z</time>
      </trkpt>
      <trkpt lat="34.315454" lon="108.778682">
        <time>2022-01-19T13:22:30Z</time>
      </trkpt>
      <trkpt lat="34.315381" lon="108.778812">
        <time>2022-01-19T13:22:35Z</time>
      </trkpt>
      <trkpt lat="34.31532" lon="108.778957">
        <time>2022-01-19T13:22:40Z</time>
      </trkpt>
      <trkpt lat="34.315255" lon="108.779091">
        <time>2022-01-19T13:22:45Z</time>
      </trkpt>
      <trkpt lat="34.315195" lon="108.779205">
        <time>2022-01-19T13:22:50Z</time>
      </trkpt>
      <trkpt lat="34.315164" lon="108.779309">
        <time>2022-01-19T13:22:55Z</time>
      </trkpt>
      <trkpt lat="34.315202" lon="108.779335">
        <time>2022-01-19T13:23:00Z</time>
      </trkpt>
      <trkpt lat="34.315214" lon="108.779448">
        <time>2022-01-19T13:23:05Z</time>
      </trkpt>
      <trkpt lat="34.315203" lon="108.779517">
        <time>2022-01-19T13:23:10Z</time>
      </trkpt>
      <trkpt lat="34.315243" lon="108.779586">
        <time>2022-01-19T13:23:15Z</time>
      </trkpt>
      <trkpt lat="34.315274" lon="108.779594">
        <time>2022-01-19T13:23:20Z</time>
      </trkpt>
      <trkpt lat="34.315348" lon="108.779662">
        <time>2022-01-19T13:23:25Z</time>
      </trkpt>
      <trkpt lat="34.315394" lon="108.779772">
        <time>2022-01-19T13:23:30Z</time>
      </trkpt>
      <trkpt lat="34.315446" lon="108.779831">
        <time>2022-01-19T13:23:35Z</time>
      </trkpt>
      <trkpt lat="34.315562" lon="108.77986">
        <time>2022-01-19T13:23:40Z</time>
      </trkpt>
      <trkpt lat="34.315662" lon="108.779914">
        <time>2022-01-19T13:23:45Z</time>
      </trkpt>
      <trkpt lat="34.315761" lon="108.77998">
        <time>2022-01-19T13:23:50Z</time>
      </trkpt>
      <trkpt lat="34.315876" lon="108.780052">
        <time>2022-01-19T13:23:55Z</time>
      </trkpt>
      <trkpt lat="34.315989" lon="108.780118">
        <time>2022-01-19T13:24:00Z</time>
      </trkpt>
      <trkpt lat="34.31608" lon="108.780186">
        <time>2022-01-19T13:24:05Z</time>
      </trkpt>
      <trkpt lat="34.316163" lon="108.780208">
        <time>2022-01-19T13:24:10Z</time>
      </trkpt>
      <trkpt lat="34.316245" lon="108.780199">
        <time>2022-01-19T13:24:15Z</time>
      </trkpt>
      <trkpt lat="34.316316" lon="108.780132">
        <time>2022-01-19T13:24:20Z</time>
      </trkpt>
      <trkpt lat="34.316385" lon="108.780061">
        <time>2022-01-19T13:24:25Z</time>
      </trkpt>
      <trkpt lat="34.316455" lon="108.779962">
        <time>2022-01-19T13:24:30Z</time>
      </trkpt>
      <trkpt lat="34.31653" lon="108.779853">
        <time>2022-01-19T13:24:35Z</time>
      </trkpt>
      <trkpt lat="34.316616" lon="108.77973">
        <time>2022-01-19T13:24:40Z</time>
      </trkpt>
      <trkpt lat="34.316694" lon="108.779639">
        <time>2022-01-19T13:24:45Z</time>
      </trkpt>
      <trkpt lat="34.316759" lon="108.779538">
        <time>2022-01-19T13:24:50Z</time>
      </trkpt>
      <trkpt lat="34.316824" lon="108.779439">
        <time>2022-01-19T13:24:55Z</time>
      </trkpt>
      <trkpt lat="34.316925" lon="108.779392">
        <time>2022-01-19T13:25:00Z</time>
      </trkpt>
      <trkpt lat="34.317008" lon="108.779444">
        <time>2022-01-19T13:25:05Z</time>
      </trkpt>
      <trkpt lat="34.317067" lon="108.779351">
        <time>2022-01-19T13:25:10Z</time>
      </trkpt>
      <trkpt lat="34.317097" lon="108.779213">
        <time>2022-01-19T13:25:15Z</time>
      </trkpt>
      <trkpt lat="34.317141" lon="108.779101">
        <time>2022-01-19T13:25:20Z</time>
      </trkpt>
      <trkpt lat="34.317152" lon="108.778957">
        <time>2022-01-19T13:25:25Z</time>
      </trkpt>
      <trkpt lat="34.317213" lon="108.778812">
        <time>2022-01-19T13:25:30Z</time>
      </trkpt>
      <trkpt lat="34.317235" lon="108.778675">
        <time>2022-01-19T13:25:35Z</time>
      </trkpt>
      <trkpt lat="34.317295" lon="108.778583">
        <time>2022-01-19T13:25:40Z</time>
      </trkpt>
      <trkpt lat="34.317364" lon="108.778478">
        <time>2022-01-19T13:25:45Z</time>
      </trkpt>
      <trkpt lat="34.31744" lon="108.778355">
        <time>2022-01-19T13:25:50Z</time>
      </trkpt>
      <trkpt lat="34.317469" lon="108.778226">
        <time>2022-01-19T13:25:55Z</time>
      </trkpt>
      <trkpt lat="34.317486" lon="108.778159">
        <time>2022-01-19T13:26:00Z</time>
      </trkpt>
      <trkpt lat="34.317544" lon="108.778078">
        <time>2022-01-19T13:26:05Z</time>
      </trkpt>
      <trkpt lat="34.317586" lon="108.777995">
        <time>2022-01-19T13:26:10Z</time>
      </trkpt>
      <trkpt lat="34.317628" lon="108.777954">
        <time>2022-01-19T13:26:15Z</time>
      </trkpt>
      <trkpt lat="34.317653" lon="108.77784">
        <time>2022-01-19T13:26:20Z</time>
      </trkpt>
      <trkpt lat="34.317694" lon="108.777739">
        <time>2022-01-19T13:26:25Z</time>
      </trkpt>
      <trkpt lat="34.317755" lon="108.777625">
        <time>2022-01-19T13:26:30Z</time>
      </trkpt>
      <trkpt lat="34.317804" lon="108.777487">
        <time>2022-01-19T13:26:35Z</time>
      </trkpt>
      <trkpt lat="34.317812" lon="108.777353">
        <time>2022-01-19T13:26:40Z</time>
      </trkpt>
      <trkpt lat="34.317798" lon="108.77722">
        <time>2022-01-19T13:26:45Z</time>
      </trkpt>
      <trkpt lat="34.31775" lon="108.777096">
        <time>2022-01-19T13:26:50Z</time>
      </trkpt>
      <trkpt lat="34.317631" lon="108.777087">
        <time>2022-01-19T13:26:55Z</time>
      </trkpt>
      <trkpt lat="34.317513" lon="108.777096">
        <time>2022-01-19T13:27:00Z</time>
      </trkpt>
      <trkpt lat="34.317394" lon="108.777101">
        <time>2022-01-19T13:27:05Z</time>
      </trkpt>
      <trkpt lat="34.317299" lon="108.777111">
        <time>2022-01-19T13:27:10Z</time>
      </trkpt>
      <trkpt lat="34.317194" lon="108.777089">
        <time>2022-01-19T13:27:15Z</time>
      </trkpt>
      <trkpt lat="34.317067" lon="108.777082">
        <time>2022-01-19T13:27:20Z</time>
      </trkpt>
      <trkpt lat="34.316966" lon="108.777077">
        <time>2022-01-19T13:27:25Z</time>
      </trkpt>
      <trkpt lat="34.316842" lon="108.777075">
        <time>2022-01-19T13:27:30Z</time>
      </trkpt>
      <trkpt lat="34.316709" lon="108.777082">
        <time>2022-01-19T13:27:35Z</time>
      </trkpt>
      <trkpt lat="34.316596" lon="108.777094">
        <time>2022-01-19T13:27:40Z</time>
      </trkpt>
      <trkpt lat="34.316469" lon="108.777096">
        <time>2022-01-19T13:27:45Z</time>
      </trkpt>
      <trkpt lat="34.316366" lon="108.777083">
        <time>2022-01-19T13:27:50Z</time>
      </trkpt>
      <trkpt lat="34.316271" lon="108.777077">
        <time>2022-01-19T13:27:55Z</time>
      </trkpt>
      <trkpt lat="34.316146" lon="108.777103">
        <time>2022-01-19T13:28:00Z</time>
      </trkpt>
      <trkpt lat="34.316094" lon="108.777223">
        <time>2022-01-19T13:28:05Z</time>
      </trkpt>
      <trkpt lat="34.31604" lon="108.777346">
        <time>2022-01-19T13:28:10Z</time>
      </trkpt>
      <trkpt lat="34.316003" lon="108.777475">
        <time>2022-01-19T13:28:15Z</time>
      </trkpt>
      <trkpt lat="34.315936" lon="108.777589">
        <time>2022-01-19T13:28:20Z</time>
      </trkpt>
      <trkpt lat="34.315885" lon="108.777695">
        <time>2022-01-19T13:28:25Z</time>
      </trkpt>
      <trkpt lat="34.315823" lon="108.777792">
        <time>2022-01-19T13:28:30Z</time>
      </trkpt>
      <trkpt lat="34.315745" lon="108.777919">
        <time>2022-01-19T13:28:35Z</time>
      </trkpt>
      <trkpt lat="34.315687" lon="108.778039">
        <time>2022-01-19T13:28:40Z</time>
      </trkpt>
      <trkpt lat="34.315612" lon="108.778147">
        <time>2022-01-19T13:28:45Z</time>
      </trkpt>
      <trkpt lat="34.315559" lon="108.778222">
        <time>2022-01-19T13:28:50Z</time>
      </trkpt>
      <trkpt lat="34.31556" lon="108.778353">
        <time>2022-01-19T13:28:55Z</time>
      </trkpt>
      <trkpt lat="34.315555" lon="108.778456">
        <time>2022-01-19T13:29:00Z</time>
      </trkpt>
      <trkpt lat="34.315541" lon="108.778537">
        <time>2022-01-19T13:29:05Z</time>
      </trkpt>
      <trkpt lat="34.315479" lon="108.778664">
        <time>2022-01-19T13:29:10Z</time>
      </trkpt>
      <trkpt lat="34.315408" lon="108.778799">
        <time>2022-01-19T13:29:15Z</time>
      </trkpt>
      <trkpt lat="34.31537" lon="108.778918">
        <time>2022-01-19T13:29:20Z</time>
      </trkpt>
      <trkpt lat="34.315353" lon="108.779065">
        <time>2022-01-19T13:29:25Z</time>
      </trkpt>
      <trkpt lat="34.315296" lon="108.779192">
        <time>2022-01-19T13:29:30Z</time>
      </trkpt>
      <trkpt lat="34.315316" lon="108.779361">
        <time>2022-01-19T13:29:35Z</time>
      </trkpt>
      <trkpt lat="34.315302" lon="108.779515">
        <time>2022-01-19T13:29:40Z</time>
      </trkpt>
      <trkpt lat="34.315286" lon="108.779628">
        <time>2022-01-19T13:29:45Z</time>
      </trkpt>
      <trkpt lat="34.315338" lon="108.779666">
        <time>2022-01-19T13:29:50Z</time>
      </trkpt>
      <trkpt lat="34.315425" lon="108.779761">
        <time>2022-01-19T13:29:55Z</time>
      </trkpt>
      <trkpt lat="34.3155" lon="108.77986">
        <time>2022-01-19T13:30:00Z</time>
      </trkpt>
      <trkpt lat="34.315531" lon="108.779911">
        <time>2022-01-19T13:30:05Z</time>
      </trkpt>
      <trkpt lat="34.315615" lon="108.779962">
        <time>2022-01-19T13:30:10Z</time>
      </trkpt>
      <trkpt lat="34.315729" lon="108.779978">
        <time>2022-01-19T13:30:15Z</time>
      </trkpt>
      <trkpt lat="34.31583" lon="108.780015">
        <time>2022-01-19T13:30:20Z</time>
      </trkpt>
      <trkpt lat="34.315915" lon="108.780051">
        <time>2022-01-19T13:30:25Z</time>
      </trkpt>
      <trkpt lat="34.316017" lon="108.78011">
        <time>2022-01-19T13:30:30Z</time>
      </trkpt>
      <trkpt lat="34.316118" lon="108.780186">
        <time>2022-01-19T13:30:35Z</time>
      </trkpt>
      <trkpt lat="34.316194" lon="108.780217">
        <time>2022-01-19T13:30:40Z</time>
      </trkpt>
      <trkpt lat="34.316257" lon="108.780307">
        <time>2022-01-19T13:30:45Z</time>
      </trkpt>
      <trkpt lat="34.316308" lon="108.780241">
        <time>2022-01-19T13:30:50Z</time>
      </trkpt>
      <trkpt lat="34.316399" lon="108.780102">
        <time>2022-01-19T13:30:55Z</time>
      </trkpt>
      <trkpt lat="34.316479" lon="108.77997">
        <time>2022-01-19T13:31:00Z</time>
      </trkpt>
      <trkpt lat="34.316572" lon="108.779863">
        <time>2022-01-19T13:31:05Z</time>
      </trkpt>
      <trkpt lat="34.316644" lon="108.77975">
        <time>2022-01-19T13:31:10Z</time>
      </trkpt>
      <trkpt lat="34.316716" lon="108.779634">
        <time>2022-01-19T13:31:15Z</time>
      </trkpt>
      <trkpt lat="34.316781" lon="108.779513">
        <time>2022-01-19T13:31:20Z</time>
      </trkpt>
      <trkpt lat="34.316865" lon="108.779422">
        <time>2022-01-19T13:31:25Z</time>
      </trkpt>
      <trkpt lat="34.316963" lon="108.779421">
        <time>2022-01-19T13:31:30Z</time>
      </trkpt>
      <trkpt lat="34.317049" lon="108.77942">
        <time>2022-01-19T13:31:35Z</time>
      </trkpt>
      <trkpt lat="34.317088" lon="108.779316">
        <time>2022-01-19T13:31:40Z</time>
      </trkpt>
      <trkpt lat="34.317076" lon="108.779234">
        <time>2022-01-19T13:31:45Z</time>
      </trkpt>
      <trkpt lat="34.317097" lon="108.77916">
        <time>2022-01-19T13:31:50Z</time>
      </trkpt>
      <trkpt lat="34.317129" lon="108.779082">
        <time>2022-01-19T13:31:55Z</time>
      </trkpt>
      <trkpt lat="34.317164" lon="108.77899">
        <time>2022-01-19T13:32:00Z</time>
      </trkpt>
      <trkpt lat="34.317243" lon="108.778837">
        <time>2022-01-19T13:32:05Z</time>
      </trkpt>
      <trkpt lat="34.317246" lon="108.77872">
        <time>2022-01-19T13:32:10Z</time>
      </trkpt>
      <trkpt lat="34.317316" lon="108.778571">
        <time>2022-01-19T13:32:15Z</time>
      </trkpt>
      <trkpt lat="34.317385" lon="108.778497">
        <time>2022-01-19T13:32:20Z</time>
      </trkpt>
      <trkpt lat="34.317452" lon="108.778383">
        <time>2022-01-19T13:32:25Z</time>
      </trkpt>
      <trkpt lat="34.317515" lon="108.778221">
        <time>2022-01-19T13:32:30Z</time>
      </trkpt>
      <trkpt lat="34.317559" lon="108.778101">
        <time>2022-01-19T13:32:35Z</time>
      </trkpt>
      <trkpt lat="34.317565" lon="108.77798">
        <time>2022-01-19T13:32:40Z</time>
      </trkpt>
      <trkpt lat="34.317618" lon="108.777843">
        <time>2022-01-19T13:32:45Z</time>
      </trkpt>
      <trkpt lat="34.317636" lon="108.777759">
        <time>2022-01-19T13:32:50Z</time>
      </trkpt>
      <trkpt lat="34.317659" lon="108.777655">
        <time>2022-01-19T13:32:55Z</time>
      </trkpt>
      <trkpt lat="34.317659" lon="108.777584">
        <time>2022-01-19T13:33:00Z</time>
      </trkpt>
      <trkpt lat="34.317683" lon="108.777534">
        <time>2022-01-19T13:33:05Z</time>
      </trkpt>
      <trkpt lat="34.317692" lon="108.777438">
        <time>2022-01-19T13:33:10Z</time>
      </trkpt>
      <trkpt lat="34.31772" lon="108.77731">
        <time>2022-01-19T13:33:15Z</time>
      </trkpt>
      <trkpt lat="34.317734" lon="108.777151">
        <time>2022-01-19T13:33:20Z</time>
      </trkpt>
      <trkpt lat="34.317734" lon="108.777086">
        <time>2022-01-19T13:33:25Z</time>
      </trkpt>
      <trkpt lat="34.317665" lon="108.777086">
        <time>2022-01-19T13:33:30Z</time>
      </trkpt>
      <trkpt lat="34.317569" lon="108.777094">
        <time>2022-01-19T13:33:35Z</time>
      </trkpt>
      <trkpt lat="34.317459" lon="108.777092">
        <time>2022-01-19T13:33:40Z</time>
      </trkpt>
      <trkpt lat="34.317358" lon="108.777097">
        <time>2022-01-19T13:33:45Z</time>
      </trkpt>
      <trkpt lat="34.317234" lon="108.7771">
        <time>2022-01-19T13:33:50Z</time>
      </trkpt>
      <trkpt lat="34.317155" lon="108.777103">
        <time>2022-01-19T13:33:55Z</time>
      </trkpt>
      <trkpt lat="34.317042" lon="108.77711">
        <time>2022-01-19T13:34:00Z</time>
      </trkpt>
      <trkpt lat="34.316917" lon="108.777103">
        <time>2022-01-19T13:34:05Z</time>
      </trkpt>
      <trkpt lat="34.316804" lon="108.77709">
        <time>2022-01-19T13:34:10Z</time>
      </trkpt>
      <trkpt lat="34.316698" lon="108.777094">
        <time>2022-01-19T13:34:15Z</time>
      </trkpt>
      <trkpt lat="34.316608" lon="108.777129">
        <time>2022-01-19T13:34:20Z</time>
      </trkpt>
      <trkpt lat="34.316483" lon="108.777118">
        <time>2022-01-19T13:34:25Z</time>
      </trkpt>
      <trkpt lat="34.316353" lon="108.77709">
        <time>2022-01-19T13:34:30Z</time>
      </trkpt>
      <trkpt lat="34.316239" lon="108.777071">
        <time>2022-01-19T13:34:35Z</time>
      </trkpt>
      <trkpt lat="34.316134" lon="108.777113">
        <time>2022-01-19T13:34:40Z</time>
      </trkpt>
      <trkpt lat="34.316102" lon="108.777238">
        <time>2022-01-19T13:34:45Z</time>
      </trkpt>
      <trkpt lat="34.316113" lon="108.777311">
        <time>2022-01-19T13:34:50Z</time>
      </trkpt>
      <trkpt lat="34.316104" lon="108.777399">
        <time>2022-01-19T13:34:55Z</time>
      </trkpt>
      <trkpt lat="34.31606" lon="108.777642">
        <time>2022-01-19T13:35:00Z</time>
      </trkpt>
      <trkpt lat="34.316006" lon="108.777673">
        <time>2022-01-19T13:35:05Z</time>
      </trkpt>
      <trkpt lat="34.315975" lon="108.777755">
        <time>2022-01-19T13:35:10Z</time>
      </trkpt>
      <trkpt lat="34.315932" lon="108.77787">
        <time>2022-01-19T13:35:15Z</time>
      </trkpt>
      <trkpt lat="34.315892" lon="108.777967">
        <time>2022-01-19T13:35:20Z</time>
      </trkpt>
      <trkpt lat="34.315908" lon="108.778124">
        <time>2022-01-19T13:35:25Z</time>
      </trkpt>
      <trkpt lat="34.315858" lon="108.778268">
        <time>2022-01-19T13:35:30Z</time>
      </trkpt>
      <trkpt lat="34.31577" lon="108.778301">
        <time>2022-01-19T13:35:35Z</time>
      </trkpt>
      <trkpt lat="34.315639" lon="108.778408">
        <time>2022-01-19T13:35:40Z</time>
      </trkpt>
      <trkpt lat="34.31554" lon="108.778487">
        <time>2022-01-19T13:35:45Z</time>
      </trkpt>
      <trkpt lat="34.315561" lon="108.778591">
        <time>2022-01-19T13:35:50Z</time>
      </trkpt>
      <trkpt lat="34.315541" lon="108.778714">
        <time>2022-01-19T13:35:55Z</time>
      </trkpt>
      <trkpt lat="34.315518" lon="108.778806">
        <time>2022-01-19T13:36:00Z</time>
      </trkpt>
      <trkpt lat="34.315505" lon="108.778937">
        <time>2022-01-19T13:36:05Z</time>
      </trkpt>
      <trkpt lat="34.315521" lon="108.779053">
        <time>2022-01-19T13:36:10Z</time>
      </trkpt>
      <trkpt lat="34.315497" lon="108.779143">
        <time>2022-01-19T13:36:15Z</time>
      </trkpt>
      <trkpt lat="34.315499" lon="108.779321">
        <time>2022-01-19T13:36:20Z</time>
      </trkpt>
      <trkpt lat="34.315368" lon="108.779461">
        <time>2022-01-19T13:36:25Z</time>
      </trkpt>
      <trkpt lat="34.315319" lon="108.779562">
        <time>2022-01-19T13:36:30Z</time>
      </trkpt>
      <trkpt lat="34.315389" lon="108.779663">
        <time>2022-01-19T13:36:35Z</time>
      </trkpt>
      <trkpt lat="34.315485" lon="108.779766">
        <time>2022-01-19T13:36:40Z</time>
      </trkpt>
      <trkpt lat="34.315528" lon="108.779847">
        <time>2022-01-19T13:36:45Z</time>
      </trkpt>
      <trkpt lat="34.315587" lon="108.779902">
        <time>2022-01-19T13:36:50Z</time>
      </trkpt>
      <trkpt lat="34.315674" lon="108.779935">
        <time>2022-01-19T13:36:55Z</time>
      </trkpt>
      <trkpt lat="34.315784" lon="108.779984">
        <time>2022-01-19T13:37:00Z</time>
      </trkpt>
      <trkpt lat="34.315932" lon="108.780064">
        <time>2022-01-19T13:37:05Z</time>
      </trkpt>
      <trkpt lat="34.316055" lon="108.780158">
        <time>2022-01-19T13:37:10Z</time>
      </trkpt>
      <trkpt lat="34.316184" lon="108.780238">
        <time>2022-01-19T13:37:15Z</time>
      </trkpt>
      <trkpt lat="34.316315" lon="108.780262">
        <time>2022-01-19T13:37:20Z</time>
      </trkpt>
      <trkpt lat="34.316396" lon="108.78026">
        <time>2022-01-19T13:37:25Z</time>
      </trkpt>
      <trkpt lat="34.316407" lon="108.780281">
        <time>2022-01-19T13:37:30Z</time>
      </trkpt>
      <trkpt lat="34.31642" lon="108.78026">
        <time>2022-01-19T13:37:35Z</time>
      </trkpt>
      <trkpt lat="34.31648" lon="108.78016">
        <time>2022-01-19T13:37:40Z</time>
      </trkpt>
      <trkpt lat="34.316526" lon="108.780068">
        <time>2022-01-19T13:37:45Z</time>
      </trkpt>
      <trkpt lat="34.316577" lon="108.779982">
        <time>2022-01-19T13:37:50Z</time>
      </trkpt>
      <trkpt lat="34.316624" lon="108.779923">
        <time>2022-01-19T13:37:55Z</time>
      </trkpt>
      <trkpt lat="34.316696" lon="108.779821">
        <time>2022-01-19T13:38:00Z</time>
      </trkpt>
      <trkpt lat="34.316765" lon="108.779714">
        <time>2022-01-19T13:38:05Z</time>
      </trkpt>
      <trkpt lat="34.316819" lon="108.779609">
        <time>2022-01-19T13:38:10Z</time>
      </trkpt>
      <trkpt lat="34.316848" lon="108.779523">
        <time>2022-01-19T13:38:15Z</time>
      </trkpt>
      <trkpt lat="34.316914" lon="108.779488">
        <time>2022-01-19T13:38:20Z</time>
      </trkpt>
      <trkpt lat="34.316962" lon="108.779504">
        <time>2022-01-19T13:38:25Z</time>
      </trkpt>
      <trkpt lat="34.317019" lon="108.779411">
        <time>2022-01-19T13:38:30Z</time>
      </trkpt>
      <trkpt lat="34.317023" lon="108.779302">
        <time>2022-01-19T13:38:35Z</time>
      </trkpt>
      <trkpt lat="34.317053" lon="108.779186">
        <time>2022-01-19T13:38:40Z</time>
      </trkpt>
      <trkpt lat="34.317101" lon="108.779124">
        <time>2022-01-19T13:38:45Z</time>
      </trkpt>
      <trkpt lat="34.31714" lon="108.77902">
        <time>2022-01-19T13:38:50Z</time>
      </trkpt>
      <trkpt lat="34.317234" lon="108.77888">
        <time>2022-01-19T13:38:55Z</time>
      </trkpt>
      <trkpt lat="34.317278" lon="108.778709">
        <time>2022-01-19T13:39:00Z</time>
      </trkpt>
      <trkpt lat="34.31732" lon="108.778525">
        <time>2022-01-19T13:39:05Z</time>
      </trkpt>
      <trkpt lat="34.317416" lon="108.778378">
        <time>2022-01-19T13:39:10Z</time>
      </trkpt>
      <trkpt lat="34.317486" lon="108.778247">
        <time>2022-01-19T13:39:15Z</time>
      </trkpt>
      <trkpt lat="34.317534" lon="108.778131">
        <time>2022-01-19T13:39:20Z</time>
      </trkpt>
      <trkpt lat="34.317547" lon="108.778047">
        <time>2022-01-19T13:39:25Z</time>
      </trkpt>
      <trkpt lat="34.31758" lon="108.778001">
        <time>2022-01-19T13:39:30Z</time>
      </trkpt>
      <trkpt lat="34.317593" lon="108.777845">
        <time>2022-01-19T13:39:35Z</time>
      </trkpt>
      <trkpt lat="34.317582" lon="108.777692">
        <time>2022-01-19T13:39:40Z</time>
      </trkpt>
      <trkpt lat="34.317592" lon="108.77759">
        <time>2022-01-19T13:39:45Z</time>
      </trkpt>
      <trkpt lat="34.317655" lon="108.777455">
        <time>2022-01-19T13:39:50Z</time>
      </trkpt>
      <trkpt lat="34.31772" lon="108.777313">
        <time>2022-01-19T13:39:55Z</time>
      </trkpt>
      <trkpt lat="34.317757" lon="108.77715">
        <time>2022-01-19T13:40:00Z</time>
      </trkpt>
      <trkpt lat="34.317676" lon="108.777079">
        <time>2022-01-19T13:40:05Z</time>
      </trkpt>
      <trkpt lat="34.317552" lon="108.777098">
        <time>2022-01-19T13:40:10Z</time>
      </trkpt>
      <trkpt lat="34.317416" lon="108.777103">
        <time>2022-01-19T13:40:15Z</time>
      </trkpt>
      <trkpt lat="34.317299" lon="108.777104">
        <time>2022-01-19T13:40:20Z</time>
      </trkpt>
      <trkpt lat="34.317176" lon="108.777091">
        <time>2022-01-19T13:40:25Z</time>
      </trkpt>
      <trkpt lat="34.317037" lon="108.777077">
        <time>2022-01-19T13:40:30Z</time>
      </trkpt>
      <trkpt lat="34.31691" lon="108.77705">
        <time>2022-01-19T13:40:35Z</time>
      </trkpt>
      <trkpt lat="34.31678" lon="108.777041">
        <time>2022-01-19T13:40:40Z</time>
      </trkpt>
      <trkpt lat="34.316663" lon="108.77705">
        <time>2022-01-19T13:40:45Z</time>
      </trkpt>
      <trkpt lat="34.31655" lon="108.777091">
        <time>2022-01-19T13:40:50Z</time>
      </trkpt>
      <trkpt lat="34.316411" lon="108.777091">
        <time>2022-01-19T13:40:55Z</time>
      </trkpt>
      <trkpt lat="34.316271" lon="108.777078">
        <time>2022-01-19T13:41:00Z</time>
      </trkpt>
      <trkpt lat="34.316172" lon="108.777096">
        <time>2022-01-19T13:41:05Z</time>
      </trkpt>
      <trkpt lat="34.316117" lon="108.777188">
        <time>2022-01-19T13:41:10Z</time>
      </trkpt>
      <trkpt lat="34.31608" lon="108.77731">
        <time>2022-01-19T13:41:15Z</time>
      </trkpt>
      <trkpt lat="34.316035" lon="108.777425">
        <time>2022-01-19T13:41:20Z</time>
      </trkpt>
      <trkpt lat="34.316004" lon="108.777584">
        <time>2022-01-19T13:41:25Z</time>
      </trkpt>
      <trkpt lat="34.316002" lon="108.777702">
        <time>2022-01-19T13:41:30Z</time>
      </trkpt>
      <trkpt lat="34.316011" lon="108.777829">
        <time>2022-01-19T13:41:35Z</time>
      </trkpt>
      <trkpt lat="34.315937" lon="108.777943">
        <time>2022-01-19T13:41:40Z</time>
      </trkpt>
      <trkpt lat="34.315919" lon="108.778091">
        <time>2022-01-19T13:41:45Z</time>
      </trkpt>
      <trkpt lat="34.315849" lon="108.778215">
        <time>2022-01-19T13:41:50Z</time>
      </trkpt>
      <trkpt lat="34.315702" lon="108.778337">
        <time>2022-01-19T13:41:55Z</time>
      </trkpt>
      <trkpt lat="34.315583" lon="108.778472">
        <time>2022-01-19T13:42:00Z</time>
      </trkpt>
      <trkpt lat="34.315627" lon="108.77858">
        <time>2022-01-19T13:42:05Z</time>
      </trkpt>
      <trkpt lat="34.315722" lon="108.778691">
        <time>2022-01-19T13:42:10Z</time>
      </trkpt>
      <trkpt lat="34.315721" lon="108.77882">
        <time>2022-01-19T13:42:15Z</time>
      </trkpt>
      <trkpt lat="34.315689" lon="108.778914">
        <time>2022-01-19T13:42:20Z</time>
      </trkpt>
      <trkpt lat="34.315638" lon="108.779013">
        <time>2022-01-19T13:42:25Z</time>
      </trkpt>
      <trkpt lat="34.315598" lon="108.779096">
        <time>2022-01-19T13:42:30Z</time>
      </trkpt>
      <trkpt lat="34.315523" lon="108.779141">
        <time>2022-01-19T13:42:35Z</time>
      </trkpt>
      <trkpt lat="34.315507" lon="108.779247">
        <time>2022-01-19T13:42:40Z</time>
      </trkpt>
      <trkpt lat="34.31546" lon="108.779342">
        <time>2022-01-19T13:42:45Z</time>
      </trkpt>
      <trkpt lat="34.315388" lon="108.77938">
        <time>2022-01-19T13:42:50Z</time>
      </trkpt>
      <trkpt lat="34.315343" lon="108.779478">
        <time>2022-01-19T13:42:55Z</time>
      </trkpt>
      <trkpt lat="34.315331" lon="108.779597">
        <time>2022-01-19T13:43:00Z</time>
      </trkpt>
      <trkpt lat="34.315368" lon="108.779649">
        <time>2022-01-19T13:43:05Z</time>
      </trkpt>
      <trkpt lat="34.315417" lon="108.779705">
        <time>2022-01-19T13:43:10Z</time>
      </trkpt>
      <trkpt lat="34.31545" lon="108.779787">
        <time>2022-01-19T13:43:15Z</time>
      </trkpt>
      <trkpt lat="34.315496" lon="108.779858">
        <time>2022-01-19T13:43:20Z</time>
      </trkpt>
      <trkpt lat="34.315569" lon="108.779904">
        <time>2022-01-19T13:43:25Z</time>
      </trkpt>
      <trkpt lat="34.315679" lon="108.779942">
        <time>2022-01-19T13:43:30Z</time>
      </trkpt>
      <trkpt lat="34.3158" lon="108.779991">
        <time>2022-01-19T13:43:35Z</time>
      </trkpt>
      <trkpt lat="34.31592" lon="108.780023">
        <time>2022-01-19T13:43:40Z</time>
      </trkpt>
      <trkpt lat="34.316054" lon="108.780118">
        <time>2022-01-19T13:43:45Z</time>
      </trkpt>
      <trkpt lat="34.316148" lon="108.780196">
        <time>2022-01-19T13:43:50Z</time>
      </trkpt>
      <trkpt lat="34.316234" lon="108.78027">
        <time>2022-01-19T13:43:55Z</time>
      </trkpt>
      <trkpt lat="34.316367" lon="108.780275">
        <time>2022-01-19T13:44:00Z</time>
      </trkpt>
      <trkpt lat="34.316466" lon="108.780129">
        <time>2022-01-19T13:44:05Z</time>
      </trkpt>
      <trkpt lat="34.316525" lon="108.779969">
        <time>2022-01-19T13:44:10Z</time>
      </trkpt>
      <trkpt lat="34.316604" lon="108.779843">
        <time>2022-01-19T13:44:15Z</time>
      </trkpt>
      <trkpt lat="34.316676" lon="108.779712">
        <time>2022-01-19T13:44:20Z</time>
      </trkpt>
      <trkpt lat="34.316749" lon="108.779601">
        <time>2022-01-19T13:44:25Z</time>
      </trkpt>
      <trkpt lat="34.316858" lon="108.779518">
        <time>2022-01-19T13:44:30Z</time>
      </trkpt>
      <trkpt lat="34.316951" lon="108.779427">
        <time>2022-01-19T13:44:35Z</time>
      </trkpt>
      <trkpt lat="34.316963" lon="108.779435">
        <time>2022-01-19T13:44:40Z</time>
      </trkpt>
      <trkpt lat="34.317006" lon="108.779478">
        <time>2022-01-19T13:44:45Z</time>
      </trkpt>
      <trkpt lat="34.317011" lon="108.779384">
        <time>2022-01-19T13:44:50Z</time>
      </trkpt>
      <trkpt lat="34.31705" lon="108.779294">
        <time>2022-01-19T13:44:55Z</time>
      </trkpt>
      <trkpt lat="34.317114" lon="108.779176">
        <time>2022-01-19T13:45:00Z</time>
      </trkpt>
      <trkpt lat="34.317161" lon="108.779063">
        <time>2022-01-19T13:45:05Z</time>
      </trkpt>
      <trkpt lat="34.317194" lon="108.77896">
        <time>2022-01-19T13:45:10Z</time>
      </trkpt>
      <trkpt lat="34.317241" lon="108.778801">
        <time>2022-01-19T13:45:15Z</time>
      </trkpt>
      <trkpt lat="34.317281" lon="108.778701">
        <time>2022-01-19T13:45:20Z</time>
      </trkpt>
      <trkpt lat="34.317364" lon="108.778525">
        <time>2022-01-19T13:45:25Z</time>
      </trkpt>
      <trkpt lat="34.317458" lon="108.778398">
        <time>2022-01-19T13:45:30Z</time>
      </trkpt>
      <trkpt lat="34.317459" lon="108.778277">
        <time>2022-01-19T13:45:35Z</time>
      </trkpt>
      <trkpt lat="34.317462" lon="108.778173">
        <time>2022-01-19T13:45:40Z</time>
      </trkpt>
      <trkpt lat="34.317438" lon="108.778086">
        <time>2022-01-19T13:45:45Z</time>
      </trkpt>
      <trkpt lat="34.317446" lon="108.778013">
        <time>2022-01-19T13:45:50Z</time>
      </trkpt>
      <trkpt lat="34.317441" lon="108.777903">
        <time>2022-01-19T13:45:55Z</time>
      </trkpt>
      <trkpt lat="34.317512" lon="108.777751">
        <time>2022-01-19T13:46:00Z</time>
      </trkpt>
      <trkpt lat="34.317565" lon="108.777592">
        <time>2022-01-19T13:46:05Z</time>
      </trkpt>
      <trkpt lat="34.317617" lon="108.777428">
        <time>2022-01-19T13:46:10Z</time>
      </trkpt>
      <trkpt lat="34.317633" lon="108.777267">
        <time>2022-01-19T13:46:15Z</time>
      </trkpt>
      <trkpt lat="34.317723" lon="108.777167">
        <time>2022-01-19T13:46:20Z</time>
      </trkpt>
      <trkpt lat="34.317691" lon="108.77712">
        <time>2022-01-19T13:46:25Z</time>
      </trkpt>
      <trkpt lat="34.317611" lon="108.777136">
        <time>2022-01-19T13:46:30Z</time>
      </trkpt>
      <trkpt lat="34.317531" lon="108.777131">
        <time>2022-01-19T13:46:35Z</time>
      </trkpt>
      <trkpt lat="34.317453" lon="108.777127">
        <time>2022-01-19T13:46:40Z</time>
      </trkpt>
      <trkpt lat="34.31736" lon="108.777108">
        <time>2022-01-19T13:46:45Z</time>
      </trkpt>
      <trkpt lat="34.317296" lon="108.777097">
        <time>2022-01-19T13:46:50Z</time>
      </trkpt>
      <trkpt lat="34.317206" lon="108.7771">
        <time>2022-01-19T13:46:55Z</time>
      </trkpt>
      <trkpt lat="34.317124" lon="108.77711">
        <time>2022-01-19T13:47:00Z</time>
      </trkpt>
      <trkpt lat="34.317025" lon="108.777122">
        <time>2022-01-19T13:47:05Z</time>
      </trkpt>
      <trkpt lat="34.316898" lon="108.777039">
        <time>2022-01-19T13:47:10Z</time>
      </trkpt>
      <trkpt lat="34.316768" lon="108.77703">
        <time>2022-01-19T13:47:15Z</time>
      </trkpt>
      <trkpt lat="34.316726" lon="108.777125">
        <time>2022-01-19T13:47:20Z</time>
      </trkpt>
      <trkpt lat="34.316709" lon="108.777197">
        <time>2022-01-19T13:47:25Z</time>
      </trkpt>
      <trkpt lat="34.316709" lon="108.777282">
        <time>2022-01-19T13:47:30Z</time>
      </trkpt>
      <trkpt lat="34.316736" lon="108.777443">
        <time>2022-01-19T13:47:35Z</time>
      </trkpt>
      <trkpt lat="34.31676" lon="108.77763">
        <time>2022-01-19T13:47:40Z</time>
      </trkpt>
      <trkpt lat="34.316833" lon="108.777734">
        <time>2022-01-19T13:47:45Z</time>
      </trkpt>
      <trkpt lat="34.316937" lon="108.777715">
        <time>2022-01-19T13:47:50Z</time>
      </trkpt>
      <trkpt lat="34.317008" lon="108.777729">
        <time>2022-01-19T13:47:55Z</time>
      </trkpt>
      <trkpt lat="34.317009" lon="108.777827">
        <time>2022-01-19T13:48:00Z</time>
      </trkpt>
      <trkpt lat="34.317002" lon="108.777899">
        <time>2022-01-19T13:48:05Z</time>
      </trkpt>
      <trkpt lat="34.316999" lon="108.777941">
        <time>2022-01-19T13:48:10Z</time>
      </trkpt>
      <trkpt lat="34.316931" lon="108.778045">
        <time>2022-01-19T13:48:15Z</time>
      </trkpt>
      <trkpt lat="34.316885" lon="108.778171">
        <time>2022-01-19T13:48:20Z</time>
      </trkpt>
      <trkpt lat="34.316855" lon="108.778293">
        <time>2022-01-19T13:48:25Z</time>
      </trkpt>
      <trkpt lat="34.316776" lon="108.778406">
        <time>2022-01-19T13:48:30Z</time>
      </trkpt>
      <trkpt lat="34.316697" lon="108.778485">
        <time>2022-01-19T13:48:35Z</time>
      </trkpt>
      <trkpt lat="34.316632" lon="108.778589">
        <time>2022-01-19T13:48:40Z</time>
      </trkpt>
      <trkpt lat="34.316597" lon="108.778721">
        <time>2022-01-19T13:48:45Z</time>
      </trkpt>
      <trkpt lat="34.316512" lon="108.778834">
        <time>2022-01-19T13:48:50Z</time>
      </trkpt>
      <trkpt lat="34.316431" lon="108.778953">
        <time>2022-01-19T13:48:55Z</time>
      </trkpt>
      <trkpt lat="34.316353" lon="108.779038">
        <time>2022-01-19T13:49:00Z</time>
      </trkpt>
      <trkpt lat="34.316302" lon="108.779139">
        <time>2022-01-19T13:49:05Z</time>
      </trkpt>
      <trkpt lat="34.316236" lon="108.779244">
        <time>2022-01-19T13:49:10Z</time>
      </trkpt>
      <trkpt lat="34.316222" lon="108.779312">
        <time>2022-01-19T13:49:15Z</time>
      </trkpt>
      <trkpt lat="34.316176" lon="108.779373">
        <time>2022-01-19T13:49:20Z</time>
      </trkpt>
      <trkpt lat="34.316161" lon="108.779454">
        <time>2022-01-19T13:49:25Z</time>
      </trkpt>
      <trkpt lat="34.316176" lon="108.779508">
        <time>2022-01-19T13:49:30Z</time>
      </trkpt>
      <trkpt lat="34.316121" lon="108.779599">
        <time>2022-01-19T13:49:35Z</time>
      </trkpt>
      <trkpt lat="34.316066" lon="108.779701">
        <time>2022-01-19T13:49:40Z</time>
      </trkpt>
      <trkpt lat="34.316038" lon="108.779795">
        <time>2022-01-19T13:49:45Z</time>
      </trkpt>
      <trkpt lat="34.315984" lon="108.779814">
        <time>2022-01-19T13:49:50Z</time>
      </trkpt>
      <trkpt lat="34.315929" lon="108.779907">
        <time>2022-01-19T13:49:55Z</time>
      </trkpt>
      <trkpt lat="34.316008" lon="108.780007">
        <time>2022-01-19T13:50:00Z</time>
      </trkpt>
      <trkpt lat="34.315955" lon="108.780001">
        <time>2022-01-19T13:50:05Z</time>
      </trkpt>
      <trkpt lat="34.315859" lon="108.77997">
        <time>2022-01-19T13:50:10Z</time>
      </trkpt>
      <trkpt lat="34.315753" lon="108.779931">
        <time>2022-01-19T13:50:15Z</time>
      </trkpt>
      <trkpt lat="34.315627" lon="108.779849">
        <time>2022-01-19T13:50:20Z</time>
      </trkpt>
      <trkpt lat="34.315544" lon="108.779732">
        <time>2022-01-19T13:50:25Z</time>
      </trkpt>
      <trkpt lat="34.315455" lon="108.779614">
        <time>2022-01-19T13:50:30Z</time>
      </trkpt>
      <trkpt lat="34.3154" lon="108.779466">
        <time>2022-01-19T13:50:35Z</time>
      </trkpt>
      <trkpt lat="34.315305" lon="108.779499">
        <time>2022-01-19T13:50:40Z</time>
      </trkpt>
      <trkpt lat="34.315338" lon="108.779537">
        <time>2022-01-19T13:50:45Z</time>
      </trkpt>
      <trkpt lat="34.315442" lon="108.779368">
        <time>2022-01-19T13:50:50Z</time>
      </trkpt>
      <trkpt lat="34.315535" lon="108.779221">
        <time>2022-01-19T13:50:55Z</time>
      </trkpt>
      <trkpt lat="34.315623" lon="108.779104">
        <time>2022-01-19T13:51:00Z</time>
      </trkpt>
      <trkpt lat="34.315689" lon="108.778967">
        <time>2022-01-19T13:51:05Z</time>
      </trkpt>
      <trkpt lat="34.315746" lon="108.77885">
        <time>2022-01-19T13:51:10Z</time>
      </trkpt>
      <trkpt lat="34.315769" lon="108.778679">
        <time>2022-01-19T13:51:15Z</time>
      </trkpt>
      <trkpt lat="34.315802" lon="108.778509">
        <time>2022-01-19T13:51:20Z</time>
      </trkpt>
      <trkpt lat="34.31582" lon="108.778375">
        <time>2022-01-19T13:51:25Z</time>
      </trkpt>
      <trkpt lat="34.315837" lon="108.778233">
        <time>2022-01-19T13:51:30Z</time>
      </trkpt>
      <trkpt lat="34.315952" lon="108.77814">
        <time>2022-01-19T13:51:35Z</time>
      </trkpt>
      <trkpt lat="34.316034" lon="108.778028">
        <time>2022-01-19T13:51:40Z</time>
      </trkpt>
      <trkpt lat="34.316086" lon="108.777947">
        <time>2022-01-19T13:51:45Z</time>
      </trkpt>
      <trkpt lat="34.316141" lon="108.77788">
        <time>2022-01-19T13:51:50Z</time>
      </trkpt>
      <trkpt lat="34.316193" lon="108.777768">
        <time>2022-01-19T13:51:55Z</time>
      </trkpt>
      <trkpt lat="34.316205" lon="108.777622">
        <time>2022-01-19T13:52:00Z</time>
      </trkpt>
      <trkpt lat="34.31627" lon="108.777482">
        <time>2022-01-19T13:52:05Z</time>
      </trkpt>
      <trkpt lat="34.316332" lon="108.777335">
        <time>2022-01-19T13:52:10Z</time>
      </trkpt>
      <trkpt lat="34.316363" lon="108.777226">
        <time>2022-01-19T13:52:15Z</time>
      </trkpt>
      <trkpt lat="34.316393" lon="108.777077">
        <time>2022-01-19T13:52:20Z</time>
      </trkpt>
      <trkpt lat="34.316393" lon="108.777009">
        <time>2022-01-19T13:52:25Z</time>
      </trkpt>
      <trkpt lat="34.316468" lon="108.777046">
        <time>2022-01-19T13:52:30Z</time>
      </trkpt>
      <trkpt lat="34.316582" lon="108.777065">
        <time>2022-01-19T13:52:35Z</time>
      </trkpt>
      <trkpt lat="34.3167" lon="108.777073">
        <time>2022-01-19T13:52:40Z</time>
      </trkpt>
      <trkpt lat="34.31678" lon="108.777069">
        <time>2022-01-19T13:52:45Z</time>
      </trkpt>
      <trkpt lat="34.316941" lon="108.77708">
        <time>2022-01-19T13:52:50Z</time>
      </trkpt>
      <trkpt lat="34.31705" lon="108.777075">
        <time>2022-01-19T13:52:55Z</time>
      </trkpt>
      <trkpt lat="34.317127" lon="108.777034">
        <time>2022-01-19T13:53:00Z</time>
      </trkpt>
      <trkpt lat="34.31728" lon="108.777015">
        <time>2022-01-19T13:53:05Z</time>
      </trkpt>
      <trkpt lat="34.317438" lon="108.777039">
        <time>2022-01-19T13:53:10Z</time>
      </trkpt>
      <trkpt lat="34.3176" lon="108.777049">
        <time>2022-01-19T13:53:15Z</time>
      </trkpt>
      <trkpt lat="34.317775" lon="108.777092">
        <time>2022-01-19T13:53:20Z</time>
      </trkpt>
      <trkpt lat="34.317829" lon="108.777226">
        <time>2022-01-19T13:53:25Z</time>
      </trkpt>
      <trkpt lat="34.317784" lon="108.777409">
        <time>2022-01-19T13:53:30Z</time>
      </trkpt>
      <trkpt lat="34.317691" lon="108.777541">
        <time>2022-01-19T13:53:35Z</time>
      </trkpt>
      <trkpt lat="34.317628" lon="108.777685">
        <time>2022-01-19T13:53:40Z</time>
      </trkpt>
      <trkpt lat="34.317561" lon="108.77782">
        <time>2022-01-19T13:53:45Z</time>
      </trkpt>
      <trkpt lat="34.317464" lon="108.777939">
        <time>2022-01-19T13:53:50Z</time>
      </trkpt>
      <trkpt lat="34.317417" lon="108.778038">
        <time>2022-01-19T13:53:55Z</time>
      </trkpt>
      <trkpt lat="34.3174" lon="108.778098">
        <time>2022-01-19T13:54:00Z</time>
      </trkpt>
      <trkpt lat="34.317383" lon="108.778192">
        <time>2022-01-19T13:54:05Z</time>
      </trkpt>
      <trkpt lat="34.317378" lon="108.778264">
        <time>2022-01-19T13:54:10Z</time>
      </trkpt>
      <trkpt lat="34.317326" lon="108.778337">
        <time>2022-01-19T13:54:15Z</time>
      </trkpt>
      <trkpt lat="34.317263" lon="108.778395">
        <time>2022-01-19T13:54:20Z</time>
      </trkpt>
      <trkpt lat="34.317184" lon="108.778449">
        <time>2022-01-19T13:54:25Z</time>
      </trkpt>
      <trkpt lat="34.317131" lon="108.778507">
        <time>2022-01-19T13:54:30Z</time>
      </trkpt>
      <trkpt lat="34.317082" lon="108.778599">
        <time>2022-01-19T13:54:35Z</time>
      </trkpt>
      <trkpt lat="34.317033" lon="108.778687">
        <time>2022-01-19T13:54:40Z</time>
      </trkpt>
      <trkpt lat="34.316967" lon="108.778784">
        <time>2022-01-19T13:54:45Z</time>
      </trkpt>
      <trkpt lat="34.3169" lon="108.778883">
        <time>2022-01-19T13:54:50Z</time>
      </trkpt>
      <trkpt lat="34.316866" lon="108.779">
        <time>2022-01-19T13:54:55Z</time>
      </trkpt>
      <trkpt lat="34.316799" lon="108.779093">
        <time>2022-01-19T13:55:00Z</time>
      </trkpt>
      <trkpt lat="34.316716" lon="108.779116">
        <time>2022-01-19T13:55:05Z</time>
      </trkpt>
      <trkpt lat="34.316653" lon="108.779069">
        <time>2022-01-19T13:55:10Z</time>
      </trkpt>
      <trkpt lat="34.316584" lon="108.77904">
        <time>2022-01-19T13:55:15Z</time>
      </trkpt>
      <trkpt lat="34.316462" lon="108.77907">
        <time>2022-01-19T13:55:20Z</time>
      </trkpt>
      <trkpt lat="34.316359" lon="108.779205">
        <time>2022-01-19T13:55:25Z</time>
      </trkpt>
      <trkpt lat="34.316286" lon="108.779333">
        <time>2022-01-19T13:55:30Z</time>
      </trkpt>
      <trkpt lat="34.316257" lon="108.77946">
        <time>2022-01-19T13:55:35Z</time>
      </trkpt>
      <trkpt lat="34.316204" lon="108.779576">
        <time>2022-01-19T13:55:40Z</time>
      </trkpt>
      <trkpt lat="34.316202" lon="108.779607">
        <time>2022-01-19T13:55:45Z</time>
      </trkpt>
      <trkpt lat="34.316221" lon="108.779655">
        <time>2022-01-19T13:55:50Z</time>
      </trkpt>
      <trkpt lat="34.316196" lon="108.779712">
        <time>2022-01-19T13:55:55Z</time>
      </trkpt>
      <trkpt lat="34.316147" lon="108.779743">
        <time>2022-01-19T13:56:00Z</time>
      </trkpt>
      <trkpt lat="34.316076" lon="108.779756">
        <time>2022-01-19T13:56:05Z</time>
      </trkpt>
      <trkpt lat="34.315995" lon="108.779774">
        <time>2022-01-19T13:56:10Z</time>
      </trkpt>
      <trkpt lat="34.315906" lon="108.779834">
        <time>2022-01-19T13:56:15Z</time>
      </trkpt>
      <trkpt lat="34.315827" lon="108.779916">
        <time>2022-01-19T13:56:20Z</time>
      </trkpt>
      <trkpt lat="34.315732" lon="108.779916">
        <time>2022-01-19T13:56:25Z</time>
      </trkpt>
      <trkpt lat="34.315655" lon="108.779914">
        <time>2022-01-19T13:56:30Z</time>
      </trkpt>
      <trkpt lat="34.315538" lon="108.77984">
        <time>2022-01-19T13:56:35Z</time>
      </trkpt>
      <trkpt lat="34.315464" lon="108.779755">
        <time>2022-01-19T13:56:40Z</time>
      </trkpt>
      <trkpt lat="34.315388" lon="108.779666">
        <time>2022-01-19T13:56:45Z</time>
      </trkpt>
      <trkpt lat="34.31535" lon="108.77954">
        <time>2022-01-19T13:56:50Z</time>
      </trkpt>
      <trkpt lat="34.315268" lon="108.779499">
        <time>2022-01-19T13:56:55Z</time>
      </trkpt>
      <trkpt lat="34.315269" lon="108.779449">
        <time>2022-01-19T13:57:00Z</time>
      </trkpt>
      <trkpt lat="34.315331" lon="108.779343">
        <time>2022-01-19T13:57:05Z</time>
      </trkpt>
      <trkpt lat="34.31541" lon="108.779224">
        <time>2022-01-19T13:57:10Z</time>
      </trkpt>
      <trkpt lat="34.315507" lon="108.779124">
        <time>2022-01-19T13:57:15Z</time>
      </trkpt>
      <trkpt lat="34.315597" lon="108.779024">
        <time>2022-01-19T13:57:20Z</time>
      </trkpt>
      <trkpt lat="34.315664" lon="108.778917">
        <time>2022-01-19T13:57:25Z</time>
      </trkpt>
      <trkpt lat="34.315701" lon="108.778781">
        <time>2022-01-19T13:57:30Z</time>
      </trkpt>
      <trkpt lat="34.31569" lon="108.778626">
        <time>2022-01-19T13:57:35Z</time>
      </trkpt>
      <trkpt lat="34.315695" lon="108.778519">
        <time>2022-01-19T13:57:40Z</time>
      </trkpt>
      <trkpt lat="34.31571" lon="108.778416">
        <time>2022-01-19T13:57:45Z</time>
      </trkpt>
      <trkpt lat="34.315775" lon="108.778338">
        <time>2022-01-19T13:57:50Z</time>
      </trkpt>
      <trkpt lat="34.31582" lon="108.778243">
        <time>2022-01-19T13:57:55Z</time>
      </trkpt>
      <trkpt lat="34.315883" lon="108.778128">
        <time>2022-01-19T13:58:00Z</time>
      </trkpt>
      <trkpt lat="34.315963" lon="108.778046">
        <time>2022-01-19T13:58:05Z</time>
      </trkpt>
      <trkpt lat="34.316051" lon="108.777938">
        <time>2022-01-19T13:58:10Z</time>
      </trkpt>
      <trkpt lat="34.316125" lon="108.777817">
        <time>2022-01-19T13:58:15Z</time>
      </trkpt>
      <trkpt lat="34.316183" lon="108.777702">
        <time>2022-01-19T13:58:20Z</time>
      </trkpt>
      <trkpt lat="34.316167" lon="108.777556">
        <time>2022-01-19T13:58:25Z</time>
      </trkpt>
      <trkpt lat="34.316215" lon="108.777433">
        <time>2022-01-19T13:58:30Z</time>
      </trkpt>
      <trkpt lat="34.316266" lon="108.777319">
        <time>2022-01-19T13:58:35Z</time>
      </trkpt>
      <trkpt lat="34.316319" lon="108.777236">
        <time>2022-01-19T13:58:40Z</time>
      </trkpt>
      <trkpt lat="34.31636" lon="108.777128">
        <time>2022-01-19T13:58:45Z</time>
      </trkpt>
      <trkpt lat="34.316391" lon="108.777026">
        <time>2022-01-19T13:58:50Z</time>
      </trkpt>
      <trkpt lat="34.316425" lon="108.777015">
        <time>2022-01-19T13:58:55Z</time>
      </trkpt>
      <trkpt lat="34.316487" lon="108.777053">
        <time>2022-01-19T13:59:00Z</time>
      </trkpt>
      <trkpt lat="34.316545" lon="108.777109">
        <time>2022-01-19T13:59:05Z</time>
      </trkpt>
      <trkpt lat="34.316601" lon="108.777109">
        <time>2022-01-19T13:59:10Z</time>
      </trkpt>
      <trkpt lat="34.316626" lon="108.777084">
        <time>2022-01-19T13:59:15Z</time>
      </trkpt>
      <trkpt lat="34.316704" lon="108.77705">
        <time>2022-01-19T13:59:20Z</time>
      </trkpt>
      <trkpt lat="34.316841" lon="108.777048">
        <time>2022-01-19T13:59:25Z</time>
      </trkpt>
      <trkpt lat="34.316969" lon="108.77706">
        <time>2022-01-19T13:59:30Z</time>
      </trkpt>
      <trkpt lat="34.317076" lon="108.777065">
        <time>2022-01-19T13:59:35Z</time>
      </trkpt>
      <trkpt lat="34.317163" lon="108.777045">
        <time>2022-01-19T13:59:40Z</time>
      </trkpt>
      <trkpt lat="34.317261" lon="108.777059">
        <time>2022-01-19T13:59:45Z</time>
      </trkpt>
      <trkpt lat="34.317387" lon="108.777084">
        <time>2022-01-19T13:59:50Z</time>
      </trkpt>
      <trkpt lat="34.317495" lon="108.777085">
        <time>2022-01-19T13:59:55Z</time>
      </trkpt>
      <trkpt lat="34.317608" lon="108.777087">
        <time>2022-01-19T14:00:00Z</time>
      </trkpt>
      <trkpt lat="34.317719" lon="108.777089">
        <time>2022-01-19T14:00:05Z</time>
      </trkpt>
      <trkpt lat="34.317777" lon="108.777133">
        <time>2022-01-19T14:00:10Z</time>
      </trkpt>
      <trkpt lat="34.317788" lon="108.777269">
        <time>2022-01-19T14:00:15Z</time>
      </trkpt>
      <trkpt lat="34.317784" lon="108.777417">
        <time>2022-01-19T14:00:20Z</time>
      </trkpt>
      <trkpt lat="34.317727" lon="108.777514">
        <time>2022-01-19T14:00:25Z</time>
      </trkpt>
      <trkpt lat="34.317658" lon="108.777625">
        <time>2022-01-19T14:00:30Z</time>
      </trkpt>
      <trkpt lat="34.317548" lon="108.77771">
        <time>2022-01-19T14:00:35Z</time>
      </trkpt>
      <trkpt lat="34.317477" lon="108.777802">
        <time>2022-01-19T14:00:40Z</time>
      </trkpt>
      <trkpt lat="34.31744" lon="108.777896">
        <time>2022-01-19T14:00:45Z</time>
      </trkpt>
      <trkpt lat="34.317359" lon="108.777936">
        <time>2022-01-19T14:00:50Z</time>
      </trkpt>
      <trkpt lat="34.317309" lon="108.778011">
        <time>2022-01-19T14:00:55Z</time>
      </trkpt>
      <trkpt lat="34.317318" lon="108.77814">
        <time>2022-01-19T14:01:00Z</time>
      </trkpt>
      <trkpt lat="34.317296" lon="108.778253">
        <time>2022-01-19T14:01:05Z</time>
      </trkpt>
      <trkpt lat="34.317254" lon="108.778355">
        <time>2022-01-19T14:01:10Z</time>
      </trkpt>
      <trkpt lat="34.317213" lon="108.778435">
        <time>2022-01-19T14:01:15Z</time>
      </trkpt>
      <trkpt lat="34.317149" lon="108.778513">
        <time>2022-01-19T14:01:20Z</time>
      </trkpt>
      <trkpt lat="34.317106" lon="108.778596">
        <time>2022-01-19T14:01:25Z</time>
      </trkpt>
      <trkpt lat="34.317009" lon="108.778694">
        <time>2022-01-19T14:01:30Z</time>
      </trkpt>
      <trkpt lat="34.31693" lon="108.778782">
        <time>2022-01-19T14:01:35Z</time>
      </trkpt>
      <trkpt lat="34.316872" lon="108.778886">
        <time>2022-01-19T14:01:40Z</time>
      </trkpt>
      <trkpt lat="34.316816" lon="108.778991">
        <time>2022-01-19T14:01:45Z</time>
      </trkpt>
      <trkpt lat="34.316799" lon="108.779088">
        <time>2022-01-19T14:01:50Z</time>
      </trkpt>
      <trkpt lat="34.316741" lon="108.779162">
        <time>2022-01-19T14:01:55Z</time>
      </trkpt>
      <trkpt lat="34.316686" lon="108.779225">
        <time>2022-01-19T14:02:00Z</time>
      </trkpt>
      <trkpt lat="34.316708" lon="108.779307">
        <time>2022-01-19T14:02:05Z</time>
      </trkpt>
      <trkpt lat="34.316711" lon="108.779373">
        <time>2022-01-19T14:02:10Z</time>
      </trkpt>
      <trkpt lat="34.316702" lon="108.779495">
        <time>2022-01-19T14:02:15Z</time>
      </trkpt>
      <trkpt lat="34.316626" lon="108.779648">
        <time>2022-01-19T14:02:20Z</time>
      </trkpt>
      <trkpt lat="34.316637" lon="108.779843">
        <time>2022-01-19T14:02:25Z</time>
      </trkpt>
      <trkpt lat="34.316606" lon="108.779976">
        <time>2022-01-19T14:02:30Z</time>
      </trkpt>
      <trkpt lat="34.316537" lon="108.780063">
        <time>2022-01-19T14:02:35Z</time>
      </trkpt>
      <trkpt lat="34.316447" lon="108.780186">
        <time>2022-01-19T14:02:40Z</time>
      </trkpt>
      <trkpt lat="34.316301" lon="108.780175">
        <time>2022-01-19T14:02:45Z</time>
      </trkpt>
      <trkpt lat="34.31617" lon="108.78008">
        <time>2022-01-19T14:02:50Z</time>
      </trkpt>
      <trkpt lat="34.316084" lon="108.779992">
        <time>2022-01-19T14:02:55Z</time>
      </trkpt>
      <trkpt lat="34.315933" lon="108.779924">
        <time>2022-01-19T14:03:00Z</time>
      </trkpt>
      <trkpt lat="34.315787" lon="108.779868">
        <time>2022-01-19T14:03:05Z</time>
      </trkpt>
      <trkpt lat="34.315661" lon="108.779842">
        <time>2022-01-19T14:03:10Z</time>
      </trkpt>
      <trkpt lat="34.315581" lon="108.779794">
        <time>2022-01-19T14:03:15Z</time>
      </trkpt>
      <trkpt lat="34.315496" lon="108.779698">
        <time>2022-01-19T14:03:20Z</time>
      </trkpt>
      <trkpt lat="34.315411" lon="108.779594">
        <time>2022-01-19T14:03:25Z</time>
      </trkpt>
      <trkpt lat="34.31529" lon="108.779523">
        <time>2022-01-19T14:03:30Z</time>
      </trkpt>
      <trkpt lat="34.315325" lon="108.779413">
        <time>2022-01-19T14:03:35Z</time>
      </trkpt>
      <trkpt lat="34.315424" lon="108.7793">
        <time>2022-01-19T14:03:40Z</time>
      </trkpt>
      <trkpt lat="34.315463" lon="108.779119">
        <time>2022-01-19T14:03:45Z</time>
      </trkpt>
      <trkpt lat="34.315598" lon="108.779018">
        <time>2022-01-19T14:03:50Z</time>
      </trkpt>
      <trkpt lat="34.315669" lon="108.778883">
        <time>2022-01-19T14:03:55Z</time>
      </trkpt>
      <trkpt lat="34.315745" lon="108.778752">
        <time>2022-01-19T14:04:00Z</time>
      </trkpt>
      <trkpt lat="34.315761" lon="108.778603">
        <time>2022-01-19T14:04:05Z</time>
      </trkpt>
      <trkpt lat="34.315739" lon="108.778436">
        <time>2022-01-19T14:04:10Z</time>
      </trkpt>
      <trkpt lat="34.315734" lon="108.77835">
        <time>2022-01-19T14:04:15Z</time>
      </trkpt>
      <trkpt lat="34.315791" lon="108.778264">
        <time>2022-01-19T14:04:20Z</time>
      </trkpt>
      <trkpt lat="34.315826" lon="108.778154">
        <time>2022-01-19T14:04:25Z</time>
      </trkpt>
      <trkpt lat="34.315875" lon="108.778006">
        <time>2022-01-19T14:04:30Z</time>
      </trkpt>
      <trkpt lat="34.315961" lon="108.777894">
        <time>2022-01-19T14:04:35Z</time>
      </trkpt>
      <trkpt lat="34.316028" lon="108.777766">
        <time>2022-01-19T14:04:40Z</time>
      </trkpt>
      <trkpt lat="34.316151" lon="108.777681">
        <time>2022-01-19T14:04:45Z</time>
      </trkpt>
      <trkpt lat="34.316208" lon="108.777568">
        <time>2022-01-19T14:04:50Z</time>
      </trkpt>
      <trkpt lat="34.316257" lon="108.777455">
        <time>2022-01-19T14:04:55Z</time>
      </trkpt>
      <trkpt lat="34.316292" lon="108.777305">
        <time>2022-01-19T14:05:00Z</time>
      </trkpt>
      <trkpt lat="34.316319" lon="108.777191">
        <time>2022-01-19T14:05:05Z</time>
      </trkpt>
      <trkpt lat="34.316358" lon="108.777079">
        <time>2022-01-19T14:05:10Z</time>
      </trkpt>
      <trkpt lat="34.316352" lon="108.776987">
        <time>2022-01-19T14:05:15Z</time>
      </trkpt>
      <trkpt lat="34.316411" lon="108.776985">
        <time>2022-01-19T14:05:20Z</time>
      </trkpt>
      <trkpt lat="34.316511" lon="108.777047">
        <time>2022-01-19T14:05:25Z</time>
      </trkpt>
      <trkpt lat="34.316597" lon="108.777082">
        <time>2022-01-19T14:05:30Z</time>
      </trkpt>
      <trkpt lat="34.316653" lon="108.777077">
        <time>2022-01-19T14:05:35Z</time>
      </trkpt>
      <trkpt lat="34.316747" lon="108.777062">
        <time>2022-01-19T14:05:40Z</time>
      </trkpt>
      <trkpt lat="34.316836" lon="108.777045">
        <time>2022-01-19T14:05:45Z</time>
      </trkpt>
      <trkpt lat="34.316963" lon="108.777048">
        <time>2022-01-19T14:05:50Z</time>
      </trkpt>
      <trkpt lat="34.317041" lon="108.777058">
        <time>2022-01-19T14:05:55Z</time>
      </trkpt>
      <trkpt lat="34.317139" lon="108.777012">
        <time>2022-01-19T14:06:00Z</time>
      </trkpt>
      <trkpt lat="34.317234" lon="108.777022">
        <time>2022-01-19T14:06:05Z</time>
      </trkpt>
      <trkpt lat="34.317351" lon="108.77709">
        <time>2022-01-19T14:06:10Z</time>
      </trkpt>
      <trkpt lat="34.317478" lon="108.777104">
        <time>2022-01-19T14:06:15Z</time>
      </trkpt>
      <trkpt lat="34.31756" lon="108.777099">
        <time>2022-01-19T14:06:20Z</time>
      </trkpt>
      <trkpt lat="34.317632" lon="108.777085">
        <time>2022-01-19T14:06:25Z</time>
      </trkpt>
      <trkpt lat="34.317717" lon="108.777086">
        <time>2022-01-19T14:06:30Z</time>
      </trkpt>
      <trkpt lat="34.317773" lon="108.777109">
        <time>2022-01-19T14:06:35Z</time>
      </trkpt>
      <trkpt lat="34.317764" lon="108.777227">
        <time>2022-01-19T14:06:40Z</time>
      </trkpt>
      <trkpt lat="34.31775" lon="108.777361">
        <time>2022-01-19T14:06:45Z</time>
      </trkpt>
      <trkpt lat="34.317667" lon="108.777469">
        <time>2022-01-19T14:06:50Z</time>
      </trkpt>
      <trkpt lat="34.317555" lon="108.777593">
        <time>2022-01-19T14:06:55Z</time>
      </trkpt>
      <trkpt lat="34.317466" lon="108.777717">
        <time>2022-01-19T14:07:00Z</time>
      </trkpt>
      <trkpt lat="34.317394" lon="108.777823">
        <time>2022-01-19T14:07:05Z</time>
      </trkpt>
      <trkpt lat="34.317345" lon="108.777862">
        <time>2022-01-19T14:07:10Z</time>
      </trkpt>
      <trkpt lat="34.317346" lon="108.777864">
        <time>2022-01-19T14:07:15Z</time>
      </trkpt>
      <trkpt lat="34.317382" lon="108.777894">
        <time>2022-01-19T14:07:20Z</time>
      </trkpt>
      <trkpt lat="34.317385" lon="108.778035">
        <time>2022-01-19T14:07:25Z</time>
      </trkpt>
      <trkpt lat="34.317347" lon="108.778188">
        <time>2022-01-19T14:07:30Z</time>
      </trkpt>
      <trkpt lat="34.317306" lon="108.7783">
        <time>2022-01-19T14:07:35Z</time>
      </trkpt>
      <trkpt lat="34.317266" lon="108.778374">
        <time>2022-01-19T14:07:40Z</time>
      </trkpt>
      <trkpt lat="34.317229" lon="108.778472">
        <time>2022-01-19T14:07:45Z</time>
      </trkpt>
      <trkpt lat="34.317181" lon="108.778569">
        <time>2022-01-19T14:07:50Z</time>
      </trkpt>
      <trkpt lat="34.317124" lon="108.778687">
        <time>2022-01-19T14:07:55Z</time>
      </trkpt>
      <trkpt lat="34.317063" lon="108.778785">
        <time>2022-01-19T14:08:00Z</time>
      </trkpt>
      <trkpt lat="34.317" lon="108.778877">
        <time>2022-01-19T14:08:05Z</time>
      </trkpt>
      <trkpt lat="34.31697" lon="108.778962">
        <time>2022-01-19T14:08:10Z</time>
      </trkpt>
      <trkpt lat="34.316922" lon="108.779052">
        <time>2022-01-19T14:08:15Z</time>
      </trkpt>
      <trkpt lat="34.316868" lon="108.779136">
        <time>2022-01-19T14:08:20Z</time>
      </trkpt>
      <trkpt lat="34.316826" lon="108.779264">
        <time>2022-01-19T14:08:25Z</time>
      </trkpt>
      <trkpt lat="34.316812" lon="108.779375">
        <time>2022-01-19T14:08:30Z</time>
      </trkpt>
      <trkpt lat="34.316817" lon="108.779484">
        <time>2022-01-19T14:08:35Z</time>
      </trkpt>
      <trkpt lat="34.316797" lon="108.779601">
        <time>2022-01-19T14:08:40Z</time>
      </trkpt>
      <trkpt lat="34.31675" lon="108.779698">
        <time>2022-01-19T14:08:45Z</time>
      </trkpt>
      <trkpt lat="34.316744" lon="108.779813">
        <time>2022-01-19T14:08:50Z</time>
      </trkpt>
      <trkpt lat="34.316738" lon="108.779925">
        <time>2022-01-19T14:08:55Z</time>
      </trkpt>
      <trkpt lat="34.316689" lon="108.780025">
        <time>2022-01-19T14:09:00Z</time>
      </trkpt>
      <trkpt lat="34.316685" lon="108.780142">
        <time>2022-01-19T14:09:05Z</time>
      </trkpt>
      <trkpt lat="34.316637" lon="108.780271">
        <time>2022-01-19T14:09:10Z</time>
      </trkpt>
      <trkpt lat="34.316545" lon="108.780336">
        <time>2022-01-19T14:09:15Z</time>
      </trkpt>
      <trkpt lat="34.316454" lon="108.7804">
        <time>2022-01-19T14:09:20Z</time>
      </trkpt>
      <trkpt lat="34.316403" lon="108.780392">
        <time>2022-01-19T14:09:25Z</time>
      </trkpt>
      <trkpt lat="34.316435" lon="108.780373">
        <time>2022-01-19T14:09:30Z</time>
      </trkpt>
      <trkpt lat="34.316421" lon="108.780286">
        <time>2022-01-19T14:09:35Z</time>
      </trkpt>
      <trkpt lat="34.316311" lon="108.780203">
        <time>2022-01-19T14:09:40Z</time>
      </trkpt>
      <trkpt lat="34.316221" lon="108.780137">
        <time>2022-01-19T14:09:45Z</time>
      </trkpt>
      <trkpt lat="34.31614" lon="108.780065">
        <time>2022-01-19T14:09:50Z</time>
      </trkpt>
      <trkpt lat="34.316069" lon="108.780004">
        <time>2022-01-19T14:09:55Z</time>
      </trkpt>
      <trkpt lat="34.316013" lon="108.780057">
        <time>2022-01-19T14:10:00Z</time>
      </trkpt>
      <trkpt lat="34.315901" lon="108.780059">
        <time>2022-01-19T14:10:05Z</time>
      </trkpt>
      <trkpt lat="34.315777" lon="108.779996">
        <time>2022-01-19T14:10:10Z</time>
      </trkpt>
      <trkpt lat="34.315684" lon="108.779957">
        <time>2022-01-19T14:10:15Z</time>
      </trkpt>
      <trkpt lat="34.315583" lon="108.779865">
        <time>2022-01-19T14:10:20Z</time>
      </trkpt>
      <trkpt lat="34.315516" lon="108.779804">
        <time>2022-01-19T14:10:25Z</time>
      </trkpt>
      <trkpt lat="34.315434" lon="108.779714">
        <time>2022-01-19T14:10:30Z</time>
      </trkpt>
      <trkpt lat="34.315377" lon="108.779636">
        <time>2022-01-19T14:10:35Z</time>
      </trkpt>
      <trkpt lat="34.315303" lon="108.779583">
        <time>2022-01-19T14:10:40Z</time>
      </trkpt>
      <trkpt lat="34.315283" lon="108.779557">
        <time>2022-01-19T14:10:45Z</time>
      </trkpt>
      <trkpt lat="34.315291" lon="108.779472">
        <time>2022-01-19T14:10:50Z</time>
      </trkpt>
      <trkpt lat="34.315371" lon="108.779389">
        <time>2022-01-19T14:10:55Z</time>
      </trkpt>
      <trkpt lat="34.315413" lon="108.779309">
        <time>2022-01-19T14:11:00Z</time>
      </trkpt>
      <trkpt lat="34.315496" lon="108.779245">
        <time>2022-01-19T14:11:05Z</time>
      </trkpt>
      <trkpt lat="34.315572" lon="108.779168">
        <time>2022-01-19T14:11:10Z</time>
      </trkpt>
      <trkpt lat="34.315615" lon="108.779053">
        <time>2022-01-19T14:11:15Z</time>
      </trkpt>
      <trkpt lat="34.315752" lon="108.779002">
        <time>2022-01-19T14:11:20Z</time>
      </trkpt>
      <trkpt lat="34.315815" lon="108.778924">
        <time>2022-01-19T14:11:25Z</time>
      </trkpt>
      <trkpt lat="34.315802" lon="108.778833">
        <time>2022-01-19T14:11:30Z</time>
      </trkpt>
      <trkpt lat="34.315742" lon="108.77869">
        <time>2022-01-19T14:11:35Z</time>
      </trkpt>
      <trkpt lat="34.315722" lon="108.778486">
        <time>2022-01-19T14:11:40Z</time>
      </trkpt>
      <trkpt lat="34.315756" lon="108.778367">
        <time>2022-01-19T14:11:45Z</time>
      </trkpt>
      <trkpt lat="34.31582" lon="108.778259">
        <time>2022-01-19T14:11:50Z</time>
      </trkpt>
      <trkpt lat="34.315912" lon="108.778176">
        <time>2022-01-19T14:11:55Z</time>
      </trkpt>
      <trkpt lat="34.315996" lon="108.778072">
        <time>2022-01-19T14:12:00Z</time>
      </trkpt>
      <trkpt lat="34.316119" lon="108.778021">
        <time>2022-01-19T14:12:05Z</time>
      </trkpt>
      <trkpt lat="34.316213" lon="108.777934">
        <time>2022-01-19T14:12:10Z</time>
      </trkpt>
      <trkpt lat="34.316247" lon="108.77779">
        <time>2022-01-19T14:12:15Z</time>
      </trkpt>
      <trkpt lat="34.316335" lon="108.777708">
        <time>2022-01-19T14:12:20Z</time>
      </trkpt>
      <trkpt lat="34.316487" lon="108.777578">
        <time>2022-01-19T14:12:25Z</time>
      </trkpt>
      <trkpt lat="34.316505" lon="108.777508">
        <time>2022-01-19T14:12:30Z</time>
      </trkpt>
      <trkpt lat="34.316474" lon="108.777379">
        <time>2022-01-19T14:12:35Z</time>
      </trkpt>
      <trkpt lat="34.316385" lon="108.777179">
        <time>2022-01-19T14:12:40Z</time>
      </trkpt>
      <trkpt lat="34.316328" lon="108.777047">
        <time>2022-01-19T14:12:45Z</time>
      </trkpt>
      <trkpt lat="34.316357" lon="108.777018">
        <time>2022-01-19T14:12:50Z</time>
      </trkpt>
      <trkpt lat="34.316402" lon="108.777029">
        <time>2022-01-19T14:12:55Z</time>
      </trkpt>
      <trkpt lat="34.316501" lon="108.777073">
        <time>2022-01-19T14:13:00Z</time>
      </trkpt>
      <trkpt lat="34.316588" lon="108.777092">
        <time>2022-01-19T14:13:05Z</time>
      </trkpt>
      <trkpt lat="34.316702" lon="108.777097">
        <time>2022-01-19T14:13:10Z</time>
      </trkpt>
      <trkpt lat="34.316805" lon="108.777085">
        <time>2022-01-19T14:13:15Z</time>
      </trkpt>
      <trkpt lat="34.316899" lon="108.777063">
        <time>2022-01-19T14:13:20Z</time>
      </trkpt>
      <trkpt lat="34.317016" lon="108.777093">
        <time>2022-01-19T14:13:25Z</time>
      </trkpt>
      <trkpt lat="34.317136" lon="108.777101">
        <time>2022-01-19T14:13:30Z</time>
      </trkpt>
      <trkpt lat="34.317222" lon="108.777098">
        <time>2022-01-19T14:13:35Z</time>
      </trkpt>
      <trkpt lat="34.317311" lon="108.777094">
        <time>2022-01-19T14:13:40Z</time>
      </trkpt>
      <trkpt lat="34.317404" lon="108.77711">
        <time>2022-01-19T14:13:45Z</time>
      </trkpt>
      <trkpt lat="34.317446" lon="108.777112">
        <time>2022-01-19T14:13:50Z</time>
      </trkpt>
      <trkpt lat="34.317533" lon="108.777107">
        <time>2022-01-19T14:13:55Z</time>
      </trkpt>
      <trkpt lat="34.317585" lon="108.777091">
        <time>2022-01-19T14:14:00Z</time>
      </trkpt>
      <trkpt lat="34.317656" lon="108.777102">
        <time>2022-01-19T14:14:05Z</time>
      </trkpt>
      <trkpt lat="34.317717" lon="108.777111">
        <time>2022-01-19T14:14:10Z</time>
      </trkpt>
      <trkpt lat="34.317733" lon="108.777102">
        <time>2022-01-19T14:14:15Z</time>
      </trkpt>
      <trkpt lat="34.317744" lon="108.7772">
        <time>2022-01-19T14:14:20Z</time>
      </trkpt>
      <trkpt lat="34.317759" lon="108.777301">
        <time>2022-01-19T14:14:25Z</time>
      </trkpt>
      <trkpt lat="34.317756" lon="108.777396">
        <time>2022-01-19T14:14:30Z</time>
      </trkpt>
      <trkpt lat="34.317754" lon="108.777478">
        <time>2022-01-19T14:14:35Z</time>
      </trkpt>
      <trkpt lat="34.317759" lon="108.777554">
        <time>2022-01-19T14:14:40Z</time>
      </trkpt>
      <trkpt lat="34.317742" lon="108.777632">
        <time>2022-01-19T14:14:45Z</time>
      </trkpt>
      <trkpt lat="34.3177" lon="108.777688">
        <time>2022-01-19T14:14:50Z</time>
      </trkpt>
      <trkpt lat="34.317697" lon="108.777755">
        <time>2022-01-19T14:14:55Z</time>
      </trkpt>
      <trkpt lat="34.317677" lon="108.777839">
        <time>2022-01-19T14:15:00Z</time>
      </trkpt>
      <trkpt lat="34.317645" lon="108.777916">
        <time>2022-01-19T14:15:05Z</time>
      </trkpt>
      <trkpt lat="34.317627" lon="108.777994">
        <time>2022-01-19T14:15:10Z</time>
      </trkpt>
      <trkpt lat="34.317587" lon="108.77805">
        <time>2022-01-19T14:15:15Z</time>
      </trkpt>
      <trkpt lat="34.317541" lon="108.778116">
        <time>2022-01-19T14:15:20Z</time>
      </trkpt>
      <trkpt lat="34.317503" lon="108.778175">
        <time>2022-01-19T14:15:25Z</time>
      </trkpt>
      <trkpt lat="34.31746" lon="108.778243">
        <time>2022-01-19T14:15:30Z</time>
      </trkpt>
      <trkpt lat="34.317428" lon="108.778315">
        <time>2022-01-19T14:15:35Z</time>
      </trkpt>
      <trkpt lat="34.317421" lon="108.778392">
        <time>2022-01-19T14:15:40Z</time>
      </trkpt>
      <trkpt lat="34.317418" lon="108.77848">
        <time>2022-01-19T14:15:45Z</time>
      </trkpt>
      <trkpt lat="34.317384" lon="108.778549">
        <time>2022-01-19T14:15:50Z</time>
      </trkpt>
      <trkpt lat="34.31733" lon="108.778601">
        <time>2022-01-19T14:15:55Z</time>
      </trkpt>
      <trkpt lat="34.317284" lon="108.778653">
        <time>2022-01-19T14:16:00Z</time>
      </trkpt>
      <trkpt lat="34.317249" lon="108.778719">
        <time>2022-01-19T14:16:05Z</time>
      </trkpt>
      <trkpt lat="34.317249" lon="108.778719">
        <time>2022-01-19T14:16:10Z</time>
      </trkpt>
      <trkpt lat="34.317201" lon="108.778776">
        <time>2022-01-19T14:16:15Z</time>
      </trkpt>
      <trkpt lat="34.317116" lon="108.77893">
        <time>2022-01-19T14:16:20Z</time>
      </trkpt>
      <trkpt lat="34.317087" lon="108.779003">
        <time>2022-01-19T14:16:25Z</time>
      </trkpt>
      <trkpt lat="34.317041" lon="108.779085">
        <time>2022-01-19T14:16:30Z</time>
      </trkpt>
      <trkpt lat="34.316979" lon="108.779155">
        <time>2022-01-19T14:16:35Z</time>
      </trkpt>
      <trkpt lat="34.316965" lon="108.779237">
        <time>2022-01-19T14:16:40Z</time>
      </trkpt>
      <trkpt lat="34.316959" lon="108.779298">
        <time>2022-01-19T14:16:45Z</time>
      </trkpt>
      <trkpt lat="34.31694" lon="108.779394">
        <time>2022-01-19T14:16:50Z</time>
      </trkpt>
      <trkpt lat="34.316917" lon="108.779488">
        <time>2022-01-19T14:16:55Z</time>
      </trkpt>
      <trkpt lat="34.316878" lon="108.779549">
        <time>2022-01-19T14:17:00Z</time>
      </trkpt>
      <trkpt lat="34.316833" lon="108.779527">
        <time>2022-01-19T14:17:05Z</time>
      </trkpt>
      <trkpt lat="34.316799" lon="108.779497">
        <time>2022-01-19T14:17:10Z</time>
      </trkpt>
      <trkpt lat="34.31679" lon="108.779427">
        <time>2022-01-19T14:17:15Z</time>
      </trkpt>
      <trkpt lat="34.316805" lon="108.779439">
        <time>2022-01-19T14:17:20Z</time>
      </trkpt>
      <trkpt lat="34.316781" lon="108.779497">
        <time>2022-01-19T14:17:25Z</time>
      </trkpt>
      <trkpt lat="34.316798" lon="108.779582">
        <time>2022-01-19T14:17:30Z</time>
      </trkpt>
      <trkpt lat="34.316851" lon="108.779721">
        <time>2022-01-19T14:17:35Z</time>
      </trkpt>
      <trkpt lat="34.316842" lon="108.779801">
        <time>2022-01-19T14:17:40Z</time>
      </trkpt>
      <trkpt lat="34.316788" lon="108.779901">
        <time>2022-01-19T14:17:45Z</time>
      </trkpt>
      <trkpt lat="34.31674" lon="108.780023">
        <time>2022-01-19T14:17:50Z</time>
      </trkpt>
      <trkpt lat="34.316727" lon="108.780069">
        <time>2022-01-19T14:17:55Z</time>
      </trkpt>
      <trkpt lat="34.316708" lon="108.780119">
        <time>2022-01-19T14:18:00Z</time>
      </trkpt>
      <trkpt lat="34.316661" lon="108.780223">
        <time>2022-01-19T14:18:05Z</time>
      </trkpt>
      <trkpt lat="34.316632" lon="108.780277">
        <time>2022-01-19T14:18:10Z</time>
      </trkpt>
      <trkpt lat="34.316579" lon="108.780327">
        <time>2022-01-19T14:18:15Z</time>
      </trkpt>
      <trkpt lat="34.316454" lon="108.780361">
        <time>2022-01-19T14:18:20Z</time>
      </trkpt>
      <trkpt lat="34.316349" lon="108.78038">
        <time>2022-01-19T14:19:43Z</time>
      </trkpt>
    </trkseg>
  </trk>
</gpx>