<?xml version="1.0" encoding="UTF-8"?>
<gpx xmlns="http://www.topografix.com/GPX/1/1" xmlns:gpxtpx="http://www.garmin.com/xmlschemas/TrackPointExtension/v1" xmlns:xsi="http://www.w3.org/2001/XMLSchema-instance" xsi:schemaLocation="http://www.topografix.com/GPX/1/1 http://www.topografix.com/GPX/1/1/gpx.xsd" version="1.1" creator="gpx.py -- https://github.com/tkrajina/gpxpy">
  <trk>
    <name>gpx from keep</name>
    <trkseg>
      <trkpt lat="34.316307" lon="108.780245">
        <time>2022-01-21T12:37:33Z</time>
      </trkpt>
      <trkpt lat="34.316307" lon="108.780245">
        <time>2022-01-21T12:37:38Z</time>
      </trkpt>
      <trkpt lat="34.316304" lon="108.780182">
        <time>2022-01-21T12:37:43Z</time>
      </trkpt>
      <trkpt lat="34.316292" lon="108.780162">
        <time>2022-01-21T12:37:48Z</time>
      </trkpt>
      <trkpt lat="34.316257" lon="108.780152">
        <time>2022-01-21T12:37:53Z</time>
      </trkpt>
      <trkpt lat="34.316209" lon="108.78013">
        <time>2022-01-21T12:37:58Z</time>
      </trkpt>
      <trkpt lat="34.316121" lon="108.780116">
        <time>2022-01-21T12:38:03Z</time>
      </trkpt>
      <trkpt lat="34.316036" lon="108.780066">
        <time>2022-01-21T12:38:08Z</time>
      </trkpt>
      <trkpt lat="34.315915" lon="108.780048">
        <time>2022-01-21T12:38:13Z</time>
      </trkpt>
      <trkpt lat="34.315797" lon="108.779942">
        <time>2022-01-21T12:38:18Z</time>
      </trkpt>
      <trkpt lat="34.315618" lon="108.779894">
        <time>2022-01-21T12:38:23Z</time>
      </trkpt>
      <trkpt lat="34.315458" lon="108.779868">
        <time>2022-01-21T12:38:28Z</time>
      </trkpt>
      <trkpt lat="34.315395" lon="108.779807">
        <time>2022-01-21T12:38:33Z</time>
      </trkpt>
      <trkpt lat="34.315337" lon="108.779733">
        <time>2022-01-21T12:38:38Z</time>
      </trkpt>
      <trkpt lat="34.315306" lon="108.779678">
        <time>2022-01-21T12:38:43Z</time>
      </trkpt>
      <trkpt lat="34.315267" lon="108.779616">
        <time>2022-01-21T12:38:48Z</time>
      </trkpt>
      <trkpt lat="34.315289" lon="108.779497">
        <time>2022-01-21T12:38:53Z</time>
      </trkpt>
      <trkpt lat="34.315355" lon="108.779385">
        <time>2022-01-21T12:38:58Z</time>
      </trkpt>
      <trkpt lat="34.315409" lon="108.779283">
        <time>2022-01-21T12:39:03Z</time>
      </trkpt>
      <trkpt lat="34.315512" lon="108.779182">
        <time>2022-01-21T12:39:08Z</time>
      </trkpt>
      <trkpt lat="34.315619" lon="108.779062">
        <time>2022-01-21T12:39:13Z</time>
      </trkpt>
      <trkpt lat="34.31567" lon="108.778987">
        <time>2022-01-21T12:39:18Z</time>
      </trkpt>
      <trkpt lat="34.315702" lon="108.778893">
        <time>2022-01-21T12:39:23Z</time>
      </trkpt>
      <trkpt lat="34.31569" lon="108.778778">
        <time>2022-01-21T12:39:28Z</time>
      </trkpt>
      <trkpt lat="34.315651" lon="108.778646">
        <time>2022-01-21T12:39:33Z</time>
      </trkpt>
      <trkpt lat="34.315685" lon="108.778473">
        <time>2022-01-21T12:39:38Z</time>
      </trkpt>
      <trkpt lat="34.315732" lon="108.778324">
        <time>2022-01-21T12:39:43Z</time>
      </trkpt>
      <trkpt lat="34.315801" lon="108.778178">
        <time>2022-01-21T12:39:48Z</time>
      </trkpt>
      <trkpt lat="34.3159" lon="108.778051">
        <time>2022-01-21T12:39:53Z</time>
      </trkpt>
      <trkpt lat="34.315955" lon="108.777951">
        <time>2022-01-21T12:39:58Z</time>
      </trkpt>
      <trkpt lat="34.316023" lon="108.777827">
        <time>2022-01-21T12:40:03Z</time>
      </trkpt>
      <trkpt lat="34.316049" lon="108.777691">
        <time>2022-01-21T12:40:08Z</time>
      </trkpt>
      <trkpt lat="34.316064" lon="108.77754">
        <time>2022-01-21T12:40:13Z</time>
      </trkpt>
      <trkpt lat="34.316074" lon="108.777455">
        <time>2022-01-21T12:40:18Z</time>
      </trkpt>
      <trkpt lat="34.316095" lon="108.777334">
        <time>2022-01-21T12:40:23Z</time>
      </trkpt>
      <trkpt lat="34.316156" lon="108.777201">
        <time>2022-01-21T12:40:28Z</time>
      </trkpt>
      <trkpt lat="34.31628" lon="108.777089">
        <time>2022-01-21T12:40:33Z</time>
      </trkpt>
      <trkpt lat="34.316367" lon="108.777079">
        <time>2022-01-21T12:40:38Z</time>
      </trkpt>
      <trkpt lat="34.316454" lon="108.777078">
        <time>2022-01-21T12:40:43Z</time>
      </trkpt>
      <trkpt lat="34.316527" lon="108.777122">
        <time>2022-01-21T12:40:48Z</time>
      </trkpt>
      <trkpt lat="34.316627" lon="108.777106">
        <time>2022-01-21T12:40:53Z</time>
      </trkpt>
      <trkpt lat="34.316707" lon="108.777067">
        <time>2022-01-21T12:40:58Z</time>
      </trkpt>
      <trkpt lat="34.316851" lon="108.777023">
        <time>2022-01-21T12:41:03Z</time>
      </trkpt>
      <trkpt lat="34.31703" lon="108.77705">
        <time>2022-01-21T12:41:08Z</time>
      </trkpt>
      <trkpt lat="34.317167" lon="108.777067">
        <time>2022-01-21T12:41:13Z</time>
      </trkpt>
      <trkpt lat="34.317283" lon="108.777065">
        <time>2022-01-21T12:41:18Z</time>
      </trkpt>
      <trkpt lat="34.31741" lon="108.777122">
        <time>2022-01-21T12:41:23Z</time>
      </trkpt>
      <trkpt lat="34.317523" lon="108.777117">
        <time>2022-01-21T12:41:28Z</time>
      </trkpt>
      <trkpt lat="34.317632" lon="108.777097">
        <time>2022-01-21T12:41:33Z</time>
      </trkpt>
      <trkpt lat="34.317753" lon="108.777095">
        <time>2022-01-21T12:41:38Z</time>
      </trkpt>
      <trkpt lat="34.317876" lon="108.777176">
        <time>2022-01-21T12:41:43Z</time>
      </trkpt>
      <trkpt lat="34.317833" lon="108.777286">
        <time>2022-01-21T12:41:48Z</time>
      </trkpt>
      <trkpt lat="34.317791" lon="108.777411">
        <time>2022-01-21T12:41:53Z</time>
      </trkpt>
      <trkpt lat="34.317762" lon="108.777493">
        <time>2022-01-21T12:41:58Z</time>
      </trkpt>
      <trkpt lat="34.317679" lon="108.777606">
        <time>2022-01-21T12:42:03Z</time>
      </trkpt>
      <trkpt lat="34.31757" lon="108.777717">
        <time>2022-01-21T12:42:08Z</time>
      </trkpt>
      <trkpt lat="34.317526" lon="108.777793">
        <time>2022-01-21T12:42:13Z</time>
      </trkpt>
      <trkpt lat="34.317517" lon="108.777919">
        <time>2022-01-21T12:42:18Z</time>
      </trkpt>
      <trkpt lat="34.317542" lon="108.778002">
        <time>2022-01-21T12:42:23Z</time>
      </trkpt>
      <trkpt lat="34.317486" lon="108.778134">
        <time>2022-01-21T12:42:28Z</time>
      </trkpt>
      <trkpt lat="34.317434" lon="108.778273">
        <time>2022-01-21T12:42:33Z</time>
      </trkpt>
      <trkpt lat="34.317395" lon="108.778391">
        <time>2022-01-21T12:42:38Z</time>
      </trkpt>
      <trkpt lat="34.317348" lon="108.778519">
        <time>2022-01-21T12:42:43Z</time>
      </trkpt>
      <trkpt lat="34.317252" lon="108.77858">
        <time>2022-01-21T12:42:48Z</time>
      </trkpt>
      <trkpt lat="34.317145" lon="108.77862">
        <time>2022-01-21T12:42:53Z</time>
      </trkpt>
      <trkpt lat="34.317034" lon="108.778674">
        <time>2022-01-21T12:42:58Z</time>
      </trkpt>
      <trkpt lat="34.316947" lon="108.778743">
        <time>2022-01-21T12:43:03Z</time>
      </trkpt>
      <trkpt lat="34.316866" lon="108.778821">
        <time>2022-01-21T12:43:08Z</time>
      </trkpt>
      <trkpt lat="34.316787" lon="108.77893">
        <time>2022-01-21T12:43:13Z</time>
      </trkpt>
      <trkpt lat="34.31673" lon="108.779077">
        <time>2022-01-21T12:43:18Z</time>
      </trkpt>
      <trkpt lat="34.31663" lon="108.779156">
        <time>2022-01-21T12:43:23Z</time>
      </trkpt>
      <trkpt lat="34.316553" lon="108.779202">
        <time>2022-01-21T12:43:28Z</time>
      </trkpt>
      <trkpt lat="34.316498" lon="108.779126">
        <time>2022-01-21T12:43:33Z</time>
      </trkpt>
      <trkpt lat="34.316409" lon="108.779123">
        <time>2022-01-21T12:43:38Z</time>
      </trkpt>
      <trkpt lat="34.31636" lon="108.779234">
        <time>2022-01-21T12:43:43Z</time>
      </trkpt>
      <trkpt lat="34.316301" lon="108.779355">
        <time>2022-01-21T12:43:48Z</time>
      </trkpt>
      <trkpt lat="34.316235" lon="108.779466">
        <time>2022-01-21T12:43:53Z</time>
      </trkpt>
      <trkpt lat="34.316174" lon="108.779566">
        <time>2022-01-21T12:43:58Z</time>
      </trkpt>
      <trkpt lat="34.316162" lon="108.779621">
        <time>2022-01-21T12:44:03Z</time>
      </trkpt>
      <trkpt lat="34.316143" lon="108.779673">
        <time>2022-01-21T12:44:08Z</time>
      </trkpt>
      <trkpt lat="34.316044" lon="108.779739">
        <time>2022-01-21T12:44:13Z</time>
      </trkpt>
      <trkpt lat="34.315958" lon="108.779848">
        <time>2022-01-21T12:44:18Z</time>
      </trkpt>
      <trkpt lat="34.31597" lon="108.779945">
        <time>2022-01-21T12:44:23Z</time>
      </trkpt>
      <trkpt lat="34.31596" lon="108.780007">
        <time>2022-01-21T12:44:28Z</time>
      </trkpt>
      <trkpt lat="34.315892" lon="108.779992">
        <time>2022-01-21T12:44:33Z</time>
      </trkpt>
      <trkpt lat="34.31577" lon="108.779939">
        <time>2022-01-21T12:44:38Z</time>
      </trkpt>
      <trkpt lat="34.315639" lon="108.779886">
        <time>2022-01-21T12:44:43Z</time>
      </trkpt>
      <trkpt lat="34.315527" lon="108.779837">
        <time>2022-01-21T12:44:48Z</time>
      </trkpt>
      <trkpt lat="34.315445" lon="108.77979">
        <time>2022-01-21T12:44:53Z</time>
      </trkpt>
      <trkpt lat="34.3154" lon="108.779737">
        <time>2022-01-21T12:44:58Z</time>
      </trkpt>
      <trkpt lat="34.315348" lon="108.779704">
        <time>2022-01-21T12:45:03Z</time>
      </trkpt>
      <trkpt lat="34.315346" lon="108.779679">
        <time>2022-01-21T12:45:08Z</time>
      </trkpt>
      <trkpt lat="34.315418" lon="108.779638">
        <time>2022-01-21T12:45:13Z</time>
      </trkpt>
      <trkpt lat="34.31551" lon="108.779478">
        <time>2022-01-21T12:45:18Z</time>
      </trkpt>
      <trkpt lat="34.315569" lon="108.779342">
        <time>2022-01-21T12:45:23Z</time>
      </trkpt>
      <trkpt lat="34.315623" lon="108.779256">
        <time>2022-01-21T12:45:28Z</time>
      </trkpt>
      <trkpt lat="34.315676" lon="108.779148">
        <time>2022-01-21T12:45:33Z</time>
      </trkpt>
      <trkpt lat="34.315747" lon="108.779011">
        <time>2022-01-21T12:45:38Z</time>
      </trkpt>
      <trkpt lat="34.31576" lon="108.778899">
        <time>2022-01-21T12:45:43Z</time>
      </trkpt>
      <trkpt lat="34.31572" lon="108.778781">
        <time>2022-01-21T12:45:48Z</time>
      </trkpt>
      <trkpt lat="34.31567" lon="108.778624">
        <time>2022-01-21T12:45:53Z</time>
      </trkpt>
      <trkpt lat="34.315679" lon="108.778501">
        <time>2022-01-21T12:45:58Z</time>
      </trkpt>
      <trkpt lat="34.315697" lon="108.778387">
        <time>2022-01-21T12:46:03Z</time>
      </trkpt>
      <trkpt lat="34.315717" lon="108.778306">
        <time>2022-01-21T12:46:08Z</time>
      </trkpt>
      <trkpt lat="34.315774" lon="108.778209">
        <time>2022-01-21T12:46:13Z</time>
      </trkpt>
      <trkpt lat="34.31584" lon="108.778074">
        <time>2022-01-21T12:46:18Z</time>
      </trkpt>
      <trkpt lat="34.315881" lon="108.777996">
        <time>2022-01-21T12:46:23Z</time>
      </trkpt>
      <trkpt lat="34.315932" lon="108.777909">
        <time>2022-01-21T12:46:28Z</time>
      </trkpt>
      <trkpt lat="34.31597" lon="108.777798">
        <time>2022-01-21T12:46:33Z</time>
      </trkpt>
      <trkpt lat="34.316027" lon="108.777684">
        <time>2022-01-21T12:46:38Z</time>
      </trkpt>
      <trkpt lat="34.316053" lon="108.777561">
        <time>2022-01-21T12:46:43Z</time>
      </trkpt>
      <trkpt lat="34.31609" lon="108.777449">
        <time>2022-01-21T12:46:48Z</time>
      </trkpt>
      <trkpt lat="34.316114" lon="108.777343">
        <time>2022-01-21T12:46:53Z</time>
      </trkpt>
      <trkpt lat="34.31615" lon="108.77722">
        <time>2022-01-21T12:46:58Z</time>
      </trkpt>
      <trkpt lat="34.316198" lon="108.777144">
        <time>2022-01-21T12:47:03Z</time>
      </trkpt>
      <trkpt lat="34.316257" lon="108.77704">
        <time>2022-01-21T12:47:08Z</time>
      </trkpt>
      <trkpt lat="34.316307" lon="108.777017">
        <time>2022-01-21T12:47:13Z</time>
      </trkpt>
      <trkpt lat="34.316366" lon="108.777035">
        <time>2022-01-21T12:47:18Z</time>
      </trkpt>
      <trkpt lat="34.316388" lon="108.77705">
        <time>2022-01-21T12:47:23Z</time>
      </trkpt>
      <trkpt lat="34.316434" lon="108.77707">
        <time>2022-01-21T12:47:28Z</time>
      </trkpt>
      <trkpt lat="34.316511" lon="108.777097">
        <time>2022-01-21T12:47:33Z</time>
      </trkpt>
      <trkpt lat="34.316585" lon="108.777083">
        <time>2022-01-21T12:47:38Z</time>
      </trkpt>
      <trkpt lat="34.316683" lon="108.777046">
        <time>2022-01-21T12:47:43Z</time>
      </trkpt>
      <trkpt lat="34.316763" lon="108.776993">
        <time>2022-01-21T12:47:48Z</time>
      </trkpt>
      <trkpt lat="34.316916" lon="108.777018">
        <time>2022-01-21T12:47:53Z</time>
      </trkpt>
      <trkpt lat="34.316992" lon="108.777072">
        <time>2022-01-21T12:47:58Z</time>
      </trkpt>
      <trkpt lat="34.317085" lon="108.777048">
        <time>2022-01-21T12:48:03Z</time>
      </trkpt>
      <trkpt lat="34.317173" lon="108.777025">
        <time>2022-01-21T12:48:08Z</time>
      </trkpt>
      <trkpt lat="34.317326" lon="108.777046">
        <time>2022-01-21T12:48:13Z</time>
      </trkpt>
      <trkpt lat="34.317462" lon="108.777068">
        <time>2022-01-21T12:48:18Z</time>
      </trkpt>
      <trkpt lat="34.317588" lon="108.777084">
        <time>2022-01-21T12:48:23Z</time>
      </trkpt>
      <trkpt lat="34.317684" lon="108.777075">
        <time>2022-01-21T12:48:28Z</time>
      </trkpt>
      <trkpt lat="34.31772" lon="108.777077">
        <time>2022-01-21T12:48:33Z</time>
      </trkpt>
      <trkpt lat="34.317733" lon="108.777152">
        <time>2022-01-21T12:48:38Z</time>
      </trkpt>
      <trkpt lat="34.317736" lon="108.777281">
        <time>2022-01-21T12:48:43Z</time>
      </trkpt>
      <trkpt lat="34.317702" lon="108.777387">
        <time>2022-01-21T12:48:48Z</time>
      </trkpt>
      <trkpt lat="34.317608" lon="108.777486">
        <time>2022-01-21T12:48:53Z</time>
      </trkpt>
      <trkpt lat="34.317598" lon="108.777595">
        <time>2022-01-21T12:48:58Z</time>
      </trkpt>
      <trkpt lat="34.317551" lon="108.7777">
        <time>2022-01-21T12:49:03Z</time>
      </trkpt>
      <trkpt lat="34.317555" lon="108.777795">
        <time>2022-01-21T12:49:08Z</time>
      </trkpt>
      <trkpt lat="34.317525" lon="108.777878">
        <time>2022-01-21T12:49:13Z</time>
      </trkpt>
      <trkpt lat="34.317511" lon="108.777966">
        <time>2022-01-21T12:49:18Z</time>
      </trkpt>
      <trkpt lat="34.31746" lon="108.7781">
        <time>2022-01-21T12:49:23Z</time>
      </trkpt>
      <trkpt lat="34.317391" lon="108.778245">
        <time>2022-01-21T12:49:28Z</time>
      </trkpt>
      <trkpt lat="34.317317" lon="108.778364">
        <time>2022-01-21T12:49:33Z</time>
      </trkpt>
      <trkpt lat="34.317256" lon="108.778454">
        <time>2022-01-21T12:49:38Z</time>
      </trkpt>
      <trkpt lat="34.317167" lon="108.778518">
        <time>2022-01-21T12:49:43Z</time>
      </trkpt>
      <trkpt lat="34.317065" lon="108.778573">
        <time>2022-01-21T12:49:48Z</time>
      </trkpt>
      <trkpt lat="34.316981" lon="108.778625">
        <time>2022-01-21T12:49:53Z</time>
      </trkpt>
      <trkpt lat="34.316908" lon="108.778706">
        <time>2022-01-21T12:49:58Z</time>
      </trkpt>
      <trkpt lat="34.316872" lon="108.778794">
        <time>2022-01-21T12:50:03Z</time>
      </trkpt>
      <trkpt lat="34.316814" lon="108.778894">
        <time>2022-01-21T12:50:08Z</time>
      </trkpt>
      <trkpt lat="34.316775" lon="108.778998">
        <time>2022-01-21T12:50:13Z</time>
      </trkpt>
      <trkpt lat="34.316799" lon="108.779188">
        <time>2022-01-21T12:50:18Z</time>
      </trkpt>
      <trkpt lat="34.316842" lon="108.77937">
        <time>2022-01-21T12:50:23Z</time>
      </trkpt>
      <trkpt lat="34.316857" lon="108.779513">
        <time>2022-01-21T12:50:28Z</time>
      </trkpt>
      <trkpt lat="34.316819" lon="108.779609">
        <time>2022-01-21T12:50:33Z</time>
      </trkpt>
      <trkpt lat="34.316757" lon="108.779689">
        <time>2022-01-21T12:50:38Z</time>
      </trkpt>
      <trkpt lat="34.316644" lon="108.779806">
        <time>2022-01-21T12:50:43Z</time>
      </trkpt>
      <trkpt lat="34.316562" lon="108.779899">
        <time>2022-01-21T12:50:48Z</time>
      </trkpt>
      <trkpt lat="34.316468" lon="108.779983">
        <time>2022-01-21T12:50:53Z</time>
      </trkpt>
      <trkpt lat="34.316412" lon="108.780115">
        <time>2022-01-21T12:50:58Z</time>
      </trkpt>
      <trkpt lat="34.31647" lon="108.780278">
        <time>2022-01-21T12:51:03Z</time>
      </trkpt>
      <trkpt lat="34.316499" lon="108.780413">
        <time>2022-01-21T12:51:08Z</time>
      </trkpt>
      <trkpt lat="34.316449" lon="108.780415">
        <time>2022-01-21T12:51:13Z</time>
      </trkpt>
      <trkpt lat="34.3164" lon="108.780339">
        <time>2022-01-21T12:51:18Z</time>
      </trkpt>
      <trkpt lat="34.316312" lon="108.780247">
        <time>2022-01-21T12:51:23Z</time>
      </trkpt>
      <trkpt lat="34.316218" lon="108.780166">
        <time>2022-01-21T12:51:28Z</time>
      </trkpt>
      <trkpt lat="34.316129" lon="108.780115">
        <time>2022-01-21T12:51:33Z</time>
      </trkpt>
      <trkpt lat="34.316019" lon="108.78008">
        <time>2022-01-21T12:51:38Z</time>
      </trkpt>
      <trkpt lat="34.315912" lon="108.780062">
        <time>2022-01-21T12:51:43Z</time>
      </trkpt>
      <trkpt lat="34.315807" lon="108.780039">
        <time>2022-01-21T12:51:48Z</time>
      </trkpt>
      <trkpt lat="34.315708" lon="108.780001">
        <time>2022-01-21T12:51:53Z</time>
      </trkpt>
      <trkpt lat="34.315717" lon="108.779884">
        <time>2022-01-21T12:51:58Z</time>
      </trkpt>
      <trkpt lat="34.31574" lon="108.779798">
        <time>2022-01-21T12:52:03Z</time>
      </trkpt>
      <trkpt lat="34.31574" lon="108.779685">
        <time>2022-01-21T12:52:08Z</time>
      </trkpt>
      <trkpt lat="34.315729" lon="108.779584">
        <time>2022-01-21T12:52:13Z</time>
      </trkpt>
      <trkpt lat="34.315754" lon="108.779434">
        <time>2022-01-21T12:52:18Z</time>
      </trkpt>
      <trkpt lat="34.315787" lon="108.779293">
        <time>2022-01-21T12:52:23Z</time>
      </trkpt>
      <trkpt lat="34.315833" lon="108.779157">
        <time>2022-01-21T12:52:28Z</time>
      </trkpt>
      <trkpt lat="34.315906" lon="108.779032">
        <time>2022-01-21T12:52:33Z</time>
      </trkpt>
      <trkpt lat="34.316008" lon="108.778941">
        <time>2022-01-21T12:52:38Z</time>
      </trkpt>
      <trkpt lat="34.31605" lon="108.778834">
        <time>2022-01-21T12:52:43Z</time>
      </trkpt>
      <trkpt lat="34.316023" lon="108.778747">
        <time>2022-01-21T12:52:48Z</time>
      </trkpt>
      <trkpt lat="34.315924" lon="108.778704">
        <time>2022-01-21T12:52:53Z</time>
      </trkpt>
      <trkpt lat="34.315859" lon="108.77869">
        <time>2022-01-21T12:52:58Z</time>
      </trkpt>
      <trkpt lat="34.315747" lon="108.778662">
        <time>2022-01-21T12:53:03Z</time>
      </trkpt>
      <trkpt lat="34.315658" lon="108.778679">
        <time>2022-01-21T12:53:08Z</time>
      </trkpt>
      <trkpt lat="34.315603" lon="108.778795">
        <time>2022-01-21T12:53:13Z</time>
      </trkpt>
      <trkpt lat="34.315539" lon="108.778868">
        <time>2022-01-21T12:53:18Z</time>
      </trkpt>
      <trkpt lat="34.315471" lon="108.778929">
        <time>2022-01-21T12:53:23Z</time>
      </trkpt>
      <trkpt lat="34.315358" lon="108.778981">
        <time>2022-01-21T12:53:28Z</time>
      </trkpt>
      <trkpt lat="34.315258" lon="108.779067">
        <time>2022-01-21T12:53:33Z</time>
      </trkpt>
      <trkpt lat="34.315216" lon="108.779173">
        <time>2022-01-21T12:53:38Z</time>
      </trkpt>
      <trkpt lat="34.31519" lon="108.77929">
        <time>2022-01-21T12:53:43Z</time>
      </trkpt>
      <trkpt lat="34.315186" lon="108.779354">
        <time>2022-01-21T12:53:48Z</time>
      </trkpt>
      <trkpt lat="34.315259" lon="108.779443">
        <time>2022-01-21T12:53:53Z</time>
      </trkpt>
      <trkpt lat="34.315262" lon="108.779473">
        <time>2022-01-21T12:53:58Z</time>
      </trkpt>
      <trkpt lat="34.315234" lon="108.779499">
        <time>2022-01-21T12:54:03Z</time>
      </trkpt>
      <trkpt lat="34.315152" lon="108.779457">
        <time>2022-01-21T12:54:08Z</time>
      </trkpt>
      <trkpt lat="34.315217" lon="108.77938">
        <time>2022-01-21T12:54:13Z</time>
      </trkpt>
      <trkpt lat="34.315314" lon="108.779247">
        <time>2022-01-21T12:54:18Z</time>
      </trkpt>
      <trkpt lat="34.315419" lon="108.779155">
        <time>2022-01-21T12:54:23Z</time>
      </trkpt>
      <trkpt lat="34.315531" lon="108.77905">
        <time>2022-01-21T12:54:28Z</time>
      </trkpt>
      <trkpt lat="34.31561" lon="108.778963">
        <time>2022-01-21T12:54:33Z</time>
      </trkpt>
      <trkpt lat="34.315654" lon="108.778853">
        <time>2022-01-21T12:54:38Z</time>
      </trkpt>
      <trkpt lat="34.315679" lon="108.778729">
        <time>2022-01-21T12:54:43Z</time>
      </trkpt>
      <trkpt lat="34.315702" lon="108.778612">
        <time>2022-01-21T12:54:48Z</time>
      </trkpt>
      <trkpt lat="34.315677" lon="108.778525">
        <time>2022-01-21T12:54:53Z</time>
      </trkpt>
      <trkpt lat="34.315668" lon="108.778402">
        <time>2022-01-21T12:54:58Z</time>
      </trkpt>
      <trkpt lat="34.315711" lon="108.778326">
        <time>2022-01-21T12:55:03Z</time>
      </trkpt>
      <trkpt lat="34.315785" lon="108.778255">
        <time>2022-01-21T12:55:08Z</time>
      </trkpt>
      <trkpt lat="34.315865" lon="108.7782">
        <time>2022-01-21T12:55:13Z</time>
      </trkpt>
      <trkpt lat="34.315938" lon="108.778122">
        <time>2022-01-21T12:55:18Z</time>
      </trkpt>
      <trkpt lat="34.315992" lon="108.778007">
        <time>2022-01-21T12:55:23Z</time>
      </trkpt>
      <trkpt lat="34.31606" lon="108.777902">
        <time>2022-01-21T12:55:28Z</time>
      </trkpt>
      <trkpt lat="34.316076" lon="108.777815">
        <time>2022-01-21T12:55:33Z</time>
      </trkpt>
      <trkpt lat="34.316108" lon="108.777682">
        <time>2022-01-21T12:55:38Z</time>
      </trkpt>
      <trkpt lat="34.316136" lon="108.777534">
        <time>2022-01-21T12:55:43Z</time>
      </trkpt>
      <trkpt lat="34.316158" lon="108.7774">
        <time>2022-01-21T12:55:48Z</time>
      </trkpt>
      <trkpt lat="34.316229" lon="108.777325">
        <time>2022-01-21T12:55:53Z</time>
      </trkpt>
      <trkpt lat="34.316273" lon="108.7772">
        <time>2022-01-21T12:55:58Z</time>
      </trkpt>
      <trkpt lat="34.316291" lon="108.777089">
        <time>2022-01-21T12:56:03Z</time>
      </trkpt>
      <trkpt lat="34.316326" lon="108.777008">
        <time>2022-01-21T12:56:08Z</time>
      </trkpt>
      <trkpt lat="34.316386" lon="108.777034">
        <time>2022-01-21T12:56:13Z</time>
      </trkpt>
      <trkpt lat="34.316465" lon="108.777065">
        <time>2022-01-21T12:56:18Z</time>
      </trkpt>
      <trkpt lat="34.316536" lon="108.777117">
        <time>2022-01-21T12:56:23Z</time>
      </trkpt>
      <trkpt lat="34.316607" lon="108.777125">
        <time>2022-01-21T12:56:28Z</time>
      </trkpt>
      <trkpt lat="34.316715" lon="108.777044">
        <time>2022-01-21T12:56:33Z</time>
      </trkpt>
      <trkpt lat="34.316857" lon="108.777032">
        <time>2022-01-21T12:56:38Z</time>
      </trkpt>
      <trkpt lat="34.316998" lon="108.77704">
        <time>2022-01-21T12:56:43Z</time>
      </trkpt>
      <trkpt lat="34.317067" lon="108.777044">
        <time>2022-01-21T12:56:48Z</time>
      </trkpt>
      <trkpt lat="34.317153" lon="108.777013">
        <time>2022-01-21T12:56:53Z</time>
      </trkpt>
      <trkpt lat="34.317296" lon="108.777046">
        <time>2022-01-21T12:56:58Z</time>
      </trkpt>
      <trkpt lat="34.317444" lon="108.777082">
        <time>2022-01-21T12:57:03Z</time>
      </trkpt>
      <trkpt lat="34.317541" lon="108.777061">
        <time>2022-01-21T12:57:08Z</time>
      </trkpt>
      <trkpt lat="34.317627" lon="108.777062">
        <time>2022-01-21T12:57:13Z</time>
      </trkpt>
      <trkpt lat="34.317668" lon="108.777104">
        <time>2022-01-21T12:57:18Z</time>
      </trkpt>
      <trkpt lat="34.317687" lon="108.777178">
        <time>2022-01-21T12:57:23Z</time>
      </trkpt>
      <trkpt lat="34.317726" lon="108.777272">
        <time>2022-01-21T12:57:28Z</time>
      </trkpt>
      <trkpt lat="34.317735" lon="108.777339">
        <time>2022-01-21T12:57:33Z</time>
      </trkpt>
      <trkpt lat="34.317694" lon="108.777444">
        <time>2022-01-21T12:57:38Z</time>
      </trkpt>
      <trkpt lat="34.31763" lon="108.777538">
        <time>2022-01-21T12:57:43Z</time>
      </trkpt>
      <trkpt lat="34.317562" lon="108.777598">
        <time>2022-01-21T12:57:48Z</time>
      </trkpt>
      <trkpt lat="34.317507" lon="108.777674">
        <time>2022-01-21T12:57:53Z</time>
      </trkpt>
      <trkpt lat="34.317489" lon="108.777767">
        <time>2022-01-21T12:57:58Z</time>
      </trkpt>
      <trkpt lat="34.317445" lon="108.777898">
        <time>2022-01-21T12:58:03Z</time>
      </trkpt>
      <trkpt lat="34.317401" lon="108.778112">
        <time>2022-01-21T12:58:08Z</time>
      </trkpt>
      <trkpt lat="34.317373" lon="108.778276">
        <time>2022-01-21T12:58:13Z</time>
      </trkpt>
      <trkpt lat="34.317355" lon="108.778371">
        <time>2022-01-21T12:58:18Z</time>
      </trkpt>
      <trkpt lat="34.317308" lon="108.778463">
        <time>2022-01-21T12:58:23Z</time>
      </trkpt>
      <trkpt lat="34.317223" lon="108.778486">
        <time>2022-01-21T12:58:28Z</time>
      </trkpt>
      <trkpt lat="34.317152" lon="108.778515">
        <time>2022-01-21T12:58:33Z</time>
      </trkpt>
      <trkpt lat="34.317049" lon="108.778551">
        <time>2022-01-21T12:58:38Z</time>
      </trkpt>
      <trkpt lat="34.316992" lon="108.778553">
        <time>2022-01-21T12:58:43Z</time>
      </trkpt>
      <trkpt lat="34.316908" lon="108.778659">
        <time>2022-01-21T12:58:48Z</time>
      </trkpt>
      <trkpt lat="34.316824" lon="108.778838">
        <time>2022-01-21T12:58:53Z</time>
      </trkpt>
      <trkpt lat="34.316803" lon="108.778935">
        <time>2022-01-21T12:58:58Z</time>
      </trkpt>
      <trkpt lat="34.316836" lon="108.779154">
        <time>2022-01-21T12:59:03Z</time>
      </trkpt>
      <trkpt lat="34.316837" lon="108.779383">
        <time>2022-01-21T12:59:08Z</time>
      </trkpt>
      <trkpt lat="34.316757" lon="108.779421">
        <time>2022-01-21T12:59:13Z</time>
      </trkpt>
      <trkpt lat="34.316679" lon="108.779331">
        <time>2022-01-21T12:59:18Z</time>
      </trkpt>
      <trkpt lat="34.316625" lon="108.779237">
        <time>2022-01-21T12:59:23Z</time>
      </trkpt>
      <trkpt lat="34.316575" lon="108.779166">
        <time>2022-01-21T12:59:28Z</time>
      </trkpt>
      <trkpt lat="34.316516" lon="108.779208">
        <time>2022-01-21T12:59:33Z</time>
      </trkpt>
      <trkpt lat="34.316481" lon="108.779303">
        <time>2022-01-21T12:59:38Z</time>
      </trkpt>
      <trkpt lat="34.316411" lon="108.779383">
        <time>2022-01-21T12:59:43Z</time>
      </trkpt>
      <trkpt lat="34.316343" lon="108.779513">
        <time>2022-01-21T12:59:48Z</time>
      </trkpt>
      <trkpt lat="34.316278" lon="108.77961">
        <time>2022-01-21T12:59:53Z</time>
      </trkpt>
      <trkpt lat="34.316224" lon="108.779675">
        <time>2022-01-21T12:59:58Z</time>
      </trkpt>
      <trkpt lat="34.316213" lon="108.779733">
        <time>2022-01-21T13:00:03Z</time>
      </trkpt>
      <trkpt lat="34.31618" lon="108.779777">
        <time>2022-01-21T13:00:08Z</time>
      </trkpt>
      <trkpt lat="34.316133" lon="108.779864">
        <time>2022-01-21T13:00:13Z</time>
      </trkpt>
      <trkpt lat="34.316122" lon="108.779977">
        <time>2022-01-21T13:00:18Z</time>
      </trkpt>
      <trkpt lat="34.316088" lon="108.780025">
        <time>2022-01-21T13:00:23Z</time>
      </trkpt>
      <trkpt lat="34.316005" lon="108.780069">
        <time>2022-01-21T13:00:28Z</time>
      </trkpt>
      <trkpt lat="34.315875" lon="108.780023">
        <time>2022-01-21T13:00:33Z</time>
      </trkpt>
      <trkpt lat="34.315716" lon="108.779981">
        <time>2022-01-21T13:00:38Z</time>
      </trkpt>
      <trkpt lat="34.315588" lon="108.779949">
        <time>2022-01-21T13:00:43Z</time>
      </trkpt>
      <trkpt lat="34.315484" lon="108.779873">
        <time>2022-01-21T13:00:48Z</time>
      </trkpt>
      <trkpt lat="34.31538" lon="108.7798">
        <time>2022-01-21T13:00:53Z</time>
      </trkpt>
      <trkpt lat="34.315302" lon="108.779767">
        <time>2022-01-21T13:00:58Z</time>
      </trkpt>
      <trkpt lat="34.315205" lon="108.77969">
        <time>2022-01-21T13:01:03Z</time>
      </trkpt>
      <trkpt lat="34.315165" lon="108.779611">
        <time>2022-01-21T13:01:08Z</time>
      </trkpt>
      <trkpt lat="34.315187" lon="108.779511">
        <time>2022-01-21T13:01:13Z</time>
      </trkpt>
      <trkpt lat="34.315243" lon="108.77935">
        <time>2022-01-21T13:01:18Z</time>
      </trkpt>
      <trkpt lat="34.315369" lon="108.779285">
        <time>2022-01-21T13:01:23Z</time>
      </trkpt>
      <trkpt lat="34.315445" lon="108.779159">
        <time>2022-01-21T13:01:28Z</time>
      </trkpt>
      <trkpt lat="34.315532" lon="108.779041">
        <time>2022-01-21T13:01:33Z</time>
      </trkpt>
      <trkpt lat="34.315575" lon="108.778867">
        <time>2022-01-21T13:01:38Z</time>
      </trkpt>
      <trkpt lat="34.315702" lon="108.778768">
        <time>2022-01-21T13:01:43Z</time>
      </trkpt>
      <trkpt lat="34.315685" lon="108.77866">
        <time>2022-01-21T13:01:48Z</time>
      </trkpt>
      <trkpt lat="34.315655" lon="108.778528">
        <time>2022-01-21T13:01:53Z</time>
      </trkpt>
      <trkpt lat="34.315707" lon="108.778409">
        <time>2022-01-21T13:01:58Z</time>
      </trkpt>
      <trkpt lat="34.315746" lon="108.778268">
        <time>2022-01-21T13:02:03Z</time>
      </trkpt>
      <trkpt lat="34.315839" lon="108.778141">
        <time>2022-01-21T13:02:08Z</time>
      </trkpt>
      <trkpt lat="34.315917" lon="108.778051">
        <time>2022-01-21T13:02:13Z</time>
      </trkpt>
      <trkpt lat="34.315986" lon="108.777974">
        <time>2022-01-21T13:02:18Z</time>
      </trkpt>
      <trkpt lat="34.316037" lon="108.777903">
        <time>2022-01-21T13:02:23Z</time>
      </trkpt>
      <trkpt lat="34.316074" lon="108.777829">
        <time>2022-01-21T13:02:28Z</time>
      </trkpt>
      <trkpt lat="34.316096" lon="108.77772">
        <time>2022-01-21T13:02:33Z</time>
      </trkpt>
      <trkpt lat="34.316145" lon="108.777588">
        <time>2022-01-21T13:02:38Z</time>
      </trkpt>
      <trkpt lat="34.316177" lon="108.777436">
        <time>2022-01-21T13:02:43Z</time>
      </trkpt>
      <trkpt lat="34.316256" lon="108.777325">
        <time>2022-01-21T13:02:48Z</time>
      </trkpt>
      <trkpt lat="34.316351" lon="108.777206">
        <time>2022-01-21T13:02:53Z</time>
      </trkpt>
      <trkpt lat="34.316331" lon="108.777046">
        <time>2022-01-21T13:02:58Z</time>
      </trkpt>
      <trkpt lat="34.316336" lon="108.776984">
        <time>2022-01-21T13:03:03Z</time>
      </trkpt>
      <trkpt lat="34.31635" lon="108.77702">
        <time>2022-01-21T13:03:08Z</time>
      </trkpt>
      <trkpt lat="34.316393" lon="108.777014">
        <time>2022-01-21T13:03:13Z</time>
      </trkpt>
      <trkpt lat="34.316458" lon="108.777049">
        <time>2022-01-21T13:03:18Z</time>
      </trkpt>
      <trkpt lat="34.316493" lon="108.777057">
        <time>2022-01-21T13:03:23Z</time>
      </trkpt>
      <trkpt lat="34.316567" lon="108.777039">
        <time>2022-01-21T13:03:28Z</time>
      </trkpt>
      <trkpt lat="34.316646" lon="108.776986">
        <time>2022-01-21T13:03:33Z</time>
      </trkpt>
      <trkpt lat="34.316744" lon="108.776924">
        <time>2022-01-21T13:03:38Z</time>
      </trkpt>
      <trkpt lat="34.316917" lon="108.776973">
        <time>2022-01-21T13:03:43Z</time>
      </trkpt>
      <trkpt lat="34.317045" lon="108.777092">
        <time>2022-01-21T13:03:48Z</time>
      </trkpt>
      <trkpt lat="34.317175" lon="108.777144">
        <time>2022-01-21T13:03:53Z</time>
      </trkpt>
      <trkpt lat="34.317357" lon="108.777137">
        <time>2022-01-21T13:03:58Z</time>
      </trkpt>
      <trkpt lat="34.317503" lon="108.777134">
        <time>2022-01-21T13:04:03Z</time>
      </trkpt>
      <trkpt lat="34.317626" lon="108.777118">
        <time>2022-01-21T13:04:08Z</time>
      </trkpt>
      <trkpt lat="34.317742" lon="108.77712">
        <time>2022-01-21T13:04:13Z</time>
      </trkpt>
      <trkpt lat="34.317716" lon="108.777134">
        <time>2022-01-21T13:04:18Z</time>
      </trkpt>
      <trkpt lat="34.317771" lon="108.777241">
        <time>2022-01-21T13:04:23Z</time>
      </trkpt>
      <trkpt lat="34.317767" lon="108.777394">
        <time>2022-01-21T13:04:28Z</time>
      </trkpt>
      <trkpt lat="34.31772" lon="108.777501">
        <time>2022-01-21T13:04:33Z</time>
      </trkpt>
      <trkpt lat="34.317626" lon="108.777608">
        <time>2022-01-21T13:04:38Z</time>
      </trkpt>
      <trkpt lat="34.317558" lon="108.777658">
        <time>2022-01-21T13:04:43Z</time>
      </trkpt>
      <trkpt lat="34.3175" lon="108.777763">
        <time>2022-01-21T13:04:48Z</time>
      </trkpt>
      <trkpt lat="34.317492" lon="108.777933">
        <time>2022-01-21T13:04:53Z</time>
      </trkpt>
      <trkpt lat="34.31748" lon="108.778077">
        <time>2022-01-21T13:04:58Z</time>
      </trkpt>
      <trkpt lat="34.317431" lon="108.778216">
        <time>2022-01-21T13:05:03Z</time>
      </trkpt>
      <trkpt lat="34.317374" lon="108.778345">
        <time>2022-01-21T13:05:08Z</time>
      </trkpt>
      <trkpt lat="34.317304" lon="108.77845">
        <time>2022-01-21T13:05:13Z</time>
      </trkpt>
      <trkpt lat="34.317248" lon="108.778504">
        <time>2022-01-21T13:05:18Z</time>
      </trkpt>
      <trkpt lat="34.317203" lon="108.778559">
        <time>2022-01-21T13:05:23Z</time>
      </trkpt>
      <trkpt lat="34.317117" lon="108.778603">
        <time>2022-01-21T13:05:28Z</time>
      </trkpt>
      <trkpt lat="34.317055" lon="108.778603">
        <time>2022-01-21T13:05:33Z</time>
      </trkpt>
      <trkpt lat="34.317002" lon="108.778635">
        <time>2022-01-21T13:05:38Z</time>
      </trkpt>
      <trkpt lat="34.31695" lon="108.778707">
        <time>2022-01-21T13:05:43Z</time>
      </trkpt>
      <trkpt lat="34.31693" lon="108.778784">
        <time>2022-01-21T13:05:48Z</time>
      </trkpt>
      <trkpt lat="34.316868" lon="108.778802">
        <time>2022-01-21T13:05:53Z</time>
      </trkpt>
      <trkpt lat="34.316839" lon="108.778857">
        <time>2022-01-21T13:05:58Z</time>
      </trkpt>
      <trkpt lat="34.316834" lon="108.778997">
        <time>2022-01-21T13:06:03Z</time>
      </trkpt>
      <trkpt lat="34.316842" lon="108.779187">
        <time>2022-01-21T13:06:08Z</time>
      </trkpt>
      <trkpt lat="34.316859" lon="108.779344">
        <time>2022-01-21T13:06:13Z</time>
      </trkpt>
      <trkpt lat="34.316806" lon="108.779368">
        <time>2022-01-21T13:06:18Z</time>
      </trkpt>
      <trkpt lat="34.316738" lon="108.779307">
        <time>2022-01-21T13:06:23Z</time>
      </trkpt>
      <trkpt lat="34.316676" lon="108.779239">
        <time>2022-01-21T13:06:28Z</time>
      </trkpt>
      <trkpt lat="34.316635" lon="108.779204">
        <time>2022-01-21T13:06:33Z</time>
      </trkpt>
      <trkpt lat="34.316617" lon="108.779181">
        <time>2022-01-21T13:06:38Z</time>
      </trkpt>
      <trkpt lat="34.316568" lon="108.779254">
        <time>2022-01-21T13:06:43Z</time>
      </trkpt>
      <trkpt lat="34.316522" lon="108.7793">
        <time>2022-01-21T13:06:48Z</time>
      </trkpt>
      <trkpt lat="34.316455" lon="108.779378">
        <time>2022-01-21T13:06:53Z</time>
      </trkpt>
      <trkpt lat="34.316368" lon="108.77946">
        <time>2022-01-21T13:06:58Z</time>
      </trkpt>
      <trkpt lat="34.31631" lon="108.779518">
        <time>2022-01-21T13:07:03Z</time>
      </trkpt>
      <trkpt lat="34.316244" lon="108.77957">
        <time>2022-01-21T13:07:08Z</time>
      </trkpt>
      <trkpt lat="34.316158" lon="108.779707">
        <time>2022-01-21T13:07:13Z</time>
      </trkpt>
      <trkpt lat="34.31614" lon="108.779725">
        <time>2022-01-21T13:07:18Z</time>
      </trkpt>
      <trkpt lat="34.316102" lon="108.77977">
        <time>2022-01-21T13:07:23Z</time>
      </trkpt>
      <trkpt lat="34.316004" lon="108.779881">
        <time>2022-01-21T13:07:28Z</time>
      </trkpt>
      <trkpt lat="34.315876" lon="108.779902">
        <time>2022-01-21T13:07:33Z</time>
      </trkpt>
      <trkpt lat="34.315708" lon="108.77988">
        <time>2022-01-21T13:07:38Z</time>
      </trkpt>
      <trkpt lat="34.315545" lon="108.77985">
        <time>2022-01-21T13:07:43Z</time>
      </trkpt>
      <trkpt lat="34.315438" lon="108.779778">
        <time>2022-01-21T13:07:48Z</time>
      </trkpt>
      <trkpt lat="34.315339" lon="108.779687">
        <time>2022-01-21T13:07:53Z</time>
      </trkpt>
      <trkpt lat="34.315243" lon="108.779601">
        <time>2022-01-21T13:07:58Z</time>
      </trkpt>
      <trkpt lat="34.315149" lon="108.77953">
        <time>2022-01-21T13:08:03Z</time>
      </trkpt>
      <trkpt lat="34.315146" lon="108.779542">
        <time>2022-01-21T13:08:08Z</time>
      </trkpt>
      <trkpt lat="34.315186" lon="108.779494">
        <time>2022-01-21T13:08:13Z</time>
      </trkpt>
      <trkpt lat="34.315215" lon="108.779335">
        <time>2022-01-21T13:08:18Z</time>
      </trkpt>
      <trkpt lat="34.315253" lon="108.779192">
        <time>2022-01-21T13:08:23Z</time>
      </trkpt>
      <trkpt lat="34.315355" lon="108.779039">
        <time>2022-01-21T13:08:28Z</time>
      </trkpt>
      <trkpt lat="34.315459" lon="108.778901">
        <time>2022-01-21T13:08:33Z</time>
      </trkpt>
      <trkpt lat="34.315541" lon="108.778775">
        <time>2022-01-21T13:08:38Z</time>
      </trkpt>
      <trkpt lat="34.315591" lon="108.778666">
        <time>2022-01-21T13:08:43Z</time>
      </trkpt>
      <trkpt lat="34.315603" lon="108.778568">
        <time>2022-01-21T13:08:48Z</time>
      </trkpt>
      <trkpt lat="34.315641" lon="108.778491">
        <time>2022-01-21T13:08:53Z</time>
      </trkpt>
      <trkpt lat="34.315694" lon="108.778369">
        <time>2022-01-21T13:08:58Z</time>
      </trkpt>
      <trkpt lat="34.315789" lon="108.778271">
        <time>2022-01-21T13:09:03Z</time>
      </trkpt>
      <trkpt lat="34.315859" lon="108.778152">
        <time>2022-01-21T13:09:08Z</time>
      </trkpt>
      <trkpt lat="34.315893" lon="108.778016">
        <time>2022-01-21T13:09:13Z</time>
      </trkpt>
      <trkpt lat="34.315939" lon="108.777895">
        <time>2022-01-21T13:09:18Z</time>
      </trkpt>
      <trkpt lat="34.316021" lon="108.777803">
        <time>2022-01-21T13:09:23Z</time>
      </trkpt>
      <trkpt lat="34.316069" lon="108.777759">
        <time>2022-01-21T13:09:28Z</time>
      </trkpt>
      <trkpt lat="34.316088" lon="108.777697">
        <time>2022-01-21T13:09:33Z</time>
      </trkpt>
      <trkpt lat="34.316117" lon="108.777614">
        <time>2022-01-21T13:09:38Z</time>
      </trkpt>
      <trkpt lat="34.316198" lon="108.777536">
        <time>2022-01-21T13:09:43Z</time>
      </trkpt>
      <trkpt lat="34.316275" lon="108.777409">
        <time>2022-01-21T13:09:48Z</time>
      </trkpt>
      <trkpt lat="34.316294" lon="108.777267">
        <time>2022-01-21T13:09:53Z</time>
      </trkpt>
      <trkpt lat="34.316324" lon="108.777115">
        <time>2022-01-21T13:09:58Z</time>
      </trkpt>
      <trkpt lat="34.316356" lon="108.777074">
        <time>2022-01-21T13:10:03Z</time>
      </trkpt>
      <trkpt lat="34.316399" lon="108.777072">
        <time>2022-01-21T13:10:08Z</time>
      </trkpt>
      <trkpt lat="34.316567" lon="108.777065">
        <time>2022-01-21T13:10:13Z</time>
      </trkpt>
      <trkpt lat="34.316759" lon="108.777016">
        <time>2022-01-21T13:10:18Z</time>
      </trkpt>
      <trkpt lat="34.316942" lon="108.776972">
        <time>2022-01-21T13:10:23Z</time>
      </trkpt>
      <trkpt lat="34.317086" lon="108.776985">
        <time>2022-01-21T13:10:28Z</time>
      </trkpt>
      <trkpt lat="34.31722" lon="108.777075">
        <time>2022-01-21T13:10:33Z</time>
      </trkpt>
      <trkpt lat="34.317366" lon="108.777083">
        <time>2022-01-21T13:10:38Z</time>
      </trkpt>
      <trkpt lat="34.317503" lon="108.777091">
        <time>2022-01-21T13:10:43Z</time>
      </trkpt>
      <trkpt lat="34.317583" lon="108.777124">
        <time>2022-01-21T13:10:48Z</time>
      </trkpt>
      <trkpt lat="34.317649" lon="108.777109">
        <time>2022-01-21T13:10:53Z</time>
      </trkpt>
      <trkpt lat="34.317717" lon="108.777082">
        <time>2022-01-21T13:10:58Z</time>
      </trkpt>
      <trkpt lat="34.31775" lon="108.777067">
        <time>2022-01-21T13:11:03Z</time>
      </trkpt>
      <trkpt lat="34.317748" lon="108.777149">
        <time>2022-01-21T13:11:08Z</time>
      </trkpt>
      <trkpt lat="34.317755" lon="108.777218">
        <time>2022-01-21T13:11:13Z</time>
      </trkpt>
      <trkpt lat="34.317757" lon="108.777312">
        <time>2022-01-21T13:11:18Z</time>
      </trkpt>
      <trkpt lat="34.317674" lon="108.777445">
        <time>2022-01-21T13:11:23Z</time>
      </trkpt>
      <trkpt lat="34.317571" lon="108.777609">
        <time>2022-01-21T13:11:28Z</time>
      </trkpt>
      <trkpt lat="34.317472" lon="108.777773">
        <time>2022-01-21T13:11:33Z</time>
      </trkpt>
      <trkpt lat="34.317463" lon="108.777989">
        <time>2022-01-21T13:11:38Z</time>
      </trkpt>
      <trkpt lat="34.317443" lon="108.778195">
        <time>2022-01-21T13:11:43Z</time>
      </trkpt>
      <trkpt lat="34.317386" lon="108.778339">
        <time>2022-01-21T13:11:48Z</time>
      </trkpt>
      <trkpt lat="34.317274" lon="108.778466">
        <time>2022-01-21T13:11:53Z</time>
      </trkpt>
      <trkpt lat="34.317192" lon="108.778561">
        <time>2022-01-21T13:11:58Z</time>
      </trkpt>
      <trkpt lat="34.317091" lon="108.778607">
        <time>2022-01-21T13:12:03Z</time>
      </trkpt>
      <trkpt lat="34.317033" lon="108.778662">
        <time>2022-01-21T13:12:08Z</time>
      </trkpt>
      <trkpt lat="34.316965" lon="108.77873">
        <time>2022-01-21T13:12:13Z</time>
      </trkpt>
      <trkpt lat="34.316901" lon="108.778802">
        <time>2022-01-21T13:12:18Z</time>
      </trkpt>
      <trkpt lat="34.316869" lon="108.778954">
        <time>2022-01-21T13:12:23Z</time>
      </trkpt>
      <trkpt lat="34.316901" lon="108.779202">
        <time>2022-01-21T13:12:28Z</time>
      </trkpt>
      <trkpt lat="34.316892" lon="108.779393">
        <time>2022-01-21T13:12:33Z</time>
      </trkpt>
      <trkpt lat="34.316849" lon="108.779533">
        <time>2022-01-21T13:12:38Z</time>
      </trkpt>
      <trkpt lat="34.316843" lon="108.779649">
        <time>2022-01-21T13:12:43Z</time>
      </trkpt>
      <trkpt lat="34.316756" lon="108.77983">
        <time>2022-01-21T13:12:48Z</time>
      </trkpt>
      <trkpt lat="34.316715" lon="108.779919">
        <time>2022-01-21T13:12:53Z</time>
      </trkpt>
      <trkpt lat="34.316715" lon="108.780007">
        <time>2022-01-21T13:12:58Z</time>
      </trkpt>
      <trkpt lat="34.3167" lon="108.780126">
        <time>2022-01-21T13:13:03Z</time>
      </trkpt>
      <trkpt lat="34.316723" lon="108.780237">
        <time>2022-01-21T13:13:08Z</time>
      </trkpt>
      <trkpt lat="34.316684" lon="108.78032">
        <time>2022-01-21T13:13:13Z</time>
      </trkpt>
      <trkpt lat="34.316564" lon="108.780238">
        <time>2022-01-21T13:13:18Z</time>
      </trkpt>
      <trkpt lat="34.316397" lon="108.780148">
        <time>2022-01-21T13:13:23Z</time>
      </trkpt>
      <trkpt lat="34.316179" lon="108.780114">
        <time>2022-01-21T13:13:28Z</time>
      </trkpt>
      <trkpt lat="34.316096" lon="108.780088">
        <time>2022-01-21T13:13:33Z</time>
      </trkpt>
      <trkpt lat="34.315999" lon="108.780045">
        <time>2022-01-21T13:13:38Z</time>
      </trkpt>
      <trkpt lat="34.315904" lon="108.779988">
        <time>2022-01-21T13:13:43Z</time>
      </trkpt>
      <trkpt lat="34.315875" lon="108.779906">
        <time>2022-01-21T13:13:48Z</time>
      </trkpt>
      <trkpt lat="34.315917" lon="108.779843">
        <time>2022-01-21T13:13:53Z</time>
      </trkpt>
      <trkpt lat="34.315947" lon="108.779784">
        <time>2022-01-21T13:13:58Z</time>
      </trkpt>
      <trkpt lat="34.315982" lon="108.779717">
        <time>2022-01-21T13:14:03Z</time>
      </trkpt>
      <trkpt lat="34.316047" lon="108.779607">
        <time>2022-01-21T13:14:08Z</time>
      </trkpt>
      <trkpt lat="34.316148" lon="108.779486">
        <time>2022-01-21T13:14:13Z</time>
      </trkpt>
      <trkpt lat="34.316215" lon="108.779439">
        <time>2022-01-21T13:14:18Z</time>
      </trkpt>
      <trkpt lat="34.31626" lon="108.779389">
        <time>2022-01-21T13:14:23Z</time>
      </trkpt>
      <trkpt lat="34.316311" lon="108.779307">
        <time>2022-01-21T13:14:28Z</time>
      </trkpt>
      <trkpt lat="34.316332" lon="108.779255">
        <time>2022-01-21T13:14:33Z</time>
      </trkpt>
      <trkpt lat="34.316361" lon="108.779183">
        <time>2022-01-21T13:14:38Z</time>
      </trkpt>
      <trkpt lat="34.316412" lon="108.779117">
        <time>2022-01-21T13:14:43Z</time>
      </trkpt>
      <trkpt lat="34.316453" lon="108.779049">
        <time>2022-01-21T13:14:48Z</time>
      </trkpt>
      <trkpt lat="34.316497" lon="108.778936">
        <time>2022-01-21T13:14:53Z</time>
      </trkpt>
      <trkpt lat="34.316479" lon="108.778839">
        <time>2022-01-21T13:14:58Z</time>
      </trkpt>
      <trkpt lat="34.316437" lon="108.778784">
        <time>2022-01-21T13:15:03Z</time>
      </trkpt>
      <trkpt lat="34.316474" lon="108.778713">
        <time>2022-01-21T13:15:08Z</time>
      </trkpt>
      <trkpt lat="34.316507" lon="108.778643">
        <time>2022-01-21T13:15:13Z</time>
      </trkpt>
      <trkpt lat="34.316559" lon="108.778524">
        <time>2022-01-21T13:15:18Z</time>
      </trkpt>
      <trkpt lat="34.316539" lon="108.778474">
        <time>2022-01-21T13:15:23Z</time>
      </trkpt>
      <trkpt lat="34.31646" lon="108.778721">
        <time>2022-01-21T13:15:28Z</time>
      </trkpt>
      <trkpt lat="34.316483" lon="108.778825">
        <time>2022-01-21T13:15:33Z</time>
      </trkpt>
      <trkpt lat="34.316539" lon="108.778875">
        <time>2022-01-21T13:15:38Z</time>
      </trkpt>
      <trkpt lat="34.316523" lon="108.778936">
        <time>2022-01-21T13:15:43Z</time>
      </trkpt>
      <trkpt lat="34.316451" lon="108.779061">
        <time>2022-01-21T13:15:48Z</time>
      </trkpt>
      <trkpt lat="34.316408" lon="108.779197">
        <time>2022-01-21T13:15:53Z</time>
      </trkpt>
      <trkpt lat="34.316327" lon="108.779311">
        <time>2022-01-21T13:15:58Z</time>
      </trkpt>
      <trkpt lat="34.316279" lon="108.779382">
        <time>2022-01-21T13:16:03Z</time>
      </trkpt>
      <trkpt lat="34.316265" lon="108.779466">
        <time>2022-01-21T13:16:08Z</time>
      </trkpt>
      <trkpt lat="34.316209" lon="108.779546">
        <time>2022-01-21T13:16:13Z</time>
      </trkpt>
      <trkpt lat="34.316213" lon="108.779524">
        <time>2022-01-21T13:16:18Z</time>
      </trkpt>
      <trkpt lat="34.316278" lon="108.77943">
        <time>2022-01-21T13:16:23Z</time>
      </trkpt>
      <trkpt lat="34.316297" lon="108.779339">
        <time>2022-01-21T13:16:28Z</time>
      </trkpt>
      <trkpt lat="34.316322" lon="108.779231">
        <time>2022-01-21T13:16:33Z</time>
      </trkpt>
      <trkpt lat="34.31635" lon="108.779117">
        <time>2022-01-21T13:16:38Z</time>
      </trkpt>
      <trkpt lat="34.316388" lon="108.77904">
        <time>2022-01-21T13:16:43Z</time>
      </trkpt>
      <trkpt lat="34.316346" lon="108.778995">
        <time>2022-01-21T13:16:48Z</time>
      </trkpt>
      <trkpt lat="34.316289" lon="108.778884">
        <time>2022-01-21T13:16:53Z</time>
      </trkpt>
      <trkpt lat="34.316257" lon="108.778738">
        <time>2022-01-21T13:16:58Z</time>
      </trkpt>
      <trkpt lat="34.316274" lon="108.778558">
        <time>2022-01-21T13:17:03Z</time>
      </trkpt>
      <trkpt lat="34.31631" lon="108.77841">
        <time>2022-01-21T13:17:08Z</time>
      </trkpt>
      <trkpt lat="34.316305" lon="108.778297">
        <time>2022-01-21T13:17:13Z</time>
      </trkpt>
      <trkpt lat="34.316314" lon="108.778177">
        <time>2022-01-21T13:17:18Z</time>
      </trkpt>
      <trkpt lat="34.316372" lon="108.777995">
        <time>2022-01-21T13:17:23Z</time>
      </trkpt>
      <trkpt lat="34.316306" lon="108.777899">
        <time>2022-01-21T13:17:28Z</time>
      </trkpt>
      <trkpt lat="34.31623" lon="108.778005">
        <time>2022-01-21T13:17:33Z</time>
      </trkpt>
      <trkpt lat="34.31618" lon="108.778102">
        <time>2022-01-21T13:17:38Z</time>
      </trkpt>
      <trkpt lat="34.316126" lon="108.778237">
        <time>2022-01-21T13:17:43Z</time>
      </trkpt>
      <trkpt lat="34.316065" lon="108.778373">
        <time>2022-01-21T13:17:48Z</time>
      </trkpt>
      <trkpt lat="34.316017" lon="108.778561">
        <time>2022-01-21T13:17:53Z</time>
      </trkpt>
      <trkpt lat="34.315978" lon="108.778671">
        <time>2022-01-21T13:17:58Z</time>
      </trkpt>
      <trkpt lat="34.315937" lon="108.778659">
        <time>2022-01-21T13:18:03Z</time>
      </trkpt>
      <trkpt lat="34.315975" lon="108.778765">
        <time>2022-01-21T13:18:08Z</time>
      </trkpt>
      <trkpt lat="34.315978" lon="108.778837">
        <time>2022-01-21T13:18:13Z</time>
      </trkpt>
      <trkpt lat="34.315945" lon="108.778942">
        <time>2022-01-21T13:18:18Z</time>
      </trkpt>
      <trkpt lat="34.315936" lon="108.779013">
        <time>2022-01-21T13:18:23Z</time>
      </trkpt>
      <trkpt lat="34.315961" lon="108.778885">
        <time>2022-01-21T13:18:28Z</time>
      </trkpt>
      <trkpt lat="34.315999" lon="108.778813">
        <time>2022-01-21T13:18:33Z</time>
      </trkpt>
      <trkpt lat="34.316045" lon="108.778779">
        <time>2022-01-21T13:18:38Z</time>
      </trkpt>
      <trkpt lat="34.316113" lon="108.77883">
        <time>2022-01-21T13:18:43Z</time>
      </trkpt>
      <trkpt lat="34.316173" lon="108.778869">
        <time>2022-01-21T13:18:48Z</time>
      </trkpt>
      <trkpt lat="34.316228" lon="108.778998">
        <time>2022-01-21T13:18:53Z</time>
      </trkpt>
      <trkpt lat="34.316294" lon="108.779121">
        <time>2022-01-21T13:18:58Z</time>
      </trkpt>
      <trkpt lat="34.316307" lon="108.779244">
        <time>2022-01-21T13:19:03Z</time>
      </trkpt>
      <trkpt lat="34.31632" lon="108.779328">
        <time>2022-01-21T13:19:08Z</time>
      </trkpt>
      <trkpt lat="34.316314" lon="108.779367">
        <time>2022-01-21T13:19:13Z</time>
      </trkpt>
      <trkpt lat="34.316322" lon="108.779404">
        <time>2022-01-21T13:19:18Z</time>
      </trkpt>
      <trkpt lat="34.316338" lon="108.77937">
        <time>2022-01-21T13:19:23Z</time>
      </trkpt>
      <trkpt lat="34.316303" lon="108.779253">
        <time>2022-01-21T13:19:28Z</time>
      </trkpt>
      <trkpt lat="34.316356" lon="108.779104">
        <time>2022-01-21T13:19:33Z</time>
      </trkpt>
      <trkpt lat="34.316442" lon="108.778985">
        <time>2022-01-21T13:19:38Z</time>
      </trkpt>
      <trkpt lat="34.316552" lon="108.778962">
        <time>2022-01-21T13:19:43Z</time>
      </trkpt>
      <trkpt lat="34.316678" lon="108.779091">
        <time>2022-01-21T13:19:48Z</time>
      </trkpt>
      <trkpt lat="34.316798" lon="108.779183">
        <time>2022-01-21T13:19:53Z</time>
      </trkpt>
      <trkpt lat="34.31693" lon="108.77928">
        <time>2022-01-21T13:19:58Z</time>
      </trkpt>
      <trkpt lat="34.316951" lon="108.779299">
        <time>2022-01-21T13:20:03Z</time>
      </trkpt>
      <trkpt lat="34.317013" lon="108.779229">
        <time>2022-01-21T13:20:08Z</time>
      </trkpt>
      <trkpt lat="34.317033" lon="108.779153">
        <time>2022-01-21T13:20:13Z</time>
      </trkpt>
      <trkpt lat="34.317077" lon="108.779067">
        <time>2022-01-21T13:20:18Z</time>
      </trkpt>
      <trkpt lat="34.317145" lon="108.778935">
        <time>2022-01-21T13:20:23Z</time>
      </trkpt>
      <trkpt lat="34.317175" lon="108.778804">
        <time>2022-01-21T13:20:28Z</time>
      </trkpt>
      <trkpt lat="34.317182" lon="108.778628">
        <time>2022-01-21T13:20:33Z</time>
      </trkpt>
      <trkpt lat="34.317236" lon="108.778429">
        <time>2022-01-21T13:20:38Z</time>
      </trkpt>
      <trkpt lat="34.317341" lon="108.7782">
        <time>2022-01-21T13:20:43Z</time>
      </trkpt>
      <trkpt lat="34.317449" lon="108.778049">
        <time>2022-01-21T13:20:48Z</time>
      </trkpt>
      <trkpt lat="34.317528" lon="108.777976">
        <time>2022-01-21T13:20:53Z</time>
      </trkpt>
      <trkpt lat="34.317555" lon="108.77793">
        <time>2022-01-21T13:20:58Z</time>
      </trkpt>
      <trkpt lat="34.31756" lon="108.777843">
        <time>2022-01-21T13:21:03Z</time>
      </trkpt>
      <trkpt lat="34.317611" lon="108.777713">
        <time>2022-01-21T13:21:08Z</time>
      </trkpt>
      <trkpt lat="34.317643" lon="108.777592">
        <time>2022-01-21T13:21:13Z</time>
      </trkpt>
      <trkpt lat="34.317649" lon="108.777421">
        <time>2022-01-21T13:21:18Z</time>
      </trkpt>
      <trkpt lat="34.317661" lon="108.777256">
        <time>2022-01-21T13:21:23Z</time>
      </trkpt>
      <trkpt lat="34.317674" lon="108.777111">
        <time>2022-01-21T13:21:28Z</time>
      </trkpt>
      <trkpt lat="34.317588" lon="108.777051">
        <time>2022-01-21T13:21:33Z</time>
      </trkpt>
      <trkpt lat="34.317484" lon="108.777096">
        <time>2022-01-21T13:21:38Z</time>
      </trkpt>
      <trkpt lat="34.317371" lon="108.777058">
        <time>2022-01-21T13:21:43Z</time>
      </trkpt>
      <trkpt lat="34.317256" lon="108.777056">
        <time>2022-01-21T13:21:48Z</time>
      </trkpt>
      <trkpt lat="34.317201" lon="108.777139">
        <time>2022-01-21T13:21:53Z</time>
      </trkpt>
      <trkpt lat="34.317203" lon="108.777269">
        <time>2022-01-21T13:21:58Z</time>
      </trkpt>
      <trkpt lat="34.317213" lon="108.777429">
        <time>2022-01-21T13:22:03Z</time>
      </trkpt>
      <trkpt lat="34.317223" lon="108.777578">
        <time>2022-01-21T13:22:08Z</time>
      </trkpt>
      <trkpt lat="34.317217" lon="108.777704">
        <time>2022-01-21T13:22:13Z</time>
      </trkpt>
      <trkpt lat="34.317268" lon="108.777854">
        <time>2022-01-21T13:22:18Z</time>
      </trkpt>
      <trkpt lat="34.317203" lon="108.777967">
        <time>2022-01-21T13:22:23Z</time>
      </trkpt>
      <trkpt lat="34.317147" lon="108.778057">
        <time>2022-01-21T13:22:28Z</time>
      </trkpt>
      <trkpt lat="34.317107" lon="108.778173">
        <time>2022-01-21T13:22:33Z</time>
      </trkpt>
      <trkpt lat="34.317035" lon="108.778273">
        <time>2022-01-21T13:22:38Z</time>
      </trkpt>
      <trkpt lat="34.316979" lon="108.778396">
        <time>2022-01-21T13:22:43Z</time>
      </trkpt>
      <trkpt lat="34.316837" lon="108.77851">
        <time>2022-01-21T13:22:48Z</time>
      </trkpt>
      <trkpt lat="34.316727" lon="108.778604">
        <time>2022-01-21T13:22:53Z</time>
      </trkpt>
      <trkpt lat="34.316668" lon="108.778714">
        <time>2022-01-21T13:22:58Z</time>
      </trkpt>
      <trkpt lat="34.316593" lon="108.778759">
        <time>2022-01-21T13:23:03Z</time>
      </trkpt>
      <trkpt lat="34.316518" lon="108.778761">
        <time>2022-01-21T13:23:08Z</time>
      </trkpt>
      <trkpt lat="34.316469" lon="108.778842">
        <time>2022-01-21T13:23:13Z</time>
      </trkpt>
      <trkpt lat="34.316445" lon="108.778979">
        <time>2022-01-21T13:23:18Z</time>
      </trkpt>
      <trkpt lat="34.316414" lon="108.779087">
        <time>2022-01-21T13:23:23Z</time>
      </trkpt>
      <trkpt lat="34.316382" lon="108.77916">
        <time>2022-01-21T13:23:28Z</time>
      </trkpt>
      <trkpt lat="34.316337" lon="108.779243">
        <time>2022-01-21T13:23:33Z</time>
      </trkpt>
      <trkpt lat="34.316287" lon="108.779346">
        <time>2022-01-21T13:23:38Z</time>
      </trkpt>
      <trkpt lat="34.316241" lon="108.779445">
        <time>2022-01-21T13:23:43Z</time>
      </trkpt>
      <trkpt lat="34.316235" lon="108.7795">
        <time>2022-01-21T13:23:48Z</time>
      </trkpt>
      <trkpt lat="34.316226" lon="108.779536">
        <time>2022-01-21T13:23:53Z</time>
      </trkpt>
      <trkpt lat="34.316205" lon="108.779569">
        <time>2022-01-21T13:23:58Z</time>
      </trkpt>
      <trkpt lat="34.316156" lon="108.77962">
        <time>2022-01-21T13:24:03Z</time>
      </trkpt>
      <trkpt lat="34.316089" lon="108.779695">
        <time>2022-01-21T13:24:08Z</time>
      </trkpt>
      <trkpt lat="34.316036" lon="108.779799">
        <time>2022-01-21T13:24:13Z</time>
      </trkpt>
      <trkpt lat="34.316" lon="108.77987">
        <time>2022-01-21T13:24:18Z</time>
      </trkpt>
      <trkpt lat="34.315934" lon="108.779895">
        <time>2022-01-21T13:24:23Z</time>
      </trkpt>
      <trkpt lat="34.315898" lon="108.779973">
        <time>2022-01-21T13:24:28Z</time>
      </trkpt>
      <trkpt lat="34.31594" lon="108.78004">
        <time>2022-01-21T13:24:33Z</time>
      </trkpt>
      <trkpt lat="34.31599" lon="108.780073">
        <time>2022-01-21T13:24:38Z</time>
      </trkpt>
      <trkpt lat="34.31604" lon="108.780116">
        <time>2022-01-21T13:24:43Z</time>
      </trkpt>
      <trkpt lat="34.316151" lon="108.780139">
        <time>2022-01-21T13:24:48Z</time>
      </trkpt>
      <trkpt lat="34.316239" lon="108.780144">
        <time>2022-01-21T13:24:53Z</time>
      </trkpt>
      <trkpt lat="34.316295" lon="108.780145">
        <time>2022-01-21T13:24:58Z</time>
      </trkpt>
      <trkpt lat="34.316382" lon="108.780141">
        <time>2022-01-21T13:25:03Z</time>
      </trkpt>
      <trkpt lat="34.316414" lon="108.780084">
        <time>2022-01-21T13:25:08Z</time>
      </trkpt>
      <trkpt lat="34.316435" lon="108.779965">
        <time>2022-01-21T13:25:13Z</time>
      </trkpt>
      <trkpt lat="34.316507" lon="108.779893">
        <time>2022-01-21T13:25:18Z</time>
      </trkpt>
      <trkpt lat="34.316579" lon="108.779805">
        <time>2022-01-21T13:25:23Z</time>
      </trkpt>
      <trkpt lat="34.316625" lon="108.779691">
        <time>2022-01-21T13:25:28Z</time>
      </trkpt>
      <trkpt lat="34.316714" lon="108.779611">
        <time>2022-01-21T13:25:33Z</time>
      </trkpt>
      <trkpt lat="34.316747" lon="108.77952">
        <time>2022-01-21T13:25:38Z</time>
      </trkpt>
      <trkpt lat="34.316796" lon="108.779431">
        <time>2022-01-21T13:25:43Z</time>
      </trkpt>
      <trkpt lat="34.316766" lon="108.779304">
        <time>2022-01-21T13:25:48Z</time>
      </trkpt>
      <trkpt lat="34.316766" lon="108.779304">
        <time>2022-01-21T13:25:53Z</time>
      </trkpt>
      <trkpt lat="34.316785" lon="108.779274">
        <time>2022-01-21T13:25:58Z</time>
      </trkpt>
      <trkpt lat="34.316905" lon="108.779423">
        <time>2022-01-21T13:26:03Z</time>
      </trkpt>
      <trkpt lat="34.316956" lon="108.779359">
        <time>2022-01-21T13:26:08Z</time>
      </trkpt>
      <trkpt lat="34.316994" lon="108.779333">
        <time>2022-01-21T13:26:13Z</time>
      </trkpt>
      <trkpt lat="34.317032" lon="108.77933">
        <time>2022-01-21T13:26:18Z</time>
      </trkpt>
      <trkpt lat="34.317056" lon="108.779282">
        <time>2022-01-21T13:26:23Z</time>
      </trkpt>
      <trkpt lat="34.317056" lon="108.779219">
        <time>2022-01-21T13:26:28Z</time>
      </trkpt>
      <trkpt lat="34.31707" lon="108.779145">
        <time>2022-01-21T13:26:33Z</time>
      </trkpt>
      <trkpt lat="34.317102" lon="108.779045">
        <time>2022-01-21T13:26:38Z</time>
      </trkpt>
      <trkpt lat="34.317104" lon="108.778928">
        <time>2022-01-21T13:26:43Z</time>
      </trkpt>
      <trkpt lat="34.317099" lon="108.778733">
        <time>2022-01-21T13:26:48Z</time>
      </trkpt>
      <trkpt lat="34.317125" lon="108.778554">
        <time>2022-01-21T13:26:53Z</time>
      </trkpt>
      <trkpt lat="34.317242" lon="108.778381">
        <time>2022-01-21T13:26:58Z</time>
      </trkpt>
      <trkpt lat="34.31732" lon="108.778288">
        <time>2022-01-21T13:27:03Z</time>
      </trkpt>
      <trkpt lat="34.317368" lon="108.778173">
        <time>2022-01-21T13:27:08Z</time>
      </trkpt>
      <trkpt lat="34.317448" lon="108.77807">
        <time>2022-01-21T13:27:13Z</time>
      </trkpt>
      <trkpt lat="34.317489" lon="108.777986">
        <time>2022-01-21T13:27:18Z</time>
      </trkpt>
      <trkpt lat="34.317514" lon="108.777874">
        <time>2022-01-21T13:27:23Z</time>
      </trkpt>
      <trkpt lat="34.317527" lon="108.777771">
        <time>2022-01-21T13:27:28Z</time>
      </trkpt>
      <trkpt lat="34.317519" lon="108.777656">
        <time>2022-01-21T13:27:33Z</time>
      </trkpt>
      <trkpt lat="34.317542" lon="108.777571">
        <time>2022-01-21T13:27:38Z</time>
      </trkpt>
      <trkpt lat="34.317522" lon="108.777442">
        <time>2022-01-21T13:27:43Z</time>
      </trkpt>
      <trkpt lat="34.317477" lon="108.777267">
        <time>2022-01-21T13:27:48Z</time>
      </trkpt>
      <trkpt lat="34.317589" lon="108.77719">
        <time>2022-01-21T13:27:53Z</time>
      </trkpt>
      <trkpt lat="34.31764" lon="108.777096">
        <time>2022-01-21T13:27:58Z</time>
      </trkpt>
      <trkpt lat="34.317592" lon="108.777062">
        <time>2022-01-21T13:28:03Z</time>
      </trkpt>
      <trkpt lat="34.317554" lon="108.77709">
        <time>2022-01-21T13:28:08Z</time>
      </trkpt>
      <trkpt lat="34.317517" lon="108.777082">
        <time>2022-01-21T13:28:13Z</time>
      </trkpt>
      <trkpt lat="34.317429" lon="108.777077">
        <time>2022-01-21T13:28:18Z</time>
      </trkpt>
      <trkpt lat="34.317351" lon="108.777093">
        <time>2022-01-21T13:28:23Z</time>
      </trkpt>
      <trkpt lat="34.317237" lon="108.777085">
        <time>2022-01-21T13:28:28Z</time>
      </trkpt>
      <trkpt lat="34.317151" lon="108.77708">
        <time>2022-01-21T13:28:33Z</time>
      </trkpt>
      <trkpt lat="34.317074" lon="108.777079">
        <time>2022-01-21T13:28:38Z</time>
      </trkpt>
      <trkpt lat="34.316977" lon="108.777074">
        <time>2022-01-21T13:28:43Z</time>
      </trkpt>
      <trkpt lat="34.316901" lon="108.777073">
        <time>2022-01-21T13:28:48Z</time>
      </trkpt>
      <trkpt lat="34.316781" lon="108.77706">
        <time>2022-01-21T13:28:53Z</time>
      </trkpt>
      <trkpt lat="34.316682" lon="108.777093">
        <time>2022-01-21T13:28:58Z</time>
      </trkpt>
      <trkpt lat="34.316567" lon="108.777103">
        <time>2022-01-21T13:29:03Z</time>
      </trkpt>
      <trkpt lat="34.316442" lon="108.777095">
        <time>2022-01-21T13:29:08Z</time>
      </trkpt>
      <trkpt lat="34.316342" lon="108.77708">
        <time>2022-01-21T13:29:13Z</time>
      </trkpt>
      <trkpt lat="34.316276" lon="108.77709">
        <time>2022-01-21T13:29:18Z</time>
      </trkpt>
      <trkpt lat="34.316202" lon="108.777098">
        <time>2022-01-21T13:29:23Z</time>
      </trkpt>
      <trkpt lat="34.316189" lon="108.777169">
        <time>2022-01-21T13:29:28Z</time>
      </trkpt>
      <trkpt lat="34.316186" lon="108.777249">
        <time>2022-01-21T13:29:33Z</time>
      </trkpt>
      <trkpt lat="34.316179" lon="108.777337">
        <time>2022-01-21T13:29:38Z</time>
      </trkpt>
      <trkpt lat="34.316134" lon="108.77744">
        <time>2022-01-21T13:29:43Z</time>
      </trkpt>
      <trkpt lat="34.316082" lon="108.777606">
        <time>2022-01-21T13:29:48Z</time>
      </trkpt>
      <trkpt lat="34.316033" lon="108.777683">
        <time>2022-01-21T13:29:53Z</time>
      </trkpt>
      <trkpt lat="34.316007" lon="108.777788">
        <time>2022-01-21T13:29:58Z</time>
      </trkpt>
      <trkpt lat="34.31603" lon="108.77797">
        <time>2022-01-21T13:30:03Z</time>
      </trkpt>
      <trkpt lat="34.316032" lon="108.778093">
        <time>2022-01-21T13:30:08Z</time>
      </trkpt>
      <trkpt lat="34.316" lon="108.778312">
        <time>2022-01-21T13:30:13Z</time>
      </trkpt>
      <trkpt lat="34.315856" lon="108.778403">
        <time>2022-01-21T13:30:18Z</time>
      </trkpt>
      <trkpt lat="34.315765" lon="108.778484">
        <time>2022-01-21T13:30:23Z</time>
      </trkpt>
      <trkpt lat="34.315659" lon="108.778541">
        <time>2022-01-21T13:30:28Z</time>
      </trkpt>
      <trkpt lat="34.315631" lon="108.778584">
        <time>2022-01-21T13:30:33Z</time>
      </trkpt>
      <trkpt lat="34.315639" lon="108.778623">
        <time>2022-01-21T13:30:38Z</time>
      </trkpt>
      <trkpt lat="34.315613" lon="108.778686">
        <time>2022-01-21T13:30:43Z</time>
      </trkpt>
      <trkpt lat="34.315618" lon="108.778823">
        <time>2022-01-21T13:30:48Z</time>
      </trkpt>
      <trkpt lat="34.315584" lon="108.779019">
        <time>2022-01-21T13:30:53Z</time>
      </trkpt>
      <trkpt lat="34.315442" lon="108.779146">
        <time>2022-01-21T13:30:58Z</time>
      </trkpt>
      <trkpt lat="34.315369" lon="108.77928">
        <time>2022-01-21T13:31:03Z</time>
      </trkpt>
      <trkpt lat="34.315361" lon="108.779413">
        <time>2022-01-21T13:31:08Z</time>
      </trkpt>
      <trkpt lat="34.315294" lon="108.779493">
        <time>2022-01-21T13:31:13Z</time>
      </trkpt>
      <trkpt lat="34.315213" lon="108.77959">
        <time>2022-01-21T13:31:18Z</time>
      </trkpt>
      <trkpt lat="34.315221" lon="108.779589">
        <time>2022-01-21T13:31:23Z</time>
      </trkpt>
      <trkpt lat="34.315317" lon="108.77967">
        <time>2022-01-21T13:31:28Z</time>
      </trkpt>
      <trkpt lat="34.315348" lon="108.779733">
        <time>2022-01-21T13:31:33Z</time>
      </trkpt>
      <trkpt lat="34.315415" lon="108.779791">
        <time>2022-01-21T13:31:38Z</time>
      </trkpt>
      <trkpt lat="34.315453" lon="108.779808">
        <time>2022-01-21T13:31:43Z</time>
      </trkpt>
      <trkpt lat="34.315497" lon="108.779842">
        <time>2022-01-21T13:31:48Z</time>
      </trkpt>
      <trkpt lat="34.315569" lon="108.779895">
        <time>2022-01-21T13:31:53Z</time>
      </trkpt>
      <trkpt lat="34.315717" lon="108.779962">
        <time>2022-01-21T13:31:58Z</time>
      </trkpt>
      <trkpt lat="34.31586" lon="108.780042">
        <time>2022-01-21T13:32:03Z</time>
      </trkpt>
      <trkpt lat="34.315936" lon="108.780108">
        <time>2022-01-21T13:32:08Z</time>
      </trkpt>
      <trkpt lat="34.316015" lon="108.780154">
        <time>2022-01-21T13:32:13Z</time>
      </trkpt>
      <trkpt lat="34.316054" lon="108.780226">
        <time>2022-01-21T13:32:18Z</time>
      </trkpt>
      <trkpt lat="34.316124" lon="108.780265">
        <time>2022-01-21T13:32:23Z</time>
      </trkpt>
      <trkpt lat="34.316266" lon="108.780234">
        <time>2022-01-21T13:32:28Z</time>
      </trkpt>
      <trkpt lat="34.316307" lon="108.780121">
        <time>2022-01-21T13:32:33Z</time>
      </trkpt>
      <trkpt lat="34.316415" lon="108.780058">
        <time>2022-01-21T13:32:38Z</time>
      </trkpt>
      <trkpt lat="34.316511" lon="108.780004">
        <time>2022-01-21T13:32:43Z</time>
      </trkpt>
      <trkpt lat="34.316547" lon="108.779889">
        <time>2022-01-21T13:32:48Z</time>
      </trkpt>
      <trkpt lat="34.316619" lon="108.779783">
        <time>2022-01-21T13:32:53Z</time>
      </trkpt>
      <trkpt lat="34.316679" lon="108.779675">
        <time>2022-01-21T13:32:58Z</time>
      </trkpt>
      <trkpt lat="34.316678" lon="108.779563">
        <time>2022-01-21T13:33:03Z</time>
      </trkpt>
      <trkpt lat="34.316744" lon="108.779488">
        <time>2022-01-21T13:33:08Z</time>
      </trkpt>
      <trkpt lat="34.316818" lon="108.779416">
        <time>2022-01-21T13:33:13Z</time>
      </trkpt>
      <trkpt lat="34.316856" lon="108.779334">
        <time>2022-01-21T13:33:18Z</time>
      </trkpt>
      <trkpt lat="34.31689" lon="108.779383">
        <time>2022-01-21T13:33:23Z</time>
      </trkpt>
      <trkpt lat="34.316916" lon="108.779419">
        <time>2022-01-21T13:33:28Z</time>
      </trkpt>
      <trkpt lat="34.31693" lon="108.779374">
        <time>2022-01-21T13:33:33Z</time>
      </trkpt>
      <trkpt lat="34.316955" lon="108.779324">
        <time>2022-01-21T13:33:38Z</time>
      </trkpt>
      <trkpt lat="34.316969" lon="108.779292">
        <time>2022-01-21T13:33:43Z</time>
      </trkpt>
      <trkpt lat="34.316994" lon="108.779246">
        <time>2022-01-21T13:33:48Z</time>
      </trkpt>
      <trkpt lat="34.317038" lon="108.779177">
        <time>2022-01-21T13:33:53Z</time>
      </trkpt>
      <trkpt lat="34.317073" lon="108.779076">
        <time>2022-01-21T13:33:58Z</time>
      </trkpt>
      <trkpt lat="34.317116" lon="108.779012">
        <time>2022-01-21T13:34:03Z</time>
      </trkpt>
      <trkpt lat="34.317182" lon="108.778926">
        <time>2022-01-21T13:34:08Z</time>
      </trkpt>
      <trkpt lat="34.317221" lon="108.77878">
        <time>2022-01-21T13:34:13Z</time>
      </trkpt>
      <trkpt lat="34.317252" lon="108.778629">
        <time>2022-01-21T13:34:18Z</time>
      </trkpt>
      <trkpt lat="34.317325" lon="108.778453">
        <time>2022-01-21T13:34:23Z</time>
      </trkpt>
      <trkpt lat="34.317387" lon="108.778276">
        <time>2022-01-21T13:34:28Z</time>
      </trkpt>
      <trkpt lat="34.317494" lon="108.778138">
        <time>2022-01-21T13:34:33Z</time>
      </trkpt>
      <trkpt lat="34.317515" lon="108.778043">
        <time>2022-01-21T13:34:38Z</time>
      </trkpt>
      <trkpt lat="34.317549" lon="108.777973">
        <time>2022-01-21T13:34:43Z</time>
      </trkpt>
      <trkpt lat="34.317562" lon="108.777885">
        <time>2022-01-21T13:34:48Z</time>
      </trkpt>
      <trkpt lat="34.317504" lon="108.777771">
        <time>2022-01-21T13:34:53Z</time>
      </trkpt>
      <trkpt lat="34.317426" lon="108.777679">
        <time>2022-01-21T13:34:58Z</time>
      </trkpt>
      <trkpt lat="34.317432" lon="108.777621">
        <time>2022-01-21T13:35:03Z</time>
      </trkpt>
      <trkpt lat="34.317485" lon="108.777512">
        <time>2022-01-21T13:35:08Z</time>
      </trkpt>
      <trkpt lat="34.317515" lon="108.777431">
        <time>2022-01-21T13:35:13Z</time>
      </trkpt>
      <trkpt lat="34.317561" lon="108.777346">
        <time>2022-01-21T13:35:18Z</time>
      </trkpt>
      <trkpt lat="34.317568" lon="108.777237">
        <time>2022-01-21T13:35:23Z</time>
      </trkpt>
      <trkpt lat="34.317638" lon="108.777134">
        <time>2022-01-21T13:35:28Z</time>
      </trkpt>
      <trkpt lat="34.317632" lon="108.777012">
        <time>2022-01-21T13:35:33Z</time>
      </trkpt>
      <trkpt lat="34.317595" lon="108.777009">
        <time>2022-01-21T13:35:38Z</time>
      </trkpt>
      <trkpt lat="34.317546" lon="108.777059">
        <time>2022-01-21T13:35:43Z</time>
      </trkpt>
      <trkpt lat="34.317474" lon="108.777053">
        <time>2022-01-21T13:35:48Z</time>
      </trkpt>
      <trkpt lat="34.317407" lon="108.777066">
        <time>2022-01-21T13:35:53Z</time>
      </trkpt>
      <trkpt lat="34.317379" lon="108.77708">
        <time>2022-01-21T13:35:58Z</time>
      </trkpt>
      <trkpt lat="34.317319" lon="108.777095">
        <time>2022-01-21T13:36:03Z</time>
      </trkpt>
      <trkpt lat="34.317281" lon="108.777083">
        <time>2022-01-21T13:36:08Z</time>
      </trkpt>
      <trkpt lat="34.317228" lon="108.777038">
        <time>2022-01-21T13:36:13Z</time>
      </trkpt>
      <trkpt lat="34.31712" lon="108.777009">
        <time>2022-01-21T13:36:18Z</time>
      </trkpt>
      <trkpt lat="34.31699" lon="108.777036">
        <time>2022-01-21T13:36:23Z</time>
      </trkpt>
      <trkpt lat="34.316897" lon="108.777091">
        <time>2022-01-21T13:36:28Z</time>
      </trkpt>
      <trkpt lat="34.316779" lon="108.777094">
        <time>2022-01-21T13:36:33Z</time>
      </trkpt>
      <trkpt lat="34.316654" lon="108.777087">
        <time>2022-01-21T13:36:38Z</time>
      </trkpt>
      <trkpt lat="34.31648" lon="108.777089">
        <time>2022-01-21T13:36:43Z</time>
      </trkpt>
      <trkpt lat="34.316361" lon="108.777089">
        <time>2022-01-21T13:36:48Z</time>
      </trkpt>
      <trkpt lat="34.316274" lon="108.777073">
        <time>2022-01-21T13:36:53Z</time>
      </trkpt>
      <trkpt lat="34.316198" lon="108.777087">
        <time>2022-01-21T13:36:58Z</time>
      </trkpt>
      <trkpt lat="34.316213" lon="108.777182">
        <time>2022-01-21T13:37:03Z</time>
      </trkpt>
      <trkpt lat="34.316165" lon="108.777271">
        <time>2022-01-21T13:37:08Z</time>
      </trkpt>
      <trkpt lat="34.316129" lon="108.777376">
        <time>2022-01-21T13:37:13Z</time>
      </trkpt>
      <trkpt lat="34.316099" lon="108.777517">
        <time>2022-01-21T13:37:18Z</time>
      </trkpt>
      <trkpt lat="34.316127" lon="108.777667">
        <time>2022-01-21T13:37:23Z</time>
      </trkpt>
      <trkpt lat="34.316144" lon="108.777741">
        <time>2022-01-21T13:37:28Z</time>
      </trkpt>
      <trkpt lat="34.316131" lon="108.777887">
        <time>2022-01-21T13:37:33Z</time>
      </trkpt>
      <trkpt lat="34.316083" lon="108.778098">
        <time>2022-01-21T13:37:38Z</time>
      </trkpt>
      <trkpt lat="34.315972" lon="108.778128">
        <time>2022-01-21T13:37:43Z</time>
      </trkpt>
      <trkpt lat="34.315981" lon="108.778212">
        <time>2022-01-21T13:37:48Z</time>
      </trkpt>
      <trkpt lat="34.316007" lon="108.778245">
        <time>2022-01-21T13:37:53Z</time>
      </trkpt>
      <trkpt lat="34.315957" lon="108.778316">
        <time>2022-01-21T13:37:58Z</time>
      </trkpt>
      <trkpt lat="34.315845" lon="108.778371">
        <time>2022-01-21T13:38:03Z</time>
      </trkpt>
      <trkpt lat="34.315707" lon="108.778388">
        <time>2022-01-21T13:38:08Z</time>
      </trkpt>
      <trkpt lat="34.315649" lon="108.778459">
        <time>2022-01-21T13:38:13Z</time>
      </trkpt>
      <trkpt lat="34.315591" lon="108.778576">
        <time>2022-01-21T13:38:18Z</time>
      </trkpt>
      <trkpt lat="34.315551" lon="108.778687">
        <time>2022-01-21T13:38:23Z</time>
      </trkpt>
      <trkpt lat="34.31551" lon="108.778761">
        <time>2022-01-21T13:38:28Z</time>
      </trkpt>
      <trkpt lat="34.315494" lon="108.778845">
        <time>2022-01-21T13:38:33Z</time>
      </trkpt>
      <trkpt lat="34.315458" lon="108.778956">
        <time>2022-01-21T13:38:38Z</time>
      </trkpt>
      <trkpt lat="34.315422" lon="108.779072">
        <time>2022-01-21T13:38:43Z</time>
      </trkpt>
      <trkpt lat="34.315354" lon="108.779183">
        <time>2022-01-21T13:38:48Z</time>
      </trkpt>
      <trkpt lat="34.315283" lon="108.779348">
        <time>2022-01-21T13:38:53Z</time>
      </trkpt>
      <trkpt lat="34.315194" lon="108.779459">
        <time>2022-01-21T13:38:58Z</time>
      </trkpt>
      <trkpt lat="34.315177" lon="108.779513">
        <time>2022-01-21T13:39:03Z</time>
      </trkpt>
      <trkpt lat="34.315197" lon="108.779598">
        <time>2022-01-21T13:39:08Z</time>
      </trkpt>
      <trkpt lat="34.315262" lon="108.779689">
        <time>2022-01-21T13:39:13Z</time>
      </trkpt>
      <trkpt lat="34.315308" lon="108.779722">
        <time>2022-01-21T13:39:18Z</time>
      </trkpt>
      <trkpt lat="34.315363" lon="108.779726">
        <time>2022-01-21T13:39:23Z</time>
      </trkpt>
      <trkpt lat="34.315397" lon="108.779757">
        <time>2022-01-21T13:39:28Z</time>
      </trkpt>
      <trkpt lat="34.315421" lon="108.779784">
        <time>2022-01-21T13:39:33Z</time>
      </trkpt>
      <trkpt lat="34.315462" lon="108.779848">
        <time>2022-01-21T13:39:38Z</time>
      </trkpt>
      <trkpt lat="34.315526" lon="108.779886">
        <time>2022-01-21T13:39:43Z</time>
      </trkpt>
      <trkpt lat="34.315595" lon="108.779922">
        <time>2022-01-21T13:39:48Z</time>
      </trkpt>
      <trkpt lat="34.315666" lon="108.779943">
        <time>2022-01-21T13:39:53Z</time>
      </trkpt>
      <trkpt lat="34.315755" lon="108.779969">
        <time>2022-01-21T13:39:58Z</time>
      </trkpt>
      <trkpt lat="34.315887" lon="108.780049">
        <time>2022-01-21T13:40:03Z</time>
      </trkpt>
      <trkpt lat="34.315966" lon="108.780105">
        <time>2022-01-21T13:40:08Z</time>
      </trkpt>
      <trkpt lat="34.316015" lon="108.780153">
        <time>2022-01-21T13:40:13Z</time>
      </trkpt>
      <trkpt lat="34.316095" lon="108.780216">
        <time>2022-01-21T13:40:18Z</time>
      </trkpt>
      <trkpt lat="34.316172" lon="108.780237">
        <time>2022-01-21T13:40:23Z</time>
      </trkpt>
      <trkpt lat="34.316172" lon="108.780237">
        <time>2022-01-21T13:41:18Z</time>
      </trkpt>
    </trkseg>
  </trk>
</gpx>