<?xml version="1.0" encoding="UTF-8"?>
<gpx xmlns="http://www.topografix.com/GPX/1/1" xmlns:gpxtpx="http://www.garmin.com/xmlschemas/TrackPointExtension/v1" xmlns:xsi="http://www.w3.org/2001/XMLSchema-instance" xsi:schemaLocation="http://www.topografix.com/GPX/1/1 http://www.topografix.com/GPX/1/1/gpx.xsd" version="1.1" creator="gpx.py -- https://github.com/tkrajina/gpxpy">
  <trk>
    <name>gpx from keep</name>
    <trkseg>
      <trkpt lat="39.906384" lon="116.620504">
        <time>2022-05-02T12:14:04Z</time>
      </trkpt>
      <trkpt lat="39.906384" lon="116.620504">
        <time>2022-05-02T12:14:09Z</time>
      </trkpt>
      <trkpt lat="39.906474" lon="116.620599">
        <time>2022-05-02T12:14:14Z</time>
      </trkpt>
      <trkpt lat="39.906518" lon="116.620678">
        <time>2022-05-02T12:14:19Z</time>
      </trkpt>
      <trkpt lat="39.906409" lon="116.620734">
        <time>2022-05-02T12:14:24Z</time>
      </trkpt>
      <trkpt lat="39.906284" lon="116.620733">
        <time>2022-05-02T12:14:29Z</time>
      </trkpt>
      <trkpt lat="39.906148" lon="116.620768">
        <time>2022-05-02T12:14:34Z</time>
      </trkpt>
      <trkpt lat="39.905938" lon="116.620795">
        <time>2022-05-02T12:14:39Z</time>
      </trkpt>
      <trkpt lat="39.905886" lon="116.620783">
        <time>2022-05-02T12:14:44Z</time>
      </trkpt>
      <trkpt lat="39.905806" lon="116.620645">
        <time>2022-05-02T12:14:49Z</time>
      </trkpt>
      <trkpt lat="39.905771" lon="116.620461">
        <time>2022-05-02T12:14:54Z</time>
      </trkpt>
      <trkpt lat="39.905779" lon="116.620289">
        <time>2022-05-02T12:14:59Z</time>
      </trkpt>
      <trkpt lat="39.905761" lon="116.620118">
        <time>2022-05-02T12:15:04Z</time>
      </trkpt>
      <trkpt lat="39.905767" lon="116.619938">
        <time>2022-05-02T12:15:09Z</time>
      </trkpt>
      <trkpt lat="39.90575" lon="116.619784">
        <time>2022-05-02T12:15:14Z</time>
      </trkpt>
      <trkpt lat="39.905781" lon="116.619648">
        <time>2022-05-02T12:15:19Z</time>
      </trkpt>
      <trkpt lat="39.90579" lon="116.619499">
        <time>2022-05-02T12:15:24Z</time>
      </trkpt>
      <trkpt lat="39.905779" lon="116.619405">
        <time>2022-05-02T12:15:29Z</time>
      </trkpt>
      <trkpt lat="39.905722" lon="116.619252">
        <time>2022-05-02T12:15:34Z</time>
      </trkpt>
      <trkpt lat="39.905642" lon="116.619119">
        <time>2022-05-02T12:15:39Z</time>
      </trkpt>
      <trkpt lat="39.905608" lon="116.619089">
        <time>2022-05-02T12:15:44Z</time>
      </trkpt>
      <trkpt lat="39.905608" lon="116.618895">
        <time>2022-05-02T12:15:49Z</time>
      </trkpt>
      <trkpt lat="39.905632" lon="116.618765">
        <time>2022-05-02T12:15:54Z</time>
      </trkpt>
      <trkpt lat="39.905658" lon="116.618621">
        <time>2022-05-02T12:15:59Z</time>
      </trkpt>
      <trkpt lat="39.905641" lon="116.61848">
        <time>2022-05-02T12:16:04Z</time>
      </trkpt>
      <trkpt lat="39.905628" lon="116.618328">
        <time>2022-05-02T12:16:09Z</time>
      </trkpt>
      <trkpt lat="39.905642" lon="116.618173">
        <time>2022-05-02T12:16:14Z</time>
      </trkpt>
      <trkpt lat="39.905653" lon="116.618053">
        <time>2022-05-02T12:16:19Z</time>
      </trkpt>
      <trkpt lat="39.905661" lon="116.617964">
        <time>2022-05-02T12:16:24Z</time>
      </trkpt>
      <trkpt lat="39.905663" lon="116.617781">
        <time>2022-05-02T12:16:29Z</time>
      </trkpt>
      <trkpt lat="39.905628" lon="116.617618">
        <time>2022-05-02T12:16:34Z</time>
      </trkpt>
      <trkpt lat="39.905639" lon="116.617469">
        <time>2022-05-02T12:16:39Z</time>
      </trkpt>
      <trkpt lat="39.905602" lon="116.61728">
        <time>2022-05-02T12:16:44Z</time>
      </trkpt>
      <trkpt lat="39.905587" lon="116.617209">
        <time>2022-05-02T12:16:49Z</time>
      </trkpt>
      <trkpt lat="39.905555" lon="116.61709">
        <time>2022-05-02T12:16:54Z</time>
      </trkpt>
      <trkpt lat="39.90556" lon="116.616982">
        <time>2022-05-02T12:16:59Z</time>
      </trkpt>
      <trkpt lat="39.905577" lon="116.616814">
        <time>2022-05-02T12:17:04Z</time>
      </trkpt>
      <trkpt lat="39.905586" lon="116.61662">
        <time>2022-05-02T12:17:09Z</time>
      </trkpt>
      <trkpt lat="39.905619" lon="116.616466">
        <time>2022-05-02T12:17:14Z</time>
      </trkpt>
      <trkpt lat="39.905652" lon="116.61639">
        <time>2022-05-02T12:17:19Z</time>
      </trkpt>
      <trkpt lat="39.905672" lon="116.616262">
        <time>2022-05-02T12:17:24Z</time>
      </trkpt>
      <trkpt lat="39.905669" lon="116.616105">
        <time>2022-05-02T12:17:29Z</time>
      </trkpt>
      <trkpt lat="39.905674" lon="116.615951">
        <time>2022-05-02T12:17:34Z</time>
      </trkpt>
      <trkpt lat="39.905677" lon="116.615801">
        <time>2022-05-02T12:17:39Z</time>
      </trkpt>
      <trkpt lat="39.905671" lon="116.615671">
        <time>2022-05-02T12:17:44Z</time>
      </trkpt>
      <trkpt lat="39.905665" lon="116.615527">
        <time>2022-05-02T12:17:49Z</time>
      </trkpt>
      <trkpt lat="39.905674" lon="116.615392">
        <time>2022-05-02T12:17:54Z</time>
      </trkpt>
      <trkpt lat="39.905677" lon="116.615281">
        <time>2022-05-02T12:17:59Z</time>
      </trkpt>
      <trkpt lat="39.905675" lon="116.615135">
        <time>2022-05-02T12:18:04Z</time>
      </trkpt>
      <trkpt lat="39.905648" lon="116.614998">
        <time>2022-05-02T12:18:09Z</time>
      </trkpt>
      <trkpt lat="39.905654" lon="116.614851">
        <time>2022-05-02T12:18:14Z</time>
      </trkpt>
      <trkpt lat="39.905635" lon="116.614693">
        <time>2022-05-02T12:18:19Z</time>
      </trkpt>
      <trkpt lat="39.905658" lon="116.614584">
        <time>2022-05-02T12:18:24Z</time>
      </trkpt>
      <trkpt lat="39.905751" lon="116.614564">
        <time>2022-05-02T12:18:29Z</time>
      </trkpt>
      <trkpt lat="39.905877" lon="116.614611">
        <time>2022-05-02T12:18:34Z</time>
      </trkpt>
      <trkpt lat="39.905886" lon="116.614543">
        <time>2022-05-02T12:18:39Z</time>
      </trkpt>
      <trkpt lat="39.905843" lon="116.614389">
        <time>2022-05-02T12:18:44Z</time>
      </trkpt>
      <trkpt lat="39.90583" lon="116.614277">
        <time>2022-05-02T12:18:49Z</time>
      </trkpt>
      <trkpt lat="39.905838" lon="116.614306">
        <time>2022-05-02T12:18:54Z</time>
      </trkpt>
      <trkpt lat="39.905865" lon="116.614375">
        <time>2022-05-02T12:18:59Z</time>
      </trkpt>
      <trkpt lat="39.905867" lon="116.614378">
        <time>2022-05-02T12:19:04Z</time>
      </trkpt>
      <trkpt lat="39.905843" lon="116.614374">
        <time>2022-05-02T12:19:09Z</time>
      </trkpt>
      <trkpt lat="39.905797" lon="116.61438">
        <time>2022-05-02T12:19:14Z</time>
      </trkpt>
      <trkpt lat="39.905792" lon="116.614363">
        <time>2022-05-02T12:19:19Z</time>
      </trkpt>
      <trkpt lat="39.905817" lon="116.61432">
        <time>2022-05-02T12:19:24Z</time>
      </trkpt>
      <trkpt lat="39.905823" lon="116.614279">
        <time>2022-05-02T12:19:29Z</time>
      </trkpt>
      <trkpt lat="39.905821" lon="116.61428">
        <time>2022-05-02T12:19:34Z</time>
      </trkpt>
      <trkpt lat="39.905837" lon="116.614267">
        <time>2022-05-02T12:19:39Z</time>
      </trkpt>
      <trkpt lat="39.905833" lon="116.614305">
        <time>2022-05-02T12:19:44Z</time>
      </trkpt>
      <trkpt lat="39.905856" lon="116.614321">
        <time>2022-05-02T12:19:49Z</time>
      </trkpt>
      <trkpt lat="39.905819" lon="116.6142">
        <time>2022-05-02T12:19:54Z</time>
      </trkpt>
      <trkpt lat="39.905854" lon="116.6141">
        <time>2022-05-02T12:19:59Z</time>
      </trkpt>
      <trkpt lat="39.905867" lon="116.613934">
        <time>2022-05-02T12:20:04Z</time>
      </trkpt>
      <trkpt lat="39.905863" lon="116.613739">
        <time>2022-05-02T12:20:09Z</time>
      </trkpt>
      <trkpt lat="39.905877" lon="116.613561">
        <time>2022-05-02T12:20:14Z</time>
      </trkpt>
      <trkpt lat="39.905876" lon="116.613403">
        <time>2022-05-02T12:20:19Z</time>
      </trkpt>
      <trkpt lat="39.905895" lon="116.613256">
        <time>2022-05-02T12:20:24Z</time>
      </trkpt>
      <trkpt lat="39.905908" lon="116.613099">
        <time>2022-05-02T12:20:29Z</time>
      </trkpt>
      <trkpt lat="39.905905" lon="116.612938">
        <time>2022-05-02T12:20:34Z</time>
      </trkpt>
      <trkpt lat="39.905884" lon="116.612777">
        <time>2022-05-02T12:20:39Z</time>
      </trkpt>
      <trkpt lat="39.905952" lon="116.612672">
        <time>2022-05-02T12:20:44Z</time>
      </trkpt>
      <trkpt lat="39.906083" lon="116.612657">
        <time>2022-05-02T12:20:49Z</time>
      </trkpt>
      <trkpt lat="39.90621" lon="116.612644">
        <time>2022-05-02T12:20:54Z</time>
      </trkpt>
      <trkpt lat="39.906336" lon="116.612622">
        <time>2022-05-02T12:20:59Z</time>
      </trkpt>
      <trkpt lat="39.906445" lon="116.612606">
        <time>2022-05-02T12:21:04Z</time>
      </trkpt>
      <trkpt lat="39.906549" lon="116.612524">
        <time>2022-05-02T12:21:09Z</time>
      </trkpt>
      <trkpt lat="39.906645" lon="116.612479">
        <time>2022-05-02T12:21:14Z</time>
      </trkpt>
      <trkpt lat="39.906765" lon="116.612506">
        <time>2022-05-02T12:21:19Z</time>
      </trkpt>
      <trkpt lat="39.906879" lon="116.612578">
        <time>2022-05-02T12:21:24Z</time>
      </trkpt>
      <trkpt lat="39.906921" lon="116.612742">
        <time>2022-05-02T12:21:29Z</time>
      </trkpt>
      <trkpt lat="39.906963" lon="116.612914">
        <time>2022-05-02T12:21:34Z</time>
      </trkpt>
      <trkpt lat="39.90701" lon="116.613081">
        <time>2022-05-02T12:21:39Z</time>
      </trkpt>
      <trkpt lat="39.907062" lon="116.613243">
        <time>2022-05-02T12:21:44Z</time>
      </trkpt>
      <trkpt lat="39.907109" lon="116.613378">
        <time>2022-05-02T12:21:49Z</time>
      </trkpt>
      <trkpt lat="39.907156" lon="116.61352">
        <time>2022-05-02T12:21:54Z</time>
      </trkpt>
      <trkpt lat="39.907202" lon="116.613668">
        <time>2022-05-02T12:21:59Z</time>
      </trkpt>
      <trkpt lat="39.90725" lon="116.613829">
        <time>2022-05-02T12:22:04Z</time>
      </trkpt>
      <trkpt lat="39.907264" lon="116.613989">
        <time>2022-05-02T12:22:09Z</time>
      </trkpt>
      <trkpt lat="39.907258" lon="116.614144">
        <time>2022-05-02T12:22:14Z</time>
      </trkpt>
      <trkpt lat="39.907274" lon="116.614288">
        <time>2022-05-02T12:22:19Z</time>
      </trkpt>
      <trkpt lat="39.907328" lon="116.614399">
        <time>2022-05-02T12:22:24Z</time>
      </trkpt>
      <trkpt lat="39.90741" lon="116.614503">
        <time>2022-05-02T12:22:29Z</time>
      </trkpt>
      <trkpt lat="39.907474" lon="116.614618">
        <time>2022-05-02T12:22:34Z</time>
      </trkpt>
      <trkpt lat="39.907479" lon="116.614781">
        <time>2022-05-02T12:22:39Z</time>
      </trkpt>
      <trkpt lat="39.907403" lon="116.614926">
        <time>2022-05-02T12:22:44Z</time>
      </trkpt>
      <trkpt lat="39.907322" lon="116.615043">
        <time>2022-05-02T12:22:49Z</time>
      </trkpt>
      <trkpt lat="39.907259" lon="116.615167">
        <time>2022-05-02T12:22:54Z</time>
      </trkpt>
      <trkpt lat="39.907231" lon="116.615285">
        <time>2022-05-02T12:22:59Z</time>
      </trkpt>
      <trkpt lat="39.907211" lon="116.615438">
        <time>2022-05-02T12:23:04Z</time>
      </trkpt>
      <trkpt lat="39.907191" lon="116.615577">
        <time>2022-05-02T12:23:09Z</time>
      </trkpt>
      <trkpt lat="39.90717" lon="116.615731">
        <time>2022-05-02T12:23:14Z</time>
      </trkpt>
      <trkpt lat="39.907152" lon="116.615877">
        <time>2022-05-02T12:23:19Z</time>
      </trkpt>
      <trkpt lat="39.907138" lon="116.616009">
        <time>2022-05-02T12:23:24Z</time>
      </trkpt>
      <trkpt lat="39.907123" lon="116.616164">
        <time>2022-05-02T12:23:29Z</time>
      </trkpt>
      <trkpt lat="39.907138" lon="116.616323">
        <time>2022-05-02T12:23:34Z</time>
      </trkpt>
      <trkpt lat="39.907152" lon="116.616455">
        <time>2022-05-02T12:23:39Z</time>
      </trkpt>
      <trkpt lat="39.90717" lon="116.616594">
        <time>2022-05-02T12:23:44Z</time>
      </trkpt>
      <trkpt lat="39.907184" lon="116.616715">
        <time>2022-05-02T12:23:49Z</time>
      </trkpt>
      <trkpt lat="39.90721" lon="116.616837">
        <time>2022-05-02T12:23:54Z</time>
      </trkpt>
      <trkpt lat="39.907233" lon="116.616945">
        <time>2022-05-02T12:23:59Z</time>
      </trkpt>
      <trkpt lat="39.907252" lon="116.617076">
        <time>2022-05-02T12:24:04Z</time>
      </trkpt>
      <trkpt lat="39.907265" lon="116.617215">
        <time>2022-05-02T12:24:09Z</time>
      </trkpt>
      <trkpt lat="39.907283" lon="116.61732">
        <time>2022-05-02T12:24:14Z</time>
      </trkpt>
      <trkpt lat="39.907308" lon="116.617455">
        <time>2022-05-02T12:24:19Z</time>
      </trkpt>
      <trkpt lat="39.907322" lon="116.617608">
        <time>2022-05-02T12:24:24Z</time>
      </trkpt>
      <trkpt lat="39.907339" lon="116.617758">
        <time>2022-05-02T12:24:29Z</time>
      </trkpt>
      <trkpt lat="39.907381" lon="116.617916">
        <time>2022-05-02T12:24:34Z</time>
      </trkpt>
      <trkpt lat="39.907401" lon="116.61808">
        <time>2022-05-02T12:24:39Z</time>
      </trkpt>
      <trkpt lat="39.907413" lon="116.618243">
        <time>2022-05-02T12:24:44Z</time>
      </trkpt>
      <trkpt lat="39.907416" lon="116.618387">
        <time>2022-05-02T12:24:49Z</time>
      </trkpt>
      <trkpt lat="39.907428" lon="116.618551">
        <time>2022-05-02T12:24:54Z</time>
      </trkpt>
      <trkpt lat="39.907439" lon="116.61871">
        <time>2022-05-02T12:24:59Z</time>
      </trkpt>
      <trkpt lat="39.907449" lon="116.618876">
        <time>2022-05-02T12:25:04Z</time>
      </trkpt>
      <trkpt lat="39.907472" lon="116.619016">
        <time>2022-05-02T12:25:09Z</time>
      </trkpt>
      <trkpt lat="39.907475" lon="116.619171">
        <time>2022-05-02T12:25:14Z</time>
      </trkpt>
      <trkpt lat="39.907469" lon="116.61932">
        <time>2022-05-02T12:25:19Z</time>
      </trkpt>
      <trkpt lat="39.907488" lon="116.619465">
        <time>2022-05-02T12:25:24Z</time>
      </trkpt>
      <trkpt lat="39.907513" lon="116.619609">
        <time>2022-05-02T12:25:29Z</time>
      </trkpt>
      <trkpt lat="39.907528" lon="116.61976">
        <time>2022-05-02T12:25:34Z</time>
      </trkpt>
      <trkpt lat="39.907559" lon="116.619889">
        <time>2022-05-02T12:25:39Z</time>
      </trkpt>
      <trkpt lat="39.907611" lon="116.620022">
        <time>2022-05-02T12:25:44Z</time>
      </trkpt>
      <trkpt lat="39.907639" lon="116.620178">
        <time>2022-05-02T12:25:49Z</time>
      </trkpt>
      <trkpt lat="39.907665" lon="116.620306">
        <time>2022-05-02T12:25:54Z</time>
      </trkpt>
      <trkpt lat="39.90765" lon="116.620439">
        <time>2022-05-02T12:25:59Z</time>
      </trkpt>
      <trkpt lat="39.907652" lon="116.620555">
        <time>2022-05-02T12:26:04Z</time>
      </trkpt>
      <trkpt lat="39.907691" lon="116.620691">
        <time>2022-05-02T12:26:09Z</time>
      </trkpt>
      <trkpt lat="39.907697" lon="116.620822">
        <time>2022-05-02T12:26:14Z</time>
      </trkpt>
      <trkpt lat="39.907695" lon="116.62095">
        <time>2022-05-02T12:26:19Z</time>
      </trkpt>
      <trkpt lat="39.907726" lon="116.62108">
        <time>2022-05-02T12:26:24Z</time>
      </trkpt>
      <trkpt lat="39.907755" lon="116.621222">
        <time>2022-05-02T12:26:29Z</time>
      </trkpt>
      <trkpt lat="39.907777" lon="116.621355">
        <time>2022-05-02T12:26:34Z</time>
      </trkpt>
      <trkpt lat="39.907798" lon="116.621511">
        <time>2022-05-02T12:26:39Z</time>
      </trkpt>
      <trkpt lat="39.907838" lon="116.621635">
        <time>2022-05-02T12:26:44Z</time>
      </trkpt>
      <trkpt lat="39.907839" lon="116.621782">
        <time>2022-05-02T12:26:49Z</time>
      </trkpt>
      <trkpt lat="39.907865" lon="116.621916">
        <time>2022-05-02T12:26:54Z</time>
      </trkpt>
      <trkpt lat="39.907878" lon="116.622055">
        <time>2022-05-02T12:26:59Z</time>
      </trkpt>
      <trkpt lat="39.907892" lon="116.622194">
        <time>2022-05-02T12:27:04Z</time>
      </trkpt>
      <trkpt lat="39.907885" lon="116.622332">
        <time>2022-05-02T12:27:09Z</time>
      </trkpt>
      <trkpt lat="39.907923" lon="116.622493">
        <time>2022-05-02T12:27:14Z</time>
      </trkpt>
      <trkpt lat="39.907937" lon="116.622626">
        <time>2022-05-02T12:27:19Z</time>
      </trkpt>
      <trkpt lat="39.907946" lon="116.622741">
        <time>2022-05-02T12:27:24Z</time>
      </trkpt>
      <trkpt lat="39.907982" lon="116.622873">
        <time>2022-05-02T12:27:29Z</time>
      </trkpt>
      <trkpt lat="39.908006" lon="116.623005">
        <time>2022-05-02T12:27:34Z</time>
      </trkpt>
      <trkpt lat="39.908021" lon="116.62312">
        <time>2022-05-02T12:27:39Z</time>
      </trkpt>
      <trkpt lat="39.908039" lon="116.623255">
        <time>2022-05-02T12:27:44Z</time>
      </trkpt>
      <trkpt lat="39.908061" lon="116.62337">
        <time>2022-05-02T12:27:49Z</time>
      </trkpt>
      <trkpt lat="39.908083" lon="116.62349">
        <time>2022-05-02T12:27:54Z</time>
      </trkpt>
      <trkpt lat="39.90811" lon="116.623607">
        <time>2022-05-02T12:27:59Z</time>
      </trkpt>
      <trkpt lat="39.908121" lon="116.623742">
        <time>2022-05-02T12:28:04Z</time>
      </trkpt>
      <trkpt lat="39.908139" lon="116.62389">
        <time>2022-05-02T12:28:09Z</time>
      </trkpt>
      <trkpt lat="39.908153" lon="116.624039">
        <time>2022-05-02T12:28:14Z</time>
      </trkpt>
      <trkpt lat="39.908168" lon="116.624186">
        <time>2022-05-02T12:28:19Z</time>
      </trkpt>
      <trkpt lat="39.908183" lon="116.624348">
        <time>2022-05-02T12:28:24Z</time>
      </trkpt>
      <trkpt lat="39.908195" lon="116.624492">
        <time>2022-05-02T12:28:29Z</time>
      </trkpt>
      <trkpt lat="39.908196" lon="116.624624">
        <time>2022-05-02T12:28:34Z</time>
      </trkpt>
      <trkpt lat="39.908192" lon="116.624783">
        <time>2022-05-02T12:28:39Z</time>
      </trkpt>
      <trkpt lat="39.908186" lon="116.62492">
        <time>2022-05-02T12:28:44Z</time>
      </trkpt>
      <trkpt lat="39.90818" lon="116.625072">
        <time>2022-05-02T12:28:49Z</time>
      </trkpt>
      <trkpt lat="39.9082" lon="116.625226">
        <time>2022-05-02T12:28:54Z</time>
      </trkpt>
      <trkpt lat="39.908238" lon="116.625354">
        <time>2022-05-02T12:28:59Z</time>
      </trkpt>
      <trkpt lat="39.908245" lon="116.625511">
        <time>2022-05-02T12:29:04Z</time>
      </trkpt>
      <trkpt lat="39.90823" lon="116.625679">
        <time>2022-05-02T12:29:09Z</time>
      </trkpt>
      <trkpt lat="39.908277" lon="116.625795">
        <time>2022-05-02T12:29:14Z</time>
      </trkpt>
      <trkpt lat="39.908315" lon="116.625957">
        <time>2022-05-02T12:29:19Z</time>
      </trkpt>
      <trkpt lat="39.908353" lon="116.626111">
        <time>2022-05-02T12:29:24Z</time>
      </trkpt>
      <trkpt lat="39.908382" lon="116.626255">
        <time>2022-05-02T12:29:29Z</time>
      </trkpt>
      <trkpt lat="39.908397" lon="116.626347">
        <time>2022-05-02T12:29:34Z</time>
      </trkpt>
      <trkpt lat="39.908411" lon="116.626454">
        <time>2022-05-02T12:29:39Z</time>
      </trkpt>
      <trkpt lat="39.908421" lon="116.626555">
        <time>2022-05-02T12:29:44Z</time>
      </trkpt>
      <trkpt lat="39.908446" lon="116.626663">
        <time>2022-05-02T12:29:49Z</time>
      </trkpt>
      <trkpt lat="39.908458" lon="116.626773">
        <time>2022-05-02T12:29:54Z</time>
      </trkpt>
      <trkpt lat="39.908475" lon="116.626895">
        <time>2022-05-02T12:29:59Z</time>
      </trkpt>
      <trkpt lat="39.908486" lon="116.627008">
        <time>2022-05-02T12:30:04Z</time>
      </trkpt>
      <trkpt lat="39.908506" lon="116.627132">
        <time>2022-05-02T12:30:09Z</time>
      </trkpt>
      <trkpt lat="39.908531" lon="116.627279">
        <time>2022-05-02T12:30:14Z</time>
      </trkpt>
      <trkpt lat="39.908546" lon="116.627394">
        <time>2022-05-02T12:30:19Z</time>
      </trkpt>
      <trkpt lat="39.908567" lon="116.627536">
        <time>2022-05-02T12:30:24Z</time>
      </trkpt>
      <trkpt lat="39.90856" lon="116.627676">
        <time>2022-05-02T12:30:29Z</time>
      </trkpt>
      <trkpt lat="39.908571" lon="116.627782">
        <time>2022-05-02T12:30:34Z</time>
      </trkpt>
      <trkpt lat="39.908588" lon="116.627925">
        <time>2022-05-02T12:30:39Z</time>
      </trkpt>
      <trkpt lat="39.908608" lon="116.628051">
        <time>2022-05-02T12:30:44Z</time>
      </trkpt>
      <trkpt lat="39.908619" lon="116.628181">
        <time>2022-05-02T12:30:49Z</time>
      </trkpt>
      <trkpt lat="39.908622" lon="116.628309">
        <time>2022-05-02T12:30:54Z</time>
      </trkpt>
      <trkpt lat="39.908632" lon="116.628441">
        <time>2022-05-02T12:30:59Z</time>
      </trkpt>
      <trkpt lat="39.908654" lon="116.628581">
        <time>2022-05-02T12:31:04Z</time>
      </trkpt>
      <trkpt lat="39.908683" lon="116.62872">
        <time>2022-05-02T12:31:09Z</time>
      </trkpt>
      <trkpt lat="39.908695" lon="116.628832">
        <time>2022-05-02T12:31:14Z</time>
      </trkpt>
      <trkpt lat="39.90872" lon="116.628958">
        <time>2022-05-02T12:31:19Z</time>
      </trkpt>
      <trkpt lat="39.908737" lon="116.629089">
        <time>2022-05-02T12:31:24Z</time>
      </trkpt>
      <trkpt lat="39.908757" lon="116.629186">
        <time>2022-05-02T12:31:29Z</time>
      </trkpt>
      <trkpt lat="39.908775" lon="116.629297">
        <time>2022-05-02T12:31:34Z</time>
      </trkpt>
      <trkpt lat="39.908795" lon="116.62944">
        <time>2022-05-02T12:31:39Z</time>
      </trkpt>
      <trkpt lat="39.908809" lon="116.629566">
        <time>2022-05-02T12:31:44Z</time>
      </trkpt>
      <trkpt lat="39.908828" lon="116.629681">
        <time>2022-05-02T12:31:49Z</time>
      </trkpt>
      <trkpt lat="39.90884" lon="116.629797">
        <time>2022-05-02T12:31:54Z</time>
      </trkpt>
      <trkpt lat="39.908846" lon="116.629929">
        <time>2022-05-02T12:31:59Z</time>
      </trkpt>
      <trkpt lat="39.908854" lon="116.63007">
        <time>2022-05-02T12:32:04Z</time>
      </trkpt>
      <trkpt lat="39.908871" lon="116.630211">
        <time>2022-05-02T12:32:09Z</time>
      </trkpt>
      <trkpt lat="39.908906" lon="116.63034">
        <time>2022-05-02T12:32:14Z</time>
      </trkpt>
      <trkpt lat="39.908931" lon="116.630462">
        <time>2022-05-02T12:32:19Z</time>
      </trkpt>
      <trkpt lat="39.90895" lon="116.630585">
        <time>2022-05-02T12:32:24Z</time>
      </trkpt>
      <trkpt lat="39.908969" lon="116.630718">
        <time>2022-05-02T12:32:29Z</time>
      </trkpt>
      <trkpt lat="39.908985" lon="116.63084">
        <time>2022-05-02T12:32:34Z</time>
      </trkpt>
      <trkpt lat="39.908996" lon="116.630946">
        <time>2022-05-02T12:32:39Z</time>
      </trkpt>
      <trkpt lat="39.909001" lon="116.631056">
        <time>2022-05-02T12:32:44Z</time>
      </trkpt>
      <trkpt lat="39.909017" lon="116.631193">
        <time>2022-05-02T12:32:49Z</time>
      </trkpt>
      <trkpt lat="39.909038" lon="116.631338">
        <time>2022-05-02T12:32:54Z</time>
      </trkpt>
      <trkpt lat="39.909057" lon="116.631494">
        <time>2022-05-02T12:32:59Z</time>
      </trkpt>
      <trkpt lat="39.909079" lon="116.63165">
        <time>2022-05-02T12:33:04Z</time>
      </trkpt>
      <trkpt lat="39.909096" lon="116.631816">
        <time>2022-05-02T12:33:09Z</time>
      </trkpt>
      <trkpt lat="39.909136" lon="116.631967">
        <time>2022-05-02T12:33:14Z</time>
      </trkpt>
      <trkpt lat="39.909143" lon="116.632132">
        <time>2022-05-02T12:33:19Z</time>
      </trkpt>
      <trkpt lat="39.909141" lon="116.632283">
        <time>2022-05-02T12:33:24Z</time>
      </trkpt>
      <trkpt lat="39.909155" lon="116.632455">
        <time>2022-05-02T12:33:29Z</time>
      </trkpt>
      <trkpt lat="39.909172" lon="116.632615">
        <time>2022-05-02T12:33:34Z</time>
      </trkpt>
      <trkpt lat="39.909192" lon="116.632756">
        <time>2022-05-02T12:33:39Z</time>
      </trkpt>
      <trkpt lat="39.909205" lon="116.632907">
        <time>2022-05-02T12:33:44Z</time>
      </trkpt>
      <trkpt lat="39.909209" lon="116.633063">
        <time>2022-05-02T12:33:49Z</time>
      </trkpt>
      <trkpt lat="39.909221" lon="116.633237">
        <time>2022-05-02T12:33:54Z</time>
      </trkpt>
      <trkpt lat="39.909233" lon="116.633394">
        <time>2022-05-02T12:33:59Z</time>
      </trkpt>
      <trkpt lat="39.909245" lon="116.633557">
        <time>2022-05-02T12:34:04Z</time>
      </trkpt>
      <trkpt lat="39.909256" lon="116.633716">
        <time>2022-05-02T12:34:09Z</time>
      </trkpt>
      <trkpt lat="39.909243" lon="116.633887">
        <time>2022-05-02T12:34:14Z</time>
      </trkpt>
      <trkpt lat="39.909229" lon="116.634044">
        <time>2022-05-02T12:34:19Z</time>
      </trkpt>
      <trkpt lat="39.909223" lon="116.634209">
        <time>2022-05-02T12:34:24Z</time>
      </trkpt>
      <trkpt lat="39.909224" lon="116.634352">
        <time>2022-05-02T12:34:29Z</time>
      </trkpt>
      <trkpt lat="39.909231" lon="116.634485">
        <time>2022-05-02T12:34:34Z</time>
      </trkpt>
      <trkpt lat="39.909236" lon="116.634651">
        <time>2022-05-02T12:34:39Z</time>
      </trkpt>
      <trkpt lat="39.909241" lon="116.634804">
        <time>2022-05-02T12:34:44Z</time>
      </trkpt>
      <trkpt lat="39.909257" lon="116.634937">
        <time>2022-05-02T12:34:49Z</time>
      </trkpt>
      <trkpt lat="39.909268" lon="116.635065">
        <time>2022-05-02T12:34:54Z</time>
      </trkpt>
      <trkpt lat="39.909292" lon="116.635205">
        <time>2022-05-02T12:34:59Z</time>
      </trkpt>
      <trkpt lat="39.909304" lon="116.635336">
        <time>2022-05-02T12:35:04Z</time>
      </trkpt>
      <trkpt lat="39.909314" lon="116.635467">
        <time>2022-05-02T12:35:09Z</time>
      </trkpt>
      <trkpt lat="39.909322" lon="116.635607">
        <time>2022-05-02T12:35:14Z</time>
      </trkpt>
      <trkpt lat="39.909308" lon="116.63574">
        <time>2022-05-02T12:35:19Z</time>
      </trkpt>
      <trkpt lat="39.909305" lon="116.635865">
        <time>2022-05-02T12:35:24Z</time>
      </trkpt>
      <trkpt lat="39.909313" lon="116.635981">
        <time>2022-05-02T12:35:29Z</time>
      </trkpt>
      <trkpt lat="39.909319" lon="116.636091">
        <time>2022-05-02T12:35:34Z</time>
      </trkpt>
      <trkpt lat="39.909323" lon="116.636204">
        <time>2022-05-02T12:35:39Z</time>
      </trkpt>
      <trkpt lat="39.909319" lon="116.636343">
        <time>2022-05-02T12:35:44Z</time>
      </trkpt>
      <trkpt lat="39.909315" lon="116.636479">
        <time>2022-05-02T12:35:49Z</time>
      </trkpt>
      <trkpt lat="39.909313" lon="116.636611">
        <time>2022-05-02T12:35:54Z</time>
      </trkpt>
      <trkpt lat="39.909306" lon="116.636704">
        <time>2022-05-02T12:35:59Z</time>
      </trkpt>
      <trkpt lat="39.909292" lon="116.636822">
        <time>2022-05-02T12:36:04Z</time>
      </trkpt>
      <trkpt lat="39.909297" lon="116.636943">
        <time>2022-05-02T12:36:09Z</time>
      </trkpt>
      <trkpt lat="39.909294" lon="116.637071">
        <time>2022-05-02T12:36:14Z</time>
      </trkpt>
      <trkpt lat="39.909294" lon="116.637071">
        <time>2022-05-02T12:36:19Z</time>
      </trkpt>
      <trkpt lat="39.909286" lon="116.637157">
        <time>2022-05-02T12:36:24Z</time>
      </trkpt>
      <trkpt lat="39.909269" lon="116.637377">
        <time>2022-05-02T12:36:29Z</time>
      </trkpt>
      <trkpt lat="39.909272" lon="116.637542">
        <time>2022-05-02T12:36:34Z</time>
      </trkpt>
      <trkpt lat="39.909252" lon="116.637661">
        <time>2022-05-02T12:36:39Z</time>
      </trkpt>
      <trkpt lat="39.909263" lon="116.637805">
        <time>2022-05-02T12:36:44Z</time>
      </trkpt>
      <trkpt lat="39.909224" lon="116.638003">
        <time>2022-05-02T12:36:49Z</time>
      </trkpt>
      <trkpt lat="39.9092" lon="116.638184">
        <time>2022-05-02T12:36:54Z</time>
      </trkpt>
      <trkpt lat="39.909209" lon="116.63835">
        <time>2022-05-02T12:36:59Z</time>
      </trkpt>
      <trkpt lat="39.909211" lon="116.638482">
        <time>2022-05-02T12:37:04Z</time>
      </trkpt>
      <trkpt lat="39.909209" lon="116.638635">
        <time>2022-05-02T12:37:09Z</time>
      </trkpt>
      <trkpt lat="39.909224" lon="116.638784">
        <time>2022-05-02T12:37:14Z</time>
      </trkpt>
      <trkpt lat="39.909233" lon="116.638952">
        <time>2022-05-02T12:37:19Z</time>
      </trkpt>
      <trkpt lat="39.90926" lon="116.639087">
        <time>2022-05-02T12:37:24Z</time>
      </trkpt>
      <trkpt lat="39.909252" lon="116.639267">
        <time>2022-05-02T12:37:29Z</time>
      </trkpt>
      <trkpt lat="39.909254" lon="116.63944">
        <time>2022-05-02T12:37:34Z</time>
      </trkpt>
      <trkpt lat="39.909276" lon="116.639582">
        <time>2022-05-02T12:37:39Z</time>
      </trkpt>
      <trkpt lat="39.909275" lon="116.639749">
        <time>2022-05-02T12:37:44Z</time>
      </trkpt>
      <trkpt lat="39.909267" lon="116.639945">
        <time>2022-05-02T12:37:49Z</time>
      </trkpt>
      <trkpt lat="39.909285" lon="116.64013">
        <time>2022-05-02T12:37:54Z</time>
      </trkpt>
      <trkpt lat="39.9093" lon="116.640317">
        <time>2022-05-02T12:37:59Z</time>
      </trkpt>
      <trkpt lat="39.909294" lon="116.640488">
        <time>2022-05-02T12:38:04Z</time>
      </trkpt>
      <trkpt lat="39.909304" lon="116.640651">
        <time>2022-05-02T12:38:09Z</time>
      </trkpt>
      <trkpt lat="39.909314" lon="116.640818">
        <time>2022-05-02T12:38:14Z</time>
      </trkpt>
      <trkpt lat="39.909319" lon="116.640955">
        <time>2022-05-02T12:38:19Z</time>
      </trkpt>
      <trkpt lat="39.909296" lon="116.64108">
        <time>2022-05-02T12:38:24Z</time>
      </trkpt>
      <trkpt lat="39.909289" lon="116.64121">
        <time>2022-05-02T12:38:29Z</time>
      </trkpt>
      <trkpt lat="39.909286" lon="116.641334">
        <time>2022-05-02T12:38:34Z</time>
      </trkpt>
      <trkpt lat="39.909298" lon="116.641492">
        <time>2022-05-02T12:38:39Z</time>
      </trkpt>
      <trkpt lat="39.909287" lon="116.641645">
        <time>2022-05-02T12:38:44Z</time>
      </trkpt>
      <trkpt lat="39.909303" lon="116.641756">
        <time>2022-05-02T12:38:49Z</time>
      </trkpt>
      <trkpt lat="39.909318" lon="116.641882">
        <time>2022-05-02T12:38:54Z</time>
      </trkpt>
      <trkpt lat="39.909308" lon="116.642024">
        <time>2022-05-02T12:38:59Z</time>
      </trkpt>
      <trkpt lat="39.909332" lon="116.642141">
        <time>2022-05-02T12:39:04Z</time>
      </trkpt>
      <trkpt lat="39.909312" lon="116.642254">
        <time>2022-05-02T12:39:09Z</time>
      </trkpt>
      <trkpt lat="39.90932" lon="116.642382">
        <time>2022-05-02T12:39:14Z</time>
      </trkpt>
      <trkpt lat="39.90932" lon="116.642524">
        <time>2022-05-02T12:39:19Z</time>
      </trkpt>
      <trkpt lat="39.909297" lon="116.642675">
        <time>2022-05-02T12:39:24Z</time>
      </trkpt>
      <trkpt lat="39.909334" lon="116.642788">
        <time>2022-05-02T12:39:29Z</time>
      </trkpt>
      <trkpt lat="39.909345" lon="116.642921">
        <time>2022-05-02T12:39:34Z</time>
      </trkpt>
      <trkpt lat="39.909333" lon="116.643057">
        <time>2022-05-02T12:39:39Z</time>
      </trkpt>
      <trkpt lat="39.909328" lon="116.643175">
        <time>2022-05-02T12:39:44Z</time>
      </trkpt>
      <trkpt lat="39.909333" lon="116.643298">
        <time>2022-05-02T12:39:49Z</time>
      </trkpt>
      <trkpt lat="39.909339" lon="116.643452">
        <time>2022-05-02T12:39:54Z</time>
      </trkpt>
      <trkpt lat="39.909343" lon="116.643567">
        <time>2022-05-02T12:39:59Z</time>
      </trkpt>
      <trkpt lat="39.909346" lon="116.643709">
        <time>2022-05-02T12:40:04Z</time>
      </trkpt>
      <trkpt lat="39.909348" lon="116.643858">
        <time>2022-05-02T12:40:09Z</time>
      </trkpt>
      <trkpt lat="39.909343" lon="116.643994">
        <time>2022-05-02T12:40:14Z</time>
      </trkpt>
      <trkpt lat="39.909326" lon="116.644116">
        <time>2022-05-02T12:40:19Z</time>
      </trkpt>
      <trkpt lat="39.909349" lon="116.644245">
        <time>2022-05-02T12:40:24Z</time>
      </trkpt>
      <trkpt lat="39.909357" lon="116.644399">
        <time>2022-05-02T12:40:29Z</time>
      </trkpt>
      <trkpt lat="39.909367" lon="116.644527">
        <time>2022-05-02T12:40:34Z</time>
      </trkpt>
      <trkpt lat="39.909371" lon="116.6446">
        <time>2022-05-02T12:40:39Z</time>
      </trkpt>
      <trkpt lat="39.909371" lon="116.644748">
        <time>2022-05-02T12:40:44Z</time>
      </trkpt>
      <trkpt lat="39.9094" lon="116.644872">
        <time>2022-05-02T12:40:49Z</time>
      </trkpt>
      <trkpt lat="39.909464" lon="116.645016">
        <time>2022-05-02T12:40:54Z</time>
      </trkpt>
      <trkpt lat="39.909519" lon="116.645159">
        <time>2022-05-02T12:40:59Z</time>
      </trkpt>
      <trkpt lat="39.909539" lon="116.645304">
        <time>2022-05-02T12:41:04Z</time>
      </trkpt>
      <trkpt lat="39.909548" lon="116.645435">
        <time>2022-05-02T12:41:09Z</time>
      </trkpt>
      <trkpt lat="39.909558" lon="116.645568">
        <time>2022-05-02T12:41:14Z</time>
      </trkpt>
      <trkpt lat="39.909578" lon="116.645705">
        <time>2022-05-02T12:41:19Z</time>
      </trkpt>
      <trkpt lat="39.90962" lon="116.645834">
        <time>2022-05-02T12:41:24Z</time>
      </trkpt>
      <trkpt lat="39.909671" lon="116.645977">
        <time>2022-05-02T12:41:29Z</time>
      </trkpt>
      <trkpt lat="39.90972" lon="116.646133">
        <time>2022-05-02T12:41:34Z</time>
      </trkpt>
      <trkpt lat="39.90977" lon="116.646262">
        <time>2022-05-02T12:41:39Z</time>
      </trkpt>
      <trkpt lat="39.909813" lon="116.64641">
        <time>2022-05-02T12:41:44Z</time>
      </trkpt>
      <trkpt lat="39.909864" lon="116.646552">
        <time>2022-05-02T12:41:49Z</time>
      </trkpt>
      <trkpt lat="39.909908" lon="116.646657">
        <time>2022-05-02T12:41:54Z</time>
      </trkpt>
      <trkpt lat="39.909948" lon="116.646784">
        <time>2022-05-02T12:41:59Z</time>
      </trkpt>
      <trkpt lat="39.909973" lon="116.64691">
        <time>2022-05-02T12:42:04Z</time>
      </trkpt>
      <trkpt lat="39.910015" lon="116.647036">
        <time>2022-05-02T12:42:09Z</time>
      </trkpt>
      <trkpt lat="39.910043" lon="116.64718">
        <time>2022-05-02T12:42:14Z</time>
      </trkpt>
      <trkpt lat="39.910069" lon="116.647323">
        <time>2022-05-02T12:42:19Z</time>
      </trkpt>
      <trkpt lat="39.91012" lon="116.647455">
        <time>2022-05-02T12:42:24Z</time>
      </trkpt>
      <trkpt lat="39.910165" lon="116.647599">
        <time>2022-05-02T12:42:29Z</time>
      </trkpt>
      <trkpt lat="39.91021" lon="116.647746">
        <time>2022-05-02T12:42:34Z</time>
      </trkpt>
      <trkpt lat="39.910233" lon="116.647877">
        <time>2022-05-02T12:42:39Z</time>
      </trkpt>
      <trkpt lat="39.910254" lon="116.647998">
        <time>2022-05-02T12:42:44Z</time>
      </trkpt>
      <trkpt lat="39.910256" lon="116.648099">
        <time>2022-05-02T12:42:49Z</time>
      </trkpt>
      <trkpt lat="39.910299" lon="116.648247">
        <time>2022-05-02T12:42:54Z</time>
      </trkpt>
      <trkpt lat="39.910352" lon="116.648353">
        <time>2022-05-02T12:42:59Z</time>
      </trkpt>
      <trkpt lat="39.910372" lon="116.648494">
        <time>2022-05-02T12:43:04Z</time>
      </trkpt>
      <trkpt lat="39.910407" lon="116.648662">
        <time>2022-05-02T12:43:09Z</time>
      </trkpt>
      <trkpt lat="39.91045" lon="116.648812">
        <time>2022-05-02T12:43:14Z</time>
      </trkpt>
      <trkpt lat="39.910496" lon="116.648946">
        <time>2022-05-02T12:43:19Z</time>
      </trkpt>
      <trkpt lat="39.910539" lon="116.649075">
        <time>2022-05-02T12:43:24Z</time>
      </trkpt>
      <trkpt lat="39.910559" lon="116.649216">
        <time>2022-05-02T12:43:29Z</time>
      </trkpt>
      <trkpt lat="39.910594" lon="116.649347">
        <time>2022-05-02T12:43:34Z</time>
      </trkpt>
      <trkpt lat="39.910636" lon="116.649472">
        <time>2022-05-02T12:43:39Z</time>
      </trkpt>
      <trkpt lat="39.910661" lon="116.649618">
        <time>2022-05-02T12:43:44Z</time>
      </trkpt>
      <trkpt lat="39.910704" lon="116.649742">
        <time>2022-05-02T12:43:49Z</time>
      </trkpt>
      <trkpt lat="39.910746" lon="116.64989">
        <time>2022-05-02T12:43:54Z</time>
      </trkpt>
      <trkpt lat="39.910813" lon="116.650012">
        <time>2022-05-02T12:43:59Z</time>
      </trkpt>
      <trkpt lat="39.910827" lon="116.650154">
        <time>2022-05-02T12:44:04Z</time>
      </trkpt>
      <trkpt lat="39.910836" lon="116.650333">
        <time>2022-05-02T12:44:09Z</time>
      </trkpt>
      <trkpt lat="39.910828" lon="116.650499">
        <time>2022-05-02T12:44:14Z</time>
      </trkpt>
      <trkpt lat="39.910824" lon="116.65066">
        <time>2022-05-02T12:44:19Z</time>
      </trkpt>
      <trkpt lat="39.910907" lon="116.650785">
        <time>2022-05-02T12:44:24Z</time>
      </trkpt>
      <trkpt lat="39.910992" lon="116.650868">
        <time>2022-05-02T12:44:29Z</time>
      </trkpt>
      <trkpt lat="39.910893" lon="116.650938">
        <time>2022-05-02T12:44:34Z</time>
      </trkpt>
      <trkpt lat="39.910791" lon="116.650931">
        <time>2022-05-02T12:44:39Z</time>
      </trkpt>
      <trkpt lat="39.910678" lon="116.650911">
        <time>2022-05-02T12:44:44Z</time>
      </trkpt>
      <trkpt lat="39.910542" lon="116.650929">
        <time>2022-05-02T12:44:49Z</time>
      </trkpt>
      <trkpt lat="39.910422" lon="116.650967">
        <time>2022-05-02T12:44:54Z</time>
      </trkpt>
      <trkpt lat="39.910306" lon="116.650991">
        <time>2022-05-02T12:44:59Z</time>
      </trkpt>
      <trkpt lat="39.910178" lon="116.651009">
        <time>2022-05-02T12:45:04Z</time>
      </trkpt>
      <trkpt lat="39.910066" lon="116.651008">
        <time>2022-05-02T12:45:09Z</time>
      </trkpt>
      <trkpt lat="39.91006" lon="116.650967">
        <time>2022-05-02T12:45:14Z</time>
      </trkpt>
      <trkpt lat="39.910101" lon="116.650942">
        <time>2022-05-02T12:45:19Z</time>
      </trkpt>
      <trkpt lat="39.910085" lon="116.650808">
        <time>2022-05-02T12:45:24Z</time>
      </trkpt>
      <trkpt lat="39.910053" lon="116.650625">
        <time>2022-05-02T12:45:29Z</time>
      </trkpt>
      <trkpt lat="39.910051" lon="116.65045">
        <time>2022-05-02T12:45:34Z</time>
      </trkpt>
      <trkpt lat="39.910038" lon="116.650298">
        <time>2022-05-02T12:45:39Z</time>
      </trkpt>
      <trkpt lat="39.910041" lon="116.65013">
        <time>2022-05-02T12:45:44Z</time>
      </trkpt>
      <trkpt lat="39.910013" lon="116.649989">
        <time>2022-05-02T12:45:49Z</time>
      </trkpt>
      <trkpt lat="39.909998" lon="116.64984">
        <time>2022-05-02T12:45:54Z</time>
      </trkpt>
      <trkpt lat="39.909967" lon="116.649696">
        <time>2022-05-02T12:45:59Z</time>
      </trkpt>
      <trkpt lat="39.909923" lon="116.64956">
        <time>2022-05-02T12:46:04Z</time>
      </trkpt>
      <trkpt lat="39.909866" lon="116.649408">
        <time>2022-05-02T12:46:09Z</time>
      </trkpt>
      <trkpt lat="39.909843" lon="116.649251">
        <time>2022-05-02T12:46:14Z</time>
      </trkpt>
      <trkpt lat="39.9098" lon="116.649088">
        <time>2022-05-02T12:46:19Z</time>
      </trkpt>
      <trkpt lat="39.909712" lon="116.648868">
        <time>2022-05-02T12:46:24Z</time>
      </trkpt>
      <trkpt lat="39.909702" lon="116.648836">
        <time>2022-05-02T12:46:29Z</time>
      </trkpt>
      <trkpt lat="39.909675" lon="116.648662">
        <time>2022-05-02T12:46:34Z</time>
      </trkpt>
      <trkpt lat="39.909646" lon="116.648487">
        <time>2022-05-02T12:46:39Z</time>
      </trkpt>
      <trkpt lat="39.909581" lon="116.648346">
        <time>2022-05-02T12:46:44Z</time>
      </trkpt>
      <trkpt lat="39.909532" lon="116.64819">
        <time>2022-05-02T12:46:49Z</time>
      </trkpt>
      <trkpt lat="39.909477" lon="116.648022">
        <time>2022-05-02T12:46:54Z</time>
      </trkpt>
      <trkpt lat="39.909414" lon="116.647849">
        <time>2022-05-02T12:46:59Z</time>
      </trkpt>
      <trkpt lat="39.909361" lon="116.647667">
        <time>2022-05-02T12:47:04Z</time>
      </trkpt>
      <trkpt lat="39.909326" lon="116.647478">
        <time>2022-05-02T12:47:09Z</time>
      </trkpt>
      <trkpt lat="39.909295" lon="116.647301">
        <time>2022-05-02T12:47:14Z</time>
      </trkpt>
      <trkpt lat="39.909244" lon="116.64715">
        <time>2022-05-02T12:47:19Z</time>
      </trkpt>
      <trkpt lat="39.909208" lon="116.647">
        <time>2022-05-02T12:47:24Z</time>
      </trkpt>
      <trkpt lat="39.909149" lon="116.646837">
        <time>2022-05-02T12:47:29Z</time>
      </trkpt>
      <trkpt lat="39.909097" lon="116.646666">
        <time>2022-05-02T12:47:34Z</time>
      </trkpt>
      <trkpt lat="39.909041" lon="116.646511">
        <time>2022-05-02T12:47:39Z</time>
      </trkpt>
      <trkpt lat="39.909006" lon="116.646362">
        <time>2022-05-02T12:47:44Z</time>
      </trkpt>
      <trkpt lat="39.908952" lon="116.646197">
        <time>2022-05-02T12:47:49Z</time>
      </trkpt>
      <trkpt lat="39.908896" lon="116.646035">
        <time>2022-05-02T12:47:54Z</time>
      </trkpt>
      <trkpt lat="39.908859" lon="116.645898">
        <time>2022-05-02T12:47:59Z</time>
      </trkpt>
      <trkpt lat="39.908828" lon="116.645752">
        <time>2022-05-02T12:48:04Z</time>
      </trkpt>
      <trkpt lat="39.908816" lon="116.645576">
        <time>2022-05-02T12:48:09Z</time>
      </trkpt>
      <trkpt lat="39.908777" lon="116.645386">
        <time>2022-05-02T12:48:14Z</time>
      </trkpt>
      <trkpt lat="39.908776" lon="116.645188">
        <time>2022-05-02T12:48:19Z</time>
      </trkpt>
      <trkpt lat="39.908756" lon="116.645041">
        <time>2022-05-02T12:48:24Z</time>
      </trkpt>
      <trkpt lat="39.908765" lon="116.644969">
        <time>2022-05-02T12:48:29Z</time>
      </trkpt>
      <trkpt lat="39.908742" lon="116.644895">
        <time>2022-05-02T12:48:34Z</time>
      </trkpt>
      <trkpt lat="39.908728" lon="116.644803">
        <time>2022-05-02T12:48:39Z</time>
      </trkpt>
      <trkpt lat="39.908712" lon="116.644675">
        <time>2022-05-02T12:48:44Z</time>
      </trkpt>
      <trkpt lat="39.908697" lon="116.64453">
        <time>2022-05-02T12:48:49Z</time>
      </trkpt>
      <trkpt lat="39.908714" lon="116.644393">
        <time>2022-05-02T12:48:54Z</time>
      </trkpt>
      <trkpt lat="39.90869" lon="116.644237">
        <time>2022-05-02T12:48:59Z</time>
      </trkpt>
      <trkpt lat="39.908686" lon="116.644079">
        <time>2022-05-02T12:49:04Z</time>
      </trkpt>
      <trkpt lat="39.908681" lon="116.643948">
        <time>2022-05-02T12:49:09Z</time>
      </trkpt>
      <trkpt lat="39.908683" lon="116.643795">
        <time>2022-05-02T12:49:14Z</time>
      </trkpt>
      <trkpt lat="39.9087" lon="116.643647">
        <time>2022-05-02T12:49:19Z</time>
      </trkpt>
      <trkpt lat="39.90869" lon="116.643493">
        <time>2022-05-02T12:49:24Z</time>
      </trkpt>
      <trkpt lat="39.9087" lon="116.643316">
        <time>2022-05-02T12:49:29Z</time>
      </trkpt>
      <trkpt lat="39.908674" lon="116.643125">
        <time>2022-05-02T12:49:34Z</time>
      </trkpt>
      <trkpt lat="39.908648" lon="116.642902">
        <time>2022-05-02T12:49:39Z</time>
      </trkpt>
      <trkpt lat="39.908622" lon="116.642715">
        <time>2022-05-02T12:49:44Z</time>
      </trkpt>
      <trkpt lat="39.908621" lon="116.642529">
        <time>2022-05-02T12:49:49Z</time>
      </trkpt>
      <trkpt lat="39.908618" lon="116.642378">
        <time>2022-05-02T12:49:54Z</time>
      </trkpt>
      <trkpt lat="39.908614" lon="116.64223">
        <time>2022-05-02T12:49:59Z</time>
      </trkpt>
      <trkpt lat="39.90859" lon="116.642116">
        <time>2022-05-02T12:50:04Z</time>
      </trkpt>
      <trkpt lat="39.908597" lon="116.641982">
        <time>2022-05-02T12:50:09Z</time>
      </trkpt>
      <trkpt lat="39.908604" lon="116.641861">
        <time>2022-05-02T12:50:14Z</time>
      </trkpt>
      <trkpt lat="39.908608" lon="116.6417">
        <time>2022-05-02T12:50:19Z</time>
      </trkpt>
      <trkpt lat="39.908612" lon="116.641551">
        <time>2022-05-02T12:50:24Z</time>
      </trkpt>
      <trkpt lat="39.908612" lon="116.64137">
        <time>2022-05-02T12:50:29Z</time>
      </trkpt>
      <trkpt lat="39.908603" lon="116.641204">
        <time>2022-05-02T12:50:34Z</time>
      </trkpt>
      <trkpt lat="39.9086" lon="116.641043">
        <time>2022-05-02T12:50:39Z</time>
      </trkpt>
      <trkpt lat="39.908603" lon="116.640871">
        <time>2022-05-02T12:50:44Z</time>
      </trkpt>
      <trkpt lat="39.908575" lon="116.640734">
        <time>2022-05-02T12:50:49Z</time>
      </trkpt>
      <trkpt lat="39.90855" lon="116.640623">
        <time>2022-05-02T12:50:54Z</time>
      </trkpt>
      <trkpt lat="39.908575" lon="116.640555">
        <time>2022-05-02T12:50:59Z</time>
      </trkpt>
      <trkpt lat="39.908559" lon="116.640456">
        <time>2022-05-02T12:51:04Z</time>
      </trkpt>
      <trkpt lat="39.90856" lon="116.640318">
        <time>2022-05-02T12:51:09Z</time>
      </trkpt>
      <trkpt lat="39.908558" lon="116.64002">
        <time>2022-05-02T12:51:14Z</time>
      </trkpt>
      <trkpt lat="39.908555" lon="116.639988">
        <time>2022-05-02T12:51:19Z</time>
      </trkpt>
      <trkpt lat="39.908545" lon="116.639839">
        <time>2022-05-02T12:51:24Z</time>
      </trkpt>
      <trkpt lat="39.908545" lon="116.639681">
        <time>2022-05-02T12:51:29Z</time>
      </trkpt>
      <trkpt lat="39.90855" lon="116.63954">
        <time>2022-05-02T12:51:34Z</time>
      </trkpt>
      <trkpt lat="39.908544" lon="116.639413">
        <time>2022-05-02T12:51:39Z</time>
      </trkpt>
      <trkpt lat="39.908543" lon="116.639276">
        <time>2022-05-02T12:51:44Z</time>
      </trkpt>
      <trkpt lat="39.908536" lon="116.639111">
        <time>2022-05-02T12:51:49Z</time>
      </trkpt>
      <trkpt lat="39.908548" lon="116.638942">
        <time>2022-05-02T12:51:54Z</time>
      </trkpt>
      <trkpt lat="39.908539" lon="116.638803">
        <time>2022-05-02T12:51:59Z</time>
      </trkpt>
      <trkpt lat="39.908517" lon="116.638667">
        <time>2022-05-02T12:52:04Z</time>
      </trkpt>
      <trkpt lat="39.908498" lon="116.638494">
        <time>2022-05-02T12:52:09Z</time>
      </trkpt>
      <trkpt lat="39.908467" lon="116.638323">
        <time>2022-05-02T12:52:14Z</time>
      </trkpt>
      <trkpt lat="39.908458" lon="116.638139">
        <time>2022-05-02T12:52:19Z</time>
      </trkpt>
      <trkpt lat="39.908426" lon="116.637981">
        <time>2022-05-02T12:52:24Z</time>
      </trkpt>
      <trkpt lat="39.908399" lon="116.63783">
        <time>2022-05-02T12:52:29Z</time>
      </trkpt>
      <trkpt lat="39.908343" lon="116.637677">
        <time>2022-05-02T12:52:34Z</time>
      </trkpt>
      <trkpt lat="39.908249" lon="116.637552">
        <time>2022-05-02T12:52:39Z</time>
      </trkpt>
      <trkpt lat="39.908266" lon="116.637363">
        <time>2022-05-02T12:52:44Z</time>
      </trkpt>
      <trkpt lat="39.908274" lon="116.637293">
        <time>2022-05-02T12:52:49Z</time>
      </trkpt>
      <trkpt lat="39.908304" lon="116.637148">
        <time>2022-05-02T12:52:54Z</time>
      </trkpt>
      <trkpt lat="39.908326" lon="116.636936">
        <time>2022-05-02T12:52:59Z</time>
      </trkpt>
      <trkpt lat="39.908358" lon="116.636748">
        <time>2022-05-02T12:53:04Z</time>
      </trkpt>
      <trkpt lat="39.9084" lon="116.636627">
        <time>2022-05-02T12:53:09Z</time>
      </trkpt>
      <trkpt lat="39.908406" lon="116.636485">
        <time>2022-05-02T12:53:14Z</time>
      </trkpt>
      <trkpt lat="39.908453" lon="116.636314">
        <time>2022-05-02T12:53:19Z</time>
      </trkpt>
      <trkpt lat="39.908511" lon="116.636147">
        <time>2022-05-02T12:53:24Z</time>
      </trkpt>
      <trkpt lat="39.908526" lon="116.635958">
        <time>2022-05-02T12:53:29Z</time>
      </trkpt>
      <trkpt lat="39.908539" lon="116.63576">
        <time>2022-05-02T12:53:34Z</time>
      </trkpt>
      <trkpt lat="39.908516" lon="116.635564">
        <time>2022-05-02T12:53:39Z</time>
      </trkpt>
      <trkpt lat="39.908495" lon="116.635377">
        <time>2022-05-02T12:53:44Z</time>
      </trkpt>
      <trkpt lat="39.908508" lon="116.635213">
        <time>2022-05-02T12:53:49Z</time>
      </trkpt>
      <trkpt lat="39.908497" lon="116.635041">
        <time>2022-05-02T12:53:54Z</time>
      </trkpt>
      <trkpt lat="39.908507" lon="116.634897">
        <time>2022-05-02T12:53:59Z</time>
      </trkpt>
      <trkpt lat="39.908501" lon="116.634824">
        <time>2022-05-02T12:54:04Z</time>
      </trkpt>
      <trkpt lat="39.908492" lon="116.634717">
        <time>2022-05-02T12:54:09Z</time>
      </trkpt>
      <trkpt lat="39.908475" lon="116.634586">
        <time>2022-05-02T12:54:14Z</time>
      </trkpt>
      <trkpt lat="39.908465" lon="116.634342">
        <time>2022-05-02T12:54:19Z</time>
      </trkpt>
      <trkpt lat="39.908463" lon="116.634281">
        <time>2022-05-02T12:54:24Z</time>
      </trkpt>
      <trkpt lat="39.908455" lon="116.634124">
        <time>2022-05-02T12:54:29Z</time>
      </trkpt>
      <trkpt lat="39.908449" lon="116.633974">
        <time>2022-05-02T12:54:34Z</time>
      </trkpt>
      <trkpt lat="39.908456" lon="116.633804">
        <time>2022-05-02T12:54:39Z</time>
      </trkpt>
      <trkpt lat="39.908469" lon="116.633588">
        <time>2022-05-02T12:54:44Z</time>
      </trkpt>
      <trkpt lat="39.908463" lon="116.633475">
        <time>2022-05-02T12:54:49Z</time>
      </trkpt>
      <trkpt lat="39.908474" lon="116.633359">
        <time>2022-05-02T12:54:54Z</time>
      </trkpt>
      <trkpt lat="39.908477" lon="116.633243">
        <time>2022-05-02T12:54:59Z</time>
      </trkpt>
      <trkpt lat="39.908483" lon="116.633172">
        <time>2022-05-02T12:55:04Z</time>
      </trkpt>
      <trkpt lat="39.908494" lon="116.633093">
        <time>2022-05-02T12:55:09Z</time>
      </trkpt>
      <trkpt lat="39.908488" lon="116.633006">
        <time>2022-05-02T12:55:14Z</time>
      </trkpt>
      <trkpt lat="39.908474" lon="116.632878">
        <time>2022-05-02T12:55:19Z</time>
      </trkpt>
      <trkpt lat="39.908463" lon="116.632791">
        <time>2022-05-02T12:55:24Z</time>
      </trkpt>
      <trkpt lat="39.908451" lon="116.632678">
        <time>2022-05-02T12:55:29Z</time>
      </trkpt>
      <trkpt lat="39.908431" lon="116.63253">
        <time>2022-05-02T12:55:34Z</time>
      </trkpt>
      <trkpt lat="39.908419" lon="116.632404">
        <time>2022-05-02T12:55:39Z</time>
      </trkpt>
      <trkpt lat="39.908397" lon="116.632279">
        <time>2022-05-02T12:55:44Z</time>
      </trkpt>
      <trkpt lat="39.908377" lon="116.632156">
        <time>2022-05-02T12:55:49Z</time>
      </trkpt>
      <trkpt lat="39.908354" lon="116.632032">
        <time>2022-05-02T12:55:54Z</time>
      </trkpt>
      <trkpt lat="39.908339" lon="116.631901">
        <time>2022-05-02T12:55:59Z</time>
      </trkpt>
      <trkpt lat="39.908338" lon="116.631764">
        <time>2022-05-02T12:56:04Z</time>
      </trkpt>
      <trkpt lat="39.90832" lon="116.631607">
        <time>2022-05-02T12:56:09Z</time>
      </trkpt>
      <trkpt lat="39.908294" lon="116.631463">
        <time>2022-05-02T12:56:14Z</time>
      </trkpt>
      <trkpt lat="39.908274" lon="116.631314">
        <time>2022-05-02T12:56:19Z</time>
      </trkpt>
      <trkpt lat="39.908223" lon="116.631162">
        <time>2022-05-02T12:56:24Z</time>
      </trkpt>
      <trkpt lat="39.908177" lon="116.630966">
        <time>2022-05-02T12:56:29Z</time>
      </trkpt>
      <trkpt lat="39.908162" lon="116.630778">
        <time>2022-05-02T12:56:34Z</time>
      </trkpt>
      <trkpt lat="39.908142" lon="116.630606">
        <time>2022-05-02T12:56:39Z</time>
      </trkpt>
      <trkpt lat="39.908136" lon="116.630441">
        <time>2022-05-02T12:56:44Z</time>
      </trkpt>
      <trkpt lat="39.908133" lon="116.630256">
        <time>2022-05-02T12:56:49Z</time>
      </trkpt>
      <trkpt lat="39.908118" lon="116.630089">
        <time>2022-05-02T12:56:54Z</time>
      </trkpt>
      <trkpt lat="39.908117" lon="116.630056">
        <time>2022-05-02T12:56:59Z</time>
      </trkpt>
      <trkpt lat="39.908077" lon="116.629947">
        <time>2022-05-02T12:57:04Z</time>
      </trkpt>
      <trkpt lat="39.908059" lon="116.629844">
        <time>2022-05-02T12:57:09Z</time>
      </trkpt>
      <trkpt lat="39.908049" lon="116.6297">
        <time>2022-05-02T12:57:14Z</time>
      </trkpt>
      <trkpt lat="39.908041" lon="116.629531">
        <time>2022-05-02T12:57:19Z</time>
      </trkpt>
      <trkpt lat="39.908015" lon="116.629419">
        <time>2022-05-02T12:57:24Z</time>
      </trkpt>
      <trkpt lat="39.907999" lon="116.629323">
        <time>2022-05-02T12:57:29Z</time>
      </trkpt>
      <trkpt lat="39.908" lon="116.629234">
        <time>2022-05-02T12:57:34Z</time>
      </trkpt>
      <trkpt lat="39.907973" lon="116.62905">
        <time>2022-05-02T12:57:39Z</time>
      </trkpt>
      <trkpt lat="39.907953" lon="116.628882">
        <time>2022-05-02T12:57:44Z</time>
      </trkpt>
      <trkpt lat="39.907946" lon="116.628731">
        <time>2022-05-02T12:57:49Z</time>
      </trkpt>
      <trkpt lat="39.907915" lon="116.628556">
        <time>2022-05-02T12:57:54Z</time>
      </trkpt>
      <trkpt lat="39.907884" lon="116.628387">
        <time>2022-05-02T12:57:59Z</time>
      </trkpt>
      <trkpt lat="39.907883" lon="116.628246">
        <time>2022-05-02T12:58:04Z</time>
      </trkpt>
      <trkpt lat="39.907873" lon="116.628084">
        <time>2022-05-02T12:58:09Z</time>
      </trkpt>
      <trkpt lat="39.907863" lon="116.627902">
        <time>2022-05-02T12:58:14Z</time>
      </trkpt>
      <trkpt lat="39.907841" lon="116.627759">
        <time>2022-05-02T12:58:19Z</time>
      </trkpt>
      <trkpt lat="39.907822" lon="116.627613">
        <time>2022-05-02T12:58:24Z</time>
      </trkpt>
      <trkpt lat="39.907825" lon="116.627468">
        <time>2022-05-02T12:58:29Z</time>
      </trkpt>
      <trkpt lat="39.907806" lon="116.627321">
        <time>2022-05-02T12:58:34Z</time>
      </trkpt>
      <trkpt lat="39.907776" lon="116.627184">
        <time>2022-05-02T12:58:39Z</time>
      </trkpt>
      <trkpt lat="39.90773" lon="116.627032">
        <time>2022-05-02T12:58:44Z</time>
      </trkpt>
      <trkpt lat="39.907714" lon="116.626791">
        <time>2022-05-02T12:58:49Z</time>
      </trkpt>
      <trkpt lat="39.907712" lon="116.62673">
        <time>2022-05-02T12:58:54Z</time>
      </trkpt>
      <trkpt lat="39.907675" lon="116.626557">
        <time>2022-05-02T12:58:59Z</time>
      </trkpt>
      <trkpt lat="39.907633" lon="116.62636">
        <time>2022-05-02T12:59:04Z</time>
      </trkpt>
      <trkpt lat="39.907607" lon="116.626141">
        <time>2022-05-02T12:59:09Z</time>
      </trkpt>
      <trkpt lat="39.907639" lon="116.625953">
        <time>2022-05-02T12:59:14Z</time>
      </trkpt>
      <trkpt lat="39.907608" lon="116.625828">
        <time>2022-05-02T12:59:19Z</time>
      </trkpt>
      <trkpt lat="39.907609" lon="116.625949">
        <time>2022-05-02T12:59:24Z</time>
      </trkpt>
      <trkpt lat="39.907629" lon="116.626107">
        <time>2022-05-02T12:59:29Z</time>
      </trkpt>
      <trkpt lat="39.90765" lon="116.626247">
        <time>2022-05-02T12:59:34Z</time>
      </trkpt>
      <trkpt lat="39.907658" lon="116.626393">
        <time>2022-05-02T12:59:39Z</time>
      </trkpt>
      <trkpt lat="39.907651" lon="116.626584">
        <time>2022-05-02T12:59:44Z</time>
      </trkpt>
      <trkpt lat="39.907672" lon="116.626768">
        <time>2022-05-02T12:59:49Z</time>
      </trkpt>
      <trkpt lat="39.907699" lon="116.62687">
        <time>2022-05-02T12:59:54Z</time>
      </trkpt>
      <trkpt lat="39.907732" lon="116.627041">
        <time>2022-05-02T12:59:59Z</time>
      </trkpt>
      <trkpt lat="39.907735" lon="116.627217">
        <time>2022-05-02T13:00:04Z</time>
      </trkpt>
      <trkpt lat="39.907799" lon="116.627466">
        <time>2022-05-02T13:00:09Z</time>
      </trkpt>
      <trkpt lat="39.907803" lon="116.62754">
        <time>2022-05-02T13:00:14Z</time>
      </trkpt>
      <trkpt lat="39.907823" lon="116.627717">
        <time>2022-05-02T13:00:19Z</time>
      </trkpt>
      <trkpt lat="39.907849" lon="116.627897">
        <time>2022-05-02T13:00:24Z</time>
      </trkpt>
      <trkpt lat="39.90784" lon="116.628064">
        <time>2022-05-02T13:00:29Z</time>
      </trkpt>
      <trkpt lat="39.907853" lon="116.628186">
        <time>2022-05-02T13:00:34Z</time>
      </trkpt>
      <trkpt lat="39.907851" lon="116.628279">
        <time>2022-05-02T13:00:39Z</time>
      </trkpt>
      <trkpt lat="39.907867" lon="116.628363">
        <time>2022-05-02T13:00:44Z</time>
      </trkpt>
      <trkpt lat="39.907882" lon="116.628458">
        <time>2022-05-02T13:00:49Z</time>
      </trkpt>
      <trkpt lat="39.907903" lon="116.628567">
        <time>2022-05-02T13:00:54Z</time>
      </trkpt>
      <trkpt lat="39.907907" lon="116.628715">
        <time>2022-05-02T13:00:59Z</time>
      </trkpt>
      <trkpt lat="39.907935" lon="116.628859">
        <time>2022-05-02T13:01:04Z</time>
      </trkpt>
      <trkpt lat="39.907964" lon="116.628973">
        <time>2022-05-02T13:01:09Z</time>
      </trkpt>
      <trkpt lat="39.907978" lon="116.629098">
        <time>2022-05-02T13:01:14Z</time>
      </trkpt>
      <trkpt lat="39.907995" lon="116.629218">
        <time>2022-05-02T13:01:19Z</time>
      </trkpt>
      <trkpt lat="39.908007" lon="116.629366">
        <time>2022-05-02T13:01:24Z</time>
      </trkpt>
      <trkpt lat="39.908018" lon="116.629504">
        <time>2022-05-02T13:01:29Z</time>
      </trkpt>
      <trkpt lat="39.908034" lon="116.629641">
        <time>2022-05-02T13:01:34Z</time>
      </trkpt>
      <trkpt lat="39.908052" lon="116.629738">
        <time>2022-05-02T13:01:39Z</time>
      </trkpt>
      <trkpt lat="39.908053" lon="116.629901">
        <time>2022-05-02T13:01:44Z</time>
      </trkpt>
      <trkpt lat="39.90807" lon="116.630084">
        <time>2022-05-02T13:01:49Z</time>
      </trkpt>
      <trkpt lat="39.908094" lon="116.630263">
        <time>2022-05-02T13:01:54Z</time>
      </trkpt>
      <trkpt lat="39.908107" lon="116.63047">
        <time>2022-05-02T13:01:59Z</time>
      </trkpt>
      <trkpt lat="39.908132" lon="116.630621">
        <time>2022-05-02T13:02:04Z</time>
      </trkpt>
      <trkpt lat="39.908166" lon="116.630777">
        <time>2022-05-02T13:02:09Z</time>
      </trkpt>
      <trkpt lat="39.908191" lon="116.631">
        <time>2022-05-02T13:02:14Z</time>
      </trkpt>
      <trkpt lat="39.908223" lon="116.631147">
        <time>2022-05-02T13:02:19Z</time>
      </trkpt>
      <trkpt lat="39.908249" lon="116.631307">
        <time>2022-05-02T13:02:24Z</time>
      </trkpt>
      <trkpt lat="39.908285" lon="116.631507">
        <time>2022-05-02T13:02:29Z</time>
      </trkpt>
      <trkpt lat="39.908314" lon="116.631667">
        <time>2022-05-02T13:02:34Z</time>
      </trkpt>
      <trkpt lat="39.908328" lon="116.63187">
        <time>2022-05-02T13:02:39Z</time>
      </trkpt>
      <trkpt lat="39.908346" lon="116.632074">
        <time>2022-05-02T13:02:44Z</time>
      </trkpt>
      <trkpt lat="39.908377" lon="116.632246">
        <time>2022-05-02T13:02:49Z</time>
      </trkpt>
      <trkpt lat="39.908393" lon="116.632377">
        <time>2022-05-02T13:02:54Z</time>
      </trkpt>
      <trkpt lat="39.90841" lon="116.632565">
        <time>2022-05-02T13:02:59Z</time>
      </trkpt>
      <trkpt lat="39.908416" lon="116.632754">
        <time>2022-05-02T13:03:04Z</time>
      </trkpt>
      <trkpt lat="39.908411" lon="116.632975">
        <time>2022-05-02T13:03:09Z</time>
      </trkpt>
      <trkpt lat="39.908429" lon="116.633179">
        <time>2022-05-02T13:03:14Z</time>
      </trkpt>
      <trkpt lat="39.908428" lon="116.633323">
        <time>2022-05-02T13:03:19Z</time>
      </trkpt>
      <trkpt lat="39.908472" lon="116.633502">
        <time>2022-05-02T13:03:24Z</time>
      </trkpt>
      <trkpt lat="39.908453" lon="116.633696">
        <time>2022-05-02T13:03:29Z</time>
      </trkpt>
      <trkpt lat="39.908426" lon="116.633831">
        <time>2022-05-02T13:03:34Z</time>
      </trkpt>
      <trkpt lat="39.908444" lon="116.633924">
        <time>2022-05-02T13:03:39Z</time>
      </trkpt>
      <trkpt lat="39.908465" lon="116.633988">
        <time>2022-05-02T13:03:44Z</time>
      </trkpt>
      <trkpt lat="39.908485" lon="116.634085">
        <time>2022-05-02T13:03:49Z</time>
      </trkpt>
      <trkpt lat="39.908476" lon="116.634193">
        <time>2022-05-02T13:03:54Z</time>
      </trkpt>
      <trkpt lat="39.908475" lon="116.634308">
        <time>2022-05-02T13:03:59Z</time>
      </trkpt>
      <trkpt lat="39.90848" lon="116.634455">
        <time>2022-05-02T13:04:04Z</time>
      </trkpt>
      <trkpt lat="39.908495" lon="116.634601">
        <time>2022-05-02T13:04:09Z</time>
      </trkpt>
      <trkpt lat="39.90851" lon="116.634726">
        <time>2022-05-02T13:04:14Z</time>
      </trkpt>
      <trkpt lat="39.908522" lon="116.634927">
        <time>2022-05-02T13:04:19Z</time>
      </trkpt>
      <trkpt lat="39.908529" lon="116.634974">
        <time>2022-05-02T13:04:24Z</time>
      </trkpt>
      <trkpt lat="39.908538" lon="116.635129">
        <time>2022-05-02T13:04:29Z</time>
      </trkpt>
      <trkpt lat="39.908544" lon="116.635259">
        <time>2022-05-02T13:04:34Z</time>
      </trkpt>
      <trkpt lat="39.908557" lon="116.635383">
        <time>2022-05-02T13:04:39Z</time>
      </trkpt>
      <trkpt lat="39.908558" lon="116.635548">
        <time>2022-05-02T13:04:44Z</time>
      </trkpt>
      <trkpt lat="39.908552" lon="116.635702">
        <time>2022-05-02T13:04:49Z</time>
      </trkpt>
      <trkpt lat="39.908545" lon="116.635844">
        <time>2022-05-02T13:04:54Z</time>
      </trkpt>
      <trkpt lat="39.908531" lon="116.636008">
        <time>2022-05-02T13:04:59Z</time>
      </trkpt>
      <trkpt lat="39.908493" lon="116.63616">
        <time>2022-05-02T13:05:04Z</time>
      </trkpt>
      <trkpt lat="39.908469" lon="116.636299">
        <time>2022-05-02T13:05:09Z</time>
      </trkpt>
      <trkpt lat="39.908429" lon="116.636414">
        <time>2022-05-02T13:05:14Z</time>
      </trkpt>
      <trkpt lat="39.908391" lon="116.636523">
        <time>2022-05-02T13:05:19Z</time>
      </trkpt>
      <trkpt lat="39.908374" lon="116.636653">
        <time>2022-05-02T13:05:24Z</time>
      </trkpt>
      <trkpt lat="39.908347" lon="116.636794">
        <time>2022-05-02T13:05:29Z</time>
      </trkpt>
      <trkpt lat="39.908329" lon="116.636902">
        <time>2022-05-02T13:05:34Z</time>
      </trkpt>
      <trkpt lat="39.908383" lon="116.63683">
        <time>2022-05-02T13:05:39Z</time>
      </trkpt>
      <trkpt lat="39.908423" lon="116.636671">
        <time>2022-05-02T13:05:44Z</time>
      </trkpt>
      <trkpt lat="39.908443" lon="116.636526">
        <time>2022-05-02T13:05:49Z</time>
      </trkpt>
      <trkpt lat="39.90846" lon="116.636409">
        <time>2022-05-02T13:05:54Z</time>
      </trkpt>
      <trkpt lat="39.908495" lon="116.636277">
        <time>2022-05-02T13:05:59Z</time>
      </trkpt>
      <trkpt lat="39.908521" lon="116.636123">
        <time>2022-05-02T13:06:04Z</time>
      </trkpt>
      <trkpt lat="39.908544" lon="116.635975">
        <time>2022-05-02T13:06:09Z</time>
      </trkpt>
      <trkpt lat="39.908548" lon="116.635799">
        <time>2022-05-02T13:06:14Z</time>
      </trkpt>
      <trkpt lat="39.908548" lon="116.635629">
        <time>2022-05-02T13:06:19Z</time>
      </trkpt>
      <trkpt lat="39.90855" lon="116.635465">
        <time>2022-05-02T13:06:24Z</time>
      </trkpt>
      <trkpt lat="39.908521" lon="116.635292">
        <time>2022-05-02T13:06:29Z</time>
      </trkpt>
      <trkpt lat="39.908507" lon="116.635149">
        <time>2022-05-02T13:06:34Z</time>
      </trkpt>
      <trkpt lat="39.9085" lon="116.635007">
        <time>2022-05-02T13:06:39Z</time>
      </trkpt>
      <trkpt lat="39.90849" lon="116.634828">
        <time>2022-05-02T13:06:44Z</time>
      </trkpt>
      <trkpt lat="39.908505" lon="116.634657">
        <time>2022-05-02T13:06:49Z</time>
      </trkpt>
      <trkpt lat="39.908491" lon="116.634517">
        <time>2022-05-02T13:06:54Z</time>
      </trkpt>
      <trkpt lat="39.908469" lon="116.634338">
        <time>2022-05-02T13:06:59Z</time>
      </trkpt>
      <trkpt lat="39.90845" lon="116.634157">
        <time>2022-05-02T13:07:04Z</time>
      </trkpt>
      <trkpt lat="39.908469" lon="116.633982">
        <time>2022-05-02T13:07:09Z</time>
      </trkpt>
      <trkpt lat="39.90849" lon="116.633638">
        <time>2022-05-02T13:07:14Z</time>
      </trkpt>
      <trkpt lat="39.908485" lon="116.6336">
        <time>2022-05-02T13:07:19Z</time>
      </trkpt>
      <trkpt lat="39.908464" lon="116.633421">
        <time>2022-05-02T13:07:24Z</time>
      </trkpt>
      <trkpt lat="39.90847" lon="116.633269">
        <time>2022-05-02T13:07:29Z</time>
      </trkpt>
      <trkpt lat="39.908472" lon="116.633117">
        <time>2022-05-02T13:07:34Z</time>
      </trkpt>
      <trkpt lat="39.908467" lon="116.632945">
        <time>2022-05-02T13:07:39Z</time>
      </trkpt>
      <trkpt lat="39.908445" lon="116.632765">
        <time>2022-05-02T13:07:44Z</time>
      </trkpt>
      <trkpt lat="39.908458" lon="116.63264">
        <time>2022-05-02T13:07:49Z</time>
      </trkpt>
      <trkpt lat="39.908459" lon="116.632529">
        <time>2022-05-02T13:07:54Z</time>
      </trkpt>
      <trkpt lat="39.908443" lon="116.632449">
        <time>2022-05-02T13:07:59Z</time>
      </trkpt>
      <trkpt lat="39.908426" lon="116.63238">
        <time>2022-05-02T13:08:04Z</time>
      </trkpt>
      <trkpt lat="39.908385" lon="116.632238">
        <time>2022-05-02T13:08:09Z</time>
      </trkpt>
      <trkpt lat="39.90836" lon="116.632124">
        <time>2022-05-02T13:08:14Z</time>
      </trkpt>
      <trkpt lat="39.908336" lon="116.63206">
        <time>2022-05-02T13:08:19Z</time>
      </trkpt>
      <trkpt lat="39.908339" lon="116.631895">
        <time>2022-05-02T13:08:24Z</time>
      </trkpt>
      <trkpt lat="39.908338" lon="116.631737">
        <time>2022-05-02T13:08:29Z</time>
      </trkpt>
      <trkpt lat="39.908335" lon="116.631598">
        <time>2022-05-02T13:08:34Z</time>
      </trkpt>
      <trkpt lat="39.908316" lon="116.631504">
        <time>2022-05-02T13:08:39Z</time>
      </trkpt>
      <trkpt lat="39.908294" lon="116.63136">
        <time>2022-05-02T13:08:44Z</time>
      </trkpt>
      <trkpt lat="39.908281" lon="116.631183">
        <time>2022-05-02T13:08:49Z</time>
      </trkpt>
      <trkpt lat="39.908247" lon="116.631032">
        <time>2022-05-02T13:08:54Z</time>
      </trkpt>
      <trkpt lat="39.908223" lon="116.630894">
        <time>2022-05-02T13:08:59Z</time>
      </trkpt>
      <trkpt lat="39.908173" lon="116.630775">
        <time>2022-05-02T13:09:04Z</time>
      </trkpt>
      <trkpt lat="39.908135" lon="116.630651">
        <time>2022-05-02T13:09:09Z</time>
      </trkpt>
      <trkpt lat="39.908123" lon="116.630523">
        <time>2022-05-02T13:09:14Z</time>
      </trkpt>
      <trkpt lat="39.908106" lon="116.630396">
        <time>2022-05-02T13:09:19Z</time>
      </trkpt>
      <trkpt lat="39.90808" lon="116.630267">
        <time>2022-05-02T13:09:24Z</time>
      </trkpt>
      <trkpt lat="39.908079" lon="116.630092">
        <time>2022-05-02T13:09:29Z</time>
      </trkpt>
      <trkpt lat="39.908054" lon="116.629949">
        <time>2022-05-02T13:09:34Z</time>
      </trkpt>
      <trkpt lat="39.90803" lon="116.629816">
        <time>2022-05-02T13:09:39Z</time>
      </trkpt>
      <trkpt lat="39.908025" lon="116.629666">
        <time>2022-05-02T13:09:44Z</time>
      </trkpt>
      <trkpt lat="39.908023" lon="116.629546">
        <time>2022-05-02T13:09:49Z</time>
      </trkpt>
      <trkpt lat="39.90801" lon="116.629445">
        <time>2022-05-02T13:09:54Z</time>
      </trkpt>
      <trkpt lat="39.907995" lon="116.629365">
        <time>2022-05-02T13:09:59Z</time>
      </trkpt>
      <trkpt lat="39.907975" lon="116.629255">
        <time>2022-05-02T13:10:04Z</time>
      </trkpt>
      <trkpt lat="39.907951" lon="116.629116">
        <time>2022-05-02T13:10:09Z</time>
      </trkpt>
      <trkpt lat="39.907958" lon="116.628931">
        <time>2022-05-02T13:10:14Z</time>
      </trkpt>
      <trkpt lat="39.907924" lon="116.628793">
        <time>2022-05-02T13:10:19Z</time>
      </trkpt>
      <trkpt lat="39.907899" lon="116.62865">
        <time>2022-05-02T13:10:24Z</time>
      </trkpt>
      <trkpt lat="39.907896" lon="116.628482">
        <time>2022-05-02T13:10:29Z</time>
      </trkpt>
      <trkpt lat="39.907873" lon="116.628346">
        <time>2022-05-02T13:10:34Z</time>
      </trkpt>
      <trkpt lat="39.907849" lon="116.628213">
        <time>2022-05-02T13:10:39Z</time>
      </trkpt>
      <trkpt lat="39.907863" lon="116.628057">
        <time>2022-05-02T13:10:44Z</time>
      </trkpt>
      <trkpt lat="39.907854" lon="116.627943">
        <time>2022-05-02T13:10:49Z</time>
      </trkpt>
      <trkpt lat="39.907849" lon="116.627849">
        <time>2022-05-02T13:10:54Z</time>
      </trkpt>
      <trkpt lat="39.907813" lon="116.62778">
        <time>2022-05-02T13:10:59Z</time>
      </trkpt>
      <trkpt lat="39.907795" lon="116.627658">
        <time>2022-05-02T13:11:04Z</time>
      </trkpt>
      <trkpt lat="39.90776" lon="116.62754">
        <time>2022-05-02T13:11:09Z</time>
      </trkpt>
      <trkpt lat="39.907747" lon="116.62737">
        <time>2022-05-02T13:11:14Z</time>
      </trkpt>
      <trkpt lat="39.90772" lon="116.627218">
        <time>2022-05-02T13:11:19Z</time>
      </trkpt>
      <trkpt lat="39.907697" lon="116.62704">
        <time>2022-05-02T13:11:24Z</time>
      </trkpt>
      <trkpt lat="39.907701" lon="116.626783">
        <time>2022-05-02T13:11:29Z</time>
      </trkpt>
      <trkpt lat="39.907686" lon="116.62668">
        <time>2022-05-02T13:11:34Z</time>
      </trkpt>
      <trkpt lat="39.90766" lon="116.626518">
        <time>2022-05-02T13:11:39Z</time>
      </trkpt>
      <trkpt lat="39.907661" lon="116.626324">
        <time>2022-05-02T13:11:44Z</time>
      </trkpt>
      <trkpt lat="39.907635" lon="116.626176">
        <time>2022-05-02T13:11:49Z</time>
      </trkpt>
      <trkpt lat="39.907603" lon="116.626016">
        <time>2022-05-02T13:11:54Z</time>
      </trkpt>
      <trkpt lat="39.907597" lon="116.625841">
        <time>2022-05-02T13:11:59Z</time>
      </trkpt>
      <trkpt lat="39.907573" lon="116.625735">
        <time>2022-05-02T13:12:04Z</time>
      </trkpt>
      <trkpt lat="39.907579" lon="116.625649">
        <time>2022-05-02T13:12:09Z</time>
      </trkpt>
      <trkpt lat="39.907563" lon="116.625517">
        <time>2022-05-02T13:12:14Z</time>
      </trkpt>
      <trkpt lat="39.907527" lon="116.625315">
        <time>2022-05-02T13:12:19Z</time>
      </trkpt>
      <trkpt lat="39.907504" lon="116.625146">
        <time>2022-05-02T13:12:24Z</time>
      </trkpt>
      <trkpt lat="39.907495" lon="116.62498">
        <time>2022-05-02T13:12:29Z</time>
      </trkpt>
      <trkpt lat="39.90747" lon="116.624819">
        <time>2022-05-02T13:12:34Z</time>
      </trkpt>
      <trkpt lat="39.907464" lon="116.624645">
        <time>2022-05-02T13:12:39Z</time>
      </trkpt>
      <trkpt lat="39.907456" lon="116.624457">
        <time>2022-05-02T13:12:44Z</time>
      </trkpt>
      <trkpt lat="39.907423" lon="116.624295">
        <time>2022-05-02T13:12:49Z</time>
      </trkpt>
      <trkpt lat="39.907402" lon="116.624153">
        <time>2022-05-02T13:12:54Z</time>
      </trkpt>
      <trkpt lat="39.907405" lon="116.623999">
        <time>2022-05-02T13:12:59Z</time>
      </trkpt>
      <trkpt lat="39.907408" lon="116.623866">
        <time>2022-05-02T13:13:04Z</time>
      </trkpt>
      <trkpt lat="39.907412" lon="116.623753">
        <time>2022-05-02T13:13:09Z</time>
      </trkpt>
      <trkpt lat="39.907422" lon="116.623654">
        <time>2022-05-02T13:13:14Z</time>
      </trkpt>
      <trkpt lat="39.907377" lon="116.623533">
        <time>2022-05-02T13:13:19Z</time>
      </trkpt>
      <trkpt lat="39.907316" lon="116.623393">
        <time>2022-05-02T13:13:24Z</time>
      </trkpt>
      <trkpt lat="39.907283" lon="116.623222">
        <time>2022-05-02T13:13:29Z</time>
      </trkpt>
      <trkpt lat="39.907264" lon="116.623081">
        <time>2022-05-02T13:13:34Z</time>
      </trkpt>
      <trkpt lat="39.907223" lon="116.622912">
        <time>2022-05-02T13:13:39Z</time>
      </trkpt>
      <trkpt lat="39.907164" lon="116.622766">
        <time>2022-05-02T13:13:44Z</time>
      </trkpt>
      <trkpt lat="39.907156" lon="116.622624">
        <time>2022-05-02T13:13:49Z</time>
      </trkpt>
      <trkpt lat="39.907144" lon="116.622507">
        <time>2022-05-02T13:13:54Z</time>
      </trkpt>
      <trkpt lat="39.907119" lon="116.622354">
        <time>2022-05-02T13:13:59Z</time>
      </trkpt>
      <trkpt lat="39.907096" lon="116.622225">
        <time>2022-05-02T13:14:04Z</time>
      </trkpt>
      <trkpt lat="39.907101" lon="116.62212">
        <time>2022-05-02T13:14:09Z</time>
      </trkpt>
      <trkpt lat="39.907079" lon="116.621982">
        <time>2022-05-02T13:14:14Z</time>
      </trkpt>
      <trkpt lat="39.907078" lon="116.621848">
        <time>2022-05-02T13:14:19Z</time>
      </trkpt>
      <trkpt lat="39.90705" lon="116.621772">
        <time>2022-05-02T13:14:24Z</time>
      </trkpt>
      <trkpt lat="39.907029" lon="116.621656">
        <time>2022-05-02T13:14:29Z</time>
      </trkpt>
      <trkpt lat="39.907063" lon="116.621513">
        <time>2022-05-02T13:14:34Z</time>
      </trkpt>
      <trkpt lat="39.907025" lon="116.621382">
        <time>2022-05-02T13:14:39Z</time>
      </trkpt>
      <trkpt lat="39.906977" lon="116.621248">
        <time>2022-05-02T13:14:44Z</time>
      </trkpt>
      <trkpt lat="39.906948" lon="116.621114">
        <time>2022-05-02T13:14:49Z</time>
      </trkpt>
      <trkpt lat="39.906937" lon="116.62096">
        <time>2022-05-02T13:14:54Z</time>
      </trkpt>
      <trkpt lat="39.906935" lon="116.620795">
        <time>2022-05-02T13:14:59Z</time>
      </trkpt>
      <trkpt lat="39.906891" lon="116.62064">
        <time>2022-05-02T13:15:04Z</time>
      </trkpt>
      <trkpt lat="39.906805" lon="116.620545">
        <time>2022-05-02T13:15:09Z</time>
      </trkpt>
      <trkpt lat="39.90681" lon="116.620376">
        <time>2022-05-02T13:15:14Z</time>
      </trkpt>
      <trkpt lat="39.906841" lon="116.620193">
        <time>2022-05-02T13:15:19Z</time>
      </trkpt>
      <trkpt lat="39.906827" lon="116.620074">
        <time>2022-05-02T13:15:24Z</time>
      </trkpt>
      <trkpt lat="39.906822" lon="116.619933">
        <time>2022-05-02T13:15:29Z</time>
      </trkpt>
      <trkpt lat="39.906797" lon="116.619857">
        <time>2022-05-02T13:15:34Z</time>
      </trkpt>
      <trkpt lat="39.906765" lon="116.619757">
        <time>2022-05-02T13:15:39Z</time>
      </trkpt>
      <trkpt lat="39.906759" lon="116.619554">
        <time>2022-05-02T13:15:44Z</time>
      </trkpt>
      <trkpt lat="39.906728" lon="116.619356">
        <time>2022-05-02T13:15:49Z</time>
      </trkpt>
      <trkpt lat="39.906715" lon="116.619135">
        <time>2022-05-02T13:15:54Z</time>
      </trkpt>
      <trkpt lat="39.906702" lon="116.619005">
        <time>2022-05-02T13:15:59Z</time>
      </trkpt>
      <trkpt lat="39.906673" lon="116.618866">
        <time>2022-05-02T13:16:04Z</time>
      </trkpt>
      <trkpt lat="39.906616" lon="116.618632">
        <time>2022-05-02T13:16:09Z</time>
      </trkpt>
      <trkpt lat="39.906617" lon="116.618464">
        <time>2022-05-02T13:16:14Z</time>
      </trkpt>
      <trkpt lat="39.906627" lon="116.618394">
        <time>2022-05-02T13:16:19Z</time>
      </trkpt>
      <trkpt lat="39.90663" lon="116.618229">
        <time>2022-05-02T13:16:24Z</time>
      </trkpt>
      <trkpt lat="39.906598" lon="116.618051">
        <time>2022-05-02T13:16:29Z</time>
      </trkpt>
      <trkpt lat="39.906581" lon="116.617878">
        <time>2022-05-02T13:16:34Z</time>
      </trkpt>
      <trkpt lat="39.906594" lon="116.617748">
        <time>2022-05-02T13:16:39Z</time>
      </trkpt>
      <trkpt lat="39.906587" lon="116.617631">
        <time>2022-05-02T13:16:44Z</time>
      </trkpt>
      <trkpt lat="39.906574" lon="116.617545">
        <time>2022-05-02T13:16:49Z</time>
      </trkpt>
      <trkpt lat="39.906558" lon="116.617459">
        <time>2022-05-02T13:16:54Z</time>
      </trkpt>
      <trkpt lat="39.906529" lon="116.617341">
        <time>2022-05-02T13:16:59Z</time>
      </trkpt>
      <trkpt lat="39.906515" lon="116.617223">
        <time>2022-05-02T13:17:04Z</time>
      </trkpt>
      <trkpt lat="39.90648" lon="116.617095">
        <time>2022-05-02T13:17:09Z</time>
      </trkpt>
      <trkpt lat="39.906487" lon="116.61694">
        <time>2022-05-02T13:17:14Z</time>
      </trkpt>
      <trkpt lat="39.906444" lon="116.616804">
        <time>2022-05-02T13:17:19Z</time>
      </trkpt>
      <trkpt lat="39.906449" lon="116.616669">
        <time>2022-05-02T13:17:24Z</time>
      </trkpt>
      <trkpt lat="39.906433" lon="116.61657">
        <time>2022-05-02T13:17:29Z</time>
      </trkpt>
      <trkpt lat="39.906427" lon="116.616433">
        <time>2022-05-02T13:17:34Z</time>
      </trkpt>
      <trkpt lat="39.906404" lon="116.616322">
        <time>2022-05-02T13:17:39Z</time>
      </trkpt>
      <trkpt lat="39.906366" lon="116.61622">
        <time>2022-05-02T13:17:44Z</time>
      </trkpt>
      <trkpt lat="39.906321" lon="116.616102">
        <time>2022-05-02T13:17:49Z</time>
      </trkpt>
      <trkpt lat="39.906275" lon="116.615965">
        <time>2022-05-02T13:17:54Z</time>
      </trkpt>
      <trkpt lat="39.906201" lon="116.615842">
        <time>2022-05-02T13:17:59Z</time>
      </trkpt>
      <trkpt lat="39.906162" lon="116.61571">
        <time>2022-05-02T13:18:04Z</time>
      </trkpt>
      <trkpt lat="39.906099" lon="116.615598">
        <time>2022-05-02T13:18:09Z</time>
      </trkpt>
      <trkpt lat="39.906066" lon="116.615447">
        <time>2022-05-02T13:18:14Z</time>
      </trkpt>
      <trkpt lat="39.906012" lon="116.615297">
        <time>2022-05-02T13:18:19Z</time>
      </trkpt>
      <trkpt lat="39.905934" lon="116.615174">
        <time>2022-05-02T13:18:24Z</time>
      </trkpt>
      <trkpt lat="39.905857" lon="116.615066">
        <time>2022-05-02T13:18:29Z</time>
      </trkpt>
      <trkpt lat="39.90585" lon="116.614953">
        <time>2022-05-02T13:18:34Z</time>
      </trkpt>
      <trkpt lat="39.905872" lon="116.614812">
        <time>2022-05-02T13:18:39Z</time>
      </trkpt>
      <trkpt lat="39.905834" lon="116.614665">
        <time>2022-05-02T13:18:44Z</time>
      </trkpt>
      <trkpt lat="39.905849" lon="116.614496">
        <time>2022-05-02T13:18:49Z</time>
      </trkpt>
      <trkpt lat="39.905827" lon="116.61435">
        <time>2022-05-02T13:18:54Z</time>
      </trkpt>
      <trkpt lat="39.905804" lon="116.614206">
        <time>2022-05-02T13:18:59Z</time>
      </trkpt>
      <trkpt lat="39.905803" lon="116.614055">
        <time>2022-05-02T13:19:04Z</time>
      </trkpt>
      <trkpt lat="39.905821" lon="116.613888">
        <time>2022-05-02T13:19:09Z</time>
      </trkpt>
      <trkpt lat="39.905846" lon="116.613723">
        <time>2022-05-02T13:19:14Z</time>
      </trkpt>
      <trkpt lat="39.905849" lon="116.613569">
        <time>2022-05-02T13:19:19Z</time>
      </trkpt>
      <trkpt lat="39.905854" lon="116.61341">
        <time>2022-05-02T13:19:24Z</time>
      </trkpt>
      <trkpt lat="39.905862" lon="116.613269">
        <time>2022-05-02T13:19:29Z</time>
      </trkpt>
      <trkpt lat="39.90586" lon="116.613125">
        <time>2022-05-02T13:19:34Z</time>
      </trkpt>
      <trkpt lat="39.905868" lon="116.612982">
        <time>2022-05-02T13:19:39Z</time>
      </trkpt>
      <trkpt lat="39.905853" lon="116.612846">
        <time>2022-05-02T13:19:44Z</time>
      </trkpt>
      <trkpt lat="39.905805" lon="116.612718">
        <time>2022-05-02T13:19:49Z</time>
      </trkpt>
      <trkpt lat="39.905696" lon="116.612688">
        <time>2022-05-02T13:19:54Z</time>
      </trkpt>
      <trkpt lat="39.905691" lon="116.612658">
        <time>2022-05-02T13:19:59Z</time>
      </trkpt>
      <trkpt lat="39.905665" lon="116.612601">
        <time>2022-05-02T13:20:04Z</time>
      </trkpt>
      <trkpt lat="39.905663" lon="116.61271">
        <time>2022-05-02T13:20:09Z</time>
      </trkpt>
      <trkpt lat="39.905682" lon="116.612894">
        <time>2022-05-02T13:20:14Z</time>
      </trkpt>
      <trkpt lat="39.905714" lon="116.613054">
        <time>2022-05-02T13:20:19Z</time>
      </trkpt>
      <trkpt lat="39.905746" lon="116.613199">
        <time>2022-05-02T13:20:24Z</time>
      </trkpt>
      <trkpt lat="39.905773" lon="116.613331">
        <time>2022-05-02T13:20:29Z</time>
      </trkpt>
      <trkpt lat="39.905786" lon="116.613472">
        <time>2022-05-02T13:20:34Z</time>
      </trkpt>
      <trkpt lat="39.905787" lon="116.613626">
        <time>2022-05-02T13:20:39Z</time>
      </trkpt>
      <trkpt lat="39.905798" lon="116.613745">
        <time>2022-05-02T13:20:44Z</time>
      </trkpt>
      <trkpt lat="39.90579" lon="116.613886">
        <time>2022-05-02T13:20:49Z</time>
      </trkpt>
      <trkpt lat="39.905775" lon="116.614028">
        <time>2022-05-02T13:20:54Z</time>
      </trkpt>
      <trkpt lat="39.905759" lon="116.614187">
        <time>2022-05-02T13:20:59Z</time>
      </trkpt>
      <trkpt lat="39.905753" lon="116.614327">
        <time>2022-05-02T13:21:04Z</time>
      </trkpt>
      <trkpt lat="39.905738" lon="116.614528">
        <time>2022-05-02T13:21:09Z</time>
      </trkpt>
      <trkpt lat="39.905737" lon="116.614665">
        <time>2022-05-02T13:21:14Z</time>
      </trkpt>
      <trkpt lat="39.905731" lon="116.614863">
        <time>2022-05-02T13:21:19Z</time>
      </trkpt>
      <trkpt lat="39.905726" lon="116.615029">
        <time>2022-05-02T13:21:24Z</time>
      </trkpt>
      <trkpt lat="39.905729" lon="116.615139">
        <time>2022-05-02T13:21:29Z</time>
      </trkpt>
      <trkpt lat="39.90574" lon="116.615245">
        <time>2022-05-02T13:21:34Z</time>
      </trkpt>
      <trkpt lat="39.905729" lon="116.615352">
        <time>2022-05-02T13:21:39Z</time>
      </trkpt>
      <trkpt lat="39.905745" lon="116.615404">
        <time>2022-05-02T13:21:44Z</time>
      </trkpt>
      <trkpt lat="39.905735" lon="116.615484">
        <time>2022-05-02T13:21:49Z</time>
      </trkpt>
      <trkpt lat="39.905725" lon="116.615667">
        <time>2022-05-02T13:21:54Z</time>
      </trkpt>
      <trkpt lat="39.905711" lon="116.615842">
        <time>2022-05-02T13:21:59Z</time>
      </trkpt>
      <trkpt lat="39.905709" lon="116.616014">
        <time>2022-05-02T13:22:04Z</time>
      </trkpt>
      <trkpt lat="39.905703" lon="116.616159">
        <time>2022-05-02T13:22:09Z</time>
      </trkpt>
      <trkpt lat="39.905716" lon="116.616307">
        <time>2022-05-02T13:22:14Z</time>
      </trkpt>
      <trkpt lat="39.905713" lon="116.616474">
        <time>2022-05-02T13:22:19Z</time>
      </trkpt>
      <trkpt lat="39.905716" lon="116.61664">
        <time>2022-05-02T13:22:24Z</time>
      </trkpt>
      <trkpt lat="39.905681" lon="116.616808">
        <time>2022-05-02T13:22:29Z</time>
      </trkpt>
      <trkpt lat="39.905667" lon="116.616973">
        <time>2022-05-02T13:22:34Z</time>
      </trkpt>
      <trkpt lat="39.905671" lon="116.617115">
        <time>2022-05-02T13:22:39Z</time>
      </trkpt>
      <trkpt lat="39.905664" lon="116.617269">
        <time>2022-05-02T13:22:44Z</time>
      </trkpt>
      <trkpt lat="39.905653" lon="116.617412">
        <time>2022-05-02T13:22:49Z</time>
      </trkpt>
      <trkpt lat="39.905628" lon="116.617522">
        <time>2022-05-02T13:22:54Z</time>
      </trkpt>
      <trkpt lat="39.905616" lon="116.617637">
        <time>2022-05-02T13:22:59Z</time>
      </trkpt>
      <trkpt lat="39.905611" lon="116.617764">
        <time>2022-05-02T13:23:04Z</time>
      </trkpt>
      <trkpt lat="39.905629" lon="116.617832">
        <time>2022-05-02T13:23:09Z</time>
      </trkpt>
      <trkpt lat="39.905654" lon="116.617938">
        <time>2022-05-02T13:23:14Z</time>
      </trkpt>
      <trkpt lat="39.905652" lon="116.61808">
        <time>2022-05-02T13:23:19Z</time>
      </trkpt>
      <trkpt lat="39.905662" lon="116.618199">
        <time>2022-05-02T13:23:24Z</time>
      </trkpt>
      <trkpt lat="39.905684" lon="116.618305">
        <time>2022-05-02T13:23:29Z</time>
      </trkpt>
      <trkpt lat="39.905698" lon="116.618453">
        <time>2022-05-02T13:23:34Z</time>
      </trkpt>
      <trkpt lat="39.905711" lon="116.618594">
        <time>2022-05-02T13:23:39Z</time>
      </trkpt>
      <trkpt lat="39.905696" lon="116.61876">
        <time>2022-05-02T13:23:44Z</time>
      </trkpt>
      <trkpt lat="39.905691" lon="116.618914">
        <time>2022-05-02T13:23:49Z</time>
      </trkpt>
      <trkpt lat="39.90571" lon="116.619027">
        <time>2022-05-02T13:23:54Z</time>
      </trkpt>
      <trkpt lat="39.905727" lon="116.619158">
        <time>2022-05-02T13:23:59Z</time>
      </trkpt>
      <trkpt lat="39.905742" lon="116.619324">
        <time>2022-05-02T13:24:04Z</time>
      </trkpt>
      <trkpt lat="39.905752" lon="116.619478">
        <time>2022-05-02T13:24:09Z</time>
      </trkpt>
      <trkpt lat="39.905798" lon="116.619585">
        <time>2022-05-02T13:24:14Z</time>
      </trkpt>
      <trkpt lat="39.905826" lon="116.61969">
        <time>2022-05-02T13:24:19Z</time>
      </trkpt>
      <trkpt lat="39.905837" lon="116.619757">
        <time>2022-05-02T13:24:24Z</time>
      </trkpt>
      <trkpt lat="39.905829" lon="116.61992">
        <time>2022-05-02T13:24:29Z</time>
      </trkpt>
      <trkpt lat="39.905826" lon="116.620066">
        <time>2022-05-02T13:24:34Z</time>
      </trkpt>
      <trkpt lat="39.905835" lon="116.620197">
        <time>2022-05-02T13:24:39Z</time>
      </trkpt>
      <trkpt lat="39.90583" lon="116.620293">
        <time>2022-05-02T13:24:44Z</time>
      </trkpt>
      <trkpt lat="39.905817" lon="116.620444">
        <time>2022-05-02T13:24:49Z</time>
      </trkpt>
      <trkpt lat="39.90582" lon="116.620573">
        <time>2022-05-02T13:24:54Z</time>
      </trkpt>
      <trkpt lat="39.905837" lon="116.620672">
        <time>2022-05-02T13:24:59Z</time>
      </trkpt>
      <trkpt lat="39.905854" lon="116.620744">
        <time>2022-05-02T13:25:04Z</time>
      </trkpt>
      <trkpt lat="39.905902" lon="116.620742">
        <time>2022-05-02T13:25:09Z</time>
      </trkpt>
      <trkpt lat="39.905983" lon="116.620757">
        <time>2022-05-02T13:25:14Z</time>
      </trkpt>
      <trkpt lat="39.906" lon="116.620791">
        <time>2022-05-02T13:25:19Z</time>
      </trkpt>
      <trkpt lat="39.906108" lon="116.620841">
        <time>2022-05-02T13:25:24Z</time>
      </trkpt>
      <trkpt lat="39.906206" lon="116.620761">
        <time>2022-05-02T13:25:29Z</time>
      </trkpt>
      <trkpt lat="39.906206" lon="116.620761">
        <time>2022-05-02T13:27:26Z</time>
      </trkpt>
    </trkseg>
  </trk>
</gpx>