<?xml version="1.0" encoding="UTF-8"?>
<gpx xmlns="http://www.topografix.com/GPX/1/1" xmlns:gpxtpx="http://www.garmin.com/xmlschemas/TrackPointExtension/v1" xmlns:xsi="http://www.w3.org/2001/XMLSchema-instance" xsi:schemaLocation="http://www.topografix.com/GPX/1/1 http://www.topografix.com/GPX/1/1/gpx.xsd" version="1.1" creator="gpx.py -- https://github.com/tkrajina/gpxpy">
  <trk>
    <name>gpx from keep</name>
    <trkseg>
      <trkpt lat="39.90684" lon="116.620712">
        <time>2022-05-20T12:29:31Z</time>
      </trkpt>
      <trkpt lat="39.90684" lon="116.620712">
        <time>2022-05-20T12:29:36Z</time>
      </trkpt>
      <trkpt lat="39.906852" lon="116.620898">
        <time>2022-05-20T12:29:41Z</time>
      </trkpt>
      <trkpt lat="39.906864" lon="116.621093">
        <time>2022-05-20T12:29:46Z</time>
      </trkpt>
      <trkpt lat="39.906896" lon="116.621268">
        <time>2022-05-20T12:29:51Z</time>
      </trkpt>
      <trkpt lat="39.906933" lon="116.621436">
        <time>2022-05-20T12:29:56Z</time>
      </trkpt>
      <trkpt lat="39.906976" lon="116.621618">
        <time>2022-05-20T12:30:01Z</time>
      </trkpt>
      <trkpt lat="39.90702" lon="116.621765">
        <time>2022-05-20T12:30:06Z</time>
      </trkpt>
      <trkpt lat="39.907089" lon="116.621896">
        <time>2022-05-20T12:30:11Z</time>
      </trkpt>
      <trkpt lat="39.907168" lon="116.622052">
        <time>2022-05-20T12:30:16Z</time>
      </trkpt>
      <trkpt lat="39.907204" lon="116.622228">
        <time>2022-05-20T12:30:21Z</time>
      </trkpt>
      <trkpt lat="39.907214" lon="116.622374">
        <time>2022-05-20T12:30:26Z</time>
      </trkpt>
      <trkpt lat="39.907178" lon="116.622536">
        <time>2022-05-20T12:30:31Z</time>
      </trkpt>
      <trkpt lat="39.907198" lon="116.622685">
        <time>2022-05-20T12:30:36Z</time>
      </trkpt>
      <trkpt lat="39.907204" lon="116.622837">
        <time>2022-05-20T12:30:41Z</time>
      </trkpt>
      <trkpt lat="39.907251" lon="116.622961">
        <time>2022-05-20T12:30:46Z</time>
      </trkpt>
      <trkpt lat="39.907265" lon="116.623118">
        <time>2022-05-20T12:30:51Z</time>
      </trkpt>
      <trkpt lat="39.907284" lon="116.623255">
        <time>2022-05-20T12:30:56Z</time>
      </trkpt>
      <trkpt lat="39.90731" lon="116.623428">
        <time>2022-05-20T12:31:01Z</time>
      </trkpt>
      <trkpt lat="39.907349" lon="116.623583">
        <time>2022-05-20T12:31:06Z</time>
      </trkpt>
      <trkpt lat="39.907379" lon="116.623712">
        <time>2022-05-20T12:31:11Z</time>
      </trkpt>
      <trkpt lat="39.90746" lon="116.623803">
        <time>2022-05-20T12:31:16Z</time>
      </trkpt>
      <trkpt lat="39.907476" lon="116.623945">
        <time>2022-05-20T12:31:21Z</time>
      </trkpt>
      <trkpt lat="39.907493" lon="116.624107">
        <time>2022-05-20T12:31:26Z</time>
      </trkpt>
      <trkpt lat="39.907491" lon="116.624288">
        <time>2022-05-20T12:31:31Z</time>
      </trkpt>
      <trkpt lat="39.907498" lon="116.624435">
        <time>2022-05-20T12:31:36Z</time>
      </trkpt>
      <trkpt lat="39.907494" lon="116.624563">
        <time>2022-05-20T12:31:41Z</time>
      </trkpt>
      <trkpt lat="39.907468" lon="116.624686">
        <time>2022-05-20T12:31:46Z</time>
      </trkpt>
      <trkpt lat="39.907489" lon="116.624813">
        <time>2022-05-20T12:31:51Z</time>
      </trkpt>
      <trkpt lat="39.907528" lon="116.624952">
        <time>2022-05-20T12:31:56Z</time>
      </trkpt>
      <trkpt lat="39.907527" lon="116.625091">
        <time>2022-05-20T12:32:01Z</time>
      </trkpt>
      <trkpt lat="39.907536" lon="116.625236">
        <time>2022-05-20T12:32:06Z</time>
      </trkpt>
      <trkpt lat="39.907548" lon="116.625379">
        <time>2022-05-20T12:32:11Z</time>
      </trkpt>
      <trkpt lat="39.907561" lon="116.625513">
        <time>2022-05-20T12:32:16Z</time>
      </trkpt>
      <trkpt lat="39.90755" lon="116.625655">
        <time>2022-05-20T12:32:21Z</time>
      </trkpt>
      <trkpt lat="39.907518" lon="116.625764">
        <time>2022-05-20T12:32:26Z</time>
      </trkpt>
      <trkpt lat="39.907524" lon="116.625895">
        <time>2022-05-20T12:32:31Z</time>
      </trkpt>
      <trkpt lat="39.907561" lon="116.626004">
        <time>2022-05-20T12:32:36Z</time>
      </trkpt>
      <trkpt lat="39.907604" lon="116.626127">
        <time>2022-05-20T12:32:41Z</time>
      </trkpt>
      <trkpt lat="39.907648" lon="116.626261">
        <time>2022-05-20T12:32:46Z</time>
      </trkpt>
      <trkpt lat="39.907657" lon="116.62641">
        <time>2022-05-20T12:32:51Z</time>
      </trkpt>
      <trkpt lat="39.907681" lon="116.626565">
        <time>2022-05-20T12:32:56Z</time>
      </trkpt>
      <trkpt lat="39.90767" lon="116.6267">
        <time>2022-05-20T12:33:01Z</time>
      </trkpt>
      <trkpt lat="39.907667" lon="116.626839">
        <time>2022-05-20T12:33:06Z</time>
      </trkpt>
      <trkpt lat="39.907677" lon="116.626966">
        <time>2022-05-20T12:33:11Z</time>
      </trkpt>
      <trkpt lat="39.907707" lon="116.627109">
        <time>2022-05-20T12:33:16Z</time>
      </trkpt>
      <trkpt lat="39.90773" lon="116.627256">
        <time>2022-05-20T12:33:21Z</time>
      </trkpt>
      <trkpt lat="39.907782" lon="116.627477">
        <time>2022-05-20T12:33:26Z</time>
      </trkpt>
      <trkpt lat="39.90778" lon="116.627537">
        <time>2022-05-20T12:33:31Z</time>
      </trkpt>
      <trkpt lat="39.907797" lon="116.62769">
        <time>2022-05-20T12:33:36Z</time>
      </trkpt>
      <trkpt lat="39.907851" lon="116.62785">
        <time>2022-05-20T12:33:41Z</time>
      </trkpt>
      <trkpt lat="39.907849" lon="116.627995">
        <time>2022-05-20T12:33:46Z</time>
      </trkpt>
      <trkpt lat="39.907886" lon="116.62815">
        <time>2022-05-20T12:33:51Z</time>
      </trkpt>
      <trkpt lat="39.907892" lon="116.62831">
        <time>2022-05-20T12:33:56Z</time>
      </trkpt>
      <trkpt lat="39.9079" lon="116.628464">
        <time>2022-05-20T12:34:01Z</time>
      </trkpt>
      <trkpt lat="39.907895" lon="116.628626">
        <time>2022-05-20T12:34:06Z</time>
      </trkpt>
      <trkpt lat="39.907944" lon="116.628772">
        <time>2022-05-20T12:34:11Z</time>
      </trkpt>
      <trkpt lat="39.907984" lon="116.628908">
        <time>2022-05-20T12:34:16Z</time>
      </trkpt>
      <trkpt lat="39.908009" lon="116.629063">
        <time>2022-05-20T12:34:21Z</time>
      </trkpt>
      <trkpt lat="39.908004" lon="116.629184">
        <time>2022-05-20T12:34:26Z</time>
      </trkpt>
      <trkpt lat="39.908038" lon="116.629326">
        <time>2022-05-20T12:34:31Z</time>
      </trkpt>
      <trkpt lat="39.908067" lon="116.629477">
        <time>2022-05-20T12:34:36Z</time>
      </trkpt>
      <trkpt lat="39.908076" lon="116.629631">
        <time>2022-05-20T12:34:41Z</time>
      </trkpt>
      <trkpt lat="39.908087" lon="116.629785">
        <time>2022-05-20T12:34:46Z</time>
      </trkpt>
      <trkpt lat="39.908095" lon="116.629929">
        <time>2022-05-20T12:34:51Z</time>
      </trkpt>
      <trkpt lat="39.908125" lon="116.630091">
        <time>2022-05-20T12:34:56Z</time>
      </trkpt>
      <trkpt lat="39.90815" lon="116.630234">
        <time>2022-05-20T12:35:01Z</time>
      </trkpt>
      <trkpt lat="39.908151" lon="116.630368">
        <time>2022-05-20T12:35:06Z</time>
      </trkpt>
      <trkpt lat="39.908149" lon="116.630499">
        <time>2022-05-20T12:35:11Z</time>
      </trkpt>
      <trkpt lat="39.908171" lon="116.630637">
        <time>2022-05-20T12:35:16Z</time>
      </trkpt>
      <trkpt lat="39.908166" lon="116.630682">
        <time>2022-05-20T12:35:21Z</time>
      </trkpt>
      <trkpt lat="39.908141" lon="116.630685">
        <time>2022-05-20T12:35:26Z</time>
      </trkpt>
      <trkpt lat="39.908164" lon="116.630772">
        <time>2022-05-20T12:35:31Z</time>
      </trkpt>
      <trkpt lat="39.908207" lon="116.630924">
        <time>2022-05-20T12:35:36Z</time>
      </trkpt>
      <trkpt lat="39.908229" lon="116.631075">
        <time>2022-05-20T12:35:41Z</time>
      </trkpt>
      <trkpt lat="39.908283" lon="116.631229">
        <time>2022-05-20T12:35:46Z</time>
      </trkpt>
      <trkpt lat="39.908344" lon="116.631355">
        <time>2022-05-20T12:35:51Z</time>
      </trkpt>
      <trkpt lat="39.908367" lon="116.631514">
        <time>2022-05-20T12:35:56Z</time>
      </trkpt>
      <trkpt lat="39.90838" lon="116.631656">
        <time>2022-05-20T12:36:01Z</time>
      </trkpt>
      <trkpt lat="39.90836" lon="116.631734">
        <time>2022-05-20T12:36:06Z</time>
      </trkpt>
      <trkpt lat="39.908336" lon="116.631842">
        <time>2022-05-20T12:36:11Z</time>
      </trkpt>
      <trkpt lat="39.908353" lon="116.632004">
        <time>2022-05-20T12:36:16Z</time>
      </trkpt>
      <trkpt lat="39.908363" lon="116.632144">
        <time>2022-05-20T12:36:21Z</time>
      </trkpt>
      <trkpt lat="39.908384" lon="116.632292">
        <time>2022-05-20T12:36:26Z</time>
      </trkpt>
      <trkpt lat="39.908402" lon="116.632413">
        <time>2022-05-20T12:36:31Z</time>
      </trkpt>
      <trkpt lat="39.908411" lon="116.632555">
        <time>2022-05-20T12:36:36Z</time>
      </trkpt>
      <trkpt lat="39.908446" lon="116.632694">
        <time>2022-05-20T12:36:41Z</time>
      </trkpt>
      <trkpt lat="39.908482" lon="116.632847">
        <time>2022-05-20T12:36:46Z</time>
      </trkpt>
      <trkpt lat="39.908471" lon="116.632975">
        <time>2022-05-20T12:36:51Z</time>
      </trkpt>
      <trkpt lat="39.908449" lon="116.633126">
        <time>2022-05-20T12:36:56Z</time>
      </trkpt>
      <trkpt lat="39.908455" lon="116.633264">
        <time>2022-05-20T12:37:01Z</time>
      </trkpt>
      <trkpt lat="39.908445" lon="116.633414">
        <time>2022-05-20T12:37:06Z</time>
      </trkpt>
      <trkpt lat="39.908475" lon="116.633571">
        <time>2022-05-20T12:37:11Z</time>
      </trkpt>
      <trkpt lat="39.908497" lon="116.633721">
        <time>2022-05-20T12:37:16Z</time>
      </trkpt>
      <trkpt lat="39.908473" lon="116.633863">
        <time>2022-05-20T12:37:21Z</time>
      </trkpt>
      <trkpt lat="39.908474" lon="116.634105">
        <time>2022-05-20T12:37:26Z</time>
      </trkpt>
      <trkpt lat="39.908469" lon="116.634195">
        <time>2022-05-20T12:37:31Z</time>
      </trkpt>
      <trkpt lat="39.908467" lon="116.634353">
        <time>2022-05-20T12:37:36Z</time>
      </trkpt>
      <trkpt lat="39.908467" lon="116.634524">
        <time>2022-05-20T12:37:41Z</time>
      </trkpt>
      <trkpt lat="39.908498" lon="116.634676">
        <time>2022-05-20T12:37:46Z</time>
      </trkpt>
      <trkpt lat="39.908502" lon="116.634803">
        <time>2022-05-20T12:37:51Z</time>
      </trkpt>
      <trkpt lat="39.908518" lon="116.634938">
        <time>2022-05-20T12:37:56Z</time>
      </trkpt>
      <trkpt lat="39.908529" lon="116.635075">
        <time>2022-05-20T12:38:01Z</time>
      </trkpt>
      <trkpt lat="39.908519" lon="116.635219">
        <time>2022-05-20T12:38:06Z</time>
      </trkpt>
      <trkpt lat="39.908535" lon="116.63536">
        <time>2022-05-20T12:38:11Z</time>
      </trkpt>
      <trkpt lat="39.908541" lon="116.635512">
        <time>2022-05-20T12:38:16Z</time>
      </trkpt>
      <trkpt lat="39.908562" lon="116.63566">
        <time>2022-05-20T12:38:21Z</time>
      </trkpt>
      <trkpt lat="39.908572" lon="116.635804">
        <time>2022-05-20T12:38:26Z</time>
      </trkpt>
      <trkpt lat="39.908546" lon="116.635939">
        <time>2022-05-20T12:38:31Z</time>
      </trkpt>
      <trkpt lat="39.908515" lon="116.63606">
        <time>2022-05-20T12:38:36Z</time>
      </trkpt>
      <trkpt lat="39.908491" lon="116.636231">
        <time>2022-05-20T12:38:41Z</time>
      </trkpt>
      <trkpt lat="39.908461" lon="116.636374">
        <time>2022-05-20T12:38:46Z</time>
      </trkpt>
      <trkpt lat="39.908421" lon="116.636452">
        <time>2022-05-20T12:38:51Z</time>
      </trkpt>
      <trkpt lat="39.908379" lon="116.636588">
        <time>2022-05-20T12:38:56Z</time>
      </trkpt>
      <trkpt lat="39.908361" lon="116.636702">
        <time>2022-05-20T12:39:01Z</time>
      </trkpt>
      <trkpt lat="39.908349" lon="116.636854">
        <time>2022-05-20T12:39:06Z</time>
      </trkpt>
      <trkpt lat="39.908349" lon="116.637013">
        <time>2022-05-20T12:39:11Z</time>
      </trkpt>
      <trkpt lat="39.90833" lon="116.637146">
        <time>2022-05-20T12:39:16Z</time>
      </trkpt>
      <trkpt lat="39.908274" lon="116.63725">
        <time>2022-05-20T12:39:21Z</time>
      </trkpt>
      <trkpt lat="39.908216" lon="116.637282">
        <time>2022-05-20T12:39:26Z</time>
      </trkpt>
      <trkpt lat="39.908223" lon="116.637333">
        <time>2022-05-20T12:39:31Z</time>
      </trkpt>
      <trkpt lat="39.908244" lon="116.637474">
        <time>2022-05-20T12:39:36Z</time>
      </trkpt>
      <trkpt lat="39.908272" lon="116.637589">
        <time>2022-05-20T12:39:41Z</time>
      </trkpt>
      <trkpt lat="39.908331" lon="116.637718">
        <time>2022-05-20T12:39:46Z</time>
      </trkpt>
      <trkpt lat="39.908343" lon="116.637791">
        <time>2022-05-20T12:39:51Z</time>
      </trkpt>
      <trkpt lat="39.908379" lon="116.63793">
        <time>2022-05-20T12:39:56Z</time>
      </trkpt>
      <trkpt lat="39.908432" lon="116.638073">
        <time>2022-05-20T12:40:01Z</time>
      </trkpt>
      <trkpt lat="39.90846" lon="116.638218">
        <time>2022-05-20T12:40:06Z</time>
      </trkpt>
      <trkpt lat="39.908469" lon="116.638375">
        <time>2022-05-20T12:40:11Z</time>
      </trkpt>
      <trkpt lat="39.908478" lon="116.638509">
        <time>2022-05-20T12:40:16Z</time>
      </trkpt>
      <trkpt lat="39.908494" lon="116.638661">
        <time>2022-05-20T12:40:21Z</time>
      </trkpt>
      <trkpt lat="39.908515" lon="116.638824">
        <time>2022-05-20T12:40:26Z</time>
      </trkpt>
      <trkpt lat="39.908531" lon="116.639029">
        <time>2022-05-20T12:40:31Z</time>
      </trkpt>
      <trkpt lat="39.908552" lon="116.639113">
        <time>2022-05-20T12:40:36Z</time>
      </trkpt>
      <trkpt lat="39.908537" lon="116.639251">
        <time>2022-05-20T12:40:41Z</time>
      </trkpt>
      <trkpt lat="39.908553" lon="116.639409">
        <time>2022-05-20T12:40:46Z</time>
      </trkpt>
      <trkpt lat="39.908555" lon="116.639565">
        <time>2022-05-20T12:40:51Z</time>
      </trkpt>
      <trkpt lat="39.908558" lon="116.639699">
        <time>2022-05-20T12:40:56Z</time>
      </trkpt>
      <trkpt lat="39.908557" lon="116.63984">
        <time>2022-05-20T12:41:01Z</time>
      </trkpt>
      <trkpt lat="39.908565" lon="116.63996">
        <time>2022-05-20T12:41:06Z</time>
      </trkpt>
      <trkpt lat="39.908587" lon="116.640127">
        <time>2022-05-20T12:41:11Z</time>
      </trkpt>
      <trkpt lat="39.908597" lon="116.6403">
        <time>2022-05-20T12:41:16Z</time>
      </trkpt>
      <trkpt lat="39.908616" lon="116.640457">
        <time>2022-05-20T12:41:21Z</time>
      </trkpt>
      <trkpt lat="39.908623" lon="116.640674">
        <time>2022-05-20T12:41:26Z</time>
      </trkpt>
      <trkpt lat="39.908614" lon="116.640758">
        <time>2022-05-20T12:41:31Z</time>
      </trkpt>
      <trkpt lat="39.908584" lon="116.640916">
        <time>2022-05-20T12:41:36Z</time>
      </trkpt>
      <trkpt lat="39.908601" lon="116.641213">
        <time>2022-05-20T12:41:41Z</time>
      </trkpt>
      <trkpt lat="39.908609" lon="116.641251">
        <time>2022-05-20T12:41:46Z</time>
      </trkpt>
      <trkpt lat="39.908627" lon="116.641417">
        <time>2022-05-20T12:41:51Z</time>
      </trkpt>
      <trkpt lat="39.908629" lon="116.641554">
        <time>2022-05-20T12:41:56Z</time>
      </trkpt>
      <trkpt lat="39.908612" lon="116.641692">
        <time>2022-05-20T12:42:01Z</time>
      </trkpt>
      <trkpt lat="39.908622" lon="116.641849">
        <time>2022-05-20T12:42:06Z</time>
      </trkpt>
      <trkpt lat="39.908636" lon="116.642007">
        <time>2022-05-20T12:42:11Z</time>
      </trkpt>
      <trkpt lat="39.908654" lon="116.642143">
        <time>2022-05-20T12:42:16Z</time>
      </trkpt>
      <trkpt lat="39.908653" lon="116.64228">
        <time>2022-05-20T12:42:21Z</time>
      </trkpt>
      <trkpt lat="39.908657" lon="116.642443">
        <time>2022-05-20T12:42:26Z</time>
      </trkpt>
      <trkpt lat="39.908695" lon="116.642606">
        <time>2022-05-20T12:42:31Z</time>
      </trkpt>
      <trkpt lat="39.908674" lon="116.642767">
        <time>2022-05-20T12:42:36Z</time>
      </trkpt>
      <trkpt lat="39.908659" lon="116.642911">
        <time>2022-05-20T12:42:41Z</time>
      </trkpt>
      <trkpt lat="39.908657" lon="116.643046">
        <time>2022-05-20T12:42:46Z</time>
      </trkpt>
      <trkpt lat="39.908669" lon="116.643233">
        <time>2022-05-20T12:42:51Z</time>
      </trkpt>
      <trkpt lat="39.908662" lon="116.643415">
        <time>2022-05-20T12:42:56Z</time>
      </trkpt>
      <trkpt lat="39.908672" lon="116.643533">
        <time>2022-05-20T12:43:01Z</time>
      </trkpt>
      <trkpt lat="39.908676" lon="116.643665">
        <time>2022-05-20T12:43:06Z</time>
      </trkpt>
      <trkpt lat="39.908692" lon="116.643806">
        <time>2022-05-20T12:43:11Z</time>
      </trkpt>
      <trkpt lat="39.908696" lon="116.643963">
        <time>2022-05-20T12:43:16Z</time>
      </trkpt>
      <trkpt lat="39.908698" lon="116.644094">
        <time>2022-05-20T12:43:21Z</time>
      </trkpt>
      <trkpt lat="39.908675" lon="116.644215">
        <time>2022-05-20T12:43:26Z</time>
      </trkpt>
      <trkpt lat="39.908686" lon="116.644325">
        <time>2022-05-20T12:43:31Z</time>
      </trkpt>
      <trkpt lat="39.908713" lon="116.644467">
        <time>2022-05-20T12:43:36Z</time>
      </trkpt>
      <trkpt lat="39.908708" lon="116.644613">
        <time>2022-05-20T12:43:41Z</time>
      </trkpt>
      <trkpt lat="39.908706" lon="116.644766">
        <time>2022-05-20T12:43:46Z</time>
      </trkpt>
      <trkpt lat="39.908705" lon="116.644892">
        <time>2022-05-20T12:43:51Z</time>
      </trkpt>
      <trkpt lat="39.908691" lon="116.644981">
        <time>2022-05-20T12:43:56Z</time>
      </trkpt>
      <trkpt lat="39.908691" lon="116.644981">
        <time>2022-05-20T12:44:01Z</time>
      </trkpt>
      <trkpt lat="39.908637" lon="116.645033">
        <time>2022-05-20T12:44:06Z</time>
      </trkpt>
      <trkpt lat="39.908599" lon="116.644956">
        <time>2022-05-20T12:44:11Z</time>
      </trkpt>
      <trkpt lat="39.908582" lon="116.644989">
        <time>2022-05-20T12:44:16Z</time>
      </trkpt>
      <trkpt lat="39.908599" lon="116.644993">
        <time>2022-05-20T12:44:21Z</time>
      </trkpt>
      <trkpt lat="39.908627" lon="116.645001">
        <time>2022-05-20T12:44:26Z</time>
      </trkpt>
      <trkpt lat="39.908673" lon="116.644994">
        <time>2022-05-20T12:44:31Z</time>
      </trkpt>
      <trkpt lat="39.908713" lon="116.645068">
        <time>2022-05-20T12:44:36Z</time>
      </trkpt>
      <trkpt lat="39.908737" lon="116.645058">
        <time>2022-05-20T12:44:41Z</time>
      </trkpt>
      <trkpt lat="39.908731" lon="116.644983">
        <time>2022-05-20T12:44:46Z</time>
      </trkpt>
      <trkpt lat="39.908725" lon="116.645068">
        <time>2022-05-20T12:44:51Z</time>
      </trkpt>
      <trkpt lat="39.908751" lon="116.64521">
        <time>2022-05-20T12:44:56Z</time>
      </trkpt>
      <trkpt lat="39.908789" lon="116.645396">
        <time>2022-05-20T12:45:01Z</time>
      </trkpt>
      <trkpt lat="39.90879" lon="116.64559">
        <time>2022-05-20T12:45:06Z</time>
      </trkpt>
      <trkpt lat="39.908809" lon="116.645736">
        <time>2022-05-20T12:45:11Z</time>
      </trkpt>
      <trkpt lat="39.908829" lon="116.645884">
        <time>2022-05-20T12:45:16Z</time>
      </trkpt>
      <trkpt lat="39.908866" lon="116.646034">
        <time>2022-05-20T12:45:21Z</time>
      </trkpt>
      <trkpt lat="39.908919" lon="116.64618">
        <time>2022-05-20T12:45:26Z</time>
      </trkpt>
      <trkpt lat="39.908949" lon="116.646339">
        <time>2022-05-20T12:45:31Z</time>
      </trkpt>
      <trkpt lat="39.908986" lon="116.646481">
        <time>2022-05-20T12:45:36Z</time>
      </trkpt>
      <trkpt lat="39.909024" lon="116.64664">
        <time>2022-05-20T12:45:41Z</time>
      </trkpt>
      <trkpt lat="39.909085" lon="116.646794">
        <time>2022-05-20T12:45:46Z</time>
      </trkpt>
      <trkpt lat="39.909149" lon="116.646965">
        <time>2022-05-20T12:45:51Z</time>
      </trkpt>
      <trkpt lat="39.90919" lon="116.647123">
        <time>2022-05-20T12:45:56Z</time>
      </trkpt>
      <trkpt lat="39.909226" lon="116.647245">
        <time>2022-05-20T12:46:01Z</time>
      </trkpt>
      <trkpt lat="39.909244" lon="116.647306">
        <time>2022-05-20T12:46:06Z</time>
      </trkpt>
      <trkpt lat="39.909275" lon="116.647444">
        <time>2022-05-20T12:46:11Z</time>
      </trkpt>
      <trkpt lat="39.909319" lon="116.647559">
        <time>2022-05-20T12:46:16Z</time>
      </trkpt>
      <trkpt lat="39.909366" lon="116.647672">
        <time>2022-05-20T12:46:21Z</time>
      </trkpt>
      <trkpt lat="39.909405" lon="116.647811">
        <time>2022-05-20T12:46:26Z</time>
      </trkpt>
      <trkpt lat="39.909446" lon="116.647967">
        <time>2022-05-20T12:46:31Z</time>
      </trkpt>
      <trkpt lat="39.909495" lon="116.648087">
        <time>2022-05-20T12:46:36Z</time>
      </trkpt>
      <trkpt lat="39.909532" lon="116.648228">
        <time>2022-05-20T12:46:41Z</time>
      </trkpt>
      <trkpt lat="39.909566" lon="116.648378">
        <time>2022-05-20T12:46:46Z</time>
      </trkpt>
      <trkpt lat="39.9096" lon="116.648509">
        <time>2022-05-20T12:46:51Z</time>
      </trkpt>
      <trkpt lat="39.909654" lon="116.648672">
        <time>2022-05-20T12:46:56Z</time>
      </trkpt>
      <trkpt lat="39.909696" lon="116.648833">
        <time>2022-05-20T12:47:01Z</time>
      </trkpt>
      <trkpt lat="39.909708" lon="116.649018">
        <time>2022-05-20T12:47:06Z</time>
      </trkpt>
      <trkpt lat="39.909739" lon="116.64914">
        <time>2022-05-20T12:47:11Z</time>
      </trkpt>
      <trkpt lat="39.909794" lon="116.649291">
        <time>2022-05-20T12:47:16Z</time>
      </trkpt>
      <trkpt lat="39.909855" lon="116.649438">
        <time>2022-05-20T12:47:21Z</time>
      </trkpt>
      <trkpt lat="39.909911" lon="116.649533">
        <time>2022-05-20T12:47:26Z</time>
      </trkpt>
      <trkpt lat="39.909946" lon="116.649688">
        <time>2022-05-20T12:47:31Z</time>
      </trkpt>
      <trkpt lat="39.91" lon="116.649853">
        <time>2022-05-20T12:47:36Z</time>
      </trkpt>
      <trkpt lat="39.910025" lon="116.65002">
        <time>2022-05-20T12:47:41Z</time>
      </trkpt>
      <trkpt lat="39.910022" lon="116.650171">
        <time>2022-05-20T12:47:46Z</time>
      </trkpt>
      <trkpt lat="39.910028" lon="116.65033">
        <time>2022-05-20T12:47:51Z</time>
      </trkpt>
      <trkpt lat="39.910048" lon="116.650454">
        <time>2022-05-20T12:47:56Z</time>
      </trkpt>
      <trkpt lat="39.910042" lon="116.65058">
        <time>2022-05-20T12:48:01Z</time>
      </trkpt>
      <trkpt lat="39.910033" lon="116.650667">
        <time>2022-05-20T12:48:06Z</time>
      </trkpt>
      <trkpt lat="39.910031" lon="116.650716">
        <time>2022-05-20T12:48:11Z</time>
      </trkpt>
      <trkpt lat="39.910031" lon="116.650785">
        <time>2022-05-20T12:48:16Z</time>
      </trkpt>
      <trkpt lat="39.910014" lon="116.650836">
        <time>2022-05-20T12:48:21Z</time>
      </trkpt>
      <trkpt lat="39.909967" lon="116.650883">
        <time>2022-05-20T12:48:26Z</time>
      </trkpt>
      <trkpt lat="39.90996" lon="116.650912">
        <time>2022-05-20T12:48:31Z</time>
      </trkpt>
      <trkpt lat="39.909983" lon="116.650961">
        <time>2022-05-20T12:48:36Z</time>
      </trkpt>
      <trkpt lat="39.9101" lon="116.650951">
        <time>2022-05-20T12:48:41Z</time>
      </trkpt>
      <trkpt lat="39.910202" lon="116.650958">
        <time>2022-05-20T12:48:46Z</time>
      </trkpt>
      <trkpt lat="39.910303" lon="116.650952">
        <time>2022-05-20T12:48:51Z</time>
      </trkpt>
      <trkpt lat="39.910423" lon="116.650926">
        <time>2022-05-20T12:48:56Z</time>
      </trkpt>
      <trkpt lat="39.910522" lon="116.650909">
        <time>2022-05-20T12:49:01Z</time>
      </trkpt>
      <trkpt lat="39.910631" lon="116.650884">
        <time>2022-05-20T12:49:06Z</time>
      </trkpt>
      <trkpt lat="39.910739" lon="116.650881">
        <time>2022-05-20T12:49:11Z</time>
      </trkpt>
      <trkpt lat="39.91086" lon="116.650865">
        <time>2022-05-20T12:49:16Z</time>
      </trkpt>
      <trkpt lat="39.910991" lon="116.65084">
        <time>2022-05-20T12:49:21Z</time>
      </trkpt>
      <trkpt lat="39.911113" lon="116.650808">
        <time>2022-05-20T12:49:26Z</time>
      </trkpt>
      <trkpt lat="39.91122" lon="116.650769">
        <time>2022-05-20T12:49:31Z</time>
      </trkpt>
      <trkpt lat="39.911327" lon="116.650768">
        <time>2022-05-20T12:49:36Z</time>
      </trkpt>
      <trkpt lat="39.911319" lon="116.651058">
        <time>2022-05-20T12:49:41Z</time>
      </trkpt>
      <trkpt lat="39.911337" lon="116.651262">
        <time>2022-05-20T12:49:46Z</time>
      </trkpt>
      <trkpt lat="39.911341" lon="116.651405">
        <time>2022-05-20T12:49:51Z</time>
      </trkpt>
      <trkpt lat="39.911296" lon="116.651506">
        <time>2022-05-20T12:49:56Z</time>
      </trkpt>
      <trkpt lat="39.911225" lon="116.651541">
        <time>2022-05-20T12:50:01Z</time>
      </trkpt>
      <trkpt lat="39.911204" lon="116.651598">
        <time>2022-05-20T12:50:06Z</time>
      </trkpt>
      <trkpt lat="39.911174" lon="116.651718">
        <time>2022-05-20T12:50:11Z</time>
      </trkpt>
      <trkpt lat="39.911177" lon="116.651813">
        <time>2022-05-20T12:50:16Z</time>
      </trkpt>
      <trkpt lat="39.911123" lon="116.651877">
        <time>2022-05-20T12:50:21Z</time>
      </trkpt>
      <trkpt lat="39.91108" lon="116.651991">
        <time>2022-05-20T12:50:26Z</time>
      </trkpt>
      <trkpt lat="39.910992" lon="116.652033">
        <time>2022-05-20T12:50:31Z</time>
      </trkpt>
      <trkpt lat="39.911085" lon="116.652161">
        <time>2022-05-20T12:50:36Z</time>
      </trkpt>
      <trkpt lat="39.911168" lon="116.652277">
        <time>2022-05-20T12:50:41Z</time>
      </trkpt>
      <trkpt lat="39.911272" lon="116.652397">
        <time>2022-05-20T12:50:46Z</time>
      </trkpt>
      <trkpt lat="39.911373" lon="116.652499">
        <time>2022-05-20T12:50:51Z</time>
      </trkpt>
      <trkpt lat="39.911472" lon="116.652591">
        <time>2022-05-20T12:50:56Z</time>
      </trkpt>
      <trkpt lat="39.911546" lon="116.652674">
        <time>2022-05-20T12:51:01Z</time>
      </trkpt>
      <trkpt lat="39.911673" lon="116.652743">
        <time>2022-05-20T12:51:06Z</time>
      </trkpt>
      <trkpt lat="39.911802" lon="116.652794">
        <time>2022-05-20T12:51:11Z</time>
      </trkpt>
      <trkpt lat="39.911903" lon="116.652886">
        <time>2022-05-20T12:51:16Z</time>
      </trkpt>
      <trkpt lat="39.911983" lon="116.652988">
        <time>2022-05-20T12:51:21Z</time>
      </trkpt>
      <trkpt lat="39.91206" lon="116.653097">
        <time>2022-05-20T12:51:26Z</time>
      </trkpt>
      <trkpt lat="39.912158" lon="116.653187">
        <time>2022-05-20T12:51:31Z</time>
      </trkpt>
      <trkpt lat="39.912257" lon="116.653285">
        <time>2022-05-20T12:51:36Z</time>
      </trkpt>
      <trkpt lat="39.912376" lon="116.653335">
        <time>2022-05-20T12:51:41Z</time>
      </trkpt>
      <trkpt lat="39.912477" lon="116.653401">
        <time>2022-05-20T12:51:46Z</time>
      </trkpt>
      <trkpt lat="39.912573" lon="116.65347">
        <time>2022-05-20T12:51:51Z</time>
      </trkpt>
      <trkpt lat="39.912659" lon="116.653563">
        <time>2022-05-20T12:51:56Z</time>
      </trkpt>
      <trkpt lat="39.912784" lon="116.653659">
        <time>2022-05-20T12:52:01Z</time>
      </trkpt>
      <trkpt lat="39.912905" lon="116.65378">
        <time>2022-05-20T12:52:06Z</time>
      </trkpt>
      <trkpt lat="39.912999" lon="116.653876">
        <time>2022-05-20T12:52:11Z</time>
      </trkpt>
      <trkpt lat="39.913103" lon="116.653944">
        <time>2022-05-20T12:52:16Z</time>
      </trkpt>
      <trkpt lat="39.913216" lon="116.653994">
        <time>2022-05-20T12:52:21Z</time>
      </trkpt>
      <trkpt lat="39.913328" lon="116.654041">
        <time>2022-05-20T12:52:26Z</time>
      </trkpt>
      <trkpt lat="39.91345" lon="116.654112">
        <time>2022-05-20T12:52:31Z</time>
      </trkpt>
      <trkpt lat="39.913525" lon="116.654222">
        <time>2022-05-20T12:52:36Z</time>
      </trkpt>
      <trkpt lat="39.913632" lon="116.654356">
        <time>2022-05-20T12:52:41Z</time>
      </trkpt>
      <trkpt lat="39.913754" lon="116.65444">
        <time>2022-05-20T12:52:46Z</time>
      </trkpt>
      <trkpt lat="39.913845" lon="116.65452">
        <time>2022-05-20T12:52:51Z</time>
      </trkpt>
      <trkpt lat="39.913928" lon="116.654601">
        <time>2022-05-20T12:52:56Z</time>
      </trkpt>
      <trkpt lat="39.914006" lon="116.654647">
        <time>2022-05-20T12:53:01Z</time>
      </trkpt>
      <trkpt lat="39.914092" lon="116.654745">
        <time>2022-05-20T12:53:06Z</time>
      </trkpt>
      <trkpt lat="39.91417" lon="116.654867">
        <time>2022-05-20T12:53:11Z</time>
      </trkpt>
      <trkpt lat="39.914241" lon="116.654962">
        <time>2022-05-20T12:53:16Z</time>
      </trkpt>
      <trkpt lat="39.91429" lon="116.655007">
        <time>2022-05-20T12:53:21Z</time>
      </trkpt>
      <trkpt lat="39.914385" lon="116.655057">
        <time>2022-05-20T12:53:26Z</time>
      </trkpt>
      <trkpt lat="39.914478" lon="116.655174">
        <time>2022-05-20T12:53:31Z</time>
      </trkpt>
      <trkpt lat="39.914554" lon="116.655262">
        <time>2022-05-20T12:53:36Z</time>
      </trkpt>
      <trkpt lat="39.914631" lon="116.655391">
        <time>2022-05-20T12:53:41Z</time>
      </trkpt>
      <trkpt lat="39.914687" lon="116.655517">
        <time>2022-05-20T12:53:46Z</time>
      </trkpt>
      <trkpt lat="39.914764" lon="116.655641">
        <time>2022-05-20T12:53:51Z</time>
      </trkpt>
      <trkpt lat="39.914833" lon="116.655729">
        <time>2022-05-20T12:53:56Z</time>
      </trkpt>
      <trkpt lat="39.914909" lon="116.655847">
        <time>2022-05-20T12:54:01Z</time>
      </trkpt>
      <trkpt lat="39.914994" lon="116.655975">
        <time>2022-05-20T12:54:06Z</time>
      </trkpt>
      <trkpt lat="39.915051" lon="116.656123">
        <time>2022-05-20T12:54:11Z</time>
      </trkpt>
      <trkpt lat="39.915114" lon="116.656185">
        <time>2022-05-20T12:54:16Z</time>
      </trkpt>
      <trkpt lat="39.915108" lon="116.656213">
        <time>2022-05-20T12:54:21Z</time>
      </trkpt>
      <trkpt lat="39.915167" lon="116.656252">
        <time>2022-05-20T12:54:26Z</time>
      </trkpt>
      <trkpt lat="39.915257" lon="116.656336">
        <time>2022-05-20T12:54:31Z</time>
      </trkpt>
      <trkpt lat="39.915348" lon="116.656581">
        <time>2022-05-20T12:54:36Z</time>
      </trkpt>
      <trkpt lat="39.915432" lon="116.656808">
        <time>2022-05-20T12:54:41Z</time>
      </trkpt>
      <trkpt lat="39.91553" lon="116.656968">
        <time>2022-05-20T12:54:46Z</time>
      </trkpt>
      <trkpt lat="39.915601" lon="116.657094">
        <time>2022-05-20T12:54:51Z</time>
      </trkpt>
      <trkpt lat="39.915678" lon="116.657213">
        <time>2022-05-20T12:54:56Z</time>
      </trkpt>
      <trkpt lat="39.915781" lon="116.657349">
        <time>2022-05-20T12:55:01Z</time>
      </trkpt>
      <trkpt lat="39.915879" lon="116.657463">
        <time>2022-05-20T12:55:06Z</time>
      </trkpt>
      <trkpt lat="39.915971" lon="116.657596">
        <time>2022-05-20T12:55:11Z</time>
      </trkpt>
      <trkpt lat="39.916047" lon="116.657728">
        <time>2022-05-20T12:55:16Z</time>
      </trkpt>
      <trkpt lat="39.916131" lon="116.657832">
        <time>2022-05-20T12:55:21Z</time>
      </trkpt>
      <trkpt lat="39.916185" lon="116.657938">
        <time>2022-05-20T12:55:26Z</time>
      </trkpt>
      <trkpt lat="39.91624" lon="116.658053">
        <time>2022-05-20T12:55:31Z</time>
      </trkpt>
      <trkpt lat="39.916304" lon="116.658172">
        <time>2022-05-20T12:55:36Z</time>
      </trkpt>
      <trkpt lat="39.916377" lon="116.658263">
        <time>2022-05-20T12:55:41Z</time>
      </trkpt>
      <trkpt lat="39.916447" lon="116.658379">
        <time>2022-05-20T12:55:46Z</time>
      </trkpt>
      <trkpt lat="39.916517" lon="116.658484">
        <time>2022-05-20T12:55:51Z</time>
      </trkpt>
      <trkpt lat="39.916571" lon="116.658546">
        <time>2022-05-20T12:55:56Z</time>
      </trkpt>
      <trkpt lat="39.916612" lon="116.658639">
        <time>2022-05-20T12:56:01Z</time>
      </trkpt>
      <trkpt lat="39.916657" lon="116.658741">
        <time>2022-05-20T12:56:06Z</time>
      </trkpt>
      <trkpt lat="39.916708" lon="116.658824">
        <time>2022-05-20T12:56:11Z</time>
      </trkpt>
      <trkpt lat="39.916778" lon="116.658915">
        <time>2022-05-20T12:56:16Z</time>
      </trkpt>
      <trkpt lat="39.916832" lon="116.659032">
        <time>2022-05-20T12:56:21Z</time>
      </trkpt>
      <trkpt lat="39.916894" lon="116.659166">
        <time>2022-05-20T12:56:26Z</time>
      </trkpt>
      <trkpt lat="39.916981" lon="116.65926">
        <time>2022-05-20T12:56:31Z</time>
      </trkpt>
      <trkpt lat="39.917056" lon="116.65936">
        <time>2022-05-20T12:56:36Z</time>
      </trkpt>
      <trkpt lat="39.917058" lon="116.6593">
        <time>2022-05-20T12:56:41Z</time>
      </trkpt>
      <trkpt lat="39.916962" lon="116.659176">
        <time>2022-05-20T12:56:46Z</time>
      </trkpt>
      <trkpt lat="39.916876" lon="116.659075">
        <time>2022-05-20T12:56:51Z</time>
      </trkpt>
      <trkpt lat="39.91681" lon="116.65897">
        <time>2022-05-20T12:56:56Z</time>
      </trkpt>
      <trkpt lat="39.916716" lon="116.658824">
        <time>2022-05-20T12:57:01Z</time>
      </trkpt>
      <trkpt lat="39.916641" lon="116.658705">
        <time>2022-05-20T12:57:06Z</time>
      </trkpt>
      <trkpt lat="39.916586" lon="116.658595">
        <time>2022-05-20T12:57:11Z</time>
      </trkpt>
      <trkpt lat="39.916517" lon="116.658499">
        <time>2022-05-20T12:57:16Z</time>
      </trkpt>
      <trkpt lat="39.91646" lon="116.658411">
        <time>2022-05-20T12:57:21Z</time>
      </trkpt>
      <trkpt lat="39.916388" lon="116.658294">
        <time>2022-05-20T12:57:26Z</time>
      </trkpt>
      <trkpt lat="39.916329" lon="116.658184">
        <time>2022-05-20T12:57:31Z</time>
      </trkpt>
      <trkpt lat="39.916275" lon="116.658066">
        <time>2022-05-20T12:57:36Z</time>
      </trkpt>
      <trkpt lat="39.916202" lon="116.657963">
        <time>2022-05-20T12:57:41Z</time>
      </trkpt>
      <trkpt lat="39.916117" lon="116.657862">
        <time>2022-05-20T12:57:46Z</time>
      </trkpt>
      <trkpt lat="39.916033" lon="116.657751">
        <time>2022-05-20T12:57:51Z</time>
      </trkpt>
      <trkpt lat="39.915954" lon="116.657625">
        <time>2022-05-20T12:57:56Z</time>
      </trkpt>
      <trkpt lat="39.915864" lon="116.657487">
        <time>2022-05-20T12:58:01Z</time>
      </trkpt>
      <trkpt lat="39.915778" lon="116.657367">
        <time>2022-05-20T12:58:06Z</time>
      </trkpt>
      <trkpt lat="39.915699" lon="116.657252">
        <time>2022-05-20T12:58:11Z</time>
      </trkpt>
      <trkpt lat="39.915598" lon="116.657108">
        <time>2022-05-20T12:58:16Z</time>
      </trkpt>
      <trkpt lat="39.915535" lon="116.656984">
        <time>2022-05-20T12:58:21Z</time>
      </trkpt>
      <trkpt lat="39.915476" lon="116.65686">
        <time>2022-05-20T12:58:26Z</time>
      </trkpt>
      <trkpt lat="39.915423" lon="116.656748">
        <time>2022-05-20T12:58:31Z</time>
      </trkpt>
      <trkpt lat="39.915376" lon="116.656678">
        <time>2022-05-20T12:58:36Z</time>
      </trkpt>
      <trkpt lat="39.91539" lon="116.656648">
        <time>2022-05-20T12:58:41Z</time>
      </trkpt>
      <trkpt lat="39.915361" lon="116.656599">
        <time>2022-05-20T12:58:46Z</time>
      </trkpt>
      <trkpt lat="39.915347" lon="116.656529">
        <time>2022-05-20T12:58:51Z</time>
      </trkpt>
      <trkpt lat="39.91533" lon="116.656467">
        <time>2022-05-20T12:58:56Z</time>
      </trkpt>
      <trkpt lat="39.915203" lon="116.656271">
        <time>2022-05-20T12:59:01Z</time>
      </trkpt>
      <trkpt lat="39.91508" lon="116.656069">
        <time>2022-05-20T12:59:06Z</time>
      </trkpt>
      <trkpt lat="39.915" lon="116.655916">
        <time>2022-05-20T12:59:11Z</time>
      </trkpt>
      <trkpt lat="39.914937" lon="116.655791">
        <time>2022-05-20T12:59:16Z</time>
      </trkpt>
      <trkpt lat="39.914879" lon="116.655676">
        <time>2022-05-20T12:59:21Z</time>
      </trkpt>
      <trkpt lat="39.914789" lon="116.655547">
        <time>2022-05-20T12:59:26Z</time>
      </trkpt>
      <trkpt lat="39.914715" lon="116.655462">
        <time>2022-05-20T12:59:31Z</time>
      </trkpt>
      <trkpt lat="39.914658" lon="116.655381">
        <time>2022-05-20T12:59:36Z</time>
      </trkpt>
      <trkpt lat="39.914599" lon="116.655286">
        <time>2022-05-20T12:59:41Z</time>
      </trkpt>
      <trkpt lat="39.91451" lon="116.655176">
        <time>2022-05-20T12:59:46Z</time>
      </trkpt>
      <trkpt lat="39.914451" lon="116.655065">
        <time>2022-05-20T12:59:51Z</time>
      </trkpt>
      <trkpt lat="39.914353" lon="116.654942">
        <time>2022-05-20T12:59:56Z</time>
      </trkpt>
      <trkpt lat="39.914266" lon="116.654847">
        <time>2022-05-20T13:00:01Z</time>
      </trkpt>
      <trkpt lat="39.914198" lon="116.654783">
        <time>2022-05-20T13:00:06Z</time>
      </trkpt>
      <trkpt lat="39.914152" lon="116.654705">
        <time>2022-05-20T13:00:11Z</time>
      </trkpt>
      <trkpt lat="39.914084" lon="116.654627">
        <time>2022-05-20T13:00:16Z</time>
      </trkpt>
      <trkpt lat="39.914009" lon="116.654574">
        <time>2022-05-20T13:00:21Z</time>
      </trkpt>
      <trkpt lat="39.913917" lon="116.654499">
        <time>2022-05-20T13:00:26Z</time>
      </trkpt>
      <trkpt lat="39.913825" lon="116.654432">
        <time>2022-05-20T13:00:31Z</time>
      </trkpt>
      <trkpt lat="39.913736" lon="116.654375">
        <time>2022-05-20T13:00:36Z</time>
      </trkpt>
      <trkpt lat="39.913653" lon="116.654309">
        <time>2022-05-20T13:00:41Z</time>
      </trkpt>
      <trkpt lat="39.913582" lon="116.654227">
        <time>2022-05-20T13:00:46Z</time>
      </trkpt>
      <trkpt lat="39.913502" lon="116.654122">
        <time>2022-05-20T13:00:51Z</time>
      </trkpt>
      <trkpt lat="39.913394" lon="116.654027">
        <time>2022-05-20T13:00:56Z</time>
      </trkpt>
      <trkpt lat="39.913288" lon="116.653962">
        <time>2022-05-20T13:01:01Z</time>
      </trkpt>
      <trkpt lat="39.913164" lon="116.653898">
        <time>2022-05-20T13:01:06Z</time>
      </trkpt>
      <trkpt lat="39.913052" lon="116.653815">
        <time>2022-05-20T13:01:11Z</time>
      </trkpt>
      <trkpt lat="39.912943" lon="116.653712">
        <time>2022-05-20T13:01:16Z</time>
      </trkpt>
      <trkpt lat="39.91285" lon="116.653603">
        <time>2022-05-20T13:01:21Z</time>
      </trkpt>
      <trkpt lat="39.912737" lon="116.653512">
        <time>2022-05-20T13:01:26Z</time>
      </trkpt>
      <trkpt lat="39.912635" lon="116.653422">
        <time>2022-05-20T13:01:31Z</time>
      </trkpt>
      <trkpt lat="39.912541" lon="116.653363">
        <time>2022-05-20T13:01:36Z</time>
      </trkpt>
      <trkpt lat="39.912427" lon="116.6533">
        <time>2022-05-20T13:01:41Z</time>
      </trkpt>
      <trkpt lat="39.912324" lon="116.653242">
        <time>2022-05-20T13:01:46Z</time>
      </trkpt>
      <trkpt lat="39.912225" lon="116.653169">
        <time>2022-05-20T13:01:51Z</time>
      </trkpt>
      <trkpt lat="39.912126" lon="116.653092">
        <time>2022-05-20T13:01:56Z</time>
      </trkpt>
      <trkpt lat="39.912034" lon="116.653014">
        <time>2022-05-20T13:02:01Z</time>
      </trkpt>
      <trkpt lat="39.911951" lon="116.652915">
        <time>2022-05-20T13:02:06Z</time>
      </trkpt>
      <trkpt lat="39.91185" lon="116.652815">
        <time>2022-05-20T13:02:11Z</time>
      </trkpt>
      <trkpt lat="39.911716" lon="116.652747">
        <time>2022-05-20T13:02:16Z</time>
      </trkpt>
      <trkpt lat="39.911613" lon="116.652684">
        <time>2022-05-20T13:02:21Z</time>
      </trkpt>
      <trkpt lat="39.911503" lon="116.65259">
        <time>2022-05-20T13:02:26Z</time>
      </trkpt>
      <trkpt lat="39.911428" lon="116.652536">
        <time>2022-05-20T13:02:31Z</time>
      </trkpt>
      <trkpt lat="39.911358" lon="116.652493">
        <time>2022-05-20T13:02:36Z</time>
      </trkpt>
      <trkpt lat="39.911297" lon="116.652426">
        <time>2022-05-20T13:02:41Z</time>
      </trkpt>
      <trkpt lat="39.911227" lon="116.652347">
        <time>2022-05-20T13:02:46Z</time>
      </trkpt>
      <trkpt lat="39.911164" lon="116.652263">
        <time>2022-05-20T13:02:51Z</time>
      </trkpt>
      <trkpt lat="39.911095" lon="116.652161">
        <time>2022-05-20T13:02:56Z</time>
      </trkpt>
      <trkpt lat="39.911033" lon="116.652061">
        <time>2022-05-20T13:03:01Z</time>
      </trkpt>
      <trkpt lat="39.911001" lon="116.651953">
        <time>2022-05-20T13:03:06Z</time>
      </trkpt>
      <trkpt lat="39.91099" lon="116.651818">
        <time>2022-05-20T13:03:11Z</time>
      </trkpt>
      <trkpt lat="39.910959" lon="116.65167">
        <time>2022-05-20T13:03:16Z</time>
      </trkpt>
      <trkpt lat="39.910926" lon="116.651523">
        <time>2022-05-20T13:03:21Z</time>
      </trkpt>
      <trkpt lat="39.910875" lon="116.651475">
        <time>2022-05-20T13:03:26Z</time>
      </trkpt>
      <trkpt lat="39.910893" lon="116.651611">
        <time>2022-05-20T13:03:31Z</time>
      </trkpt>
      <trkpt lat="39.910955" lon="116.651762">
        <time>2022-05-20T13:03:36Z</time>
      </trkpt>
      <trkpt lat="39.911016" lon="116.651913">
        <time>2022-05-20T13:03:41Z</time>
      </trkpt>
      <trkpt lat="39.911055" lon="116.652056">
        <time>2022-05-20T13:03:46Z</time>
      </trkpt>
      <trkpt lat="39.911125" lon="116.652169">
        <time>2022-05-20T13:03:51Z</time>
      </trkpt>
      <trkpt lat="39.911218" lon="116.652294">
        <time>2022-05-20T13:03:56Z</time>
      </trkpt>
      <trkpt lat="39.911301" lon="116.652386">
        <time>2022-05-20T13:04:01Z</time>
      </trkpt>
      <trkpt lat="39.911389" lon="116.652501">
        <time>2022-05-20T13:04:06Z</time>
      </trkpt>
      <trkpt lat="39.911466" lon="116.652559">
        <time>2022-05-20T13:04:11Z</time>
      </trkpt>
      <trkpt lat="39.911535" lon="116.652622">
        <time>2022-05-20T13:04:16Z</time>
      </trkpt>
      <trkpt lat="39.911622" lon="116.652695">
        <time>2022-05-20T13:04:21Z</time>
      </trkpt>
      <trkpt lat="39.911711" lon="116.652762">
        <time>2022-05-20T13:04:26Z</time>
      </trkpt>
      <trkpt lat="39.911811" lon="116.652819">
        <time>2022-05-20T13:04:31Z</time>
      </trkpt>
      <trkpt lat="39.911916" lon="116.65289">
        <time>2022-05-20T13:04:36Z</time>
      </trkpt>
      <trkpt lat="39.912006" lon="116.652984">
        <time>2022-05-20T13:04:41Z</time>
      </trkpt>
      <trkpt lat="39.912077" lon="116.653083">
        <time>2022-05-20T13:04:46Z</time>
      </trkpt>
      <trkpt lat="39.912149" lon="116.653188">
        <time>2022-05-20T13:04:51Z</time>
      </trkpt>
      <trkpt lat="39.912255" lon="116.653263">
        <time>2022-05-20T13:04:56Z</time>
      </trkpt>
      <trkpt lat="39.912363" lon="116.653344">
        <time>2022-05-20T13:05:01Z</time>
      </trkpt>
      <trkpt lat="39.91248" lon="116.653408">
        <time>2022-05-20T13:05:06Z</time>
      </trkpt>
      <trkpt lat="39.912592" lon="116.653458">
        <time>2022-05-20T13:05:11Z</time>
      </trkpt>
      <trkpt lat="39.912683" lon="116.653538">
        <time>2022-05-20T13:05:16Z</time>
      </trkpt>
      <trkpt lat="39.912751" lon="116.65356">
        <time>2022-05-20T13:05:21Z</time>
      </trkpt>
      <trkpt lat="39.912824" lon="116.653571">
        <time>2022-05-20T13:05:26Z</time>
      </trkpt>
      <trkpt lat="39.912918" lon="116.653615">
        <time>2022-05-20T13:05:31Z</time>
      </trkpt>
      <trkpt lat="39.913002" lon="116.653694">
        <time>2022-05-20T13:05:36Z</time>
      </trkpt>
      <trkpt lat="39.913102" lon="116.653801">
        <time>2022-05-20T13:05:41Z</time>
      </trkpt>
      <trkpt lat="39.913223" lon="116.653881">
        <time>2022-05-20T13:05:46Z</time>
      </trkpt>
      <trkpt lat="39.913347" lon="116.65395">
        <time>2022-05-20T13:05:51Z</time>
      </trkpt>
      <trkpt lat="39.91345" lon="116.653993">
        <time>2022-05-20T13:05:56Z</time>
      </trkpt>
      <trkpt lat="39.913545" lon="116.654078">
        <time>2022-05-20T13:06:01Z</time>
      </trkpt>
      <trkpt lat="39.913628" lon="116.654196">
        <time>2022-05-20T13:06:06Z</time>
      </trkpt>
      <trkpt lat="39.913721" lon="116.654315">
        <time>2022-05-20T13:06:11Z</time>
      </trkpt>
      <trkpt lat="39.913835" lon="116.654433">
        <time>2022-05-20T13:06:16Z</time>
      </trkpt>
      <trkpt lat="39.91394" lon="116.654531">
        <time>2022-05-20T13:06:21Z</time>
      </trkpt>
      <trkpt lat="39.914039" lon="116.654614">
        <time>2022-05-20T13:06:26Z</time>
      </trkpt>
      <trkpt lat="39.914128" lon="116.654716">
        <time>2022-05-20T13:06:31Z</time>
      </trkpt>
      <trkpt lat="39.914176" lon="116.654778">
        <time>2022-05-20T13:06:36Z</time>
      </trkpt>
      <trkpt lat="39.914234" lon="116.654849">
        <time>2022-05-20T13:06:41Z</time>
      </trkpt>
      <trkpt lat="39.914282" lon="116.654897">
        <time>2022-05-20T13:06:46Z</time>
      </trkpt>
      <trkpt lat="39.914343" lon="116.655001">
        <time>2022-05-20T13:06:51Z</time>
      </trkpt>
      <trkpt lat="39.914417" lon="116.655081">
        <time>2022-05-20T13:06:56Z</time>
      </trkpt>
      <trkpt lat="39.914497" lon="116.655181">
        <time>2022-05-20T13:07:01Z</time>
      </trkpt>
      <trkpt lat="39.914581" lon="116.655312">
        <time>2022-05-20T13:07:06Z</time>
      </trkpt>
      <trkpt lat="39.914674" lon="116.655481">
        <time>2022-05-20T13:07:11Z</time>
      </trkpt>
      <trkpt lat="39.91476" lon="116.655647">
        <time>2022-05-20T13:07:16Z</time>
      </trkpt>
      <trkpt lat="39.914862" lon="116.655741">
        <time>2022-05-20T13:07:21Z</time>
      </trkpt>
      <trkpt lat="39.914948" lon="116.655845">
        <time>2022-05-20T13:07:26Z</time>
      </trkpt>
      <trkpt lat="39.914996" lon="116.655971">
        <time>2022-05-20T13:07:31Z</time>
      </trkpt>
      <trkpt lat="39.915046" lon="116.65608">
        <time>2022-05-20T13:07:36Z</time>
      </trkpt>
      <trkpt lat="39.91508" lon="116.656169">
        <time>2022-05-20T13:07:41Z</time>
      </trkpt>
      <trkpt lat="39.915103" lon="116.656232">
        <time>2022-05-20T13:07:46Z</time>
      </trkpt>
      <trkpt lat="39.915173" lon="116.656275">
        <time>2022-05-20T13:07:51Z</time>
      </trkpt>
      <trkpt lat="39.915266" lon="116.656432">
        <time>2022-05-20T13:07:56Z</time>
      </trkpt>
      <trkpt lat="39.915351" lon="116.656663">
        <time>2022-05-20T13:08:01Z</time>
      </trkpt>
      <trkpt lat="39.91541" lon="116.656802">
        <time>2022-05-20T13:08:06Z</time>
      </trkpt>
      <trkpt lat="39.91547" lon="116.656901">
        <time>2022-05-20T13:08:11Z</time>
      </trkpt>
      <trkpt lat="39.915519" lon="116.656966">
        <time>2022-05-20T13:08:16Z</time>
      </trkpt>
      <trkpt lat="39.915571" lon="116.657039">
        <time>2022-05-20T13:08:21Z</time>
      </trkpt>
      <trkpt lat="39.915618" lon="116.657113">
        <time>2022-05-20T13:08:26Z</time>
      </trkpt>
      <trkpt lat="39.915673" lon="116.657203">
        <time>2022-05-20T13:08:31Z</time>
      </trkpt>
      <trkpt lat="39.915741" lon="116.657303">
        <time>2022-05-20T13:08:36Z</time>
      </trkpt>
      <trkpt lat="39.915816" lon="116.657415">
        <time>2022-05-20T13:08:41Z</time>
      </trkpt>
      <trkpt lat="39.915889" lon="116.657513">
        <time>2022-05-20T13:08:46Z</time>
      </trkpt>
      <trkpt lat="39.91596" lon="116.657623">
        <time>2022-05-20T13:08:51Z</time>
      </trkpt>
      <trkpt lat="39.916046" lon="116.657733">
        <time>2022-05-20T13:08:56Z</time>
      </trkpt>
      <trkpt lat="39.916125" lon="116.657834">
        <time>2022-05-20T13:09:01Z</time>
      </trkpt>
      <trkpt lat="39.91621" lon="116.657948">
        <time>2022-05-20T13:09:06Z</time>
      </trkpt>
      <trkpt lat="39.916301" lon="116.658089">
        <time>2022-05-20T13:09:11Z</time>
      </trkpt>
      <trkpt lat="39.916373" lon="116.658202">
        <time>2022-05-20T13:09:16Z</time>
      </trkpt>
      <trkpt lat="39.916451" lon="116.658323">
        <time>2022-05-20T13:09:21Z</time>
      </trkpt>
      <trkpt lat="39.916509" lon="116.658431">
        <time>2022-05-20T13:09:26Z</time>
      </trkpt>
      <trkpt lat="39.916583" lon="116.658555">
        <time>2022-05-20T13:09:31Z</time>
      </trkpt>
      <trkpt lat="39.916665" lon="116.658689">
        <time>2022-05-20T13:09:36Z</time>
      </trkpt>
      <trkpt lat="39.916754" lon="116.658822">
        <time>2022-05-20T13:09:41Z</time>
      </trkpt>
      <trkpt lat="39.916831" lon="116.658946">
        <time>2022-05-20T13:09:46Z</time>
      </trkpt>
      <trkpt lat="39.916901" lon="116.659092">
        <time>2022-05-20T13:09:51Z</time>
      </trkpt>
      <trkpt lat="39.916964" lon="116.659202">
        <time>2022-05-20T13:09:56Z</time>
      </trkpt>
      <trkpt lat="39.917034" lon="116.659317">
        <time>2022-05-20T13:10:01Z</time>
      </trkpt>
      <trkpt lat="39.917079" lon="116.659372">
        <time>2022-05-20T13:10:06Z</time>
      </trkpt>
      <trkpt lat="39.917016" lon="116.65924">
        <time>2022-05-20T13:10:11Z</time>
      </trkpt>
      <trkpt lat="39.91691" lon="116.659106">
        <time>2022-05-20T13:10:16Z</time>
      </trkpt>
      <trkpt lat="39.916832" lon="116.658992">
        <time>2022-05-20T13:10:21Z</time>
      </trkpt>
      <trkpt lat="39.916766" lon="116.658887">
        <time>2022-05-20T13:10:26Z</time>
      </trkpt>
      <trkpt lat="39.9167" lon="116.658762">
        <time>2022-05-20T13:10:31Z</time>
      </trkpt>
      <trkpt lat="39.916646" lon="116.658644">
        <time>2022-05-20T13:10:36Z</time>
      </trkpt>
      <trkpt lat="39.916557" lon="116.658506">
        <time>2022-05-20T13:10:41Z</time>
      </trkpt>
      <trkpt lat="39.916473" lon="116.658384">
        <time>2022-05-20T13:10:46Z</time>
      </trkpt>
      <trkpt lat="39.916398" lon="116.65826">
        <time>2022-05-20T13:10:51Z</time>
      </trkpt>
      <trkpt lat="39.916311" lon="116.658158">
        <time>2022-05-20T13:10:56Z</time>
      </trkpt>
      <trkpt lat="39.916246" lon="116.65805">
        <time>2022-05-20T13:11:01Z</time>
      </trkpt>
      <trkpt lat="39.916187" lon="116.657935">
        <time>2022-05-20T13:11:06Z</time>
      </trkpt>
      <trkpt lat="39.91611" lon="116.657835">
        <time>2022-05-20T13:11:11Z</time>
      </trkpt>
      <trkpt lat="39.916025" lon="116.657709">
        <time>2022-05-20T13:11:16Z</time>
      </trkpt>
      <trkpt lat="39.915959" lon="116.657602">
        <time>2022-05-20T13:11:21Z</time>
      </trkpt>
      <trkpt lat="39.915915" lon="116.657539">
        <time>2022-05-20T13:11:26Z</time>
      </trkpt>
      <trkpt lat="39.915858" lon="116.657453">
        <time>2022-05-20T13:11:31Z</time>
      </trkpt>
      <trkpt lat="39.915792" lon="116.657392">
        <time>2022-05-20T13:11:36Z</time>
      </trkpt>
      <trkpt lat="39.915717" lon="116.657301">
        <time>2022-05-20T13:11:41Z</time>
      </trkpt>
      <trkpt lat="39.915639" lon="116.657189">
        <time>2022-05-20T13:11:46Z</time>
      </trkpt>
      <trkpt lat="39.915557" lon="116.657037">
        <time>2022-05-20T13:11:51Z</time>
      </trkpt>
      <trkpt lat="39.915504" lon="116.656951">
        <time>2022-05-20T13:11:56Z</time>
      </trkpt>
      <trkpt lat="39.915435" lon="116.656841">
        <time>2022-05-20T13:12:01Z</time>
      </trkpt>
      <trkpt lat="39.915418" lon="116.656782">
        <time>2022-05-20T13:12:06Z</time>
      </trkpt>
      <trkpt lat="39.915408" lon="116.656748">
        <time>2022-05-20T13:12:11Z</time>
      </trkpt>
      <trkpt lat="39.915395" lon="116.656654">
        <time>2022-05-20T13:12:16Z</time>
      </trkpt>
      <trkpt lat="39.915425" lon="116.65658">
        <time>2022-05-20T13:12:21Z</time>
      </trkpt>
      <trkpt lat="39.915405" lon="116.656352">
        <time>2022-05-20T13:12:26Z</time>
      </trkpt>
      <trkpt lat="39.915287" lon="116.656228">
        <time>2022-05-20T13:12:31Z</time>
      </trkpt>
      <trkpt lat="39.915141" lon="116.656048">
        <time>2022-05-20T13:12:36Z</time>
      </trkpt>
      <trkpt lat="39.91506" lon="116.65592">
        <time>2022-05-20T13:12:41Z</time>
      </trkpt>
      <trkpt lat="39.91497" lon="116.655791">
        <time>2022-05-20T13:12:46Z</time>
      </trkpt>
      <trkpt lat="39.914927" lon="116.655722">
        <time>2022-05-20T13:12:51Z</time>
      </trkpt>
      <trkpt lat="39.914852" lon="116.6556">
        <time>2022-05-20T13:12:56Z</time>
      </trkpt>
      <trkpt lat="39.914784" lon="116.655479">
        <time>2022-05-20T13:13:01Z</time>
      </trkpt>
      <trkpt lat="39.914696" lon="116.655349">
        <time>2022-05-20T13:13:06Z</time>
      </trkpt>
      <trkpt lat="39.914601" lon="116.655232">
        <time>2022-05-20T13:13:11Z</time>
      </trkpt>
      <trkpt lat="39.914506" lon="116.655116">
        <time>2022-05-20T13:13:16Z</time>
      </trkpt>
      <trkpt lat="39.91441" lon="116.655007">
        <time>2022-05-20T13:13:21Z</time>
      </trkpt>
      <trkpt lat="39.914306" lon="116.654886">
        <time>2022-05-20T13:13:26Z</time>
      </trkpt>
      <trkpt lat="39.914204" lon="116.654781">
        <time>2022-05-20T13:13:31Z</time>
      </trkpt>
      <trkpt lat="39.914086" lon="116.654683">
        <time>2022-05-20T13:13:36Z</time>
      </trkpt>
      <trkpt lat="39.913997" lon="116.654611">
        <time>2022-05-20T13:13:41Z</time>
      </trkpt>
      <trkpt lat="39.913908" lon="116.654551">
        <time>2022-05-20T13:13:46Z</time>
      </trkpt>
      <trkpt lat="39.913842" lon="116.654484">
        <time>2022-05-20T13:13:51Z</time>
      </trkpt>
      <trkpt lat="39.913771" lon="116.654427">
        <time>2022-05-20T13:13:56Z</time>
      </trkpt>
      <trkpt lat="39.913674" lon="116.654375">
        <time>2022-05-20T13:14:01Z</time>
      </trkpt>
      <trkpt lat="39.913594" lon="116.654309">
        <time>2022-05-20T13:14:06Z</time>
      </trkpt>
      <trkpt lat="39.913517" lon="116.654225">
        <time>2022-05-20T13:14:11Z</time>
      </trkpt>
      <trkpt lat="39.913435" lon="116.654129">
        <time>2022-05-20T13:14:16Z</time>
      </trkpt>
      <trkpt lat="39.913331" lon="116.654033">
        <time>2022-05-20T13:14:21Z</time>
      </trkpt>
      <trkpt lat="39.913211" lon="116.653979">
        <time>2022-05-20T13:14:26Z</time>
      </trkpt>
      <trkpt lat="39.913094" lon="116.653924">
        <time>2022-05-20T13:14:31Z</time>
      </trkpt>
      <trkpt lat="39.912997" lon="116.653855">
        <time>2022-05-20T13:14:36Z</time>
      </trkpt>
      <trkpt lat="39.912893" lon="116.653776">
        <time>2022-05-20T13:14:41Z</time>
      </trkpt>
      <trkpt lat="39.912802" lon="116.653657">
        <time>2022-05-20T13:14:46Z</time>
      </trkpt>
      <trkpt lat="39.912706" lon="116.653549">
        <time>2022-05-20T13:14:51Z</time>
      </trkpt>
      <trkpt lat="39.912651" lon="116.65348">
        <time>2022-05-20T13:14:56Z</time>
      </trkpt>
      <trkpt lat="39.912554" lon="116.653406">
        <time>2022-05-20T13:15:01Z</time>
      </trkpt>
      <trkpt lat="39.912452" lon="116.653333">
        <time>2022-05-20T13:15:06Z</time>
      </trkpt>
      <trkpt lat="39.912348" lon="116.653265">
        <time>2022-05-20T13:15:11Z</time>
      </trkpt>
      <trkpt lat="39.912276" lon="116.653212">
        <time>2022-05-20T13:15:16Z</time>
      </trkpt>
      <trkpt lat="39.912214" lon="116.653149">
        <time>2022-05-20T13:15:21Z</time>
      </trkpt>
      <trkpt lat="39.912133" lon="116.653096">
        <time>2022-05-20T13:15:26Z</time>
      </trkpt>
      <trkpt lat="39.912045" lon="116.653034">
        <time>2022-05-20T13:15:31Z</time>
      </trkpt>
      <trkpt lat="39.911961" lon="116.652942">
        <time>2022-05-20T13:15:36Z</time>
      </trkpt>
      <trkpt lat="39.911877" lon="116.652852">
        <time>2022-05-20T13:15:41Z</time>
      </trkpt>
      <trkpt lat="39.911779" lon="116.652782">
        <time>2022-05-20T13:15:46Z</time>
      </trkpt>
      <trkpt lat="39.911678" lon="116.65274">
        <time>2022-05-20T13:15:51Z</time>
      </trkpt>
      <trkpt lat="39.911591" lon="116.652693">
        <time>2022-05-20T13:15:56Z</time>
      </trkpt>
      <trkpt lat="39.911498" lon="116.652631">
        <time>2022-05-20T13:16:01Z</time>
      </trkpt>
      <trkpt lat="39.91141" lon="116.652554">
        <time>2022-05-20T13:16:06Z</time>
      </trkpt>
      <trkpt lat="39.911328" lon="116.652469">
        <time>2022-05-20T13:16:11Z</time>
      </trkpt>
      <trkpt lat="39.911243" lon="116.652387">
        <time>2022-05-20T13:16:16Z</time>
      </trkpt>
      <trkpt lat="39.911162" lon="116.652287">
        <time>2022-05-20T13:16:21Z</time>
      </trkpt>
      <trkpt lat="39.911082" lon="116.652171">
        <time>2022-05-20T13:16:26Z</time>
      </trkpt>
      <trkpt lat="39.910995" lon="116.652032">
        <time>2022-05-20T13:16:31Z</time>
      </trkpt>
      <trkpt lat="39.910955" lon="116.651873">
        <time>2022-05-20T13:16:36Z</time>
      </trkpt>
      <trkpt lat="39.910917" lon="116.65169">
        <time>2022-05-20T13:16:41Z</time>
      </trkpt>
      <trkpt lat="39.91087" lon="116.651501">
        <time>2022-05-20T13:16:46Z</time>
      </trkpt>
      <trkpt lat="39.910844" lon="116.651389">
        <time>2022-05-20T13:16:51Z</time>
      </trkpt>
      <trkpt lat="39.91084" lon="116.651534">
        <time>2022-05-20T13:16:56Z</time>
      </trkpt>
      <trkpt lat="39.91091" lon="116.651717">
        <time>2022-05-20T13:17:01Z</time>
      </trkpt>
      <trkpt lat="39.910989" lon="116.651878">
        <time>2022-05-20T13:17:06Z</time>
      </trkpt>
      <trkpt lat="39.91108" lon="116.651977">
        <time>2022-05-20T13:17:11Z</time>
      </trkpt>
      <trkpt lat="39.911158" lon="116.651966">
        <time>2022-05-20T13:17:16Z</time>
      </trkpt>
      <trkpt lat="39.911195" lon="116.651857">
        <time>2022-05-20T13:17:21Z</time>
      </trkpt>
      <trkpt lat="39.911215" lon="116.651815">
        <time>2022-05-20T13:17:26Z</time>
      </trkpt>
      <trkpt lat="39.911172" lon="116.65175">
        <time>2022-05-20T13:17:31Z</time>
      </trkpt>
      <trkpt lat="39.911166" lon="116.651716">
        <time>2022-05-20T13:17:36Z</time>
      </trkpt>
      <trkpt lat="39.911156" lon="116.651683">
        <time>2022-05-20T13:17:41Z</time>
      </trkpt>
      <trkpt lat="39.911174" lon="116.651645">
        <time>2022-05-20T13:17:46Z</time>
      </trkpt>
      <trkpt lat="39.911143" lon="116.65154">
        <time>2022-05-20T13:17:51Z</time>
      </trkpt>
      <trkpt lat="39.911105" lon="116.651457">
        <time>2022-05-20T13:17:56Z</time>
      </trkpt>
      <trkpt lat="39.911073" lon="116.651398">
        <time>2022-05-20T13:18:01Z</time>
      </trkpt>
      <trkpt lat="39.910993" lon="116.65139">
        <time>2022-05-20T13:18:06Z</time>
      </trkpt>
      <trkpt lat="39.910897" lon="116.651383">
        <time>2022-05-20T13:18:11Z</time>
      </trkpt>
      <trkpt lat="39.910807" lon="116.651394">
        <time>2022-05-20T13:18:16Z</time>
      </trkpt>
      <trkpt lat="39.910718" lon="116.6514">
        <time>2022-05-20T13:18:21Z</time>
      </trkpt>
      <trkpt lat="39.910613" lon="116.651407">
        <time>2022-05-20T13:18:26Z</time>
      </trkpt>
      <trkpt lat="39.910493" lon="116.651415">
        <time>2022-05-20T13:18:31Z</time>
      </trkpt>
      <trkpt lat="39.910367" lon="116.651439">
        <time>2022-05-20T13:18:36Z</time>
      </trkpt>
      <trkpt lat="39.910241" lon="116.651473">
        <time>2022-05-20T13:18:41Z</time>
      </trkpt>
      <trkpt lat="39.910113" lon="116.651493">
        <time>2022-05-20T13:18:46Z</time>
      </trkpt>
      <trkpt lat="39.909987" lon="116.651516">
        <time>2022-05-20T13:18:51Z</time>
      </trkpt>
      <trkpt lat="39.909867" lon="116.651524">
        <time>2022-05-20T13:18:56Z</time>
      </trkpt>
      <trkpt lat="39.909724" lon="116.651523">
        <time>2022-05-20T13:19:01Z</time>
      </trkpt>
      <trkpt lat="39.909575" lon="116.65157">
        <time>2022-05-20T13:19:06Z</time>
      </trkpt>
      <trkpt lat="39.909425" lon="116.651577">
        <time>2022-05-20T13:19:11Z</time>
      </trkpt>
      <trkpt lat="39.909273" lon="116.65156">
        <time>2022-05-20T13:19:16Z</time>
      </trkpt>
      <trkpt lat="39.909125" lon="116.651579">
        <time>2022-05-20T13:19:21Z</time>
      </trkpt>
      <trkpt lat="39.909044" lon="116.651661">
        <time>2022-05-20T13:19:26Z</time>
      </trkpt>
      <trkpt lat="39.909044" lon="116.651661">
        <time>2022-05-20T13:19:31Z</time>
      </trkpt>
      <trkpt lat="39.908913" lon="116.651329">
        <time>2022-05-20T13:19:36Z</time>
      </trkpt>
      <trkpt lat="39.908902" lon="116.651295">
        <time>2022-05-20T13:19:41Z</time>
      </trkpt>
      <trkpt lat="39.908911" lon="116.651149">
        <time>2022-05-20T13:19:46Z</time>
      </trkpt>
      <trkpt lat="39.909015" lon="116.651151">
        <time>2022-05-20T13:19:51Z</time>
      </trkpt>
      <trkpt lat="39.909083" lon="116.65114">
        <time>2022-05-20T13:19:56Z</time>
      </trkpt>
      <trkpt lat="39.909157" lon="116.651147">
        <time>2022-05-20T13:20:01Z</time>
      </trkpt>
      <trkpt lat="39.909263" lon="116.651143">
        <time>2022-05-20T13:20:06Z</time>
      </trkpt>
      <trkpt lat="39.909343" lon="116.651121">
        <time>2022-05-20T13:20:11Z</time>
      </trkpt>
      <trkpt lat="39.909435" lon="116.651103">
        <time>2022-05-20T13:20:16Z</time>
      </trkpt>
      <trkpt lat="39.909559" lon="116.651094">
        <time>2022-05-20T13:20:21Z</time>
      </trkpt>
      <trkpt lat="39.909689" lon="116.651066">
        <time>2022-05-20T13:20:26Z</time>
      </trkpt>
      <trkpt lat="39.909803" lon="116.65103">
        <time>2022-05-20T13:20:31Z</time>
      </trkpt>
      <trkpt lat="39.909803" lon="116.65103">
        <time>2022-05-20T13:20:36Z</time>
      </trkpt>
      <trkpt lat="39.909885" lon="116.651009">
        <time>2022-05-20T13:20:41Z</time>
      </trkpt>
      <trkpt lat="39.909978" lon="116.650847">
        <time>2022-05-20T13:20:46Z</time>
      </trkpt>
      <trkpt lat="39.909979" lon="116.650735">
        <time>2022-05-20T13:20:51Z</time>
      </trkpt>
      <trkpt lat="39.909983" lon="116.650609">
        <time>2022-05-20T13:20:56Z</time>
      </trkpt>
      <trkpt lat="39.910014" lon="116.650523">
        <time>2022-05-20T13:21:01Z</time>
      </trkpt>
      <trkpt lat="39.910052" lon="116.650362">
        <time>2022-05-20T13:21:06Z</time>
      </trkpt>
      <trkpt lat="39.910025" lon="116.650205">
        <time>2022-05-20T13:21:11Z</time>
      </trkpt>
      <trkpt lat="39.910012" lon="116.650044">
        <time>2022-05-20T13:21:16Z</time>
      </trkpt>
      <trkpt lat="39.909981" lon="116.649876">
        <time>2022-05-20T13:21:21Z</time>
      </trkpt>
      <trkpt lat="39.909959" lon="116.649715">
        <time>2022-05-20T13:21:26Z</time>
      </trkpt>
      <trkpt lat="39.909908" lon="116.649544">
        <time>2022-05-20T13:21:31Z</time>
      </trkpt>
      <trkpt lat="39.909878" lon="116.649405">
        <time>2022-05-20T13:21:36Z</time>
      </trkpt>
      <trkpt lat="39.909829" lon="116.64925">
        <time>2022-05-20T13:21:41Z</time>
      </trkpt>
      <trkpt lat="39.909789" lon="116.649139">
        <time>2022-05-20T13:21:46Z</time>
      </trkpt>
      <trkpt lat="39.90974" lon="116.648945">
        <time>2022-05-20T13:21:51Z</time>
      </trkpt>
      <trkpt lat="39.909701" lon="116.648844">
        <time>2022-05-20T13:21:56Z</time>
      </trkpt>
      <trkpt lat="39.909692" lon="116.648822">
        <time>2022-05-20T13:22:01Z</time>
      </trkpt>
      <trkpt lat="39.909651" lon="116.648707">
        <time>2022-05-20T13:22:06Z</time>
      </trkpt>
      <trkpt lat="39.909616" lon="116.64859">
        <time>2022-05-20T13:22:11Z</time>
      </trkpt>
      <trkpt lat="39.90959" lon="116.648462">
        <time>2022-05-20T13:22:16Z</time>
      </trkpt>
      <trkpt lat="39.909565" lon="116.648339">
        <time>2022-05-20T13:22:21Z</time>
      </trkpt>
      <trkpt lat="39.909534" lon="116.648211">
        <time>2022-05-20T13:22:26Z</time>
      </trkpt>
      <trkpt lat="39.909505" lon="116.648095">
        <time>2022-05-20T13:22:31Z</time>
      </trkpt>
      <trkpt lat="39.909471" lon="116.647978">
        <time>2022-05-20T13:22:36Z</time>
      </trkpt>
      <trkpt lat="39.909419" lon="116.647818">
        <time>2022-05-20T13:22:41Z</time>
      </trkpt>
      <trkpt lat="39.909384" lon="116.647693">
        <time>2022-05-20T13:22:46Z</time>
      </trkpt>
      <trkpt lat="39.909367" lon="116.647623">
        <time>2022-05-20T13:22:51Z</time>
      </trkpt>
      <trkpt lat="39.909347" lon="116.647533">
        <time>2022-05-20T13:22:56Z</time>
      </trkpt>
      <trkpt lat="39.909329" lon="116.647426">
        <time>2022-05-20T13:23:01Z</time>
      </trkpt>
      <trkpt lat="39.909295" lon="116.647337">
        <time>2022-05-20T13:23:06Z</time>
      </trkpt>
      <trkpt lat="39.909256" lon="116.647236">
        <time>2022-05-20T13:23:11Z</time>
      </trkpt>
      <trkpt lat="39.909225" lon="116.647125">
        <time>2022-05-20T13:23:16Z</time>
      </trkpt>
      <trkpt lat="39.909198" lon="116.647029">
        <time>2022-05-20T13:23:21Z</time>
      </trkpt>
      <trkpt lat="39.909163" lon="116.646894">
        <time>2022-05-20T13:23:26Z</time>
      </trkpt>
      <trkpt lat="39.909122" lon="116.64674">
        <time>2022-05-20T13:23:31Z</time>
      </trkpt>
      <trkpt lat="39.909066" lon="116.646579">
        <time>2022-05-20T13:23:36Z</time>
      </trkpt>
      <trkpt lat="39.909025" lon="116.646461">
        <time>2022-05-20T13:23:41Z</time>
      </trkpt>
      <trkpt lat="39.908996" lon="116.646325">
        <time>2022-05-20T13:23:46Z</time>
      </trkpt>
      <trkpt lat="39.908941" lon="116.64618">
        <time>2022-05-20T13:23:51Z</time>
      </trkpt>
      <trkpt lat="39.908897" lon="116.646016">
        <time>2022-05-20T13:23:56Z</time>
      </trkpt>
      <trkpt lat="39.908875" lon="116.645875">
        <time>2022-05-20T13:24:01Z</time>
      </trkpt>
      <trkpt lat="39.908826" lon="116.645735">
        <time>2022-05-20T13:24:06Z</time>
      </trkpt>
      <trkpt lat="39.908799" lon="116.645544">
        <time>2022-05-20T13:24:11Z</time>
      </trkpt>
      <trkpt lat="39.908769" lon="116.645379">
        <time>2022-05-20T13:24:16Z</time>
      </trkpt>
      <trkpt lat="39.908748" lon="116.645258">
        <time>2022-05-20T13:24:21Z</time>
      </trkpt>
      <trkpt lat="39.908724" lon="116.645129">
        <time>2022-05-20T13:24:26Z</time>
      </trkpt>
      <trkpt lat="39.908727" lon="116.645034">
        <time>2022-05-20T13:24:31Z</time>
      </trkpt>
      <trkpt lat="39.908729" lon="116.644975">
        <time>2022-05-20T13:24:36Z</time>
      </trkpt>
      <trkpt lat="39.908726" lon="116.644867">
        <time>2022-05-20T13:24:41Z</time>
      </trkpt>
      <trkpt lat="39.908704" lon="116.644727">
        <time>2022-05-20T13:24:46Z</time>
      </trkpt>
      <trkpt lat="39.908675" lon="116.644548">
        <time>2022-05-20T13:24:51Z</time>
      </trkpt>
      <trkpt lat="39.908661" lon="116.6444">
        <time>2022-05-20T13:24:56Z</time>
      </trkpt>
      <trkpt lat="39.90865" lon="116.644235">
        <time>2022-05-20T13:25:01Z</time>
      </trkpt>
      <trkpt lat="39.908654" lon="116.644077">
        <time>2022-05-20T13:25:06Z</time>
      </trkpt>
      <trkpt lat="39.908662" lon="116.643943">
        <time>2022-05-20T13:25:11Z</time>
      </trkpt>
      <trkpt lat="39.908657" lon="116.643782">
        <time>2022-05-20T13:25:16Z</time>
      </trkpt>
      <trkpt lat="39.90865" lon="116.643608">
        <time>2022-05-20T13:25:21Z</time>
      </trkpt>
      <trkpt lat="39.908634" lon="116.643458">
        <time>2022-05-20T13:25:26Z</time>
      </trkpt>
      <trkpt lat="39.908627" lon="116.643317">
        <time>2022-05-20T13:25:31Z</time>
      </trkpt>
      <trkpt lat="39.908621" lon="116.643197">
        <time>2022-05-20T13:25:36Z</time>
      </trkpt>
      <trkpt lat="39.908625" lon="116.643143">
        <time>2022-05-20T13:25:41Z</time>
      </trkpt>
      <trkpt lat="39.90863" lon="116.643053">
        <time>2022-05-20T13:25:46Z</time>
      </trkpt>
      <trkpt lat="39.908634" lon="116.642948">
        <time>2022-05-20T13:25:51Z</time>
      </trkpt>
      <trkpt lat="39.908633" lon="116.642846">
        <time>2022-05-20T13:25:56Z</time>
      </trkpt>
      <trkpt lat="39.908628" lon="116.642744">
        <time>2022-05-20T13:26:01Z</time>
      </trkpt>
      <trkpt lat="39.908635" lon="116.64262">
        <time>2022-05-20T13:26:06Z</time>
      </trkpt>
      <trkpt lat="39.90862" lon="116.642449">
        <time>2022-05-20T13:26:11Z</time>
      </trkpt>
      <trkpt lat="39.908602" lon="116.642296">
        <time>2022-05-20T13:26:16Z</time>
      </trkpt>
      <trkpt lat="39.908593" lon="116.642157">
        <time>2022-05-20T13:26:21Z</time>
      </trkpt>
      <trkpt lat="39.908606" lon="116.642079">
        <time>2022-05-20T13:26:26Z</time>
      </trkpt>
      <trkpt lat="39.908596" lon="116.641977">
        <time>2022-05-20T13:26:31Z</time>
      </trkpt>
      <trkpt lat="39.908572" lon="116.641881">
        <time>2022-05-20T13:26:36Z</time>
      </trkpt>
      <trkpt lat="39.908577" lon="116.641802">
        <time>2022-05-20T13:26:41Z</time>
      </trkpt>
      <trkpt lat="39.908589" lon="116.641745">
        <time>2022-05-20T13:26:46Z</time>
      </trkpt>
      <trkpt lat="39.9086" lon="116.641627">
        <time>2022-05-20T13:26:51Z</time>
      </trkpt>
      <trkpt lat="39.90862" lon="116.641491">
        <time>2022-05-20T13:26:56Z</time>
      </trkpt>
      <trkpt lat="39.908648" lon="116.641337">
        <time>2022-05-20T13:27:01Z</time>
      </trkpt>
      <trkpt lat="39.908643" lon="116.641163">
        <time>2022-05-20T13:27:06Z</time>
      </trkpt>
      <trkpt lat="39.908626" lon="116.640961">
        <time>2022-05-20T13:27:11Z</time>
      </trkpt>
      <trkpt lat="39.908608" lon="116.640775">
        <time>2022-05-20T13:27:16Z</time>
      </trkpt>
      <trkpt lat="39.908597" lon="116.640609">
        <time>2022-05-20T13:27:21Z</time>
      </trkpt>
      <trkpt lat="39.908621" lon="116.640378">
        <time>2022-05-20T13:27:26Z</time>
      </trkpt>
      <trkpt lat="39.908611" lon="116.640262">
        <time>2022-05-20T13:27:31Z</time>
      </trkpt>
      <trkpt lat="39.90856" lon="116.64003">
        <time>2022-05-20T13:27:36Z</time>
      </trkpt>
      <trkpt lat="39.90856" lon="116.640014">
        <time>2022-05-20T13:27:41Z</time>
      </trkpt>
      <trkpt lat="39.908553" lon="116.639901">
        <time>2022-05-20T13:27:46Z</time>
      </trkpt>
      <trkpt lat="39.90856" lon="116.639767">
        <time>2022-05-20T13:27:51Z</time>
      </trkpt>
      <trkpt lat="39.908558" lon="116.639641">
        <time>2022-05-20T13:27:56Z</time>
      </trkpt>
      <trkpt lat="39.908541" lon="116.639502">
        <time>2022-05-20T13:28:01Z</time>
      </trkpt>
      <trkpt lat="39.908556" lon="116.639388">
        <time>2022-05-20T13:28:06Z</time>
      </trkpt>
      <trkpt lat="39.908564" lon="116.63921">
        <time>2022-05-20T13:28:11Z</time>
      </trkpt>
      <trkpt lat="39.908555" lon="116.639037">
        <time>2022-05-20T13:28:16Z</time>
      </trkpt>
      <trkpt lat="39.908572" lon="116.63888">
        <time>2022-05-20T13:28:21Z</time>
      </trkpt>
      <trkpt lat="39.908597" lon="116.63873">
        <time>2022-05-20T13:28:26Z</time>
      </trkpt>
      <trkpt lat="39.908593" lon="116.638633">
        <time>2022-05-20T13:28:31Z</time>
      </trkpt>
      <trkpt lat="39.908594" lon="116.638546">
        <time>2022-05-20T13:28:36Z</time>
      </trkpt>
      <trkpt lat="39.908611" lon="116.638432">
        <time>2022-05-20T13:28:41Z</time>
      </trkpt>
      <trkpt lat="39.908605" lon="116.638316">
        <time>2022-05-20T13:28:46Z</time>
      </trkpt>
      <trkpt lat="39.908559" lon="116.638222">
        <time>2022-05-20T13:28:51Z</time>
      </trkpt>
      <trkpt lat="39.908529" lon="116.638137">
        <time>2022-05-20T13:28:56Z</time>
      </trkpt>
      <trkpt lat="39.90852" lon="116.638038">
        <time>2022-05-20T13:29:01Z</time>
      </trkpt>
      <trkpt lat="39.908492" lon="116.637916">
        <time>2022-05-20T13:29:06Z</time>
      </trkpt>
      <trkpt lat="39.908417" lon="116.6378">
        <time>2022-05-20T13:29:11Z</time>
      </trkpt>
      <trkpt lat="39.908303" lon="116.637694">
        <time>2022-05-20T13:29:16Z</time>
      </trkpt>
      <trkpt lat="39.908303" lon="116.637694">
        <time>2022-05-20T13:29:21Z</time>
      </trkpt>
      <trkpt lat="39.908221" lon="116.63765">
        <time>2022-05-20T13:29:26Z</time>
      </trkpt>
      <trkpt lat="39.908234" lon="116.637327">
        <time>2022-05-20T13:29:31Z</time>
      </trkpt>
      <trkpt lat="39.908253" lon="116.637281">
        <time>2022-05-20T13:29:36Z</time>
      </trkpt>
      <trkpt lat="39.908309" lon="116.637193">
        <time>2022-05-20T13:29:41Z</time>
      </trkpt>
      <trkpt lat="39.9083" lon="116.637014">
        <time>2022-05-20T13:29:46Z</time>
      </trkpt>
      <trkpt lat="39.908311" lon="116.636854">
        <time>2022-05-20T13:29:51Z</time>
      </trkpt>
      <trkpt lat="39.90837" lon="116.63674">
        <time>2022-05-20T13:29:56Z</time>
      </trkpt>
      <trkpt lat="39.90842" lon="116.636631">
        <time>2022-05-20T13:30:01Z</time>
      </trkpt>
      <trkpt lat="39.908442" lon="116.6365">
        <time>2022-05-20T13:30:06Z</time>
      </trkpt>
      <trkpt lat="39.908479" lon="116.636353">
        <time>2022-05-20T13:30:11Z</time>
      </trkpt>
      <trkpt lat="39.908532" lon="116.636216">
        <time>2022-05-20T13:30:16Z</time>
      </trkpt>
      <trkpt lat="39.908584" lon="116.63611">
        <time>2022-05-20T13:30:21Z</time>
      </trkpt>
      <trkpt lat="39.908611" lon="116.635992">
        <time>2022-05-20T13:30:26Z</time>
      </trkpt>
      <trkpt lat="39.908602" lon="116.635898">
        <time>2022-05-20T13:30:31Z</time>
      </trkpt>
      <trkpt lat="39.908599" lon="116.63583">
        <time>2022-05-20T13:30:36Z</time>
      </trkpt>
      <trkpt lat="39.908603" lon="116.63574">
        <time>2022-05-20T13:30:41Z</time>
      </trkpt>
      <trkpt lat="39.908581" lon="116.635652">
        <time>2022-05-20T13:30:46Z</time>
      </trkpt>
      <trkpt lat="39.908577" lon="116.635551">
        <time>2022-05-20T13:30:51Z</time>
      </trkpt>
      <trkpt lat="39.908585" lon="116.63542">
        <time>2022-05-20T13:30:56Z</time>
      </trkpt>
      <trkpt lat="39.90859" lon="116.635253">
        <time>2022-05-20T13:31:01Z</time>
      </trkpt>
      <trkpt lat="39.908593" lon="116.635076">
        <time>2022-05-20T13:31:06Z</time>
      </trkpt>
      <trkpt lat="39.90855" lon="116.634896">
        <time>2022-05-20T13:31:11Z</time>
      </trkpt>
      <trkpt lat="39.908499" lon="116.63471">
        <time>2022-05-20T13:31:16Z</time>
      </trkpt>
      <trkpt lat="39.908468" lon="116.634341">
        <time>2022-05-20T13:31:21Z</time>
      </trkpt>
      <trkpt lat="39.908469" lon="116.634305">
        <time>2022-05-20T13:31:26Z</time>
      </trkpt>
      <trkpt lat="39.908498" lon="116.634162">
        <time>2022-05-20T13:31:31Z</time>
      </trkpt>
      <trkpt lat="39.908518" lon="116.63409">
        <time>2022-05-20T13:31:36Z</time>
      </trkpt>
      <trkpt lat="39.908474" lon="116.633979">
        <time>2022-05-20T13:31:41Z</time>
      </trkpt>
      <trkpt lat="39.908468" lon="116.633873">
        <time>2022-05-20T13:31:46Z</time>
      </trkpt>
      <trkpt lat="39.908465" lon="116.633729">
        <time>2022-05-20T13:31:51Z</time>
      </trkpt>
      <trkpt lat="39.908478" lon="116.633601">
        <time>2022-05-20T13:31:56Z</time>
      </trkpt>
      <trkpt lat="39.90848" lon="116.633431">
        <time>2022-05-20T13:32:01Z</time>
      </trkpt>
      <trkpt lat="39.908434" lon="116.63329">
        <time>2022-05-20T13:32:06Z</time>
      </trkpt>
      <trkpt lat="39.908418" lon="116.63312">
        <time>2022-05-20T13:32:11Z</time>
      </trkpt>
      <trkpt lat="39.908398" lon="116.632956">
        <time>2022-05-20T13:32:16Z</time>
      </trkpt>
      <trkpt lat="39.908396" lon="116.632798">
        <time>2022-05-20T13:32:21Z</time>
      </trkpt>
      <trkpt lat="39.908378" lon="116.632657">
        <time>2022-05-20T13:32:26Z</time>
      </trkpt>
      <trkpt lat="39.908367" lon="116.632587">
        <time>2022-05-20T13:32:31Z</time>
      </trkpt>
      <trkpt lat="39.908378" lon="116.63252">
        <time>2022-05-20T13:32:36Z</time>
      </trkpt>
      <trkpt lat="39.908352" lon="116.632412">
        <time>2022-05-20T13:32:41Z</time>
      </trkpt>
      <trkpt lat="39.90833" lon="116.632286">
        <time>2022-05-20T13:32:46Z</time>
      </trkpt>
      <trkpt lat="39.908317" lon="116.632149">
        <time>2022-05-20T13:32:51Z</time>
      </trkpt>
      <trkpt lat="39.908305" lon="116.632007">
        <time>2022-05-20T13:32:56Z</time>
      </trkpt>
      <trkpt lat="39.90828" lon="116.631847">
        <time>2022-05-20T13:33:01Z</time>
      </trkpt>
      <trkpt lat="39.90825" lon="116.63172">
        <time>2022-05-20T13:33:06Z</time>
      </trkpt>
      <trkpt lat="39.908236" lon="116.6316">
        <time>2022-05-20T13:33:11Z</time>
      </trkpt>
      <trkpt lat="39.908238" lon="116.631518">
        <time>2022-05-20T13:33:16Z</time>
      </trkpt>
      <trkpt lat="39.908259" lon="116.631448">
        <time>2022-05-20T13:33:21Z</time>
      </trkpt>
      <trkpt lat="39.908241" lon="116.631342">
        <time>2022-05-20T13:33:26Z</time>
      </trkpt>
      <trkpt lat="39.908232" lon="116.631241">
        <time>2022-05-20T13:33:31Z</time>
      </trkpt>
      <trkpt lat="39.908221" lon="116.631129">
        <time>2022-05-20T13:33:36Z</time>
      </trkpt>
      <trkpt lat="39.908198" lon="116.631019">
        <time>2022-05-20T13:33:41Z</time>
      </trkpt>
      <trkpt lat="39.908184" lon="116.630921">
        <time>2022-05-20T13:33:46Z</time>
      </trkpt>
      <trkpt lat="39.908171" lon="116.630814">
        <time>2022-05-20T13:33:51Z</time>
      </trkpt>
      <trkpt lat="39.908164" lon="116.630719">
        <time>2022-05-20T13:33:56Z</time>
      </trkpt>
      <trkpt lat="39.908154" lon="116.630627">
        <time>2022-05-20T13:34:01Z</time>
      </trkpt>
      <trkpt lat="39.908128" lon="116.630522">
        <time>2022-05-20T13:34:06Z</time>
      </trkpt>
      <trkpt lat="39.908119" lon="116.630388">
        <time>2022-05-20T13:34:11Z</time>
      </trkpt>
      <trkpt lat="39.908091" lon="116.630243">
        <time>2022-05-20T13:34:16Z</time>
      </trkpt>
      <trkpt lat="39.90808" lon="116.630094">
        <time>2022-05-20T13:34:21Z</time>
      </trkpt>
      <trkpt lat="39.908054" lon="116.629943">
        <time>2022-05-20T13:34:26Z</time>
      </trkpt>
      <trkpt lat="39.908034" lon="116.629798">
        <time>2022-05-20T13:34:31Z</time>
      </trkpt>
      <trkpt lat="39.908024" lon="116.629672">
        <time>2022-05-20T13:34:36Z</time>
      </trkpt>
      <trkpt lat="39.907991" lon="116.629552">
        <time>2022-05-20T13:34:41Z</time>
      </trkpt>
      <trkpt lat="39.907965" lon="116.629437">
        <time>2022-05-20T13:34:46Z</time>
      </trkpt>
      <trkpt lat="39.90796" lon="116.629315">
        <time>2022-05-20T13:34:51Z</time>
      </trkpt>
      <trkpt lat="39.907959" lon="116.629232">
        <time>2022-05-20T13:34:56Z</time>
      </trkpt>
      <trkpt lat="39.90794" lon="116.629146">
        <time>2022-05-20T13:35:01Z</time>
      </trkpt>
      <trkpt lat="39.907919" lon="116.629059">
        <time>2022-05-20T13:35:06Z</time>
      </trkpt>
      <trkpt lat="39.907915" lon="116.628924">
        <time>2022-05-20T13:35:11Z</time>
      </trkpt>
      <trkpt lat="39.907904" lon="116.628769">
        <time>2022-05-20T13:35:16Z</time>
      </trkpt>
      <trkpt lat="39.907882" lon="116.628618">
        <time>2022-05-20T13:35:21Z</time>
      </trkpt>
      <trkpt lat="39.907865" lon="116.62846">
        <time>2022-05-20T13:35:26Z</time>
      </trkpt>
      <trkpt lat="39.907855" lon="116.628292">
        <time>2022-05-20T13:35:31Z</time>
      </trkpt>
      <trkpt lat="39.907821" lon="116.628143">
        <time>2022-05-20T13:35:36Z</time>
      </trkpt>
      <trkpt lat="39.907813" lon="116.628012">
        <time>2022-05-20T13:35:41Z</time>
      </trkpt>
      <trkpt lat="39.907775" lon="116.62784">
        <time>2022-05-20T13:35:46Z</time>
      </trkpt>
      <trkpt lat="39.907751" lon="116.627662">
        <time>2022-05-20T13:35:51Z</time>
      </trkpt>
      <trkpt lat="39.907743" lon="116.627517">
        <time>2022-05-20T13:35:56Z</time>
      </trkpt>
      <trkpt lat="39.90773" lon="116.62741">
        <time>2022-05-20T13:36:01Z</time>
      </trkpt>
      <trkpt lat="39.907723" lon="116.627333">
        <time>2022-05-20T13:36:06Z</time>
      </trkpt>
      <trkpt lat="39.907709" lon="116.627237">
        <time>2022-05-20T13:36:11Z</time>
      </trkpt>
      <trkpt lat="39.90771" lon="116.627116">
        <time>2022-05-20T13:36:16Z</time>
      </trkpt>
      <trkpt lat="39.907705" lon="116.626986">
        <time>2022-05-20T13:36:21Z</time>
      </trkpt>
      <trkpt lat="39.907682" lon="116.626779">
        <time>2022-05-20T13:36:26Z</time>
      </trkpt>
      <trkpt lat="39.90766" lon="116.626679">
        <time>2022-05-20T13:36:31Z</time>
      </trkpt>
      <trkpt lat="39.907619" lon="116.626542">
        <time>2022-05-20T13:36:36Z</time>
      </trkpt>
      <trkpt lat="39.907616" lon="116.626375">
        <time>2022-05-20T13:36:41Z</time>
      </trkpt>
      <trkpt lat="39.90761" lon="116.626211">
        <time>2022-05-20T13:36:46Z</time>
      </trkpt>
      <trkpt lat="39.907597" lon="116.626027">
        <time>2022-05-20T13:36:51Z</time>
      </trkpt>
      <trkpt lat="39.907578" lon="116.625867">
        <time>2022-05-20T13:36:56Z</time>
      </trkpt>
      <trkpt lat="39.907558" lon="116.625735">
        <time>2022-05-20T13:37:01Z</time>
      </trkpt>
      <trkpt lat="39.907539" lon="116.625636">
        <time>2022-05-20T13:37:06Z</time>
      </trkpt>
      <trkpt lat="39.907509" lon="116.625564">
        <time>2022-05-20T13:37:11Z</time>
      </trkpt>
      <trkpt lat="39.907505" lon="116.625458">
        <time>2022-05-20T13:37:16Z</time>
      </trkpt>
      <trkpt lat="39.907505" lon="116.625366">
        <time>2022-05-20T13:37:21Z</time>
      </trkpt>
      <trkpt lat="39.907507" lon="116.625255">
        <time>2022-05-20T13:37:26Z</time>
      </trkpt>
      <trkpt lat="39.907473" lon="116.625087">
        <time>2022-05-20T13:37:31Z</time>
      </trkpt>
      <trkpt lat="39.907444" lon="116.624899">
        <time>2022-05-20T13:37:36Z</time>
      </trkpt>
      <trkpt lat="39.907396" lon="116.624763">
        <time>2022-05-20T13:37:41Z</time>
      </trkpt>
      <trkpt lat="39.907388" lon="116.624673">
        <time>2022-05-20T13:37:46Z</time>
      </trkpt>
      <trkpt lat="39.907434" lon="116.624567">
        <time>2022-05-20T13:37:51Z</time>
      </trkpt>
      <trkpt lat="39.907391" lon="116.624453">
        <time>2022-05-20T13:37:56Z</time>
      </trkpt>
      <trkpt lat="39.907382" lon="116.624309">
        <time>2022-05-20T13:38:01Z</time>
      </trkpt>
      <trkpt lat="39.907366" lon="116.62413">
        <time>2022-05-20T13:38:06Z</time>
      </trkpt>
      <trkpt lat="39.907374" lon="116.62392">
        <time>2022-05-20T13:38:11Z</time>
      </trkpt>
      <trkpt lat="39.907354" lon="116.623759">
        <time>2022-05-20T13:38:16Z</time>
      </trkpt>
      <trkpt lat="39.907305" lon="116.623664">
        <time>2022-05-20T13:38:21Z</time>
      </trkpt>
      <trkpt lat="39.907298" lon="116.6236">
        <time>2022-05-20T13:38:26Z</time>
      </trkpt>
      <trkpt lat="39.907296" lon="116.623516">
        <time>2022-05-20T13:38:31Z</time>
      </trkpt>
      <trkpt lat="39.907293" lon="116.62339">
        <time>2022-05-20T13:38:36Z</time>
      </trkpt>
      <trkpt lat="39.907292" lon="116.623251">
        <time>2022-05-20T13:38:41Z</time>
      </trkpt>
      <trkpt lat="39.907289" lon="116.623085">
        <time>2022-05-20T13:38:46Z</time>
      </trkpt>
      <trkpt lat="39.907271" lon="116.622917">
        <time>2022-05-20T13:38:51Z</time>
      </trkpt>
      <trkpt lat="39.907223" lon="116.622707">
        <time>2022-05-20T13:38:56Z</time>
      </trkpt>
      <trkpt lat="39.907192" lon="116.62249">
        <time>2022-05-20T13:39:01Z</time>
      </trkpt>
      <trkpt lat="39.90718" lon="116.622279">
        <time>2022-05-20T13:39:06Z</time>
      </trkpt>
      <trkpt lat="39.907165" lon="116.622068">
        <time>2022-05-20T13:39:11Z</time>
      </trkpt>
      <trkpt lat="39.907123" lon="116.621922">
        <time>2022-05-20T13:39:16Z</time>
      </trkpt>
      <trkpt lat="39.90709" lon="116.621796">
        <time>2022-05-20T13:39:21Z</time>
      </trkpt>
      <trkpt lat="39.907106" lon="116.621695">
        <time>2022-05-20T13:39:26Z</time>
      </trkpt>
      <trkpt lat="39.907127" lon="116.6216">
        <time>2022-05-20T13:39:31Z</time>
      </trkpt>
      <trkpt lat="39.907108" lon="116.621511">
        <time>2022-05-20T13:39:36Z</time>
      </trkpt>
      <trkpt lat="39.907033" lon="116.621437">
        <time>2022-05-20T13:39:41Z</time>
      </trkpt>
      <trkpt lat="39.907007" lon="116.621311">
        <time>2022-05-20T13:39:46Z</time>
      </trkpt>
      <trkpt lat="39.906981" lon="116.621161">
        <time>2022-05-20T13:39:51Z</time>
      </trkpt>
      <trkpt lat="39.906971" lon="116.62099">
        <time>2022-05-20T13:39:56Z</time>
      </trkpt>
      <trkpt lat="39.906894" lon="116.620803">
        <time>2022-05-20T13:40:01Z</time>
      </trkpt>
      <trkpt lat="39.9068" lon="116.620745">
        <time>2022-05-20T13:40:06Z</time>
      </trkpt>
      <trkpt lat="39.906739" lon="116.620716">
        <time>2022-05-20T13:40:11Z</time>
      </trkpt>
      <trkpt lat="39.90671" lon="116.620758">
        <time>2022-05-20T13:40:16Z</time>
      </trkpt>
      <trkpt lat="39.906651" lon="116.620779">
        <time>2022-05-20T13:40:21Z</time>
      </trkpt>
      <trkpt lat="39.906529" lon="116.620744">
        <time>2022-05-20T13:40:26Z</time>
      </trkpt>
      <trkpt lat="39.906412" lon="116.620691">
        <time>2022-05-20T13:40:31Z</time>
      </trkpt>
      <trkpt lat="39.906309" lon="116.620637">
        <time>2022-05-20T13:40:36Z</time>
      </trkpt>
      <trkpt lat="39.906194" lon="116.620671">
        <time>2022-05-20T13:40:41Z</time>
      </trkpt>
      <trkpt lat="39.906194" lon="116.620866">
        <time>2022-05-20T13:40:46Z</time>
      </trkpt>
      <trkpt lat="39.906284" lon="116.620854">
        <time>2022-05-20T13:40:51Z</time>
      </trkpt>
      <trkpt lat="39.906257" lon="116.620758">
        <time>2022-05-20T13:40:56Z</time>
      </trkpt>
      <trkpt lat="39.906225" lon="116.620775">
        <time>2022-05-20T13:47:59Z</time>
      </trkpt>
    </trkseg>
  </trk>
</gpx>