<?xml version="1.0" encoding="UTF-8"?>
<gpx xmlns="http://www.topografix.com/GPX/1/1" xmlns:gpxtpx="http://www.garmin.com/xmlschemas/TrackPointExtension/v1" xmlns:xsi="http://www.w3.org/2001/XMLSchema-instance" xsi:schemaLocation="http://www.topografix.com/GPX/1/1 http://www.topografix.com/GPX/1/1/gpx.xsd" version="1.1" creator="gpx.py -- https://github.com/tkrajina/gpxpy">
  <trk>
    <name>gpx from keep</name>
    <trkseg>
      <trkpt lat="39.905625" lon="116.620284">
        <time>2022-06-01T13:29:03Z</time>
      </trkpt>
      <trkpt lat="39.905625" lon="116.620284">
        <time>2022-06-01T13:29:08Z</time>
      </trkpt>
      <trkpt lat="39.905617" lon="116.620174">
        <time>2022-06-01T13:29:13Z</time>
      </trkpt>
      <trkpt lat="39.905675" lon="116.620105">
        <time>2022-06-01T13:29:18Z</time>
      </trkpt>
      <trkpt lat="39.90574" lon="116.620024">
        <time>2022-06-01T13:29:23Z</time>
      </trkpt>
      <trkpt lat="39.905783" lon="116.619907">
        <time>2022-06-01T13:29:28Z</time>
      </trkpt>
      <trkpt lat="39.905798" lon="116.619807">
        <time>2022-06-01T13:29:33Z</time>
      </trkpt>
      <trkpt lat="39.905806" lon="116.619744">
        <time>2022-06-01T13:29:38Z</time>
      </trkpt>
      <trkpt lat="39.905809" lon="116.619676">
        <time>2022-06-01T13:29:43Z</time>
      </trkpt>
      <trkpt lat="39.905752" lon="116.619538">
        <time>2022-06-01T13:29:48Z</time>
      </trkpt>
      <trkpt lat="39.905741" lon="116.619495">
        <time>2022-06-01T13:29:53Z</time>
      </trkpt>
      <trkpt lat="39.905744" lon="116.619373">
        <time>2022-06-01T13:29:58Z</time>
      </trkpt>
      <trkpt lat="39.90575" lon="116.619221">
        <time>2022-06-01T13:30:03Z</time>
      </trkpt>
      <trkpt lat="39.90574" lon="116.619049">
        <time>2022-06-01T13:30:08Z</time>
      </trkpt>
      <trkpt lat="39.90573" lon="116.618912">
        <time>2022-06-01T13:30:13Z</time>
      </trkpt>
      <trkpt lat="39.905731" lon="116.61877">
        <time>2022-06-01T13:30:18Z</time>
      </trkpt>
      <trkpt lat="39.905716" lon="116.61865">
        <time>2022-06-01T13:30:23Z</time>
      </trkpt>
      <trkpt lat="39.905703" lon="116.618502">
        <time>2022-06-01T13:30:28Z</time>
      </trkpt>
      <trkpt lat="39.905672" lon="116.618354">
        <time>2022-06-01T13:30:33Z</time>
      </trkpt>
      <trkpt lat="39.90564" lon="116.618189">
        <time>2022-06-01T13:30:38Z</time>
      </trkpt>
      <trkpt lat="39.905616" lon="116.618025">
        <time>2022-06-01T13:30:43Z</time>
      </trkpt>
      <trkpt lat="39.905587" lon="116.617883">
        <time>2022-06-01T13:30:48Z</time>
      </trkpt>
      <trkpt lat="39.905577" lon="116.617772">
        <time>2022-06-01T13:30:53Z</time>
      </trkpt>
      <trkpt lat="39.905583" lon="116.61766">
        <time>2022-06-01T13:30:58Z</time>
      </trkpt>
      <trkpt lat="39.905596" lon="116.617532">
        <time>2022-06-01T13:31:03Z</time>
      </trkpt>
      <trkpt lat="39.905602" lon="116.617384">
        <time>2022-06-01T13:31:08Z</time>
      </trkpt>
      <trkpt lat="39.905574" lon="116.617274">
        <time>2022-06-01T13:31:13Z</time>
      </trkpt>
      <trkpt lat="39.905637" lon="116.617208">
        <time>2022-06-01T13:31:18Z</time>
      </trkpt>
      <trkpt lat="39.905666" lon="116.617106">
        <time>2022-06-01T13:31:23Z</time>
      </trkpt>
      <trkpt lat="39.905685" lon="116.616988">
        <time>2022-06-01T13:31:28Z</time>
      </trkpt>
      <trkpt lat="39.905662" lon="116.616814">
        <time>2022-06-01T13:31:33Z</time>
      </trkpt>
      <trkpt lat="39.905645" lon="116.616594">
        <time>2022-06-01T13:31:38Z</time>
      </trkpt>
      <trkpt lat="39.905621" lon="116.616415">
        <time>2022-06-01T13:31:43Z</time>
      </trkpt>
      <trkpt lat="39.905645" lon="116.616277">
        <time>2022-06-01T13:31:48Z</time>
      </trkpt>
      <trkpt lat="39.905666" lon="116.616122">
        <time>2022-06-01T13:31:53Z</time>
      </trkpt>
      <trkpt lat="39.90566" lon="116.615939">
        <time>2022-06-01T13:31:58Z</time>
      </trkpt>
      <trkpt lat="39.905682" lon="116.615807">
        <time>2022-06-01T13:32:03Z</time>
      </trkpt>
      <trkpt lat="39.905697" lon="116.615738">
        <time>2022-06-01T13:32:08Z</time>
      </trkpt>
      <trkpt lat="39.905703" lon="116.61569">
        <time>2022-06-01T13:32:13Z</time>
      </trkpt>
      <trkpt lat="39.905709" lon="116.615631">
        <time>2022-06-01T13:32:18Z</time>
      </trkpt>
      <trkpt lat="39.905732" lon="116.615578">
        <time>2022-06-01T13:32:23Z</time>
      </trkpt>
      <trkpt lat="39.905756" lon="116.615511">
        <time>2022-06-01T13:32:28Z</time>
      </trkpt>
      <trkpt lat="39.905751" lon="116.615407">
        <time>2022-06-01T13:32:33Z</time>
      </trkpt>
      <trkpt lat="39.905742" lon="116.615301">
        <time>2022-06-01T13:32:38Z</time>
      </trkpt>
      <trkpt lat="39.905727" lon="116.615085">
        <time>2022-06-01T13:32:43Z</time>
      </trkpt>
      <trkpt lat="39.9057" lon="116.614913">
        <time>2022-06-01T13:32:48Z</time>
      </trkpt>
      <trkpt lat="39.905703" lon="116.614782">
        <time>2022-06-01T13:32:53Z</time>
      </trkpt>
      <trkpt lat="39.905815" lon="116.614743">
        <time>2022-06-01T13:32:58Z</time>
      </trkpt>
      <trkpt lat="39.905837" lon="116.614809">
        <time>2022-06-01T13:33:03Z</time>
      </trkpt>
      <trkpt lat="39.905873" lon="116.6149">
        <time>2022-06-01T13:33:08Z</time>
      </trkpt>
      <trkpt lat="39.905908" lon="116.614966">
        <time>2022-06-01T13:33:13Z</time>
      </trkpt>
      <trkpt lat="39.905919" lon="116.614953">
        <time>2022-06-01T13:33:18Z</time>
      </trkpt>
      <trkpt lat="39.905903" lon="116.614965">
        <time>2022-06-01T13:33:23Z</time>
      </trkpt>
      <trkpt lat="39.905901" lon="116.61498">
        <time>2022-06-01T13:33:28Z</time>
      </trkpt>
      <trkpt lat="39.90592" lon="116.614983">
        <time>2022-06-01T13:33:33Z</time>
      </trkpt>
      <trkpt lat="39.90592" lon="116.614967">
        <time>2022-06-01T13:33:38Z</time>
      </trkpt>
      <trkpt lat="39.905909" lon="116.614954">
        <time>2022-06-01T13:33:43Z</time>
      </trkpt>
      <trkpt lat="39.90591" lon="116.614962">
        <time>2022-06-01T13:33:48Z</time>
      </trkpt>
      <trkpt lat="39.905919" lon="116.614952">
        <time>2022-06-01T13:33:53Z</time>
      </trkpt>
      <trkpt lat="39.90591" lon="116.614916">
        <time>2022-06-01T13:33:58Z</time>
      </trkpt>
      <trkpt lat="39.905895" lon="116.614924">
        <time>2022-06-01T13:34:03Z</time>
      </trkpt>
      <trkpt lat="39.905903" lon="116.614936">
        <time>2022-06-01T13:34:08Z</time>
      </trkpt>
      <trkpt lat="39.905922" lon="116.614944">
        <time>2022-06-01T13:34:13Z</time>
      </trkpt>
      <trkpt lat="39.905937" lon="116.614953">
        <time>2022-06-01T13:34:18Z</time>
      </trkpt>
      <trkpt lat="39.905921" lon="116.614932">
        <time>2022-06-01T13:34:23Z</time>
      </trkpt>
      <trkpt lat="39.905831" lon="116.615014">
        <time>2022-06-01T13:34:28Z</time>
      </trkpt>
      <trkpt lat="39.905812" lon="116.615181">
        <time>2022-06-01T13:34:33Z</time>
      </trkpt>
      <trkpt lat="39.905875" lon="116.615319">
        <time>2022-06-01T13:34:38Z</time>
      </trkpt>
      <trkpt lat="39.905953" lon="116.615432">
        <time>2022-06-01T13:34:43Z</time>
      </trkpt>
      <trkpt lat="39.906029" lon="116.615563">
        <time>2022-06-01T13:34:48Z</time>
      </trkpt>
      <trkpt lat="39.906071" lon="116.615709">
        <time>2022-06-01T13:34:53Z</time>
      </trkpt>
      <trkpt lat="39.906144" lon="116.615839">
        <time>2022-06-01T13:34:58Z</time>
      </trkpt>
      <trkpt lat="39.906207" lon="116.615994">
        <time>2022-06-01T13:35:03Z</time>
      </trkpt>
      <trkpt lat="39.90626" lon="116.616117">
        <time>2022-06-01T13:35:08Z</time>
      </trkpt>
      <trkpt lat="39.906306" lon="116.616233">
        <time>2022-06-01T13:35:13Z</time>
      </trkpt>
      <trkpt lat="39.906339" lon="116.616387">
        <time>2022-06-01T13:35:18Z</time>
      </trkpt>
      <trkpt lat="39.906386" lon="116.616512">
        <time>2022-06-01T13:35:23Z</time>
      </trkpt>
      <trkpt lat="39.906435" lon="116.616687">
        <time>2022-06-01T13:35:28Z</time>
      </trkpt>
      <trkpt lat="39.906454" lon="116.616809">
        <time>2022-06-01T13:35:33Z</time>
      </trkpt>
      <trkpt lat="39.906486" lon="116.616958">
        <time>2022-06-01T13:35:38Z</time>
      </trkpt>
      <trkpt lat="39.906504" lon="116.617085">
        <time>2022-06-01T13:35:43Z</time>
      </trkpt>
      <trkpt lat="39.906525" lon="116.617213">
        <time>2022-06-01T13:35:48Z</time>
      </trkpt>
      <trkpt lat="39.906537" lon="116.617331">
        <time>2022-06-01T13:35:53Z</time>
      </trkpt>
      <trkpt lat="39.906554" lon="116.617463">
        <time>2022-06-01T13:35:58Z</time>
      </trkpt>
      <trkpt lat="39.90657" lon="116.617593">
        <time>2022-06-01T13:36:03Z</time>
      </trkpt>
      <trkpt lat="39.906588" lon="116.617726">
        <time>2022-06-01T13:36:08Z</time>
      </trkpt>
      <trkpt lat="39.90661" lon="116.617866">
        <time>2022-06-01T13:36:13Z</time>
      </trkpt>
      <trkpt lat="39.906617" lon="116.618017">
        <time>2022-06-01T13:36:18Z</time>
      </trkpt>
      <trkpt lat="39.906665" lon="116.618185">
        <time>2022-06-01T13:36:23Z</time>
      </trkpt>
      <trkpt lat="39.90668" lon="116.61828">
        <time>2022-06-01T13:36:28Z</time>
      </trkpt>
      <trkpt lat="39.9067" lon="116.618409">
        <time>2022-06-01T13:36:33Z</time>
      </trkpt>
      <trkpt lat="39.906691" lon="116.61855">
        <time>2022-06-01T13:36:38Z</time>
      </trkpt>
      <trkpt lat="39.90672" lon="116.618701">
        <time>2022-06-01T13:36:43Z</time>
      </trkpt>
      <trkpt lat="39.906748" lon="116.618844">
        <time>2022-06-01T13:36:48Z</time>
      </trkpt>
      <trkpt lat="39.906769" lon="116.619021">
        <time>2022-06-01T13:36:53Z</time>
      </trkpt>
      <trkpt lat="39.906776" lon="116.61916">
        <time>2022-06-01T13:36:58Z</time>
      </trkpt>
      <trkpt lat="39.906792" lon="116.619274">
        <time>2022-06-01T13:37:03Z</time>
      </trkpt>
      <trkpt lat="39.906827" lon="116.61941">
        <time>2022-06-01T13:37:08Z</time>
      </trkpt>
      <trkpt lat="39.906874" lon="116.619613">
        <time>2022-06-01T13:37:13Z</time>
      </trkpt>
      <trkpt lat="39.90689" lon="116.619689">
        <time>2022-06-01T13:37:18Z</time>
      </trkpt>
      <trkpt lat="39.90689" lon="116.619809">
        <time>2022-06-01T13:37:23Z</time>
      </trkpt>
      <trkpt lat="39.906903" lon="116.619917">
        <time>2022-06-01T13:37:28Z</time>
      </trkpt>
      <trkpt lat="39.906914" lon="116.620013">
        <time>2022-06-01T13:37:33Z</time>
      </trkpt>
      <trkpt lat="39.9069" lon="116.620131">
        <time>2022-06-01T13:37:38Z</time>
      </trkpt>
      <trkpt lat="39.906911" lon="116.620245">
        <time>2022-06-01T13:37:43Z</time>
      </trkpt>
      <trkpt lat="39.906953" lon="116.62036">
        <time>2022-06-01T13:37:48Z</time>
      </trkpt>
      <trkpt lat="39.906992" lon="116.620474">
        <time>2022-06-01T13:37:53Z</time>
      </trkpt>
      <trkpt lat="39.907051" lon="116.620583">
        <time>2022-06-01T13:37:58Z</time>
      </trkpt>
      <trkpt lat="39.906993" lon="116.620727">
        <time>2022-06-01T13:38:03Z</time>
      </trkpt>
      <trkpt lat="39.907027" lon="116.62086">
        <time>2022-06-01T13:38:08Z</time>
      </trkpt>
      <trkpt lat="39.907048" lon="116.620999">
        <time>2022-06-01T13:38:13Z</time>
      </trkpt>
      <trkpt lat="39.907046" lon="116.621136">
        <time>2022-06-01T13:38:18Z</time>
      </trkpt>
      <trkpt lat="39.907065" lon="116.621251">
        <time>2022-06-01T13:38:23Z</time>
      </trkpt>
      <trkpt lat="39.907067" lon="116.621389">
        <time>2022-06-01T13:38:28Z</time>
      </trkpt>
      <trkpt lat="39.907085" lon="116.621531">
        <time>2022-06-01T13:38:33Z</time>
      </trkpt>
      <trkpt lat="39.907022" lon="116.621663">
        <time>2022-06-01T13:38:38Z</time>
      </trkpt>
      <trkpt lat="39.907092" lon="116.62181">
        <time>2022-06-01T13:38:43Z</time>
      </trkpt>
      <trkpt lat="39.907163" lon="116.621946">
        <time>2022-06-01T13:38:48Z</time>
      </trkpt>
      <trkpt lat="39.907229" lon="116.622085">
        <time>2022-06-01T13:38:53Z</time>
      </trkpt>
      <trkpt lat="39.907231" lon="116.622234">
        <time>2022-06-01T13:38:58Z</time>
      </trkpt>
      <trkpt lat="39.907188" lon="116.622369">
        <time>2022-06-01T13:39:03Z</time>
      </trkpt>
      <trkpt lat="39.907191" lon="116.622506">
        <time>2022-06-01T13:39:08Z</time>
      </trkpt>
      <trkpt lat="39.907204" lon="116.622642">
        <time>2022-06-01T13:39:13Z</time>
      </trkpt>
      <trkpt lat="39.907237" lon="116.622798">
        <time>2022-06-01T13:39:18Z</time>
      </trkpt>
      <trkpt lat="39.907252" lon="116.622955">
        <time>2022-06-01T13:39:23Z</time>
      </trkpt>
      <trkpt lat="39.907304" lon="116.623113">
        <time>2022-06-01T13:39:28Z</time>
      </trkpt>
      <trkpt lat="39.907314" lon="116.623224">
        <time>2022-06-01T13:39:33Z</time>
      </trkpt>
      <trkpt lat="39.907314" lon="116.623319">
        <time>2022-06-01T13:39:38Z</time>
      </trkpt>
      <trkpt lat="39.90732" lon="116.623424">
        <time>2022-06-01T13:39:43Z</time>
      </trkpt>
      <trkpt lat="39.907329" lon="116.62356">
        <time>2022-06-01T13:39:48Z</time>
      </trkpt>
      <trkpt lat="39.907358" lon="116.623688">
        <time>2022-06-01T13:39:53Z</time>
      </trkpt>
      <trkpt lat="39.907393" lon="116.623786">
        <time>2022-06-01T13:39:58Z</time>
      </trkpt>
      <trkpt lat="39.907419" lon="116.623841">
        <time>2022-06-01T13:40:03Z</time>
      </trkpt>
      <trkpt lat="39.907429" lon="116.623949">
        <time>2022-06-01T13:40:08Z</time>
      </trkpt>
      <trkpt lat="39.907428" lon="116.624077">
        <time>2022-06-01T13:40:13Z</time>
      </trkpt>
      <trkpt lat="39.907424" lon="116.62422">
        <time>2022-06-01T13:40:18Z</time>
      </trkpt>
      <trkpt lat="39.907442" lon="116.624379">
        <time>2022-06-01T13:40:23Z</time>
      </trkpt>
      <trkpt lat="39.90745" lon="116.624509">
        <time>2022-06-01T13:40:28Z</time>
      </trkpt>
      <trkpt lat="39.907488" lon="116.624624">
        <time>2022-06-01T13:40:33Z</time>
      </trkpt>
      <trkpt lat="39.907476" lon="116.624738">
        <time>2022-06-01T13:40:38Z</time>
      </trkpt>
      <trkpt lat="39.907475" lon="116.624873">
        <time>2022-06-01T13:40:43Z</time>
      </trkpt>
      <trkpt lat="39.907468" lon="116.625021">
        <time>2022-06-01T13:40:48Z</time>
      </trkpt>
      <trkpt lat="39.907483" lon="116.625177">
        <time>2022-06-01T13:40:53Z</time>
      </trkpt>
      <trkpt lat="39.907488" lon="116.625315">
        <time>2022-06-01T13:40:58Z</time>
      </trkpt>
      <trkpt lat="39.907493" lon="116.625483">
        <time>2022-06-01T13:41:03Z</time>
      </trkpt>
      <trkpt lat="39.907532" lon="116.62566">
        <time>2022-06-01T13:41:08Z</time>
      </trkpt>
      <trkpt lat="39.907553" lon="116.625823">
        <time>2022-06-01T13:41:13Z</time>
      </trkpt>
      <trkpt lat="39.907545" lon="116.625991">
        <time>2022-06-01T13:41:18Z</time>
      </trkpt>
      <trkpt lat="39.907572" lon="116.626139">
        <time>2022-06-01T13:41:23Z</time>
      </trkpt>
      <trkpt lat="39.907606" lon="116.626271">
        <time>2022-06-01T13:41:28Z</time>
      </trkpt>
      <trkpt lat="39.90765" lon="116.626414">
        <time>2022-06-01T13:41:33Z</time>
      </trkpt>
      <trkpt lat="39.90764" lon="116.626563">
        <time>2022-06-01T13:41:38Z</time>
      </trkpt>
      <trkpt lat="39.907666" lon="116.626711">
        <time>2022-06-01T13:41:43Z</time>
      </trkpt>
      <trkpt lat="39.907663" lon="116.626844">
        <time>2022-06-01T13:41:48Z</time>
      </trkpt>
      <trkpt lat="39.907651" lon="116.626982">
        <time>2022-06-01T13:41:53Z</time>
      </trkpt>
      <trkpt lat="39.907674" lon="116.627129">
        <time>2022-06-01T13:41:58Z</time>
      </trkpt>
      <trkpt lat="39.907717" lon="116.627266">
        <time>2022-06-01T13:42:03Z</time>
      </trkpt>
      <trkpt lat="39.907771" lon="116.627492">
        <time>2022-06-01T13:42:08Z</time>
      </trkpt>
      <trkpt lat="39.907792" lon="116.627555">
        <time>2022-06-01T13:42:13Z</time>
      </trkpt>
      <trkpt lat="39.9078" lon="116.627714">
        <time>2022-06-01T13:42:18Z</time>
      </trkpt>
      <trkpt lat="39.907828" lon="116.627876">
        <time>2022-06-01T13:42:23Z</time>
      </trkpt>
      <trkpt lat="39.907844" lon="116.628047">
        <time>2022-06-01T13:42:28Z</time>
      </trkpt>
      <trkpt lat="39.90789" lon="116.628191">
        <time>2022-06-01T13:42:33Z</time>
      </trkpt>
      <trkpt lat="39.907939" lon="116.628357">
        <time>2022-06-01T13:42:38Z</time>
      </trkpt>
      <trkpt lat="39.907949" lon="116.628517">
        <time>2022-06-01T13:42:43Z</time>
      </trkpt>
      <trkpt lat="39.907942" lon="116.628675">
        <time>2022-06-01T13:42:48Z</time>
      </trkpt>
      <trkpt lat="39.907962" lon="116.628849">
        <time>2022-06-01T13:42:53Z</time>
      </trkpt>
      <trkpt lat="39.907953" lon="116.629045">
        <time>2022-06-01T13:42:58Z</time>
      </trkpt>
      <trkpt lat="39.907993" lon="116.629193">
        <time>2022-06-01T13:43:03Z</time>
      </trkpt>
      <trkpt lat="39.90802" lon="116.629359">
        <time>2022-06-01T13:43:08Z</time>
      </trkpt>
      <trkpt lat="39.908032" lon="116.629524">
        <time>2022-06-01T13:43:13Z</time>
      </trkpt>
      <trkpt lat="39.908047" lon="116.629732">
        <time>2022-06-01T13:43:18Z</time>
      </trkpt>
      <trkpt lat="39.908054" lon="116.629872">
        <time>2022-06-01T13:43:23Z</time>
      </trkpt>
      <trkpt lat="39.908062" lon="116.63004">
        <time>2022-06-01T13:43:28Z</time>
      </trkpt>
      <trkpt lat="39.908075" lon="116.630208">
        <time>2022-06-01T13:43:33Z</time>
      </trkpt>
      <trkpt lat="39.908103" lon="116.630382">
        <time>2022-06-01T13:43:38Z</time>
      </trkpt>
      <trkpt lat="39.908129" lon="116.630571">
        <time>2022-06-01T13:43:43Z</time>
      </trkpt>
      <trkpt lat="39.908133" lon="116.630715">
        <time>2022-06-01T13:43:48Z</time>
      </trkpt>
      <trkpt lat="39.908147" lon="116.630873">
        <time>2022-06-01T13:43:53Z</time>
      </trkpt>
      <trkpt lat="39.908176" lon="116.631057">
        <time>2022-06-01T13:43:58Z</time>
      </trkpt>
      <trkpt lat="39.908208" lon="116.63123">
        <time>2022-06-01T13:44:03Z</time>
      </trkpt>
      <trkpt lat="39.908243" lon="116.631402">
        <time>2022-06-01T13:44:08Z</time>
      </trkpt>
      <trkpt lat="39.908285" lon="116.631596">
        <time>2022-06-01T13:44:13Z</time>
      </trkpt>
      <trkpt lat="39.908311" lon="116.631741">
        <time>2022-06-01T13:44:18Z</time>
      </trkpt>
      <trkpt lat="39.908315" lon="116.63191">
        <time>2022-06-01T13:44:23Z</time>
      </trkpt>
      <trkpt lat="39.908318" lon="116.632068">
        <time>2022-06-01T13:44:28Z</time>
      </trkpt>
      <trkpt lat="39.90833" lon="116.632139">
        <time>2022-06-01T13:44:33Z</time>
      </trkpt>
      <trkpt lat="39.908333" lon="116.63225">
        <time>2022-06-01T13:44:38Z</time>
      </trkpt>
      <trkpt lat="39.908358" lon="116.632398">
        <time>2022-06-01T13:44:43Z</time>
      </trkpt>
      <trkpt lat="39.9084" lon="116.632552">
        <time>2022-06-01T13:44:48Z</time>
      </trkpt>
      <trkpt lat="39.908421" lon="116.632692">
        <time>2022-06-01T13:44:53Z</time>
      </trkpt>
      <trkpt lat="39.908419" lon="116.632875">
        <time>2022-06-01T13:44:58Z</time>
      </trkpt>
      <trkpt lat="39.908442" lon="116.633046">
        <time>2022-06-01T13:45:03Z</time>
      </trkpt>
      <trkpt lat="39.90843" lon="116.633173">
        <time>2022-06-01T13:45:08Z</time>
      </trkpt>
      <trkpt lat="39.908398" lon="116.633309">
        <time>2022-06-01T13:45:13Z</time>
      </trkpt>
      <trkpt lat="39.908405" lon="116.633473">
        <time>2022-06-01T13:45:18Z</time>
      </trkpt>
      <trkpt lat="39.908408" lon="116.633655">
        <time>2022-06-01T13:45:23Z</time>
      </trkpt>
      <trkpt lat="39.908425" lon="116.633819">
        <time>2022-06-01T13:45:28Z</time>
      </trkpt>
      <trkpt lat="39.908441" lon="116.633969">
        <time>2022-06-01T13:45:33Z</time>
      </trkpt>
      <trkpt lat="39.908459" lon="116.63416">
        <time>2022-06-01T13:45:38Z</time>
      </trkpt>
      <trkpt lat="39.908461" lon="116.634263">
        <time>2022-06-01T13:45:43Z</time>
      </trkpt>
      <trkpt lat="39.908471" lon="116.634379">
        <time>2022-06-01T13:45:48Z</time>
      </trkpt>
      <trkpt lat="39.908462" lon="116.634528">
        <time>2022-06-01T13:45:53Z</time>
      </trkpt>
      <trkpt lat="39.908479" lon="116.634699">
        <time>2022-06-01T13:45:58Z</time>
      </trkpt>
      <trkpt lat="39.908494" lon="116.634826">
        <time>2022-06-01T13:46:03Z</time>
      </trkpt>
      <trkpt lat="39.908491" lon="116.635014">
        <time>2022-06-01T13:46:08Z</time>
      </trkpt>
      <trkpt lat="39.908508" lon="116.635157">
        <time>2022-06-01T13:46:13Z</time>
      </trkpt>
      <trkpt lat="39.90852" lon="116.635317">
        <time>2022-06-01T13:46:18Z</time>
      </trkpt>
      <trkpt lat="39.90852" lon="116.63549">
        <time>2022-06-01T13:46:23Z</time>
      </trkpt>
      <trkpt lat="39.908527" lon="116.635666">
        <time>2022-06-01T13:46:28Z</time>
      </trkpt>
      <trkpt lat="39.908519" lon="116.635798">
        <time>2022-06-01T13:46:33Z</time>
      </trkpt>
      <trkpt lat="39.908505" lon="116.63592">
        <time>2022-06-01T13:46:38Z</time>
      </trkpt>
      <trkpt lat="39.908492" lon="116.636021">
        <time>2022-06-01T13:46:43Z</time>
      </trkpt>
      <trkpt lat="39.90847" lon="116.636081">
        <time>2022-06-01T13:46:48Z</time>
      </trkpt>
      <trkpt lat="39.908465" lon="116.636162">
        <time>2022-06-01T13:46:53Z</time>
      </trkpt>
      <trkpt lat="39.908444" lon="116.636258">
        <time>2022-06-01T13:46:58Z</time>
      </trkpt>
      <trkpt lat="39.908407" lon="116.636365">
        <time>2022-06-01T13:47:03Z</time>
      </trkpt>
      <trkpt lat="39.90838" lon="116.636463">
        <time>2022-06-01T13:47:08Z</time>
      </trkpt>
      <trkpt lat="39.908363" lon="116.6366">
        <time>2022-06-01T13:47:13Z</time>
      </trkpt>
      <trkpt lat="39.908339" lon="116.636747">
        <time>2022-06-01T13:47:18Z</time>
      </trkpt>
      <trkpt lat="39.908318" lon="116.636887">
        <time>2022-06-01T13:47:23Z</time>
      </trkpt>
      <trkpt lat="39.908293" lon="116.637001">
        <time>2022-06-01T13:47:28Z</time>
      </trkpt>
      <trkpt lat="39.908262" lon="116.637156">
        <time>2022-06-01T13:47:33Z</time>
      </trkpt>
      <trkpt lat="39.908222" lon="116.637258">
        <time>2022-06-01T13:47:38Z</time>
      </trkpt>
      <trkpt lat="39.9082" lon="116.637277">
        <time>2022-06-01T13:47:43Z</time>
      </trkpt>
      <trkpt lat="39.908218" lon="116.637554">
        <time>2022-06-01T13:47:48Z</time>
      </trkpt>
      <trkpt lat="39.908269" lon="116.637692">
        <time>2022-06-01T13:47:53Z</time>
      </trkpt>
      <trkpt lat="39.908336" lon="116.637859">
        <time>2022-06-01T13:47:58Z</time>
      </trkpt>
      <trkpt lat="39.908382" lon="116.637995">
        <time>2022-06-01T13:48:03Z</time>
      </trkpt>
      <trkpt lat="39.908446" lon="116.638142">
        <time>2022-06-01T13:48:08Z</time>
      </trkpt>
      <trkpt lat="39.908507" lon="116.638307">
        <time>2022-06-01T13:48:13Z</time>
      </trkpt>
      <trkpt lat="39.908529" lon="116.638465">
        <time>2022-06-01T13:48:18Z</time>
      </trkpt>
      <trkpt lat="39.908529" lon="116.638632">
        <time>2022-06-01T13:48:23Z</time>
      </trkpt>
      <trkpt lat="39.908521" lon="116.638872">
        <time>2022-06-01T13:48:28Z</time>
      </trkpt>
      <trkpt lat="39.908529" lon="116.63901">
        <time>2022-06-01T13:48:33Z</time>
      </trkpt>
      <trkpt lat="39.908557" lon="116.639186">
        <time>2022-06-01T13:48:38Z</time>
      </trkpt>
      <trkpt lat="39.90856" lon="116.639367">
        <time>2022-06-01T13:48:43Z</time>
      </trkpt>
      <trkpt lat="39.908545" lon="116.639562">
        <time>2022-06-01T13:48:48Z</time>
      </trkpt>
      <trkpt lat="39.908547" lon="116.639763">
        <time>2022-06-01T13:48:53Z</time>
      </trkpt>
      <trkpt lat="39.908557" lon="116.639954">
        <time>2022-06-01T13:48:58Z</time>
      </trkpt>
      <trkpt lat="39.908558" lon="116.640206">
        <time>2022-06-01T13:49:03Z</time>
      </trkpt>
      <trkpt lat="39.908563" lon="116.640372">
        <time>2022-06-01T13:49:08Z</time>
      </trkpt>
      <trkpt lat="39.908578" lon="116.640551">
        <time>2022-06-01T13:49:13Z</time>
      </trkpt>
      <trkpt lat="39.908598" lon="116.640726">
        <time>2022-06-01T13:49:18Z</time>
      </trkpt>
      <trkpt lat="39.908587" lon="116.640898">
        <time>2022-06-01T13:49:23Z</time>
      </trkpt>
      <trkpt lat="39.908589" lon="116.641058">
        <time>2022-06-01T13:49:28Z</time>
      </trkpt>
      <trkpt lat="39.908578" lon="116.64122">
        <time>2022-06-01T13:49:33Z</time>
      </trkpt>
      <trkpt lat="39.908561" lon="116.64129">
        <time>2022-06-01T13:49:38Z</time>
      </trkpt>
      <trkpt lat="39.908552" lon="116.641365">
        <time>2022-06-01T13:49:43Z</time>
      </trkpt>
      <trkpt lat="39.908556" lon="116.641461">
        <time>2022-06-01T13:49:48Z</time>
      </trkpt>
      <trkpt lat="39.908564" lon="116.641561">
        <time>2022-06-01T13:49:53Z</time>
      </trkpt>
      <trkpt lat="39.908572" lon="116.641661">
        <time>2022-06-01T13:49:58Z</time>
      </trkpt>
      <trkpt lat="39.908577" lon="116.641775">
        <time>2022-06-01T13:50:03Z</time>
      </trkpt>
      <trkpt lat="39.908577" lon="116.641899">
        <time>2022-06-01T13:50:08Z</time>
      </trkpt>
      <trkpt lat="39.908587" lon="116.642031">
        <time>2022-06-01T13:50:13Z</time>
      </trkpt>
      <trkpt lat="39.908589" lon="116.642164">
        <time>2022-06-01T13:50:18Z</time>
      </trkpt>
      <trkpt lat="39.90859" lon="116.642309">
        <time>2022-06-01T13:50:23Z</time>
      </trkpt>
      <trkpt lat="39.908591" lon="116.642458">
        <time>2022-06-01T13:50:28Z</time>
      </trkpt>
      <trkpt lat="39.908614" lon="116.642609">
        <time>2022-06-01T13:50:33Z</time>
      </trkpt>
      <trkpt lat="39.908631" lon="116.642776">
        <time>2022-06-01T13:50:38Z</time>
      </trkpt>
      <trkpt lat="39.908642" lon="116.642918">
        <time>2022-06-01T13:50:43Z</time>
      </trkpt>
      <trkpt lat="39.908648" lon="116.643009">
        <time>2022-06-01T13:50:48Z</time>
      </trkpt>
      <trkpt lat="39.908656" lon="116.643058">
        <time>2022-06-01T13:50:53Z</time>
      </trkpt>
      <trkpt lat="39.908659" lon="116.643142">
        <time>2022-06-01T13:50:58Z</time>
      </trkpt>
      <trkpt lat="39.908642" lon="116.643274">
        <time>2022-06-01T13:51:03Z</time>
      </trkpt>
      <trkpt lat="39.908646" lon="116.64336">
        <time>2022-06-01T13:51:08Z</time>
      </trkpt>
      <trkpt lat="39.908641" lon="116.643482">
        <time>2022-06-01T13:51:13Z</time>
      </trkpt>
      <trkpt lat="39.908642" lon="116.643637">
        <time>2022-06-01T13:51:18Z</time>
      </trkpt>
      <trkpt lat="39.908644" lon="116.643794">
        <time>2022-06-01T13:51:23Z</time>
      </trkpt>
      <trkpt lat="39.908645" lon="116.643952">
        <time>2022-06-01T13:51:28Z</time>
      </trkpt>
      <trkpt lat="39.908635" lon="116.644134">
        <time>2022-06-01T13:51:33Z</time>
      </trkpt>
      <trkpt lat="39.908641" lon="116.644254">
        <time>2022-06-01T13:51:38Z</time>
      </trkpt>
      <trkpt lat="39.90864" lon="116.644343">
        <time>2022-06-01T13:51:43Z</time>
      </trkpt>
      <trkpt lat="39.908653" lon="116.644374">
        <time>2022-06-01T13:51:48Z</time>
      </trkpt>
      <trkpt lat="39.90866" lon="116.644412">
        <time>2022-06-01T13:51:53Z</time>
      </trkpt>
      <trkpt lat="39.90867" lon="116.644541">
        <time>2022-06-01T13:51:58Z</time>
      </trkpt>
      <trkpt lat="39.908679" lon="116.64469">
        <time>2022-06-01T13:52:03Z</time>
      </trkpt>
      <trkpt lat="39.90868" lon="116.64484">
        <time>2022-06-01T13:52:08Z</time>
      </trkpt>
      <trkpt lat="39.908689" lon="116.644941">
        <time>2022-06-01T13:52:13Z</time>
      </trkpt>
      <trkpt lat="39.908696" lon="116.645158">
        <time>2022-06-01T13:52:18Z</time>
      </trkpt>
      <trkpt lat="39.908706" lon="116.64527">
        <time>2022-06-01T13:52:23Z</time>
      </trkpt>
      <trkpt lat="39.90874" lon="116.64542">
        <time>2022-06-01T13:52:28Z</time>
      </trkpt>
      <trkpt lat="39.90877" lon="116.645508">
        <time>2022-06-01T13:52:33Z</time>
      </trkpt>
      <trkpt lat="39.908805" lon="116.645634">
        <time>2022-06-01T13:52:38Z</time>
      </trkpt>
      <trkpt lat="39.908788" lon="116.645785">
        <time>2022-06-01T13:52:43Z</time>
      </trkpt>
      <trkpt lat="39.908817" lon="116.645981">
        <time>2022-06-01T13:52:48Z</time>
      </trkpt>
      <trkpt lat="39.908852" lon="116.646066">
        <time>2022-06-01T13:52:53Z</time>
      </trkpt>
      <trkpt lat="39.908916" lon="116.646174">
        <time>2022-06-01T13:52:58Z</time>
      </trkpt>
      <trkpt lat="39.908956" lon="116.646307">
        <time>2022-06-01T13:53:03Z</time>
      </trkpt>
      <trkpt lat="39.908962" lon="116.646436">
        <time>2022-06-01T13:53:08Z</time>
      </trkpt>
      <trkpt lat="39.909028" lon="116.646583">
        <time>2022-06-01T13:53:13Z</time>
      </trkpt>
      <trkpt lat="39.909089" lon="116.64674">
        <time>2022-06-01T13:53:18Z</time>
      </trkpt>
      <trkpt lat="39.909166" lon="116.646885">
        <time>2022-06-01T13:53:23Z</time>
      </trkpt>
      <trkpt lat="39.909219" lon="116.64706">
        <time>2022-06-01T13:53:28Z</time>
      </trkpt>
      <trkpt lat="39.909242" lon="116.647193">
        <time>2022-06-01T13:53:33Z</time>
      </trkpt>
      <trkpt lat="39.909273" lon="116.647355">
        <time>2022-06-01T13:53:38Z</time>
      </trkpt>
      <trkpt lat="39.909299" lon="116.647506">
        <time>2022-06-01T13:53:43Z</time>
      </trkpt>
      <trkpt lat="39.909304" lon="116.647588">
        <time>2022-06-01T13:53:48Z</time>
      </trkpt>
      <trkpt lat="39.909318" lon="116.647642">
        <time>2022-06-01T13:53:53Z</time>
      </trkpt>
      <trkpt lat="39.909348" lon="116.647697">
        <time>2022-06-01T13:53:58Z</time>
      </trkpt>
      <trkpt lat="39.909401" lon="116.647825">
        <time>2022-06-01T13:54:03Z</time>
      </trkpt>
      <trkpt lat="39.909441" lon="116.647907">
        <time>2022-06-01T13:54:08Z</time>
      </trkpt>
      <trkpt lat="39.909482" lon="116.648039">
        <time>2022-06-01T13:54:13Z</time>
      </trkpt>
      <trkpt lat="39.909512" lon="116.648161">
        <time>2022-06-01T13:54:18Z</time>
      </trkpt>
      <trkpt lat="39.909541" lon="116.648261">
        <time>2022-06-01T13:54:23Z</time>
      </trkpt>
      <trkpt lat="39.909585" lon="116.648362">
        <time>2022-06-01T13:54:28Z</time>
      </trkpt>
      <trkpt lat="39.90961" lon="116.648453">
        <time>2022-06-01T13:54:33Z</time>
      </trkpt>
      <trkpt lat="39.909642" lon="116.648547">
        <time>2022-06-01T13:54:38Z</time>
      </trkpt>
      <trkpt lat="39.909673" lon="116.648679">
        <time>2022-06-01T13:54:43Z</time>
      </trkpt>
      <trkpt lat="39.909708" lon="116.648804">
        <time>2022-06-01T13:54:48Z</time>
      </trkpt>
      <trkpt lat="39.909735" lon="116.648935">
        <time>2022-06-01T13:54:53Z</time>
      </trkpt>
      <trkpt lat="39.909776" lon="116.64909">
        <time>2022-06-01T13:54:58Z</time>
      </trkpt>
      <trkpt lat="39.909804" lon="116.649195">
        <time>2022-06-01T13:55:03Z</time>
      </trkpt>
      <trkpt lat="39.909821" lon="116.649308">
        <time>2022-06-01T13:55:08Z</time>
      </trkpt>
      <trkpt lat="39.90984" lon="116.649423">
        <time>2022-06-01T13:55:13Z</time>
      </trkpt>
      <trkpt lat="39.9099" lon="116.649537">
        <time>2022-06-01T13:55:18Z</time>
      </trkpt>
      <trkpt lat="39.909932" lon="116.649625">
        <time>2022-06-01T13:55:23Z</time>
      </trkpt>
      <trkpt lat="39.909946" lon="116.64972">
        <time>2022-06-01T13:55:28Z</time>
      </trkpt>
      <trkpt lat="39.909953" lon="116.649827">
        <time>2022-06-01T13:55:33Z</time>
      </trkpt>
      <trkpt lat="39.909973" lon="116.649943">
        <time>2022-06-01T13:55:38Z</time>
      </trkpt>
      <trkpt lat="39.910006" lon="116.650087">
        <time>2022-06-01T13:55:43Z</time>
      </trkpt>
      <trkpt lat="39.910006" lon="116.65019">
        <time>2022-06-01T13:55:48Z</time>
      </trkpt>
      <trkpt lat="39.910035" lon="116.650329">
        <time>2022-06-01T13:55:53Z</time>
      </trkpt>
      <trkpt lat="39.910037" lon="116.650478">
        <time>2022-06-01T13:55:58Z</time>
      </trkpt>
      <trkpt lat="39.910046" lon="116.650592">
        <time>2022-06-01T13:56:03Z</time>
      </trkpt>
      <trkpt lat="39.910021" lon="116.650722">
        <time>2022-06-01T13:56:08Z</time>
      </trkpt>
      <trkpt lat="39.910003" lon="116.650888">
        <time>2022-06-01T13:56:13Z</time>
      </trkpt>
      <trkpt lat="39.909976" lon="116.650996">
        <time>2022-06-01T13:56:18Z</time>
      </trkpt>
      <trkpt lat="39.909959" lon="116.650994">
        <time>2022-06-01T13:56:23Z</time>
      </trkpt>
      <trkpt lat="39.90998" lon="116.65096">
        <time>2022-06-01T13:56:28Z</time>
      </trkpt>
      <trkpt lat="39.910071" lon="116.650944">
        <time>2022-06-01T13:56:33Z</time>
      </trkpt>
      <trkpt lat="39.910182" lon="116.650931">
        <time>2022-06-01T13:56:38Z</time>
      </trkpt>
      <trkpt lat="39.91029" lon="116.650932">
        <time>2022-06-01T13:56:43Z</time>
      </trkpt>
      <trkpt lat="39.910379" lon="116.650932">
        <time>2022-06-01T13:56:48Z</time>
      </trkpt>
      <trkpt lat="39.910495" lon="116.650933">
        <time>2022-06-01T13:56:53Z</time>
      </trkpt>
      <trkpt lat="39.910607" lon="116.65092">
        <time>2022-06-01T13:56:58Z</time>
      </trkpt>
      <trkpt lat="39.910679" lon="116.650913">
        <time>2022-06-01T13:57:03Z</time>
      </trkpt>
      <trkpt lat="39.910753" lon="116.6509">
        <time>2022-06-01T13:57:08Z</time>
      </trkpt>
      <trkpt lat="39.910868" lon="116.650895">
        <time>2022-06-01T13:57:13Z</time>
      </trkpt>
      <trkpt lat="39.910948" lon="116.650874">
        <time>2022-06-01T13:57:18Z</time>
      </trkpt>
      <trkpt lat="39.911022" lon="116.650844">
        <time>2022-06-01T13:57:23Z</time>
      </trkpt>
      <trkpt lat="39.911095" lon="116.650803">
        <time>2022-06-01T13:57:28Z</time>
      </trkpt>
      <trkpt lat="39.911159" lon="116.650773">
        <time>2022-06-01T13:57:33Z</time>
      </trkpt>
      <trkpt lat="39.911272" lon="116.650776">
        <time>2022-06-01T13:57:38Z</time>
      </trkpt>
      <trkpt lat="39.911272" lon="116.650776">
        <time>2022-06-01T13:57:43Z</time>
      </trkpt>
      <trkpt lat="39.911304" lon="116.650795">
        <time>2022-06-01T13:57:48Z</time>
      </trkpt>
      <trkpt lat="39.911364" lon="116.65118">
        <time>2022-06-01T13:57:53Z</time>
      </trkpt>
      <trkpt lat="39.911379" lon="116.651321">
        <time>2022-06-01T13:57:58Z</time>
      </trkpt>
      <trkpt lat="39.911346" lon="116.651491">
        <time>2022-06-01T13:58:03Z</time>
      </trkpt>
      <trkpt lat="39.911294" lon="116.651565">
        <time>2022-06-01T13:58:08Z</time>
      </trkpt>
      <trkpt lat="39.91119" lon="116.651615">
        <time>2022-06-01T13:58:13Z</time>
      </trkpt>
      <trkpt lat="39.911169" lon="116.651682">
        <time>2022-06-01T13:58:18Z</time>
      </trkpt>
      <trkpt lat="39.911155" lon="116.65174">
        <time>2022-06-01T13:58:23Z</time>
      </trkpt>
      <trkpt lat="39.911158" lon="116.651839">
        <time>2022-06-01T13:58:28Z</time>
      </trkpt>
      <trkpt lat="39.911103" lon="116.651865">
        <time>2022-06-01T13:58:33Z</time>
      </trkpt>
      <trkpt lat="39.911082" lon="116.651993">
        <time>2022-06-01T13:58:38Z</time>
      </trkpt>
      <trkpt lat="39.910999" lon="116.652058">
        <time>2022-06-01T13:58:43Z</time>
      </trkpt>
      <trkpt lat="39.911095" lon="116.652184">
        <time>2022-06-01T13:58:48Z</time>
      </trkpt>
      <trkpt lat="39.911168" lon="116.652291">
        <time>2022-06-01T13:58:53Z</time>
      </trkpt>
      <trkpt lat="39.911272" lon="116.652412">
        <time>2022-06-01T13:58:58Z</time>
      </trkpt>
      <trkpt lat="39.91137" lon="116.652524">
        <time>2022-06-01T13:59:03Z</time>
      </trkpt>
      <trkpt lat="39.911493" lon="116.6526">
        <time>2022-06-01T13:59:08Z</time>
      </trkpt>
      <trkpt lat="39.911589" lon="116.652675">
        <time>2022-06-01T13:59:13Z</time>
      </trkpt>
      <trkpt lat="39.91169" lon="116.652768">
        <time>2022-06-01T13:59:18Z</time>
      </trkpt>
      <trkpt lat="39.911803" lon="116.652841">
        <time>2022-06-01T13:59:23Z</time>
      </trkpt>
      <trkpt lat="39.9119" lon="116.652914">
        <time>2022-06-01T13:59:28Z</time>
      </trkpt>
      <trkpt lat="39.911993" lon="116.652983">
        <time>2022-06-01T13:59:33Z</time>
      </trkpt>
      <trkpt lat="39.91209" lon="116.653088">
        <time>2022-06-01T13:59:38Z</time>
      </trkpt>
      <trkpt lat="39.912192" lon="116.653188">
        <time>2022-06-01T13:59:43Z</time>
      </trkpt>
      <trkpt lat="39.912312" lon="116.65329">
        <time>2022-06-01T13:59:48Z</time>
      </trkpt>
      <trkpt lat="39.912402" lon="116.653353">
        <time>2022-06-01T13:59:53Z</time>
      </trkpt>
      <trkpt lat="39.912508" lon="116.653404">
        <time>2022-06-01T13:59:58Z</time>
      </trkpt>
      <trkpt lat="39.912652" lon="116.653458">
        <time>2022-06-01T14:00:03Z</time>
      </trkpt>
      <trkpt lat="39.912771" lon="116.653561">
        <time>2022-06-01T14:00:08Z</time>
      </trkpt>
      <trkpt lat="39.912846" lon="116.653653">
        <time>2022-06-01T14:00:13Z</time>
      </trkpt>
      <trkpt lat="39.912899" lon="116.653738">
        <time>2022-06-01T14:00:18Z</time>
      </trkpt>
      <trkpt lat="39.912943" lon="116.653776">
        <time>2022-06-01T14:00:23Z</time>
      </trkpt>
      <trkpt lat="39.91297" lon="116.653816">
        <time>2022-06-01T14:00:28Z</time>
      </trkpt>
      <trkpt lat="39.913021" lon="116.653863">
        <time>2022-06-01T14:00:33Z</time>
      </trkpt>
      <trkpt lat="39.913093" lon="116.653916">
        <time>2022-06-01T14:00:38Z</time>
      </trkpt>
      <trkpt lat="39.913177" lon="116.653966">
        <time>2022-06-01T14:00:43Z</time>
      </trkpt>
      <trkpt lat="39.913309" lon="116.654003">
        <time>2022-06-01T14:00:48Z</time>
      </trkpt>
      <trkpt lat="39.913387" lon="116.654045">
        <time>2022-06-01T14:00:53Z</time>
      </trkpt>
      <trkpt lat="39.913467" lon="116.654111">
        <time>2022-06-01T14:00:58Z</time>
      </trkpt>
      <trkpt lat="39.913563" lon="116.654205">
        <time>2022-06-01T14:01:03Z</time>
      </trkpt>
      <trkpt lat="39.913651" lon="116.654308">
        <time>2022-06-01T14:01:08Z</time>
      </trkpt>
      <trkpt lat="39.913704" lon="116.654351">
        <time>2022-06-01T14:01:13Z</time>
      </trkpt>
      <trkpt lat="39.913793" lon="116.654456">
        <time>2022-06-01T14:01:18Z</time>
      </trkpt>
      <trkpt lat="39.913856" lon="116.654517">
        <time>2022-06-01T14:01:23Z</time>
      </trkpt>
      <trkpt lat="39.913938" lon="116.654601">
        <time>2022-06-01T14:01:28Z</time>
      </trkpt>
      <trkpt lat="39.914049" lon="116.654693">
        <time>2022-06-01T14:01:33Z</time>
      </trkpt>
      <trkpt lat="39.914097" lon="116.654738">
        <time>2022-06-01T14:01:38Z</time>
      </trkpt>
      <trkpt lat="39.914174" lon="116.65482">
        <time>2022-06-01T14:01:43Z</time>
      </trkpt>
      <trkpt lat="39.914242" lon="116.654906">
        <time>2022-06-01T14:01:48Z</time>
      </trkpt>
      <trkpt lat="39.914369" lon="116.654996">
        <time>2022-06-01T14:01:53Z</time>
      </trkpt>
      <trkpt lat="39.914445" lon="116.655101">
        <time>2022-06-01T14:01:58Z</time>
      </trkpt>
      <trkpt lat="39.914553" lon="116.65523">
        <time>2022-06-01T14:02:03Z</time>
      </trkpt>
      <trkpt lat="39.914609" lon="116.655354">
        <time>2022-06-01T14:02:08Z</time>
      </trkpt>
      <trkpt lat="39.914698" lon="116.655447">
        <time>2022-06-01T14:02:13Z</time>
      </trkpt>
      <trkpt lat="39.914785" lon="116.655585">
        <time>2022-06-01T14:02:18Z</time>
      </trkpt>
      <trkpt lat="39.914858" lon="116.655719">
        <time>2022-06-01T14:02:23Z</time>
      </trkpt>
      <trkpt lat="39.914912" lon="116.655897">
        <time>2022-06-01T14:02:28Z</time>
      </trkpt>
      <trkpt lat="39.914979" lon="116.656002">
        <time>2022-06-01T14:02:33Z</time>
      </trkpt>
      <trkpt lat="39.915053" lon="116.656101">
        <time>2022-06-01T14:02:38Z</time>
      </trkpt>
      <trkpt lat="39.915088" lon="116.656179">
        <time>2022-06-01T14:02:43Z</time>
      </trkpt>
      <trkpt lat="39.915127" lon="116.656205">
        <time>2022-06-01T14:02:48Z</time>
      </trkpt>
      <trkpt lat="39.915183" lon="116.656188">
        <time>2022-06-01T14:02:53Z</time>
      </trkpt>
      <trkpt lat="39.915292" lon="116.65614">
        <time>2022-06-01T14:02:58Z</time>
      </trkpt>
      <trkpt lat="39.915333" lon="116.656271">
        <time>2022-06-01T14:03:03Z</time>
      </trkpt>
      <trkpt lat="39.915365" lon="116.656523">
        <time>2022-06-01T14:03:08Z</time>
      </trkpt>
      <trkpt lat="39.915429" lon="116.656734">
        <time>2022-06-01T14:03:13Z</time>
      </trkpt>
      <trkpt lat="39.915513" lon="116.656897">
        <time>2022-06-01T14:03:18Z</time>
      </trkpt>
      <trkpt lat="39.915578" lon="116.657021">
        <time>2022-06-01T14:03:23Z</time>
      </trkpt>
      <trkpt lat="39.915643" lon="116.657149">
        <time>2022-06-01T14:03:28Z</time>
      </trkpt>
      <trkpt lat="39.915721" lon="116.65726">
        <time>2022-06-01T14:03:33Z</time>
      </trkpt>
      <trkpt lat="39.915784" lon="116.657345">
        <time>2022-06-01T14:03:38Z</time>
      </trkpt>
      <trkpt lat="39.915882" lon="116.65747">
        <time>2022-06-01T14:03:43Z</time>
      </trkpt>
      <trkpt lat="39.915961" lon="116.657567">
        <time>2022-06-01T14:03:48Z</time>
      </trkpt>
      <trkpt lat="39.916023" lon="116.657643">
        <time>2022-06-01T14:03:53Z</time>
      </trkpt>
      <trkpt lat="39.916067" lon="116.657719">
        <time>2022-06-01T14:03:58Z</time>
      </trkpt>
      <trkpt lat="39.916121" lon="116.657768">
        <time>2022-06-01T14:04:03Z</time>
      </trkpt>
      <trkpt lat="39.916174" lon="116.657871">
        <time>2022-06-01T14:04:08Z</time>
      </trkpt>
      <trkpt lat="39.91623" lon="116.657982">
        <time>2022-06-01T14:04:13Z</time>
      </trkpt>
      <trkpt lat="39.91631" lon="116.658114">
        <time>2022-06-01T14:04:18Z</time>
      </trkpt>
      <trkpt lat="39.916387" lon="116.658229">
        <time>2022-06-01T14:04:23Z</time>
      </trkpt>
      <trkpt lat="39.916452" lon="116.658329">
        <time>2022-06-01T14:04:28Z</time>
      </trkpt>
      <trkpt lat="39.916514" lon="116.658417">
        <time>2022-06-01T14:04:33Z</time>
      </trkpt>
      <trkpt lat="39.916593" lon="116.658557">
        <time>2022-06-01T14:04:38Z</time>
      </trkpt>
      <trkpt lat="39.916679" lon="116.658684">
        <time>2022-06-01T14:04:43Z</time>
      </trkpt>
      <trkpt lat="39.916743" lon="116.658762">
        <time>2022-06-01T14:04:48Z</time>
      </trkpt>
      <trkpt lat="39.916837" lon="116.658914">
        <time>2022-06-01T14:04:53Z</time>
      </trkpt>
      <trkpt lat="39.916924" lon="116.659068">
        <time>2022-06-01T14:04:58Z</time>
      </trkpt>
      <trkpt lat="39.917017" lon="116.659216">
        <time>2022-06-01T14:05:03Z</time>
      </trkpt>
      <trkpt lat="39.917098" lon="116.65934">
        <time>2022-06-01T14:05:08Z</time>
      </trkpt>
      <trkpt lat="39.917091" lon="116.659407">
        <time>2022-06-01T14:05:13Z</time>
      </trkpt>
      <trkpt lat="39.916997" lon="116.659257">
        <time>2022-06-01T14:05:18Z</time>
      </trkpt>
      <trkpt lat="39.916898" lon="116.659089">
        <time>2022-06-01T14:05:23Z</time>
      </trkpt>
      <trkpt lat="39.916818" lon="116.658944">
        <time>2022-06-01T14:05:28Z</time>
      </trkpt>
      <trkpt lat="39.916756" lon="116.658849">
        <time>2022-06-01T14:05:33Z</time>
      </trkpt>
      <trkpt lat="39.916731" lon="116.658801">
        <time>2022-06-01T14:05:38Z</time>
      </trkpt>
      <trkpt lat="39.916681" lon="116.658725">
        <time>2022-06-01T14:05:43Z</time>
      </trkpt>
      <trkpt lat="39.916622" lon="116.658634">
        <time>2022-06-01T14:05:48Z</time>
      </trkpt>
      <trkpt lat="39.91656" lon="116.658548">
        <time>2022-06-01T14:05:53Z</time>
      </trkpt>
      <trkpt lat="39.916495" lon="116.658452">
        <time>2022-06-01T14:05:58Z</time>
      </trkpt>
      <trkpt lat="39.916428" lon="116.658343">
        <time>2022-06-01T14:06:03Z</time>
      </trkpt>
      <trkpt lat="39.916381" lon="116.658242">
        <time>2022-06-01T14:06:08Z</time>
      </trkpt>
      <trkpt lat="39.916301" lon="116.658136">
        <time>2022-06-01T14:06:13Z</time>
      </trkpt>
      <trkpt lat="39.916235" lon="116.658033">
        <time>2022-06-01T14:06:18Z</time>
      </trkpt>
      <trkpt lat="39.916177" lon="116.657937">
        <time>2022-06-01T14:06:23Z</time>
      </trkpt>
      <trkpt lat="39.916119" lon="116.657853">
        <time>2022-06-01T14:06:28Z</time>
      </trkpt>
      <trkpt lat="39.916074" lon="116.657796">
        <time>2022-06-01T14:06:33Z</time>
      </trkpt>
      <trkpt lat="39.916024" lon="116.657721">
        <time>2022-06-01T14:06:38Z</time>
      </trkpt>
      <trkpt lat="39.915943" lon="116.657604">
        <time>2022-06-01T14:06:43Z</time>
      </trkpt>
      <trkpt lat="39.915883" lon="116.657524">
        <time>2022-06-01T14:06:48Z</time>
      </trkpt>
      <trkpt lat="39.915809" lon="116.657408">
        <time>2022-06-01T14:06:53Z</time>
      </trkpt>
      <trkpt lat="39.915709" lon="116.657295">
        <time>2022-06-01T14:06:58Z</time>
      </trkpt>
      <trkpt lat="39.915653" lon="116.657233">
        <time>2022-06-01T14:07:03Z</time>
      </trkpt>
      <trkpt lat="39.915608" lon="116.657126">
        <time>2022-06-01T14:07:08Z</time>
      </trkpt>
      <trkpt lat="39.915562" lon="116.657033">
        <time>2022-06-01T14:07:13Z</time>
      </trkpt>
      <trkpt lat="39.915484" lon="116.656912">
        <time>2022-06-01T14:07:18Z</time>
      </trkpt>
      <trkpt lat="39.915409" lon="116.656783">
        <time>2022-06-01T14:07:23Z</time>
      </trkpt>
      <trkpt lat="39.915354" lon="116.656645">
        <time>2022-06-01T14:07:28Z</time>
      </trkpt>
      <trkpt lat="39.915373" lon="116.656515">
        <time>2022-06-01T14:07:33Z</time>
      </trkpt>
      <trkpt lat="39.915386" lon="116.656371">
        <time>2022-06-01T14:07:38Z</time>
      </trkpt>
      <trkpt lat="39.915363" lon="116.656238">
        <time>2022-06-01T14:07:43Z</time>
      </trkpt>
      <trkpt lat="39.915268" lon="116.656152">
        <time>2022-06-01T14:07:48Z</time>
      </trkpt>
      <trkpt lat="39.915136" lon="116.656105">
        <time>2022-06-01T14:07:53Z</time>
      </trkpt>
      <trkpt lat="39.915087" lon="116.656048">
        <time>2022-06-01T14:07:58Z</time>
      </trkpt>
      <trkpt lat="39.915031" lon="116.655985">
        <time>2022-06-01T14:08:03Z</time>
      </trkpt>
      <trkpt lat="39.914966" lon="116.655881">
        <time>2022-06-01T14:08:08Z</time>
      </trkpt>
      <trkpt lat="39.914897" lon="116.655757">
        <time>2022-06-01T14:08:13Z</time>
      </trkpt>
      <trkpt lat="39.914843" lon="116.655635">
        <time>2022-06-01T14:08:18Z</time>
      </trkpt>
      <trkpt lat="39.914734" lon="116.655549">
        <time>2022-06-01T14:08:23Z</time>
      </trkpt>
      <trkpt lat="39.914654" lon="116.655421">
        <time>2022-06-01T14:08:28Z</time>
      </trkpt>
      <trkpt lat="39.914564" lon="116.655314">
        <time>2022-06-01T14:08:33Z</time>
      </trkpt>
      <trkpt lat="39.914484" lon="116.655231">
        <time>2022-06-01T14:08:38Z</time>
      </trkpt>
      <trkpt lat="39.91437" lon="116.655094">
        <time>2022-06-01T14:08:43Z</time>
      </trkpt>
      <trkpt lat="39.914286" lon="116.654978">
        <time>2022-06-01T14:08:48Z</time>
      </trkpt>
      <trkpt lat="39.914213" lon="116.654875">
        <time>2022-06-01T14:08:53Z</time>
      </trkpt>
      <trkpt lat="39.914144" lon="116.654801">
        <time>2022-06-01T14:08:58Z</time>
      </trkpt>
      <trkpt lat="39.91407" lon="116.654739">
        <time>2022-06-01T14:09:03Z</time>
      </trkpt>
      <trkpt lat="39.914004" lon="116.654661">
        <time>2022-06-01T14:09:08Z</time>
      </trkpt>
      <trkpt lat="39.913931" lon="116.654604">
        <time>2022-06-01T14:09:13Z</time>
      </trkpt>
      <trkpt lat="39.913853" lon="116.654525">
        <time>2022-06-01T14:09:18Z</time>
      </trkpt>
      <trkpt lat="39.913809" lon="116.654475">
        <time>2022-06-01T14:09:23Z</time>
      </trkpt>
      <trkpt lat="39.91377" lon="116.654421">
        <time>2022-06-01T14:09:28Z</time>
      </trkpt>
      <trkpt lat="39.913706" lon="116.654342">
        <time>2022-06-01T14:09:33Z</time>
      </trkpt>
      <trkpt lat="39.913634" lon="116.654261">
        <time>2022-06-01T14:09:38Z</time>
      </trkpt>
      <trkpt lat="39.913536" lon="116.654188">
        <time>2022-06-01T14:09:43Z</time>
      </trkpt>
      <trkpt lat="39.913455" lon="116.654099">
        <time>2022-06-01T14:09:48Z</time>
      </trkpt>
      <trkpt lat="39.913356" lon="116.654028">
        <time>2022-06-01T14:09:53Z</time>
      </trkpt>
      <trkpt lat="39.913218" lon="116.653978">
        <time>2022-06-01T14:09:58Z</time>
      </trkpt>
      <trkpt lat="39.9131" lon="116.653926">
        <time>2022-06-01T14:10:03Z</time>
      </trkpt>
      <trkpt lat="39.913" lon="116.653858">
        <time>2022-06-01T14:10:08Z</time>
      </trkpt>
      <trkpt lat="39.912944" lon="116.65381">
        <time>2022-06-01T14:10:13Z</time>
      </trkpt>
      <trkpt lat="39.912898" lon="116.653754">
        <time>2022-06-01T14:10:18Z</time>
      </trkpt>
      <trkpt lat="39.912858" lon="116.653717">
        <time>2022-06-01T14:10:23Z</time>
      </trkpt>
      <trkpt lat="39.912817" lon="116.653686">
        <time>2022-06-01T14:10:28Z</time>
      </trkpt>
      <trkpt lat="39.912716" lon="116.653597">
        <time>2022-06-01T14:10:33Z</time>
      </trkpt>
      <trkpt lat="39.91261" lon="116.653529">
        <time>2022-06-01T14:10:38Z</time>
      </trkpt>
      <trkpt lat="39.912496" lon="116.653467">
        <time>2022-06-01T14:10:43Z</time>
      </trkpt>
      <trkpt lat="39.912377" lon="116.653355">
        <time>2022-06-01T14:10:48Z</time>
      </trkpt>
      <trkpt lat="39.912293" lon="116.653302">
        <time>2022-06-01T14:10:53Z</time>
      </trkpt>
      <trkpt lat="39.912193" lon="116.653193">
        <time>2022-06-01T14:10:58Z</time>
      </trkpt>
      <trkpt lat="39.912124" lon="116.653135">
        <time>2022-06-01T14:11:03Z</time>
      </trkpt>
      <trkpt lat="39.912027" lon="116.653043">
        <time>2022-06-01T14:11:08Z</time>
      </trkpt>
      <trkpt lat="39.911947" lon="116.65296">
        <time>2022-06-01T14:11:13Z</time>
      </trkpt>
      <trkpt lat="39.911828" lon="116.65286">
        <time>2022-06-01T14:11:18Z</time>
      </trkpt>
      <trkpt lat="39.911734" lon="116.65278">
        <time>2022-06-01T14:11:23Z</time>
      </trkpt>
      <trkpt lat="39.911686" lon="116.652731">
        <time>2022-06-01T14:11:28Z</time>
      </trkpt>
      <trkpt lat="39.91161" lon="116.652682">
        <time>2022-06-01T14:11:33Z</time>
      </trkpt>
      <trkpt lat="39.911524" lon="116.652615">
        <time>2022-06-01T14:11:38Z</time>
      </trkpt>
      <trkpt lat="39.911445" lon="116.652557">
        <time>2022-06-01T14:11:43Z</time>
      </trkpt>
      <trkpt lat="39.91136" lon="116.652483">
        <time>2022-06-01T14:11:48Z</time>
      </trkpt>
      <trkpt lat="39.911308" lon="116.652431">
        <time>2022-06-01T14:11:53Z</time>
      </trkpt>
      <trkpt lat="39.911261" lon="116.65238">
        <time>2022-06-01T14:11:58Z</time>
      </trkpt>
      <trkpt lat="39.91122" lon="116.652323">
        <time>2022-06-01T14:12:03Z</time>
      </trkpt>
      <trkpt lat="39.911148" lon="116.652218">
        <time>2022-06-01T14:12:08Z</time>
      </trkpt>
      <trkpt lat="39.911082" lon="116.652109">
        <time>2022-06-01T14:12:13Z</time>
      </trkpt>
      <trkpt lat="39.911072" lon="116.651965">
        <time>2022-06-01T14:12:18Z</time>
      </trkpt>
      <trkpt lat="39.911144" lon="116.651947">
        <time>2022-06-01T14:12:23Z</time>
      </trkpt>
      <trkpt lat="39.911191" lon="116.651903">
        <time>2022-06-01T14:12:28Z</time>
      </trkpt>
      <trkpt lat="39.911207" lon="116.651846">
        <time>2022-06-01T14:12:33Z</time>
      </trkpt>
      <trkpt lat="39.911169" lon="116.651754">
        <time>2022-06-01T14:12:38Z</time>
      </trkpt>
      <trkpt lat="39.911161" lon="116.651646">
        <time>2022-06-01T14:12:43Z</time>
      </trkpt>
      <trkpt lat="39.911199" lon="116.651562">
        <time>2022-06-01T14:12:48Z</time>
      </trkpt>
      <trkpt lat="39.911278" lon="116.651447">
        <time>2022-06-01T14:12:53Z</time>
      </trkpt>
      <trkpt lat="39.911303" lon="116.651364">
        <time>2022-06-01T14:12:58Z</time>
      </trkpt>
      <trkpt lat="39.911295" lon="116.651295">
        <time>2022-06-01T14:13:03Z</time>
      </trkpt>
      <trkpt lat="39.911349" lon="116.651231">
        <time>2022-06-01T14:13:08Z</time>
      </trkpt>
      <trkpt lat="39.911343" lon="116.651123">
        <time>2022-06-01T14:13:13Z</time>
      </trkpt>
      <trkpt lat="39.911329" lon="116.651067">
        <time>2022-06-01T14:13:18Z</time>
      </trkpt>
      <trkpt lat="39.911275" lon="116.650923">
        <time>2022-06-01T14:13:23Z</time>
      </trkpt>
      <trkpt lat="39.911175" lon="116.650812">
        <time>2022-06-01T14:13:28Z</time>
      </trkpt>
      <trkpt lat="39.911056" lon="116.650824">
        <time>2022-06-01T14:13:33Z</time>
      </trkpt>
      <trkpt lat="39.910974" lon="116.650835">
        <time>2022-06-01T14:13:38Z</time>
      </trkpt>
      <trkpt lat="39.910864" lon="116.650847">
        <time>2022-06-01T14:13:43Z</time>
      </trkpt>
      <trkpt lat="39.91075" lon="116.650875">
        <time>2022-06-01T14:13:48Z</time>
      </trkpt>
      <trkpt lat="39.910635" lon="116.650904">
        <time>2022-06-01T14:13:53Z</time>
      </trkpt>
      <trkpt lat="39.910512" lon="116.650931">
        <time>2022-06-01T14:13:58Z</time>
      </trkpt>
      <trkpt lat="39.910377" lon="116.650953">
        <time>2022-06-01T14:14:03Z</time>
      </trkpt>
      <trkpt lat="39.910279" lon="116.650974">
        <time>2022-06-01T14:14:08Z</time>
      </trkpt>
      <trkpt lat="39.910147" lon="116.650986">
        <time>2022-06-01T14:14:13Z</time>
      </trkpt>
      <trkpt lat="39.910032" lon="116.651015">
        <time>2022-06-01T14:14:18Z</time>
      </trkpt>
      <trkpt lat="39.909942" lon="116.65103">
        <time>2022-06-01T14:14:23Z</time>
      </trkpt>
      <trkpt lat="39.909926" lon="116.651031">
        <time>2022-06-01T14:14:28Z</time>
      </trkpt>
      <trkpt lat="39.909994" lon="116.650955">
        <time>2022-06-01T14:14:33Z</time>
      </trkpt>
      <trkpt lat="39.910002" lon="116.650856">
        <time>2022-06-01T14:14:38Z</time>
      </trkpt>
      <trkpt lat="39.910013" lon="116.65072">
        <time>2022-06-01T14:14:43Z</time>
      </trkpt>
      <trkpt lat="39.910022" lon="116.650592">
        <time>2022-06-01T14:14:48Z</time>
      </trkpt>
      <trkpt lat="39.910014" lon="116.650443">
        <time>2022-06-01T14:14:53Z</time>
      </trkpt>
      <trkpt lat="39.909991" lon="116.650195">
        <time>2022-06-01T14:14:58Z</time>
      </trkpt>
      <trkpt lat="39.909977" lon="116.650052">
        <time>2022-06-01T14:15:03Z</time>
      </trkpt>
      <trkpt lat="39.909938" lon="116.649874">
        <time>2022-06-01T14:15:08Z</time>
      </trkpt>
      <trkpt lat="39.909916" lon="116.649742">
        <time>2022-06-01T14:15:13Z</time>
      </trkpt>
      <trkpt lat="39.909883" lon="116.649563">
        <time>2022-06-01T14:15:18Z</time>
      </trkpt>
      <trkpt lat="39.909861" lon="116.649421">
        <time>2022-06-01T14:15:23Z</time>
      </trkpt>
      <trkpt lat="39.909849" lon="116.649312">
        <time>2022-06-01T14:15:28Z</time>
      </trkpt>
      <trkpt lat="39.909817" lon="116.649209">
        <time>2022-06-01T14:15:33Z</time>
      </trkpt>
      <trkpt lat="39.909793" lon="116.649132">
        <time>2022-06-01T14:15:38Z</time>
      </trkpt>
      <trkpt lat="39.909715" lon="116.64899">
        <time>2022-06-01T14:15:43Z</time>
      </trkpt>
      <trkpt lat="39.909677" lon="116.648875">
        <time>2022-06-01T14:15:48Z</time>
      </trkpt>
      <trkpt lat="39.909666" lon="116.648818">
        <time>2022-06-01T14:15:53Z</time>
      </trkpt>
      <trkpt lat="39.909634" lon="116.648666">
        <time>2022-06-01T14:15:58Z</time>
      </trkpt>
      <trkpt lat="39.909592" lon="116.648528">
        <time>2022-06-01T14:16:03Z</time>
      </trkpt>
      <trkpt lat="39.909548" lon="116.648347">
        <time>2022-06-01T14:16:08Z</time>
      </trkpt>
      <trkpt lat="39.909531" lon="116.648278">
        <time>2022-06-01T14:16:13Z</time>
      </trkpt>
      <trkpt lat="39.909491" lon="116.648128">
        <time>2022-06-01T14:16:18Z</time>
      </trkpt>
      <trkpt lat="39.909478" lon="116.648058">
        <time>2022-06-01T14:16:23Z</time>
      </trkpt>
      <trkpt lat="39.90946" lon="116.647987">
        <time>2022-06-01T14:16:28Z</time>
      </trkpt>
      <trkpt lat="39.909432" lon="116.647926">
        <time>2022-06-01T14:16:33Z</time>
      </trkpt>
      <trkpt lat="39.909414" lon="116.647852">
        <time>2022-06-01T14:16:38Z</time>
      </trkpt>
      <trkpt lat="39.909392" lon="116.647751">
        <time>2022-06-01T14:16:43Z</time>
      </trkpt>
      <trkpt lat="39.909367" lon="116.647625">
        <time>2022-06-01T14:16:48Z</time>
      </trkpt>
      <trkpt lat="39.909331" lon="116.647485">
        <time>2022-06-01T14:16:53Z</time>
      </trkpt>
      <trkpt lat="39.909286" lon="116.647312">
        <time>2022-06-01T14:16:58Z</time>
      </trkpt>
      <trkpt lat="39.909245" lon="116.647161">
        <time>2022-06-01T14:17:03Z</time>
      </trkpt>
      <trkpt lat="39.9092" lon="116.647009">
        <time>2022-06-01T14:17:08Z</time>
      </trkpt>
      <trkpt lat="39.90913" lon="116.646831">
        <time>2022-06-01T14:17:13Z</time>
      </trkpt>
      <trkpt lat="39.909096" lon="116.646715">
        <time>2022-06-01T14:17:18Z</time>
      </trkpt>
      <trkpt lat="39.909064" lon="116.646569">
        <time>2022-06-01T14:17:23Z</time>
      </trkpt>
      <trkpt lat="39.90902" lon="116.646371">
        <time>2022-06-01T14:17:28Z</time>
      </trkpt>
      <trkpt lat="39.908971" lon="116.646192">
        <time>2022-06-01T14:17:33Z</time>
      </trkpt>
      <trkpt lat="39.908946" lon="116.646076">
        <time>2022-06-01T14:17:38Z</time>
      </trkpt>
      <trkpt lat="39.908903" lon="116.645946">
        <time>2022-06-01T14:17:43Z</time>
      </trkpt>
      <trkpt lat="39.90886" lon="116.645825">
        <time>2022-06-01T14:17:48Z</time>
      </trkpt>
      <trkpt lat="39.908839" lon="116.64574">
        <time>2022-06-01T14:17:53Z</time>
      </trkpt>
      <trkpt lat="39.908813" lon="116.645647">
        <time>2022-06-01T14:17:58Z</time>
      </trkpt>
      <trkpt lat="39.908797" lon="116.645596">
        <time>2022-06-01T14:18:03Z</time>
      </trkpt>
      <trkpt lat="39.908778" lon="116.645435">
        <time>2022-06-01T14:18:08Z</time>
      </trkpt>
      <trkpt lat="39.908752" lon="116.645328">
        <time>2022-06-01T14:18:13Z</time>
      </trkpt>
      <trkpt lat="39.908708" lon="116.645181">
        <time>2022-06-01T14:18:18Z</time>
      </trkpt>
      <trkpt lat="39.908698" lon="116.645087">
        <time>2022-06-01T14:18:23Z</time>
      </trkpt>
      <trkpt lat="39.908676" lon="116.64491">
        <time>2022-06-01T14:18:28Z</time>
      </trkpt>
      <trkpt lat="39.90868" lon="116.644778">
        <time>2022-06-01T14:18:33Z</time>
      </trkpt>
      <trkpt lat="39.908693" lon="116.644647">
        <time>2022-06-01T14:18:38Z</time>
      </trkpt>
      <trkpt lat="39.908703" lon="116.644496">
        <time>2022-06-01T14:18:43Z</time>
      </trkpt>
      <trkpt lat="39.908698" lon="116.644354">
        <time>2022-06-01T14:18:48Z</time>
      </trkpt>
      <trkpt lat="39.908684" lon="116.64414">
        <time>2022-06-01T14:18:53Z</time>
      </trkpt>
      <trkpt lat="39.908676" lon="116.643992">
        <time>2022-06-01T14:18:58Z</time>
      </trkpt>
      <trkpt lat="39.908662" lon="116.643856">
        <time>2022-06-01T14:19:03Z</time>
      </trkpt>
      <trkpt lat="39.908675" lon="116.643757">
        <time>2022-06-01T14:19:08Z</time>
      </trkpt>
      <trkpt lat="39.908715" lon="116.643586">
        <time>2022-06-01T14:19:13Z</time>
      </trkpt>
      <trkpt lat="39.908709" lon="116.643431">
        <time>2022-06-01T14:19:18Z</time>
      </trkpt>
      <trkpt lat="39.908716" lon="116.643316">
        <time>2022-06-01T14:19:23Z</time>
      </trkpt>
      <trkpt lat="39.908704" lon="116.643157">
        <time>2022-06-01T14:19:28Z</time>
      </trkpt>
      <trkpt lat="39.908692" lon="116.642993">
        <time>2022-06-01T14:19:33Z</time>
      </trkpt>
      <trkpt lat="39.908683" lon="116.642869">
        <time>2022-06-01T14:19:38Z</time>
      </trkpt>
      <trkpt lat="39.908692" lon="116.642662">
        <time>2022-06-01T14:19:43Z</time>
      </trkpt>
      <trkpt lat="39.90869" lon="116.642539">
        <time>2022-06-01T14:19:48Z</time>
      </trkpt>
      <trkpt lat="39.90868" lon="116.642427">
        <time>2022-06-01T14:19:53Z</time>
      </trkpt>
      <trkpt lat="39.908658" lon="116.642335">
        <time>2022-06-01T14:19:58Z</time>
      </trkpt>
      <trkpt lat="39.908639" lon="116.642256">
        <time>2022-06-01T14:20:03Z</time>
      </trkpt>
      <trkpt lat="39.90862" lon="116.642111">
        <time>2022-06-01T14:20:08Z</time>
      </trkpt>
      <trkpt lat="39.908596" lon="116.641995">
        <time>2022-06-01T14:20:13Z</time>
      </trkpt>
      <trkpt lat="39.908583" lon="116.641845">
        <time>2022-06-01T14:20:18Z</time>
      </trkpt>
      <trkpt lat="39.908591" lon="116.641698">
        <time>2022-06-01T14:20:23Z</time>
      </trkpt>
      <trkpt lat="39.908585" lon="116.641553">
        <time>2022-06-01T14:20:28Z</time>
      </trkpt>
      <trkpt lat="39.908589" lon="116.641429">
        <time>2022-06-01T14:20:33Z</time>
      </trkpt>
      <trkpt lat="39.908573" lon="116.641269">
        <time>2022-06-01T14:20:38Z</time>
      </trkpt>
      <trkpt lat="39.908571" lon="116.641102">
        <time>2022-06-01T14:20:43Z</time>
      </trkpt>
      <trkpt lat="39.908595" lon="116.640974">
        <time>2022-06-01T14:20:48Z</time>
      </trkpt>
      <trkpt lat="39.908618" lon="116.640868">
        <time>2022-06-01T14:20:53Z</time>
      </trkpt>
      <trkpt lat="39.908631" lon="116.640775">
        <time>2022-06-01T14:20:58Z</time>
      </trkpt>
      <trkpt lat="39.908639" lon="116.640685">
        <time>2022-06-01T14:21:03Z</time>
      </trkpt>
      <trkpt lat="39.908629" lon="116.640582">
        <time>2022-06-01T14:21:08Z</time>
      </trkpt>
      <trkpt lat="39.908604" lon="116.640479">
        <time>2022-06-01T14:21:13Z</time>
      </trkpt>
      <trkpt lat="39.908597" lon="116.64037">
        <time>2022-06-01T14:21:18Z</time>
      </trkpt>
      <trkpt lat="39.908612" lon="116.64022">
        <time>2022-06-01T14:21:23Z</time>
      </trkpt>
      <trkpt lat="39.908603" lon="116.64007">
        <time>2022-06-01T14:21:28Z</time>
      </trkpt>
      <trkpt lat="39.90856" lon="116.639925">
        <time>2022-06-01T14:21:33Z</time>
      </trkpt>
      <trkpt lat="39.908541" lon="116.639812">
        <time>2022-06-01T14:21:38Z</time>
      </trkpt>
      <trkpt lat="39.908533" lon="116.639669">
        <time>2022-06-01T14:21:43Z</time>
      </trkpt>
      <trkpt lat="39.908519" lon="116.639522">
        <time>2022-06-01T14:21:48Z</time>
      </trkpt>
      <trkpt lat="39.908508" lon="116.639391">
        <time>2022-06-01T14:21:53Z</time>
      </trkpt>
      <trkpt lat="39.908508" lon="116.639243">
        <time>2022-06-01T14:21:58Z</time>
      </trkpt>
      <trkpt lat="39.908519" lon="116.639081">
        <time>2022-06-01T14:22:03Z</time>
      </trkpt>
      <trkpt lat="39.908543" lon="116.638928">
        <time>2022-06-01T14:22:08Z</time>
      </trkpt>
      <trkpt lat="39.908543" lon="116.638763">
        <time>2022-06-01T14:22:13Z</time>
      </trkpt>
      <trkpt lat="39.908518" lon="116.638649">
        <time>2022-06-01T14:22:18Z</time>
      </trkpt>
      <trkpt lat="39.908481" lon="116.63844">
        <time>2022-06-01T14:22:23Z</time>
      </trkpt>
      <trkpt lat="39.908512" lon="116.638309">
        <time>2022-06-01T14:22:28Z</time>
      </trkpt>
      <trkpt lat="39.908501" lon="116.638097">
        <time>2022-06-01T14:22:33Z</time>
      </trkpt>
      <trkpt lat="39.908479" lon="116.637995">
        <time>2022-06-01T14:22:38Z</time>
      </trkpt>
      <trkpt lat="39.908447" lon="116.63794">
        <time>2022-06-01T14:22:43Z</time>
      </trkpt>
      <trkpt lat="39.908391" lon="116.637877">
        <time>2022-06-01T14:22:48Z</time>
      </trkpt>
      <trkpt lat="39.908354" lon="116.637781">
        <time>2022-06-01T14:22:53Z</time>
      </trkpt>
      <trkpt lat="39.908316" lon="116.637673">
        <time>2022-06-01T14:22:58Z</time>
      </trkpt>
      <trkpt lat="39.90827" lon="116.637581">
        <time>2022-06-01T14:23:03Z</time>
      </trkpt>
      <trkpt lat="39.908207" lon="116.637533">
        <time>2022-06-01T14:23:08Z</time>
      </trkpt>
      <trkpt lat="39.908238" lon="116.637516">
        <time>2022-06-01T14:23:13Z</time>
      </trkpt>
      <trkpt lat="39.908251" lon="116.637323">
        <time>2022-06-01T14:23:18Z</time>
      </trkpt>
      <trkpt lat="39.908257" lon="116.63729">
        <time>2022-06-01T14:23:23Z</time>
      </trkpt>
      <trkpt lat="39.908296" lon="116.637145">
        <time>2022-06-01T14:23:28Z</time>
      </trkpt>
      <trkpt lat="39.908342" lon="116.636967">
        <time>2022-06-01T14:23:33Z</time>
      </trkpt>
      <trkpt lat="39.908346" lon="116.636837">
        <time>2022-06-01T14:23:38Z</time>
      </trkpt>
      <trkpt lat="39.908395" lon="116.636661">
        <time>2022-06-01T14:23:43Z</time>
      </trkpt>
      <trkpt lat="39.908425" lon="116.636521">
        <time>2022-06-01T14:23:48Z</time>
      </trkpt>
      <trkpt lat="39.908445" lon="116.636375">
        <time>2022-06-01T14:23:53Z</time>
      </trkpt>
      <trkpt lat="39.908466" lon="116.636216">
        <time>2022-06-01T14:23:58Z</time>
      </trkpt>
      <trkpt lat="39.908487" lon="116.636085">
        <time>2022-06-01T14:24:03Z</time>
      </trkpt>
      <trkpt lat="39.908508" lon="116.635917">
        <time>2022-06-01T14:24:08Z</time>
      </trkpt>
      <trkpt lat="39.908529" lon="116.635771">
        <time>2022-06-01T14:24:13Z</time>
      </trkpt>
      <trkpt lat="39.908523" lon="116.635627">
        <time>2022-06-01T14:24:18Z</time>
      </trkpt>
      <trkpt lat="39.908502" lon="116.635465">
        <time>2022-06-01T14:24:23Z</time>
      </trkpt>
      <trkpt lat="39.908478" lon="116.635263">
        <time>2022-06-01T14:24:28Z</time>
      </trkpt>
      <trkpt lat="39.908454" lon="116.635102">
        <time>2022-06-01T14:24:33Z</time>
      </trkpt>
      <trkpt lat="39.908444" lon="116.634931">
        <time>2022-06-01T14:24:38Z</time>
      </trkpt>
      <trkpt lat="39.908452" lon="116.634715">
        <time>2022-06-01T14:24:43Z</time>
      </trkpt>
      <trkpt lat="39.908442" lon="116.63458">
        <time>2022-06-01T14:24:48Z</time>
      </trkpt>
      <trkpt lat="39.908429" lon="116.634329">
        <time>2022-06-01T14:24:53Z</time>
      </trkpt>
      <trkpt lat="39.908447" lon="116.634269">
        <time>2022-06-01T14:24:58Z</time>
      </trkpt>
      <trkpt lat="39.908476" lon="116.634129">
        <time>2022-06-01T14:25:03Z</time>
      </trkpt>
      <trkpt lat="39.908515" lon="116.633924">
        <time>2022-06-01T14:25:08Z</time>
      </trkpt>
      <trkpt lat="39.908508" lon="116.633884">
        <time>2022-06-01T14:25:13Z</time>
      </trkpt>
      <trkpt lat="39.908474" lon="116.633788">
        <time>2022-06-01T14:25:18Z</time>
      </trkpt>
      <trkpt lat="39.908437" lon="116.633524">
        <time>2022-06-01T14:25:23Z</time>
      </trkpt>
      <trkpt lat="39.908431" lon="116.633484">
        <time>2022-06-01T14:25:28Z</time>
      </trkpt>
      <trkpt lat="39.908405" lon="116.633363">
        <time>2022-06-01T14:25:33Z</time>
      </trkpt>
      <trkpt lat="39.908404" lon="116.633198">
        <time>2022-06-01T14:25:38Z</time>
      </trkpt>
      <trkpt lat="39.908426" lon="116.632998">
        <time>2022-06-01T14:25:43Z</time>
      </trkpt>
      <trkpt lat="39.908431" lon="116.632907">
        <time>2022-06-01T14:25:48Z</time>
      </trkpt>
      <trkpt lat="39.908425" lon="116.632774">
        <time>2022-06-01T14:25:53Z</time>
      </trkpt>
      <trkpt lat="39.908394" lon="116.632561">
        <time>2022-06-01T14:25:58Z</time>
      </trkpt>
      <trkpt lat="39.908405" lon="116.632334">
        <time>2022-06-01T14:26:03Z</time>
      </trkpt>
      <trkpt lat="39.908412" lon="116.632221">
        <time>2022-06-01T14:26:08Z</time>
      </trkpt>
      <trkpt lat="39.908381" lon="116.632097">
        <time>2022-06-01T14:26:13Z</time>
      </trkpt>
      <trkpt lat="39.908396" lon="116.631938">
        <time>2022-06-01T14:26:18Z</time>
      </trkpt>
      <trkpt lat="39.908417" lon="116.631807">
        <time>2022-06-01T14:26:23Z</time>
      </trkpt>
      <trkpt lat="39.908407" lon="116.631692">
        <time>2022-06-01T14:26:28Z</time>
      </trkpt>
      <trkpt lat="39.908412" lon="116.631598">
        <time>2022-06-01T14:26:33Z</time>
      </trkpt>
      <trkpt lat="39.908361" lon="116.631539">
        <time>2022-06-01T14:26:38Z</time>
      </trkpt>
      <trkpt lat="39.908338" lon="116.631483">
        <time>2022-06-01T14:26:43Z</time>
      </trkpt>
      <trkpt lat="39.908311" lon="116.631384">
        <time>2022-06-01T14:26:48Z</time>
      </trkpt>
      <trkpt lat="39.908279" lon="116.631292">
        <time>2022-06-01T14:26:53Z</time>
      </trkpt>
      <trkpt lat="39.908245" lon="116.631182">
        <time>2022-06-01T14:26:58Z</time>
      </trkpt>
      <trkpt lat="39.908204" lon="116.63104">
        <time>2022-06-01T14:27:03Z</time>
      </trkpt>
      <trkpt lat="39.908168" lon="116.630897">
        <time>2022-06-01T14:27:08Z</time>
      </trkpt>
      <trkpt lat="39.908146" lon="116.630756">
        <time>2022-06-01T14:27:13Z</time>
      </trkpt>
      <trkpt lat="39.908134" lon="116.63064">
        <time>2022-06-01T14:27:18Z</time>
      </trkpt>
      <trkpt lat="39.908099" lon="116.630465">
        <time>2022-06-01T14:27:23Z</time>
      </trkpt>
      <trkpt lat="39.908102" lon="116.630334">
        <time>2022-06-01T14:27:28Z</time>
      </trkpt>
      <trkpt lat="39.908124" lon="116.630227">
        <time>2022-06-01T14:27:33Z</time>
      </trkpt>
      <trkpt lat="39.908116" lon="116.630139">
        <time>2022-06-01T14:27:38Z</time>
      </trkpt>
      <trkpt lat="39.908101" lon="116.630035">
        <time>2022-06-01T14:27:43Z</time>
      </trkpt>
      <trkpt lat="39.908053" lon="116.629935">
        <time>2022-06-01T14:27:48Z</time>
      </trkpt>
      <trkpt lat="39.908034" lon="116.629834">
        <time>2022-06-01T14:27:53Z</time>
      </trkpt>
      <trkpt lat="39.908011" lon="116.629709">
        <time>2022-06-01T14:27:58Z</time>
      </trkpt>
      <trkpt lat="39.907991" lon="116.629593">
        <time>2022-06-01T14:28:03Z</time>
      </trkpt>
      <trkpt lat="39.907986" lon="116.629481">
        <time>2022-06-01T14:28:08Z</time>
      </trkpt>
      <trkpt lat="39.907985" lon="116.629383">
        <time>2022-06-01T14:28:13Z</time>
      </trkpt>
      <trkpt lat="39.907977" lon="116.629198">
        <time>2022-06-01T14:28:18Z</time>
      </trkpt>
      <trkpt lat="39.907947" lon="116.629103">
        <time>2022-06-01T14:28:23Z</time>
      </trkpt>
      <trkpt lat="39.907931" lon="116.628959">
        <time>2022-06-01T14:28:28Z</time>
      </trkpt>
      <trkpt lat="39.907925" lon="116.628816">
        <time>2022-06-01T14:28:33Z</time>
      </trkpt>
      <trkpt lat="39.9079" lon="116.628717">
        <time>2022-06-01T14:28:38Z</time>
      </trkpt>
      <trkpt lat="39.907878" lon="116.628547">
        <time>2022-06-01T14:28:43Z</time>
      </trkpt>
      <trkpt lat="39.907852" lon="116.628413">
        <time>2022-06-01T14:28:48Z</time>
      </trkpt>
      <trkpt lat="39.907864" lon="116.62829">
        <time>2022-06-01T14:28:53Z</time>
      </trkpt>
      <trkpt lat="39.907852" lon="116.628144">
        <time>2022-06-01T14:28:58Z</time>
      </trkpt>
      <trkpt lat="39.907821" lon="116.628019">
        <time>2022-06-01T14:29:03Z</time>
      </trkpt>
      <trkpt lat="39.907805" lon="116.627871">
        <time>2022-06-01T14:29:08Z</time>
      </trkpt>
      <trkpt lat="39.907805" lon="116.627685">
        <time>2022-06-01T14:29:13Z</time>
      </trkpt>
      <trkpt lat="39.907803" lon="116.627528">
        <time>2022-06-01T14:29:18Z</time>
      </trkpt>
      <trkpt lat="39.907817" lon="116.627395">
        <time>2022-06-01T14:29:23Z</time>
      </trkpt>
      <trkpt lat="39.907804" lon="116.627288">
        <time>2022-06-01T14:29:28Z</time>
      </trkpt>
      <trkpt lat="39.907765" lon="116.627186">
        <time>2022-06-01T14:29:33Z</time>
      </trkpt>
      <trkpt lat="39.907729" lon="116.627086">
        <time>2022-06-01T14:29:38Z</time>
      </trkpt>
      <trkpt lat="39.907691" lon="116.626792">
        <time>2022-06-01T14:29:43Z</time>
      </trkpt>
      <trkpt lat="39.90768" lon="116.626724">
        <time>2022-06-01T14:29:48Z</time>
      </trkpt>
      <trkpt lat="39.907654" lon="116.626608">
        <time>2022-06-01T14:29:53Z</time>
      </trkpt>
      <trkpt lat="39.907624" lon="116.626469">
        <time>2022-06-01T14:29:58Z</time>
      </trkpt>
      <trkpt lat="39.907632" lon="116.626309">
        <time>2022-06-01T14:30:03Z</time>
      </trkpt>
      <trkpt lat="39.907618" lon="116.626139">
        <time>2022-06-01T14:30:08Z</time>
      </trkpt>
      <trkpt lat="39.90759" lon="116.626">
        <time>2022-06-01T14:30:13Z</time>
      </trkpt>
      <trkpt lat="39.90759" lon="116.625883">
        <time>2022-06-01T14:30:18Z</time>
      </trkpt>
      <trkpt lat="39.907555" lon="116.62576">
        <time>2022-06-01T14:30:23Z</time>
      </trkpt>
      <trkpt lat="39.90757" lon="116.625649">
        <time>2022-06-01T14:30:28Z</time>
      </trkpt>
      <trkpt lat="39.907565" lon="116.625525">
        <time>2022-06-01T14:30:33Z</time>
      </trkpt>
      <trkpt lat="39.907514" lon="116.625387">
        <time>2022-06-01T14:30:38Z</time>
      </trkpt>
      <trkpt lat="39.907501" lon="116.62531">
        <time>2022-06-01T14:30:43Z</time>
      </trkpt>
      <trkpt lat="39.907499" lon="116.62521">
        <time>2022-06-01T14:30:48Z</time>
      </trkpt>
      <trkpt lat="39.907483" lon="116.625108">
        <time>2022-06-01T14:30:53Z</time>
      </trkpt>
      <trkpt lat="39.907458" lon="116.624943">
        <time>2022-06-01T14:30:58Z</time>
      </trkpt>
      <trkpt lat="39.907468" lon="116.624849">
        <time>2022-06-01T14:31:03Z</time>
      </trkpt>
      <trkpt lat="39.907465" lon="116.624668">
        <time>2022-06-01T14:31:08Z</time>
      </trkpt>
      <trkpt lat="39.907463" lon="116.624523">
        <time>2022-06-01T14:31:13Z</time>
      </trkpt>
      <trkpt lat="39.907448" lon="116.624382">
        <time>2022-06-01T14:31:18Z</time>
      </trkpt>
      <trkpt lat="39.907435" lon="116.624243">
        <time>2022-06-01T14:31:23Z</time>
      </trkpt>
      <trkpt lat="39.907423" lon="116.624094">
        <time>2022-06-01T14:31:28Z</time>
      </trkpt>
      <trkpt lat="39.907423" lon="116.6239">
        <time>2022-06-01T14:31:33Z</time>
      </trkpt>
      <trkpt lat="39.907417" lon="116.623753">
        <time>2022-06-01T14:31:38Z</time>
      </trkpt>
      <trkpt lat="39.907415" lon="116.62365">
        <time>2022-06-01T14:31:43Z</time>
      </trkpt>
      <trkpt lat="39.907355" lon="116.623629">
        <time>2022-06-01T14:31:48Z</time>
      </trkpt>
      <trkpt lat="39.907312" lon="116.62348">
        <time>2022-06-01T14:31:53Z</time>
      </trkpt>
      <trkpt lat="39.907299" lon="116.62337">
        <time>2022-06-01T14:31:58Z</time>
      </trkpt>
      <trkpt lat="39.907299" lon="116.623233">
        <time>2022-06-01T14:32:03Z</time>
      </trkpt>
      <trkpt lat="39.907292" lon="116.623126">
        <time>2022-06-01T14:32:08Z</time>
      </trkpt>
      <trkpt lat="39.907241" lon="116.62298">
        <time>2022-06-01T14:32:13Z</time>
      </trkpt>
      <trkpt lat="39.907221" lon="116.622794">
        <time>2022-06-01T14:32:18Z</time>
      </trkpt>
      <trkpt lat="39.907201" lon="116.622688">
        <time>2022-06-01T14:32:23Z</time>
      </trkpt>
      <trkpt lat="39.907158" lon="116.622578">
        <time>2022-06-01T14:32:28Z</time>
      </trkpt>
      <trkpt lat="39.907158" lon="116.622486">
        <time>2022-06-01T14:32:33Z</time>
      </trkpt>
      <trkpt lat="39.907174" lon="116.622371">
        <time>2022-06-01T14:32:38Z</time>
      </trkpt>
      <trkpt lat="39.907149" lon="116.622248">
        <time>2022-06-01T14:32:43Z</time>
      </trkpt>
      <trkpt lat="39.907143" lon="116.622152">
        <time>2022-06-01T14:32:48Z</time>
      </trkpt>
      <trkpt lat="39.907134" lon="116.621955">
        <time>2022-06-01T14:32:53Z</time>
      </trkpt>
      <trkpt lat="39.907118" lon="116.621837">
        <time>2022-06-01T14:32:58Z</time>
      </trkpt>
      <trkpt lat="39.90709" lon="116.621675">
        <time>2022-06-01T14:33:03Z</time>
      </trkpt>
      <trkpt lat="39.907047" lon="116.62155">
        <time>2022-06-01T14:33:08Z</time>
      </trkpt>
      <trkpt lat="39.907024" lon="116.621388">
        <time>2022-06-01T14:33:13Z</time>
      </trkpt>
      <trkpt lat="39.90699" lon="116.621204">
        <time>2022-06-01T14:33:18Z</time>
      </trkpt>
      <trkpt lat="39.90697" lon="116.621084">
        <time>2022-06-01T14:33:23Z</time>
      </trkpt>
      <trkpt lat="39.906949" lon="116.620933">
        <time>2022-06-01T14:33:28Z</time>
      </trkpt>
      <trkpt lat="39.906939" lon="116.620825">
        <time>2022-06-01T14:33:33Z</time>
      </trkpt>
      <trkpt lat="39.906922" lon="116.620629">
        <time>2022-06-01T14:33:38Z</time>
      </trkpt>
      <trkpt lat="39.906905" lon="116.620485">
        <time>2022-06-01T14:33:43Z</time>
      </trkpt>
      <trkpt lat="39.906898" lon="116.620324">
        <time>2022-06-01T14:33:48Z</time>
      </trkpt>
      <trkpt lat="39.906858" lon="116.620168">
        <time>2022-06-01T14:33:53Z</time>
      </trkpt>
      <trkpt lat="39.906851" lon="116.620031">
        <time>2022-06-01T14:33:58Z</time>
      </trkpt>
      <trkpt lat="39.90684" lon="116.619884">
        <time>2022-06-01T14:34:03Z</time>
      </trkpt>
      <trkpt lat="39.906842" lon="116.619709">
        <time>2022-06-01T14:34:08Z</time>
      </trkpt>
      <trkpt lat="39.906842" lon="116.619632">
        <time>2022-06-01T14:34:13Z</time>
      </trkpt>
      <trkpt lat="39.906844" lon="116.619554">
        <time>2022-06-01T14:34:18Z</time>
      </trkpt>
      <trkpt lat="39.906836" lon="116.61948">
        <time>2022-06-01T14:34:23Z</time>
      </trkpt>
      <trkpt lat="39.906809" lon="116.619354">
        <time>2022-06-01T14:34:28Z</time>
      </trkpt>
      <trkpt lat="39.906801" lon="116.619306">
        <time>2022-06-01T14:34:33Z</time>
      </trkpt>
      <trkpt lat="39.906787" lon="116.619197">
        <time>2022-06-01T14:34:38Z</time>
      </trkpt>
      <trkpt lat="39.906778" lon="116.619094">
        <time>2022-06-01T14:34:43Z</time>
      </trkpt>
      <trkpt lat="39.906766" lon="116.619003">
        <time>2022-06-01T14:34:48Z</time>
      </trkpt>
      <trkpt lat="39.906753" lon="116.61886">
        <time>2022-06-01T14:34:53Z</time>
      </trkpt>
      <trkpt lat="39.90674" lon="116.618724">
        <time>2022-06-01T14:34:58Z</time>
      </trkpt>
      <trkpt lat="39.906728" lon="116.618614">
        <time>2022-06-01T14:35:03Z</time>
      </trkpt>
      <trkpt lat="39.906711" lon="116.618463">
        <time>2022-06-01T14:35:08Z</time>
      </trkpt>
      <trkpt lat="39.906693" lon="116.618312">
        <time>2022-06-01T14:35:13Z</time>
      </trkpt>
      <trkpt lat="39.906687" lon="116.618105">
        <time>2022-06-01T14:35:18Z</time>
      </trkpt>
      <trkpt lat="39.906655" lon="116.617892">
        <time>2022-06-01T14:35:23Z</time>
      </trkpt>
      <trkpt lat="39.906637" lon="116.61782">
        <time>2022-06-01T14:35:28Z</time>
      </trkpt>
      <trkpt lat="39.906599" lon="116.617665">
        <time>2022-06-01T14:35:33Z</time>
      </trkpt>
      <trkpt lat="39.90658" lon="116.617503">
        <time>2022-06-01T14:35:38Z</time>
      </trkpt>
      <trkpt lat="39.90656" lon="116.617324">
        <time>2022-06-01T14:35:43Z</time>
      </trkpt>
      <trkpt lat="39.906545" lon="116.617177">
        <time>2022-06-01T14:35:48Z</time>
      </trkpt>
      <trkpt lat="39.906501" lon="116.617019">
        <time>2022-06-01T14:35:53Z</time>
      </trkpt>
      <trkpt lat="39.906459" lon="116.616807">
        <time>2022-06-01T14:35:58Z</time>
      </trkpt>
      <trkpt lat="39.906439" lon="116.616631">
        <time>2022-06-01T14:36:03Z</time>
      </trkpt>
      <trkpt lat="39.906399" lon="116.616462">
        <time>2022-06-01T14:36:08Z</time>
      </trkpt>
      <trkpt lat="39.906362" lon="116.616321">
        <time>2022-06-01T14:36:13Z</time>
      </trkpt>
      <trkpt lat="39.906292" lon="116.616179">
        <time>2022-06-01T14:36:18Z</time>
      </trkpt>
      <trkpt lat="39.906219" lon="116.616058">
        <time>2022-06-01T14:36:23Z</time>
      </trkpt>
      <trkpt lat="39.906141" lon="116.615872">
        <time>2022-06-01T14:36:28Z</time>
      </trkpt>
      <trkpt lat="39.906096" lon="116.615719">
        <time>2022-06-01T14:36:33Z</time>
      </trkpt>
      <trkpt lat="39.90605" lon="116.615603">
        <time>2022-06-01T14:36:38Z</time>
      </trkpt>
      <trkpt lat="39.906016" lon="116.615523">
        <time>2022-06-01T14:36:43Z</time>
      </trkpt>
      <trkpt lat="39.905971" lon="116.615407">
        <time>2022-06-01T14:36:48Z</time>
      </trkpt>
      <trkpt lat="39.905937" lon="116.615291">
        <time>2022-06-01T14:36:53Z</time>
      </trkpt>
      <trkpt lat="39.905885" lon="116.615163">
        <time>2022-06-01T14:36:58Z</time>
      </trkpt>
      <trkpt lat="39.905856" lon="116.61506">
        <time>2022-06-01T14:37:03Z</time>
      </trkpt>
      <trkpt lat="39.905846" lon="116.614891">
        <time>2022-06-01T14:37:08Z</time>
      </trkpt>
      <trkpt lat="39.905827" lon="116.614747">
        <time>2022-06-01T14:37:13Z</time>
      </trkpt>
      <trkpt lat="39.905752" lon="116.614679">
        <time>2022-06-01T14:37:18Z</time>
      </trkpt>
      <trkpt lat="39.905679" lon="116.614803">
        <time>2022-06-01T14:37:23Z</time>
      </trkpt>
      <trkpt lat="39.905688" lon="116.614939">
        <time>2022-06-01T14:37:28Z</time>
      </trkpt>
      <trkpt lat="39.905699" lon="116.615126">
        <time>2022-06-01T14:37:33Z</time>
      </trkpt>
      <trkpt lat="39.905699" lon="116.61527">
        <time>2022-06-01T14:37:38Z</time>
      </trkpt>
      <trkpt lat="39.905681" lon="116.615464">
        <time>2022-06-01T14:37:43Z</time>
      </trkpt>
      <trkpt lat="39.905676" lon="116.615635">
        <time>2022-06-01T14:37:48Z</time>
      </trkpt>
      <trkpt lat="39.905683" lon="116.615755">
        <time>2022-06-01T14:37:53Z</time>
      </trkpt>
      <trkpt lat="39.905681" lon="116.615887">
        <time>2022-06-01T14:37:58Z</time>
      </trkpt>
      <trkpt lat="39.905681" lon="116.615973">
        <time>2022-06-01T14:38:03Z</time>
      </trkpt>
      <trkpt lat="39.905695" lon="116.616095">
        <time>2022-06-01T14:38:08Z</time>
      </trkpt>
      <trkpt lat="39.905668" lon="116.616123">
        <time>2022-06-01T14:38:13Z</time>
      </trkpt>
      <trkpt lat="39.905648" lon="116.616223">
        <time>2022-06-01T14:38:18Z</time>
      </trkpt>
      <trkpt lat="39.905643" lon="116.61633">
        <time>2022-06-01T14:38:23Z</time>
      </trkpt>
      <trkpt lat="39.905636" lon="116.616421">
        <time>2022-06-01T14:38:28Z</time>
      </trkpt>
      <trkpt lat="39.905634" lon="116.616513">
        <time>2022-06-01T14:38:33Z</time>
      </trkpt>
      <trkpt lat="39.905642" lon="116.616673">
        <time>2022-06-01T14:38:38Z</time>
      </trkpt>
      <trkpt lat="39.905621" lon="116.616785">
        <time>2022-06-01T14:38:43Z</time>
      </trkpt>
      <trkpt lat="39.905604" lon="116.617027">
        <time>2022-06-01T14:38:48Z</time>
      </trkpt>
      <trkpt lat="39.905595" lon="116.617171">
        <time>2022-06-01T14:38:53Z</time>
      </trkpt>
      <trkpt lat="39.905595" lon="116.617301">
        <time>2022-06-01T14:38:58Z</time>
      </trkpt>
      <trkpt lat="39.905565" lon="116.617461">
        <time>2022-06-01T14:39:03Z</time>
      </trkpt>
      <trkpt lat="39.905575" lon="116.617547">
        <time>2022-06-01T14:39:08Z</time>
      </trkpt>
      <trkpt lat="39.905565" lon="116.617689">
        <time>2022-06-01T14:39:13Z</time>
      </trkpt>
      <trkpt lat="39.905547" lon="116.617774">
        <time>2022-06-01T14:39:18Z</time>
      </trkpt>
      <trkpt lat="39.905553" lon="116.617868">
        <time>2022-06-01T14:39:23Z</time>
      </trkpt>
      <trkpt lat="39.905573" lon="116.618009">
        <time>2022-06-01T14:39:28Z</time>
      </trkpt>
      <trkpt lat="39.905563" lon="116.618099">
        <time>2022-06-01T14:39:33Z</time>
      </trkpt>
      <trkpt lat="39.905563" lon="116.618229">
        <time>2022-06-01T14:39:38Z</time>
      </trkpt>
      <trkpt lat="39.905572" lon="116.618386">
        <time>2022-06-01T14:39:43Z</time>
      </trkpt>
      <trkpt lat="39.905591" lon="116.6186">
        <time>2022-06-01T14:39:48Z</time>
      </trkpt>
      <trkpt lat="39.905644" lon="116.618831">
        <time>2022-06-01T14:39:53Z</time>
      </trkpt>
      <trkpt lat="39.905662" lon="116.61899">
        <time>2022-06-01T14:39:58Z</time>
      </trkpt>
      <trkpt lat="39.905669" lon="116.619111">
        <time>2022-06-01T14:40:03Z</time>
      </trkpt>
      <trkpt lat="39.905684" lon="116.619276">
        <time>2022-06-01T14:40:08Z</time>
      </trkpt>
      <trkpt lat="39.905715" lon="116.619421">
        <time>2022-06-01T14:40:13Z</time>
      </trkpt>
      <trkpt lat="39.905768" lon="116.619572">
        <time>2022-06-01T14:40:18Z</time>
      </trkpt>
      <trkpt lat="39.905791" lon="116.619635">
        <time>2022-06-01T14:40:23Z</time>
      </trkpt>
      <trkpt lat="39.90581" lon="116.619759">
        <time>2022-06-01T14:40:28Z</time>
      </trkpt>
      <trkpt lat="39.90578" lon="116.619896">
        <time>2022-06-01T14:40:33Z</time>
      </trkpt>
      <trkpt lat="39.905757" lon="116.62003">
        <time>2022-06-01T14:40:38Z</time>
      </trkpt>
      <trkpt lat="39.905781" lon="116.620171">
        <time>2022-06-01T14:40:43Z</time>
      </trkpt>
      <trkpt lat="39.905798" lon="116.62023">
        <time>2022-06-01T14:40:48Z</time>
      </trkpt>
      <trkpt lat="39.905807" lon="116.620435">
        <time>2022-06-01T14:40:53Z</time>
      </trkpt>
      <trkpt lat="39.905809" lon="116.620586">
        <time>2022-06-01T14:40:58Z</time>
      </trkpt>
      <trkpt lat="39.905821" lon="116.620759">
        <time>2022-06-01T14:41:03Z</time>
      </trkpt>
      <trkpt lat="39.905893" lon="116.62087">
        <time>2022-06-01T14:41:08Z</time>
      </trkpt>
      <trkpt lat="39.90593" lon="116.620862">
        <time>2022-06-01T14:41:13Z</time>
      </trkpt>
      <trkpt lat="39.905999" lon="116.620781">
        <time>2022-06-01T14:41:18Z</time>
      </trkpt>
      <trkpt lat="39.906115" lon="116.620764">
        <time>2022-06-01T14:41:23Z</time>
      </trkpt>
      <trkpt lat="39.906272" lon="116.621018">
        <time>2022-06-01T14:41:28Z</time>
      </trkpt>
      <trkpt lat="39.906339" lon="116.621089">
        <time>2022-06-01T14:41:33Z</time>
      </trkpt>
      <trkpt lat="39.906457" lon="116.621233">
        <time>2022-06-01T14:41:38Z</time>
      </trkpt>
      <trkpt lat="39.906594" lon="116.621361">
        <time>2022-06-01T14:41:43Z</time>
      </trkpt>
      <trkpt lat="39.906617" lon="116.621534">
        <time>2022-06-01T14:41:48Z</time>
      </trkpt>
      <trkpt lat="39.906687" lon="116.621608">
        <time>2022-06-01T14:41:53Z</time>
      </trkpt>
      <trkpt lat="39.906786" lon="116.621818">
        <time>2022-06-01T14:41:58Z</time>
      </trkpt>
      <trkpt lat="39.906791" lon="116.621819">
        <time>2022-06-01T14:42:03Z</time>
      </trkpt>
      <trkpt lat="39.90679" lon="116.621826">
        <time>2022-06-01T14:42:08Z</time>
      </trkpt>
      <trkpt lat="39.906767" lon="116.62182">
        <time>2022-06-01T14:42:13Z</time>
      </trkpt>
      <trkpt lat="39.906788" lon="116.621783">
        <time>2022-06-01T14:42:18Z</time>
      </trkpt>
      <trkpt lat="39.906761" lon="116.621704">
        <time>2022-06-01T14:42:23Z</time>
      </trkpt>
      <trkpt lat="39.906749" lon="116.621579">
        <time>2022-06-01T14:42:28Z</time>
      </trkpt>
      <trkpt lat="39.906692" lon="116.621367">
        <time>2022-06-01T14:42:33Z</time>
      </trkpt>
      <trkpt lat="39.906683" lon="116.621342">
        <time>2022-06-01T14:42:38Z</time>
      </trkpt>
      <trkpt lat="39.906634" lon="116.621224">
        <time>2022-06-01T14:42:43Z</time>
      </trkpt>
      <trkpt lat="39.906588" lon="116.621087">
        <time>2022-06-01T14:42:48Z</time>
      </trkpt>
      <trkpt lat="39.906569" lon="116.620972">
        <time>2022-06-01T14:45:57Z</time>
      </trkpt>
    </trkseg>
  </trk>
</gpx>