<?xml version="1.0" encoding="UTF-8"?>
<gpx xmlns="http://www.topografix.com/GPX/1/1" xmlns:gpxtpx="http://www.garmin.com/xmlschemas/TrackPointExtension/v1" xmlns:xsi="http://www.w3.org/2001/XMLSchema-instance" xsi:schemaLocation="http://www.topografix.com/GPX/1/1 http://www.topografix.com/GPX/1/1/gpx.xsd" version="1.1" creator="gpx.py -- https://github.com/tkrajina/gpxpy">
  <trk>
    <name>gpx from keep</name>
    <trkseg>
      <trkpt lat="39.905665" lon="116.620259">
        <time>2022-06-06T12:37:19Z</time>
      </trkpt>
      <trkpt lat="39.905665" lon="116.620259">
        <time>2022-06-06T12:37:24Z</time>
      </trkpt>
      <trkpt lat="39.905666" lon="116.620134">
        <time>2022-06-06T12:37:29Z</time>
      </trkpt>
      <trkpt lat="39.905701" lon="116.620068">
        <time>2022-06-06T12:37:34Z</time>
      </trkpt>
      <trkpt lat="39.905608" lon="116.620046">
        <time>2022-06-06T12:37:39Z</time>
      </trkpt>
      <trkpt lat="39.905515" lon="116.620024">
        <time>2022-06-06T12:37:44Z</time>
      </trkpt>
      <trkpt lat="39.905535" lon="116.619728">
        <time>2022-06-06T12:37:49Z</time>
      </trkpt>
      <trkpt lat="39.905555" lon="116.619432">
        <time>2022-06-06T12:37:54Z</time>
      </trkpt>
      <trkpt lat="39.905573" lon="116.619143">
        <time>2022-06-06T12:37:59Z</time>
      </trkpt>
      <trkpt lat="39.905534" lon="116.619083">
        <time>2022-06-06T12:38:04Z</time>
      </trkpt>
      <trkpt lat="39.905489" lon="116.618717">
        <time>2022-06-06T12:38:09Z</time>
      </trkpt>
      <trkpt lat="39.90551" lon="116.618612">
        <time>2022-06-06T12:38:14Z</time>
      </trkpt>
      <trkpt lat="39.905542" lon="116.618425">
        <time>2022-06-06T12:38:19Z</time>
      </trkpt>
      <trkpt lat="39.905541" lon="116.61833">
        <time>2022-06-06T12:38:24Z</time>
      </trkpt>
      <trkpt lat="39.905513" lon="116.618215">
        <time>2022-06-06T12:38:29Z</time>
      </trkpt>
      <trkpt lat="39.905479" lon="116.618083">
        <time>2022-06-06T12:38:34Z</time>
      </trkpt>
      <trkpt lat="39.905504" lon="116.617937">
        <time>2022-06-06T12:38:39Z</time>
      </trkpt>
      <trkpt lat="39.905523" lon="116.617788">
        <time>2022-06-06T12:38:44Z</time>
      </trkpt>
      <trkpt lat="39.905509" lon="116.617658">
        <time>2022-06-06T12:38:49Z</time>
      </trkpt>
      <trkpt lat="39.905514" lon="116.617521">
        <time>2022-06-06T12:38:54Z</time>
      </trkpt>
      <trkpt lat="39.905531" lon="116.617352">
        <time>2022-06-06T12:38:59Z</time>
      </trkpt>
      <trkpt lat="39.905588" lon="116.61719">
        <time>2022-06-06T12:39:04Z</time>
      </trkpt>
      <trkpt lat="39.90559" lon="116.617074">
        <time>2022-06-06T12:39:09Z</time>
      </trkpt>
      <trkpt lat="39.905467" lon="116.616961">
        <time>2022-06-06T12:39:14Z</time>
      </trkpt>
      <trkpt lat="39.905458" lon="116.616792">
        <time>2022-06-06T12:39:19Z</time>
      </trkpt>
      <trkpt lat="39.905502" lon="116.616626">
        <time>2022-06-06T12:39:24Z</time>
      </trkpt>
      <trkpt lat="39.905538" lon="116.616447">
        <time>2022-06-06T12:39:29Z</time>
      </trkpt>
      <trkpt lat="39.905593" lon="116.616272">
        <time>2022-06-06T12:39:34Z</time>
      </trkpt>
      <trkpt lat="39.905605" lon="116.616124">
        <time>2022-06-06T12:39:39Z</time>
      </trkpt>
      <trkpt lat="39.905598" lon="116.615985">
        <time>2022-06-06T12:39:44Z</time>
      </trkpt>
      <trkpt lat="39.90556" lon="116.615866">
        <time>2022-06-06T12:39:49Z</time>
      </trkpt>
      <trkpt lat="39.905538" lon="116.615767">
        <time>2022-06-06T12:39:54Z</time>
      </trkpt>
      <trkpt lat="39.905562" lon="116.615639">
        <time>2022-06-06T12:39:59Z</time>
      </trkpt>
      <trkpt lat="39.905601" lon="116.615527">
        <time>2022-06-06T12:40:04Z</time>
      </trkpt>
      <trkpt lat="39.905621" lon="116.615416">
        <time>2022-06-06T12:40:09Z</time>
      </trkpt>
      <trkpt lat="39.905618" lon="116.615291">
        <time>2022-06-06T12:40:14Z</time>
      </trkpt>
      <trkpt lat="39.905634" lon="116.615161">
        <time>2022-06-06T12:40:19Z</time>
      </trkpt>
      <trkpt lat="39.905632" lon="116.61503">
        <time>2022-06-06T12:40:24Z</time>
      </trkpt>
      <trkpt lat="39.905627" lon="116.614904">
        <time>2022-06-06T12:40:29Z</time>
      </trkpt>
      <trkpt lat="39.905632" lon="116.614793">
        <time>2022-06-06T12:40:34Z</time>
      </trkpt>
      <trkpt lat="39.905633" lon="116.614736">
        <time>2022-06-06T12:40:39Z</time>
      </trkpt>
      <trkpt lat="39.905643" lon="116.614643">
        <time>2022-06-06T12:40:44Z</time>
      </trkpt>
      <trkpt lat="39.905711" lon="116.614598">
        <time>2022-06-06T12:40:49Z</time>
      </trkpt>
      <trkpt lat="39.905792" lon="116.614634">
        <time>2022-06-06T12:40:54Z</time>
      </trkpt>
      <trkpt lat="39.905848" lon="116.614704">
        <time>2022-06-06T12:40:59Z</time>
      </trkpt>
      <trkpt lat="39.905878" lon="116.614808">
        <time>2022-06-06T12:41:04Z</time>
      </trkpt>
      <trkpt lat="39.90592" lon="116.614913">
        <time>2022-06-06T12:41:09Z</time>
      </trkpt>
      <trkpt lat="39.905911" lon="116.614961">
        <time>2022-06-06T12:41:14Z</time>
      </trkpt>
      <trkpt lat="39.905903" lon="116.614953">
        <time>2022-06-06T12:41:19Z</time>
      </trkpt>
      <trkpt lat="39.905898" lon="116.614972">
        <time>2022-06-06T12:41:24Z</time>
      </trkpt>
      <trkpt lat="39.905901" lon="116.614954">
        <time>2022-06-06T12:41:29Z</time>
      </trkpt>
      <trkpt lat="39.905907" lon="116.614951">
        <time>2022-06-06T12:41:34Z</time>
      </trkpt>
      <trkpt lat="39.905904" lon="116.61495">
        <time>2022-06-06T12:41:39Z</time>
      </trkpt>
      <trkpt lat="39.905896" lon="116.614968">
        <time>2022-06-06T12:41:44Z</time>
      </trkpt>
      <trkpt lat="39.905919" lon="116.614978">
        <time>2022-06-06T12:41:49Z</time>
      </trkpt>
      <trkpt lat="39.905913" lon="116.614981">
        <time>2022-06-06T12:41:54Z</time>
      </trkpt>
      <trkpt lat="39.905899" lon="116.61495">
        <time>2022-06-06T12:41:59Z</time>
      </trkpt>
      <trkpt lat="39.905914" lon="116.614923">
        <time>2022-06-06T12:42:04Z</time>
      </trkpt>
      <trkpt lat="39.905917" lon="116.614915">
        <time>2022-06-06T12:42:09Z</time>
      </trkpt>
      <trkpt lat="39.905922" lon="116.614924">
        <time>2022-06-06T12:42:14Z</time>
      </trkpt>
      <trkpt lat="39.905917" lon="116.614935">
        <time>2022-06-06T12:42:19Z</time>
      </trkpt>
      <trkpt lat="39.905918" lon="116.614941">
        <time>2022-06-06T12:42:24Z</time>
      </trkpt>
      <trkpt lat="39.905912" lon="116.614935">
        <time>2022-06-06T12:42:29Z</time>
      </trkpt>
      <trkpt lat="39.905902" lon="116.614934">
        <time>2022-06-06T12:42:34Z</time>
      </trkpt>
      <trkpt lat="39.905909" lon="116.614947">
        <time>2022-06-06T12:42:39Z</time>
      </trkpt>
      <trkpt lat="39.905899" lon="116.614942">
        <time>2022-06-06T12:42:44Z</time>
      </trkpt>
      <trkpt lat="39.905877" lon="116.614931">
        <time>2022-06-06T12:42:49Z</time>
      </trkpt>
      <trkpt lat="39.905861" lon="116.614915">
        <time>2022-06-06T12:42:54Z</time>
      </trkpt>
      <trkpt lat="39.905857" lon="116.614911">
        <time>2022-06-06T12:42:59Z</time>
      </trkpt>
      <trkpt lat="39.905851" lon="116.61492">
        <time>2022-06-06T12:43:04Z</time>
      </trkpt>
      <trkpt lat="39.905856" lon="116.614907">
        <time>2022-06-06T12:43:09Z</time>
      </trkpt>
      <trkpt lat="39.905868" lon="116.61499">
        <time>2022-06-06T12:43:14Z</time>
      </trkpt>
      <trkpt lat="39.905852" lon="116.615179">
        <time>2022-06-06T12:43:19Z</time>
      </trkpt>
      <trkpt lat="39.90596" lon="116.615382">
        <time>2022-06-06T12:43:24Z</time>
      </trkpt>
      <trkpt lat="39.906024" lon="116.615537">
        <time>2022-06-06T12:43:29Z</time>
      </trkpt>
      <trkpt lat="39.906083" lon="116.61569">
        <time>2022-06-06T12:43:34Z</time>
      </trkpt>
      <trkpt lat="39.906144" lon="116.615827">
        <time>2022-06-06T12:43:39Z</time>
      </trkpt>
      <trkpt lat="39.906185" lon="116.615986">
        <time>2022-06-06T12:43:44Z</time>
      </trkpt>
      <trkpt lat="39.906256" lon="116.616139">
        <time>2022-06-06T12:43:49Z</time>
      </trkpt>
      <trkpt lat="39.906349" lon="116.616286">
        <time>2022-06-06T12:43:54Z</time>
      </trkpt>
      <trkpt lat="39.906418" lon="116.616422">
        <time>2022-06-06T12:43:59Z</time>
      </trkpt>
      <trkpt lat="39.906431" lon="116.616566">
        <time>2022-06-06T12:44:04Z</time>
      </trkpt>
      <trkpt lat="39.906454" lon="116.616723">
        <time>2022-06-06T12:44:09Z</time>
      </trkpt>
      <trkpt lat="39.906483" lon="116.616871">
        <time>2022-06-06T12:44:14Z</time>
      </trkpt>
      <trkpt lat="39.906508" lon="116.617021">
        <time>2022-06-06T12:44:19Z</time>
      </trkpt>
      <trkpt lat="39.906538" lon="116.617144">
        <time>2022-06-06T12:44:24Z</time>
      </trkpt>
      <trkpt lat="39.906561" lon="116.617301">
        <time>2022-06-06T12:44:29Z</time>
      </trkpt>
      <trkpt lat="39.906579" lon="116.617452">
        <time>2022-06-06T12:44:34Z</time>
      </trkpt>
      <trkpt lat="39.906592" lon="116.617604">
        <time>2022-06-06T12:44:39Z</time>
      </trkpt>
      <trkpt lat="39.90661" lon="116.617779">
        <time>2022-06-06T12:44:44Z</time>
      </trkpt>
      <trkpt lat="39.906612" lon="116.617931">
        <time>2022-06-06T12:44:49Z</time>
      </trkpt>
      <trkpt lat="39.906629" lon="116.618075">
        <time>2022-06-06T12:44:54Z</time>
      </trkpt>
      <trkpt lat="39.906645" lon="116.618208">
        <time>2022-06-06T12:44:59Z</time>
      </trkpt>
      <trkpt lat="39.906653" lon="116.618342">
        <time>2022-06-06T12:45:04Z</time>
      </trkpt>
      <trkpt lat="39.906662" lon="116.618485">
        <time>2022-06-06T12:45:09Z</time>
      </trkpt>
      <trkpt lat="39.906696" lon="116.618694">
        <time>2022-06-06T12:45:14Z</time>
      </trkpt>
      <trkpt lat="39.90672" lon="116.618785">
        <time>2022-06-06T12:45:19Z</time>
      </trkpt>
      <trkpt lat="39.906742" lon="116.618928">
        <time>2022-06-06T12:45:24Z</time>
      </trkpt>
      <trkpt lat="39.906771" lon="116.619059">
        <time>2022-06-06T12:45:29Z</time>
      </trkpt>
      <trkpt lat="39.90682" lon="116.619201">
        <time>2022-06-06T12:45:34Z</time>
      </trkpt>
      <trkpt lat="39.906818" lon="116.619369">
        <time>2022-06-06T12:45:39Z</time>
      </trkpt>
      <trkpt lat="39.906814" lon="116.61954">
        <time>2022-06-06T12:45:44Z</time>
      </trkpt>
      <trkpt lat="39.906835" lon="116.619681">
        <time>2022-06-06T12:45:49Z</time>
      </trkpt>
      <trkpt lat="39.906843" lon="116.619857">
        <time>2022-06-06T12:45:54Z</time>
      </trkpt>
      <trkpt lat="39.906906" lon="116.619968">
        <time>2022-06-06T12:45:59Z</time>
      </trkpt>
      <trkpt lat="39.906986" lon="116.620099">
        <time>2022-06-06T12:46:04Z</time>
      </trkpt>
      <trkpt lat="39.906986" lon="116.620284">
        <time>2022-06-06T12:46:09Z</time>
      </trkpt>
      <trkpt lat="39.906992" lon="116.620455">
        <time>2022-06-06T12:46:14Z</time>
      </trkpt>
      <trkpt lat="39.907009" lon="116.620624">
        <time>2022-06-06T12:46:19Z</time>
      </trkpt>
      <trkpt lat="39.907005" lon="116.620782">
        <time>2022-06-06T12:46:24Z</time>
      </trkpt>
      <trkpt lat="39.907039" lon="116.620917">
        <time>2022-06-06T12:46:29Z</time>
      </trkpt>
      <trkpt lat="39.90705" lon="116.621034">
        <time>2022-06-06T12:46:34Z</time>
      </trkpt>
      <trkpt lat="39.907077" lon="116.621147">
        <time>2022-06-06T12:46:39Z</time>
      </trkpt>
      <trkpt lat="39.90713" lon="116.621304">
        <time>2022-06-06T12:46:44Z</time>
      </trkpt>
      <trkpt lat="39.907168" lon="116.621453">
        <time>2022-06-06T12:46:49Z</time>
      </trkpt>
      <trkpt lat="39.907154" lon="116.621628">
        <time>2022-06-06T12:46:54Z</time>
      </trkpt>
      <trkpt lat="39.907187" lon="116.621776">
        <time>2022-06-06T12:46:59Z</time>
      </trkpt>
      <trkpt lat="39.907263" lon="116.621869">
        <time>2022-06-06T12:47:04Z</time>
      </trkpt>
      <trkpt lat="39.907279" lon="116.622026">
        <time>2022-06-06T12:47:09Z</time>
      </trkpt>
      <trkpt lat="39.907233" lon="116.622208">
        <time>2022-06-06T12:47:14Z</time>
      </trkpt>
      <trkpt lat="39.907206" lon="116.622383">
        <time>2022-06-06T12:47:19Z</time>
      </trkpt>
      <trkpt lat="39.90725" lon="116.622546">
        <time>2022-06-06T12:47:24Z</time>
      </trkpt>
      <trkpt lat="39.907242" lon="116.62271">
        <time>2022-06-06T12:47:29Z</time>
      </trkpt>
      <trkpt lat="39.907249" lon="116.622852">
        <time>2022-06-06T12:47:34Z</time>
      </trkpt>
      <trkpt lat="39.907241" lon="116.623026">
        <time>2022-06-06T12:47:39Z</time>
      </trkpt>
      <trkpt lat="39.907226" lon="116.623183">
        <time>2022-06-06T12:47:44Z</time>
      </trkpt>
      <trkpt lat="39.907241" lon="116.623346">
        <time>2022-06-06T12:47:49Z</time>
      </trkpt>
      <trkpt lat="39.907276" lon="116.623528">
        <time>2022-06-06T12:47:54Z</time>
      </trkpt>
      <trkpt lat="39.90733" lon="116.623707">
        <time>2022-06-06T12:47:59Z</time>
      </trkpt>
      <trkpt lat="39.90743" lon="116.623813">
        <time>2022-06-06T12:48:04Z</time>
      </trkpt>
      <trkpt lat="39.907454" lon="116.623943">
        <time>2022-06-06T12:48:09Z</time>
      </trkpt>
      <trkpt lat="39.907454" lon="116.624101">
        <time>2022-06-06T12:48:14Z</time>
      </trkpt>
      <trkpt lat="39.907443" lon="116.624238">
        <time>2022-06-06T12:48:19Z</time>
      </trkpt>
      <trkpt lat="39.907436" lon="116.624375">
        <time>2022-06-06T12:48:24Z</time>
      </trkpt>
      <trkpt lat="39.90744" lon="116.624494">
        <time>2022-06-06T12:48:29Z</time>
      </trkpt>
      <trkpt lat="39.907455" lon="116.624617">
        <time>2022-06-06T12:48:34Z</time>
      </trkpt>
      <trkpt lat="39.907495" lon="116.624761">
        <time>2022-06-06T12:48:39Z</time>
      </trkpt>
      <trkpt lat="39.907499" lon="116.624905">
        <time>2022-06-06T12:48:44Z</time>
      </trkpt>
      <trkpt lat="39.907513" lon="116.625049">
        <time>2022-06-06T12:48:49Z</time>
      </trkpt>
      <trkpt lat="39.907526" lon="116.625173">
        <time>2022-06-06T12:48:54Z</time>
      </trkpt>
      <trkpt lat="39.90753" lon="116.625321">
        <time>2022-06-06T12:48:59Z</time>
      </trkpt>
      <trkpt lat="39.907535" lon="116.625451">
        <time>2022-06-06T12:49:04Z</time>
      </trkpt>
      <trkpt lat="39.907545" lon="116.625578">
        <time>2022-06-06T12:49:09Z</time>
      </trkpt>
      <trkpt lat="39.907549" lon="116.625735">
        <time>2022-06-06T12:49:14Z</time>
      </trkpt>
      <trkpt lat="39.907568" lon="116.625873">
        <time>2022-06-06T12:49:19Z</time>
      </trkpt>
      <trkpt lat="39.907592" lon="116.626033">
        <time>2022-06-06T12:49:24Z</time>
      </trkpt>
      <trkpt lat="39.907603" lon="116.62618">
        <time>2022-06-06T12:49:29Z</time>
      </trkpt>
      <trkpt lat="39.907616" lon="116.626338">
        <time>2022-06-06T12:49:34Z</time>
      </trkpt>
      <trkpt lat="39.907631" lon="116.626484">
        <time>2022-06-06T12:49:39Z</time>
      </trkpt>
      <trkpt lat="39.907622" lon="116.626631">
        <time>2022-06-06T12:49:44Z</time>
      </trkpt>
      <trkpt lat="39.90765" lon="116.626795">
        <time>2022-06-06T12:49:49Z</time>
      </trkpt>
      <trkpt lat="39.907694" lon="116.626939">
        <time>2022-06-06T12:49:54Z</time>
      </trkpt>
      <trkpt lat="39.907735" lon="116.627108">
        <time>2022-06-06T12:49:59Z</time>
      </trkpt>
      <trkpt lat="39.90775" lon="116.627258">
        <time>2022-06-06T12:50:04Z</time>
      </trkpt>
      <trkpt lat="39.907778" lon="116.627472">
        <time>2022-06-06T12:50:09Z</time>
      </trkpt>
      <trkpt lat="39.907797" lon="116.627561">
        <time>2022-06-06T12:50:14Z</time>
      </trkpt>
      <trkpt lat="39.907794" lon="116.627705">
        <time>2022-06-06T12:50:19Z</time>
      </trkpt>
      <trkpt lat="39.907805" lon="116.62785">
        <time>2022-06-06T12:50:24Z</time>
      </trkpt>
      <trkpt lat="39.907819" lon="116.627988">
        <time>2022-06-06T12:50:29Z</time>
      </trkpt>
      <trkpt lat="39.907824" lon="116.628101">
        <time>2022-06-06T12:50:34Z</time>
      </trkpt>
      <trkpt lat="39.907848" lon="116.628244">
        <time>2022-06-06T12:50:39Z</time>
      </trkpt>
      <trkpt lat="39.907855" lon="116.628392">
        <time>2022-06-06T12:50:44Z</time>
      </trkpt>
      <trkpt lat="39.907874" lon="116.628549">
        <time>2022-06-06T12:50:49Z</time>
      </trkpt>
      <trkpt lat="39.907914" lon="116.628717">
        <time>2022-06-06T12:50:54Z</time>
      </trkpt>
      <trkpt lat="39.907952" lon="116.628851">
        <time>2022-06-06T12:50:59Z</time>
      </trkpt>
      <trkpt lat="39.907979" lon="116.628987">
        <time>2022-06-06T12:51:04Z</time>
      </trkpt>
      <trkpt lat="39.90796" lon="116.629129">
        <time>2022-06-06T12:51:09Z</time>
      </trkpt>
      <trkpt lat="39.90797" lon="116.629302">
        <time>2022-06-06T12:51:14Z</time>
      </trkpt>
      <trkpt lat="39.907984" lon="116.629477">
        <time>2022-06-06T12:51:19Z</time>
      </trkpt>
      <trkpt lat="39.907996" lon="116.629622">
        <time>2022-06-06T12:51:24Z</time>
      </trkpt>
      <trkpt lat="39.908008" lon="116.629762">
        <time>2022-06-06T12:51:29Z</time>
      </trkpt>
      <trkpt lat="39.908047" lon="116.629907">
        <time>2022-06-06T12:51:34Z</time>
      </trkpt>
      <trkpt lat="39.908063" lon="116.630018">
        <time>2022-06-06T12:51:39Z</time>
      </trkpt>
      <trkpt lat="39.908065" lon="116.630105">
        <time>2022-06-06T12:51:44Z</time>
      </trkpt>
      <trkpt lat="39.908075" lon="116.630176">
        <time>2022-06-06T12:51:49Z</time>
      </trkpt>
      <trkpt lat="39.908086" lon="116.630294">
        <time>2022-06-06T12:51:54Z</time>
      </trkpt>
      <trkpt lat="39.9081" lon="116.630394">
        <time>2022-06-06T12:51:59Z</time>
      </trkpt>
      <trkpt lat="39.908126" lon="116.630525">
        <time>2022-06-06T12:52:04Z</time>
      </trkpt>
      <trkpt lat="39.908134" lon="116.630653">
        <time>2022-06-06T12:52:09Z</time>
      </trkpt>
      <trkpt lat="39.908136" lon="116.630786">
        <time>2022-06-06T12:52:14Z</time>
      </trkpt>
      <trkpt lat="39.90813" lon="116.630918">
        <time>2022-06-06T12:52:19Z</time>
      </trkpt>
      <trkpt lat="39.908152" lon="116.631065">
        <time>2022-06-06T12:52:24Z</time>
      </trkpt>
      <trkpt lat="39.90818" lon="116.631213">
        <time>2022-06-06T12:52:29Z</time>
      </trkpt>
      <trkpt lat="39.908221" lon="116.631378">
        <time>2022-06-06T12:52:34Z</time>
      </trkpt>
      <trkpt lat="39.908224" lon="116.631517">
        <time>2022-06-06T12:52:39Z</time>
      </trkpt>
      <trkpt lat="39.90826" lon="116.631647">
        <time>2022-06-06T12:52:44Z</time>
      </trkpt>
      <trkpt lat="39.90829" lon="116.631791">
        <time>2022-06-06T12:52:49Z</time>
      </trkpt>
      <trkpt lat="39.908334" lon="116.631959">
        <time>2022-06-06T12:52:54Z</time>
      </trkpt>
      <trkpt lat="39.908381" lon="116.632119">
        <time>2022-06-06T12:52:59Z</time>
      </trkpt>
      <trkpt lat="39.908394" lon="116.632274">
        <time>2022-06-06T12:53:04Z</time>
      </trkpt>
      <trkpt lat="39.908395" lon="116.632436">
        <time>2022-06-06T12:53:09Z</time>
      </trkpt>
      <trkpt lat="39.908414" lon="116.632601">
        <time>2022-06-06T12:53:14Z</time>
      </trkpt>
      <trkpt lat="39.908416" lon="116.632723">
        <time>2022-06-06T12:53:19Z</time>
      </trkpt>
      <trkpt lat="39.908425" lon="116.63287">
        <time>2022-06-06T12:53:24Z</time>
      </trkpt>
      <trkpt lat="39.908436" lon="116.633006">
        <time>2022-06-06T12:53:29Z</time>
      </trkpt>
      <trkpt lat="39.90843" lon="116.633139">
        <time>2022-06-06T12:53:34Z</time>
      </trkpt>
      <trkpt lat="39.908421" lon="116.633307">
        <time>2022-06-06T12:53:39Z</time>
      </trkpt>
      <trkpt lat="39.908383" lon="116.633455">
        <time>2022-06-06T12:53:44Z</time>
      </trkpt>
      <trkpt lat="39.908386" lon="116.633617">
        <time>2022-06-06T12:53:49Z</time>
      </trkpt>
      <trkpt lat="39.908402" lon="116.633768">
        <time>2022-06-06T12:53:54Z</time>
      </trkpt>
      <trkpt lat="39.90842" lon="116.633914">
        <time>2022-06-06T12:53:59Z</time>
      </trkpt>
      <trkpt lat="39.908488" lon="116.634115">
        <time>2022-06-06T12:54:04Z</time>
      </trkpt>
      <trkpt lat="39.908509" lon="116.63421">
        <time>2022-06-06T12:54:09Z</time>
      </trkpt>
      <trkpt lat="39.908501" lon="116.634367">
        <time>2022-06-06T12:54:14Z</time>
      </trkpt>
      <trkpt lat="39.908503" lon="116.634521">
        <time>2022-06-06T12:54:19Z</time>
      </trkpt>
      <trkpt lat="39.908499" lon="116.634673">
        <time>2022-06-06T12:54:24Z</time>
      </trkpt>
      <trkpt lat="39.908479" lon="116.634799">
        <time>2022-06-06T12:54:29Z</time>
      </trkpt>
      <trkpt lat="39.908484" lon="116.635031">
        <time>2022-06-06T12:54:34Z</time>
      </trkpt>
      <trkpt lat="39.908485" lon="116.635078">
        <time>2022-06-06T12:54:39Z</time>
      </trkpt>
      <trkpt lat="39.908494" lon="116.635218">
        <time>2022-06-06T12:54:44Z</time>
      </trkpt>
      <trkpt lat="39.908493" lon="116.635368">
        <time>2022-06-06T12:54:49Z</time>
      </trkpt>
      <trkpt lat="39.908495" lon="116.635539">
        <time>2022-06-06T12:54:54Z</time>
      </trkpt>
      <trkpt lat="39.908502" lon="116.635681">
        <time>2022-06-06T12:54:59Z</time>
      </trkpt>
      <trkpt lat="39.908494" lon="116.635852">
        <time>2022-06-06T12:55:04Z</time>
      </trkpt>
      <trkpt lat="39.9085" lon="116.635992">
        <time>2022-06-06T12:55:09Z</time>
      </trkpt>
      <trkpt lat="39.908483" lon="116.636116">
        <time>2022-06-06T12:55:14Z</time>
      </trkpt>
      <trkpt lat="39.908455" lon="116.636262">
        <time>2022-06-06T12:55:19Z</time>
      </trkpt>
      <trkpt lat="39.908439" lon="116.636423">
        <time>2022-06-06T12:55:24Z</time>
      </trkpt>
      <trkpt lat="39.908402" lon="116.636586">
        <time>2022-06-06T12:55:29Z</time>
      </trkpt>
      <trkpt lat="39.908371" lon="116.636728">
        <time>2022-06-06T12:55:34Z</time>
      </trkpt>
      <trkpt lat="39.90836" lon="116.636902">
        <time>2022-06-06T12:55:39Z</time>
      </trkpt>
      <trkpt lat="39.908326" lon="116.637039">
        <time>2022-06-06T12:55:44Z</time>
      </trkpt>
      <trkpt lat="39.908312" lon="116.637167">
        <time>2022-06-06T12:55:49Z</time>
      </trkpt>
      <trkpt lat="39.908285" lon="116.63728">
        <time>2022-06-06T12:55:54Z</time>
      </trkpt>
      <trkpt lat="39.908233" lon="116.637323">
        <time>2022-06-06T12:55:59Z</time>
      </trkpt>
      <trkpt lat="39.908232" lon="116.63731">
        <time>2022-06-06T12:56:04Z</time>
      </trkpt>
      <trkpt lat="39.908242" lon="116.637576">
        <time>2022-06-06T12:56:09Z</time>
      </trkpt>
      <trkpt lat="39.908324" lon="116.637724">
        <time>2022-06-06T12:56:14Z</time>
      </trkpt>
      <trkpt lat="39.908345" lon="116.637818">
        <time>2022-06-06T12:56:19Z</time>
      </trkpt>
      <trkpt lat="39.908393" lon="116.637995">
        <time>2022-06-06T12:56:24Z</time>
      </trkpt>
      <trkpt lat="39.908443" lon="116.638166">
        <time>2022-06-06T12:56:29Z</time>
      </trkpt>
      <trkpt lat="39.908484" lon="116.638351">
        <time>2022-06-06T12:56:34Z</time>
      </trkpt>
      <trkpt lat="39.908494" lon="116.638527">
        <time>2022-06-06T12:56:39Z</time>
      </trkpt>
      <trkpt lat="39.908492" lon="116.638712">
        <time>2022-06-06T12:56:44Z</time>
      </trkpt>
      <trkpt lat="39.9085" lon="116.638884">
        <time>2022-06-06T12:56:49Z</time>
      </trkpt>
      <trkpt lat="39.908497" lon="116.639043">
        <time>2022-06-06T12:56:54Z</time>
      </trkpt>
      <trkpt lat="39.908517" lon="116.639197">
        <time>2022-06-06T12:56:59Z</time>
      </trkpt>
      <trkpt lat="39.908479" lon="116.639323">
        <time>2022-06-06T12:57:04Z</time>
      </trkpt>
      <trkpt lat="39.908433" lon="116.639435">
        <time>2022-06-06T12:57:09Z</time>
      </trkpt>
      <trkpt lat="39.908512" lon="116.639599">
        <time>2022-06-06T12:57:14Z</time>
      </trkpt>
      <trkpt lat="39.908513" lon="116.639774">
        <time>2022-06-06T12:57:19Z</time>
      </trkpt>
      <trkpt lat="39.908518" lon="116.639944">
        <time>2022-06-06T12:57:24Z</time>
      </trkpt>
      <trkpt lat="39.908518" lon="116.640111">
        <time>2022-06-06T12:57:29Z</time>
      </trkpt>
      <trkpt lat="39.908522" lon="116.640268">
        <time>2022-06-06T12:57:34Z</time>
      </trkpt>
      <trkpt lat="39.908536" lon="116.640429">
        <time>2022-06-06T12:57:39Z</time>
      </trkpt>
      <trkpt lat="39.908527" lon="116.6406">
        <time>2022-06-06T12:57:44Z</time>
      </trkpt>
      <trkpt lat="39.908542" lon="116.640755">
        <time>2022-06-06T12:57:49Z</time>
      </trkpt>
      <trkpt lat="39.908575" lon="116.640928">
        <time>2022-06-06T12:57:54Z</time>
      </trkpt>
      <trkpt lat="39.90859" lon="116.641205">
        <time>2022-06-06T12:57:59Z</time>
      </trkpt>
      <trkpt lat="39.908586" lon="116.641311">
        <time>2022-06-06T12:58:04Z</time>
      </trkpt>
      <trkpt lat="39.908559" lon="116.641477">
        <time>2022-06-06T12:58:09Z</time>
      </trkpt>
      <trkpt lat="39.908571" lon="116.641639">
        <time>2022-06-06T12:58:14Z</time>
      </trkpt>
      <trkpt lat="39.908575" lon="116.641748">
        <time>2022-06-06T12:58:19Z</time>
      </trkpt>
      <trkpt lat="39.908582" lon="116.641829">
        <time>2022-06-06T12:58:24Z</time>
      </trkpt>
      <trkpt lat="39.908577" lon="116.641978">
        <time>2022-06-06T12:58:29Z</time>
      </trkpt>
      <trkpt lat="39.908607" lon="116.642159">
        <time>2022-06-06T12:58:34Z</time>
      </trkpt>
      <trkpt lat="39.908593" lon="116.642311">
        <time>2022-06-06T12:58:39Z</time>
      </trkpt>
      <trkpt lat="39.908602" lon="116.642459">
        <time>2022-06-06T12:58:44Z</time>
      </trkpt>
      <trkpt lat="39.908608" lon="116.642596">
        <time>2022-06-06T12:58:49Z</time>
      </trkpt>
      <trkpt lat="39.908619" lon="116.642736">
        <time>2022-06-06T12:58:54Z</time>
      </trkpt>
      <trkpt lat="39.908635" lon="116.642854">
        <time>2022-06-06T12:58:59Z</time>
      </trkpt>
      <trkpt lat="39.908626" lon="116.642996">
        <time>2022-06-06T12:59:04Z</time>
      </trkpt>
      <trkpt lat="39.908625" lon="116.643161">
        <time>2022-06-06T12:59:09Z</time>
      </trkpt>
      <trkpt lat="39.908629" lon="116.643337">
        <time>2022-06-06T12:59:14Z</time>
      </trkpt>
      <trkpt lat="39.908643" lon="116.643536">
        <time>2022-06-06T12:59:19Z</time>
      </trkpt>
      <trkpt lat="39.90865" lon="116.643718">
        <time>2022-06-06T12:59:24Z</time>
      </trkpt>
      <trkpt lat="39.908662" lon="116.643897">
        <time>2022-06-06T12:59:29Z</time>
      </trkpt>
      <trkpt lat="39.908653" lon="116.644071">
        <time>2022-06-06T12:59:34Z</time>
      </trkpt>
      <trkpt lat="39.908666" lon="116.644276">
        <time>2022-06-06T12:59:39Z</time>
      </trkpt>
      <trkpt lat="39.908659" lon="116.644474">
        <time>2022-06-06T12:59:44Z</time>
      </trkpt>
      <trkpt lat="39.908662" lon="116.644678">
        <time>2022-06-06T12:59:49Z</time>
      </trkpt>
      <trkpt lat="39.908657" lon="116.644859">
        <time>2022-06-06T12:59:54Z</time>
      </trkpt>
      <trkpt lat="39.908643" lon="116.64504">
        <time>2022-06-06T12:59:59Z</time>
      </trkpt>
      <trkpt lat="39.90868" lon="116.645202">
        <time>2022-06-06T13:00:04Z</time>
      </trkpt>
      <trkpt lat="39.908739" lon="116.645358">
        <time>2022-06-06T13:00:09Z</time>
      </trkpt>
      <trkpt lat="39.908798" lon="116.645524">
        <time>2022-06-06T13:00:14Z</time>
      </trkpt>
      <trkpt lat="39.908848" lon="116.645704">
        <time>2022-06-06T13:00:19Z</time>
      </trkpt>
      <trkpt lat="39.908884" lon="116.645876">
        <time>2022-06-06T13:00:24Z</time>
      </trkpt>
      <trkpt lat="39.908917" lon="116.646033">
        <time>2022-06-06T13:00:29Z</time>
      </trkpt>
      <trkpt lat="39.908942" lon="116.646216">
        <time>2022-06-06T13:00:34Z</time>
      </trkpt>
      <trkpt lat="39.90901" lon="116.646409">
        <time>2022-06-06T13:00:39Z</time>
      </trkpt>
      <trkpt lat="39.909082" lon="116.646572">
        <time>2022-06-06T13:00:44Z</time>
      </trkpt>
      <trkpt lat="39.90913" lon="116.64678">
        <time>2022-06-06T13:00:49Z</time>
      </trkpt>
      <trkpt lat="39.909168" lon="116.646959">
        <time>2022-06-06T13:00:54Z</time>
      </trkpt>
      <trkpt lat="39.909205" lon="116.647126">
        <time>2022-06-06T13:00:59Z</time>
      </trkpt>
      <trkpt lat="39.909252" lon="116.647311">
        <time>2022-06-06T13:01:04Z</time>
      </trkpt>
      <trkpt lat="39.909298" lon="116.647504">
        <time>2022-06-06T13:01:09Z</time>
      </trkpt>
      <trkpt lat="39.90935" lon="116.647613">
        <time>2022-06-06T13:01:14Z</time>
      </trkpt>
      <trkpt lat="39.909393" lon="116.647763">
        <time>2022-06-06T13:01:19Z</time>
      </trkpt>
      <trkpt lat="39.909435" lon="116.647892">
        <time>2022-06-06T13:01:24Z</time>
      </trkpt>
      <trkpt lat="39.909482" lon="116.648032">
        <time>2022-06-06T13:01:29Z</time>
      </trkpt>
      <trkpt lat="39.909519" lon="116.648168">
        <time>2022-06-06T13:01:34Z</time>
      </trkpt>
      <trkpt lat="39.909556" lon="116.64831">
        <time>2022-06-06T13:01:39Z</time>
      </trkpt>
      <trkpt lat="39.909591" lon="116.648451">
        <time>2022-06-06T13:01:44Z</time>
      </trkpt>
      <trkpt lat="39.909629" lon="116.648588">
        <time>2022-06-06T13:01:49Z</time>
      </trkpt>
      <trkpt lat="39.909665" lon="116.648747">
        <time>2022-06-06T13:01:54Z</time>
      </trkpt>
      <trkpt lat="39.90971" lon="116.648895">
        <time>2022-06-06T13:01:59Z</time>
      </trkpt>
      <trkpt lat="39.909769" lon="116.649055">
        <time>2022-06-06T13:02:04Z</time>
      </trkpt>
      <trkpt lat="39.909789" lon="116.649177">
        <time>2022-06-06T13:02:09Z</time>
      </trkpt>
      <trkpt lat="39.909839" lon="116.649359">
        <time>2022-06-06T13:02:14Z</time>
      </trkpt>
      <trkpt lat="39.909886" lon="116.649508">
        <time>2022-06-06T13:02:19Z</time>
      </trkpt>
      <trkpt lat="39.909911" lon="116.649683">
        <time>2022-06-06T13:02:24Z</time>
      </trkpt>
      <trkpt lat="39.909946" lon="116.649838">
        <time>2022-06-06T13:02:29Z</time>
      </trkpt>
      <trkpt lat="39.909968" lon="116.649985">
        <time>2022-06-06T13:02:34Z</time>
      </trkpt>
      <trkpt lat="39.90999" lon="116.650161">
        <time>2022-06-06T13:02:39Z</time>
      </trkpt>
      <trkpt lat="39.910021" lon="116.65034">
        <time>2022-06-06T13:02:44Z</time>
      </trkpt>
      <trkpt lat="39.910044" lon="116.650506">
        <time>2022-06-06T13:02:49Z</time>
      </trkpt>
      <trkpt lat="39.910064" lon="116.650622">
        <time>2022-06-06T13:02:54Z</time>
      </trkpt>
      <trkpt lat="39.910066" lon="116.650741">
        <time>2022-06-06T13:02:59Z</time>
      </trkpt>
      <trkpt lat="39.910052" lon="116.650875">
        <time>2022-06-06T13:03:04Z</time>
      </trkpt>
      <trkpt lat="39.909996" lon="116.650961">
        <time>2022-06-06T13:03:09Z</time>
      </trkpt>
      <trkpt lat="39.90997" lon="116.650969">
        <time>2022-06-06T13:03:14Z</time>
      </trkpt>
      <trkpt lat="39.910015" lon="116.651013">
        <time>2022-06-06T13:03:19Z</time>
      </trkpt>
      <trkpt lat="39.910116" lon="116.650997">
        <time>2022-06-06T13:03:24Z</time>
      </trkpt>
      <trkpt lat="39.910224" lon="116.650965">
        <time>2022-06-06T13:03:29Z</time>
      </trkpt>
      <trkpt lat="39.910334" lon="116.650952">
        <time>2022-06-06T13:03:34Z</time>
      </trkpt>
      <trkpt lat="39.910457" lon="116.650938">
        <time>2022-06-06T13:03:39Z</time>
      </trkpt>
      <trkpt lat="39.910583" lon="116.65091">
        <time>2022-06-06T13:03:44Z</time>
      </trkpt>
      <trkpt lat="39.910702" lon="116.650898">
        <time>2022-06-06T13:03:49Z</time>
      </trkpt>
      <trkpt lat="39.910812" lon="116.650884">
        <time>2022-06-06T13:03:54Z</time>
      </trkpt>
      <trkpt lat="39.910897" lon="116.650866">
        <time>2022-06-06T13:03:59Z</time>
      </trkpt>
      <trkpt lat="39.911019" lon="116.650849">
        <time>2022-06-06T13:04:04Z</time>
      </trkpt>
      <trkpt lat="39.911142" lon="116.650815">
        <time>2022-06-06T13:04:09Z</time>
      </trkpt>
      <trkpt lat="39.911273" lon="116.650814">
        <time>2022-06-06T13:04:14Z</time>
      </trkpt>
      <trkpt lat="39.911319" lon="116.650794">
        <time>2022-06-06T13:04:19Z</time>
      </trkpt>
      <trkpt lat="39.911319" lon="116.650794">
        <time>2022-06-06T13:04:24Z</time>
      </trkpt>
      <trkpt lat="39.911337" lon="116.650801">
        <time>2022-06-06T13:04:29Z</time>
      </trkpt>
      <trkpt lat="39.911371" lon="116.651211">
        <time>2022-06-06T13:04:34Z</time>
      </trkpt>
      <trkpt lat="39.911398" lon="116.651341">
        <time>2022-06-06T13:04:39Z</time>
      </trkpt>
      <trkpt lat="39.911353" lon="116.651471">
        <time>2022-06-06T13:04:44Z</time>
      </trkpt>
      <trkpt lat="39.911283" lon="116.6516">
        <time>2022-06-06T13:04:49Z</time>
      </trkpt>
      <trkpt lat="39.911199" lon="116.651656">
        <time>2022-06-06T13:04:54Z</time>
      </trkpt>
      <trkpt lat="39.911173" lon="116.651742">
        <time>2022-06-06T13:04:59Z</time>
      </trkpt>
      <trkpt lat="39.911166" lon="116.6518">
        <time>2022-06-06T13:05:04Z</time>
      </trkpt>
      <trkpt lat="39.911177" lon="116.651841">
        <time>2022-06-06T13:05:09Z</time>
      </trkpt>
      <trkpt lat="39.91115" lon="116.651885">
        <time>2022-06-06T13:05:14Z</time>
      </trkpt>
      <trkpt lat="39.911105" lon="116.651973">
        <time>2022-06-06T13:05:19Z</time>
      </trkpt>
      <trkpt lat="39.911006" lon="116.652036">
        <time>2022-06-06T13:05:24Z</time>
      </trkpt>
      <trkpt lat="39.911085" lon="116.652189">
        <time>2022-06-06T13:05:29Z</time>
      </trkpt>
      <trkpt lat="39.911184" lon="116.652326">
        <time>2022-06-06T13:05:34Z</time>
      </trkpt>
      <trkpt lat="39.911288" lon="116.652425">
        <time>2022-06-06T13:05:39Z</time>
      </trkpt>
      <trkpt lat="39.911405" lon="116.652535">
        <time>2022-06-06T13:05:44Z</time>
      </trkpt>
      <trkpt lat="39.911529" lon="116.652612">
        <time>2022-06-06T13:05:49Z</time>
      </trkpt>
      <trkpt lat="39.911628" lon="116.652702">
        <time>2022-06-06T13:05:54Z</time>
      </trkpt>
      <trkpt lat="39.91176" lon="116.652789">
        <time>2022-06-06T13:05:59Z</time>
      </trkpt>
      <trkpt lat="39.911894" lon="116.652886">
        <time>2022-06-06T13:06:04Z</time>
      </trkpt>
      <trkpt lat="39.911995" lon="116.652957">
        <time>2022-06-06T13:06:09Z</time>
      </trkpt>
      <trkpt lat="39.912103" lon="116.653055">
        <time>2022-06-06T13:06:14Z</time>
      </trkpt>
      <trkpt lat="39.912219" lon="116.653159">
        <time>2022-06-06T13:06:19Z</time>
      </trkpt>
      <trkpt lat="39.912302" lon="116.653215">
        <time>2022-06-06T13:06:24Z</time>
      </trkpt>
      <trkpt lat="39.912386" lon="116.653285">
        <time>2022-06-06T13:06:29Z</time>
      </trkpt>
      <trkpt lat="39.912485" lon="116.653352">
        <time>2022-06-06T13:06:34Z</time>
      </trkpt>
      <trkpt lat="39.912585" lon="116.653413">
        <time>2022-06-06T13:06:39Z</time>
      </trkpt>
      <trkpt lat="39.912703" lon="116.653484">
        <time>2022-06-06T13:06:44Z</time>
      </trkpt>
      <trkpt lat="39.912813" lon="116.653563">
        <time>2022-06-06T13:06:49Z</time>
      </trkpt>
      <trkpt lat="39.912905" lon="116.653637">
        <time>2022-06-06T13:06:54Z</time>
      </trkpt>
      <trkpt lat="39.913002" lon="116.653732">
        <time>2022-06-06T13:06:59Z</time>
      </trkpt>
      <trkpt lat="39.913074" lon="116.65382">
        <time>2022-06-06T13:07:04Z</time>
      </trkpt>
      <trkpt lat="39.913168" lon="116.653925">
        <time>2022-06-06T13:07:09Z</time>
      </trkpt>
      <trkpt lat="39.913251" lon="116.654013">
        <time>2022-06-06T13:07:14Z</time>
      </trkpt>
      <trkpt lat="39.913357" lon="116.654092">
        <time>2022-06-06T13:07:19Z</time>
      </trkpt>
      <trkpt lat="39.913467" lon="116.654185">
        <time>2022-06-06T13:07:24Z</time>
      </trkpt>
      <trkpt lat="39.913578" lon="116.654298">
        <time>2022-06-06T13:07:29Z</time>
      </trkpt>
      <trkpt lat="39.913691" lon="116.654405">
        <time>2022-06-06T13:07:34Z</time>
      </trkpt>
      <trkpt lat="39.913816" lon="116.654494">
        <time>2022-06-06T13:07:39Z</time>
      </trkpt>
      <trkpt lat="39.913923" lon="116.654574">
        <time>2022-06-06T13:07:44Z</time>
      </trkpt>
      <trkpt lat="39.914018" lon="116.65469">
        <time>2022-06-06T13:07:49Z</time>
      </trkpt>
      <trkpt lat="39.914125" lon="116.654744">
        <time>2022-06-06T13:07:54Z</time>
      </trkpt>
      <trkpt lat="39.914125" lon="116.654744">
        <time>2022-06-06T13:07:59Z</time>
      </trkpt>
      <trkpt lat="39.914186" lon="116.654807">
        <time>2022-06-06T13:08:04Z</time>
      </trkpt>
      <trkpt lat="39.914288" lon="116.655012">
        <time>2022-06-06T13:08:09Z</time>
      </trkpt>
      <trkpt lat="39.914384" lon="116.655085">
        <time>2022-06-06T13:08:14Z</time>
      </trkpt>
      <trkpt lat="39.914466" lon="116.655191">
        <time>2022-06-06T13:08:19Z</time>
      </trkpt>
      <trkpt lat="39.91456" lon="116.655311">
        <time>2022-06-06T13:08:24Z</time>
      </trkpt>
      <trkpt lat="39.914645" lon="116.655403">
        <time>2022-06-06T13:08:29Z</time>
      </trkpt>
      <trkpt lat="39.914717" lon="116.655486">
        <time>2022-06-06T13:08:34Z</time>
      </trkpt>
      <trkpt lat="39.914756" lon="116.65555">
        <time>2022-06-06T13:08:39Z</time>
      </trkpt>
      <trkpt lat="39.914821" lon="116.655624">
        <time>2022-06-06T13:08:44Z</time>
      </trkpt>
      <trkpt lat="39.914881" lon="116.655711">
        <time>2022-06-06T13:08:49Z</time>
      </trkpt>
      <trkpt lat="39.914953" lon="116.655855">
        <time>2022-06-06T13:08:54Z</time>
      </trkpt>
      <trkpt lat="39.915015" lon="116.655967">
        <time>2022-06-06T13:08:59Z</time>
      </trkpt>
      <trkpt lat="39.915055" lon="116.656056">
        <time>2022-06-06T13:09:04Z</time>
      </trkpt>
      <trkpt lat="39.915119" lon="116.656184">
        <time>2022-06-06T13:09:09Z</time>
      </trkpt>
      <trkpt lat="39.915125" lon="116.656237">
        <time>2022-06-06T13:09:14Z</time>
      </trkpt>
      <trkpt lat="39.915195" lon="116.656285">
        <time>2022-06-06T13:09:19Z</time>
      </trkpt>
      <trkpt lat="39.915348" lon="116.65642">
        <time>2022-06-06T13:09:24Z</time>
      </trkpt>
      <trkpt lat="39.915395" lon="116.656567">
        <time>2022-06-06T13:09:29Z</time>
      </trkpt>
      <trkpt lat="39.915475" lon="116.656812">
        <time>2022-06-06T13:09:34Z</time>
      </trkpt>
      <trkpt lat="39.91555" lon="116.65698">
        <time>2022-06-06T13:09:39Z</time>
      </trkpt>
      <trkpt lat="39.915617" lon="116.65711">
        <time>2022-06-06T13:09:44Z</time>
      </trkpt>
      <trkpt lat="39.915708" lon="116.657237">
        <time>2022-06-06T13:09:49Z</time>
      </trkpt>
      <trkpt lat="39.915793" lon="116.657373">
        <time>2022-06-06T13:09:54Z</time>
      </trkpt>
      <trkpt lat="39.91588" lon="116.657502">
        <time>2022-06-06T13:09:59Z</time>
      </trkpt>
      <trkpt lat="39.915927" lon="116.657556">
        <time>2022-06-06T13:10:04Z</time>
      </trkpt>
      <trkpt lat="39.915974" lon="116.657611">
        <time>2022-06-06T13:10:09Z</time>
      </trkpt>
      <trkpt lat="39.916015" lon="116.657662">
        <time>2022-06-06T13:10:14Z</time>
      </trkpt>
      <trkpt lat="39.91608" lon="116.657741">
        <time>2022-06-06T13:10:19Z</time>
      </trkpt>
      <trkpt lat="39.916137" lon="116.657839">
        <time>2022-06-06T13:10:24Z</time>
      </trkpt>
      <trkpt lat="39.916198" lon="116.657916">
        <time>2022-06-06T13:10:29Z</time>
      </trkpt>
      <trkpt lat="39.916266" lon="116.658017">
        <time>2022-06-06T13:10:34Z</time>
      </trkpt>
      <trkpt lat="39.91634" lon="116.658141">
        <time>2022-06-06T13:10:39Z</time>
      </trkpt>
      <trkpt lat="39.916411" lon="116.658262">
        <time>2022-06-06T13:10:44Z</time>
      </trkpt>
      <trkpt lat="39.916475" lon="116.658374">
        <time>2022-06-06T13:10:49Z</time>
      </trkpt>
      <trkpt lat="39.916544" lon="116.658496">
        <time>2022-06-06T13:10:54Z</time>
      </trkpt>
      <trkpt lat="39.916602" lon="116.658611">
        <time>2022-06-06T13:10:59Z</time>
      </trkpt>
      <trkpt lat="39.91666" lon="116.658724">
        <time>2022-06-06T13:11:04Z</time>
      </trkpt>
      <trkpt lat="39.916723" lon="116.658821">
        <time>2022-06-06T13:11:09Z</time>
      </trkpt>
      <trkpt lat="39.91678" lon="116.658872">
        <time>2022-06-06T13:11:14Z</time>
      </trkpt>
      <trkpt lat="39.916834" lon="116.658931">
        <time>2022-06-06T13:11:19Z</time>
      </trkpt>
      <trkpt lat="39.91689" lon="116.65903">
        <time>2022-06-06T13:11:24Z</time>
      </trkpt>
      <trkpt lat="39.91695" lon="116.659125">
        <time>2022-06-06T13:11:29Z</time>
      </trkpt>
      <trkpt lat="39.91702" lon="116.65923">
        <time>2022-06-06T13:11:34Z</time>
      </trkpt>
      <trkpt lat="39.91709" lon="116.659324">
        <time>2022-06-06T13:11:39Z</time>
      </trkpt>
      <trkpt lat="39.917053" lon="116.659276">
        <time>2022-06-06T13:11:44Z</time>
      </trkpt>
      <trkpt lat="39.916959" lon="116.659144">
        <time>2022-06-06T13:11:49Z</time>
      </trkpt>
      <trkpt lat="39.916878" lon="116.65905">
        <time>2022-06-06T13:11:54Z</time>
      </trkpt>
      <trkpt lat="39.916832" lon="116.658997">
        <time>2022-06-06T13:11:59Z</time>
      </trkpt>
      <trkpt lat="39.916828" lon="116.658962">
        <time>2022-06-06T13:12:04Z</time>
      </trkpt>
      <trkpt lat="39.916774" lon="116.658851">
        <time>2022-06-06T13:12:09Z</time>
      </trkpt>
      <trkpt lat="39.916702" lon="116.658759">
        <time>2022-06-06T13:12:14Z</time>
      </trkpt>
      <trkpt lat="39.91663" lon="116.65866">
        <time>2022-06-06T13:12:19Z</time>
      </trkpt>
      <trkpt lat="39.916561" lon="116.65853">
        <time>2022-06-06T13:12:24Z</time>
      </trkpt>
      <trkpt lat="39.91649" lon="116.658432">
        <time>2022-06-06T13:12:29Z</time>
      </trkpt>
      <trkpt lat="39.916452" lon="116.658368">
        <time>2022-06-06T13:12:34Z</time>
      </trkpt>
      <trkpt lat="39.916414" lon="116.658309">
        <time>2022-06-06T13:12:39Z</time>
      </trkpt>
      <trkpt lat="39.916369" lon="116.658242">
        <time>2022-06-06T13:12:44Z</time>
      </trkpt>
      <trkpt lat="39.916294" lon="116.658122">
        <time>2022-06-06T13:12:49Z</time>
      </trkpt>
      <trkpt lat="39.916218" lon="116.657991">
        <time>2022-06-06T13:12:54Z</time>
      </trkpt>
      <trkpt lat="39.91613" lon="116.657848">
        <time>2022-06-06T13:12:59Z</time>
      </trkpt>
      <trkpt lat="39.916067" lon="116.657763">
        <time>2022-06-06T13:13:04Z</time>
      </trkpt>
      <trkpt lat="39.915987" lon="116.657665">
        <time>2022-06-06T13:13:09Z</time>
      </trkpt>
      <trkpt lat="39.915883" lon="116.657511">
        <time>2022-06-06T13:13:14Z</time>
      </trkpt>
      <trkpt lat="39.915802" lon="116.657391">
        <time>2022-06-06T13:13:19Z</time>
      </trkpt>
      <trkpt lat="39.915719" lon="116.657282">
        <time>2022-06-06T13:13:24Z</time>
      </trkpt>
      <trkpt lat="39.91567" lon="116.657227">
        <time>2022-06-06T13:13:29Z</time>
      </trkpt>
      <trkpt lat="39.915644" lon="116.657193">
        <time>2022-06-06T13:13:34Z</time>
      </trkpt>
      <trkpt lat="39.915611" lon="116.657165">
        <time>2022-06-06T13:13:39Z</time>
      </trkpt>
      <trkpt lat="39.91557" lon="116.657084">
        <time>2022-06-06T13:13:44Z</time>
      </trkpt>
      <trkpt lat="39.915521" lon="116.657007">
        <time>2022-06-06T13:13:49Z</time>
      </trkpt>
      <trkpt lat="39.91551" lon="116.656969">
        <time>2022-06-06T13:13:54Z</time>
      </trkpt>
      <trkpt lat="39.915496" lon="116.656971">
        <time>2022-06-06T13:13:59Z</time>
      </trkpt>
      <trkpt lat="39.915464" lon="116.656893">
        <time>2022-06-06T13:14:04Z</time>
      </trkpt>
      <trkpt lat="39.915299" lon="116.656541">
        <time>2022-06-06T13:14:09Z</time>
      </trkpt>
      <trkpt lat="39.915152" lon="116.65623">
        <time>2022-06-06T13:14:14Z</time>
      </trkpt>
      <trkpt lat="39.915063" lon="116.656091">
        <time>2022-06-06T13:14:19Z</time>
      </trkpt>
      <trkpt lat="39.914999" lon="116.655984">
        <time>2022-06-06T13:14:24Z</time>
      </trkpt>
      <trkpt lat="39.914957" lon="116.655901">
        <time>2022-06-06T13:14:29Z</time>
      </trkpt>
      <trkpt lat="39.914929" lon="116.655841">
        <time>2022-06-06T13:14:34Z</time>
      </trkpt>
      <trkpt lat="39.914886" lon="116.655745">
        <time>2022-06-06T13:14:39Z</time>
      </trkpt>
      <trkpt lat="39.914793" lon="116.655599">
        <time>2022-06-06T13:14:44Z</time>
      </trkpt>
      <trkpt lat="39.914725" lon="116.655511">
        <time>2022-06-06T13:14:49Z</time>
      </trkpt>
      <trkpt lat="39.914639" lon="116.65539">
        <time>2022-06-06T13:14:54Z</time>
      </trkpt>
      <trkpt lat="39.914515" lon="116.655274">
        <time>2022-06-06T13:14:59Z</time>
      </trkpt>
      <trkpt lat="39.914427" lon="116.65517">
        <time>2022-06-06T13:15:04Z</time>
      </trkpt>
      <trkpt lat="39.914339" lon="116.655082">
        <time>2022-06-06T13:15:09Z</time>
      </trkpt>
      <trkpt lat="39.914235" lon="116.654976">
        <time>2022-06-06T13:15:14Z</time>
      </trkpt>
      <trkpt lat="39.914145" lon="116.654886">
        <time>2022-06-06T13:15:19Z</time>
      </trkpt>
      <trkpt lat="39.91409" lon="116.654813">
        <time>2022-06-06T13:15:24Z</time>
      </trkpt>
      <trkpt lat="39.913983" lon="116.654706">
        <time>2022-06-06T13:15:29Z</time>
      </trkpt>
      <trkpt lat="39.913873" lon="116.654625">
        <time>2022-06-06T13:15:34Z</time>
      </trkpt>
      <trkpt lat="39.913774" lon="116.654522">
        <time>2022-06-06T13:15:39Z</time>
      </trkpt>
      <trkpt lat="39.913689" lon="116.654414">
        <time>2022-06-06T13:15:44Z</time>
      </trkpt>
      <trkpt lat="39.913627" lon="116.654365">
        <time>2022-06-06T13:15:49Z</time>
      </trkpt>
      <trkpt lat="39.913567" lon="116.654298">
        <time>2022-06-06T13:15:54Z</time>
      </trkpt>
      <trkpt lat="39.913512" lon="116.654245">
        <time>2022-06-06T13:15:59Z</time>
      </trkpt>
      <trkpt lat="39.913456" lon="116.654175">
        <time>2022-06-06T13:16:04Z</time>
      </trkpt>
      <trkpt lat="39.913399" lon="116.654118">
        <time>2022-06-06T13:16:09Z</time>
      </trkpt>
      <trkpt lat="39.913312" lon="116.654059">
        <time>2022-06-06T13:16:14Z</time>
      </trkpt>
      <trkpt lat="39.913186" lon="116.654014">
        <time>2022-06-06T13:16:19Z</time>
      </trkpt>
      <trkpt lat="39.91308" lon="116.653936">
        <time>2022-06-06T13:16:24Z</time>
      </trkpt>
      <trkpt lat="39.912987" lon="116.653866">
        <time>2022-06-06T13:16:29Z</time>
      </trkpt>
      <trkpt lat="39.9129" lon="116.653761">
        <time>2022-06-06T13:16:34Z</time>
      </trkpt>
      <trkpt lat="39.912816" lon="116.653679">
        <time>2022-06-06T13:16:39Z</time>
      </trkpt>
      <trkpt lat="39.912719" lon="116.653599">
        <time>2022-06-06T13:16:44Z</time>
      </trkpt>
      <trkpt lat="39.91263" lon="116.653524">
        <time>2022-06-06T13:16:49Z</time>
      </trkpt>
      <trkpt lat="39.91254" lon="116.653448">
        <time>2022-06-06T13:16:54Z</time>
      </trkpt>
      <trkpt lat="39.912465" lon="116.653402">
        <time>2022-06-06T13:16:59Z</time>
      </trkpt>
      <trkpt lat="39.912364" lon="116.653345">
        <time>2022-06-06T13:17:04Z</time>
      </trkpt>
      <trkpt lat="39.912274" lon="116.6533">
        <time>2022-06-06T13:17:09Z</time>
      </trkpt>
      <trkpt lat="39.912203" lon="116.653237">
        <time>2022-06-06T13:17:14Z</time>
      </trkpt>
      <trkpt lat="39.912141" lon="116.653177">
        <time>2022-06-06T13:17:19Z</time>
      </trkpt>
      <trkpt lat="39.912063" lon="116.653106">
        <time>2022-06-06T13:17:24Z</time>
      </trkpt>
      <trkpt lat="39.911994" lon="116.65302">
        <time>2022-06-06T13:17:29Z</time>
      </trkpt>
      <trkpt lat="39.911939" lon="116.652948">
        <time>2022-06-06T13:17:34Z</time>
      </trkpt>
      <trkpt lat="39.911862" lon="116.652872">
        <time>2022-06-06T13:17:39Z</time>
      </trkpt>
      <trkpt lat="39.911758" lon="116.652807">
        <time>2022-06-06T13:17:44Z</time>
      </trkpt>
      <trkpt lat="39.911704" lon="116.65277">
        <time>2022-06-06T13:17:49Z</time>
      </trkpt>
      <trkpt lat="39.911653" lon="116.652738">
        <time>2022-06-06T13:17:54Z</time>
      </trkpt>
      <trkpt lat="39.911596" lon="116.652683">
        <time>2022-06-06T13:17:59Z</time>
      </trkpt>
      <trkpt lat="39.911506" lon="116.652612">
        <time>2022-06-06T13:18:04Z</time>
      </trkpt>
      <trkpt lat="39.911429" lon="116.652542">
        <time>2022-06-06T13:18:09Z</time>
      </trkpt>
      <trkpt lat="39.911344" lon="116.652454">
        <time>2022-06-06T13:18:14Z</time>
      </trkpt>
      <trkpt lat="39.911264" lon="116.652355">
        <time>2022-06-06T13:18:19Z</time>
      </trkpt>
      <trkpt lat="39.911184" lon="116.652253">
        <time>2022-06-06T13:18:24Z</time>
      </trkpt>
      <trkpt lat="39.911105" lon="116.652145">
        <time>2022-06-06T13:18:29Z</time>
      </trkpt>
      <trkpt lat="39.911043" lon="116.652013">
        <time>2022-06-06T13:18:34Z</time>
      </trkpt>
      <trkpt lat="39.91102" lon="116.651881">
        <time>2022-06-06T13:18:39Z</time>
      </trkpt>
      <trkpt lat="39.911006" lon="116.651742">
        <time>2022-06-06T13:18:44Z</time>
      </trkpt>
      <trkpt lat="39.910967" lon="116.651632">
        <time>2022-06-06T13:18:49Z</time>
      </trkpt>
      <trkpt lat="39.910935" lon="116.651491">
        <time>2022-06-06T13:18:54Z</time>
      </trkpt>
      <trkpt lat="39.910892" lon="116.651416">
        <time>2022-06-06T13:18:59Z</time>
      </trkpt>
      <trkpt lat="39.910914" lon="116.651546">
        <time>2022-06-06T13:19:04Z</time>
      </trkpt>
      <trkpt lat="39.910951" lon="116.65169">
        <time>2022-06-06T13:19:09Z</time>
      </trkpt>
      <trkpt lat="39.910995" lon="116.651808">
        <time>2022-06-06T13:19:14Z</time>
      </trkpt>
      <trkpt lat="39.911043" lon="116.65193">
        <time>2022-06-06T13:19:19Z</time>
      </trkpt>
      <trkpt lat="39.911071" lon="116.652051">
        <time>2022-06-06T13:19:24Z</time>
      </trkpt>
      <trkpt lat="39.911107" lon="116.652134">
        <time>2022-06-06T13:19:29Z</time>
      </trkpt>
      <trkpt lat="39.911156" lon="116.652206">
        <time>2022-06-06T13:19:34Z</time>
      </trkpt>
      <trkpt lat="39.911227" lon="116.652295">
        <time>2022-06-06T13:19:39Z</time>
      </trkpt>
      <trkpt lat="39.911297" lon="116.652403">
        <time>2022-06-06T13:19:44Z</time>
      </trkpt>
      <trkpt lat="39.911369" lon="116.652474">
        <time>2022-06-06T13:19:49Z</time>
      </trkpt>
      <trkpt lat="39.911436" lon="116.652515">
        <time>2022-06-06T13:19:54Z</time>
      </trkpt>
      <trkpt lat="39.911511" lon="116.652603">
        <time>2022-06-06T13:19:59Z</time>
      </trkpt>
      <trkpt lat="39.911603" lon="116.652686">
        <time>2022-06-06T13:20:04Z</time>
      </trkpt>
      <trkpt lat="39.911708" lon="116.652749">
        <time>2022-06-06T13:20:09Z</time>
      </trkpt>
      <trkpt lat="39.911803" lon="116.652779">
        <time>2022-06-06T13:20:14Z</time>
      </trkpt>
      <trkpt lat="39.911889" lon="116.652822">
        <time>2022-06-06T13:20:19Z</time>
      </trkpt>
      <trkpt lat="39.911977" lon="116.652894">
        <time>2022-06-06T13:20:24Z</time>
      </trkpt>
      <trkpt lat="39.912057" lon="116.653006">
        <time>2022-06-06T13:20:29Z</time>
      </trkpt>
      <trkpt lat="39.912147" lon="116.653095">
        <time>2022-06-06T13:20:34Z</time>
      </trkpt>
      <trkpt lat="39.912213" lon="116.653148">
        <time>2022-06-06T13:20:39Z</time>
      </trkpt>
      <trkpt lat="39.912276" lon="116.653179">
        <time>2022-06-06T13:20:44Z</time>
      </trkpt>
      <trkpt lat="39.912342" lon="116.653234">
        <time>2022-06-06T13:20:49Z</time>
      </trkpt>
      <trkpt lat="39.912431" lon="116.653304">
        <time>2022-06-06T13:20:54Z</time>
      </trkpt>
      <trkpt lat="39.912534" lon="116.653359">
        <time>2022-06-06T13:20:59Z</time>
      </trkpt>
      <trkpt lat="39.912619" lon="116.6534">
        <time>2022-06-06T13:21:04Z</time>
      </trkpt>
      <trkpt lat="39.91272" lon="116.653461">
        <time>2022-06-06T13:21:09Z</time>
      </trkpt>
      <trkpt lat="39.912816" lon="116.65355">
        <time>2022-06-06T13:21:14Z</time>
      </trkpt>
      <trkpt lat="39.912923" lon="116.653641">
        <time>2022-06-06T13:21:19Z</time>
      </trkpt>
      <trkpt lat="39.913016" lon="116.653751">
        <time>2022-06-06T13:21:24Z</time>
      </trkpt>
      <trkpt lat="39.913113" lon="116.653832">
        <time>2022-06-06T13:21:29Z</time>
      </trkpt>
      <trkpt lat="39.913209" lon="116.653912">
        <time>2022-06-06T13:21:34Z</time>
      </trkpt>
      <trkpt lat="39.913285" lon="116.653969">
        <time>2022-06-06T13:21:39Z</time>
      </trkpt>
      <trkpt lat="39.91335" lon="116.653998">
        <time>2022-06-06T13:21:44Z</time>
      </trkpt>
      <trkpt lat="39.913463" lon="116.654065">
        <time>2022-06-06T13:21:49Z</time>
      </trkpt>
      <trkpt lat="39.913579" lon="116.654164">
        <time>2022-06-06T13:21:54Z</time>
      </trkpt>
      <trkpt lat="39.913673" lon="116.654284">
        <time>2022-06-06T13:21:59Z</time>
      </trkpt>
      <trkpt lat="39.91374" lon="116.654384">
        <time>2022-06-06T13:22:04Z</time>
      </trkpt>
      <trkpt lat="39.913818" lon="116.654476">
        <time>2022-06-06T13:22:09Z</time>
      </trkpt>
      <trkpt lat="39.913899" lon="116.654536">
        <time>2022-06-06T13:22:14Z</time>
      </trkpt>
      <trkpt lat="39.913989" lon="116.65461">
        <time>2022-06-06T13:22:19Z</time>
      </trkpt>
      <trkpt lat="39.91407" lon="116.654657">
        <time>2022-06-06T13:22:24Z</time>
      </trkpt>
      <trkpt lat="39.914169" lon="116.654744">
        <time>2022-06-06T13:22:29Z</time>
      </trkpt>
      <trkpt lat="39.914244" lon="116.654858">
        <time>2022-06-06T13:22:34Z</time>
      </trkpt>
      <trkpt lat="39.914328" lon="116.654925">
        <time>2022-06-06T13:22:39Z</time>
      </trkpt>
      <trkpt lat="39.914372" lon="116.65499">
        <time>2022-06-06T13:22:44Z</time>
      </trkpt>
      <trkpt lat="39.914409" lon="116.655049">
        <time>2022-06-06T13:22:49Z</time>
      </trkpt>
      <trkpt lat="39.91444" lon="116.65513">
        <time>2022-06-06T13:22:54Z</time>
      </trkpt>
      <trkpt lat="39.914505" lon="116.655206">
        <time>2022-06-06T13:22:59Z</time>
      </trkpt>
      <trkpt lat="39.91457" lon="116.655272">
        <time>2022-06-06T13:23:04Z</time>
      </trkpt>
      <trkpt lat="39.914645" lon="116.655375">
        <time>2022-06-06T13:23:09Z</time>
      </trkpt>
      <trkpt lat="39.914707" lon="116.655472">
        <time>2022-06-06T13:23:14Z</time>
      </trkpt>
      <trkpt lat="39.914759" lon="116.655551">
        <time>2022-06-06T13:23:19Z</time>
      </trkpt>
      <trkpt lat="39.914815" lon="116.655641">
        <time>2022-06-06T13:23:24Z</time>
      </trkpt>
      <trkpt lat="39.914883" lon="116.655762">
        <time>2022-06-06T13:23:29Z</time>
      </trkpt>
      <trkpt lat="39.914959" lon="116.655893">
        <time>2022-06-06T13:23:34Z</time>
      </trkpt>
      <trkpt lat="39.915022" lon="116.656022">
        <time>2022-06-06T13:23:39Z</time>
      </trkpt>
      <trkpt lat="39.915088" lon="116.656173">
        <time>2022-06-06T13:23:44Z</time>
      </trkpt>
      <trkpt lat="39.915145" lon="116.656274">
        <time>2022-06-06T13:23:49Z</time>
      </trkpt>
      <trkpt lat="39.915179" lon="116.656281">
        <time>2022-06-06T13:23:54Z</time>
      </trkpt>
      <trkpt lat="39.915216" lon="116.656316">
        <time>2022-06-06T13:23:59Z</time>
      </trkpt>
      <trkpt lat="39.915235" lon="116.656418">
        <time>2022-06-06T13:24:04Z</time>
      </trkpt>
      <trkpt lat="39.915303" lon="116.656558">
        <time>2022-06-06T13:24:09Z</time>
      </trkpt>
      <trkpt lat="39.915348" lon="116.656592">
        <time>2022-06-06T13:24:14Z</time>
      </trkpt>
      <trkpt lat="39.91539" lon="116.65672">
        <time>2022-06-06T13:24:19Z</time>
      </trkpt>
      <trkpt lat="39.915443" lon="116.656836">
        <time>2022-06-06T13:24:24Z</time>
      </trkpt>
      <trkpt lat="39.915504" lon="116.656931">
        <time>2022-06-06T13:24:29Z</time>
      </trkpt>
      <trkpt lat="39.915561" lon="116.657021">
        <time>2022-06-06T13:24:34Z</time>
      </trkpt>
      <trkpt lat="39.915626" lon="116.657135">
        <time>2022-06-06T13:24:39Z</time>
      </trkpt>
      <trkpt lat="39.915694" lon="116.65726">
        <time>2022-06-06T13:24:44Z</time>
      </trkpt>
      <trkpt lat="39.915775" lon="116.657382">
        <time>2022-06-06T13:24:49Z</time>
      </trkpt>
      <trkpt lat="39.91586" lon="116.6575">
        <time>2022-06-06T13:24:54Z</time>
      </trkpt>
      <trkpt lat="39.915933" lon="116.657622">
        <time>2022-06-06T13:24:59Z</time>
      </trkpt>
      <trkpt lat="39.916009" lon="116.657739">
        <time>2022-06-06T13:25:04Z</time>
      </trkpt>
      <trkpt lat="39.916083" lon="116.657831">
        <time>2022-06-06T13:25:09Z</time>
      </trkpt>
      <trkpt lat="39.916142" lon="116.657891">
        <time>2022-06-06T13:25:14Z</time>
      </trkpt>
      <trkpt lat="39.916202" lon="116.657953">
        <time>2022-06-06T13:25:19Z</time>
      </trkpt>
      <trkpt lat="39.916268" lon="116.658055">
        <time>2022-06-06T13:25:24Z</time>
      </trkpt>
      <trkpt lat="39.916342" lon="116.658162">
        <time>2022-06-06T13:25:29Z</time>
      </trkpt>
      <trkpt lat="39.9164" lon="116.658271">
        <time>2022-06-06T13:25:34Z</time>
      </trkpt>
      <trkpt lat="39.916465" lon="116.658374">
        <time>2022-06-06T13:25:39Z</time>
      </trkpt>
      <trkpt lat="39.916525" lon="116.658485">
        <time>2022-06-06T13:25:44Z</time>
      </trkpt>
      <trkpt lat="39.916606" lon="116.658575">
        <time>2022-06-06T13:25:49Z</time>
      </trkpt>
      <trkpt lat="39.916684" lon="116.65869">
        <time>2022-06-06T13:25:54Z</time>
      </trkpt>
      <trkpt lat="39.916762" lon="116.658812">
        <time>2022-06-06T13:25:59Z</time>
      </trkpt>
      <trkpt lat="39.916831" lon="116.65891">
        <time>2022-06-06T13:26:04Z</time>
      </trkpt>
      <trkpt lat="39.916901" lon="116.659026">
        <time>2022-06-06T13:26:09Z</time>
      </trkpt>
      <trkpt lat="39.916978" lon="116.659138">
        <time>2022-06-06T13:26:14Z</time>
      </trkpt>
      <trkpt lat="39.917035" lon="116.65929">
        <time>2022-06-06T13:26:19Z</time>
      </trkpt>
      <trkpt lat="39.917073" lon="116.659324">
        <time>2022-06-06T13:26:24Z</time>
      </trkpt>
      <trkpt lat="39.917036" lon="116.659247">
        <time>2022-06-06T13:26:29Z</time>
      </trkpt>
      <trkpt lat="39.916987" lon="116.659199">
        <time>2022-06-06T13:26:34Z</time>
      </trkpt>
      <trkpt lat="39.916958" lon="116.659165">
        <time>2022-06-06T13:26:39Z</time>
      </trkpt>
      <trkpt lat="39.91692" lon="116.659107">
        <time>2022-06-06T13:26:44Z</time>
      </trkpt>
      <trkpt lat="39.916859" lon="116.659026">
        <time>2022-06-06T13:26:49Z</time>
      </trkpt>
      <trkpt lat="39.916793" lon="116.658905">
        <time>2022-06-06T13:26:54Z</time>
      </trkpt>
      <trkpt lat="39.916727" lon="116.65879">
        <time>2022-06-06T13:26:59Z</time>
      </trkpt>
      <trkpt lat="39.916671" lon="116.658699">
        <time>2022-06-06T13:27:04Z</time>
      </trkpt>
      <trkpt lat="39.916611" lon="116.65862">
        <time>2022-06-06T13:27:09Z</time>
      </trkpt>
      <trkpt lat="39.916561" lon="116.65854">
        <time>2022-06-06T13:27:14Z</time>
      </trkpt>
      <trkpt lat="39.916509" lon="116.658427">
        <time>2022-06-06T13:27:19Z</time>
      </trkpt>
      <trkpt lat="39.916448" lon="116.658312">
        <time>2022-06-06T13:27:24Z</time>
      </trkpt>
      <trkpt lat="39.916381" lon="116.658198">
        <time>2022-06-06T13:27:29Z</time>
      </trkpt>
      <trkpt lat="39.916321" lon="116.658122">
        <time>2022-06-06T13:27:34Z</time>
      </trkpt>
      <trkpt lat="39.916256" lon="116.658032">
        <time>2022-06-06T13:27:39Z</time>
      </trkpt>
      <trkpt lat="39.916197" lon="116.657927">
        <time>2022-06-06T13:27:44Z</time>
      </trkpt>
      <trkpt lat="39.916124" lon="116.657842">
        <time>2022-06-06T13:27:49Z</time>
      </trkpt>
      <trkpt lat="39.916039" lon="116.657733">
        <time>2022-06-06T13:27:54Z</time>
      </trkpt>
      <trkpt lat="39.916002" lon="116.657652">
        <time>2022-06-06T13:27:59Z</time>
      </trkpt>
      <trkpt lat="39.91592" lon="116.657579">
        <time>2022-06-06T13:28:04Z</time>
      </trkpt>
      <trkpt lat="39.91587" lon="116.657479">
        <time>2022-06-06T13:28:09Z</time>
      </trkpt>
      <trkpt lat="39.915809" lon="116.657397">
        <time>2022-06-06T13:28:14Z</time>
      </trkpt>
      <trkpt lat="39.915723" lon="116.657275">
        <time>2022-06-06T13:28:19Z</time>
      </trkpt>
      <trkpt lat="39.915665" lon="116.657168">
        <time>2022-06-06T13:28:24Z</time>
      </trkpt>
      <trkpt lat="39.915615" lon="116.657088">
        <time>2022-06-06T13:28:29Z</time>
      </trkpt>
      <trkpt lat="39.915578" lon="116.657029">
        <time>2022-06-06T13:28:34Z</time>
      </trkpt>
      <trkpt lat="39.915547" lon="116.656961">
        <time>2022-06-06T13:28:39Z</time>
      </trkpt>
      <trkpt lat="39.915495" lon="116.656883">
        <time>2022-06-06T13:28:44Z</time>
      </trkpt>
      <trkpt lat="39.915415" lon="116.656778">
        <time>2022-06-06T13:28:49Z</time>
      </trkpt>
      <trkpt lat="39.915395" lon="116.656726">
        <time>2022-06-06T13:28:54Z</time>
      </trkpt>
      <trkpt lat="39.915438" lon="116.656694">
        <time>2022-06-06T13:28:59Z</time>
      </trkpt>
      <trkpt lat="39.915452" lon="116.656678">
        <time>2022-06-06T13:29:04Z</time>
      </trkpt>
      <trkpt lat="39.915421" lon="116.656643">
        <time>2022-06-06T13:29:09Z</time>
      </trkpt>
      <trkpt lat="39.91523" lon="116.656371">
        <time>2022-06-06T13:29:14Z</time>
      </trkpt>
      <trkpt lat="39.915039" lon="116.656099">
        <time>2022-06-06T13:29:19Z</time>
      </trkpt>
      <trkpt lat="39.915006" lon="116.656046">
        <time>2022-06-06T13:29:24Z</time>
      </trkpt>
      <trkpt lat="39.914987" lon="116.65601">
        <time>2022-06-06T13:29:29Z</time>
      </trkpt>
      <trkpt lat="39.914963" lon="116.655963">
        <time>2022-06-06T13:29:34Z</time>
      </trkpt>
      <trkpt lat="39.914938" lon="116.655906">
        <time>2022-06-06T13:29:39Z</time>
      </trkpt>
      <trkpt lat="39.91492" lon="116.655834">
        <time>2022-06-06T13:29:44Z</time>
      </trkpt>
      <trkpt lat="39.914881" lon="116.655733">
        <time>2022-06-06T13:29:49Z</time>
      </trkpt>
      <trkpt lat="39.914789" lon="116.655584">
        <time>2022-06-06T13:29:54Z</time>
      </trkpt>
      <trkpt lat="39.914691" lon="116.65542">
        <time>2022-06-06T13:29:59Z</time>
      </trkpt>
      <trkpt lat="39.914612" lon="116.655298">
        <time>2022-06-06T13:30:04Z</time>
      </trkpt>
      <trkpt lat="39.914551" lon="116.655232">
        <time>2022-06-06T13:30:09Z</time>
      </trkpt>
      <trkpt lat="39.914508" lon="116.655188">
        <time>2022-06-06T13:30:14Z</time>
      </trkpt>
      <trkpt lat="39.91446" lon="116.655131">
        <time>2022-06-06T13:30:19Z</time>
      </trkpt>
      <trkpt lat="39.914392" lon="116.65507">
        <time>2022-06-06T13:30:24Z</time>
      </trkpt>
      <trkpt lat="39.914331" lon="116.654983">
        <time>2022-06-06T13:30:29Z</time>
      </trkpt>
      <trkpt lat="39.914251" lon="116.654911">
        <time>2022-06-06T13:30:34Z</time>
      </trkpt>
      <trkpt lat="39.914187" lon="116.654863">
        <time>2022-06-06T13:30:39Z</time>
      </trkpt>
      <trkpt lat="39.914142" lon="116.65483">
        <time>2022-06-06T13:30:44Z</time>
      </trkpt>
      <trkpt lat="39.914091" lon="116.654788">
        <time>2022-06-06T13:30:49Z</time>
      </trkpt>
      <trkpt lat="39.914027" lon="116.654732">
        <time>2022-06-06T13:30:54Z</time>
      </trkpt>
      <trkpt lat="39.91396" lon="116.654664">
        <time>2022-06-06T13:30:59Z</time>
      </trkpt>
      <trkpt lat="39.913888" lon="116.654631">
        <time>2022-06-06T13:31:04Z</time>
      </trkpt>
      <trkpt lat="39.913807" lon="116.654554">
        <time>2022-06-06T13:31:09Z</time>
      </trkpt>
      <trkpt lat="39.913755" lon="116.654495">
        <time>2022-06-06T13:31:14Z</time>
      </trkpt>
      <trkpt lat="39.91367" lon="116.654401">
        <time>2022-06-06T13:31:19Z</time>
      </trkpt>
      <trkpt lat="39.91359" lon="116.654331">
        <time>2022-06-06T13:31:24Z</time>
      </trkpt>
      <trkpt lat="39.913536" lon="116.654304">
        <time>2022-06-06T13:31:29Z</time>
      </trkpt>
      <trkpt lat="39.913482" lon="116.654229">
        <time>2022-06-06T13:31:34Z</time>
      </trkpt>
      <trkpt lat="39.913429" lon="116.65416">
        <time>2022-06-06T13:31:39Z</time>
      </trkpt>
      <trkpt lat="39.913346" lon="116.654097">
        <time>2022-06-06T13:31:44Z</time>
      </trkpt>
      <trkpt lat="39.913274" lon="116.654032">
        <time>2022-06-06T13:31:49Z</time>
      </trkpt>
      <trkpt lat="39.913227" lon="116.654012">
        <time>2022-06-06T13:31:54Z</time>
      </trkpt>
      <trkpt lat="39.913164" lon="116.653986">
        <time>2022-06-06T13:31:59Z</time>
      </trkpt>
      <trkpt lat="39.913096" lon="116.653952">
        <time>2022-06-06T13:32:04Z</time>
      </trkpt>
      <trkpt lat="39.913007" lon="116.653903">
        <time>2022-06-06T13:32:09Z</time>
      </trkpt>
      <trkpt lat="39.912902" lon="116.653843">
        <time>2022-06-06T13:32:14Z</time>
      </trkpt>
      <trkpt lat="39.912836" lon="116.653772">
        <time>2022-06-06T13:32:19Z</time>
      </trkpt>
      <trkpt lat="39.912768" lon="116.653685">
        <time>2022-06-06T13:32:24Z</time>
      </trkpt>
      <trkpt lat="39.912679" lon="116.653595">
        <time>2022-06-06T13:32:29Z</time>
      </trkpt>
      <trkpt lat="39.912604" lon="116.653542">
        <time>2022-06-06T13:32:34Z</time>
      </trkpt>
      <trkpt lat="39.912522" lon="116.653499">
        <time>2022-06-06T13:32:39Z</time>
      </trkpt>
      <trkpt lat="39.912422" lon="116.653445">
        <time>2022-06-06T13:32:44Z</time>
      </trkpt>
      <trkpt lat="39.912374" lon="116.653411">
        <time>2022-06-06T13:32:49Z</time>
      </trkpt>
      <trkpt lat="39.912334" lon="116.653367">
        <time>2022-06-06T13:32:54Z</time>
      </trkpt>
      <trkpt lat="39.912304" lon="116.65332">
        <time>2022-06-06T13:32:59Z</time>
      </trkpt>
      <trkpt lat="39.912236" lon="116.653246">
        <time>2022-06-06T13:33:04Z</time>
      </trkpt>
      <trkpt lat="39.912169" lon="116.653175">
        <time>2022-06-06T13:33:09Z</time>
      </trkpt>
      <trkpt lat="39.912096" lon="116.653084">
        <time>2022-06-06T13:33:14Z</time>
      </trkpt>
      <trkpt lat="39.912002" lon="116.652997">
        <time>2022-06-06T13:33:19Z</time>
      </trkpt>
      <trkpt lat="39.911914" lon="116.652934">
        <time>2022-06-06T13:33:24Z</time>
      </trkpt>
      <trkpt lat="39.911844" lon="116.652862">
        <time>2022-06-06T13:33:29Z</time>
      </trkpt>
      <trkpt lat="39.911781" lon="116.652808">
        <time>2022-06-06T13:33:34Z</time>
      </trkpt>
      <trkpt lat="39.911723" lon="116.652792">
        <time>2022-06-06T13:33:39Z</time>
      </trkpt>
      <trkpt lat="39.911661" lon="116.652756">
        <time>2022-06-06T13:33:44Z</time>
      </trkpt>
      <trkpt lat="39.91161" lon="116.652707">
        <time>2022-06-06T13:33:49Z</time>
      </trkpt>
      <trkpt lat="39.911552" lon="116.652652">
        <time>2022-06-06T13:33:54Z</time>
      </trkpt>
      <trkpt lat="39.911452" lon="116.65255">
        <time>2022-06-06T13:33:59Z</time>
      </trkpt>
      <trkpt lat="39.911336" lon="116.652458">
        <time>2022-06-06T13:34:04Z</time>
      </trkpt>
      <trkpt lat="39.911234" lon="116.65234">
        <time>2022-06-06T13:34:09Z</time>
      </trkpt>
      <trkpt lat="39.911155" lon="116.652213">
        <time>2022-06-06T13:34:14Z</time>
      </trkpt>
      <trkpt lat="39.911063" lon="116.652092">
        <time>2022-06-06T13:34:19Z</time>
      </trkpt>
      <trkpt lat="39.911043" lon="116.651972">
        <time>2022-06-06T13:34:24Z</time>
      </trkpt>
      <trkpt lat="39.911132" lon="116.65195">
        <time>2022-06-06T13:34:29Z</time>
      </trkpt>
      <trkpt lat="39.911174" lon="116.651883">
        <time>2022-06-06T13:34:34Z</time>
      </trkpt>
      <trkpt lat="39.911168" lon="116.651882">
        <time>2022-06-06T13:34:39Z</time>
      </trkpt>
      <trkpt lat="39.911223" lon="116.651804">
        <time>2022-06-06T13:34:44Z</time>
      </trkpt>
      <trkpt lat="39.911201" lon="116.651751">
        <time>2022-06-06T13:34:49Z</time>
      </trkpt>
      <trkpt lat="39.911193" lon="116.651689">
        <time>2022-06-06T13:34:54Z</time>
      </trkpt>
      <trkpt lat="39.911217" lon="116.651632">
        <time>2022-06-06T13:34:59Z</time>
      </trkpt>
      <trkpt lat="39.911215" lon="116.65158">
        <time>2022-06-06T13:35:04Z</time>
      </trkpt>
      <trkpt lat="39.911252" lon="116.65152">
        <time>2022-06-06T13:35:09Z</time>
      </trkpt>
      <trkpt lat="39.911304" lon="116.65145">
        <time>2022-06-06T13:35:14Z</time>
      </trkpt>
      <trkpt lat="39.911327" lon="116.651395">
        <time>2022-06-06T13:35:19Z</time>
      </trkpt>
      <trkpt lat="39.911334" lon="116.651294">
        <time>2022-06-06T13:35:24Z</time>
      </trkpt>
      <trkpt lat="39.911348" lon="116.651194">
        <time>2022-06-06T13:35:29Z</time>
      </trkpt>
      <trkpt lat="39.911344" lon="116.65099">
        <time>2022-06-06T13:35:34Z</time>
      </trkpt>
      <trkpt lat="39.91129" lon="116.650853">
        <time>2022-06-06T13:35:39Z</time>
      </trkpt>
      <trkpt lat="39.911167" lon="116.650826">
        <time>2022-06-06T13:35:44Z</time>
      </trkpt>
      <trkpt lat="39.911034" lon="116.650853">
        <time>2022-06-06T13:35:49Z</time>
      </trkpt>
      <trkpt lat="39.910914" lon="116.650869">
        <time>2022-06-06T13:35:54Z</time>
      </trkpt>
      <trkpt lat="39.910793" lon="116.650891">
        <time>2022-06-06T13:35:59Z</time>
      </trkpt>
      <trkpt lat="39.91067" lon="116.650914">
        <time>2022-06-06T13:36:04Z</time>
      </trkpt>
      <trkpt lat="39.91054" lon="116.650914">
        <time>2022-06-06T13:36:09Z</time>
      </trkpt>
      <trkpt lat="39.91051" lon="116.65093">
        <time>2022-06-06T13:36:14Z</time>
      </trkpt>
      <trkpt lat="39.91051" lon="116.65093">
        <time>2022-06-06T13:36:19Z</time>
      </trkpt>
      <trkpt lat="39.91047" lon="116.650949">
        <time>2022-06-06T13:36:24Z</time>
      </trkpt>
      <trkpt lat="39.91035" lon="116.650984">
        <time>2022-06-06T13:36:29Z</time>
      </trkpt>
      <trkpt lat="39.910277" lon="116.650961">
        <time>2022-06-06T13:36:34Z</time>
      </trkpt>
      <trkpt lat="39.910154" lon="116.650958">
        <time>2022-06-06T13:36:39Z</time>
      </trkpt>
      <trkpt lat="39.910073" lon="116.650967">
        <time>2022-06-06T13:36:44Z</time>
      </trkpt>
      <trkpt lat="39.910009" lon="116.65097">
        <time>2022-06-06T13:36:49Z</time>
      </trkpt>
      <trkpt lat="39.909954" lon="116.650982">
        <time>2022-06-06T13:36:54Z</time>
      </trkpt>
      <trkpt lat="39.909941" lon="116.650983">
        <time>2022-06-06T13:36:59Z</time>
      </trkpt>
      <trkpt lat="39.910043" lon="116.650918">
        <time>2022-06-06T13:37:04Z</time>
      </trkpt>
      <trkpt lat="39.910052" lon="116.650853">
        <time>2022-06-06T13:37:09Z</time>
      </trkpt>
      <trkpt lat="39.910052" lon="116.650853">
        <time>2022-06-06T13:37:14Z</time>
      </trkpt>
      <trkpt lat="39.910048" lon="116.650798">
        <time>2022-06-06T13:37:19Z</time>
      </trkpt>
      <trkpt lat="39.910062" lon="116.650602">
        <time>2022-06-06T13:37:24Z</time>
      </trkpt>
      <trkpt lat="39.910068" lon="116.650494">
        <time>2022-06-06T13:37:29Z</time>
      </trkpt>
      <trkpt lat="39.910071" lon="116.650426">
        <time>2022-06-06T13:37:34Z</time>
      </trkpt>
      <trkpt lat="39.910071" lon="116.650426">
        <time>2022-06-06T13:42:31Z</time>
      </trkpt>
    </trkseg>
  </trk>
</gpx>