<?xml version="1.0" encoding="UTF-8"?>
<gpx xmlns="http://www.topografix.com/GPX/1/1" xmlns:gpxtpx="http://www.garmin.com/xmlschemas/TrackPointExtension/v1" xmlns:xsi="http://www.w3.org/2001/XMLSchema-instance" xsi:schemaLocation="http://www.topografix.com/GPX/1/1 http://www.topografix.com/GPX/1/1/gpx.xsd" version="1.1" creator="gpx.py -- https://github.com/tkrajina/gpxpy">
  <trk>
    <name>gpx from keep</name>
    <trkseg>
      <trkpt lat="39.906581" lon="116.620157">
        <time>2022-07-17T12:20:01Z</time>
      </trkpt>
      <trkpt lat="39.906464" lon="116.620162">
        <time>2022-07-17T12:20:06Z</time>
      </trkpt>
      <trkpt lat="39.906427" lon="116.620206">
        <time>2022-07-17T12:20:11Z</time>
      </trkpt>
      <trkpt lat="39.906427" lon="116.620313">
        <time>2022-07-17T12:20:16Z</time>
      </trkpt>
      <trkpt lat="39.906492" lon="116.620487">
        <time>2022-07-17T12:20:21Z</time>
      </trkpt>
      <trkpt lat="39.906529" lon="116.620603">
        <time>2022-07-17T12:20:26Z</time>
      </trkpt>
      <trkpt lat="39.90651" lon="116.620691">
        <time>2022-07-17T12:20:31Z</time>
      </trkpt>
      <trkpt lat="39.906388" lon="116.620656">
        <time>2022-07-17T12:20:36Z</time>
      </trkpt>
      <trkpt lat="39.906255" lon="116.620631">
        <time>2022-07-17T12:20:41Z</time>
      </trkpt>
      <trkpt lat="39.906134" lon="116.620659">
        <time>2022-07-17T12:20:46Z</time>
      </trkpt>
      <trkpt lat="39.906003" lon="116.620679">
        <time>2022-07-17T12:20:51Z</time>
      </trkpt>
      <trkpt lat="39.905878" lon="116.620704">
        <time>2022-07-17T12:20:56Z</time>
      </trkpt>
      <trkpt lat="39.905822" lon="116.620628">
        <time>2022-07-17T12:21:01Z</time>
      </trkpt>
      <trkpt lat="39.905826" lon="116.620542">
        <time>2022-07-17T12:21:06Z</time>
      </trkpt>
      <trkpt lat="39.905823" lon="116.620434">
        <time>2022-07-17T12:21:11Z</time>
      </trkpt>
      <trkpt lat="39.905802" lon="116.620269">
        <time>2022-07-17T12:21:16Z</time>
      </trkpt>
      <trkpt lat="39.905809" lon="116.620136">
        <time>2022-07-17T12:21:21Z</time>
      </trkpt>
      <trkpt lat="39.905802" lon="116.61996">
        <time>2022-07-17T12:21:26Z</time>
      </trkpt>
      <trkpt lat="39.905796" lon="116.619932">
        <time>2022-07-17T12:21:31Z</time>
      </trkpt>
      <trkpt lat="39.905754" lon="116.619684">
        <time>2022-07-17T12:21:36Z</time>
      </trkpt>
      <trkpt lat="39.905752" lon="116.61963">
        <time>2022-07-17T12:21:41Z</time>
      </trkpt>
      <trkpt lat="39.905718" lon="116.619455">
        <time>2022-07-17T12:21:46Z</time>
      </trkpt>
      <trkpt lat="39.905661" lon="116.61924">
        <time>2022-07-17T12:21:51Z</time>
      </trkpt>
      <trkpt lat="39.905637" lon="116.619089">
        <time>2022-07-17T12:21:56Z</time>
      </trkpt>
      <trkpt lat="39.90561" lon="116.618931">
        <time>2022-07-17T12:22:01Z</time>
      </trkpt>
      <trkpt lat="39.90561" lon="116.618931">
        <time>2022-07-17T12:22:06Z</time>
      </trkpt>
      <trkpt lat="39.905574" lon="116.618688">
        <time>2022-07-17T12:22:11Z</time>
      </trkpt>
      <trkpt lat="39.90554" lon="116.618455">
        <time>2022-07-17T12:22:16Z</time>
      </trkpt>
      <trkpt lat="39.905513" lon="116.61826">
        <time>2022-07-17T12:22:21Z</time>
      </trkpt>
      <trkpt lat="39.905513" lon="116.61826">
        <time>2022-07-17T12:22:26Z</time>
      </trkpt>
      <trkpt lat="39.905487" lon="116.617998">
        <time>2022-07-17T12:22:31Z</time>
      </trkpt>
      <trkpt lat="39.905474" lon="116.617792">
        <time>2022-07-17T12:22:36Z</time>
      </trkpt>
      <trkpt lat="39.905491" lon="116.617615">
        <time>2022-07-17T12:22:41Z</time>
      </trkpt>
      <trkpt lat="39.905541" lon="116.617479">
        <time>2022-07-17T12:22:46Z</time>
      </trkpt>
      <trkpt lat="39.905552" lon="116.617318">
        <time>2022-07-17T12:22:51Z</time>
      </trkpt>
      <trkpt lat="39.905595" lon="116.617193">
        <time>2022-07-17T12:22:56Z</time>
      </trkpt>
      <trkpt lat="39.905622" lon="116.617112">
        <time>2022-07-17T12:23:01Z</time>
      </trkpt>
      <trkpt lat="39.905652" lon="116.616978">
        <time>2022-07-17T12:23:06Z</time>
      </trkpt>
      <trkpt lat="39.905637" lon="116.616702">
        <time>2022-07-17T12:23:11Z</time>
      </trkpt>
      <trkpt lat="39.905638" lon="116.616669">
        <time>2022-07-17T12:23:16Z</time>
      </trkpt>
      <trkpt lat="39.905644" lon="116.616464">
        <time>2022-07-17T12:23:21Z</time>
      </trkpt>
      <trkpt lat="39.905623" lon="116.616186">
        <time>2022-07-17T12:23:26Z</time>
      </trkpt>
      <trkpt lat="39.905623" lon="116.616152">
        <time>2022-07-17T12:23:31Z</time>
      </trkpt>
      <trkpt lat="39.905627" lon="116.615946">
        <time>2022-07-17T12:23:36Z</time>
      </trkpt>
      <trkpt lat="39.905625" lon="116.615736">
        <time>2022-07-17T12:23:41Z</time>
      </trkpt>
      <trkpt lat="39.905626" lon="116.615533">
        <time>2022-07-17T12:23:46Z</time>
      </trkpt>
      <trkpt lat="39.905614" lon="116.615322">
        <time>2022-07-17T12:23:51Z</time>
      </trkpt>
      <trkpt lat="39.905604" lon="116.615152">
        <time>2022-07-17T12:23:56Z</time>
      </trkpt>
      <trkpt lat="39.905613" lon="116.614983">
        <time>2022-07-17T12:24:01Z</time>
      </trkpt>
      <trkpt lat="39.905611" lon="116.614948">
        <time>2022-07-17T12:24:06Z</time>
      </trkpt>
      <trkpt lat="39.905656" lon="116.614675">
        <time>2022-07-17T12:24:11Z</time>
      </trkpt>
      <trkpt lat="39.905714" lon="116.614681">
        <time>2022-07-17T12:24:16Z</time>
      </trkpt>
      <trkpt lat="39.905714" lon="116.614681">
        <time>2022-07-17T12:24:21Z</time>
      </trkpt>
      <trkpt lat="39.905783" lon="116.614774">
        <time>2022-07-17T12:24:26Z</time>
      </trkpt>
      <trkpt lat="39.905793" lon="116.614941">
        <time>2022-07-17T12:24:31Z</time>
      </trkpt>
      <trkpt lat="39.905787" lon="116.615104">
        <time>2022-07-17T12:24:36Z</time>
      </trkpt>
      <trkpt lat="39.905787" lon="116.615104">
        <time>2022-07-17T12:24:41Z</time>
      </trkpt>
      <trkpt lat="39.905864" lon="116.615318">
        <time>2022-07-17T12:24:46Z</time>
      </trkpt>
      <trkpt lat="39.905936" lon="116.615472">
        <time>2022-07-17T12:24:51Z</time>
      </trkpt>
      <trkpt lat="39.905999" lon="116.61564">
        <time>2022-07-17T12:24:56Z</time>
      </trkpt>
      <trkpt lat="39.90606" lon="116.615776">
        <time>2022-07-17T12:25:01Z</time>
      </trkpt>
      <trkpt lat="39.906219" lon="116.615963">
        <time>2022-07-17T12:25:06Z</time>
      </trkpt>
      <trkpt lat="39.906233" lon="116.616022">
        <time>2022-07-17T12:25:11Z</time>
      </trkpt>
      <trkpt lat="39.906309" lon="116.616222">
        <time>2022-07-17T12:25:16Z</time>
      </trkpt>
      <trkpt lat="39.906364" lon="116.616411">
        <time>2022-07-17T12:25:21Z</time>
      </trkpt>
      <trkpt lat="39.906392" lon="116.616569">
        <time>2022-07-17T12:25:26Z</time>
      </trkpt>
      <trkpt lat="39.906392" lon="116.616569">
        <time>2022-07-17T12:25:31Z</time>
      </trkpt>
      <trkpt lat="39.906402" lon="116.616828">
        <time>2022-07-17T12:25:36Z</time>
      </trkpt>
      <trkpt lat="39.906427" lon="116.617057">
        <time>2022-07-17T12:25:41Z</time>
      </trkpt>
      <trkpt lat="39.906427" lon="116.617057">
        <time>2022-07-17T12:25:46Z</time>
      </trkpt>
      <trkpt lat="39.906465" lon="116.61735">
        <time>2022-07-17T12:25:51Z</time>
      </trkpt>
      <trkpt lat="39.906521" lon="116.61758">
        <time>2022-07-17T12:25:56Z</time>
      </trkpt>
      <trkpt lat="39.906525" lon="116.617613">
        <time>2022-07-17T12:26:01Z</time>
      </trkpt>
      <trkpt lat="39.906563" lon="116.617885">
        <time>2022-07-17T12:26:06Z</time>
      </trkpt>
      <trkpt lat="39.90658" lon="116.618072">
        <time>2022-07-17T12:26:11Z</time>
      </trkpt>
      <trkpt lat="39.906581" lon="116.618104">
        <time>2022-07-17T12:26:16Z</time>
      </trkpt>
      <trkpt lat="39.906592" lon="116.618397">
        <time>2022-07-17T12:26:21Z</time>
      </trkpt>
      <trkpt lat="39.906592" lon="116.618397">
        <time>2022-07-17T12:26:26Z</time>
      </trkpt>
      <trkpt lat="39.906601" lon="116.618641">
        <time>2022-07-17T12:26:31Z</time>
      </trkpt>
      <trkpt lat="39.906634" lon="116.618915">
        <time>2022-07-17T12:26:36Z</time>
      </trkpt>
      <trkpt lat="39.906634" lon="116.618915">
        <time>2022-07-17T12:26:41Z</time>
      </trkpt>
      <trkpt lat="39.906682" lon="116.619142">
        <time>2022-07-17T12:26:46Z</time>
      </trkpt>
      <trkpt lat="39.906737" lon="116.619349">
        <time>2022-07-17T12:26:51Z</time>
      </trkpt>
      <trkpt lat="39.906794" lon="116.619521">
        <time>2022-07-17T12:26:56Z</time>
      </trkpt>
      <trkpt lat="39.906797" lon="116.619553">
        <time>2022-07-17T12:27:01Z</time>
      </trkpt>
      <trkpt lat="39.906824" lon="116.619774">
        <time>2022-07-17T12:27:06Z</time>
      </trkpt>
      <trkpt lat="39.906855" lon="116.619953">
        <time>2022-07-17T12:27:11Z</time>
      </trkpt>
      <trkpt lat="39.906841" lon="116.620154">
        <time>2022-07-17T12:27:16Z</time>
      </trkpt>
      <trkpt lat="39.906839" lon="116.620317">
        <time>2022-07-17T12:27:21Z</time>
      </trkpt>
      <trkpt lat="39.906844" lon="116.620473">
        <time>2022-07-17T12:27:26Z</time>
      </trkpt>
      <trkpt lat="39.906903" lon="116.620607">
        <time>2022-07-17T12:27:31Z</time>
      </trkpt>
      <trkpt lat="39.906955" lon="116.620751">
        <time>2022-07-17T12:27:36Z</time>
      </trkpt>
      <trkpt lat="39.906992" lon="116.620935">
        <time>2022-07-17T12:27:41Z</time>
      </trkpt>
      <trkpt lat="39.906997" lon="116.620971">
        <time>2022-07-17T12:27:46Z</time>
      </trkpt>
      <trkpt lat="39.907026" lon="116.621197">
        <time>2022-07-17T12:27:51Z</time>
      </trkpt>
      <trkpt lat="39.907068" lon="116.621481">
        <time>2022-07-17T12:27:56Z</time>
      </trkpt>
      <trkpt lat="39.907068" lon="116.621512">
        <time>2022-07-17T12:28:01Z</time>
      </trkpt>
      <trkpt lat="39.907082" lon="116.621728">
        <time>2022-07-17T12:28:06Z</time>
      </trkpt>
      <trkpt lat="39.90715" lon="116.621942">
        <time>2022-07-17T12:28:11Z</time>
      </trkpt>
      <trkpt lat="39.907185" lon="116.622092">
        <time>2022-07-17T12:28:16Z</time>
      </trkpt>
      <trkpt lat="39.907197" lon="116.622264">
        <time>2022-07-17T12:28:21Z</time>
      </trkpt>
      <trkpt lat="39.9072" lon="116.622299">
        <time>2022-07-17T12:28:26Z</time>
      </trkpt>
      <trkpt lat="39.907216" lon="116.622583">
        <time>2022-07-17T12:28:31Z</time>
      </trkpt>
      <trkpt lat="39.907217" lon="116.622797">
        <time>2022-07-17T12:28:36Z</time>
      </trkpt>
      <trkpt lat="39.907225" lon="116.622867">
        <time>2022-07-17T12:28:41Z</time>
      </trkpt>
      <trkpt lat="39.907244" lon="116.623077">
        <time>2022-07-17T12:28:46Z</time>
      </trkpt>
      <trkpt lat="39.907254" lon="116.623243">
        <time>2022-07-17T12:28:51Z</time>
      </trkpt>
      <trkpt lat="39.907272" lon="116.623461">
        <time>2022-07-17T12:28:56Z</time>
      </trkpt>
      <trkpt lat="39.907272" lon="116.623461">
        <time>2022-07-17T12:29:01Z</time>
      </trkpt>
      <trkpt lat="39.907338" lon="116.623737">
        <time>2022-07-17T12:29:06Z</time>
      </trkpt>
      <trkpt lat="39.907374" lon="116.623832">
        <time>2022-07-17T12:29:11Z</time>
      </trkpt>
      <trkpt lat="39.907374" lon="116.623832">
        <time>2022-07-17T12:29:16Z</time>
      </trkpt>
      <trkpt lat="39.907385" lon="116.624178">
        <time>2022-07-17T12:29:21Z</time>
      </trkpt>
      <trkpt lat="39.907385" lon="116.624178">
        <time>2022-07-17T12:29:26Z</time>
      </trkpt>
      <trkpt lat="39.907402" lon="116.624426">
        <time>2022-07-17T12:29:31Z</time>
      </trkpt>
      <trkpt lat="39.907422" lon="116.624603">
        <time>2022-07-17T12:29:36Z</time>
      </trkpt>
      <trkpt lat="39.907427" lon="116.624775">
        <time>2022-07-17T12:29:41Z</time>
      </trkpt>
      <trkpt lat="39.907441" lon="116.624996">
        <time>2022-07-17T12:29:46Z</time>
      </trkpt>
      <trkpt lat="39.90748" lon="116.625192">
        <time>2022-07-17T12:29:51Z</time>
      </trkpt>
      <trkpt lat="39.90748" lon="116.625192">
        <time>2022-07-17T12:29:56Z</time>
      </trkpt>
      <trkpt lat="39.907511" lon="116.625475">
        <time>2022-07-17T12:30:01Z</time>
      </trkpt>
      <trkpt lat="39.907529" lon="116.625678">
        <time>2022-07-17T12:30:06Z</time>
      </trkpt>
      <trkpt lat="39.907557" lon="116.625821">
        <time>2022-07-17T12:30:11Z</time>
      </trkpt>
      <trkpt lat="39.907561" lon="116.62585">
        <time>2022-07-17T12:30:16Z</time>
      </trkpt>
      <trkpt lat="39.907589" lon="116.626027">
        <time>2022-07-17T12:30:21Z</time>
      </trkpt>
      <trkpt lat="39.907614" lon="116.626253">
        <time>2022-07-17T12:30:26Z</time>
      </trkpt>
      <trkpt lat="39.907614" lon="116.626253">
        <time>2022-07-17T12:30:31Z</time>
      </trkpt>
      <trkpt lat="39.907602" lon="116.626521">
        <time>2022-07-17T12:30:36Z</time>
      </trkpt>
      <trkpt lat="39.907615" lon="116.626717">
        <time>2022-07-17T12:30:41Z</time>
      </trkpt>
      <trkpt lat="39.907628" lon="116.626873">
        <time>2022-07-17T12:30:46Z</time>
      </trkpt>
      <trkpt lat="39.907636" lon="116.626965">
        <time>2022-07-17T12:30:51Z</time>
      </trkpt>
      <trkpt lat="39.907661" lon="116.627126">
        <time>2022-07-17T12:30:56Z</time>
      </trkpt>
      <trkpt lat="39.907696" lon="116.627351">
        <time>2022-07-17T12:31:01Z</time>
      </trkpt>
      <trkpt lat="39.907696" lon="116.627351">
        <time>2022-07-17T12:31:06Z</time>
      </trkpt>
      <trkpt lat="39.907733" lon="116.627607">
        <time>2022-07-17T12:31:11Z</time>
      </trkpt>
      <trkpt lat="39.907757" lon="116.627837">
        <time>2022-07-17T12:31:16Z</time>
      </trkpt>
      <trkpt lat="39.90776" lon="116.62787">
        <time>2022-07-17T12:31:21Z</time>
      </trkpt>
      <trkpt lat="39.907779" lon="116.628066">
        <time>2022-07-17T12:31:26Z</time>
      </trkpt>
      <trkpt lat="39.907791" lon="116.628319">
        <time>2022-07-17T12:31:31Z</time>
      </trkpt>
      <trkpt lat="39.907791" lon="116.628319">
        <time>2022-07-17T12:31:36Z</time>
      </trkpt>
      <trkpt lat="39.907808" lon="116.628562">
        <time>2022-07-17T12:31:41Z</time>
      </trkpt>
      <trkpt lat="39.907812" lon="116.628725">
        <time>2022-07-17T12:31:46Z</time>
      </trkpt>
      <trkpt lat="39.90784" lon="116.62897">
        <time>2022-07-17T12:31:51Z</time>
      </trkpt>
      <trkpt lat="39.907844" lon="116.629003">
        <time>2022-07-17T12:31:56Z</time>
      </trkpt>
      <trkpt lat="39.907882" lon="116.629308">
        <time>2022-07-17T12:32:01Z</time>
      </trkpt>
      <trkpt lat="39.907895" lon="116.629473">
        <time>2022-07-17T12:32:06Z</time>
      </trkpt>
      <trkpt lat="39.907899" lon="116.629503">
        <time>2022-07-17T12:32:11Z</time>
      </trkpt>
      <trkpt lat="39.907935" lon="116.629784">
        <time>2022-07-17T12:32:16Z</time>
      </trkpt>
      <trkpt lat="39.907957" lon="116.629948">
        <time>2022-07-17T12:32:21Z</time>
      </trkpt>
      <trkpt lat="39.907957" lon="116.629982">
        <time>2022-07-17T12:32:26Z</time>
      </trkpt>
      <trkpt lat="39.907965" lon="116.630223">
        <time>2022-07-17T12:32:31Z</time>
      </trkpt>
      <trkpt lat="39.907978" lon="116.630395">
        <time>2022-07-17T12:32:36Z</time>
      </trkpt>
      <trkpt lat="39.908008" lon="116.630589">
        <time>2022-07-17T12:32:41Z</time>
      </trkpt>
      <trkpt lat="39.908048" lon="116.63079">
        <time>2022-07-17T12:32:46Z</time>
      </trkpt>
      <trkpt lat="39.90806" lon="116.630856">
        <time>2022-07-17T12:32:51Z</time>
      </trkpt>
      <trkpt lat="39.908101" lon="116.631066">
        <time>2022-07-17T12:32:56Z</time>
      </trkpt>
      <trkpt lat="39.908166" lon="116.631318">
        <time>2022-07-17T12:33:01Z</time>
      </trkpt>
      <trkpt lat="39.908187" lon="116.631503">
        <time>2022-07-17T12:33:06Z</time>
      </trkpt>
      <trkpt lat="39.908192" lon="116.63154">
        <time>2022-07-17T12:33:11Z</time>
      </trkpt>
      <trkpt lat="39.908233" lon="116.631795">
        <time>2022-07-17T12:33:16Z</time>
      </trkpt>
      <trkpt lat="39.908273" lon="116.631929">
        <time>2022-07-17T12:33:21Z</time>
      </trkpt>
      <trkpt lat="39.908317" lon="116.63219">
        <time>2022-07-17T12:33:26Z</time>
      </trkpt>
      <trkpt lat="39.908317" lon="116.63219">
        <time>2022-07-17T12:33:31Z</time>
      </trkpt>
      <trkpt lat="39.908374" lon="116.632481">
        <time>2022-07-17T12:33:36Z</time>
      </trkpt>
      <trkpt lat="39.908374" lon="116.632481">
        <time>2022-07-17T12:33:41Z</time>
      </trkpt>
      <trkpt lat="39.908388" lon="116.63273">
        <time>2022-07-17T12:33:46Z</time>
      </trkpt>
      <trkpt lat="39.908378" lon="116.632971">
        <time>2022-07-17T12:33:51Z</time>
      </trkpt>
      <trkpt lat="39.908368" lon="116.633188">
        <time>2022-07-17T12:33:56Z</time>
      </trkpt>
      <trkpt lat="39.908368" lon="116.633188">
        <time>2022-07-17T12:34:01Z</time>
      </trkpt>
      <trkpt lat="39.908372" lon="116.633469">
        <time>2022-07-17T12:34:06Z</time>
      </trkpt>
      <trkpt lat="39.908383" lon="116.633717">
        <time>2022-07-17T12:34:11Z</time>
      </trkpt>
      <trkpt lat="39.908383" lon="116.633717">
        <time>2022-07-17T12:34:16Z</time>
      </trkpt>
      <trkpt lat="39.908383" lon="116.634005">
        <time>2022-07-17T12:34:21Z</time>
      </trkpt>
      <trkpt lat="39.908398" lon="116.634247">
        <time>2022-07-17T12:34:26Z</time>
      </trkpt>
      <trkpt lat="39.908398" lon="116.634247">
        <time>2022-07-17T12:34:31Z</time>
      </trkpt>
      <trkpt lat="39.908409" lon="116.634505">
        <time>2022-07-17T12:34:36Z</time>
      </trkpt>
      <trkpt lat="39.908424" lon="116.634709">
        <time>2022-07-17T12:34:41Z</time>
      </trkpt>
      <trkpt lat="39.908431" lon="116.634902">
        <time>2022-07-17T12:34:46Z</time>
      </trkpt>
      <trkpt lat="39.908458" lon="116.635076">
        <time>2022-07-17T12:34:51Z</time>
      </trkpt>
      <trkpt lat="39.908461" lon="116.635108">
        <time>2022-07-17T12:34:56Z</time>
      </trkpt>
      <trkpt lat="39.908481" lon="116.635338">
        <time>2022-07-17T12:35:01Z</time>
      </trkpt>
      <trkpt lat="39.908494" lon="116.635576">
        <time>2022-07-17T12:35:06Z</time>
      </trkpt>
      <trkpt lat="39.908493" lon="116.635671">
        <time>2022-07-17T12:35:11Z</time>
      </trkpt>
      <trkpt lat="39.908491" lon="116.635895">
        <time>2022-07-17T12:35:16Z</time>
      </trkpt>
      <trkpt lat="39.908488" lon="116.635925">
        <time>2022-07-17T12:35:21Z</time>
      </trkpt>
      <trkpt lat="39.908466" lon="116.636138">
        <time>2022-07-17T12:35:26Z</time>
      </trkpt>
      <trkpt lat="39.90844" lon="116.636333">
        <time>2022-07-17T12:35:31Z</time>
      </trkpt>
      <trkpt lat="39.90844" lon="116.636333">
        <time>2022-07-17T12:35:36Z</time>
      </trkpt>
      <trkpt lat="39.908384" lon="116.636647">
        <time>2022-07-17T12:35:41Z</time>
      </trkpt>
      <trkpt lat="39.908369" lon="116.636812">
        <time>2022-07-17T12:35:46Z</time>
      </trkpt>
      <trkpt lat="39.908327" lon="116.637002">
        <time>2022-07-17T12:35:51Z</time>
      </trkpt>
      <trkpt lat="39.908327" lon="116.637002">
        <time>2022-07-17T12:35:56Z</time>
      </trkpt>
      <trkpt lat="39.908313" lon="116.637193">
        <time>2022-07-17T12:36:01Z</time>
      </trkpt>
      <trkpt lat="39.908325" lon="116.637055">
        <time>2022-07-17T12:36:06Z</time>
      </trkpt>
      <trkpt lat="39.908329" lon="116.637022">
        <time>2022-07-17T12:36:11Z</time>
      </trkpt>
      <trkpt lat="39.908362" lon="116.636754">
        <time>2022-07-17T12:36:16Z</time>
      </trkpt>
      <trkpt lat="39.908392" lon="116.636555">
        <time>2022-07-17T12:36:21Z</time>
      </trkpt>
      <trkpt lat="39.908404" lon="116.636484">
        <time>2022-07-17T12:36:26Z</time>
      </trkpt>
      <trkpt lat="39.908437" lon="116.636254">
        <time>2022-07-17T12:36:31Z</time>
      </trkpt>
      <trkpt lat="39.908455" lon="116.636083">
        <time>2022-07-17T12:36:36Z</time>
      </trkpt>
      <trkpt lat="39.908497" lon="116.635889">
        <time>2022-07-17T12:36:41Z</time>
      </trkpt>
      <trkpt lat="39.908497" lon="116.635835">
        <time>2022-07-17T12:36:46Z</time>
      </trkpt>
      <trkpt lat="39.9085" lon="116.635671">
        <time>2022-07-17T12:36:51Z</time>
      </trkpt>
      <trkpt lat="39.908499" lon="116.635462">
        <time>2022-07-17T12:36:56Z</time>
      </trkpt>
      <trkpt lat="39.908497" lon="116.63543">
        <time>2022-07-17T12:37:01Z</time>
      </trkpt>
      <trkpt lat="39.908479" lon="116.635169">
        <time>2022-07-17T12:37:06Z</time>
      </trkpt>
      <trkpt lat="39.908458" lon="116.634965">
        <time>2022-07-17T12:37:11Z</time>
      </trkpt>
      <trkpt lat="39.908455" lon="116.634929">
        <time>2022-07-17T12:37:16Z</time>
      </trkpt>
      <trkpt lat="39.908431" lon="116.634674">
        <time>2022-07-17T12:37:21Z</time>
      </trkpt>
      <trkpt lat="39.908412" lon="116.634449">
        <time>2022-07-17T12:37:26Z</time>
      </trkpt>
      <trkpt lat="39.908403" lon="116.634239">
        <time>2022-07-17T12:37:31Z</time>
      </trkpt>
      <trkpt lat="39.9084" lon="116.634071">
        <time>2022-07-17T12:37:36Z</time>
      </trkpt>
      <trkpt lat="39.908395" lon="116.633911">
        <time>2022-07-17T12:37:41Z</time>
      </trkpt>
      <trkpt lat="39.908395" lon="116.633911">
        <time>2022-07-17T12:37:46Z</time>
      </trkpt>
      <trkpt lat="39.908381" lon="116.633652">
        <time>2022-07-17T12:37:51Z</time>
      </trkpt>
      <trkpt lat="39.908352" lon="116.633445">
        <time>2022-07-17T12:37:56Z</time>
      </trkpt>
      <trkpt lat="39.90834" lon="116.633266">
        <time>2022-07-17T12:38:01Z</time>
      </trkpt>
      <trkpt lat="39.908325" lon="116.633145">
        <time>2022-07-17T12:38:06Z</time>
      </trkpt>
      <trkpt lat="39.908316" lon="116.632963">
        <time>2022-07-17T12:38:11Z</time>
      </trkpt>
      <trkpt lat="39.908316" lon="116.632963">
        <time>2022-07-17T12:38:16Z</time>
      </trkpt>
      <trkpt lat="39.908317" lon="116.632702">
        <time>2022-07-17T12:38:21Z</time>
      </trkpt>
      <trkpt lat="39.908294" lon="116.632501">
        <time>2022-07-17T12:38:26Z</time>
      </trkpt>
      <trkpt lat="39.908275" lon="116.632297">
        <time>2022-07-17T12:38:31Z</time>
      </trkpt>
      <trkpt lat="39.908271" lon="116.632264">
        <time>2022-07-17T12:38:36Z</time>
      </trkpt>
      <trkpt lat="39.908243" lon="116.63198">
        <time>2022-07-17T12:38:41Z</time>
      </trkpt>
      <trkpt lat="39.908238" lon="116.631918">
        <time>2022-07-17T12:38:46Z</time>
      </trkpt>
      <trkpt lat="39.908215" lon="116.631663">
        <time>2022-07-17T12:38:51Z</time>
      </trkpt>
      <trkpt lat="39.908211" lon="116.631629">
        <time>2022-07-17T12:38:56Z</time>
      </trkpt>
      <trkpt lat="39.908176" lon="116.631355">
        <time>2022-07-17T12:39:01Z</time>
      </trkpt>
      <trkpt lat="39.908143" lon="116.631144">
        <time>2022-07-17T12:39:06Z</time>
      </trkpt>
      <trkpt lat="39.908118" lon="116.631003">
        <time>2022-07-17T12:39:11Z</time>
      </trkpt>
      <trkpt lat="39.908114" lon="116.630974">
        <time>2022-07-17T12:39:16Z</time>
      </trkpt>
      <trkpt lat="39.908087" lon="116.630797">
        <time>2022-07-17T12:39:21Z</time>
      </trkpt>
      <trkpt lat="39.908064" lon="116.630603">
        <time>2022-07-17T12:39:26Z</time>
      </trkpt>
      <trkpt lat="39.908063" lon="116.630412">
        <time>2022-07-17T12:39:31Z</time>
      </trkpt>
      <trkpt lat="39.908056" lon="116.630259">
        <time>2022-07-17T12:39:36Z</time>
      </trkpt>
      <trkpt lat="39.908047" lon="116.630226">
        <time>2022-07-17T12:39:41Z</time>
      </trkpt>
      <trkpt lat="39.90799" lon="116.629997">
        <time>2022-07-17T12:39:46Z</time>
      </trkpt>
      <trkpt lat="39.907968" lon="116.62982">
        <time>2022-07-17T12:39:51Z</time>
      </trkpt>
      <trkpt lat="39.90794" lon="116.629653">
        <time>2022-07-17T12:39:56Z</time>
      </trkpt>
      <trkpt lat="39.90794" lon="116.629653">
        <time>2022-07-17T12:40:01Z</time>
      </trkpt>
      <trkpt lat="39.907896" lon="116.629407">
        <time>2022-07-17T12:40:06Z</time>
      </trkpt>
      <trkpt lat="39.90787" lon="116.629261">
        <time>2022-07-17T12:40:11Z</time>
      </trkpt>
      <trkpt lat="39.907844" lon="116.62908">
        <time>2022-07-17T12:40:16Z</time>
      </trkpt>
      <trkpt lat="39.907814" lon="116.628886">
        <time>2022-07-17T12:40:21Z</time>
      </trkpt>
      <trkpt lat="39.907814" lon="116.628886">
        <time>2022-07-17T12:40:26Z</time>
      </trkpt>
      <trkpt lat="39.907755" lon="116.628617">
        <time>2022-07-17T12:40:31Z</time>
      </trkpt>
      <trkpt lat="39.907714" lon="116.628468">
        <time>2022-07-17T12:40:36Z</time>
      </trkpt>
      <trkpt lat="39.907714" lon="116.628468">
        <time>2022-07-17T12:40:41Z</time>
      </trkpt>
      <trkpt lat="39.907668" lon="116.628206">
        <time>2022-07-17T12:40:46Z</time>
      </trkpt>
      <trkpt lat="39.907647" lon="116.628016">
        <time>2022-07-17T12:40:51Z</time>
      </trkpt>
      <trkpt lat="39.907647" lon="116.628016">
        <time>2022-07-17T12:40:56Z</time>
      </trkpt>
      <trkpt lat="39.907629" lon="116.627773">
        <time>2022-07-17T12:41:01Z</time>
      </trkpt>
      <trkpt lat="39.907618" lon="116.62754">
        <time>2022-07-17T12:41:06Z</time>
      </trkpt>
      <trkpt lat="39.907608" lon="116.627329">
        <time>2022-07-17T12:41:11Z</time>
      </trkpt>
      <trkpt lat="39.907601" lon="116.627227">
        <time>2022-07-17T12:41:16Z</time>
      </trkpt>
      <trkpt lat="39.907561" lon="116.627008">
        <time>2022-07-17T12:41:21Z</time>
      </trkpt>
      <trkpt lat="39.907526" lon="116.626797">
        <time>2022-07-17T12:41:26Z</time>
      </trkpt>
      <trkpt lat="39.907521" lon="116.626733">
        <time>2022-07-17T12:41:31Z</time>
      </trkpt>
      <trkpt lat="39.907515" lon="116.626491">
        <time>2022-07-17T12:41:36Z</time>
      </trkpt>
      <trkpt lat="39.907513" lon="116.626459">
        <time>2022-07-17T12:41:41Z</time>
      </trkpt>
      <trkpt lat="39.907496" lon="116.6262">
        <time>2022-07-17T12:41:46Z</time>
      </trkpt>
      <trkpt lat="39.907496" lon="116.6262">
        <time>2022-07-17T12:41:51Z</time>
      </trkpt>
      <trkpt lat="39.907487" lon="116.625927">
        <time>2022-07-17T12:41:56Z</time>
      </trkpt>
      <trkpt lat="39.907473" lon="116.625731">
        <time>2022-07-17T12:42:01Z</time>
      </trkpt>
      <trkpt lat="39.907469" lon="116.625699">
        <time>2022-07-17T12:42:06Z</time>
      </trkpt>
      <trkpt lat="39.907447" lon="116.625505">
        <time>2022-07-17T12:42:11Z</time>
      </trkpt>
      <trkpt lat="39.907439" lon="116.625355">
        <time>2022-07-17T12:42:16Z</time>
      </trkpt>
      <trkpt lat="39.907413" lon="116.625171">
        <time>2022-07-17T12:42:21Z</time>
      </trkpt>
      <trkpt lat="39.907387" lon="116.624985">
        <time>2022-07-17T12:42:26Z</time>
      </trkpt>
      <trkpt lat="39.907375" lon="116.62481">
        <time>2022-07-17T12:42:31Z</time>
      </trkpt>
      <trkpt lat="39.907367" lon="116.624702">
        <time>2022-07-17T12:42:36Z</time>
      </trkpt>
      <trkpt lat="39.907363" lon="116.624601">
        <time>2022-07-17T12:42:41Z</time>
      </trkpt>
      <trkpt lat="39.907318" lon="116.624377">
        <time>2022-07-17T12:42:46Z</time>
      </trkpt>
      <trkpt lat="39.907306" lon="116.624275">
        <time>2022-07-17T12:42:51Z</time>
      </trkpt>
      <trkpt lat="39.907294" lon="116.624068">
        <time>2022-07-17T12:42:56Z</time>
      </trkpt>
      <trkpt lat="39.907299" lon="116.623779">
        <time>2022-07-17T12:43:01Z</time>
      </trkpt>
      <trkpt lat="39.907272" lon="116.623642">
        <time>2022-07-17T12:43:06Z</time>
      </trkpt>
      <trkpt lat="39.907236" lon="116.623488">
        <time>2022-07-17T12:43:11Z</time>
      </trkpt>
      <trkpt lat="39.907215" lon="116.623385">
        <time>2022-07-17T12:43:16Z</time>
      </trkpt>
      <trkpt lat="39.907197" lon="116.62325">
        <time>2022-07-17T12:43:21Z</time>
      </trkpt>
      <trkpt lat="39.907162" lon="116.622992">
        <time>2022-07-17T12:43:26Z</time>
      </trkpt>
      <trkpt lat="39.907147" lon="116.622829">
        <time>2022-07-17T12:43:31Z</time>
      </trkpt>
      <trkpt lat="39.907142" lon="116.622795">
        <time>2022-07-17T12:43:36Z</time>
      </trkpt>
      <trkpt lat="39.907107" lon="116.622552">
        <time>2022-07-17T12:43:41Z</time>
      </trkpt>
      <trkpt lat="39.907083" lon="116.622381">
        <time>2022-07-17T12:43:46Z</time>
      </trkpt>
      <trkpt lat="39.907071" lon="116.622195">
        <time>2022-07-17T12:43:51Z</time>
      </trkpt>
      <trkpt lat="39.907029" lon="116.622005">
        <time>2022-07-17T12:43:56Z</time>
      </trkpt>
      <trkpt lat="39.907022" lon="116.621978">
        <time>2022-07-17T12:44:01Z</time>
      </trkpt>
      <trkpt lat="39.906966" lon="116.621757">
        <time>2022-07-17T12:44:06Z</time>
      </trkpt>
      <trkpt lat="39.906966" lon="116.621757">
        <time>2022-07-17T12:44:11Z</time>
      </trkpt>
      <trkpt lat="39.906941" lon="116.621468">
        <time>2022-07-17T12:44:16Z</time>
      </trkpt>
      <trkpt lat="39.906924" lon="116.621337">
        <time>2022-07-17T12:44:21Z</time>
      </trkpt>
      <trkpt lat="39.90689" lon="116.621129">
        <time>2022-07-17T12:44:26Z</time>
      </trkpt>
      <trkpt lat="39.906866" lon="116.620982">
        <time>2022-07-17T12:44:31Z</time>
      </trkpt>
      <trkpt lat="39.906829" lon="116.620842">
        <time>2022-07-17T12:44:36Z</time>
      </trkpt>
      <trkpt lat="39.906813" lon="116.620654">
        <time>2022-07-17T12:44:41Z</time>
      </trkpt>
      <trkpt lat="39.906804" lon="116.620492">
        <time>2022-07-17T12:44:46Z</time>
      </trkpt>
      <trkpt lat="39.906801" lon="116.620464">
        <time>2022-07-17T12:44:51Z</time>
      </trkpt>
      <trkpt lat="39.906777" lon="116.620263">
        <time>2022-07-17T12:44:56Z</time>
      </trkpt>
      <trkpt lat="39.906758" lon="116.620087">
        <time>2022-07-17T12:45:01Z</time>
      </trkpt>
      <trkpt lat="39.906724" lon="116.619903">
        <time>2022-07-17T12:45:06Z</time>
      </trkpt>
      <trkpt lat="39.906684" lon="116.619729">
        <time>2022-07-17T12:45:11Z</time>
      </trkpt>
      <trkpt lat="39.90668" lon="116.619693">
        <time>2022-07-17T12:45:16Z</time>
      </trkpt>
      <trkpt lat="39.906654" lon="116.61945">
        <time>2022-07-17T12:45:21Z</time>
      </trkpt>
      <trkpt lat="39.906656" lon="116.619283">
        <time>2022-07-17T12:45:26Z</time>
      </trkpt>
      <trkpt lat="39.906656" lon="116.619283">
        <time>2022-07-17T12:45:31Z</time>
      </trkpt>
      <trkpt lat="39.906609" lon="116.619026">
        <time>2022-07-17T12:45:36Z</time>
      </trkpt>
      <trkpt lat="39.906586" lon="116.618862">
        <time>2022-07-17T12:45:41Z</time>
      </trkpt>
      <trkpt lat="39.906597" lon="116.618634">
        <time>2022-07-17T12:45:46Z</time>
      </trkpt>
      <trkpt lat="39.906594" lon="116.618599">
        <time>2022-07-17T12:45:51Z</time>
      </trkpt>
      <trkpt lat="39.906567" lon="116.618351">
        <time>2022-07-17T12:45:56Z</time>
      </trkpt>
      <trkpt lat="39.906545" lon="116.61812">
        <time>2022-07-17T12:46:01Z</time>
      </trkpt>
      <trkpt lat="39.906522" lon="116.617946">
        <time>2022-07-17T12:46:06Z</time>
      </trkpt>
      <trkpt lat="39.906485" lon="116.617758">
        <time>2022-07-17T12:46:11Z</time>
      </trkpt>
      <trkpt lat="39.906482" lon="116.61772">
        <time>2022-07-17T12:46:16Z</time>
      </trkpt>
      <trkpt lat="39.906439" lon="116.617411">
        <time>2022-07-17T12:46:21Z</time>
      </trkpt>
      <trkpt lat="39.906383" lon="116.617172">
        <time>2022-07-17T12:46:26Z</time>
      </trkpt>
      <trkpt lat="39.906396" lon="116.617032">
        <time>2022-07-17T12:46:31Z</time>
      </trkpt>
      <trkpt lat="39.906381" lon="116.616861">
        <time>2022-07-17T12:46:36Z</time>
      </trkpt>
      <trkpt lat="39.906378" lon="116.616831">
        <time>2022-07-17T12:46:41Z</time>
      </trkpt>
      <trkpt lat="39.906354" lon="116.616637">
        <time>2022-07-17T12:46:46Z</time>
      </trkpt>
      <trkpt lat="39.90631" lon="116.616435">
        <time>2022-07-17T12:46:51Z</time>
      </trkpt>
      <trkpt lat="39.906248" lon="116.616208">
        <time>2022-07-17T12:46:56Z</time>
      </trkpt>
      <trkpt lat="39.906248" lon="116.616208">
        <time>2022-07-17T12:47:01Z</time>
      </trkpt>
      <trkpt lat="39.906142" lon="116.615923">
        <time>2022-07-17T12:47:06Z</time>
      </trkpt>
      <trkpt lat="39.906142" lon="116.615923">
        <time>2022-07-17T12:47:11Z</time>
      </trkpt>
      <trkpt lat="39.906072" lon="116.615693">
        <time>2022-07-17T12:47:16Z</time>
      </trkpt>
      <trkpt lat="39.90598" lon="116.615459">
        <time>2022-07-17T12:47:21Z</time>
      </trkpt>
      <trkpt lat="39.905914" lon="116.615327">
        <time>2022-07-17T12:47:26Z</time>
      </trkpt>
      <trkpt lat="39.905905" lon="116.615301">
        <time>2022-07-17T12:47:31Z</time>
      </trkpt>
      <trkpt lat="39.905844" lon="116.615111">
        <time>2022-07-17T12:47:36Z</time>
      </trkpt>
      <trkpt lat="39.905843" lon="116.614935">
        <time>2022-07-17T12:47:41Z</time>
      </trkpt>
      <trkpt lat="39.90584" lon="116.614755">
        <time>2022-07-17T12:47:46Z</time>
      </trkpt>
      <trkpt lat="39.90584" lon="116.614724">
        <time>2022-07-17T12:47:51Z</time>
      </trkpt>
      <trkpt lat="39.905837" lon="116.614465">
        <time>2022-07-17T12:47:56Z</time>
      </trkpt>
      <trkpt lat="39.905804" lon="116.614251">
        <time>2022-07-17T12:48:01Z</time>
      </trkpt>
      <trkpt lat="39.905806" lon="116.614217">
        <time>2022-07-17T12:48:06Z</time>
      </trkpt>
      <trkpt lat="39.905827" lon="116.613906">
        <time>2022-07-17T12:48:11Z</time>
      </trkpt>
      <trkpt lat="39.905827" lon="116.613906">
        <time>2022-07-17T12:48:16Z</time>
      </trkpt>
      <trkpt lat="39.905859" lon="116.613652">
        <time>2022-07-17T12:48:21Z</time>
      </trkpt>
      <trkpt lat="39.905891" lon="116.613449">
        <time>2022-07-17T12:48:26Z</time>
      </trkpt>
      <trkpt lat="39.905891" lon="116.613449">
        <time>2022-07-17T12:48:31Z</time>
      </trkpt>
      <trkpt lat="39.905907" lon="116.61316">
        <time>2022-07-17T12:48:36Z</time>
      </trkpt>
      <trkpt lat="39.905907" lon="116.61316">
        <time>2022-07-17T12:48:41Z</time>
      </trkpt>
      <trkpt lat="39.905895" lon="116.612929">
        <time>2022-07-17T12:48:46Z</time>
      </trkpt>
      <trkpt lat="39.905867" lon="116.612832">
        <time>2022-07-17T12:48:51Z</time>
      </trkpt>
      <trkpt lat="39.905824" lon="116.612889">
        <time>2022-07-17T12:48:56Z</time>
      </trkpt>
      <trkpt lat="39.905822" lon="116.612982">
        <time>2022-07-17T12:49:01Z</time>
      </trkpt>
      <trkpt lat="39.905847" lon="116.613257">
        <time>2022-07-17T12:49:06Z</time>
      </trkpt>
      <trkpt lat="39.905847" lon="116.613257">
        <time>2022-07-17T12:49:11Z</time>
      </trkpt>
      <trkpt lat="39.905829" lon="116.613521">
        <time>2022-07-17T12:49:16Z</time>
      </trkpt>
      <trkpt lat="39.90581" lon="116.613744">
        <time>2022-07-17T12:49:21Z</time>
      </trkpt>
      <trkpt lat="39.905803" lon="116.613811">
        <time>2022-07-17T12:49:26Z</time>
      </trkpt>
      <trkpt lat="39.905782" lon="116.614054">
        <time>2022-07-17T12:49:31Z</time>
      </trkpt>
      <trkpt lat="39.905773" lon="116.614186">
        <time>2022-07-17T12:49:36Z</time>
      </trkpt>
      <trkpt lat="39.905779" lon="116.614404">
        <time>2022-07-17T12:49:41Z</time>
      </trkpt>
      <trkpt lat="39.905779" lon="116.614404">
        <time>2022-07-17T12:49:46Z</time>
      </trkpt>
      <trkpt lat="39.905815" lon="116.614629">
        <time>2022-07-17T12:49:51Z</time>
      </trkpt>
      <trkpt lat="39.905786" lon="116.614754">
        <time>2022-07-17T12:49:56Z</time>
      </trkpt>
      <trkpt lat="39.905719" lon="116.614878">
        <time>2022-07-17T12:50:01Z</time>
      </trkpt>
      <trkpt lat="39.90572" lon="116.614912">
        <time>2022-07-17T12:50:06Z</time>
      </trkpt>
      <trkpt lat="39.905732" lon="116.615153">
        <time>2022-07-17T12:50:11Z</time>
      </trkpt>
      <trkpt lat="39.905743" lon="116.615384">
        <time>2022-07-17T12:50:16Z</time>
      </trkpt>
      <trkpt lat="39.905745" lon="116.615567">
        <time>2022-07-17T12:50:21Z</time>
      </trkpt>
      <trkpt lat="39.905745" lon="116.615694">
        <time>2022-07-17T12:50:26Z</time>
      </trkpt>
      <trkpt lat="39.905733" lon="116.615983">
        <time>2022-07-17T12:50:31Z</time>
      </trkpt>
      <trkpt lat="39.905727" lon="116.616168">
        <time>2022-07-17T12:50:36Z</time>
      </trkpt>
      <trkpt lat="39.90572" lon="116.616235">
        <time>2022-07-17T12:50:41Z</time>
      </trkpt>
      <trkpt lat="39.905696" lon="116.616472">
        <time>2022-07-17T12:50:46Z</time>
      </trkpt>
      <trkpt lat="39.905686" lon="116.616685">
        <time>2022-07-17T12:50:51Z</time>
      </trkpt>
      <trkpt lat="39.905682" lon="116.616796">
        <time>2022-07-17T12:50:56Z</time>
      </trkpt>
      <trkpt lat="39.90567" lon="116.617041">
        <time>2022-07-17T12:51:01Z</time>
      </trkpt>
      <trkpt lat="39.90562" lon="116.617249">
        <time>2022-07-17T12:51:06Z</time>
      </trkpt>
      <trkpt lat="39.905618" lon="116.617282">
        <time>2022-07-17T12:51:11Z</time>
      </trkpt>
      <trkpt lat="39.905608" lon="116.617581">
        <time>2022-07-17T12:51:16Z</time>
      </trkpt>
      <trkpt lat="39.905608" lon="116.617581">
        <time>2022-07-17T12:51:21Z</time>
      </trkpt>
      <trkpt lat="39.905633" lon="116.617875">
        <time>2022-07-17T12:51:26Z</time>
      </trkpt>
      <trkpt lat="39.905648" lon="116.618144">
        <time>2022-07-17T12:51:31Z</time>
      </trkpt>
      <trkpt lat="39.905651" lon="116.618222">
        <time>2022-07-17T12:51:36Z</time>
      </trkpt>
      <trkpt lat="39.905665" lon="116.618462">
        <time>2022-07-17T12:51:41Z</time>
      </trkpt>
      <trkpt lat="39.905679" lon="116.618618">
        <time>2022-07-17T12:51:46Z</time>
      </trkpt>
      <trkpt lat="39.905705" lon="116.618851">
        <time>2022-07-17T12:51:51Z</time>
      </trkpt>
      <trkpt lat="39.905713" lon="116.618946">
        <time>2022-07-17T12:51:56Z</time>
      </trkpt>
      <trkpt lat="39.905746" lon="116.6192">
        <time>2022-07-17T12:52:01Z</time>
      </trkpt>
      <trkpt lat="39.905746" lon="116.6192">
        <time>2022-07-17T12:52:06Z</time>
      </trkpt>
      <trkpt lat="39.905799" lon="116.619461">
        <time>2022-07-17T12:52:11Z</time>
      </trkpt>
      <trkpt lat="39.905825" lon="116.619705">
        <time>2022-07-17T12:52:16Z</time>
      </trkpt>
      <trkpt lat="39.905819" lon="116.619736">
        <time>2022-07-17T12:52:21Z</time>
      </trkpt>
      <trkpt lat="39.905782" lon="116.619956">
        <time>2022-07-17T12:52:26Z</time>
      </trkpt>
      <trkpt lat="39.905781" lon="116.620168">
        <time>2022-07-17T12:52:42Z</time>
      </trkpt>
    </trkseg>
  </trk>
</gpx>