<?xml version="1.0" encoding="UTF-8"?>
<gpx xmlns="http://www.topografix.com/GPX/1/1" xmlns:gpxtpx="http://www.garmin.com/xmlschemas/TrackPointExtension/v1" xmlns:xsi="http://www.w3.org/2001/XMLSchema-instance" xsi:schemaLocation="http://www.topografix.com/GPX/1/1 http://www.topografix.com/GPX/1/1/gpx.xsd" version="1.1" creator="gpx.py -- https://github.com/tkrajina/gpxpy">
  <trk>
    <name>gpx from keep</name>
    <trkseg>
      <trkpt lat="39.905862" lon="116.614663">
        <time>2022-07-24T12:01:02Z</time>
      </trkpt>
      <trkpt lat="39.905855" lon="116.614787">
        <time>2022-07-24T12:01:07Z</time>
      </trkpt>
      <trkpt lat="39.905846" lon="116.614932">
        <time>2022-07-24T12:01:12Z</time>
      </trkpt>
      <trkpt lat="39.905857" lon="116.615144">
        <time>2022-07-24T12:01:17Z</time>
      </trkpt>
      <trkpt lat="39.905888" lon="116.615237">
        <time>2022-07-24T12:01:22Z</time>
      </trkpt>
      <trkpt lat="39.905973" lon="116.615418">
        <time>2022-07-24T12:01:27Z</time>
      </trkpt>
      <trkpt lat="39.906046" lon="116.615609">
        <time>2022-07-24T12:01:32Z</time>
      </trkpt>
      <trkpt lat="39.906046" lon="116.615609">
        <time>2022-07-24T12:01:37Z</time>
      </trkpt>
      <trkpt lat="39.906162" lon="116.615881">
        <time>2022-07-24T12:01:42Z</time>
      </trkpt>
      <trkpt lat="39.906277" lon="116.616104">
        <time>2022-07-24T12:01:47Z</time>
      </trkpt>
      <trkpt lat="39.906291" lon="116.616138">
        <time>2022-07-24T12:01:52Z</time>
      </trkpt>
      <trkpt lat="39.906394" lon="116.616455">
        <time>2022-07-24T12:01:57Z</time>
      </trkpt>
      <trkpt lat="39.906394" lon="116.616455">
        <time>2022-07-24T12:02:02Z</time>
      </trkpt>
      <trkpt lat="39.906429" lon="116.616706">
        <time>2022-07-24T12:02:07Z</time>
      </trkpt>
      <trkpt lat="39.906475" lon="116.616972">
        <time>2022-07-24T12:02:12Z</time>
      </trkpt>
      <trkpt lat="39.906487" lon="116.617078">
        <time>2022-07-24T12:02:17Z</time>
      </trkpt>
      <trkpt lat="39.906513" lon="116.617329">
        <time>2022-07-24T12:02:22Z</time>
      </trkpt>
      <trkpt lat="39.906537" lon="116.617543">
        <time>2022-07-24T12:02:27Z</time>
      </trkpt>
      <trkpt lat="39.90655" lon="116.617681">
        <time>2022-07-24T12:02:32Z</time>
      </trkpt>
      <trkpt lat="39.906582" lon="116.617881">
        <time>2022-07-24T12:02:37Z</time>
      </trkpt>
      <trkpt lat="39.90659" lon="116.617943">
        <time>2022-07-24T12:02:42Z</time>
      </trkpt>
      <trkpt lat="39.906613" lon="116.618186">
        <time>2022-07-24T12:02:47Z</time>
      </trkpt>
      <trkpt lat="39.906618" lon="116.618293">
        <time>2022-07-24T12:02:52Z</time>
      </trkpt>
      <trkpt lat="39.906642" lon="116.618555">
        <time>2022-07-24T12:02:57Z</time>
      </trkpt>
      <trkpt lat="39.906642" lon="116.618555">
        <time>2022-07-24T12:03:02Z</time>
      </trkpt>
      <trkpt lat="39.906676" lon="116.618838">
        <time>2022-07-24T12:03:07Z</time>
      </trkpt>
      <trkpt lat="39.906676" lon="116.618838">
        <time>2022-07-24T12:03:12Z</time>
      </trkpt>
      <trkpt lat="39.906691" lon="116.619106">
        <time>2022-07-24T12:03:17Z</time>
      </trkpt>
      <trkpt lat="39.906709" lon="116.619318">
        <time>2022-07-24T12:03:22Z</time>
      </trkpt>
      <trkpt lat="39.906712" lon="116.619349">
        <time>2022-07-24T12:03:27Z</time>
      </trkpt>
      <trkpt lat="39.906737" lon="116.619534">
        <time>2022-07-24T12:03:32Z</time>
      </trkpt>
      <trkpt lat="39.906771" lon="116.619727">
        <time>2022-07-24T12:03:37Z</time>
      </trkpt>
      <trkpt lat="39.906772" lon="116.619831">
        <time>2022-07-24T12:03:42Z</time>
      </trkpt>
      <trkpt lat="39.906803" lon="116.62002">
        <time>2022-07-24T12:03:47Z</time>
      </trkpt>
      <trkpt lat="39.906806" lon="116.620046">
        <time>2022-07-24T12:03:52Z</time>
      </trkpt>
      <trkpt lat="39.906835" lon="116.620263">
        <time>2022-07-24T12:03:57Z</time>
      </trkpt>
      <trkpt lat="39.906852" lon="116.620438">
        <time>2022-07-24T12:04:02Z</time>
      </trkpt>
      <trkpt lat="39.906857" lon="116.620499">
        <time>2022-07-24T12:04:07Z</time>
      </trkpt>
      <trkpt lat="39.906888" lon="116.620696">
        <time>2022-07-24T12:04:12Z</time>
      </trkpt>
      <trkpt lat="39.906895" lon="116.620831">
        <time>2022-07-24T12:04:17Z</time>
      </trkpt>
      <trkpt lat="39.906896" lon="116.620965">
        <time>2022-07-24T12:04:22Z</time>
      </trkpt>
      <trkpt lat="39.906896" lon="116.620965">
        <time>2022-07-24T12:04:27Z</time>
      </trkpt>
      <trkpt lat="39.906947" lon="116.621262">
        <time>2022-07-24T12:04:32Z</time>
      </trkpt>
      <trkpt lat="39.906965" lon="116.62139">
        <time>2022-07-24T12:04:37Z</time>
      </trkpt>
      <trkpt lat="39.906977" lon="116.621586">
        <time>2022-07-24T12:04:42Z</time>
      </trkpt>
      <trkpt lat="39.907019" lon="116.621747">
        <time>2022-07-24T12:04:47Z</time>
      </trkpt>
      <trkpt lat="39.907025" lon="116.621775">
        <time>2022-07-24T12:04:52Z</time>
      </trkpt>
      <trkpt lat="39.907062" lon="116.621948">
        <time>2022-07-24T12:04:57Z</time>
      </trkpt>
      <trkpt lat="39.907113" lon="116.622174">
        <time>2022-07-24T12:05:02Z</time>
      </trkpt>
      <trkpt lat="39.907142" lon="116.622297">
        <time>2022-07-24T12:05:07Z</time>
      </trkpt>
      <trkpt lat="39.907173" lon="116.622471">
        <time>2022-07-24T12:05:12Z</time>
      </trkpt>
      <trkpt lat="39.907173" lon="116.622471">
        <time>2022-07-24T12:05:17Z</time>
      </trkpt>
      <trkpt lat="39.907203" lon="116.622691">
        <time>2022-07-24T12:05:22Z</time>
      </trkpt>
      <trkpt lat="39.907216" lon="116.622855">
        <time>2022-07-24T12:05:27Z</time>
      </trkpt>
      <trkpt lat="39.90722" lon="116.623046">
        <time>2022-07-24T12:05:32Z</time>
      </trkpt>
      <trkpt lat="39.907237" lon="116.623205">
        <time>2022-07-24T12:05:37Z</time>
      </trkpt>
      <trkpt lat="39.907271" lon="116.623362">
        <time>2022-07-24T12:05:42Z</time>
      </trkpt>
      <trkpt lat="39.907277" lon="116.623392">
        <time>2022-07-24T12:05:47Z</time>
      </trkpt>
      <trkpt lat="39.907324" lon="116.623607">
        <time>2022-07-24T12:05:52Z</time>
      </trkpt>
      <trkpt lat="39.907378" lon="116.623779">
        <time>2022-07-24T12:05:57Z</time>
      </trkpt>
      <trkpt lat="39.90739" lon="116.623897">
        <time>2022-07-24T12:06:02Z</time>
      </trkpt>
      <trkpt lat="39.907391" lon="116.624091">
        <time>2022-07-24T12:06:07Z</time>
      </trkpt>
      <trkpt lat="39.907391" lon="116.624127">
        <time>2022-07-24T12:06:12Z</time>
      </trkpt>
      <trkpt lat="39.907395" lon="116.624339">
        <time>2022-07-24T12:06:17Z</time>
      </trkpt>
      <trkpt lat="39.907439" lon="116.624556">
        <time>2022-07-24T12:06:22Z</time>
      </trkpt>
      <trkpt lat="39.907457" lon="116.624682">
        <time>2022-07-24T12:06:27Z</time>
      </trkpt>
      <trkpt lat="39.907453" lon="116.62474">
        <time>2022-07-24T12:06:32Z</time>
      </trkpt>
      <trkpt lat="39.90744" lon="116.624951">
        <time>2022-07-24T12:06:37Z</time>
      </trkpt>
      <trkpt lat="39.907469" lon="116.625089">
        <time>2022-07-24T12:06:42Z</time>
      </trkpt>
      <trkpt lat="39.90751" lon="116.625272">
        <time>2022-07-24T12:06:47Z</time>
      </trkpt>
      <trkpt lat="39.907512" lon="116.625305">
        <time>2022-07-24T12:06:52Z</time>
      </trkpt>
      <trkpt lat="39.907531" lon="116.625537">
        <time>2022-07-24T12:06:57Z</time>
      </trkpt>
      <trkpt lat="39.907548" lon="116.625772">
        <time>2022-07-24T12:07:02Z</time>
      </trkpt>
      <trkpt lat="39.907552" lon="116.6258">
        <time>2022-07-24T12:07:07Z</time>
      </trkpt>
      <trkpt lat="39.907596" lon="116.626061">
        <time>2022-07-24T12:07:12Z</time>
      </trkpt>
      <trkpt lat="39.907611" lon="116.626156">
        <time>2022-07-24T12:07:17Z</time>
      </trkpt>
      <trkpt lat="39.907634" lon="116.626357">
        <time>2022-07-24T12:07:22Z</time>
      </trkpt>
      <trkpt lat="39.907642" lon="116.626501">
        <time>2022-07-24T12:07:27Z</time>
      </trkpt>
      <trkpt lat="39.907653" lon="116.626658">
        <time>2022-07-24T12:07:32Z</time>
      </trkpt>
      <trkpt lat="39.907656" lon="116.626689">
        <time>2022-07-24T12:07:37Z</time>
      </trkpt>
      <trkpt lat="39.907691" lon="116.626963">
        <time>2022-07-24T12:07:42Z</time>
      </trkpt>
      <trkpt lat="39.90772" lon="116.627114">
        <time>2022-07-24T12:07:47Z</time>
      </trkpt>
      <trkpt lat="39.90772" lon="116.627114">
        <time>2022-07-24T12:07:52Z</time>
      </trkpt>
      <trkpt lat="39.907759" lon="116.627362">
        <time>2022-07-24T12:07:57Z</time>
      </trkpt>
      <trkpt lat="39.907774" lon="116.627569">
        <time>2022-07-24T12:08:02Z</time>
      </trkpt>
      <trkpt lat="39.907776" lon="116.627704">
        <time>2022-07-24T12:08:07Z</time>
      </trkpt>
      <trkpt lat="39.907792" lon="116.627902">
        <time>2022-07-24T12:08:12Z</time>
      </trkpt>
      <trkpt lat="39.907795" lon="116.62793">
        <time>2022-07-24T12:08:17Z</time>
      </trkpt>
      <trkpt lat="39.907821" lon="116.62816">
        <time>2022-07-24T12:08:22Z</time>
      </trkpt>
      <trkpt lat="39.907821" lon="116.62816">
        <time>2022-07-24T12:08:27Z</time>
      </trkpt>
      <trkpt lat="39.907835" lon="116.628394">
        <time>2022-07-24T12:08:32Z</time>
      </trkpt>
      <trkpt lat="39.907851" lon="116.628614">
        <time>2022-07-24T12:08:37Z</time>
      </trkpt>
      <trkpt lat="39.907861" lon="116.628797">
        <time>2022-07-24T12:08:42Z</time>
      </trkpt>
      <trkpt lat="39.907868" lon="116.62895">
        <time>2022-07-24T12:08:47Z</time>
      </trkpt>
      <trkpt lat="39.907873" lon="116.62898">
        <time>2022-07-24T12:08:52Z</time>
      </trkpt>
      <trkpt lat="39.907924" lon="116.629251">
        <time>2022-07-24T12:08:57Z</time>
      </trkpt>
      <trkpt lat="39.907924" lon="116.629251">
        <time>2022-07-24T12:09:02Z</time>
      </trkpt>
      <trkpt lat="39.907968" lon="116.629507">
        <time>2022-07-24T12:09:07Z</time>
      </trkpt>
      <trkpt lat="39.907989" lon="116.629672">
        <time>2022-07-24T12:09:12Z</time>
      </trkpt>
      <trkpt lat="39.908" lon="116.629726">
        <time>2022-07-24T12:09:17Z</time>
      </trkpt>
      <trkpt lat="39.908041" lon="116.629948">
        <time>2022-07-24T12:09:22Z</time>
      </trkpt>
      <trkpt lat="39.908041" lon="116.629948">
        <time>2022-07-24T12:09:27Z</time>
      </trkpt>
      <trkpt lat="39.908067" lon="116.63025">
        <time>2022-07-24T12:09:32Z</time>
      </trkpt>
      <trkpt lat="39.908067" lon="116.63025">
        <time>2022-07-24T12:09:37Z</time>
      </trkpt>
      <trkpt lat="39.908094" lon="116.630445">
        <time>2022-07-24T12:09:42Z</time>
      </trkpt>
      <trkpt lat="39.908116" lon="116.630612">
        <time>2022-07-24T12:09:47Z</time>
      </trkpt>
      <trkpt lat="39.908147" lon="116.630818">
        <time>2022-07-24T12:09:52Z</time>
      </trkpt>
      <trkpt lat="39.90817" lon="116.630958">
        <time>2022-07-24T12:09:57Z</time>
      </trkpt>
      <trkpt lat="39.908174" lon="116.631078">
        <time>2022-07-24T12:10:02Z</time>
      </trkpt>
      <trkpt lat="39.908203" lon="116.631214">
        <time>2022-07-24T12:10:07Z</time>
      </trkpt>
      <trkpt lat="39.908221" lon="116.631291">
        <time>2022-07-24T12:10:12Z</time>
      </trkpt>
      <trkpt lat="39.908245" lon="116.63152">
        <time>2022-07-24T12:10:17Z</time>
      </trkpt>
      <trkpt lat="39.908249" lon="116.631553">
        <time>2022-07-24T12:10:22Z</time>
      </trkpt>
      <trkpt lat="39.908282" lon="116.631782">
        <time>2022-07-24T12:10:27Z</time>
      </trkpt>
      <trkpt lat="39.908308" lon="116.63199">
        <time>2022-07-24T12:10:32Z</time>
      </trkpt>
      <trkpt lat="39.908313" lon="116.632051">
        <time>2022-07-24T12:10:37Z</time>
      </trkpt>
      <trkpt lat="39.908346" lon="116.632306">
        <time>2022-07-24T12:10:42Z</time>
      </trkpt>
      <trkpt lat="39.90836" lon="116.632463">
        <time>2022-07-24T12:10:47Z</time>
      </trkpt>
      <trkpt lat="39.908366" lon="116.632493">
        <time>2022-07-24T12:10:52Z</time>
      </trkpt>
      <trkpt lat="39.908404" lon="116.632709">
        <time>2022-07-24T12:10:57Z</time>
      </trkpt>
      <trkpt lat="39.908419" lon="116.632918">
        <time>2022-07-24T12:11:02Z</time>
      </trkpt>
      <trkpt lat="39.908419" lon="116.632918">
        <time>2022-07-24T12:11:07Z</time>
      </trkpt>
      <trkpt lat="39.90842" lon="116.633102">
        <time>2022-07-24T12:11:12Z</time>
      </trkpt>
      <trkpt lat="39.908418" lon="116.633247">
        <time>2022-07-24T12:11:17Z</time>
      </trkpt>
      <trkpt lat="39.908431" lon="116.633425">
        <time>2022-07-24T12:11:22Z</time>
      </trkpt>
      <trkpt lat="39.908431" lon="116.633425">
        <time>2022-07-24T12:11:27Z</time>
      </trkpt>
      <trkpt lat="39.908444" lon="116.633638">
        <time>2022-07-24T12:11:32Z</time>
      </trkpt>
      <trkpt lat="39.908444" lon="116.633638">
        <time>2022-07-24T12:11:37Z</time>
      </trkpt>
      <trkpt lat="39.908435" lon="116.633888">
        <time>2022-07-24T12:11:42Z</time>
      </trkpt>
      <trkpt lat="39.908457" lon="116.634135">
        <time>2022-07-24T12:11:47Z</time>
      </trkpt>
      <trkpt lat="39.908449" lon="116.634297">
        <time>2022-07-24T12:11:52Z</time>
      </trkpt>
      <trkpt lat="39.908449" lon="116.634327">
        <time>2022-07-24T12:11:57Z</time>
      </trkpt>
      <trkpt lat="39.908451" lon="116.634567">
        <time>2022-07-24T12:12:02Z</time>
      </trkpt>
      <trkpt lat="39.908451" lon="116.634567">
        <time>2022-07-24T12:12:07Z</time>
      </trkpt>
      <trkpt lat="39.908479" lon="116.634844">
        <time>2022-07-24T12:12:12Z</time>
      </trkpt>
      <trkpt lat="39.908483" lon="116.63505">
        <time>2022-07-24T12:12:17Z</time>
      </trkpt>
      <trkpt lat="39.908488" lon="116.6352">
        <time>2022-07-24T12:12:22Z</time>
      </trkpt>
      <trkpt lat="39.908497" lon="116.635335">
        <time>2022-07-24T12:12:27Z</time>
      </trkpt>
      <trkpt lat="39.908498" lon="116.635362">
        <time>2022-07-24T12:12:32Z</time>
      </trkpt>
      <trkpt lat="39.90851" lon="116.635619">
        <time>2022-07-24T12:12:37Z</time>
      </trkpt>
      <trkpt lat="39.908509" lon="116.635646">
        <time>2022-07-24T12:12:42Z</time>
      </trkpt>
      <trkpt lat="39.908497" lon="116.635854">
        <time>2022-07-24T12:12:47Z</time>
      </trkpt>
      <trkpt lat="39.908482" lon="116.636014">
        <time>2022-07-24T12:12:52Z</time>
      </trkpt>
      <trkpt lat="39.908458" lon="116.636154">
        <time>2022-07-24T12:12:57Z</time>
      </trkpt>
      <trkpt lat="39.908432" lon="116.636257">
        <time>2022-07-24T12:13:02Z</time>
      </trkpt>
      <trkpt lat="39.908432" lon="116.636257">
        <time>2022-07-24T12:13:07Z</time>
      </trkpt>
      <trkpt lat="39.908382" lon="116.636478">
        <time>2022-07-24T12:13:12Z</time>
      </trkpt>
      <trkpt lat="39.908354" lon="116.636733">
        <time>2022-07-24T12:13:17Z</time>
      </trkpt>
      <trkpt lat="39.90832" lon="116.636911">
        <time>2022-07-24T12:13:22Z</time>
      </trkpt>
      <trkpt lat="39.908305" lon="116.637008">
        <time>2022-07-24T12:13:27Z</time>
      </trkpt>
      <trkpt lat="39.908246" lon="116.637225">
        <time>2022-07-24T12:13:32Z</time>
      </trkpt>
      <trkpt lat="39.908246" lon="116.637225">
        <time>2022-07-24T12:13:37Z</time>
      </trkpt>
      <trkpt lat="39.908246" lon="116.637225">
        <time>2022-07-24T12:13:42Z</time>
      </trkpt>
      <trkpt lat="39.908246" lon="116.637225">
        <time>2022-07-24T12:13:47Z</time>
      </trkpt>
      <trkpt lat="39.908246" lon="116.637225">
        <time>2022-07-24T12:13:52Z</time>
      </trkpt>
      <trkpt lat="39.908246" lon="116.637225">
        <time>2022-07-24T12:13:57Z</time>
      </trkpt>
      <trkpt lat="39.908246" lon="116.637225">
        <time>2022-07-24T12:14:02Z</time>
      </trkpt>
      <trkpt lat="39.908246" lon="116.637225">
        <time>2022-07-24T12:14:07Z</time>
      </trkpt>
      <trkpt lat="39.908246" lon="116.637225">
        <time>2022-07-24T12:14:12Z</time>
      </trkpt>
      <trkpt lat="39.908246" lon="116.637225">
        <time>2022-07-24T12:14:17Z</time>
      </trkpt>
      <trkpt lat="39.908246" lon="116.637225">
        <time>2022-07-24T12:14:22Z</time>
      </trkpt>
      <trkpt lat="39.908198" lon="116.637237">
        <time>2022-07-24T12:14:27Z</time>
      </trkpt>
      <trkpt lat="39.908204" lon="116.637279">
        <time>2022-07-24T12:14:32Z</time>
      </trkpt>
      <trkpt lat="39.90827" lon="116.637577">
        <time>2022-07-24T12:14:37Z</time>
      </trkpt>
      <trkpt lat="39.908364" lon="116.637717">
        <time>2022-07-24T12:14:42Z</time>
      </trkpt>
      <trkpt lat="39.908424" lon="116.637839">
        <time>2022-07-24T12:14:47Z</time>
      </trkpt>
      <trkpt lat="39.908468" lon="116.638034">
        <time>2022-07-24T12:14:52Z</time>
      </trkpt>
      <trkpt lat="39.908468" lon="116.638034">
        <time>2022-07-24T12:14:57Z</time>
      </trkpt>
      <trkpt lat="39.908491" lon="116.638294">
        <time>2022-07-24T12:15:02Z</time>
      </trkpt>
      <trkpt lat="39.90848" lon="116.638605">
        <time>2022-07-24T12:15:07Z</time>
      </trkpt>
      <trkpt lat="39.908474" lon="116.638765">
        <time>2022-07-24T12:15:12Z</time>
      </trkpt>
      <trkpt lat="39.908461" lon="116.639008">
        <time>2022-07-24T12:15:17Z</time>
      </trkpt>
      <trkpt lat="39.908473" lon="116.639214">
        <time>2022-07-24T12:15:22Z</time>
      </trkpt>
      <trkpt lat="39.908486" lon="116.639422">
        <time>2022-07-24T12:15:27Z</time>
      </trkpt>
      <trkpt lat="39.908494" lon="116.639623">
        <time>2022-07-24T12:15:32Z</time>
      </trkpt>
      <trkpt lat="39.908495" lon="116.639665">
        <time>2022-07-24T12:15:37Z</time>
      </trkpt>
      <trkpt lat="39.908504" lon="116.64">
        <time>2022-07-24T12:15:42Z</time>
      </trkpt>
      <trkpt lat="39.908518" lon="116.640251">
        <time>2022-07-24T12:15:47Z</time>
      </trkpt>
      <trkpt lat="39.908553" lon="116.640414">
        <time>2022-07-24T12:15:52Z</time>
      </trkpt>
      <trkpt lat="39.908586" lon="116.640673">
        <time>2022-07-24T12:15:57Z</time>
      </trkpt>
      <trkpt lat="39.908583" lon="116.640712">
        <time>2022-07-24T12:16:02Z</time>
      </trkpt>
      <trkpt lat="39.908564" lon="116.640972">
        <time>2022-07-24T12:16:07Z</time>
      </trkpt>
      <trkpt lat="39.908557" lon="116.641186">
        <time>2022-07-24T12:16:12Z</time>
      </trkpt>
      <trkpt lat="39.908558" lon="116.641216">
        <time>2022-07-24T12:16:17Z</time>
      </trkpt>
      <trkpt lat="39.908575" lon="116.641497">
        <time>2022-07-24T12:16:22Z</time>
      </trkpt>
      <trkpt lat="39.908568" lon="116.641658">
        <time>2022-07-24T12:16:27Z</time>
      </trkpt>
      <trkpt lat="39.908567" lon="116.641691">
        <time>2022-07-24T12:16:32Z</time>
      </trkpt>
      <trkpt lat="39.908559" lon="116.641991">
        <time>2022-07-24T12:16:37Z</time>
      </trkpt>
      <trkpt lat="39.908569" lon="116.642161">
        <time>2022-07-24T12:16:42Z</time>
      </trkpt>
      <trkpt lat="39.908566" lon="116.642288">
        <time>2022-07-24T12:16:47Z</time>
      </trkpt>
      <trkpt lat="39.908566" lon="116.642288">
        <time>2022-07-24T12:16:52Z</time>
      </trkpt>
      <trkpt lat="39.908582" lon="116.642578">
        <time>2022-07-24T12:16:57Z</time>
      </trkpt>
      <trkpt lat="39.908589" lon="116.642796">
        <time>2022-07-24T12:17:02Z</time>
      </trkpt>
      <trkpt lat="39.908604" lon="116.642961">
        <time>2022-07-24T12:17:07Z</time>
      </trkpt>
      <trkpt lat="39.908605" lon="116.642993">
        <time>2022-07-24T12:17:12Z</time>
      </trkpt>
      <trkpt lat="39.908613" lon="116.643243">
        <time>2022-07-24T12:17:17Z</time>
      </trkpt>
      <trkpt lat="39.908615" lon="116.6434">
        <time>2022-07-24T12:17:22Z</time>
      </trkpt>
      <trkpt lat="39.908615" lon="116.6434">
        <time>2022-07-24T12:17:27Z</time>
      </trkpt>
      <trkpt lat="39.908617" lon="116.643683">
        <time>2022-07-24T12:17:32Z</time>
      </trkpt>
      <trkpt lat="39.908617" lon="116.643712">
        <time>2022-07-24T12:17:37Z</time>
      </trkpt>
      <trkpt lat="39.908622" lon="116.64392">
        <time>2022-07-24T12:17:42Z</time>
      </trkpt>
      <trkpt lat="39.908631" lon="116.644128">
        <time>2022-07-24T12:17:47Z</time>
      </trkpt>
      <trkpt lat="39.90863" lon="116.644157">
        <time>2022-07-24T12:17:52Z</time>
      </trkpt>
      <trkpt lat="39.908624" lon="116.644396">
        <time>2022-07-24T12:17:57Z</time>
      </trkpt>
      <trkpt lat="39.908624" lon="116.644396">
        <time>2022-07-24T12:18:02Z</time>
      </trkpt>
      <trkpt lat="39.908636" lon="116.644681">
        <time>2022-07-24T12:18:07Z</time>
      </trkpt>
      <trkpt lat="39.908653" lon="116.644913">
        <time>2022-07-24T12:18:12Z</time>
      </trkpt>
      <trkpt lat="39.908659" lon="116.645067">
        <time>2022-07-24T12:18:17Z</time>
      </trkpt>
      <trkpt lat="39.908664" lon="116.645098">
        <time>2022-07-24T12:18:22Z</time>
      </trkpt>
      <trkpt lat="39.908712" lon="116.645381">
        <time>2022-07-24T12:18:27Z</time>
      </trkpt>
      <trkpt lat="39.908716" lon="116.645409">
        <time>2022-07-24T12:18:32Z</time>
      </trkpt>
      <trkpt lat="39.908758" lon="116.645644">
        <time>2022-07-24T12:18:37Z</time>
      </trkpt>
      <trkpt lat="39.90881" lon="116.645839">
        <time>2022-07-24T12:18:42Z</time>
      </trkpt>
      <trkpt lat="39.908825" lon="116.645901">
        <time>2022-07-24T12:18:47Z</time>
      </trkpt>
      <trkpt lat="39.908904" lon="116.646147">
        <time>2022-07-24T12:18:52Z</time>
      </trkpt>
      <trkpt lat="39.908904" lon="116.646147">
        <time>2022-07-24T12:18:57Z</time>
      </trkpt>
      <trkpt lat="39.908971" lon="116.646372">
        <time>2022-07-24T12:19:02Z</time>
      </trkpt>
      <trkpt lat="39.909038" lon="116.646623">
        <time>2022-07-24T12:19:07Z</time>
      </trkpt>
      <trkpt lat="39.909049" lon="116.646654">
        <time>2022-07-24T12:19:12Z</time>
      </trkpt>
      <trkpt lat="39.909147" lon="116.646943">
        <time>2022-07-24T12:19:17Z</time>
      </trkpt>
      <trkpt lat="39.909147" lon="116.646943">
        <time>2022-07-24T12:19:22Z</time>
      </trkpt>
      <trkpt lat="39.909215" lon="116.647221">
        <time>2022-07-24T12:19:27Z</time>
      </trkpt>
      <trkpt lat="39.909269" lon="116.647443">
        <time>2022-07-24T12:19:32Z</time>
      </trkpt>
      <trkpt lat="39.909285" lon="116.647503">
        <time>2022-07-24T12:19:37Z</time>
      </trkpt>
      <trkpt lat="39.909357" lon="116.64774">
        <time>2022-07-24T12:19:42Z</time>
      </trkpt>
      <trkpt lat="39.909364" lon="116.64777">
        <time>2022-07-24T12:19:47Z</time>
      </trkpt>
      <trkpt lat="39.909422" lon="116.647978">
        <time>2022-07-24T12:19:52Z</time>
      </trkpt>
      <trkpt lat="39.909493" lon="116.648178">
        <time>2022-07-24T12:19:57Z</time>
      </trkpt>
      <trkpt lat="39.90951" lon="116.648231">
        <time>2022-07-24T12:20:02Z</time>
      </trkpt>
      <trkpt lat="39.909567" lon="116.648424">
        <time>2022-07-24T12:20:07Z</time>
      </trkpt>
      <trkpt lat="39.909617" lon="116.648577">
        <time>2022-07-24T12:20:12Z</time>
      </trkpt>
      <trkpt lat="39.909624" lon="116.648606">
        <time>2022-07-24T12:20:17Z</time>
      </trkpt>
      <trkpt lat="39.909688" lon="116.648871">
        <time>2022-07-24T12:20:22Z</time>
      </trkpt>
      <trkpt lat="39.909717" lon="116.648953">
        <time>2022-07-24T12:20:27Z</time>
      </trkpt>
      <trkpt lat="39.909783" lon="116.649157">
        <time>2022-07-24T12:20:32Z</time>
      </trkpt>
      <trkpt lat="39.909801" lon="116.649237">
        <time>2022-07-24T12:20:37Z</time>
      </trkpt>
      <trkpt lat="39.909853" lon="116.649425">
        <time>2022-07-24T12:20:42Z</time>
      </trkpt>
      <trkpt lat="39.909862" lon="116.649455">
        <time>2022-07-24T12:20:47Z</time>
      </trkpt>
      <trkpt lat="39.909927" lon="116.649666">
        <time>2022-07-24T12:20:52Z</time>
      </trkpt>
      <trkpt lat="39.909955" lon="116.649815">
        <time>2022-07-24T12:20:57Z</time>
      </trkpt>
      <trkpt lat="39.909987" lon="116.650021">
        <time>2022-07-24T12:21:02Z</time>
      </trkpt>
      <trkpt lat="39.909987" lon="116.650021">
        <time>2022-07-24T12:21:07Z</time>
      </trkpt>
      <trkpt lat="39.910017" lon="116.650337">
        <time>2022-07-24T12:21:12Z</time>
      </trkpt>
      <trkpt lat="39.910017" lon="116.650337">
        <time>2022-07-24T12:21:17Z</time>
      </trkpt>
      <trkpt lat="39.910076" lon="116.650552">
        <time>2022-07-24T12:21:22Z</time>
      </trkpt>
      <trkpt lat="39.910046" lon="116.650394">
        <time>2022-07-24T12:21:27Z</time>
      </trkpt>
      <trkpt lat="39.91004" lon="116.650362">
        <time>2022-07-24T12:21:32Z</time>
      </trkpt>
      <trkpt lat="39.909999" lon="116.650105">
        <time>2022-07-24T12:21:37Z</time>
      </trkpt>
      <trkpt lat="39.909991" lon="116.649909">
        <time>2022-07-24T12:21:42Z</time>
      </trkpt>
      <trkpt lat="39.909971" lon="116.649795">
        <time>2022-07-24T12:21:47Z</time>
      </trkpt>
      <trkpt lat="39.909926" lon="116.649623">
        <time>2022-07-24T12:21:52Z</time>
      </trkpt>
      <trkpt lat="39.909873" lon="116.64947">
        <time>2022-07-24T12:21:57Z</time>
      </trkpt>
      <trkpt lat="39.909848" lon="116.649343">
        <time>2022-07-24T12:22:02Z</time>
      </trkpt>
      <trkpt lat="39.909848" lon="116.649343">
        <time>2022-07-24T12:22:07Z</time>
      </trkpt>
      <trkpt lat="39.909801" lon="116.649167">
        <time>2022-07-24T12:22:12Z</time>
      </trkpt>
      <trkpt lat="39.909761" lon="116.648988">
        <time>2022-07-24T12:22:17Z</time>
      </trkpt>
      <trkpt lat="39.909761" lon="116.648988">
        <time>2022-07-24T12:22:22Z</time>
      </trkpt>
      <trkpt lat="39.909691" lon="116.648752">
        <time>2022-07-24T12:22:27Z</time>
      </trkpt>
      <trkpt lat="39.909627" lon="116.648509">
        <time>2022-07-24T12:22:32Z</time>
      </trkpt>
      <trkpt lat="39.90956" lon="116.6483">
        <time>2022-07-24T12:22:37Z</time>
      </trkpt>
      <trkpt lat="39.909497" lon="116.648122">
        <time>2022-07-24T12:22:42Z</time>
      </trkpt>
      <trkpt lat="39.909461" lon="116.648005">
        <time>2022-07-24T12:22:47Z</time>
      </trkpt>
      <trkpt lat="39.909386" lon="116.647737">
        <time>2022-07-24T12:22:52Z</time>
      </trkpt>
      <trkpt lat="39.909334" lon="116.647546">
        <time>2022-07-24T12:22:57Z</time>
      </trkpt>
      <trkpt lat="39.909303" lon="116.647432">
        <time>2022-07-24T12:23:02Z</time>
      </trkpt>
      <trkpt lat="39.909231" lon="116.647172">
        <time>2022-07-24T12:23:07Z</time>
      </trkpt>
      <trkpt lat="39.909168" lon="116.646974">
        <time>2022-07-24T12:23:12Z</time>
      </trkpt>
      <trkpt lat="39.90913" lon="116.646856">
        <time>2022-07-24T12:23:17Z</time>
      </trkpt>
      <trkpt lat="39.909042" lon="116.646614">
        <time>2022-07-24T12:23:22Z</time>
      </trkpt>
      <trkpt lat="39.908991" lon="116.646464">
        <time>2022-07-24T12:23:27Z</time>
      </trkpt>
      <trkpt lat="39.908982" lon="116.646425">
        <time>2022-07-24T12:23:32Z</time>
      </trkpt>
      <trkpt lat="39.908901" lon="116.646091">
        <time>2022-07-24T12:23:37Z</time>
      </trkpt>
      <trkpt lat="39.908846" lon="116.645891">
        <time>2022-07-24T12:23:42Z</time>
      </trkpt>
      <trkpt lat="39.908826" lon="116.645818">
        <time>2022-07-24T12:23:47Z</time>
      </trkpt>
      <trkpt lat="39.908747" lon="116.645526">
        <time>2022-07-24T12:23:52Z</time>
      </trkpt>
      <trkpt lat="39.908715" lon="116.64534">
        <time>2022-07-24T12:23:57Z</time>
      </trkpt>
      <trkpt lat="39.908711" lon="116.645306">
        <time>2022-07-24T12:24:02Z</time>
      </trkpt>
      <trkpt lat="39.908675" lon="116.64504">
        <time>2022-07-24T12:24:07Z</time>
      </trkpt>
      <trkpt lat="39.908673" lon="116.644874">
        <time>2022-07-24T12:24:12Z</time>
      </trkpt>
      <trkpt lat="39.908672" lon="116.644845">
        <time>2022-07-24T12:24:17Z</time>
      </trkpt>
      <trkpt lat="39.908655" lon="116.644572">
        <time>2022-07-24T12:24:22Z</time>
      </trkpt>
      <trkpt lat="39.908653" lon="116.644505">
        <time>2022-07-24T12:24:27Z</time>
      </trkpt>
      <trkpt lat="39.908638" lon="116.644262">
        <time>2022-07-24T12:24:32Z</time>
      </trkpt>
      <trkpt lat="39.908637" lon="116.644227">
        <time>2022-07-24T12:24:37Z</time>
      </trkpt>
      <trkpt lat="39.908627" lon="116.643947">
        <time>2022-07-24T12:24:42Z</time>
      </trkpt>
      <trkpt lat="39.908627" lon="116.643728">
        <time>2022-07-24T12:24:47Z</time>
      </trkpt>
      <trkpt lat="39.908629" lon="116.643703">
        <time>2022-07-24T12:24:52Z</time>
      </trkpt>
      <trkpt lat="39.908639" lon="116.643559">
        <time>2022-07-24T12:24:57Z</time>
      </trkpt>
      <trkpt lat="39.908634" lon="116.643465">
        <time>2022-07-24T12:25:02Z</time>
      </trkpt>
      <trkpt lat="39.908645" lon="116.643283">
        <time>2022-07-24T12:25:07Z</time>
      </trkpt>
      <trkpt lat="39.908638" lon="116.643086">
        <time>2022-07-24T12:25:12Z</time>
      </trkpt>
      <trkpt lat="39.908632" lon="116.642961">
        <time>2022-07-24T12:25:17Z</time>
      </trkpt>
      <trkpt lat="39.908628" lon="116.642782">
        <time>2022-07-24T12:25:22Z</time>
      </trkpt>
      <trkpt lat="39.908619" lon="116.642618">
        <time>2022-07-24T12:25:27Z</time>
      </trkpt>
      <trkpt lat="39.908619" lon="116.642618">
        <time>2022-07-24T12:25:32Z</time>
      </trkpt>
      <trkpt lat="39.908608" lon="116.64233">
        <time>2022-07-24T12:25:37Z</time>
      </trkpt>
      <trkpt lat="39.908603" lon="116.642138">
        <time>2022-07-24T12:25:42Z</time>
      </trkpt>
      <trkpt lat="39.908602" lon="116.642104">
        <time>2022-07-24T12:25:47Z</time>
      </trkpt>
      <trkpt lat="39.908595" lon="116.641899">
        <time>2022-07-24T12:25:52Z</time>
      </trkpt>
      <trkpt lat="39.908582" lon="116.64172">
        <time>2022-07-24T12:25:57Z</time>
      </trkpt>
      <trkpt lat="39.908566" lon="116.64146">
        <time>2022-07-24T12:26:02Z</time>
      </trkpt>
      <trkpt lat="39.908572" lon="116.64137">
        <time>2022-07-24T12:26:07Z</time>
      </trkpt>
      <trkpt lat="39.908581" lon="116.641174">
        <time>2022-07-24T12:26:12Z</time>
      </trkpt>
      <trkpt lat="39.908578" lon="116.641046">
        <time>2022-07-24T12:26:17Z</time>
      </trkpt>
      <trkpt lat="39.90857" lon="116.640901">
        <time>2022-07-24T12:26:22Z</time>
      </trkpt>
      <trkpt lat="39.908567" lon="116.640868">
        <time>2022-07-24T12:26:27Z</time>
      </trkpt>
      <trkpt lat="39.908547" lon="116.640638">
        <time>2022-07-24T12:26:32Z</time>
      </trkpt>
      <trkpt lat="39.908549" lon="116.640474">
        <time>2022-07-24T12:26:37Z</time>
      </trkpt>
      <trkpt lat="39.908554" lon="116.640346">
        <time>2022-07-24T12:26:42Z</time>
      </trkpt>
      <trkpt lat="39.908555" lon="116.640092">
        <time>2022-07-24T12:26:47Z</time>
      </trkpt>
      <trkpt lat="39.908555" lon="116.640092">
        <time>2022-07-24T12:26:52Z</time>
      </trkpt>
      <trkpt lat="39.908548" lon="116.639848">
        <time>2022-07-24T12:26:57Z</time>
      </trkpt>
      <trkpt lat="39.908548" lon="116.639593">
        <time>2022-07-24T12:27:02Z</time>
      </trkpt>
      <trkpt lat="39.90854" lon="116.639369">
        <time>2022-07-24T12:27:07Z</time>
      </trkpt>
      <trkpt lat="39.908524" lon="116.639189">
        <time>2022-07-24T12:27:12Z</time>
      </trkpt>
      <trkpt lat="39.908523" lon="116.639157">
        <time>2022-07-24T12:27:17Z</time>
      </trkpt>
      <trkpt lat="39.908514" lon="116.638965">
        <time>2022-07-24T12:27:22Z</time>
      </trkpt>
      <trkpt lat="39.908512" lon="116.638809">
        <time>2022-07-24T12:27:27Z</time>
      </trkpt>
      <trkpt lat="39.908504" lon="116.63858">
        <time>2022-07-24T12:27:32Z</time>
      </trkpt>
      <trkpt lat="39.908497" lon="116.638357">
        <time>2022-07-24T12:27:37Z</time>
      </trkpt>
      <trkpt lat="39.908473" lon="116.638206">
        <time>2022-07-24T12:27:42Z</time>
      </trkpt>
      <trkpt lat="39.908452" lon="116.638098">
        <time>2022-07-24T12:27:47Z</time>
      </trkpt>
      <trkpt lat="39.908412" lon="116.637933">
        <time>2022-07-24T12:27:52Z</time>
      </trkpt>
      <trkpt lat="39.908344" lon="116.637745">
        <time>2022-07-24T12:27:57Z</time>
      </trkpt>
      <trkpt lat="39.908248" lon="116.637566">
        <time>2022-07-24T12:28:02Z</time>
      </trkpt>
      <trkpt lat="39.908228" lon="116.63741">
        <time>2022-07-24T12:28:07Z</time>
      </trkpt>
      <trkpt lat="39.908228" lon="116.63741">
        <time>2022-07-24T12:28:12Z</time>
      </trkpt>
      <trkpt lat="39.908239" lon="116.637189">
        <time>2022-07-24T12:28:17Z</time>
      </trkpt>
      <trkpt lat="39.908296" lon="116.637">
        <time>2022-07-24T12:28:22Z</time>
      </trkpt>
      <trkpt lat="39.908307" lon="116.636942">
        <time>2022-07-24T12:28:27Z</time>
      </trkpt>
      <trkpt lat="39.908349" lon="116.636763">
        <time>2022-07-24T12:28:32Z</time>
      </trkpt>
      <trkpt lat="39.908379" lon="116.636614">
        <time>2022-07-24T12:28:37Z</time>
      </trkpt>
      <trkpt lat="39.908385" lon="116.636584">
        <time>2022-07-24T12:28:42Z</time>
      </trkpt>
      <trkpt lat="39.908423" lon="116.636403">
        <time>2022-07-24T12:28:47Z</time>
      </trkpt>
      <trkpt lat="39.908479" lon="116.636172">
        <time>2022-07-24T12:28:52Z</time>
      </trkpt>
      <trkpt lat="39.908517" lon="116.636027">
        <time>2022-07-24T12:28:57Z</time>
      </trkpt>
      <trkpt lat="39.908519" lon="116.635996">
        <time>2022-07-24T12:29:02Z</time>
      </trkpt>
      <trkpt lat="39.908537" lon="116.635757">
        <time>2022-07-24T12:29:07Z</time>
      </trkpt>
      <trkpt lat="39.908536" lon="116.635631">
        <time>2022-07-24T12:29:12Z</time>
      </trkpt>
      <trkpt lat="39.908528" lon="116.635495">
        <time>2022-07-24T12:29:17Z</time>
      </trkpt>
      <trkpt lat="39.908522" lon="116.635412">
        <time>2022-07-24T12:29:22Z</time>
      </trkpt>
      <trkpt lat="39.908508" lon="116.635235">
        <time>2022-07-24T12:29:27Z</time>
      </trkpt>
      <trkpt lat="39.9085" lon="116.635058">
        <time>2022-07-24T12:29:32Z</time>
      </trkpt>
      <trkpt lat="39.908501" lon="116.634926">
        <time>2022-07-24T12:29:37Z</time>
      </trkpt>
      <trkpt lat="39.908501" lon="116.6349">
        <time>2022-07-24T12:29:42Z</time>
      </trkpt>
      <trkpt lat="39.908504" lon="116.634688">
        <time>2022-07-24T12:29:47Z</time>
      </trkpt>
      <trkpt lat="39.908499" lon="116.63452">
        <time>2022-07-24T12:29:52Z</time>
      </trkpt>
      <trkpt lat="39.908499" lon="116.63452">
        <time>2022-07-24T12:29:57Z</time>
      </trkpt>
      <trkpt lat="39.90849" lon="116.634328">
        <time>2022-07-24T12:30:02Z</time>
      </trkpt>
      <trkpt lat="39.908477" lon="116.634192">
        <time>2022-07-24T12:30:07Z</time>
      </trkpt>
      <trkpt lat="39.908448" lon="116.633968">
        <time>2022-07-24T12:30:12Z</time>
      </trkpt>
      <trkpt lat="39.908448" lon="116.633968">
        <time>2022-07-24T12:30:17Z</time>
      </trkpt>
      <trkpt lat="39.908438" lon="116.633791">
        <time>2022-07-24T12:30:22Z</time>
      </trkpt>
      <trkpt lat="39.908416" lon="116.633594">
        <time>2022-07-24T12:30:27Z</time>
      </trkpt>
      <trkpt lat="39.908407" lon="116.633455">
        <time>2022-07-24T12:30:32Z</time>
      </trkpt>
      <trkpt lat="39.908413" lon="116.633339">
        <time>2022-07-24T12:30:37Z</time>
      </trkpt>
      <trkpt lat="39.908413" lon="116.633339">
        <time>2022-07-24T12:30:42Z</time>
      </trkpt>
      <trkpt lat="39.908432" lon="116.633102">
        <time>2022-07-24T12:30:47Z</time>
      </trkpt>
      <trkpt lat="39.908432" lon="116.633102">
        <time>2022-07-24T12:30:52Z</time>
      </trkpt>
      <trkpt lat="39.908405" lon="116.63284">
        <time>2022-07-24T12:30:57Z</time>
      </trkpt>
      <trkpt lat="39.908385" lon="116.632633">
        <time>2022-07-24T12:31:02Z</time>
      </trkpt>
      <trkpt lat="39.908375" lon="116.632456">
        <time>2022-07-24T12:31:07Z</time>
      </trkpt>
      <trkpt lat="39.908367" lon="116.63239">
        <time>2022-07-24T12:31:12Z</time>
      </trkpt>
      <trkpt lat="39.908352" lon="116.632202">
        <time>2022-07-24T12:31:17Z</time>
      </trkpt>
      <trkpt lat="39.90833" lon="116.632008">
        <time>2022-07-24T12:31:22Z</time>
      </trkpt>
      <trkpt lat="39.90833" lon="116.632008">
        <time>2022-07-24T12:31:27Z</time>
      </trkpt>
      <trkpt lat="39.908296" lon="116.631754">
        <time>2022-07-24T12:31:32Z</time>
      </trkpt>
      <trkpt lat="39.908285" lon="116.631647">
        <time>2022-07-24T12:31:37Z</time>
      </trkpt>
      <trkpt lat="39.90827" lon="116.631513">
        <time>2022-07-24T12:31:42Z</time>
      </trkpt>
      <trkpt lat="39.908256" lon="116.631338">
        <time>2022-07-24T12:31:47Z</time>
      </trkpt>
      <trkpt lat="39.908239" lon="116.631207">
        <time>2022-07-24T12:31:52Z</time>
      </trkpt>
      <trkpt lat="39.90823" lon="116.631155">
        <time>2022-07-24T12:31:57Z</time>
      </trkpt>
      <trkpt lat="39.908206" lon="116.631002">
        <time>2022-07-24T12:32:02Z</time>
      </trkpt>
      <trkpt lat="39.908167" lon="116.63086">
        <time>2022-07-24T12:32:07Z</time>
      </trkpt>
      <trkpt lat="39.908145" lon="116.630665">
        <time>2022-07-24T12:32:12Z</time>
      </trkpt>
      <trkpt lat="39.908143" lon="116.630637">
        <time>2022-07-24T12:32:17Z</time>
      </trkpt>
      <trkpt lat="39.908122" lon="116.630412">
        <time>2022-07-24T12:32:22Z</time>
      </trkpt>
      <trkpt lat="39.908106" lon="116.630269">
        <time>2022-07-24T12:32:27Z</time>
      </trkpt>
      <trkpt lat="39.908082" lon="116.630106">
        <time>2022-07-24T12:32:32Z</time>
      </trkpt>
      <trkpt lat="39.908063" lon="116.629963">
        <time>2022-07-24T12:32:37Z</time>
      </trkpt>
      <trkpt lat="39.90806" lon="116.629935">
        <time>2022-07-24T12:32:42Z</time>
      </trkpt>
      <trkpt lat="39.908025" lon="116.629677">
        <time>2022-07-24T12:32:47Z</time>
      </trkpt>
      <trkpt lat="39.908004" lon="116.62952">
        <time>2022-07-24T12:32:52Z</time>
      </trkpt>
      <trkpt lat="39.908001" lon="116.629493">
        <time>2022-07-24T12:32:57Z</time>
      </trkpt>
      <trkpt lat="39.907976" lon="116.629241">
        <time>2022-07-24T12:33:02Z</time>
      </trkpt>
      <trkpt lat="39.907975" lon="116.629071">
        <time>2022-07-24T12:33:07Z</time>
      </trkpt>
      <trkpt lat="39.907949" lon="116.628914">
        <time>2022-07-24T12:33:12Z</time>
      </trkpt>
      <trkpt lat="39.907942" lon="116.628884">
        <time>2022-07-24T12:33:17Z</time>
      </trkpt>
      <trkpt lat="39.907903" lon="116.62871">
        <time>2022-07-24T12:33:22Z</time>
      </trkpt>
      <trkpt lat="39.90788" lon="116.628552">
        <time>2022-07-24T12:33:27Z</time>
      </trkpt>
      <trkpt lat="39.907859" lon="116.628417">
        <time>2022-07-24T12:33:32Z</time>
      </trkpt>
      <trkpt lat="39.907859" lon="116.628417">
        <time>2022-07-24T12:33:37Z</time>
      </trkpt>
      <trkpt lat="39.907832" lon="116.628238">
        <time>2022-07-24T12:33:42Z</time>
      </trkpt>
      <trkpt lat="39.907827" lon="116.628077">
        <time>2022-07-24T12:33:47Z</time>
      </trkpt>
      <trkpt lat="39.907798" lon="116.62788">
        <time>2022-07-24T12:33:52Z</time>
      </trkpt>
      <trkpt lat="39.907796" lon="116.627854">
        <time>2022-07-24T12:33:57Z</time>
      </trkpt>
      <trkpt lat="39.907774" lon="116.627642">
        <time>2022-07-24T12:34:02Z</time>
      </trkpt>
      <trkpt lat="39.907758" lon="116.627469">
        <time>2022-07-24T12:34:07Z</time>
      </trkpt>
      <trkpt lat="39.907754" lon="116.627439">
        <time>2022-07-24T12:34:12Z</time>
      </trkpt>
      <trkpt lat="39.907723" lon="116.627231">
        <time>2022-07-24T12:34:17Z</time>
      </trkpt>
      <trkpt lat="39.907685" lon="116.62703">
        <time>2022-07-24T12:34:22Z</time>
      </trkpt>
      <trkpt lat="39.907685" lon="116.62703">
        <time>2022-07-24T12:34:27Z</time>
      </trkpt>
      <trkpt lat="39.907664" lon="116.626786">
        <time>2022-07-24T12:34:32Z</time>
      </trkpt>
      <trkpt lat="39.907638" lon="116.626612">
        <time>2022-07-24T12:34:37Z</time>
      </trkpt>
      <trkpt lat="39.907605" lon="116.626373">
        <time>2022-07-24T12:34:42Z</time>
      </trkpt>
      <trkpt lat="39.907593" lon="116.626275">
        <time>2022-07-24T12:34:47Z</time>
      </trkpt>
      <trkpt lat="39.907576" lon="116.626145">
        <time>2022-07-24T12:34:52Z</time>
      </trkpt>
      <trkpt lat="39.90755" lon="116.62592">
        <time>2022-07-24T12:34:57Z</time>
      </trkpt>
      <trkpt lat="39.90755" lon="116.62592">
        <time>2022-07-24T12:35:02Z</time>
      </trkpt>
      <trkpt lat="39.90753" lon="116.625678">
        <time>2022-07-24T12:35:07Z</time>
      </trkpt>
      <trkpt lat="39.907492" lon="116.625449">
        <time>2022-07-24T12:35:12Z</time>
      </trkpt>
      <trkpt lat="39.907481" lon="116.625347">
        <time>2022-07-24T12:35:17Z</time>
      </trkpt>
      <trkpt lat="39.907455" lon="116.625148">
        <time>2022-07-24T12:35:22Z</time>
      </trkpt>
      <trkpt lat="39.907433" lon="116.624945">
        <time>2022-07-24T12:35:27Z</time>
      </trkpt>
      <trkpt lat="39.907422" lon="116.624859">
        <time>2022-07-24T12:35:32Z</time>
      </trkpt>
      <trkpt lat="39.907411" lon="116.624726">
        <time>2022-07-24T12:35:37Z</time>
      </trkpt>
      <trkpt lat="39.907403" lon="116.624602">
        <time>2022-07-24T12:35:42Z</time>
      </trkpt>
      <trkpt lat="39.9074" lon="116.624459">
        <time>2022-07-24T12:35:47Z</time>
      </trkpt>
      <trkpt lat="39.907382" lon="116.62429">
        <time>2022-07-24T12:35:52Z</time>
      </trkpt>
      <trkpt lat="39.907355" lon="116.623948">
        <time>2022-07-24T12:35:57Z</time>
      </trkpt>
      <trkpt lat="39.907362" lon="116.623781">
        <time>2022-07-24T12:36:02Z</time>
      </trkpt>
      <trkpt lat="39.907317" lon="116.623675">
        <time>2022-07-24T12:36:07Z</time>
      </trkpt>
      <trkpt lat="39.907291" lon="116.623552">
        <time>2022-07-24T12:36:12Z</time>
      </trkpt>
      <trkpt lat="39.907291" lon="116.623552">
        <time>2022-07-24T12:36:17Z</time>
      </trkpt>
      <trkpt lat="39.907261" lon="116.623357">
        <time>2022-07-24T12:36:22Z</time>
      </trkpt>
      <trkpt lat="39.90726" lon="116.623198">
        <time>2022-07-24T12:36:27Z</time>
      </trkpt>
      <trkpt lat="39.907243" lon="116.623045">
        <time>2022-07-24T12:36:32Z</time>
      </trkpt>
      <trkpt lat="39.907233" lon="116.622903">
        <time>2022-07-24T12:36:37Z</time>
      </trkpt>
      <trkpt lat="39.90722" lon="116.622741">
        <time>2022-07-24T12:36:42Z</time>
      </trkpt>
      <trkpt lat="39.907216" lon="116.622609">
        <time>2022-07-24T12:36:47Z</time>
      </trkpt>
      <trkpt lat="39.90721" lon="116.622443">
        <time>2022-07-24T12:36:52Z</time>
      </trkpt>
      <trkpt lat="39.907191" lon="116.622291">
        <time>2022-07-24T12:36:57Z</time>
      </trkpt>
      <trkpt lat="39.90717" lon="116.62219">
        <time>2022-07-24T12:37:02Z</time>
      </trkpt>
      <trkpt lat="39.907153" lon="116.622079">
        <time>2022-07-24T12:37:07Z</time>
      </trkpt>
      <trkpt lat="39.907134" lon="116.621909">
        <time>2022-07-24T12:37:12Z</time>
      </trkpt>
      <trkpt lat="39.907107" lon="116.621753">
        <time>2022-07-24T12:37:17Z</time>
      </trkpt>
      <trkpt lat="39.907083" lon="116.621594">
        <time>2022-07-24T12:37:22Z</time>
      </trkpt>
      <trkpt lat="39.907066" lon="116.62144">
        <time>2022-07-24T12:37:27Z</time>
      </trkpt>
      <trkpt lat="39.907034" lon="116.621248">
        <time>2022-07-24T12:37:32Z</time>
      </trkpt>
      <trkpt lat="39.906997" lon="116.621081">
        <time>2022-07-24T12:37:37Z</time>
      </trkpt>
      <trkpt lat="39.906953" lon="116.620909">
        <time>2022-07-24T12:37:42Z</time>
      </trkpt>
      <trkpt lat="39.906948" lon="116.620733">
        <time>2022-07-24T12:37:47Z</time>
      </trkpt>
      <trkpt lat="39.906965" lon="116.620562">
        <time>2022-07-24T12:37:52Z</time>
      </trkpt>
      <trkpt lat="39.906955" lon="116.620523">
        <time>2022-07-24T12:37:57Z</time>
      </trkpt>
      <trkpt lat="39.906886" lon="116.620213">
        <time>2022-07-24T12:38:02Z</time>
      </trkpt>
      <trkpt lat="39.906852" lon="116.619988">
        <time>2022-07-24T12:38:07Z</time>
      </trkpt>
      <trkpt lat="39.906828" lon="116.61984">
        <time>2022-07-24T12:38:12Z</time>
      </trkpt>
      <trkpt lat="39.906828" lon="116.61984">
        <time>2022-07-24T12:38:17Z</time>
      </trkpt>
      <trkpt lat="39.906796" lon="116.619621">
        <time>2022-07-24T12:38:22Z</time>
      </trkpt>
      <trkpt lat="39.90677" lon="116.619358">
        <time>2022-07-24T12:38:27Z</time>
      </trkpt>
      <trkpt lat="39.906763" lon="116.619265">
        <time>2022-07-24T12:38:32Z</time>
      </trkpt>
      <trkpt lat="39.906735" lon="116.619072">
        <time>2022-07-24T12:38:37Z</time>
      </trkpt>
      <trkpt lat="39.906709" lon="116.618883">
        <time>2022-07-24T12:38:42Z</time>
      </trkpt>
      <trkpt lat="39.906701" lon="116.618798">
        <time>2022-07-24T12:38:47Z</time>
      </trkpt>
      <trkpt lat="39.906691" lon="116.618681">
        <time>2022-07-24T12:38:52Z</time>
      </trkpt>
      <trkpt lat="39.906673" lon="116.618529">
        <time>2022-07-24T12:38:57Z</time>
      </trkpt>
      <trkpt lat="39.906633" lon="116.618276">
        <time>2022-07-24T12:39:02Z</time>
      </trkpt>
      <trkpt lat="39.906617" lon="116.618173">
        <time>2022-07-24T12:39:07Z</time>
      </trkpt>
      <trkpt lat="39.906584" lon="116.617941">
        <time>2022-07-24T12:39:12Z</time>
      </trkpt>
      <trkpt lat="39.906578" lon="116.617882">
        <time>2022-07-24T12:39:17Z</time>
      </trkpt>
      <trkpt lat="39.906549" lon="116.617596">
        <time>2022-07-24T12:39:22Z</time>
      </trkpt>
      <trkpt lat="39.906549" lon="116.617596">
        <time>2022-07-24T12:39:27Z</time>
      </trkpt>
      <trkpt lat="39.906519" lon="116.617333">
        <time>2022-07-24T12:39:32Z</time>
      </trkpt>
      <trkpt lat="39.906485" lon="116.617089">
        <time>2022-07-24T12:39:37Z</time>
      </trkpt>
      <trkpt lat="39.90647" lon="116.616982">
        <time>2022-07-24T12:39:42Z</time>
      </trkpt>
      <trkpt lat="39.906426" lon="116.616722">
        <time>2022-07-24T12:39:47Z</time>
      </trkpt>
      <trkpt lat="39.906417" lon="116.616651">
        <time>2022-07-24T12:39:52Z</time>
      </trkpt>
      <trkpt lat="39.906373" lon="116.616387">
        <time>2022-07-24T12:39:57Z</time>
      </trkpt>
      <trkpt lat="39.906373" lon="116.616387">
        <time>2022-07-24T12:40:02Z</time>
      </trkpt>
      <trkpt lat="39.9063" lon="116.616183">
        <time>2022-07-24T12:40:07Z</time>
      </trkpt>
      <trkpt lat="39.906224" lon="116.615964">
        <time>2022-07-24T12:40:12Z</time>
      </trkpt>
      <trkpt lat="39.906214" lon="116.615936">
        <time>2022-07-24T12:40:17Z</time>
      </trkpt>
      <trkpt lat="39.906113" lon="116.615679">
        <time>2022-07-24T12:40:22Z</time>
      </trkpt>
      <trkpt lat="39.906061" lon="116.615594">
        <time>2022-07-24T12:40:27Z</time>
      </trkpt>
      <trkpt lat="39.906072" lon="116.615689">
        <time>2022-07-24T12:40:32Z</time>
      </trkpt>
      <trkpt lat="39.906104" lon="116.615771">
        <time>2022-07-24T12:40:37Z</time>
      </trkpt>
      <trkpt lat="39.906139" lon="116.61587">
        <time>2022-07-24T12:40:42Z</time>
      </trkpt>
      <trkpt lat="39.906215" lon="116.616016">
        <time>2022-07-24T12:40:47Z</time>
      </trkpt>
      <trkpt lat="39.906265" lon="116.616172">
        <time>2022-07-24T12:40:52Z</time>
      </trkpt>
      <trkpt lat="39.906276" lon="116.616194">
        <time>2022-07-24T12:40:57Z</time>
      </trkpt>
      <trkpt lat="39.906366" lon="116.616373">
        <time>2022-07-24T12:41:02Z</time>
      </trkpt>
      <trkpt lat="39.906427" lon="116.616521">
        <time>2022-07-24T12:41:07Z</time>
      </trkpt>
      <trkpt lat="39.906432" lon="116.616549">
        <time>2022-07-24T12:41:12Z</time>
      </trkpt>
      <trkpt lat="39.906477" lon="116.616769">
        <time>2022-07-24T12:41:17Z</time>
      </trkpt>
      <trkpt lat="39.90652" lon="116.616943">
        <time>2022-07-24T12:41:22Z</time>
      </trkpt>
      <trkpt lat="39.906524" lon="116.616972">
        <time>2022-07-24T12:41:27Z</time>
      </trkpt>
      <trkpt lat="39.906555" lon="116.617179">
        <time>2022-07-24T12:41:32Z</time>
      </trkpt>
      <trkpt lat="39.906582" lon="116.617388">
        <time>2022-07-24T12:41:37Z</time>
      </trkpt>
      <trkpt lat="39.906584" lon="116.617418">
        <time>2022-07-24T12:41:42Z</time>
      </trkpt>
      <trkpt lat="39.906598" lon="116.617631">
        <time>2022-07-24T12:41:47Z</time>
      </trkpt>
      <trkpt lat="39.906613" lon="116.617812">
        <time>2022-07-24T12:41:52Z</time>
      </trkpt>
      <trkpt lat="39.906613" lon="116.617812">
        <time>2022-07-24T12:41:57Z</time>
      </trkpt>
      <trkpt lat="39.906644" lon="116.618047">
        <time>2022-07-24T12:42:02Z</time>
      </trkpt>
      <trkpt lat="39.906681" lon="116.618272">
        <time>2022-07-24T12:42:07Z</time>
      </trkpt>
      <trkpt lat="39.906684" lon="116.618302">
        <time>2022-07-24T12:42:12Z</time>
      </trkpt>
      <trkpt lat="39.906714" lon="116.61858">
        <time>2022-07-24T12:42:17Z</time>
      </trkpt>
      <trkpt lat="39.906715" lon="116.618612">
        <time>2022-07-24T12:42:22Z</time>
      </trkpt>
      <trkpt lat="39.906731" lon="116.61887">
        <time>2022-07-24T12:42:27Z</time>
      </trkpt>
      <trkpt lat="39.906756" lon="116.619061">
        <time>2022-07-24T12:42:32Z</time>
      </trkpt>
      <trkpt lat="39.906769" lon="116.619228">
        <time>2022-07-24T12:42:37Z</time>
      </trkpt>
      <trkpt lat="39.906771" lon="116.619261">
        <time>2022-07-24T12:42:42Z</time>
      </trkpt>
      <trkpt lat="39.906784" lon="116.619459">
        <time>2022-07-24T12:42:47Z</time>
      </trkpt>
      <trkpt lat="39.906794" lon="116.619675">
        <time>2022-07-24T12:42:52Z</time>
      </trkpt>
      <trkpt lat="39.906798" lon="116.619823">
        <time>2022-07-24T12:42:57Z</time>
      </trkpt>
      <trkpt lat="39.906831" lon="116.619962">
        <time>2022-07-24T12:43:02Z</time>
      </trkpt>
      <trkpt lat="39.906875" lon="116.620149">
        <time>2022-07-24T12:43:07Z</time>
      </trkpt>
      <trkpt lat="39.906888" lon="116.620266">
        <time>2022-07-24T12:43:12Z</time>
      </trkpt>
      <trkpt lat="39.906903" lon="116.620436">
        <time>2022-07-24T12:43:17Z</time>
      </trkpt>
      <trkpt lat="39.906921" lon="116.620592">
        <time>2022-07-24T12:43:22Z</time>
      </trkpt>
      <trkpt lat="39.906924" lon="116.620746">
        <time>2022-07-24T12:43:27Z</time>
      </trkpt>
      <trkpt lat="39.906973" lon="116.620877">
        <time>2022-07-24T12:43:32Z</time>
      </trkpt>
      <trkpt lat="39.907029" lon="116.621041">
        <time>2022-07-24T12:43:37Z</time>
      </trkpt>
      <trkpt lat="39.907063" lon="116.621103">
        <time>2022-07-24T12:43:42Z</time>
      </trkpt>
      <trkpt lat="39.907117" lon="116.621259">
        <time>2022-07-24T12:43:47Z</time>
      </trkpt>
      <trkpt lat="39.907129" lon="116.621429">
        <time>2022-07-24T12:43:52Z</time>
      </trkpt>
      <trkpt lat="39.90714" lon="116.62163">
        <time>2022-07-24T12:43:57Z</time>
      </trkpt>
      <trkpt lat="39.907136" lon="116.621865">
        <time>2022-07-24T12:44:02Z</time>
      </trkpt>
      <trkpt lat="39.907156" lon="116.621965">
        <time>2022-07-24T12:44:07Z</time>
      </trkpt>
      <trkpt lat="39.907195" lon="116.622059">
        <time>2022-07-24T12:44:12Z</time>
      </trkpt>
      <trkpt lat="39.907229" lon="116.622171">
        <time>2022-07-24T12:44:17Z</time>
      </trkpt>
      <trkpt lat="39.907249" lon="116.622349">
        <time>2022-07-24T12:44:22Z</time>
      </trkpt>
      <trkpt lat="39.907271" lon="116.622496">
        <time>2022-07-24T12:44:27Z</time>
      </trkpt>
      <trkpt lat="39.907288" lon="116.622642">
        <time>2022-07-24T12:44:32Z</time>
      </trkpt>
      <trkpt lat="39.907308" lon="116.622808">
        <time>2022-07-24T12:44:37Z</time>
      </trkpt>
      <trkpt lat="39.907306" lon="116.622841">
        <time>2022-07-24T12:44:42Z</time>
      </trkpt>
      <trkpt lat="39.907296" lon="116.623111">
        <time>2022-07-24T12:44:47Z</time>
      </trkpt>
      <trkpt lat="39.907322" lon="116.623318">
        <time>2022-07-24T12:44:52Z</time>
      </trkpt>
      <trkpt lat="39.907329" lon="116.623425">
        <time>2022-07-24T12:44:57Z</time>
      </trkpt>
      <trkpt lat="39.90733" lon="116.623449">
        <time>2022-07-24T12:45:02Z</time>
      </trkpt>
      <trkpt lat="39.907341" lon="116.6236">
        <time>2022-07-24T12:45:07Z</time>
      </trkpt>
      <trkpt lat="39.907387" lon="116.623707">
        <time>2022-07-24T12:45:12Z</time>
      </trkpt>
      <trkpt lat="39.907367" lon="116.623538">
        <time>2022-07-24T12:45:17Z</time>
      </trkpt>
      <trkpt lat="39.907312" lon="116.623362">
        <time>2022-07-24T12:45:22Z</time>
      </trkpt>
      <trkpt lat="39.907305" lon="116.623328">
        <time>2022-07-24T12:45:27Z</time>
      </trkpt>
      <trkpt lat="39.907252" lon="116.623087">
        <time>2022-07-24T12:45:32Z</time>
      </trkpt>
      <trkpt lat="39.907218" lon="116.622877">
        <time>2022-07-24T12:45:37Z</time>
      </trkpt>
      <trkpt lat="39.907179" lon="116.622659">
        <time>2022-07-24T12:45:42Z</time>
      </trkpt>
      <trkpt lat="39.907166" lon="116.622513">
        <time>2022-07-24T12:45:47Z</time>
      </trkpt>
      <trkpt lat="39.907159" lon="116.622346">
        <time>2022-07-24T12:45:52Z</time>
      </trkpt>
      <trkpt lat="39.907122" lon="116.622128">
        <time>2022-07-24T12:45:57Z</time>
      </trkpt>
      <trkpt lat="39.907083" lon="116.621908">
        <time>2022-07-24T12:46:02Z</time>
      </trkpt>
      <trkpt lat="39.907047" lon="116.621695">
        <time>2022-07-24T12:46:07Z</time>
      </trkpt>
      <trkpt lat="39.907033" lon="116.621617">
        <time>2022-07-24T12:46:12Z</time>
      </trkpt>
      <trkpt lat="39.906971" lon="116.621299">
        <time>2022-07-24T12:46:17Z</time>
      </trkpt>
      <trkpt lat="39.906955" lon="116.621203">
        <time>2022-07-24T12:46:22Z</time>
      </trkpt>
      <trkpt lat="39.906934" lon="116.621013">
        <time>2022-07-24T12:46:27Z</time>
      </trkpt>
      <trkpt lat="39.906919" lon="116.620842">
        <time>2022-07-24T12:46:32Z</time>
      </trkpt>
      <trkpt lat="39.906903" lon="116.620658">
        <time>2022-07-24T12:46:37Z</time>
      </trkpt>
      <trkpt lat="39.906901" lon="116.6205">
        <time>2022-07-24T12:46:42Z</time>
      </trkpt>
      <trkpt lat="39.906882" lon="116.620338">
        <time>2022-07-24T12:46:47Z</time>
      </trkpt>
      <trkpt lat="39.906887" lon="116.620178">
        <time>2022-07-24T12:46:52Z</time>
      </trkpt>
      <trkpt lat="39.90688" lon="116.620015">
        <time>2022-07-24T12:46:57Z</time>
      </trkpt>
      <trkpt lat="39.906842" lon="116.619867">
        <time>2022-07-24T12:47:02Z</time>
      </trkpt>
      <trkpt lat="39.906821" lon="116.619739">
        <time>2022-07-24T12:47:07Z</time>
      </trkpt>
      <trkpt lat="39.906779" lon="116.619561">
        <time>2022-07-24T12:47:12Z</time>
      </trkpt>
      <trkpt lat="39.906757" lon="116.619393">
        <time>2022-07-24T12:47:17Z</time>
      </trkpt>
      <trkpt lat="39.906745" lon="116.619251">
        <time>2022-07-24T12:47:22Z</time>
      </trkpt>
      <trkpt lat="39.906722" lon="116.619118">
        <time>2022-07-24T12:47:27Z</time>
      </trkpt>
      <trkpt lat="39.906703" lon="116.618914">
        <time>2022-07-24T12:47:32Z</time>
      </trkpt>
      <trkpt lat="39.906703" lon="116.618914">
        <time>2022-07-24T12:47:37Z</time>
      </trkpt>
      <trkpt lat="39.906659" lon="116.618601">
        <time>2022-07-24T12:47:42Z</time>
      </trkpt>
      <trkpt lat="39.906634" lon="116.618397">
        <time>2022-07-24T12:47:47Z</time>
      </trkpt>
      <trkpt lat="39.906625" lon="116.618332">
        <time>2022-07-24T12:47:52Z</time>
      </trkpt>
      <trkpt lat="39.906599" lon="116.618109">
        <time>2022-07-24T12:47:57Z</time>
      </trkpt>
      <trkpt lat="39.906599" lon="116.618109">
        <time>2022-07-24T12:48:02Z</time>
      </trkpt>
      <trkpt lat="39.906586" lon="116.617962">
        <time>2022-07-24T12:48:07Z</time>
      </trkpt>
      <trkpt lat="39.906561" lon="116.617759">
        <time>2022-07-24T12:48:12Z</time>
      </trkpt>
      <trkpt lat="39.906559" lon="116.61773">
        <time>2022-07-24T12:48:17Z</time>
      </trkpt>
      <trkpt lat="39.906534" lon="116.617462">
        <time>2022-07-24T12:48:22Z</time>
      </trkpt>
      <trkpt lat="39.906531" lon="116.617433">
        <time>2022-07-24T12:48:27Z</time>
      </trkpt>
      <trkpt lat="39.906513" lon="116.617251">
        <time>2022-07-24T12:48:32Z</time>
      </trkpt>
      <trkpt lat="39.906486" lon="116.616986">
        <time>2022-07-24T12:48:37Z</time>
      </trkpt>
      <trkpt lat="39.906486" lon="116.616986">
        <time>2022-07-24T12:48:42Z</time>
      </trkpt>
      <trkpt lat="39.906438" lon="116.616719">
        <time>2022-07-24T12:48:47Z</time>
      </trkpt>
      <trkpt lat="39.906411" lon="116.616554">
        <time>2022-07-24T12:48:52Z</time>
      </trkpt>
      <trkpt lat="39.906374" lon="116.616373">
        <time>2022-07-24T12:48:57Z</time>
      </trkpt>
      <trkpt lat="39.906361" lon="116.616346">
        <time>2022-07-24T12:49:02Z</time>
      </trkpt>
      <trkpt lat="39.906232" lon="116.616095">
        <time>2022-07-24T12:49:07Z</time>
      </trkpt>
      <trkpt lat="39.906181" lon="116.615982">
        <time>2022-07-24T12:49:12Z</time>
      </trkpt>
      <trkpt lat="39.906108" lon="116.6158">
        <time>2022-07-24T12:49:17Z</time>
      </trkpt>
      <trkpt lat="39.906108" lon="116.6158">
        <time>2022-07-24T12:49:22Z</time>
      </trkpt>
      <trkpt lat="39.905998" lon="116.615542">
        <time>2022-07-24T12:49:27Z</time>
      </trkpt>
      <trkpt lat="39.905966" lon="116.615458">
        <time>2022-07-24T12:49:32Z</time>
      </trkpt>
      <trkpt lat="39.905964" lon="116.61549">
        <time>2022-07-24T12:49:37Z</time>
      </trkpt>
      <trkpt lat="39.906028" lon="116.615662">
        <time>2022-07-24T12:49:42Z</time>
      </trkpt>
      <trkpt lat="39.906075" lon="116.615751">
        <time>2022-07-24T12:49:47Z</time>
      </trkpt>
      <trkpt lat="39.906163" lon="116.61591">
        <time>2022-07-24T12:49:52Z</time>
      </trkpt>
      <trkpt lat="39.906248" lon="116.616079">
        <time>2022-07-24T12:49:57Z</time>
      </trkpt>
      <trkpt lat="39.906258" lon="116.616106">
        <time>2022-07-24T12:50:02Z</time>
      </trkpt>
      <trkpt lat="39.906321" lon="116.61627">
        <time>2022-07-24T12:50:07Z</time>
      </trkpt>
      <trkpt lat="39.906402" lon="116.616503">
        <time>2022-07-24T12:50:12Z</time>
      </trkpt>
      <trkpt lat="39.906409" lon="116.616535">
        <time>2022-07-24T12:50:17Z</time>
      </trkpt>
      <trkpt lat="39.90645" lon="116.616733">
        <time>2022-07-24T12:50:22Z</time>
      </trkpt>
      <trkpt lat="39.906474" lon="116.616897">
        <time>2022-07-24T12:50:27Z</time>
      </trkpt>
      <trkpt lat="39.906513" lon="116.617127">
        <time>2022-07-24T12:50:32Z</time>
      </trkpt>
      <trkpt lat="39.906529" lon="116.617301">
        <time>2022-07-24T12:50:37Z</time>
      </trkpt>
      <trkpt lat="39.906542" lon="116.617411">
        <time>2022-07-24T12:50:42Z</time>
      </trkpt>
      <trkpt lat="39.906578" lon="116.617675">
        <time>2022-07-24T12:50:47Z</time>
      </trkpt>
      <trkpt lat="39.906582" lon="116.61771">
        <time>2022-07-24T12:50:52Z</time>
      </trkpt>
      <trkpt lat="39.906614" lon="116.617951">
        <time>2022-07-24T12:50:57Z</time>
      </trkpt>
      <trkpt lat="39.90665" lon="116.618163">
        <time>2022-07-24T12:51:02Z</time>
      </trkpt>
      <trkpt lat="39.906672" lon="116.618307">
        <time>2022-07-24T12:51:07Z</time>
      </trkpt>
      <trkpt lat="39.906698" lon="116.618426">
        <time>2022-07-24T12:51:12Z</time>
      </trkpt>
      <trkpt lat="39.906714" lon="116.618515">
        <time>2022-07-24T12:51:17Z</time>
      </trkpt>
      <trkpt lat="39.90675" lon="116.618759">
        <time>2022-07-24T12:51:22Z</time>
      </trkpt>
      <trkpt lat="39.906775" lon="116.618875">
        <time>2022-07-24T12:51:27Z</time>
      </trkpt>
      <trkpt lat="39.906795" lon="116.619023">
        <time>2022-07-24T12:51:32Z</time>
      </trkpt>
      <trkpt lat="39.906793" lon="116.619056">
        <time>2022-07-24T12:51:37Z</time>
      </trkpt>
      <trkpt lat="39.906795" lon="116.61935">
        <time>2022-07-24T12:51:42Z</time>
      </trkpt>
      <trkpt lat="39.906795" lon="116.61944">
        <time>2022-07-24T12:51:47Z</time>
      </trkpt>
      <trkpt lat="39.906798" lon="116.619643">
        <time>2022-07-24T12:51:52Z</time>
      </trkpt>
      <trkpt lat="39.906805" lon="116.619799">
        <time>2022-07-24T12:51:57Z</time>
      </trkpt>
      <trkpt lat="39.906808" lon="116.619828">
        <time>2022-07-24T12:52:02Z</time>
      </trkpt>
      <trkpt lat="39.906838" lon="116.620035">
        <time>2022-07-24T12:52:07Z</time>
      </trkpt>
      <trkpt lat="39.906885" lon="116.620188">
        <time>2022-07-24T12:52:12Z</time>
      </trkpt>
      <trkpt lat="39.906914" lon="116.620431">
        <time>2022-07-24T12:52:17Z</time>
      </trkpt>
      <trkpt lat="39.906946" lon="116.620597">
        <time>2022-07-24T12:52:22Z</time>
      </trkpt>
      <trkpt lat="39.906978" lon="116.62076">
        <time>2022-07-24T12:52:27Z</time>
      </trkpt>
      <trkpt lat="39.90697" lon="116.62094">
        <time>2022-07-24T12:52:32Z</time>
      </trkpt>
      <trkpt lat="39.907007" lon="116.62113">
        <time>2022-07-24T12:52:37Z</time>
      </trkpt>
      <trkpt lat="39.907037" lon="116.621289">
        <time>2022-07-24T12:52:42Z</time>
      </trkpt>
      <trkpt lat="39.907037" lon="116.621289">
        <time>2022-07-24T12:52:47Z</time>
      </trkpt>
      <trkpt lat="39.907105" lon="116.621511">
        <time>2022-07-24T12:52:52Z</time>
      </trkpt>
      <trkpt lat="39.907125" lon="116.621764">
        <time>2022-07-24T12:52:57Z</time>
      </trkpt>
      <trkpt lat="39.907134" lon="116.621846">
        <time>2022-07-24T12:53:02Z</time>
      </trkpt>
      <trkpt lat="39.907163" lon="116.621962">
        <time>2022-07-24T12:53:07Z</time>
      </trkpt>
      <trkpt lat="39.907194" lon="116.622144">
        <time>2022-07-24T12:53:12Z</time>
      </trkpt>
      <trkpt lat="39.9072" lon="116.622237">
        <time>2022-07-24T12:53:17Z</time>
      </trkpt>
      <trkpt lat="39.907213" lon="116.622393">
        <time>2022-07-24T12:53:22Z</time>
      </trkpt>
      <trkpt lat="39.90725" lon="116.622582">
        <time>2022-07-24T12:53:27Z</time>
      </trkpt>
      <trkpt lat="39.907255" lon="116.622772">
        <time>2022-07-24T12:53:32Z</time>
      </trkpt>
      <trkpt lat="39.907286" lon="116.622976">
        <time>2022-07-24T12:53:37Z</time>
      </trkpt>
      <trkpt lat="39.907292" lon="116.623008">
        <time>2022-07-24T12:53:42Z</time>
      </trkpt>
      <trkpt lat="39.907327" lon="116.623202">
        <time>2022-07-24T12:53:47Z</time>
      </trkpt>
      <trkpt lat="39.907341" lon="116.623422">
        <time>2022-07-24T12:53:52Z</time>
      </trkpt>
      <trkpt lat="39.907361" lon="116.623576">
        <time>2022-07-24T12:53:57Z</time>
      </trkpt>
      <trkpt lat="39.907423" lon="116.623703">
        <time>2022-07-24T12:54:02Z</time>
      </trkpt>
      <trkpt lat="39.907404" lon="116.623577">
        <time>2022-07-24T12:54:07Z</time>
      </trkpt>
      <trkpt lat="39.907361" lon="116.623427">
        <time>2022-07-24T12:54:12Z</time>
      </trkpt>
      <trkpt lat="39.907321" lon="116.623278">
        <time>2022-07-24T12:54:17Z</time>
      </trkpt>
      <trkpt lat="39.907296" lon="116.623177">
        <time>2022-07-24T12:54:22Z</time>
      </trkpt>
      <trkpt lat="39.907237" lon="116.622963">
        <time>2022-07-24T12:54:27Z</time>
      </trkpt>
      <trkpt lat="39.907183" lon="116.622746">
        <time>2022-07-24T12:54:32Z</time>
      </trkpt>
      <trkpt lat="39.907154" lon="116.622593">
        <time>2022-07-24T12:54:37Z</time>
      </trkpt>
      <trkpt lat="39.907153" lon="116.622495">
        <time>2022-07-24T12:54:42Z</time>
      </trkpt>
      <trkpt lat="39.907146" lon="116.622375">
        <time>2022-07-24T12:54:47Z</time>
      </trkpt>
      <trkpt lat="39.907154" lon="116.622252">
        <time>2022-07-24T12:54:52Z</time>
      </trkpt>
      <trkpt lat="39.907147" lon="116.622118">
        <time>2022-07-24T12:54:57Z</time>
      </trkpt>
      <trkpt lat="39.907141" lon="116.621993">
        <time>2022-07-24T12:55:02Z</time>
      </trkpt>
      <trkpt lat="39.907121" lon="116.621899">
        <time>2022-07-24T12:55:07Z</time>
      </trkpt>
      <trkpt lat="39.907092" lon="116.621765">
        <time>2022-07-24T12:55:12Z</time>
      </trkpt>
      <trkpt lat="39.907049" lon="116.621571">
        <time>2022-07-24T12:55:17Z</time>
      </trkpt>
      <trkpt lat="39.907016" lon="116.62135">
        <time>2022-07-24T12:55:22Z</time>
      </trkpt>
      <trkpt lat="39.907019" lon="116.621195">
        <time>2022-07-24T12:55:27Z</time>
      </trkpt>
      <trkpt lat="39.90702" lon="116.621169">
        <time>2022-07-24T12:55:32Z</time>
      </trkpt>
      <trkpt lat="39.907018" lon="116.620928">
        <time>2022-07-24T12:55:37Z</time>
      </trkpt>
      <trkpt lat="39.907008" lon="116.620864">
        <time>2022-07-24T12:55:42Z</time>
      </trkpt>
      <trkpt lat="39.906985" lon="116.620707">
        <time>2022-07-24T12:55:47Z</time>
      </trkpt>
      <trkpt lat="39.906926" lon="116.620499">
        <time>2022-07-24T12:55:52Z</time>
      </trkpt>
      <trkpt lat="39.9069" lon="116.620368">
        <time>2022-07-24T12:55:57Z</time>
      </trkpt>
      <trkpt lat="39.906841" lon="116.620136">
        <time>2022-07-24T12:56:02Z</time>
      </trkpt>
      <trkpt lat="39.906826" lon="116.620046">
        <time>2022-07-24T12:56:07Z</time>
      </trkpt>
      <trkpt lat="39.906802" lon="116.619836">
        <time>2022-07-24T12:56:12Z</time>
      </trkpt>
      <trkpt lat="39.906799" lon="116.619801">
        <time>2022-07-24T12:56:17Z</time>
      </trkpt>
      <trkpt lat="39.906773" lon="116.619531">
        <time>2022-07-24T12:56:22Z</time>
      </trkpt>
      <trkpt lat="39.906761" lon="116.619411">
        <time>2022-07-24T12:56:27Z</time>
      </trkpt>
      <trkpt lat="39.906729" lon="116.619198">
        <time>2022-07-24T12:56:32Z</time>
      </trkpt>
      <trkpt lat="39.906726" lon="116.619168">
        <time>2022-07-24T12:56:37Z</time>
      </trkpt>
      <trkpt lat="39.906694" lon="116.618914">
        <time>2022-07-24T12:56:42Z</time>
      </trkpt>
      <trkpt lat="39.906672" lon="116.618766">
        <time>2022-07-24T12:56:47Z</time>
      </trkpt>
      <trkpt lat="39.906659" lon="116.618666">
        <time>2022-07-24T12:56:52Z</time>
      </trkpt>
      <trkpt lat="39.906639" lon="116.618505">
        <time>2022-07-24T12:56:57Z</time>
      </trkpt>
      <trkpt lat="39.906639" lon="116.618505">
        <time>2022-07-24T12:57:02Z</time>
      </trkpt>
      <trkpt lat="39.906617" lon="116.618217">
        <time>2022-07-24T12:57:07Z</time>
      </trkpt>
      <trkpt lat="39.906577" lon="116.617982">
        <time>2022-07-24T12:57:12Z</time>
      </trkpt>
      <trkpt lat="39.906575" lon="116.617953">
        <time>2022-07-24T12:57:17Z</time>
      </trkpt>
      <trkpt lat="39.90655" lon="116.61769">
        <time>2022-07-24T12:57:22Z</time>
      </trkpt>
      <trkpt lat="39.90655" lon="116.61769">
        <time>2022-07-24T12:57:27Z</time>
      </trkpt>
      <trkpt lat="39.906532" lon="116.617505">
        <time>2022-07-24T12:57:32Z</time>
      </trkpt>
      <trkpt lat="39.906516" lon="116.617352">
        <time>2022-07-24T12:57:37Z</time>
      </trkpt>
      <trkpt lat="39.906504" lon="116.617217">
        <time>2022-07-24T12:57:42Z</time>
      </trkpt>
      <trkpt lat="39.906499" lon="116.61718">
        <time>2022-07-24T12:57:47Z</time>
      </trkpt>
      <trkpt lat="39.906467" lon="116.616953">
        <time>2022-07-24T12:57:52Z</time>
      </trkpt>
      <trkpt lat="39.906424" lon="116.616635">
        <time>2022-07-24T12:57:57Z</time>
      </trkpt>
      <trkpt lat="39.906394" lon="116.616426">
        <time>2022-07-24T12:58:02Z</time>
      </trkpt>
      <trkpt lat="39.906384" lon="116.616397">
        <time>2022-07-24T12:58:07Z</time>
      </trkpt>
      <trkpt lat="39.906277" lon="116.616134">
        <time>2022-07-24T12:58:12Z</time>
      </trkpt>
      <trkpt lat="39.906206" lon="116.615998">
        <time>2022-07-24T12:58:17Z</time>
      </trkpt>
      <trkpt lat="39.906194" lon="116.615966">
        <time>2022-07-24T12:58:22Z</time>
      </trkpt>
      <trkpt lat="39.906107" lon="116.615738">
        <time>2022-07-24T12:58:27Z</time>
      </trkpt>
      <trkpt lat="39.906017" lon="116.615523">
        <time>2022-07-24T12:58:32Z</time>
      </trkpt>
      <trkpt lat="39.906005" lon="116.615498">
        <time>2022-07-24T12:58:37Z</time>
      </trkpt>
      <trkpt lat="39.905932" lon="116.615341">
        <time>2022-07-24T12:58:42Z</time>
      </trkpt>
      <trkpt lat="39.905848" lon="116.615103">
        <time>2022-07-24T12:58:47Z</time>
      </trkpt>
      <trkpt lat="39.905851" lon="116.614968">
        <time>2022-07-24T12:58:52Z</time>
      </trkpt>
      <trkpt lat="39.905867" lon="116.614846">
        <time>2022-07-24T12:58:57Z</time>
      </trkpt>
      <trkpt lat="39.905865" lon="116.61482">
        <time>2022-07-24T12:59:02Z</time>
      </trkpt>
      <trkpt lat="39.905844" lon="116.61463">
        <time>2022-07-24T12:59:07Z</time>
      </trkpt>
      <trkpt lat="39.905823" lon="116.61442">
        <time>2022-07-24T12:59:12Z</time>
      </trkpt>
      <trkpt lat="39.905795" lon="116.614247">
        <time>2022-07-24T12:59:17Z</time>
      </trkpt>
      <trkpt lat="39.9058" lon="116.614065">
        <time>2022-07-24T12:59:22Z</time>
      </trkpt>
      <trkpt lat="39.905817" lon="116.613902">
        <time>2022-07-24T12:59:27Z</time>
      </trkpt>
      <trkpt lat="39.905817" lon="116.613902">
        <time>2022-07-24T12:59:32Z</time>
      </trkpt>
      <trkpt lat="39.905848" lon="116.613626">
        <time>2022-07-24T12:59:37Z</time>
      </trkpt>
      <trkpt lat="39.905844" lon="116.613567">
        <time>2022-07-24T12:59:42Z</time>
      </trkpt>
      <trkpt lat="39.905813" lon="116.613623">
        <time>2022-07-24T12:59:47Z</time>
      </trkpt>
      <trkpt lat="39.905818" lon="116.613795">
        <time>2022-07-24T12:59:52Z</time>
      </trkpt>
      <trkpt lat="39.905819" lon="116.613823">
        <time>2022-07-24T12:59:57Z</time>
      </trkpt>
      <trkpt lat="39.905826" lon="116.61405">
        <time>2022-07-24T13:00:02Z</time>
      </trkpt>
      <trkpt lat="39.905826" lon="116.61405">
        <time>2022-07-24T13:00:07Z</time>
      </trkpt>
      <trkpt lat="39.905822" lon="116.614295">
        <time>2022-07-24T13:00:12Z</time>
      </trkpt>
      <trkpt lat="39.905829" lon="116.614447">
        <time>2022-07-24T13:00:17Z</time>
      </trkpt>
      <trkpt lat="39.905836" lon="116.61456">
        <time>2022-07-24T13:00:22Z</time>
      </trkpt>
      <trkpt lat="39.905806" lon="116.614625">
        <time>2022-07-24T13:00:27Z</time>
      </trkpt>
      <trkpt lat="39.90578" lon="116.614735">
        <time>2022-07-24T13:00:32Z</time>
      </trkpt>
      <trkpt lat="39.90577" lon="116.614891">
        <time>2022-07-24T13:00:37Z</time>
      </trkpt>
      <trkpt lat="39.905788" lon="116.615112">
        <time>2022-07-24T13:00:42Z</time>
      </trkpt>
      <trkpt lat="39.905789" lon="116.61514">
        <time>2022-07-24T13:00:47Z</time>
      </trkpt>
      <trkpt lat="39.905798" lon="116.615335">
        <time>2022-07-24T13:00:52Z</time>
      </trkpt>
      <trkpt lat="39.905791" lon="116.615513">
        <time>2022-07-24T13:00:57Z</time>
      </trkpt>
      <trkpt lat="39.90578" lon="116.615645">
        <time>2022-07-24T13:01:02Z</time>
      </trkpt>
      <trkpt lat="39.90578" lon="116.615672">
        <time>2022-07-24T13:01:07Z</time>
      </trkpt>
      <trkpt lat="39.905781" lon="116.615856">
        <time>2022-07-24T13:01:12Z</time>
      </trkpt>
      <trkpt lat="39.905781" lon="116.615995">
        <time>2022-07-24T13:01:17Z</time>
      </trkpt>
      <trkpt lat="39.905781" lon="116.615995">
        <time>2022-07-24T13:01:22Z</time>
      </trkpt>
      <trkpt lat="39.905772" lon="116.61617">
        <time>2022-07-24T13:01:27Z</time>
      </trkpt>
      <trkpt lat="39.905767" lon="116.616409">
        <time>2022-07-24T13:01:32Z</time>
      </trkpt>
      <trkpt lat="39.905767" lon="116.616409">
        <time>2022-07-24T13:01:37Z</time>
      </trkpt>
      <trkpt lat="39.905761" lon="116.616696">
        <time>2022-07-24T13:01:42Z</time>
      </trkpt>
      <trkpt lat="39.905757" lon="116.616727">
        <time>2022-07-24T13:01:47Z</time>
      </trkpt>
      <trkpt lat="39.905731" lon="116.616941">
        <time>2022-07-24T13:01:52Z</time>
      </trkpt>
      <trkpt lat="39.905731" lon="116.616941">
        <time>2022-07-24T13:01:57Z</time>
      </trkpt>
      <trkpt lat="39.905711" lon="116.617183">
        <time>2022-07-24T13:02:02Z</time>
      </trkpt>
      <trkpt lat="39.905695" lon="116.617444">
        <time>2022-07-24T13:02:07Z</time>
      </trkpt>
      <trkpt lat="39.905697" lon="116.617583">
        <time>2022-07-24T13:02:12Z</time>
      </trkpt>
      <trkpt lat="39.90569" lon="116.617784">
        <time>2022-07-24T13:02:17Z</time>
      </trkpt>
      <trkpt lat="39.90569" lon="116.617818">
        <time>2022-07-24T13:02:22Z</time>
      </trkpt>
      <trkpt lat="39.905697" lon="116.618092">
        <time>2022-07-24T13:02:27Z</time>
      </trkpt>
      <trkpt lat="39.905705" lon="116.618308">
        <time>2022-07-24T13:02:32Z</time>
      </trkpt>
      <trkpt lat="39.905703" lon="116.618414">
        <time>2022-07-24T13:02:37Z</time>
      </trkpt>
      <trkpt lat="39.905725" lon="116.618664">
        <time>2022-07-24T13:02:42Z</time>
      </trkpt>
      <trkpt lat="39.905732" lon="116.618732">
        <time>2022-07-24T13:02:47Z</time>
      </trkpt>
      <trkpt lat="39.905751" lon="116.61897">
        <time>2022-07-24T13:02:52Z</time>
      </trkpt>
      <trkpt lat="39.905751" lon="116.61897">
        <time>2022-07-24T13:02:57Z</time>
      </trkpt>
      <trkpt lat="39.905792" lon="116.619225">
        <time>2022-07-24T13:03:02Z</time>
      </trkpt>
      <trkpt lat="39.905792" lon="116.619225">
        <time>2022-07-24T13:03:07Z</time>
      </trkpt>
      <trkpt lat="39.905849" lon="116.61957">
        <time>2022-07-24T13:03:12Z</time>
      </trkpt>
      <trkpt lat="39.905867" lon="116.61968">
        <time>2022-07-24T13:03:17Z</time>
      </trkpt>
      <trkpt lat="39.905882" lon="116.619762">
        <time>2022-07-24T13:03:22Z</time>
      </trkpt>
      <trkpt lat="39.905894" lon="116.619941">
        <time>2022-07-24T13:03:27Z</time>
      </trkpt>
      <trkpt lat="39.905912" lon="116.620135">
        <time>2022-07-24T13:03:32Z</time>
      </trkpt>
      <trkpt lat="39.905915" lon="116.620167">
        <time>2022-07-24T13:03:37Z</time>
      </trkpt>
      <trkpt lat="39.905945" lon="116.62045">
        <time>2022-07-24T13:03:42Z</time>
      </trkpt>
      <trkpt lat="39.905945" lon="116.620477">
        <time>2022-07-24T13:03:47Z</time>
      </trkpt>
      <trkpt lat="39.905946" lon="116.620725">
        <time>2022-07-24T13:03:52Z</time>
      </trkpt>
      <trkpt lat="39.905923" lon="116.620851">
        <time>2022-07-24T13:03:57Z</time>
      </trkpt>
      <trkpt lat="39.905903" lon="116.620975">
        <time>2022-07-24T13:04:02Z</time>
      </trkpt>
      <trkpt lat="39.905905" lon="116.621067">
        <time>2022-07-24T13:04:07Z</time>
      </trkpt>
      <trkpt lat="39.905903" lon="116.621302">
        <time>2022-07-24T13:04:12Z</time>
      </trkpt>
      <trkpt lat="39.905903" lon="116.621331">
        <time>2022-07-24T13:04:17Z</time>
      </trkpt>
      <trkpt lat="39.905904" lon="116.621597">
        <time>2022-07-24T13:04:22Z</time>
      </trkpt>
      <trkpt lat="39.905904" lon="116.621597">
        <time>2022-07-24T13:04:27Z</time>
      </trkpt>
      <trkpt lat="39.905892" lon="116.621883">
        <time>2022-07-24T13:04:32Z</time>
      </trkpt>
      <trkpt lat="39.905892" lon="116.621909">
        <time>2022-07-24T13:04:37Z</time>
      </trkpt>
      <trkpt lat="39.9059" lon="116.62215">
        <time>2022-07-24T13:04:42Z</time>
      </trkpt>
      <trkpt lat="39.905912" lon="116.622306">
        <time>2022-07-24T13:04:47Z</time>
      </trkpt>
      <trkpt lat="39.905933" lon="116.6224">
        <time>2022-07-24T13:04:52Z</time>
      </trkpt>
      <trkpt lat="39.905905" lon="116.622282">
        <time>2022-07-24T13:04:57Z</time>
      </trkpt>
      <trkpt lat="39.905886" lon="116.622129">
        <time>2022-07-24T13:05:02Z</time>
      </trkpt>
      <trkpt lat="39.90588" lon="116.622069">
        <time>2022-07-24T13:05:07Z</time>
      </trkpt>
      <trkpt lat="39.90588" lon="116.621844">
        <time>2022-07-24T13:05:12Z</time>
      </trkpt>
      <trkpt lat="39.905866" lon="116.62164">
        <time>2022-07-24T13:05:17Z</time>
      </trkpt>
      <trkpt lat="39.905822" lon="116.621208">
        <time>2022-07-24T13:05:22Z</time>
      </trkpt>
      <trkpt lat="39.905826" lon="116.621047">
        <time>2022-07-24T13:05:27Z</time>
      </trkpt>
      <trkpt lat="39.905871" lon="116.620794">
        <time>2022-07-24T13:05:32Z</time>
      </trkpt>
      <trkpt lat="39.905928" lon="116.620766">
        <time>2022-07-24T13:05:41Z</time>
      </trkpt>
    </trkseg>
  </trk>
</gpx>